{
  "type": "FeatureCollection",
  "features": [
    {
      "type": "Feature",
      "properties": {
        "osm_id": -304716,
        "boundary": "administrative",
        "admin_level": 2,
        "parents": null,
        "name": "India",
        "local_name": "India",
        "name_en": "India",
        "all_tags": {
          "flag": "http://upload.wikimedia.org/wikipedia/commons/4/41/Flag_of_India.svg",
          "name": "India",
          "name:am": "ህንድ",
          "name:ar": "الهند",
          "name:az": "Hindistan",
          "name:ba": "Һиндостан",
          "name:be": "Індыя",
          "name:bg": "Индия",
          "name:bh": "भारत",
          "name:bi": "India",
          "name:bn": "ভারত",
          "name:bo": "རྒྱ་གར།",
          "name:br": "India",
          "name:bs": "Indija",
          "name:ca": "Índia",
          "name:ce": "ХӀинди",
          "name:co": "India",
          "name:cs": "Indie",
          "name:cv": "Инди",
          "name:cy": "India",
          "name:da": "Indien",
          "name:de": "Indien",
          "name:dv": "އިންޑިޔާ",
          "name:dz": "རྒྱ་གར",
          "name:ee": "India",
          "name:el": "Ινδία",
          "name:en": "India",
          "name:eo": "Barato",
          "name:es": "India",
          "name:et": "India",
          "name:eu": "India",
          "name:fa": "هند",
          "name:fi": "Intia",
          "name:fo": "India",
          "name:fr": "Inde",
          "name:fy": "Yndia",
          "name:ga": "An India",
          "name:gd": "Na h-Innseachan",
          "name:gn": "India",
          "name:gr": "Ἰνδία",
          "name:gu": "ભારત",
          "name:gv": "Yn Injey",
          "name:ha": "Indiya",
          "name:he": "הודו",
          "name:hi": "भारत",
          "name:hr": "Indija",
          "name:ht": "End",
          "name:hu": "India",
          "name:hy": "Հնդկաստան",
          "name:ia": "India",
          "name:id": "India",
          "name:ie": "India",
          "name:ig": "Ndia",
          "name:io": "India",
          "name:is": "Indland",
          "name:it": "India",
          "name:iu": "ᐃᓐᑎᐊ",
          "name:ja": "インド",
          "name:jv": "India",
          "name:ka": "ინდოეთი",
          "name:kg": "India",
          "name:kk": "Үндістан",
          "name:kl": "India",
          "name:km": "ឥណ្ឌា",
          "name:kn": "ಭಾರತ",
          "name:ko": "인도",
          "name:ks": "ہِندوستان",
          "name:ku": "Hindistan",
          "name:kv": "Индия",
          "name:kw": "Eynda",
          "name:ky": "Индия",
          "name:la": "India",
          "name:lb": "Indien",
          "name:li": "India",
          "name:ln": "India",
          "name:lt": "Indija",
          "name:lv": "Indija",
          "name:mg": "India",
          "name:mi": "Īnia",
          "name:mk": "Индија",
          "name:ml": "ഇന്ത്യ",
          "name:mn": "Энэтхэг",
          "name:mo": "Индия",
          "name:mr": "भारत",
          "name:ms": "India",
          "name:mt": "Indja",
          "name:my": "အိန္ဒိယနိုင်ငံ",
          "name:na": "Indjiya",
          "name:ne": "भारत",
          "name:nl": "India",
          "name:nn": "India",
          "name:no": "India",
          "name:nv": "Tó Wónaanídę́ę́ʼ Bitsįʼ Yishtłizhii Bikéyah",
          "name:oc": "Índia",
          "name:or": "ଭାରତ",
          "name:os": "Инди",
          "name:pa": "ਭਾਰਤ",
          "name:pi": "भारत",
          "name:pl": "Indie",
          "name:ps": "هند",
          "name:pt": "Índia",
          "name:qu": "Indya",
          "name:rm": "India",
          "name:rn": "Ubuhindi",
          "name:ro": "India",
          "name:ru": "Индия",
          "name:rw": "Ubuhinde",
          "name:sa": "भारतम्",
          "name:sc": "Ìndia",
          "name:sd": "ڀارت",
          "name:se": "India",
          "name:sh": "Indija",
          "name:si": "භාරත ජනරජය",
          "name:sk": "India",
          "name:sl": "Indija",
          "name:sm": "Igitia",
          "name:so": "Hindiya",
          "name:sq": "India",
          "name:sr": "Индија",
          "name:ss": "INdiya",
          "name:su": "India",
          "name:sv": "Indien",
          "name:sw": "Uhindi",
          "name:ta": "இந்தியா",
          "name:te": "భారత దేశం",
          "name:tg": "Ҳиндустон",
          "name:th": "ประเทศอินเดีย",
          "name:tk": "Hindistan",
          "name:tl": "Indiya",
          "name:to": "ʻInitia",
          "name:tr": "Hindistan",
          "name:ts": "India",
          "name:tt": "Һиндстан",
          "name:ty": "’Inītia",
          "name:ug": "ھىندىستان",
          "name:uk": "Індія",
          "name:ur": "ہندوستان",
          "name:uz": "Hindiston",
          "name:vi": "Ấn Độ",
          "name:vo": "Lindän",
          "name:wa": "Inde",
          "name:wo": "End",
          "name:yi": "אינדיע",
          "name:yo": "Índíà",
          "name:za": "Yindu",
          "name:zh": "印度",
          "name:zu": "INdiya",
          "alt_name": "Hindustan",
          "boundary": "administrative",
          "name:arc": "ܗܢܕܘ",
          "name:azb": "هیندوستان",
          "name:bar": "Indien",
          "name:bcl": "Indya",
          "name:bjn": "India",
          "name:bpy": "ভারত",
          "name:bug": "India",
          "name:bxr": "Энэдхэг",
          "name:cdo": "Éng-dô",
          "name:ceb": "Indya",
          "name:chr": "ᎢᏅᏗᎾ",
          "name:ckb": "ھیندستان",
          "name:crh": "İndistan",
          "name:csb": "Indie",
          "name:din": "Indiɛn",
          "name:diq": "Hindıstan",
          "name:dsb": "Indiska",
          "name:ext": "La Índia",
          "name:frp": "Ende",
          "name:frr": "Indien",
          "name:fur": "Indie",
          "name:gag": "İndiya",
          "name:gan": "印度",
          "name:glk": "هند",
          "name:grc": "Ἰνδία",
          "name:hak": "Yin-thu",
          "name:haw": "‘Īnia",
          "name:hif": "India",
          "name:hsb": "Indiska",
          "name:ilo": "India",
          "name:jbo": ".indias.",
          "name:kbd": "Индиэ",
          "name:kmr": "حندستان",
          "name:krc": "Индия",
          "name:lbe": "Гьиндусттан",
          "name:lez": "Индия",
          "name:lij": "India",
          "name:lmo": "India",
          "name:lrc": "هند",
          "name:ltg": "Iņdeja",
          "name:lzh": "印度",
          "name:mdf": "Индие",
          "name:mwl": "Índia",
          "name:mzn": "هند",
          "name:nah": "India",
          "name:nan": "Ìn-tō͘",
          "name:nap": "Innia",
          "name:nds": "Indien",
          "name:new": "भारत",
          "name:nov": "India",
          "name:nrm": "Înde",
          "name:pam": "India",
          "name:pap": "India",
          "name:pcd": "Inde",
          "name:pih": "Endya",
          "name:pms": "India",
          "name:pnb": "بھارت",
          "name:rmy": "Bharat",
          "name:rue": "Індія",
          "name:sah": "Индия",
          "name:sat": "ᱵᱷᱟᱨᱚᱛ",
          "name:scn": "Innia",
          "name:sco": "Indie",
          "name:smn": "India",
          "name:sms": "Intia",
          "name:srn": "Indiakondre",
          "name:stq": "Indien",
          "name:syc": "ܗܢܕܘ",
          "name:szl": "Indyjŏ",
          "name:tet": "Índia",
          "name:tpi": "India",
          "name:udm": "Индия",
          "name:vec": "India",
          "name:vro": "India",
          "name:war": "Indya",
          "name:wuu": "印度",
          "name:xal": "Индия",
          "name:xmf": "ინდოეთი",
          "name:yue": "印度",
          "name:zea": "India",
          "timezone": "Asia/Kolkata",
          "way_area": "304.146",
          "wikidata": "Q668",
          "ISO3166-1": "IN",
          "wikipedia": "en:India",
          "population": "1407563842",
          "admin_level": "2",
          "alt_name:eo": "Hindujo;Hindio",
          "alt_name:ks": "بًارت",
          "alt_name:ur": "بھارت;انڈیا",
          "alt_name:vi": "Thiên Trúc;Quyên Độc",
          "border_type": "nation",
          "name:nds-nl": "India",
          "driving_side": "left",
          "name:az-Arab": "هیندوستان",
          "name:bat-smg": "Indėjė",
          "name:cbk-zam": "India",
          "name:ku-Arab": "حندستان",
          "name:map-bms": "India",
          "name:roa-rup": "India",
          "name:zh-Hans": "印度",
          "name:zh-Hant": "印度",
          "wikipedia:ks": "ہِندوستان",
          "wikipedia:pa": "ਭਾਰਤ",
          "wikipedia:ur": "بھارت",
          "name:kab-Arab": "لهند",
          "name:roa-tara": "Indie",
          "name:be-tarask": "Індыя",
          "population:date": "2021",
          "ISO3166-1:alpha2": "IN",
          "ISO3166-1:alpha3": "IND",
          "official_name:ar": "جمهورية الهند",
          "official_name:cs": "Indická republika",
          "official_name:de": "Republik Indien",
          "official_name:en": "Republic of India",
          "official_name:eo": "Barata Respubliko",
          "official_name:es": "República de la India",
          "official_name:fa": "جمهوری هندوستان",
          "official_name:fr": "République d'Inde",
          "official_name:ks": "جۆمہوٗرِیہَ ہِندوستان",
          "official_name:pa": "ਭਾਰਤ ਗਣਰਾਜ",
          "official_name:pl": "Republika Indii",
          "official_name:ps": "د هند جمهوريت",
          "official_name:ru": "Республика Индия",
          "official_name:ur": "جمہوریہ ہندوستان",
          "official_name:vi": "Cộng hoà Ấn Độ",
          "ISO3166-1:numeric": "356",
          "official_name:azb": "هیندوستان جومهوریتی",
          "official_name:pnb": "بھارت گنراج",
          "official_name:az-Arab": "هیندوستان جومهوریتی"
        }
      },
      "geometry": {
        "type": "Polygon",
        "coordinates": [
          [
            [
              93,
              13
            ],
            [
              93.22328664214128,
              13
            ],
            [
              93.226494,
              13.009242
            ],
            [
              93.2299761,
              13.0219449
            ],
            [
              93.2322448,
              13.0327201
            ],
            [
              93.233875,
              13.0435248
            ],
            [
              93.234759,
              13.0522519
            ],
            [
              93.235355,
              13.0653926
            ],
            [
              93.2351882,
              13.0764708
            ],
            [
              93.2345604,
              13.0866442
            ],
            [
              93.2334746,
              13.0964087
            ],
            [
              93.2324809,
              13.1028844
            ],
            [
              93.2313863,
              13.1086765
            ],
            [
              93.2353915,
              13.1147147
            ],
            [
              93.2388753,
              13.1203804
            ],
            [
              93.2421094,
              13.1261001
            ],
            [
              93.24616,
              13.1339191
            ],
            [
              93.2498591,
              13.1419036
            ],
            [
              93.2531995,
              13.1500387
            ],
            [
              93.2575239,
              13.1624895
            ],
            [
              93.2609202,
              13.174753
            ],
            [
              93.2620993,
              13.1799377
            ],
            [
              93.2636444,
              13.1880964
            ],
            [
              93.2654074,
              13.201136
            ],
            [
              93.2660975,
              13.2098798
            ],
            [
              93.2663893,
              13.218281
            ],
            [
              93.270548,
              13.2282328
            ],
            [
              93.274143,
              13.2384091
            ],
            [
              93.2763954,
              13.2457338
            ],
            [
              93.2793952,
              13.2573218
            ],
            [
              93.283108,
              13.2665896
            ],
            [
              93.2866307,
              13.2769535
            ],
            [
              93.2890491,
              13.2853974
            ],
            [
              93.2910893,
              13.2939366
            ],
            [
              93.2924854,
              13.300979
            ],
            [
              93.2938209,
              13.3094918
            ],
            [
              93.2947591,
              13.3176137
            ],
            [
              93.2953595,
              13.3257663
            ],
            [
              93.2956439,
              13.3360211
            ],
            [
              93.2955273,
              13.3425564
            ],
            [
              93.2946624,
              13.3556528
            ],
            [
              93.2975289,
              13.3631172
            ],
            [
              93.300322,
              13.3714497
            ],
            [
              93.3038096,
              13.3841521
            ],
            [
              93.306082,
              13.394928
            ],
            [
              93.3071264,
              13.4013842
            ],
            [
              93.3082061,
              13.41009
            ],
            [
              93.3088969,
              13.4188336
            ],
            [
              93.3092238,
              13.4298328
            ],
            [
              93.3089155,
              13.4407489
            ],
            [
              93.3077554,
              13.453853
            ],
            [
              93.3052776,
              13.4699652
            ],
            [
              93.3036061,
              13.4775402
            ],
            [
              93.3015935,
              13.4850787
            ],
            [
              93.2987704,
              13.4945013
            ],
            [
              93.2958387,
              13.5030085
            ],
            [
              93.2934438,
              13.5091124
            ],
            [
              93.2880394,
              13.5211558
            ],
            [
              93.2860603,
              13.5250901
            ],
            [
              93.2807247,
              13.5347703
            ],
            [
              93.2746465,
              13.5444734
            ],
            [
              93.272517,
              13.5476204
            ],
            [
              93.2680787,
              13.5537944
            ],
            [
              93.2628939,
              13.5604225
            ],
            [
              93.2626788,
              13.5720815
            ],
            [
              93.2621764,
              13.5810085
            ],
            [
              93.2617232,
              13.5862106
            ],
            [
              93.2654991,
              13.5988432
            ],
            [
              93.2675574,
              13.607457
            ],
            [
              93.2694813,
              13.6174582
            ],
            [
              93.2710696,
              13.6281296
            ],
            [
              93.2722138,
              13.6410125
            ],
            [
              93.2725303,
              13.6518277
            ],
            [
              93.2722219,
              13.6627428
            ],
            [
              93.2715454,
              13.6714874
            ],
            [
              93.2698008,
              13.6845294
            ],
            [
              93.2681545,
              13.6931499
            ],
            [
              93.266125,
              13.701692
            ],
            [
              93.2623709,
              13.7143226
            ],
            [
              93.2601763,
              13.7205827
            ],
            [
              93.2577796,
              13.7266859
            ],
            [
              93.254263,
              13.7347535
            ],
            [
              93.2483212,
              13.7465545
            ],
            [
              93.2439264,
              13.7541997
            ],
            [
              93.2367046,
              13.7652978
            ],
            [
              93.2314837,
              13.7724296
            ],
            [
              93.2270754,
              13.7779618
            ],
            [
              93.1347222,
              13.8197222
            ],
            [
              93.0469937,
              13.8746866
            ],
            [
              93.0354007,
              13.876141
            ],
            [
              93.0264508,
              13.8768105
            ],
            [
              93.0174796,
              13.8770977
            ],
            [
              93.0085041,
              13.8770019
            ],
            [
              93,
              13.876547978587926
            ],
            [
              93,
              13
            ]
          ]
        ]
      }
    },
    {
      "type": "Feature",
      "properties": {
        "osm_id": -50371,
        "boundary": "administrative",
        "admin_level": 2,
        "parents": null,
        "name": "Myanmar",
        "local_name": "မြန်မာ",
        "name_en": "Myanmar",
        "all_tags": {
          "flag": "http://upload.wikimedia.org/wikipedia/commons/8/8c/Flag_of_Myanmar.svg",
          "name": "မြန်မာ",
          "name:af": "Mianmar",
          "name:am": "ምየንማ",
          "name:an": "Myanmar",
          "name:ar": "بورما",
          "name:az": "Myanma",
          "name:ba": "Мьянма",
          "name:be": "М'янма",
          "name:bg": "Мианмар",
          "name:bi": "Burma",
          "name:bn": "মিয়ানমার",
          "name:bo": "བྷར་མ།",
          "name:br": "Myanmar",
          "name:bs": "Mijanmar",
          "name:ca": "Myanmar",
          "name:ce": "Мьянма",
          "name:cs": "Myanmar",
          "name:cv": "Мьянма",
          "name:cy": "Myanmar",
          "name:da": "Myanmar",
          "name:de": "Myanmar",
          "name:dv": "ބަރުމާ",
          "name:dz": "མེ་མར་",
          "name:el": "Μιανμάρ",
          "name:en": "Myanmar",
          "name:eo": "Birmo / Mjanmao",
          "name:es": "Myanmar",
          "name:et": "Birma",
          "name:eu": "Myanmar",
          "name:fa": "میانمار",
          "name:fi": "Myanmar",
          "name:fo": "Burma",
          "name:fr": "Birmanie",
          "name:fy": "Birma",
          "name:ga": "Maenmar",
          "name:gd": "Mianmar",
          "name:gl": "Myanmar",
          "name:gn": "Miamar",
          "name:gu": "બર્મા",
          "name:gv": "Myanmar",
          "name:he": "מיאנמר",
          "name:hi": "म्यान्मार",
          "name:hr": "Mijanmar",
          "name:ht": "Bimani",
          "name:hu": "Mianmar",
          "name:hy": "Մյանմա",
          "name:ia": "Birmania",
          "name:id": "Myanmar",
          "name:ie": "Myanmar",
          "name:io": "Myanmar",
          "name:is": "Búrma",
          "name:it": "Birmania",
          "name:ja": "ミャンマー",
          "name:jv": "Myanmar",
          "name:ka": "მიანმარი",
          "name:ki": "Myanmar",
          "name:kk": "Мианма",
          "name:km": "មីយ៉ាន់ម៉ា",
          "name:kn": "ಮಯನ್ಮಾರ್",
          "name:ko": "미얀마",
          "name:ku": "Myanmar",
          "name:kv": "Мьянма",
          "name:kw": "Byrmani",
          "name:ky": "Мьянма",
          "name:la": "Birmania",
          "name:lb": "Myanmar",
          "name:li": "Myanmar",
          "name:lo": "ປະເທດມຽນມາ",
          "name:lt": "Mianmaras",
          "name:lv": "Mjanma",
          "name:mg": "Myanmara",
          "name:mi": "Pēma",
          "name:mk": "Мјанмар",
          "name:ml": "മ്യാന്മാർ",
          "name:mn": "Мьянмар",
          "name:mr": "म्यानमार",
          "name:ms": "Myanmar",
          "name:mt": "Myanmar",
          "name:my": "မြန်မာ",
          "name:na": "Miyanmar",
          "name:ne": "म्यानमार",
          "name:nl": "Myanmar",
          "name:nn": "Myanmar",
          "name:no": "Myanmar",
          "name:oc": "Birmania",
          "name:or": "ବର୍ମା",
          "name:os": "Мьянмæ",
          "name:pa": "ਮਿਆਂਮਾਰ",
          "name:pl": "Mjanma",
          "name:ps": "ميانمار",
          "name:pt": "Birmânia",
          "name:qu": "Myanmar",
          "name:ro": "Birmania",
          "name:ru": "Мьянма",
          "name:rw": "Mayanimari",
          "name:sa": "म्यान्मार",
          "name:sc": "Birmania",
          "name:se": "Myanmar",
          "name:sh": "Mianmar",
          "name:si": "බුරුමය",
          "name:sk": "Mjanmarsko",
          "name:sl": "Mjanmar",
          "name:so": "Myanmar",
          "name:sq": "Birmania",
          "name:sr": "Мјанмар",
          "name:ss": "IMayanima",
          "name:su": "Myanmar",
          "name:sv": "Myanmar",
          "name:sw": "Myanmar",
          "name:ta": "மியான்மர்",
          "name:te": "మయన్మార్",
          "name:tg": "Мянма",
          "name:th": "ประเทศพม่า",
          "name:tk": "Mýanma",
          "name:tl": "Myanmar",
          "name:tr": "Myanmar",
          "name:tt": "Мьянма",
          "name:ug": "بىرما",
          "name:uk": "М'янма",
          "name:ur": "میانمار",
          "name:uz": "Birma",
          "name:vi": "Myanma",
          "name:vo": "Mianmarän",
          "name:wo": "Miyanmaar",
          "name:yi": "מיאנמאר",
          "name:yo": "Myanmar",
          "name:za": "Mienjdien",
          "name:zh": "缅甸 / 緬甸",
          "boundary": "administrative",
          "int_name": "Myanmar",
          "name:ace": "Myanmar",
          "name:als": "Myanmar",
          "name:ang": "Burma",
          "name:ast": "Myanmar",
          "name:bar": "Myanmar",
          "name:bcl": "Myanmar",
          "name:bpy": "মায়ানমার",
          "name:bug": "Myanmar",
          "name:bxr": "Мьянмар",
          "name:ceb": "Birmanya",
          "name:ckb": "میانمار",
          "name:crh": "Myanmar",
          "name:csb": "Myanmar",
          "name:diq": "Myanmar",
          "name:dsb": "Myanmar",
          "name:ext": "Myanmar",
          "name:frp": "Birmanie",
          "name:gag": "Myanmar",
          "name:gan": "緬甸",
          "name:hak": "Mién-thien",
          "name:haw": "Puruma",
          "name:hif": "Myanmar",
          "name:hsb": "Myanmar",
          "name:ilo": "Myanmar",
          "name:jbo": "mianmar",
          "name:kbd": "Миянмэ",
          "name:lij": "Myanmar",
          "name:lmo": "Myanmar",
          "name:lzh": "緬甸",
          "name:mzn": "میونمار",
          "name:nah": "Mianma",
          "name:nan": "Myanma",
          "name:nap": "Birmania",
          "name:nds": "Myanmar",
          "name:new": "म्यान्मार",
          "name:nov": "Myanmar",
          "name:pam": "Myanmar",
          "name:pap": "Myanmar",
          "name:pms": "Myanmar",
          "name:pnb": "میانمر",
          "name:sah": "Мьянмар",
          "name:scn": "Myanmar",
          "name:sco": "Myanmar",
          "name:smn": "Myanmar",
          "name:sms": "Myanmar",
          "name:szl": "Birma",
          "name:tet": "Birmánia",
          "name:tzl": "Míanmar",
          "name:udm": "Мьянма",
          "name:vec": "Birmania",
          "name:vro": "Birma",
          "name:war": "Myanmar",
          "name:wuu": "缅甸",
          "name:xal": "Мьянмудин Ниицән",
          "name:xmf": "მიანმარი",
          "name:yue": "緬甸",
          "name:zea": "Myanmar",
          "timezone": "Asia/Yangon",
          "way_area": "70.8987",
          "wikidata": "Q836",
          "ISO3166-1": "MM",
          "wikipedia": "my:မြန်မာနိုင်ငံ",
          "admin_level": "2",
          "alt_name:bn": "মায়ানমার",
          "alt_name:pl": "Birma",
          "old_name:bn": "বার্মা",
          "old_name:es": "Birmania",
          "old_name:fi": "Burma",
          "old_name:ko": "버마",
          "old_name:vi": "Miến Điện;Diến Điện",
          "driving_side": "right",
          "name:bat-smg": "Mianmars",
          "name:map-bms": "Myanmar",
          "name:zh-Hans": "缅甸",
          "name:zh-Hant": "緬甸",
          "name:be-tarask": "М’янма",
          "ISO3166-1:alpha2": "MM",
          "ISO3166-1:alpha3": "MMR",
          "default_language": "my",
          "official_name:bn": "প্রজাতান্ত্রিক ঐক্যতন্ত্রী মিয়ানমার",
          "official_name:cs": "Republika Myanmarský svaz",
          "official_name:en": "Republic of the Union of Myanmar",
          "official_name:es": "República de la Unión de Myanmar",
          "official_name:gn": "Tavakuairetã Joaty Miamar",
          "official_name:pl": "Republika Związku Mjanmy",
          "official_name:pt": "República da União de Myanmar",
          "official_name:ru": "Республика Союз Мьянма",
          "ISO3166-1:numeric": "104"
        }
      },
      "geometry": {
        "type": "Polygon",
        "coordinates": [
          [
            [
              93.0125116,
              13.9762398
            ],
            [
              93.0128396,
              13.9652394
            ],
            [
              93.014025,
              13.9521377
            ],
            [
              93.016085,
              13.9391397
            ],
            [
              93.0190107,
              13.9263011
            ],
            [
              93.021436,
              13.9178578
            ],
            [
              93.0257221,
              13.9055381
            ],
            [
              93.030882,
              13.8932089
            ],
            [
              93.0337644,
              13.8871085
            ],
            [
              93.0369179,
              13.8809883
            ],
            [
              93.1347222,
              13.8197222
            ],
            [
              93.2389619,
              13.7725864
            ],
            [
              93.2436491,
              13.7718735
            ],
            [
              93.2496166,
              13.7725318
            ],
            [
              93.2614107,
              13.7743659
            ],
            [
              93.2672628,
              13.7755225
            ],
            [
              93.2737785,
              13.7770331
            ],
            [
              93.2848552,
              13.7800906
            ],
            [
              93.2924377,
              13.7826038
            ],
            [
              93.3078134,
              13.7882066
            ],
            [
              93.3148867,
              13.7911442
            ],
            [
              93.3218431,
              13.7943377
            ],
            [
              93.3320369,
              13.7995984
            ],
            [
              93.3394784,
              13.8039107
            ],
            [
              93.3495876,
              13.8105014
            ],
            [
              93.4379652,
              13.8583189
            ],
            [
              93.446905,
              13.8618076
            ],
            [
              93.4550818,
              13.865424
            ],
            [
              93.4630897,
              13.8693851
            ],
            [
              93.4709133,
              13.8736835
            ],
            [
              93.4822711,
              13.8807453
            ],
            [
              93.4895701,
              13.8858497
            ],
            [
              93.4966346,
              13.8912601
            ],
            [
              93.5067623,
              13.8999267
            ],
            [
              93.5162888,
              13.9092214
            ],
            [
              93.5247431,
              13.918585
            ],
            [
              93.5305458,
              13.9257617
            ],
            [
              93.5342262,
              13.9306861
            ],
            [
              93.5391698,
              13.9378209
            ],
            [
              93.5434988,
              13.9446349
            ],
            [
              93.5460032,
              13.948841
            ],
            [
              93.550242,
              13.9565717
            ],
            [
              93.5559433,
              13.9684877
            ],
            [
              93.5592957,
              13.9766231
            ],
            [
              93.5622818,
              13.9848934
            ],
            [
              93.5660617,
              13.9975176
            ],
            [
              93.56665673754524,
              14
            ],
            [
              93.01391969535261,
              14
            ],
            [
              93.0139277,
              13.9998249
            ],
            [
              93.0128202,
              13.9871536
            ],
            [
              93.0125116,
              13.9762398
            ]
          ]
        ]
      }
    }
  ]
}