{
  "type": "FeatureCollection",
  "features": [
    {
      "type": "Feature",
      "properties": {
        "osm_id": -2202162,
        "boundary": "administrative",
        "admin_level": 2,
        "parents": null,
        "name": "France",
        "local_name": "France",
        "name_en": "France",
        "all_tags": {
          "flag": "http://upload.wikimedia.org/wikipedia/commons/c/c3/Flag_of_France.svg",
          "name": "France",
          "name:af": "Frankryk",
          "name:ak": "Frɛnkyeman",
          "name:am": "ፈረንሣይ",
          "name:an": "Francia",
          "name:ar": "فرنسا",
          "name:as": "ফ্ৰান্স",
          "name:ay": "Phransiya",
          "name:az": "Fransa",
          "name:ba": "Франция",
          "name:be": "Францыя",
          "name:bg": "Франция",
          "name:bi": "Franis",
          "name:bm": "France",
          "name:bn": "ফ্রান্স",
          "name:bo": "ཧྥ་རན་སི།",
          "name:br": "Bro-C'hall",
          "name:bs": "Francuska",
          "name:ca": "França",
          "name:ce": "Франци",
          "name:co": "Francia",
          "name:cs": "Francie",
          "name:cu": "Франкїꙗ",
          "name:cv": "Франци",
          "name:cy": "Ffrainc",
          "name:da": "Frankrig",
          "name:de": "Frankreich",
          "name:dv": "ފަރަންސޭސިވިލާތް",
          "name:dz": "ཕརཱནསི་",
          "name:ee": "France",
          "name:el": "Γαλλία",
          "name:en": "France",
          "name:eo": "Francio",
          "name:es": "Francia",
          "name:et": "Prantsusmaa",
          "name:eu": "Frantzia",
          "name:fa": "فرانسه",
          "name:ff": "Faransi",
          "name:fi": "Ranska",
          "name:fo": "Frakland",
          "name:fr": "France",
          "name:fy": "Frankryk",
          "name:ga": "An Fhrainc",
          "name:gd": "An Fhraing",
          "name:gl": "Francia",
          "name:gn": "Hyãsia",
          "name:gu": "ફ્રાન્સ",
          "name:gv": "Yn Rank",
          "name:ha": "Faransa",
          "name:he": "צרפת",
          "name:hi": "फ़्रान्स",
          "name:hr": "Francuska",
          "name:ht": "Frans",
          "name:hu": "Franciaország",
          "name:hy": "Ֆրանսիա",
          "name:ia": "Francia",
          "name:id": "Perancis",
          "name:ie": "Francia",
          "name:ii": "ꃔꇩ",
          "name:io": "Francia",
          "name:is": "Frakkland",
          "name:it": "Francia",
          "name:ja": "フランス",
          "name:jv": "Prancis",
          "name:ka": "საფრანგეთი",
          "name:kg": "Fwalansa",
          "name:ki": "Ubaranja",
          "name:kk": "Франция",
          "name:kl": "Frankrigi",
          "name:km": "បារាំង",
          "name:kn": "ಫ್ರಾನ್ಸ್",
          "name:ko": "프랑스",
          "name:ks": "فرٛانس",
          "name:ku": "Fransa",
          "name:kv": "Франция",
          "name:kw": "Pow Frynk",
          "name:ky": "Франция",
          "name:la": "Francia",
          "name:lb": "Frankräich",
          "name:lg": "Bufalansa",
          "name:li": "Frankriek",
          "name:ln": "Falansia",
          "name:lo": "ປະເທດຝະລັ່ງ",
          "name:lt": "Prancūzija",
          "name:lv": "Francija",
          "name:mg": "Frantsa",
          "name:mi": "Wīwī",
          "name:mk": "Франција",
          "name:ml": "ഫ്രാൻസ്",
          "name:mn": "Франц",
          "name:mo": "Франца",
          "name:mr": "फ्रान्स",
          "name:ms": "Perancis",
          "name:mt": "Franza",
          "name:my": "ပြင်သစ်နိုင်ငံ",
          "name:na": "Prant",
          "name:ne": "फ्रान्स",
          "name:nl": "Frankrijk",
          "name:nn": "Frankrike",
          "name:no": "Frankrike",
          "name:nv": "Dáághahii Dineʼé Bikéyah",
          "name:oc": "França",
          "name:or": "ଫ୍ରାନ୍ସ",
          "name:os": "Франц",
          "name:pa": "ਫ੍ਰਾਂਸ",
          "name:pl": "Francja",
          "name:ps": "فرانسه",
          "name:pt": "França",
          "name:qu": "Ransiya",
          "name:rm": "Frantscha",
          "name:rn": "Francia",
          "name:ro": "Franța",
          "name:ru": "Франция",
          "name:rw": "Ubufaransa",
          "name:sa": "फ्रान्सदेशः",
          "name:sc": "Frantza",
          "name:se": "Frankriika",
          "name:sg": "Farânzi",
          "name:sh": "Francuska",
          "name:si": "ප්රංශය",
          "name:sk": "Francúzsko",
          "name:sl": "Francija",
          "name:sm": "Farani",
          "name:so": "Faransiiska",
          "name:sq": "Franca",
          "name:sr": "Француска",
          "name:ss": "IFulansi",
          "name:st": "Fora",
          "name:su": "Perancis",
          "name:sv": "Frankrike",
          "name:sw": "Ufaransa",
          "name:ta": "பிரான்சு",
          "name:te": "ఫ్రాన్స్",
          "name:tg": "Фаронса",
          "name:th": "ประเทศฝรั่งเศส",
          "name:ti": "ፈረንሳይ",
          "name:tk": "Fransiýa",
          "name:tl": "Pransiya",
          "name:to": "Falanisē",
          "name:tr": "Fransa",
          "name:tt": "Франция",
          "name:ty": "Farāni",
          "name:ug": "فرانسىيە",
          "name:uk": "Франція",
          "name:ur": "فرانس",
          "name:uz": "Fransiya",
          "name:vi": "Pháp",
          "name:vo": "Fransän",
          "name:wa": "France",
          "name:wo": "Faraas",
          "name:yi": "פראנקרייך",
          "name:yo": "Fránsì",
          "name:za": "Fazgoz",
          "name:zh": "法国/法國",
          "name:zu": "IFulansi",
          "boundary": "administrative",
          "currency": "EUR",
          "int_name": "France",
          "name:ace": "Peurancih",
          "name:ang": "Francland",
          "name:arc": "ܦܪܢܣܐ",
          "name:arz": "فرنسا",
          "name:ast": "Francia",
          "name:bar": "Frankreich",
          "name:bcl": "Pransya",
          "name:bjn": "Parancis",
          "name:bpy": "ফ্রান্স",
          "name:bug": "Perancis",
          "name:bxr": "Франци",
          "name:cdo": "Huák-guók",
          "name:ceb": "Pransiya",
          "name:chr": "ᎦᎸᏥᏱ",
          "name:chy": "France",
          "name:ckb": "فەڕەنسا",
          "name:crh": "Frenkistan",
          "name:csb": "Francëjô",
          "name:diq": "Fransa",
          "name:dsb": "Francojska",
          "name:eml": "Franza",
          "name:ext": "Fráncia",
          "name:frp": "France",
          "name:frr": "Frånkrik",
          "name:fur": "France",
          "name:gag": "Franțiya",
          "name:gan": "法國",
          "name:grc": "Γαλλία",
          "name:gsw": "Frankreich",
          "name:hak": "Fap-koet",
          "name:haw": "Palani",
          "name:hif": "France",
          "name:hsb": "Francoska",
          "name:ilo": "Pransia",
          "name:jbo": "fasygu'e'Eyn",
          "name:kaa": "Frantsiya",
          "name:kab": "Fransa",
          "name:kbd": "Фрэндж",
          "name:koi": "Франс",
          "name:krc": "Франция",
          "name:ksh": "Frankreich",
          "name:lad": "Fransia",
          "name:lez": "Франция",
          "name:lfn": "Frans",
          "name:lij": "Fransa",
          "name:lmo": "Frància",
          "name:ltg": "Praņceja",
          "name:lzh": "法國",
          "name:mdf": "Кранцмастор",
          "name:mhr": "Франций",
          "name:min": "Parancih",
          "name:mwl": "Fráncia",
          "name:myv": "Франция Мастор",
          "name:mzn": "فرانسه",
          "name:nah": "Francia",
          "name:nan": "Hoat-kok",
          "name:nap": "Franza",
          "name:nds": "Frankriek",
          "name:nov": "Fransia",
          "name:nrm": "France",
          "name:nso": "Fora",
          "name:pag": "Fransia",
          "name:pam": "Pransiya",
          "name:pap": "Fransia",
          "name:pcd": "Franche",
          "name:pdc": "Frankreich",
          "name:pfl": "Frongraisch",
          "name:pih": "France",
          "name:pms": "Fransa",
          "name:pnb": "فرانس",
          "name:pnt": "Γαλλία",
          "name:rmy": "Franchiya",
          "name:rue": "Франція",
          "name:sah": "Франция",
          "name:scn": "Francia",
          "name:sco": "Fraunce",
          "name:sje": "Frankrijjka",
          "name:smn": "Ránská",
          "name:sms": "Franskkjânnam",
          "name:srn": "Franskondre",
          "name:stq": "Frankriek",
          "name:szl": "Francyjŏ",
          "name:tet": "Fransa",
          "name:tok": "ma Kanse",
          "name:tpi": "Frens",
          "name:tzl": "França",
          "name:udm": "Франция",
          "name:vec": "Fransa",
          "name:vep": "Francii",
          "name:vls": "Vrankryk",
          "name:vro": "Prantsusmaa",
          "name:war": "Fransya",
          "name:wuu": "法国",
          "name:xal": "Пранцсин Орн",
          "name:xmf": "საფრანგეთი",
          "name:yue": "法國",
          "name:zea": "Frankriek",
          "way_area": "124.365",
          "wikidata": "Q142",
          "ISO3166-1": "FR",
          "wikipedia": "fr:France",
          "euro_const": "FR",
          "population": "67852556",
          "admin_level": "2",
          "alt_name:eo": "Francujo",
          "alt_name:zh": "法兰西/法蘭西",
          "border_type": "territorial",
          "name:nds-nl": "Frankriek",
          "name:bat-smg": "Prancūzėjė",
          "name:cbk-zam": "Francia",
          "name:zh-Hans": "法国",
          "name:zh-Hant": "法國",
          "name:roa-tara": "Frange",
          "official_name": "République française",
          "name:be-tarask": "Францыя",
          "name:zh_pinyin": "Fǎguó",
          "ISO3166-1:alpha2": "FR",
          "ISO3166-1:alpha3": "FRA",
          "alt_name:zh-Hans": "法兰西",
          "alt_name:zh-Hant": "法蘭西",
          "default_language": "fr",
          "official_name:ar": "الجمهورية الفرنسية",
          "official_name:be": "Рэспубліка Францыя",
          "official_name:br": "Republik Frañs",
          "official_name:ca": "República Francesa",
          "official_name:cs": "Francouzská republika",
          "official_name:el": "Γαλλική Δημοκρατία",
          "official_name:en": "French Republic",
          "official_name:eo": "Franca Respubliko",
          "official_name:es": "República francesa",
          "official_name:et": "Prantsuse Vabariik",
          "official_name:eu": "Frantziako Errepublika",
          "official_name:fa": "جمهوری فرانسه",
          "official_name:fr": "République française",
          "official_name:gd": "Poblachd na Frainge",
          "official_name:id": "Republik Perancis",
          "official_name:it": "Repubblica francese",
          "official_name:ku": "Komara Fransayê",
          "official_name:lb": "Franséisch Republik",
          "official_name:lt": "Prancūzijos Respublika",
          "official_name:mo": "Република Франчезэ",
          "official_name:nl": "Franse Republiek",
          "official_name:ps": "د فرانسې جمهوریت",
          "official_name:pt": "República Francesa",
          "official_name:ru": "Французская Республика",
          "official_name:sk": "Francúzska republika",
          "official_name:sl": "Francoska republika",
          "official_name:sr": "Република Француска",
          "official_name:sv": "Republiken Frankrike",
          "official_name:ug": "فرانسىيە جۇمھۇرىيىتى",
          "official_name:ur": "جمہوریہ فرانس",
          "official_name:uz": "Fransiya Respublikasi",
          "official_name:vi": "Cộng hòa Pháp",
          "official_name:zh": "法兰西共和国/法蘭西共和國",
          "ISO3166-1:numeric": "250",
          "official_name:azb": "فرانسه جومهوریتی",
          "official_name:ckb": "کۆماری فەڕەنسا",
          "official_name:vls": "Fransche Republik",
          "official_name:zh-Hans": "法兰西共和国",
          "official_name:zh-Hant": "法蘭西共和國",
          "official_name:be-tarask": "Рэспубліка Францыя"
        }
      },
      "geometry": {
        "type": "MultiPolygon",
        "coordinates": [
          [
            [
              [
                -141.86984920807097,
                -19
              ],
              [
                -141.8678203,
                -19.0006251
              ],
              [
                -141.8578313,
                -19.0032499
              ],
              [
                -141.8477188,
                -19.0053884
              ],
              [
                -141.8426242,
                -19.0062735
              ],
              [
                -141.832374,
                -19.0076727
              ],
              [
                -141.8220641,
                -19.0085744
              ],
              [
                -141.8117205,
                -19.0089763
              ],
              [
                -141.7978109,
                -19.0088395
              ],
              [
                -141.78715,
                -19.0082047
              ],
              [
                -141.7765373,
                -19.0070387
              ],
              [
                -141.7615978,
                -19.0047809
              ],
              [
                -141.751788,
                -19.0027422
              ],
              [
                -141.74127235743228,
                -19
              ],
              [
                -141.86984920807097,
                -19
              ]
            ]
          ],
          [
            [
              [
                -141.4693462,
                -19.1893909
              ],
              [
                -141.4690729,
                -19.2028463
              ],
              [
                -141.4684444,
                -19.2119858
              ],
              [
                -141.4673826,
                -19.2210879
              ],
              [
                -141.4653062,
                -19.23359
              ],
              [
                -141.4631183,
                -19.2435493
              ],
              [
                -141.4604076,
                -19.2533879
              ],
              [
                -141.4588584,
                -19.258254
              ],
              [
                -141.4539599,
                -19.2718426
              ],
              [
                -141.4488676,
                -19.2843742
              ],
              [
                -141.4436101,
                -19.295555
              ],
              [
                -141.4391764,
                -19.3042493
              ],
              [
                -141.4346522,
                -19.3122847
              ],
              [
                -141.4297517,
                -19.3201115
              ],
              [
                -141.4221282,
                -19.3311463
              ],
              [
                -141.4142533,
                -19.3416476
              ],
              [
                -141.4078982,
                -19.3492114
              ],
              [
                -141.4011688,
                -19.3564668
              ],
              [
                -141.3940809,
                -19.3633964
              ],
              [
                -141.3866516,
                -19.3699839
              ],
              [
                -141.3788984,
                -19.3762135
              ],
              [
                -141.3686848,
                -19.3837469
              ],
              [
                -141.360771,
                -19.388975
              ],
              [
                -141.3526147,
                -19.3938429
              ],
              [
                -141.3404553,
                -19.4002583
              ],
              [
                -141.3316151,
                -19.4044891
              ],
              [
                -141.322576,
                -19.4083076
              ],
              [
                -141.3133585,
                -19.411705
              ],
              [
                -141.3039837,
                -19.4146738
              ],
              [
                -141.2944729,
                -19.417207
              ],
              [
                -141.2896732,
                -19.4183085
              ],
              [
                -141.2799992,
                -19.4201779
              ],
              [
                -141.2702437,
                -19.4215993
              ],
              [
                -141.2579048,
                -19.4229192
              ],
              [
                -141.2457822,
                -19.4236209
              ],
              [
                -141.2356384,
                -19.4237377
              ],
              [
                -141.2255008,
                -19.4233735
              ],
              [
                -141.215394,
                -19.4225293
              ],
              [
                -141.2053422,
                -19.4212071
              ],
              [
                -141.1954127,
                -19.4195357
              ],
              [
                -141.1904854,
                -19.4185536
              ],
              [
                -141.1807124,
                -19.4162435
              ],
              [
                -141.1710674,
                -19.4134767
              ],
              [
                -141.1615732,
                -19.4102598
              ],
              [
                -141.1522523,
                -19.4066004
              ],
              [
                -141.1431268,
                -19.4025072
              ],
              [
                -141.1307338,
                -19.3962376
              ],
              [
                -141.1216491,
                -19.3911969
              ],
              [
                -141.1128406,
                -19.3857181
              ],
              [
                -141.1085469,
                -19.3828187
              ],
              [
                -141.1001948,
                -19.3767093
              ],
              [
                -141.0921738,
                -19.3701989
              ],
              [
                -141.0829161,
                -19.3619577
              ],
              [
                -141.07391,
                -19.353107
              ],
              [
                -141.0671081,
                -19.3456462
              ],
              [
                -141.060699,
                -19.3378676
              ],
              [
                -141.0546988,
                -19.3297904
              ],
              [
                -141.0491223,
                -19.3214348
              ],
              [
                -141.0439834,
                -19.3128214
              ],
              [
                -141.0392947,
                -19.3039715
              ],
              [
                -141.035068,
                -19.2949072
              ],
              [
                -141.0305153,
                -19.2836695
              ],
              [
                -141.0271369,
                -19.2738782
              ],
              [
                -141.024287,
                -19.2639313
              ],
              [
                -141.021973,
                -19.2538555
              ],
              [
                -141.0197737,
                -19.2412828
              ],
              [
                -141.0186059,
                -19.2318484
              ],
              [
                -141.0179042,
                -19.222371
              ],
              [
                -141.0176701,
                -19.2091508
              ],
              [
                -141.0179302,
                -19.1991383
              ],
              [
                -141.0187098,
                -19.189151
              ],
              [
                -141.0203636,
                -19.1764711
              ],
              [
                -141.0221482,
                -19.1667231
              ],
              [
                -141.0244308,
                -19.1570726
              ],
              [
                -141.0272058,
                -19.1475433
              ],
              [
                -141.0304665,
                -19.1381585
              ],
              [
                -141.0352742,
                -19.1263664
              ],
              [
                -141.0413561,
                -19.1135045
              ],
              [
                -141.0452944,
                -19.1059723
              ],
              [
                -141.0505991,
                -19.0965825
              ],
              [
                -141.0564169,
                -19.0874806
              ],
              [
                -141.0618286,
                -19.079823
              ],
              [
                -141.06815,
                -19.0714936
              ],
              [
                -141.0749088,
                -19.0634911
              ],
              [
                -141.0853175,
                -19.0521576
              ],
              [
                -141.0920341,
                -19.0454009
              ],
              [
                -141.0990715,
                -19.0389559
              ],
              [
                -141.1112975,
                -19.0284723
              ],
              [
                -141.1195317,
                -19.0221408
              ],
              [
                -141.1280888,
                -19.0162224
              ],
              [
                -141.1369467,
                -19.0107324
              ],
              [
                -141.1460824,
                -19.0056851
              ],
              [
                -141.1507471,
                -19.0033316
              ],
              [
                -141.157888578773,
                -19
              ],
              [
                -141.34815520963707,
                -19
              ],
              [
                -141.3544045,
                -19.0030093
              ],
              [
                -141.3631927,
                -19.0077713
              ],
              [
                -141.3717303,
                -19.0129414
              ],
              [
                -141.3799968,
                -19.0185073
              ],
              [
                -141.3840222,
                -19.0214346
              ],
              [
                -141.3941154,
                -19.0293536
              ],
              [
                -141.4018381,
                -19.036058
              ],
              [
                -141.4092025,
                -19.0431285
              ],
              [
                -141.41619,
                -19.0505475
              ],
              [
                -141.4227829,
                -19.058296
              ],
              [
                -141.4289647,
                -19.0663545
              ],
              [
                -141.4347196,
                -19.0747028
              ],
              [
                -141.4400332,
                -19.0833197
              ],
              [
                -141.4448921,
                -19.0921836
              ],
              [
                -141.4507058,
                -19.1044182
              ],
              [
                -141.4543138,
                -19.1129314
              ],
              [
                -141.4575119,
                -19.1215961
              ],
              [
                -141.4589551,
                -19.1259795
              ],
              [
                -141.4615261,
                -19.1348368
              ],
              [
                -141.4644739,
                -19.1468199
              ],
              [
                -141.4668287,
                -19.1592716
              ],
              [
                -141.4681926,
                -19.1692661
              ],
              [
                -141.4690325,
                -19.1793145
              ],
              [
                -141.4693462,
                -19.1893909
              ]
            ]
          ]
        ]
      }
    }
  ]
}