{
  "type": "FeatureCollection",
  "features": [
    {
      "type": "Feature",
      "properties": {
        "osm_id": -304934,
        "boundary": "administrative",
        "admin_level": 2,
        "parents": null,
        "name": "Iraq",
        "local_name": "العراق",
        "name_en": "Iraq",
        "all_tags": {
          "flag": "http://upload.wikimedia.org/wikipedia/commons/f/f6/Flag_of_Iraq.svg",
          "name": "العراق",
          "name:af": "Irak",
          "name:ak": "Irak",
          "name:am": "ኢራቅ",
          "name:an": "Iraq",
          "name:ar": "العراق",
          "name:av": "ГӀиракъ",
          "name:az": "İrak",
          "name:be": "Ірак",
          "name:bg": "Ирак",
          "name:bm": "Iraki",
          "name:bn": "ইরাক",
          "name:bo": "ཡི་ལའ་ཁོ།",
          "name:br": "Irak",
          "name:bs": "Irak",
          "name:ca": "Iraq",
          "name:ce": "Ӏиракъ",
          "name:cs": "Irák",
          "name:cv": "Ирак",
          "name:cy": "Irac",
          "name:da": "Irak",
          "name:de": "Irak",
          "name:dv": "ޢިރާޤު",
          "name:dz": "ཨི་རཱཀ",
          "name:ee": "iraqdukɔ",
          "name:el": "Ιράκ",
          "name:en": "Iraq",
          "name:eo": "Irako",
          "name:es": "Irak",
          "name:et": "Iraak",
          "name:eu": "Irak",
          "name:fa": "عراق",
          "name:ff": "Iraak",
          "name:fi": "Irak",
          "name:fo": "Irak",
          "name:fr": "Irak",
          "name:fy": "Irak",
          "name:ga": "An Iaráic",
          "name:gd": "Ioràc",
          "name:gl": "Iraq",
          "name:gn": "Iráke",
          "name:gu": "ઈરાક",
          "name:gv": "Yn Earack",
          "name:ha": "Iraƙi",
          "name:he": "עיראק",
          "name:hi": "इराक़",
          "name:hr": "Irak",
          "name:ht": "Irak",
          "name:hu": "Irak",
          "name:hy": "Իրաք",
          "name:ia": "Irak",
          "name:id": "Irak",
          "name:ie": "Irak",
          "name:io": "Irak",
          "name:is": "Írak",
          "name:it": "Iraq",
          "name:iu": "ᐃᕉᒃ",
          "name:ja": "イラク",
          "name:jv": "Irak",
          "name:ka": "ერაყი",
          "name:ki": "Iraq",
          "name:kk": "Ирак",
          "name:kl": "Iraq",
          "name:km": "អ៊ីរ៉ាក់",
          "name:kn": "ಇರಾಕ್",
          "name:ko": "이라크",
          "name:ks": "ایٖراق",
          "name:ku": "Êraq",
          "name:kv": "Ирак",
          "name:kw": "Irak",
          "name:ky": "Ирак",
          "name:la": "Iraca",
          "name:lb": "Irak",
          "name:lg": "Yiraaka",
          "name:li": "Irak",
          "name:ln": "Irak",
          "name:lo": "ອີລັກ",
          "name:lt": "Irakas",
          "name:lv": "Irāka",
          "name:mg": "Irak",
          "name:mi": "Īrāki",
          "name:mk": "Ирак",
          "name:ml": "ഇറാഖ്",
          "name:mn": "Ирак",
          "name:mr": "इराक",
          "name:ms": "Iraq",
          "name:mt": "Iraq",
          "name:my": "အီရတ်နိုင်ငံ",
          "name:na": "Irak",
          "name:nb": "Irak",
          "name:ne": "इराक",
          "name:nl": "Irak",
          "name:nn": "Irak",
          "name:no": "Irak",
          "name:nv": "Iiwááʼ",
          "name:oc": "Iraq",
          "name:or": "ଇରାକ",
          "name:os": "Ирак",
          "name:pa": "ਇਰਾਕ",
          "name:pl": "Irak",
          "name:ps": "عراق",
          "name:pt": "Iraque",
          "name:qu": "Iraq",
          "name:rm": "Irac",
          "name:rn": "Iraki",
          "name:ro": "Irak",
          "name:ru": "Ирак",
          "name:rw": "Irake",
          "name:sa": "ईराक",
          "name:se": "Irak",
          "name:sg": "Irâki",
          "name:sh": "Irak",
          "name:si": "ඉරාක",
          "name:sk": "Irak",
          "name:sl": "Irak",
          "name:sn": "Iraq",
          "name:so": "Ciraaq",
          "name:sq": "Iraku",
          "name:sr": "Ирак",
          "name:ss": "I-Irakhi",
          "name:su": "Irak",
          "name:sv": "Irak",
          "name:sw": "Iraq",
          "name:ta": "ஈராக்கு",
          "name:te": "ఇరాక్",
          "name:tg": "Ироқ",
          "name:th": "ประเทศอิรัก",
          "name:ti": "ኢራቅ",
          "name:tk": "Yrak",
          "name:tl": "Irak",
          "name:to": "ʻIulaaki",
          "name:tr": "Irak",
          "name:tt": "Гыйрак",
          "name:tw": "Irak",
          "name:ug": "ئىراق",
          "name:uk": "Ірак",
          "name:ur": "عراق",
          "name:uz": "Iroq",
          "name:vi": "Iraq",
          "name:vo": "Lirakän",
          "name:wa": "Irak",
          "name:wo": "Iraak",
          "name:yi": "איראק",
          "name:yo": "Irak",
          "name:zh": "伊拉克",
          "name:zu": "I-Iraki",
          "alt_name": "العِرَاقُ",
          "boundary": "administrative",
          "int_name": "Iraq",
          "name:ace": "Irak",
          "name:als": "Irak",
          "name:ang": "Irac",
          "name:arc": "ܥܝܪܐܩ",
          "name:arz": "العراق",
          "name:ast": "Iraq",
          "name:bar": "Irak",
          "name:bcl": "Iraq",
          "name:bpy": "ইরাক",
          "name:bug": "Irak",
          "name:bxr": "Ирак",
          "name:cdo": "Ĭ-lăk",
          "name:ceb": "Iraq",
          "name:chr": "ᎢᎳᎩ",
          "name:ckb": "عێراق",
          "name:crh": "Iraq",
          "name:csb": "Irak",
          "name:din": "Irak",
          "name:diq": "Iraq",
          "name:dsb": "Irak",
          "name:ext": "Iraq",
          "name:frp": "Iraq",
          "name:fur": "Iraq",
          "name:gag": "İrak",
          "name:gan": "伊拉克",
          "name:hak": "Yî-là-khiet",
          "name:haw": "‘Ilaka",
          "name:hif": "Iraq",
          "name:hsb": "Irak",
          "name:ilo": "Irak",
          "name:jbo": "raksygu'e",
          "name:kab": "Lɛiraq",
          "name:kbd": "Ирак",
          "name:ksh": "der Irak",
          "name:lad": "Irak",
          "name:lez": "Ирак",
          "name:lfn": "Irac",
          "name:lij": "Iraq",
          "name:lmo": "Irak",
          "name:lzh": "伊拉克",
          "name:mdf": "Ирак",
          "name:mzn": "عراق",
          "name:nah": "Irac",
          "name:nan": "Iraq",
          "name:nds": "Irak",
          "name:new": "इराक",
          "name:nov": "Irak",
          "name:pam": "Irak",
          "name:pap": "Irak",
          "name:pdc": "Iraek",
          "name:pih": "Eraak",
          "name:pms": "Irak",
          "name:pnb": "عراق",
          "name:rue": "Ірак",
          "name:sah": "Ирак",
          "name:scn": "Iraq",
          "name:sco": "Iraq",
          "name:sdh": "عێراق",
          "name:smn": "Irak",
          "name:sms": "Irakk",
          "name:stq": "Irak",
          "name:szl": "Irak",
          "name:tok": "ma Ilakija",
          "name:tpi": "Irak",
          "name:udm": "Ирак",
          "name:vec": "Iraq",
          "name:vep": "Irak",
          "name:vro": "Iraak",
          "name:war": "Irak",
          "name:wuu": "伊拉克",
          "name:xal": "Иракудин Орн",
          "name:yue": "伊拉克",
          "name:zea": "Irak",
          "timezone": "Asia/Baghdad",
          "way_area": "42.4981",
          "wikidata": "Q796",
          "ISO3166-1": "IQ",
          "wikipedia": "ar:العراق",
          "admin_level": "2",
          "alt_name:vi": "I-rắc",
          "border_type": "nation",
          "name:simple": "Iraq",
          "alt_name:ckb": "ئێراق",
          "alt_name:sdh": "ئێراق",
          "name:bat-smg": "Iraks",
          "name:roa-rup": "Irac",
          "name:zh-Hans": "伊拉克",
          "name:zh-Hant": "伊拉克",
          "name:roa-tara": "Iraq",
          "official_name": "جمهورية العراق",
          "name:be-tarask": "Ірак",
          "name:zh_pinyin": "Yīlākè",
          "ISO3166-1:alpha2": "IQ",
          "ISO3166-1:alpha3": "IRQ",
          "default_language": "ar",
          "official_name:ar": "جمهورية العراق",
          "official_name:be": "Рэспубліка Ірак",
          "official_name:cs": "Irácká republika",
          "official_name:de": "Republik Irak",
          "official_name:el": "Δημοκρατία του Ιράκ",
          "official_name:en": "Republic of Iraq",
          "official_name:eo": "Respubliko Irako",
          "official_name:es": "República de Irak",
          "official_name:et": "Iraagi Vabariik",
          "official_name:gd": "Poblachd Ioràic",
          "official_name:gn": "Tetã Iráke",
          "official_name:id": "Republik Irak",
          "official_name:ku": "Komara Êraqê",
          "official_name:lb": "Republik Irak",
          "official_name:lt": "Irako Respublika",
          "official_name:lv": "Irākas Republika",
          "official_name:pl": "Republika Federalna Iraku",
          "official_name:pt": "República do Iraque",
          "official_name:ru": "Республика Ирак",
          "official_name:sr": "Република Ирак",
          "official_name:sv": "Republiken Irak",
          "official_name:tl": "Republika ng Irak",
          "official_name:vi": "Cộng hoà Iraq",
          "ISO3166-1:numeric": "368",
          "official_name:ckb": "كۆماری عێراق",
          "official_name:sdh": "کۆماری عێراق"
        }
      },
      "geometry": {
        "type": "Polygon",
        "coordinates": [
          [
            [
              48,
              31
            ],
            [
              48.03154380602221,
              31
            ],
            [
              48.0307025,
              31.0057707
            ],
            [
              48.0253238,
              31.0045923
            ],
            [
              48.0073306,
              31.0043777
            ],
            [
              48,
              31.005005026800003
            ],
            [
              48,
              31
            ]
          ]
        ]
      }
    },
    {
      "type": "Feature",
      "properties": {
        "osm_id": -304938,
        "boundary": "administrative",
        "admin_level": 2,
        "parents": null,
        "name": "Iran",
        "local_name": "ایران",
        "name_en": "Iran",
        "all_tags": {
          "flag": "http://upload.wikimedia.org/wikipedia/commons/c/ca/Flag_of_Iran.svg",
          "name": "ایران",
          "sqkm": "1628762",
          "name:af": "Iran",
          "name:am": "ፋርስ",
          "name:an": "Irán",
          "name:ar": "إیران",
          "name:az": "İran",
          "name:ba": "Иран",
          "name:be": "Іран",
          "name:bg": "Иран",
          "name:bn": "ইরান",
          "name:bo": "ཡི་ལང་།",
          "name:br": "Iran",
          "name:bs": "Iran",
          "name:ca": "Iran",
          "name:ce": "Иран",
          "name:co": "Iranu",
          "name:cs": "Írán",
          "name:cy": "Iran",
          "name:da": "Iran",
          "name:de": "Iran",
          "name:dv": "އީރާން",
          "name:dz": "ཨི་རཱན་",
          "name:el": "Ιράν",
          "name:en": "Iran",
          "name:eo": "Irano",
          "name:es": "Irán",
          "name:et": "Iraan",
          "name:eu": "Iran",
          "name:fa": "ایران",
          "name:fi": "Iran",
          "name:fo": "Iran",
          "name:fr": "Iran",
          "name:fy": "Iran",
          "name:ga": "An Iaráin",
          "name:gd": "Ioràn",
          "name:gl": "Irán - ایران",
          "name:gn": "Irán",
          "name:gu": "ઈરાન",
          "name:gv": "Yn Eeraan",
          "name:ha": "Iran",
          "name:he": "איראן",
          "name:hi": "ईरान",
          "name:hr": "Iran",
          "name:ht": "Iran",
          "name:hu": "Irán",
          "name:hy": "Իրան",
          "name:ia": "Iran",
          "name:id": "Iran",
          "name:ie": "Iran",
          "name:io": "Iran",
          "name:is": "Íran",
          "name:it": "Iran",
          "name:ja": "イラン",
          "name:jv": "Iran",
          "name:ka": "ირანი",
          "name:kk": "Иран",
          "name:kl": "Iran",
          "name:km": "អ៊ីរ៉ង់",
          "name:kn": "ಇರಾನ್",
          "name:ko": "이란",
          "name:ks": "ایٖران",
          "name:ku": "Îran",
          "name:kv": "Иран",
          "name:kw": "Iran",
          "name:ky": "Иран",
          "name:la": "Irania",
          "name:lb": "Iran",
          "name:li": "Iran",
          "name:ln": "Iran",
          "name:lt": "Iranas",
          "name:lv": "Irāna",
          "name:mg": "Iran",
          "name:mi": "Irāna",
          "name:mk": "Иран",
          "name:ml": "ഇറാൻ",
          "name:mn": "Иран",
          "name:mr": "इराण",
          "name:ms": "Iran",
          "name:mt": "Iran",
          "name:my": "အီရန်နိုင်ငံ",
          "name:na": "Iran",
          "name:ne": "इरान",
          "name:nl": "Iran",
          "name:nn": "Iran",
          "name:no": "Iran",
          "name:nv": "Iiwą́ą́",
          "name:oc": "Iran",
          "name:or": "ଇରାନ",
          "name:os": "Иран",
          "name:pa": "ਇਰਾਨ",
          "name:pl": "Iran",
          "name:ps": "ایران",
          "name:pt": "Irão",
          "name:qu": "Iran",
          "name:rm": "Iran",
          "name:ro": "Iran",
          "name:ru": "Иран",
          "name:rw": "Irani",
          "name:sa": "ईरान",
          "name:sc": "Iran",
          "name:se": "Iran",
          "name:sh": "Iran",
          "name:si": "ඉරානය",
          "name:sk": "Irán",
          "name:sl": "Iran",
          "name:so": "Iiraan",
          "name:sq": "Irani",
          "name:sr": "Иран",
          "name:ss": "I-Irani",
          "name:su": "Iran",
          "name:sv": "Iran",
          "name:sw": "Uajemi",
          "name:ta": "ஈரான்",
          "name:te": "ఇరాన్",
          "name:tg": "Эрон",
          "name:th": "ประเทศอิหร่าน",
          "name:tk": "Eýran",
          "name:tl": "Iran",
          "name:tr": "İran",
          "name:tt": "Иран",
          "name:tw": "Iran",
          "name:ug": "ئىران",
          "name:uk": "Іран",
          "name:ur": "ایران",
          "name:uz": "Eron",
          "name:vi": "Iran",
          "name:vo": "Lirän",
          "name:wa": "Iran",
          "name:wo": "Iraan",
          "name:yi": "איראן",
          "name:yo": "Ìránì",
          "name:za": "Iran",
          "name:zh": "伊朗",
          "name:zu": "I-Irani",
          "boundary": "administrative",
          "int_name": "Iran",
          "name:ace": "Iran",
          "name:als": "Iran",
          "name:ang": "Persealand",
          "name:arc": "ܐܝܪܐܢ",
          "name:arz": "ایران",
          "name:ast": "Irán",
          "name:azb": "ایران",
          "name:bar": "Iran",
          "name:bcl": "Iran",
          "name:bpy": "ইরান",
          "name:bug": "Iran",
          "name:bxr": "Иран",
          "name:cdo": "Ĭ-lāng",
          "name:ceb": "Iran",
          "name:ckb": "ئێران",
          "name:crh": "İran",
          "name:csb": "Iran",
          "name:diq": "İran",
          "name:dsb": "Iran",
          "name:ext": "Irán",
          "name:frp": "Éran",
          "name:gag": "İran",
          "name:gan": "伊朗",
          "name:grc": "Περσίς",
          "name:hak": "Yî-lóng",
          "name:haw": "‘Ilana",
          "name:hif": "Iran",
          "name:hsb": "Iran",
          "name:ilo": "Iran",
          "name:jbo": "iran",
          "name:kaa": "İran",
          "name:kab": "Iran",
          "name:kbd": "Къажэр",
          "name:lad": "Iran",
          "name:lbe": "Иран",
          "name:lez": "Иран",
          "name:lij": "Iran",
          "name:lmo": "Iran",
          "name:lzh": "伊朗",
          "name:mdf": "Иран",
          "name:mhr": "Иран",
          "name:mzn": "ایران",
          "name:nah": "Iran",
          "name:nan": "Iran",
          "name:nap": "Iran",
          "name:nds": "Iran",
          "name:new": "इरान",
          "name:nov": "Iran",
          "name:pam": "Iran",
          "name:pap": "Iran",
          "name:pcd": "Iran",
          "name:pdc": "Iraen",
          "name:pih": "Eraan",
          "name:pms": "Iran",
          "name:pnb": "ایران",
          "name:rue": "Іран",
          "name:sah": "Ираан",
          "name:scn": "Iran",
          "name:sco": "Iran",
          "name:smn": "Iran",
          "name:sms": "Iraan",
          "name:stq": "Iran",
          "name:syc": "ܐܝܪܐܢ",
          "name:szl": "Iran",
          "name:tok": "ma Ilan",
          "name:udm": "Иран",
          "name:vec": "Iran",
          "name:vep": "Iran",
          "name:vro": "Iraan",
          "name:war": "Iran",
          "name:wuu": "伊朗",
          "name:xmf": "ირანი",
          "name:yue": "伊朗",
          "name:zea": "Iran",
          "timezone": "Asia/Tehran",
          "way_area": "163.814",
          "wikidata": "Q794",
          "ISO3166-1": "IR",
          "wikipedia": "fa:ایران",
          "name:pt-BR": "Irã",
          "population": "79926270",
          "admin_level": "2",
          "border_type": "nation",
          "name:nds-nl": "Iran",
          "name:simple": "Iran",
          "old_name:ar": "فارس",
          "old_name:cs": "Persie",
          "old_name:de": "Persien",
          "old_name:en": "Persia",
          "old_name:es": "Persia",
          "old_name:fr": "Perse",
          "old_name:pa": "ਪਾਰਸ",
          "old_name:ur": "پارس‎",
          "name:bat-smg": "Irans",
          "name:roa-rup": "Iran",
          "name:zh-Hans": "伊朗",
          "name:zh-Hant": "伊朗",
          "old_name:grc": "Περσίς",
          "name:roa-tara": "Iran",
          "official_name": "جمهوری اسلامی ایران",
          "name:be-tarask": "Іран",
          "population:date": "2016",
          "ISO3166-1:alpha2": "IR",
          "ISO3166-1:alpha3": "IRN",
          "default_language": "fa",
          "official_name:ar": "الجمهورية الإسلامية الإيرانية",
          "official_name:cs": "Íránská islámská republika",
          "official_name:cv": "Ислам Республики Иран",
          "official_name:de": "Islamische Republik Iran",
          "official_name:en": "Islamic Republic of Iran",
          "official_name:es": "República Islámica de Irán",
          "official_name:fr": "République islamique d'Iran",
          "official_name:pa": "ਈਰਾਨ ਦਾ ਇਸਲਾਮੀ ਗਣਤੰਤਰ",
          "official_name:ru": "Исламская Республика Иран",
          "official_name:sr": "Исламска Република Иран",
          "official_name:ur": "اسلامی جمہوریۂ ایران",
          "ISO3166-1:numeric": "364",
          "official_name:azb": "ایران ایسلام جۇمهۇریَّتی",
          "official_name:xal": "Сарта Иранмудин Орн"
        }
      },
      "geometry": {
        "type": "Polygon",
        "coordinates": [
          [
            [
              48,
              31.005005026800003
            ],
            [
              48.0073306,
              31.0043777
            ],
            [
              48.0253238,
              31.0045923
            ],
            [
              48.0307025,
              31.0057707
            ],
            [
              48.03154380602221,
              31
            ],
            [
              49,
              31
            ],
            [
              49,
              32
            ],
            [
              48,
              32
            ],
            [
              48,
              31.005005026800003
            ]
          ]
        ]
      }
    }
  ]
}