{
  "type": "FeatureCollection",
  "features": [
    {
      "type": "Feature",
      "properties": {
        "osm_id": -364110,
        "boundary": "administrative",
        "admin_level": 2,
        "parents": null,
        "name": "Azerbaijan",
        "local_name": "Azərbaycan",
        "name_en": "Azerbaijan",
        "all_tags": {
          "flag": "http://upload.wikimedia.org/wikipedia/commons/d/dd/Flag_of_Azerbaijan.svg",
          "name": "Azərbaycan",
          "int_ref": "AZ",
          "name:ab": "Азербаиџьан",
          "name:af": "Azerbeidjan",
          "name:ak": "Azerbaijan",
          "name:am": "አዘርባይጃን",
          "name:an": "Azerbaichán",
          "name:ar": "أذربيجان",
          "name:as": "আজেৰবাইজান",
          "name:av": "Азарбижан",
          "name:az": "Azərbaycan",
          "name:ba": "Әзербайжан",
          "name:be": "Азербайджа́н",
          "name:bg": "Азербайджан",
          "name:bh": "अज़रबैजान",
          "name:bi": "Azerbaijan",
          "name:bm": "Azɛrbayjaŋ",
          "name:bn": "আজারবাইজান",
          "name:bo": "ཨ་ཛར་བཡི་ཇན།",
          "name:br": "Azerbaidjan",
          "name:bs": "Azerbejdžan",
          "name:ca": "Azerbaidjan",
          "name:ce": "Азербайджа́н",
          "name:co": "Azerbaighjan",
          "name:cs": "Ázerbájdžán",
          "name:cu": "Аꙁѣрбаича́нъ",
          "name:cv": "Азербайджан",
          "name:cy": "Aserbaijan",
          "name:da": "Aserbajdsjan",
          "name:de": "Aserbaidschan",
          "name:dv": "އަޒަރުބައިޖާން",
          "name:dz": "ཨཛར་བཡེ་ཇན།",
          "name:ee": "Azerbaijan",
          "name:el": "Αζερμπαϊτζάν",
          "name:en": "Azerbaijan",
          "name:eo": "Azerbajĝano",
          "name:es": "Azerbaiyán",
          "name:et": "Aserbaidžaan",
          "name:eu": "Azerbaijan",
          "name:fa": "آذربایجان",
          "name:ff": "Aserbayjan",
          "name:fi": "Azerbaidžan",
          "name:fo": "Aserbadsjan",
          "name:fr": "Azerbaïdjan",
          "name:fy": "Azerbeidzjan",
          "name:ga": "an Asarbaiseáin",
          "name:gd": "Asarbaideàn",
          "name:gl": "Acerbaixán",
          "name:gn": "Aservaijã",
          "name:gu": "અઝેરબીજાન",
          "name:gv": "yn Asserbajaan",
          "name:ha": "Azerbaijan",
          "name:he": "אָזַרְבַּיְיגָ'ן",
          "name:hi": "अज़रबैजान",
          "name:hr": "Azerbajdžan",
          "name:ht": "Azerbaydjan",
          "name:hu": "Azerbajdzsán",
          "name:hy": "Ադրբեջան",
          "name:ia": "Azerbaidzhan",
          "name:id": "Azerbaijan",
          "name:ie": "Azerbaidjan",
          "name:io": "Azerbaijan",
          "name:is": "Aserbaísjan",
          "name:it": "Azerbaigian",
          "name:ja": "アゼルバイジャン",
          "name:jv": "Azerbaijan",
          "name:ka": "აზერბაიჯანი",
          "name:kg": "Azerbaidjan",
          "name:ki": "Azerbaijan",
          "name:kk": "Әзірбайжан",
          "name:kl": "Aserbajdsjan",
          "name:km": "អាស៊ែបៃហ្សង់",
          "name:kn": "ಅಜೆರ್ಬೈಜಾನ್",
          "name:ko": "아제르바이잔",
          "name:ks": "آزَرباجان",
          "name:ku": "Azerbaycan",
          "name:kv": "Азербайджа́н",
          "name:kw": "Azerbayjan",
          "name:ky": "Азербайжан",
          "name:la": "Atropatene",
          "name:lb": "Aserbaidschan",
          "name:lg": "Azerebayijaani",
          "name:li": "Azerbaidzjan",
          "name:ln": "Azɛrbayzáni",
          "name:lo": "ປະເທດອາແຊກບາຍຊັງ",
          "name:lt": "Azerbaidžanas",
          "name:lv": "Azerbaidžāna",
          "name:mg": "Azerbaijana",
          "name:mi": "Atepaihānia",
          "name:mk": "Азербејџан",
          "name:ml": "അസർബെയ്ജാൻ",
          "name:mn": "Азербайжан",
          "name:mo": "Азербаиӂан",
          "name:mr": "अझरबैजान",
          "name:ms": "Azerbaijan",
          "name:mt": "Ażerbajġan",
          "name:my": "အဇာဘိုင်ဂျန်နိုင်ငံ",
          "name:na": "Aderbaidjan",
          "name:ne": "अजरबैजान",
          "name:nl": "Azerbeidzjan",
          "name:nn": "Aserbajdsjan",
          "name:no": "Aserbajdsjan",
          "name:nv": "Azééwii Bikéyah",
          "name:ny": "Azerbaijan",
          "name:oc": "Azerbaitjan",
          "name:om": "Azarbaajan",
          "name:or": "ଆଜରବାଇଜାନ",
          "name:os": "Азербайджан",
          "name:pa": "ਅਜ਼ਰਬਾਈਜਾਨ",
          "name:pi": "अजर्बैजान",
          "name:pl": "Azerbejdżan",
          "name:ps": "آزربایجان",
          "name:pt": "Azerbaijão",
          "name:qu": "Asarsuyu",
          "name:rm": "Aserbeidschan",
          "name:ro": "Azerbaidjan",
          "name:ru": "Азербайджан",
          "name:rw": "Azeribayijani",
          "name:sa": "अजर्बैजान",
          "name:sc": "Azerbaigián",
          "name:se": "Azerbaižan",
          "name:sg": "Zerebaidyäan",
          "name:sh": "Azerbejdžan",
          "name:si": "අසර්බයිජානය",
          "name:sk": "Azerbajdžan",
          "name:sl": "Azerbajdžan",
          "name:sm": "Azerbaijin",
          "name:sn": "Azerbaijan",
          "name:so": "Aserbiijaan",
          "name:sq": "Azerbajxhani",
          "name:sr": "Азербејџан",
          "name:ss": "iZebajani",
          "name:su": "Azerbaijan",
          "name:sv": "Azerbajdzjan",
          "name:sw": "Azerbaijan",
          "name:ta": "அசர்பைஜான்",
          "name:te": "అజర్‌బైజాన్",
          "name:tg": "Озарбойҷон",
          "name:th": "อาเซอร์ไบจาน",
          "name:ti": "አዘርባጃን",
          "name:tk": "Azerbaýjan",
          "name:tl": "Aserbayan",
          "name:to": "ʻAsapaisani",
          "name:tr": "Azerbaycan",
          "name:ts": "Azerbaijan",
          "name:tt": "Азәрбайҗан",
          "name:tw": "Azerbaijan",
          "name:ty": "Atepaihānia",
          "name:ug": "ئەزەربەيجان",
          "name:uk": "Азербайджа́н",
          "name:ur": "آذربائیجان",
          "name:uz": "Ozarbayjon",
          "name:vi": "Azerbaijan",
          "name:vo": "Lasärbäcän",
          "name:wo": "Aserbayjaan",
          "name:yi": "אַזערבײַדזשאַן",
          "name:yo": "Azerbaijan",
          "name:za": "Ahsehbaiqgyangh",
          "name:zh": "阿塞拜疆 / 亞塞拜然",
          "name:zu": "Azerbaijan",
          "boundary": "administrative",
          "name:ace": "Azèrbaijan",
          "name:ady": "Азербайджан",
          "name:als": "Aserbaidschan",
          "name:ang": "Azerbaijan",
          "name:arc": "ܐܙܪܒܝܓܐܢ",
          "name:arz": "اذيربايجان",
          "name:ast": "Azerbaixán",
          "name:azb": "آذربایجان",
          "name:bar": "Aserbaidschan",
          "name:bcl": "Aserbayhan",
          "name:bpy": "আজারবাইজান",
          "name:bxr": "Азербайджан",
          "name:cdo": "Azerbaijan",
          "name:ceb": "Aserbaiyan",
          "name:chr": "ᎠᏎᏆᏣᏂ",
          "name:ckb": "ئازەربایجان",
          "name:crh": "Azerbaycan",
          "name:csb": "Azerbejdżan",
          "name:diq": "Azerbaycan",
          "name:dsb": "Azerbajdžan",
          "name:dty": "अज़रबैजान",
          "name:ext": "Azerbaiyán",
          "name:frp": "Azèrbayidj·an",
          "name:frr": "Aserbaidschan",
          "name:fur": "Azerbaigian",
          "name:gag": "Azerbaycan",
          "name:glk": "آذربایجؤن",
          "name:gom": "अझरबैजान",
          "name:grc": "Ἀτροπατηνή",
          "name:hak": "Â-set-pai-kiông",
          "name:haw": "ʻAkepaikana",
          "name:hif": "Azerbaijan",
          "name:hsb": "Azerbajdźan",
          "name:ilo": "Azerbaijan",
          "name:jam": "Azabaijan",
          "name:jbo": "azerbaidjan",
          "name:kaa": "A'zerbayjan",
          "name:kab": "Azerbijan",
          "name:kbd": "Азэрбиджан",
          "name:kbp": "Azɛrbayɩjanɩ",
          "name:krc": "Азербайджан",
          "name:ksh": "Asserbaidschahn",
          "name:lad": "Azerbaidjan",
          "name:lbe": "Азирбижан",
          "name:lez": "Азербайжан",
          "name:lij": "Azerbaijan",
          "name:lmo": "Azerbaigian",
          "name:lrc": "آزربایجان",
          "name:ltg": "Azerbaidžans",
          "name:lzh": "阿塞拜疆",
          "name:mai": "अजरबैजान",
          "name:mdf": "Азербайджан",
          "name:mhr": "Азербайджан",
          "name:min": "Azerbaijan",
          "name:mrj": "Азербайджан",
          "name:mwl": "Azerbaijon",
          "name:myv": "Азербайджан",
          "name:mzn": "آذربایجون",
          "name:nah": "Azerbaiyan",
          "name:nan": "Azerbaijan",
          "name:nap": "Azerbaijan",
          "name:nds": "Aserbaidschan",
          "name:new": "अजरबैजान",
          "name:nov": "Aserbaijan",
          "name:olo": "Azerbaidžuanu",
          "name:pag": "Azerbaijan",
          "name:pam": "Azerbaijan",
          "name:pap": "Azerbaijan",
          "name:pcd": "Azerbaïdjan",
          "name:pdc": "Aserbaidschan",
          "name:pih": "Eserbeyjan",
          "name:pms": "Aserbaigian",
          "name:pnb": "آذربائیجان",
          "name:pnt": "Αζερμπαϊτζάν",
          "name:rue": "Азербайджан",
          "name:sah": "Азербайдьан",
          "name:scn": "Azzirbaiggian",
          "name:sco": "Azerbaijan",
          "name:smn": "Azerbaidžan",
          "name:sms": "Azerbaidžaan",
          "name:srn": "Azerbaijanikondre",
          "name:stq": "Aserbaidschan",
          "name:syc": "ܐܙܪܒܝܓܐܢ",
          "name:szl": "Azerbejdżōn",
          "name:tet": "Azerbaijaun",
          "name:tpi": "Azerbaijan",
          "name:tum": "Azerbaijan",
          "name:tyv": "Азербайджан",
          "name:tzl": "Adarbaixhan",
          "name:udm": "Азербайджан",
          "name:vec": "Azerbaigian",
          "name:vep": "Azerbaidžan",
          "name:vls": "Azerbeidzjan",
          "name:vro": "Asõrbaidžaan",
          "name:war": "Aserbaiyan",
          "name:wuu": "阿塞拜疆",
          "name:xal": "Азермудин Орн",
          "name:xmf": "აზერბაიჯანი",
          "name:yue": "阿塞拜疆",
          "name:zea": "Aâzerbeidzjan",
          "timezone": "Asia/Baku",
          "way_area": "11.0607",
          "wikidata": "Q227",
          "ISO3166-1": "AZ",
          "land_area": "administrative",
          "wikipedia": "az:Azərbaycan",
          "admin_level": "2",
          "alt_name:af": "Azerbaidjan;Aserbeidjan",
          "alt_name:bg": "Азърбайджан",
          "alt_name:gd": "Asarbajan",
          "alt_name:gn": "Aseyvaijã",
          "alt_name:la": "Azerbaigiania",
          "alt_name:qu": "Asirwayan",
          "alt_name:sg": "Azerbaidyäan",
          "alt_name:sh": "Azerbajdžan",
          "name:az-cyr": "Азәрбајҹан",
          "name:nds-nl": "Azerbeidzjan",
          "alt_name:azb": "آذربایجان جۆمهۇریّتی",
          "alt_name:mwl": "Azerbaidjon",
          "alt_name:war": "Azerbaijan",
          "name:bat-smg": "Azėrbaidžians",
          "name:cbk-zam": "Azerbaiyán",
          "name:roa-rup": "Azerbaigian",
          "name:zh-Hans": "阿塞拜疆",
          "name:zh-Hant": "亞塞拜然",
          "official_name": "Azərbaycan Respublikası",
          "name:be-tarask": "Азэрбайджа́н",
          "name:zh_pinyin": "Āsàibàijiāng",
          "ISO3166-1:alpha2": "AZ",
          "ISO3166-1:alpha3": "AZE",
          "default_language": "az",
          "official_name:ab": "Азербаиџьан Аҳәынҭқарра",
          "official_name:af": "Republiek van Azerbeidjan",
          "official_name:am": "አዘርባይጃን ሪፐብሊክ",
          "official_name:an": "Republica Azerbaichán",
          "official_name:ar": "جمهورية أذربيجان",
          "official_name:as": "প্ৰজাতন্ত্ৰী আজেৰবাইজান",
          "official_name:av": "Азарбижаналъул ДжумхIурият",
          "official_name:az": "Azərbaycan Respublikası",
          "official_name:ba": "Әзербайжан Республикаһы",
          "official_name:be": "Азербайджа́нская Рэспу́бліка",
          "official_name:bg": "Република Азербайджан",
          "official_name:bn": "প্রজাতন্ত্রী আজারবাইজান",
          "official_name:br": "Republik Azerbaidjan",
          "official_name:bs": "Republika Azerbejdžan",
          "official_name:ca": "República de l'Azerbaidjan",
          "official_name:ce": "Азербайджа́нийн Респу́блика",
          "official_name:co": "Republica di Azerbaighjan",
          "official_name:cs": "Ázerbájdžánská republika",
          "official_name:cu": "Аꙁѣрбаича́нъ Димократі́ѩ",
          "official_name:cy": "Gweriniaeth Aserbaijan",
          "official_name:da": "Republikken Aserbajdsjan",
          "official_name:de": "Republik Aserbaidschan",
          "official_name:el": "Δημοκρατία του Αζερμπαϊτζάν",
          "official_name:en": "Republic of Azerbaijan",
          "official_name:eo": "Azerbajĝana Respubliko",
          "official_name:es": "República de Azerbaiyán",
          "official_name:et": "Aserbaidžaani Vabariik",
          "official_name:eu": "Azerbaijango Errepublika",
          "official_name:fa": "جمهوری آذربایجان",
          "official_name:ff": "Republik bu Aserbayjan",
          "official_name:fi": "Azerbaidžanin tasavalta",
          "official_name:fr": "République d'Azerbaïdjan",
          "official_name:fy": "Republyk Azerbeidzjan",
          "official_name:ga": "Poblacht na hAsarbaiseáine",
          "official_name:gl": "República de Acerbaixán",
          "official_name:gn": "Tetã Aservaijã",
          "official_name:gu": "અઝેરબીજાન ગણરાજ્ય",
          "official_name:gv": "Pobblaght ny h-Asserbajaan",
          "official_name:ha": "Jamhuriyar Azerbaijan",
          "official_name:he": "הָרֶפּוּבְּלִיקָה שֶׁל אָזַרְבַּיְיגָ'ן",
          "official_name:hi": "अज़रबैजान गणराज्य",
          "official_name:hr": "Republika Azerbajdžan",
          "official_name:hu": "Azerbajdzsáni Köztársaság",
          "official_name:hy": "Ադրբեջանական Հանրապետություն",
          "official_name:id": "Republik Azerbaijan",
          "official_name:io": "Republiko di Azerbaijan",
          "official_name:is": "Lýðveldið Aserbaísjan",
          "official_name:it": "Repubblica dell'Azerbaigian",
          "official_name:ja": "アゼルバイジャン共和国",
          "official_name:ka": "აზერბაიჯანის რესპუბლიკა",
          "official_name:kk": "Әзірбайжан Республикасы",
          "official_name:km": "សាធារណៈរដ្ឋ អាស៊ែបៃហ្សង់",
          "official_name:kn": "ಅಜೆರ್ಬೈಜಾನ್ ಗಣರಾಜ್ಯ",
          "official_name:ko": "아제르바이잔 공화국",
          "official_name:ku": "Komara Azerbaycanê",
          "official_name:kv": "Азербайджа́н Республика",
          "official_name:ky": "Азербайжан Республикасы",
          "official_name:la": "Res publica Atropatenae",
          "official_name:lb": "Republik Aserbaidschan",
          "official_name:li": "Rippubliek Azerbeidzjan",
          "official_name:lt": "Azerbaidžano Respublika",
          "official_name:lv": "Azerbaidžānas Republika",
          "official_name:mk": "Република Азејбејџан",
          "official_name:ml": "റിപ്പബ്ലിക് ഓഫ് അസർബെയ്ജാൻ",
          "official_name:mn": "Бүгд Найрамдах Азербайжан Улс",
          "official_name:mr": "अझरबैजानचे प्रजासत्ताक",
          "official_name:ms": "Republik Azerbaijan",
          "official_name:mt": "Repubblika tal-Ażerbajġan",
          "official_name:my": "အဇာဘိုင်ဂျန် သမ္မတနိုင်ငံ",
          "official_name:ne": "गणतन्त्र अजरबैजान",
          "official_name:nl": "Republiek Azerbeidzjan",
          "official_name:nn": "Republikken Aserbajdsjan",
          "official_name:no": "Republikken Aserbajdsjan",
          "official_name:ny": "Republic Azerbaijan",
          "official_name:oc": "Republica d'Azerbaitjan",
          "official_name:os": "Азербайджаны Республикæ",
          "official_name:pa": "ਅਜ਼ਰਬਾਈਜਾਨ ਦਾ ਗਣਤੰਤਰ",
          "official_name:pl": "Republika Azerbejdżanu",
          "official_name:ps": "اذربايجان جمهوريت",
          "official_name:pt": "República do Azerbaijão",
          "official_name:qu": "Asarsuyu Ripuwlika",
          "official_name:rm": "Republica Aserbeidschan",
          "official_name:ro": "Republica Azerbaidjan",
          "official_name:ru": "Азербайджанская Республика",
          "official_name:rw": "Repubulika y’u Azeribayijani",
          "official_name:sc": "Repùbrica de s'Azerbaigián",
          "official_name:se": "Aserbaižana dásseváldi",
          "official_name:sh": "Republika Azerbajdžan",
          "official_name:sk": "Azerbajdžanská republika",
          "official_name:sl": "Republika Azerbajdžan",
          "official_name:sm": "Lepulika o Azerbaijin",
          "official_name:sq": "Republika e Azerbajxhanit",
          "official_name:sr": "Азербејџанска Република",
          "official_name:su": "Républik Azerbaijan",
          "official_name:sv": "Republiken Azerbajdzjan",
          "official_name:sw": "Jamhuri ya Azerbaijan",
          "official_name:ta": "ஆசர்பைசான் குடியரசு",
          "official_name:te": "రిపబ్లిక్ ఆఫ్ అజర్‌బైజాన్",
          "official_name:tg": "Azərbaycan Jumhuriyati",
          "official_name:th": "สาธารณรัฐอาเซอร์ไบจาน",
          "official_name:tk": "Azerbaýjan Respublikasy",
          "official_name:tl": "Republika ng Azerbaijan",
          "official_name:tr": "Azerbaycan Cumhuriyeti",
          "official_name:tt": "Азәрбайҗан Республикасы",
          "official_name:ug": "ئازەربەيجان جۇمھۇرىيىتى",
          "official_name:uk": "Азербайджа́нська Респу́бліка",
          "official_name:ur": "جمہوریہ آذربائیجان",
          "official_name:uz": "Ozarbayjon Respublikasi",
          "official_name:vi": "Cộng hoà Azerbaijan",
          "official_name:wo": "Republik bu Aserbayjaan",
          "official_name:yi": "רעפובליק פון אזערביידזשאן",
          "official_name:za": "Ahsehbaiqgyangh Gunghogzgoz",
          "official_name:zh": "阿塞拜疆共和国 / 亞塞拜然共和國",
          "ISO3166-1:numeric": "031",
          "official_name:ady": "Азербайджан Республик",
          "official_name:als": "Republik Aserbaidschan",
          "official_name:arc": "ܩܘܛܢܝܘܬܐ ܕܐܙܪܒܝܓܐܢ",
          "official_name:arz": "جمهورية أذيربايجان",
          "official_name:ast": "República d'Azerbaixán",
          "official_name:azb": "آذربایجان رِسپوبلیکاسی",
          "official_name:bar": "Republik Aserbaidschan",
          "official_name:bpy": "প্রজাতন্ত্রি আজারবাইজান",
          "official_name:bxr": "Бүгэдэ Найрамдаха Азербайджан Улас",
          "official_name:ceb": "Republika Azerbaijan",
          "official_name:chr": "ᏍᎦᏚᎩ ᎠᏏᎵᏆᏌᏂ",
          "official_name:ckb": "کۆماری ئازەربایجان",
          "official_name:crh": "Azerbaycan Cumhuriyeti",
          "official_name:diq": "Cumhuriyetê Azerbaycani",
          "official_name:dsb": "Republika Azerbajdžana",
          "official_name:dty": "गणतन्त्र अजरबैजान",
          "official_name:ext": "Repúbrica de Azerbaiyán",
          "official_name:frr": "Republiik Aserbaidschan",
          "official_name:gag": "Azerbaycan Respublikası",
          "official_name:glk": "آذربایجؤن جومهوری",
          "official_name:grc": "Πολιτεία τῆς Ἀτροπατηνῆς",
          "official_name:hak": "Azerbaijan Khiung-fò-koet",
          "official_name:hif": "Republic of Azerbaijan",
          "official_name:hsb": "Azerbajdźanska republika",
          "official_name:ilo": "Republika ti Azerbaijan",
          "official_name:jam": "Ripoblik a Azabaijan",
          "official_name:kbd": "Азэрбиджан Республикэ",
          "official_name:krc": "Азербайджан Республика",
          "official_name:lad": "Repuvlika de Azerbaidjan",
          "official_name:lbe": "Азирбижаннал Республика",
          "official_name:lez": "Азәрбајҹан Республикасы",
          "official_name:lij": "Repubbrica d'Azerbaijan",
          "official_name:lmo": "Republega de l'Azerbaigian",
          "official_name:lrc": "کۈمرأ ڤولات آزربایجان",
          "official_name:lzh": "阿塞拜疆共和國",
          "official_name:mai": "अजरबैजान गणराज्य",
          "official_name:mdf": "Азербайджанонь республиксь",
          "official_name:mwl": "República de l Azerbaijon",
          "official_name:myv": "Азербайджан Республикась",
          "official_name:mzn": "آذربایجون ِجمهوری",
          "official_name:nah": "Tlācatlahtohcāyōtl Azerbaiyan",
          "official_name:nan": "Azerbaijan Kiōng-hô-kok",
          "official_name:nap": "Repubbreca ell'Azerbaijian",
          "official_name:nds": "Republiek Aserbaidschan",
          "official_name:new": "गणतन्त्र अजरबैजान",
          "official_name:olo": "Azerbaidžuanan tazavaldu",
          "official_name:pam": "Republika ning Azerbaijan",
          "official_name:pcd": "République d'Azerbaïdjan",
          "official_name:pnb": "آذربائیجان لوکراج",
          "official_name:rue": "Азербайджаньска републіка",
          "official_name:sah": "Азербайдьан Республиката",
          "official_name:sco": "Republic o Azerbaijan",
          "official_name:stq": "Republik Aserbaidschan",
          "official_name:szl": "Republika Azerbejdżōnu",
          "official_name:tet": "Repúblika Azerbaijaun",
          "official_name:vec": "Republica de Azerbaigian",
          "official_name:vep": "Azerbaidžanan Tazovaldkund",
          "official_name:vls": "Republiek Azerbeidzjan",
          "official_name:vro": "Asõrbaidžaani Vabariik",
          "official_name:war": "Republika han Aserbaiyan",
          "official_name:xmf": "აზერბაიჯანიშ რესპუბლიკა",
          "official_name:yue": "阿塞拜疆共和國",
          "official_name:nds-nl": "Reppubliek Azerbeidzjan",
          "official_name:bat-smg": "Azėrbaidžiano rėspublika",
          "official_name:roa-rup": "Republica Azerbaigian",
          "official_name:zh-Hans": "阿塞拜疆共和国",
          "official_name:zh-Hant": "亞塞拜然共和國",
          "official_name:be-tarask": "Рэспу́бліка Азэрбайджа́н"
        }
      },
      "geometry": {
        "type": "Polygon",
        "coordinates": [
          [
            [
              48.01027,
              38.907306
            ],
            [
              48.0107745,
              38.9004693
            ],
            [
              48.0129562,
              38.8809304
            ],
            [
              48.0207028,
              38.8378898
            ],
            [
              48.034789,
              38.830722
            ],
            [
              48.0359609,
              38.824387
            ],
            [
              48.0408589,
              38.815503
            ],
            [
              48.0448673,
              38.8163705
            ],
            [
              48.0488756,
              38.8118591
            ],
            [
              48.0611234,
              38.808649
            ],
            [
              48.068472,
              38.8031826
            ],
            [
              48.0797177,
              38.8009266
            ],
            [
              48.0783816,
              38.7938976
            ],
            [
              48.0882912,
              38.7939844
            ],
            [
              48.0931903,
              38.7890377
            ],
            [
              48.1071082,
              38.7885576
            ],
            [
              48.1070769,
              38.7866635
            ],
            [
              48.1047297,
              38.7828996
            ],
            [
              48.1038585,
              38.7805091
            ],
            [
              48.1022216,
              38.7795217
            ],
            [
              48.1011708,
              38.7768986
            ],
            [
              48.1027746,
              38.7759556
            ],
            [
              48.1041168,
              38.7741581
            ],
            [
              48.1055997,
              38.7730359
            ],
            [
              48.1073103,
              38.7698813
            ],
            [
              48.1115885,
              38.7698762
            ],
            [
              48.1157576,
              38.7709194
            ],
            [
              48.1204203,
              38.7710563
            ],
            [
              48.1213841,
              38.7697913
            ],
            [
              48.1298333,
              38.7684374
            ],
            [
              48.1329405,
              38.7699824
            ],
            [
              48.1360452,
              38.7672396
            ],
            [
              48.1447196,
              38.7668058
            ],
            [
              48.1482129,
              38.7627958
            ],
            [
              48.1631169,
              38.7597045
            ],
            [
              48.1726754,
              38.7617366
            ],
            [
              48.1918136,
              38.7562153
            ],
            [
              48.190467,
              38.7517875
            ],
            [
              48.1997534,
              38.7489061
            ],
            [
              48.2002006,
              38.7449251
            ],
            [
              48.2023756,
              38.7437628
            ],
            [
              48.2064716,
              38.7398805
            ],
            [
              48.2173601,
              38.7364213
            ],
            [
              48.2205007,
              38.7378686
            ],
            [
              48.2237072,
              38.7346897
            ],
            [
              48.2325418,
              38.7324095
            ],
            [
              48.2424671,
              38.7312832
            ],
            [
              48.2431049,
              38.7288771
            ],
            [
              48.2491558,
              38.7260959
            ],
            [
              48.2468845,
              38.7217306
            ],
            [
              48.2495889,
              38.7168961
            ],
            [
              48.2539181,
              38.7135783
            ],
            [
              48.259391,
              38.7085091
            ],
            [
              48.2583002,
              38.6986486
            ],
            [
              48.2522601,
              38.6965666
            ],
            [
              48.248041,
              38.6917769
            ],
            [
              48.2479729,
              38.6891965
            ],
            [
              48.2503806,
              38.685515
            ],
            [
              48.2515016,
              38.6847685
            ],
            [
              48.2530584,
              38.6825838
            ],
            [
              48.252657,
              38.6619076
            ],
            [
              48.2582341,
              38.6576272
            ],
            [
              48.2681875,
              38.657183
            ],
            [
              48.2754678,
              38.6546514
            ],
            [
              48.2784822,
              38.6521196
            ],
            [
              48.2833771,
              38.6524101
            ],
            [
              48.2854652,
              38.649176
            ],
            [
              48.2949419,
              38.6473191
            ],
            [
              48.2958296,
              38.642036
            ],
            [
              48.293611,
              38.637778
            ],
            [
              48.296944,
              38.633611
            ],
            [
              48.296569,
              38.6313734
            ],
            [
              48.300278,
              38.629444
            ],
            [
              48.3028275,
              38.625776
            ],
            [
              48.3042708,
              38.6219208
            ],
            [
              48.3072358,
              38.6206222
            ],
            [
              48.307157,
              38.6130918
            ],
            [
              48.3083656,
              38.6111998
            ],
            [
              48.3102234,
              38.6076539
            ],
            [
              48.3211746,
              38.6020176
            ],
            [
              48.3258347,
              38.6042457
            ],
            [
              48.3282043,
              38.604264
            ],
            [
              48.3287219,
              38.603958
            ],
            [
              48.3298235,
              38.6038175
            ],
            [
              48.3299424,
              38.6028884
            ],
            [
              48.3334119,
              38.5999759
            ],
            [
              48.3356942,
              38.5996784
            ],
            [
              48.3369411,
              38.5998952
            ],
            [
              48.3376207,
              38.6003004
            ],
            [
              48.3384919,
              38.6011707
            ],
            [
              48.3389146,
              38.6012482
            ],
            [
              48.3415533,
              38.5995834
            ],
            [
              48.3440111,
              38.5990316
            ],
            [
              48.3507154,
              38.5951324
            ],
            [
              48.3563145,
              38.5977879
            ],
            [
              48.361489,
              38.5948538
            ],
            [
              48.3669945,
              38.5981543
            ],
            [
              48.3736743,
              38.5984105
            ],
            [
              48.3742251,
              38.6002886
            ],
            [
              48.3755371,
              38.6008763
            ],
            [
              48.3800827,
              38.6018152
            ],
            [
              48.3818225,
              38.6036449
            ],
            [
              48.3856521,
              38.6051448
            ],
            [
              48.3884074,
              38.6050457
            ],
            [
              48.3903587,
              38.602443
            ],
            [
              48.4079422,
              38.6023118
            ],
            [
              48.4094692,
              38.6042654
            ],
            [
              48.4161312,
              38.6059235
            ],
            [
              48.4179562,
              38.6090349
            ],
            [
              48.4214685,
              38.6101129
            ],
            [
              48.4251103,
              38.6132877
            ],
            [
              48.4314838,
              38.613568
            ],
            [
              48.4358582,
              38.6117569
            ],
            [
              48.4413158,
              38.6127221
            ],
            [
              48.4445053,
              38.6120433
            ],
            [
              48.4474559,
              38.6100329
            ],
            [
              48.4514814,
              38.6104553
            ],
            [
              48.4592932,
              38.6076878
            ],
            [
              48.4559619,
              38.6041669
            ],
            [
              48.4584176,
              38.6005604
            ],
            [
              48.4586107,
              38.5980425
            ],
            [
              48.4535289,
              38.5897663
            ],
            [
              48.4541987,
              38.5872005
            ],
            [
              48.4567645,
              38.5859578
            ],
            [
              48.4541344,
              38.5831819
            ],
            [
              48.4545155,
              38.5811489
            ],
            [
              48.4592363,
              38.5775474
            ],
            [
              48.4621515,
              38.5700897
            ],
            [
              48.4619022,
              38.5653001
            ],
            [
              48.464684,
              38.5613214
            ],
            [
              48.4672182,
              38.5622126
            ],
            [
              48.4681091,
              38.5616275
            ],
            [
              48.4685627,
              38.5571989
            ],
            [
              48.4706685,
              38.5564238
            ],
            [
              48.4722042,
              38.5535327
            ],
            [
              48.4768878,
              38.5515793
            ],
            [
              48.483957,
              38.5540011
            ],
            [
              48.4887298,
              38.552604
            ],
            [
              48.4950289,
              38.5532719
            ],
            [
              48.5055078,
              38.5470001
            ],
            [
              48.5053279,
              38.5426712
            ],
            [
              48.5077893,
              38.5395051
            ],
            [
              48.508275,
              38.527929
            ],
            [
              48.509365,
              38.5256711
            ],
            [
              48.5139596,
              38.5223081
            ],
            [
              48.5133037,
              38.518379
            ],
            [
              48.5167375,
              38.5174825
            ],
            [
              48.5176091,
              38.5154365
            ],
            [
              48.5219245,
              38.515759
            ],
            [
              48.5266739,
              38.5142544
            ],
            [
              48.5310683,
              38.5059085
            ],
            [
              48.5323299,
              38.5044347
            ],
            [
              48.5376386,
              38.5034509
            ],
            [
              48.5433359,
              38.4958484
            ],
            [
              48.5507374,
              38.4940918
            ],
            [
              48.5511373,
              38.4927909
            ],
            [
              48.5496942,
              38.4907226
            ],
            [
              48.5530467,
              38.4886581
            ],
            [
              48.5529332,
              38.4859712
            ],
            [
              48.5567157,
              38.4841492
            ],
            [
              48.5571388,
              38.4811685
            ],
            [
              48.5632224,
              38.4796501
            ],
            [
              48.5663616,
              38.4800099
            ],
            [
              48.5743428,
              38.4709341
            ],
            [
              48.5737245,
              38.4687234
            ],
            [
              48.579433,
              38.4668173
            ],
            [
              48.5788532,
              38.4637336
            ],
            [
              48.5815206,
              38.4627736
            ],
            [
              48.5819095,
              38.4608046
            ],
            [
              48.5818264,
              38.4603383
            ],
            [
              48.5828061,
              38.4585362
            ],
            [
              48.5832971,
              38.456565
            ],
            [
              48.5873966,
              38.4546229
            ],
            [
              48.5908553,
              38.4556542
            ],
            [
              48.5915804,
              38.4530758
            ],
            [
              48.5904182,
              38.4495263
            ],
            [
              48.5928854,
              38.4459367
            ],
            [
              48.591972,
              38.4369483
            ],
            [
              48.5925356,
              38.4352187
            ],
            [
              48.59423,
              38.4315578
            ],
            [
              48.5981218,
              38.427941
            ],
            [
              48.5982694,
              38.4260715
            ],
            [
              48.6009743,
              38.424233
            ],
            [
              48.602248,
              38.4237662
            ],
            [
              48.6018782,
              38.4173601
            ],
            [
              48.6030904,
              38.4168128
            ],
            [
              48.6038299,
              38.4170543
            ],
            [
              48.6048366,
              38.4162494
            ],
            [
              48.6062137,
              38.4162401
            ],
            [
              48.6081648,
              38.4154124
            ],
            [
              48.6145958,
              38.4103575
            ],
            [
              48.6162123,
              38.4099405
            ],
            [
              48.6166416,
              38.4092722
            ],
            [
              48.6184046,
              38.4086965
            ],
            [
              48.6191602,
              38.4078084
            ],
            [
              48.6223296,
              38.4074136
            ],
            [
              48.6236099,
              38.4052919
            ],
            [
              48.6250371,
              38.4046176
            ],
            [
              48.6262755,
              38.4045353
            ],
            [
              48.6282904,
              38.4038445
            ],
            [
              48.6289704,
              38.4021763
            ],
            [
              48.6325079,
              38.402033
            ],
            [
              48.63713,
              38.3995158
            ],
            [
              48.6390158,
              38.3991402
            ],
            [
              48.6409568,
              38.3996062
            ],
            [
              48.6421851,
              38.401147
            ],
            [
              48.6459001,
              38.4014102
            ],
            [
              48.6508748,
              38.4000145
            ],
            [
              48.6544846,
              38.3978572
            ],
            [
              48.6560848,
              38.3981499
            ],
            [
              48.6570243,
              38.3960313
            ],
            [
              48.6592833,
              38.3933659
            ],
            [
              48.6622715,
              38.3929551
            ],
            [
              48.6635134,
              38.3934911
            ],
            [
              48.6664693,
              38.3942382
            ],
            [
              48.6673394,
              38.396469
            ],
            [
              48.6686731,
              38.3969525
            ],
            [
              48.6710869,
              38.3958997
            ],
            [
              48.6764884,
              38.3970701
            ],
            [
              48.6815596,
              38.3974225
            ],
            [
              48.6860783,
              38.398891
            ],
            [
              48.6906392,
              38.3992739
            ],
            [
              48.6936669,
              38.4002742
            ],
            [
              48.6943126,
              38.4011517
            ],
            [
              48.6993927,
              38.4053138
            ],
            [
              48.7012954,
              38.4053219
            ],
            [
              48.7023639,
              38.4066477
            ],
            [
              48.7067974,
              38.4083586
            ],
            [
              48.7111797,
              38.4079736
            ],
            [
              48.7135296,
              38.4083883
            ],
            [
              48.7169976,
              38.4079736
            ],
            [
              48.7207348,
              38.4085225
            ],
            [
              48.7231122,
              38.4101134
            ],
            [
              48.7259062,
              38.409945
            ],
            [
              48.7308783,
              38.4107843
            ],
            [
              48.7327592,
              38.4116718
            ],
            [
              48.7383031,
              38.4111207
            ],
            [
              48.7398237,
              38.4120439
            ],
            [
              48.7413672,
              38.4144627
            ],
            [
              48.7431185,
              38.4158349
            ],
            [
              48.7468532,
              38.4171495
            ],
            [
              48.7478974,
              38.4190443
            ],
            [
              48.7478518,
              38.4225018
            ],
            [
              48.7487879,
              38.4235326
            ],
            [
              48.7524734,
              38.4249915
            ],
            [
              48.7533339,
              38.4282408
            ],
            [
              48.756268,
              38.4289275
            ],
            [
              48.7578791,
              38.4305851
            ],
            [
              48.7598002,
              38.431183
            ],
            [
              48.7614328,
              38.4332757
            ],
            [
              48.7642574,
              38.4345715
            ],
            [
              48.7648876,
              38.43793
            ],
            [
              48.76731,
              38.440739
            ],
            [
              48.7700408,
              38.4413435
            ],
            [
              48.7719475,
              38.4401542
            ],
            [
              48.7742558,
              38.4396928
            ],
            [
              48.7795145,
              38.441604
            ],
            [
              48.7799252,
              38.4437381
            ],
            [
              48.781439,
              38.444947
            ],
            [
              48.7827791,
              38.4469003
            ],
            [
              48.7841114,
              38.4473992
            ],
            [
              48.7853267,
              38.4471457
            ],
            [
              48.7862712,
              38.4472004
            ],
            [
              48.7870275,
              38.4480114
            ],
            [
              48.7872443,
              38.4488221
            ],
            [
              48.7872778,
              38.4498073
            ],
            [
              48.7877683,
              38.4505947
            ],
            [
              48.7883893,
              38.4509504
            ],
            [
              48.789171,
              38.4507088
            ],
            [
              48.7913236,
              38.4517477
            ],
            [
              48.7978856,
              38.4505343
            ],
            [
              48.7987924,
              38.4508212
            ],
            [
              48.7999963,
              38.4514834
            ],
            [
              48.8005299,
              38.4515051
            ],
            [
              48.801289,
              38.4511792
            ],
            [
              48.8019665,
              38.4498374
            ],
            [
              48.8024474,
              38.4494773
            ],
            [
              48.8035558,
              38.4490827
            ],
            [
              48.8042704,
              38.4491879
            ],
            [
              48.8050486,
              38.4489755
            ],
            [
              48.8065043,
              38.4493028
            ],
            [
              48.8080353,
              38.4490923
            ],
            [
              48.8089941,
              38.4492603
            ],
            [
              48.8098918,
              38.4488029
            ],
            [
              48.8106246,
              38.4480449
            ],
            [
              48.8115932,
              38.4476154
            ],
            [
              48.8136288,
              38.4480277
            ],
            [
              48.8144933,
              38.4497906
            ],
            [
              48.815262,
              38.4504148
            ],
            [
              48.8169241,
              38.4507551
            ],
            [
              48.8184354,
              38.4506562
            ],
            [
              48.8192659,
              38.4501612
            ],
            [
              48.8195732,
              38.4497355
            ],
            [
              48.8197822,
              38.4485753
            ],
            [
              48.8201993,
              38.4481808
            ],
            [
              48.8210939,
              38.4480921
            ],
            [
              48.8233257,
              38.4487124
            ],
            [
              48.8240135,
              38.4492084
            ],
            [
              48.8255962,
              38.4491873
            ],
            [
              48.8285316,
              38.4494517
            ],
            [
              48.8301645,
              38.4492316
            ],
            [
              48.8314203,
              38.4494912
            ],
            [
              48.8327394,
              38.4501949
            ],
            [
              48.8338401,
              38.4518064
            ],
            [
              48.8341871,
              38.4520393
            ],
            [
              48.8355211,
              38.4517143
            ],
            [
              48.8373341,
              38.4520686
            ],
            [
              48.8393056,
              38.451805
            ],
            [
              48.8411531,
              38.4522751
            ],
            [
              48.8418546,
              38.4521737
            ],
            [
              48.843133,
              38.4516614
            ],
            [
              48.8431281,
              38.4514148
            ],
            [
              48.84409,
              38.4503078
            ],
            [
              48.8444288,
              38.4501882
            ],
            [
              48.845484,
              38.4492578
            ],
            [
              48.8466433,
              38.4487061
            ],
            [
              48.8477548,
              38.448632
            ],
            [
              48.8491777,
              38.4492657
            ],
            [
              48.8498861,
              38.4499161
            ],
            [
              48.8508165,
              38.4503464
            ],
            [
              48.8513945,
              38.4497607
            ],
            [
              48.8514978,
              38.4490862
            ],
            [
              48.8520418,
              38.4487276
            ],
            [
              48.8527655,
              38.4485052
            ],
            [
              48.8536602,
              38.4487946
            ],
            [
              48.8549869,
              38.447732
            ],
            [
              48.8561715,
              38.4475076
            ],
            [
              48.858258,
              38.4463879
            ],
            [
              48.8590312,
              38.4464438
            ],
            [
              48.8601256,
              38.4461629
            ],
            [
              48.8624645,
              38.4444517
            ],
            [
              48.862732,
              38.4439447
            ],
            [
              48.8627289,
              38.443476
            ],
            [
              48.8634088,
              38.4426818
            ],
            [
              48.8644813,
              38.442253
            ],
            [
              48.8651488,
              38.4424111
            ],
            [
              48.8654777,
              38.4427489
            ],
            [
              48.865758,
              38.4435453
            ],
            [
              48.8656969,
              38.4439519
            ],
            [
              48.8660332,
              38.4442903
            ],
            [
              48.8675872,
              38.4445487
            ],
            [
              48.8680095,
              38.4444883
            ],
            [
              48.8688552,
              38.4438625
            ],
            [
              48.8693701,
              38.4428635
            ],
            [
              48.8711047,
              38.4409891
            ],
            [
              48.8717076,
              38.4405607
            ],
            [
              48.8727608,
              38.4402419
            ],
            [
              48.873879,
              38.4401977
            ],
            [
              48.8801215,
              38.4422252
            ],
            [
              48.8809664,
              38.4422288
            ],
            [
              48.8822901,
              38.4417873
            ],
            [
              49,
              38.446311098524035
            ],
            [
              49,
              39
            ],
            [
              48.31347671236403,
              39
            ],
            [
              48.3106045,
              38.9982821
            ],
            [
              48.3077952,
              38.9961588
            ],
            [
              48.2982769,
              38.986048
            ],
            [
              48.2984228,
              38.9836805
            ],
            [
              48.2973833,
              38.9829474
            ],
            [
              48.2962055,
              38.983356
            ],
            [
              48.2936239,
              38.9815289
            ],
            [
              48.2925906,
              38.9796628
            ],
            [
              48.2853084,
              38.9755466
            ],
            [
              48.2772997,
              38.9725795
            ],
            [
              48.2707532,
              38.9673018
            ],
            [
              48.2585654,
              38.9667263
            ],
            [
              48.2532906,
              38.964558
            ],
            [
              48.2395571,
              38.9649726
            ],
            [
              48.2369545,
              38.9637748
            ],
            [
              48.235745,
              38.9610004
            ],
            [
              48.2327512,
              38.9597761
            ],
            [
              48.2294145,
              38.95977
            ],
            [
              48.2176851,
              38.9554053
            ],
            [
              48.2109092,
              38.9556468
            ],
            [
              48.2086872,
              38.9540167
            ],
            [
              48.2064008,
              38.9532876
            ],
            [
              48.190793,
              38.9560432
            ],
            [
              48.1851767,
              38.9562114
            ],
            [
              48.1825617,
              38.9557547
            ],
            [
              48.1794589,
              38.9560189
            ],
            [
              48.1781374,
              38.9552131
            ],
            [
              48.1767835,
              38.9546729
            ],
            [
              48.1710632,
              38.9557254
            ],
            [
              48.1682119,
              38.9551415
            ],
            [
              48.1651341,
              38.9548658
            ],
            [
              48.1632172,
              38.9535003
            ],
            [
              48.1611304,
              38.9529714
            ],
            [
              48.159215,
              38.9532749
            ],
            [
              48.1587811,
              38.9538064
            ],
            [
              48.1565422,
              38.9540406
            ],
            [
              48.1548124,
              38.9530575
            ],
            [
              48.152481,
              38.952757
            ],
            [
              48.152847,
              38.9518138
            ],
            [
              48.1519715,
              38.9492072
            ],
            [
              48.1496539,
              38.9479364
            ],
            [
              48.1471086,
              38.9461598
            ],
            [
              48.1456799,
              38.9458717
            ],
            [
              48.1449112,
              38.9458785
            ],
            [
              48.144194,
              38.9461934
            ],
            [
              48.1426918,
              38.9463385
            ],
            [
              48.1395288,
              38.9469649
            ],
            [
              48.138089,
              38.9479156
            ],
            [
              48.1347513,
              38.9480754
            ],
            [
              48.127939,
              38.945918
            ],
            [
              48.1247362,
              38.9466804
            ],
            [
              48.1227535,
              38.9469538
            ],
            [
              48.1113935,
              38.9461589
            ],
            [
              48.1073052,
              38.9431561
            ],
            [
              48.0882345,
              38.9469508
            ],
            [
              48.0848494,
              38.9392544
            ],
            [
              48.0815724,
              38.9372849
            ],
            [
              48.0824656,
              38.9338592
            ],
            [
              48.0796942,
              38.9302334
            ],
            [
              48.0783123,
              38.9272383
            ],
            [
              48.0799833,
              38.9240089
            ],
            [
              48.078535,
              38.9207416
            ],
            [
              48.0795509,
              38.9172993
            ],
            [
              48.0692648,
              38.9109368
            ],
            [
              48.0629311,
              38.9105692
            ],
            [
              48.0540902,
              38.908744
            ],
            [
              48.0498167,
              38.9049984
            ],
            [
              48.0380272,
              38.9008003
            ],
            [
              48.0282078,
              38.8994282
            ],
            [
              48.0226406,
              38.9098258
            ],
            [
              48.019223,
              38.9120261
            ],
            [
              48.01027,
              38.907306
            ]
          ]
        ]
      }
    },
    {
      "type": "Feature",
      "properties": {
        "osm_id": -304938,
        "boundary": "administrative",
        "admin_level": 2,
        "parents": null,
        "name": "Iran",
        "local_name": "ایران",
        "name_en": "Iran",
        "all_tags": {
          "flag": "http://upload.wikimedia.org/wikipedia/commons/c/ca/Flag_of_Iran.svg",
          "name": "ایران",
          "sqkm": "1628762",
          "name:af": "Iran",
          "name:am": "ፋርስ",
          "name:an": "Irán",
          "name:ar": "إیران",
          "name:az": "İran",
          "name:ba": "Иран",
          "name:be": "Іран",
          "name:bg": "Иран",
          "name:bn": "ইরান",
          "name:bo": "ཡི་ལང་།",
          "name:br": "Iran",
          "name:bs": "Iran",
          "name:ca": "Iran",
          "name:ce": "Иран",
          "name:co": "Iranu",
          "name:cs": "Írán",
          "name:cy": "Iran",
          "name:da": "Iran",
          "name:de": "Iran",
          "name:dv": "އީރާން",
          "name:dz": "ཨི་རཱན་",
          "name:el": "Ιράν",
          "name:en": "Iran",
          "name:eo": "Irano",
          "name:es": "Irán",
          "name:et": "Iraan",
          "name:eu": "Iran",
          "name:fa": "ایران",
          "name:fi": "Iran",
          "name:fo": "Iran",
          "name:fr": "Iran",
          "name:fy": "Iran",
          "name:ga": "An Iaráin",
          "name:gd": "Ioràn",
          "name:gl": "Irán - ایران",
          "name:gn": "Irán",
          "name:gu": "ઈરાન",
          "name:gv": "Yn Eeraan",
          "name:ha": "Iran",
          "name:he": "איראן",
          "name:hi": "ईरान",
          "name:hr": "Iran",
          "name:ht": "Iran",
          "name:hu": "Irán",
          "name:hy": "Իրան",
          "name:ia": "Iran",
          "name:id": "Iran",
          "name:ie": "Iran",
          "name:io": "Iran",
          "name:is": "Íran",
          "name:it": "Iran",
          "name:ja": "イラン",
          "name:jv": "Iran",
          "name:ka": "ირანი",
          "name:kk": "Иран",
          "name:kl": "Iran",
          "name:km": "អ៊ីរ៉ង់",
          "name:kn": "ಇರಾನ್",
          "name:ko": "이란",
          "name:ks": "ایٖران",
          "name:ku": "Îran",
          "name:kv": "Иран",
          "name:kw": "Iran",
          "name:ky": "Иран",
          "name:la": "Irania",
          "name:lb": "Iran",
          "name:li": "Iran",
          "name:ln": "Iran",
          "name:lt": "Iranas",
          "name:lv": "Irāna",
          "name:mg": "Iran",
          "name:mi": "Irāna",
          "name:mk": "Иран",
          "name:ml": "ഇറാൻ",
          "name:mn": "Иран",
          "name:mr": "इराण",
          "name:ms": "Iran",
          "name:mt": "Iran",
          "name:my": "အီရန်နိုင်ငံ",
          "name:na": "Iran",
          "name:ne": "इरान",
          "name:nl": "Iran",
          "name:nn": "Iran",
          "name:no": "Iran",
          "name:nv": "Iiwą́ą́",
          "name:oc": "Iran",
          "name:or": "ଇରାନ",
          "name:os": "Иран",
          "name:pa": "ਇਰਾਨ",
          "name:pl": "Iran",
          "name:ps": "ایران",
          "name:pt": "Irão",
          "name:qu": "Iran",
          "name:rm": "Iran",
          "name:ro": "Iran",
          "name:ru": "Иран",
          "name:rw": "Irani",
          "name:sa": "ईरान",
          "name:sc": "Iran",
          "name:se": "Iran",
          "name:sh": "Iran",
          "name:si": "ඉරානය",
          "name:sk": "Irán",
          "name:sl": "Iran",
          "name:so": "Iiraan",
          "name:sq": "Irani",
          "name:sr": "Иран",
          "name:ss": "I-Irani",
          "name:su": "Iran",
          "name:sv": "Iran",
          "name:sw": "Uajemi",
          "name:ta": "ஈரான்",
          "name:te": "ఇరాన్",
          "name:tg": "Эрон",
          "name:th": "ประเทศอิหร่าน",
          "name:tk": "Eýran",
          "name:tl": "Iran",
          "name:tr": "İran",
          "name:tt": "Иран",
          "name:tw": "Iran",
          "name:ug": "ئىران",
          "name:uk": "Іран",
          "name:ur": "ایران",
          "name:uz": "Eron",
          "name:vi": "Iran",
          "name:vo": "Lirän",
          "name:wa": "Iran",
          "name:wo": "Iraan",
          "name:yi": "איראן",
          "name:yo": "Ìránì",
          "name:za": "Iran",
          "name:zh": "伊朗",
          "name:zu": "I-Irani",
          "boundary": "administrative",
          "int_name": "Iran",
          "name:ace": "Iran",
          "name:als": "Iran",
          "name:ang": "Persealand",
          "name:arc": "ܐܝܪܐܢ",
          "name:arz": "ایران",
          "name:ast": "Irán",
          "name:azb": "ایران",
          "name:bar": "Iran",
          "name:bcl": "Iran",
          "name:bpy": "ইরান",
          "name:bug": "Iran",
          "name:bxr": "Иран",
          "name:cdo": "Ĭ-lāng",
          "name:ceb": "Iran",
          "name:ckb": "ئێران",
          "name:crh": "İran",
          "name:csb": "Iran",
          "name:diq": "İran",
          "name:dsb": "Iran",
          "name:ext": "Irán",
          "name:frp": "Éran",
          "name:gag": "İran",
          "name:gan": "伊朗",
          "name:grc": "Περσίς",
          "name:hak": "Yî-lóng",
          "name:haw": "‘Ilana",
          "name:hif": "Iran",
          "name:hsb": "Iran",
          "name:ilo": "Iran",
          "name:jbo": "iran",
          "name:kaa": "İran",
          "name:kab": "Iran",
          "name:kbd": "Къажэр",
          "name:lad": "Iran",
          "name:lbe": "Иран",
          "name:lez": "Иран",
          "name:lij": "Iran",
          "name:lmo": "Iran",
          "name:lzh": "伊朗",
          "name:mdf": "Иран",
          "name:mhr": "Иран",
          "name:mzn": "ایران",
          "name:nah": "Iran",
          "name:nan": "Iran",
          "name:nap": "Iran",
          "name:nds": "Iran",
          "name:new": "इरान",
          "name:nov": "Iran",
          "name:pam": "Iran",
          "name:pap": "Iran",
          "name:pcd": "Iran",
          "name:pdc": "Iraen",
          "name:pih": "Eraan",
          "name:pms": "Iran",
          "name:pnb": "ایران",
          "name:rue": "Іран",
          "name:sah": "Ираан",
          "name:scn": "Iran",
          "name:sco": "Iran",
          "name:smn": "Iran",
          "name:sms": "Iraan",
          "name:stq": "Iran",
          "name:syc": "ܐܝܪܐܢ",
          "name:szl": "Iran",
          "name:tok": "ma Ilan",
          "name:udm": "Иран",
          "name:vec": "Iran",
          "name:vep": "Iran",
          "name:vro": "Iraan",
          "name:war": "Iran",
          "name:wuu": "伊朗",
          "name:xmf": "ირანი",
          "name:yue": "伊朗",
          "name:zea": "Iran",
          "timezone": "Asia/Tehran",
          "way_area": "163.814",
          "wikidata": "Q794",
          "ISO3166-1": "IR",
          "wikipedia": "fa:ایران",
          "name:pt-BR": "Irã",
          "population": "79926270",
          "admin_level": "2",
          "border_type": "nation",
          "name:nds-nl": "Iran",
          "name:simple": "Iran",
          "old_name:ar": "فارس",
          "old_name:cs": "Persie",
          "old_name:de": "Persien",
          "old_name:en": "Persia",
          "old_name:es": "Persia",
          "old_name:fr": "Perse",
          "old_name:pa": "ਪਾਰਸ",
          "old_name:ur": "پارس‎",
          "name:bat-smg": "Irans",
          "name:roa-rup": "Iran",
          "name:zh-Hans": "伊朗",
          "name:zh-Hant": "伊朗",
          "old_name:grc": "Περσίς",
          "name:roa-tara": "Iran",
          "official_name": "جمهوری اسلامی ایران",
          "name:be-tarask": "Іран",
          "population:date": "2016",
          "ISO3166-1:alpha2": "IR",
          "ISO3166-1:alpha3": "IRN",
          "default_language": "fa",
          "official_name:ar": "الجمهورية الإسلامية الإيرانية",
          "official_name:cs": "Íránská islámská republika",
          "official_name:cv": "Ислам Республики Иран",
          "official_name:de": "Islamische Republik Iran",
          "official_name:en": "Islamic Republic of Iran",
          "official_name:es": "República Islámica de Irán",
          "official_name:fr": "République islamique d'Iran",
          "official_name:pa": "ਈਰਾਨ ਦਾ ਇਸਲਾਮੀ ਗਣਤੰਤਰ",
          "official_name:ru": "Исламская Республика Иран",
          "official_name:sr": "Исламска Република Иран",
          "official_name:ur": "اسلامی جمہوریۂ ایران",
          "ISO3166-1:numeric": "364",
          "official_name:azb": "ایران ایسلام جۇمهۇریَّتی",
          "official_name:xal": "Сарта Иранмудин Орн"
        }
      },
      "geometry": {
        "type": "Polygon",
        "coordinates": [
          [
            [
              48,
              38
            ],
            [
              49,
              38
            ],
            [
              49,
              38.44631161443043
            ],
            [
              48.8822901,
              38.4417873
            ],
            [
              48.8809664,
              38.4422288
            ],
            [
              48.8801215,
              38.4422252
            ],
            [
              48.873879,
              38.4401977
            ],
            [
              48.8727608,
              38.4402419
            ],
            [
              48.8717076,
              38.4405607
            ],
            [
              48.8711047,
              38.4409891
            ],
            [
              48.8693701,
              38.4428635
            ],
            [
              48.8688552,
              38.4438625
            ],
            [
              48.8680095,
              38.4444883
            ],
            [
              48.8675872,
              38.4445487
            ],
            [
              48.8660332,
              38.4442903
            ],
            [
              48.8656969,
              38.4439519
            ],
            [
              48.865758,
              38.4435453
            ],
            [
              48.8654777,
              38.4427489
            ],
            [
              48.8651488,
              38.4424111
            ],
            [
              48.8644813,
              38.442253
            ],
            [
              48.8634088,
              38.4426818
            ],
            [
              48.8627289,
              38.443476
            ],
            [
              48.862732,
              38.4439447
            ],
            [
              48.8624645,
              38.4444517
            ],
            [
              48.8601256,
              38.4461629
            ],
            [
              48.8590312,
              38.4464438
            ],
            [
              48.858258,
              38.4463879
            ],
            [
              48.8561715,
              38.4475076
            ],
            [
              48.8549869,
              38.447732
            ],
            [
              48.8536602,
              38.4487946
            ],
            [
              48.8527655,
              38.4485052
            ],
            [
              48.8520418,
              38.4487276
            ],
            [
              48.8514978,
              38.4490862
            ],
            [
              48.8513945,
              38.4497607
            ],
            [
              48.8508165,
              38.4503464
            ],
            [
              48.8498861,
              38.4499161
            ],
            [
              48.8491777,
              38.4492657
            ],
            [
              48.8477548,
              38.448632
            ],
            [
              48.8466433,
              38.4487061
            ],
            [
              48.845484,
              38.4492578
            ],
            [
              48.8444288,
              38.4501882
            ],
            [
              48.84409,
              38.4503078
            ],
            [
              48.8431281,
              38.4514148
            ],
            [
              48.843133,
              38.4516614
            ],
            [
              48.8418546,
              38.4521737
            ],
            [
              48.8411531,
              38.4522751
            ],
            [
              48.8393056,
              38.451805
            ],
            [
              48.8373341,
              38.4520686
            ],
            [
              48.8355211,
              38.4517143
            ],
            [
              48.8341871,
              38.4520393
            ],
            [
              48.8338401,
              38.4518064
            ],
            [
              48.8327394,
              38.4501949
            ],
            [
              48.8314203,
              38.4494912
            ],
            [
              48.8301645,
              38.4492316
            ],
            [
              48.8285316,
              38.4494517
            ],
            [
              48.8255962,
              38.4491873
            ],
            [
              48.8240135,
              38.4492084
            ],
            [
              48.8233257,
              38.4487124
            ],
            [
              48.8210939,
              38.4480921
            ],
            [
              48.8201993,
              38.4481808
            ],
            [
              48.8197822,
              38.4485753
            ],
            [
              48.8195732,
              38.4497355
            ],
            [
              48.8192659,
              38.4501612
            ],
            [
              48.8184354,
              38.4506562
            ],
            [
              48.8169241,
              38.4507551
            ],
            [
              48.815262,
              38.4504148
            ],
            [
              48.8144933,
              38.4497906
            ],
            [
              48.8136288,
              38.4480277
            ],
            [
              48.8115932,
              38.4476154
            ],
            [
              48.8106246,
              38.4480449
            ],
            [
              48.8098918,
              38.4488029
            ],
            [
              48.8089941,
              38.4492603
            ],
            [
              48.8080353,
              38.4490923
            ],
            [
              48.8065043,
              38.4493028
            ],
            [
              48.8050486,
              38.4489755
            ],
            [
              48.8042704,
              38.4491879
            ],
            [
              48.8035558,
              38.4490827
            ],
            [
              48.8024474,
              38.4494773
            ],
            [
              48.8019665,
              38.4498374
            ],
            [
              48.801289,
              38.4511792
            ],
            [
              48.8005299,
              38.4515051
            ],
            [
              48.7999963,
              38.4514834
            ],
            [
              48.7987924,
              38.4508212
            ],
            [
              48.7978856,
              38.4505343
            ],
            [
              48.7913236,
              38.4517477
            ],
            [
              48.789171,
              38.4507088
            ],
            [
              48.7883893,
              38.4509504
            ],
            [
              48.7877683,
              38.4505947
            ],
            [
              48.7872778,
              38.4498073
            ],
            [
              48.7872443,
              38.4488221
            ],
            [
              48.7870275,
              38.4480114
            ],
            [
              48.7862712,
              38.4472004
            ],
            [
              48.7853267,
              38.4471457
            ],
            [
              48.7841114,
              38.4473992
            ],
            [
              48.7827791,
              38.4469003
            ],
            [
              48.781439,
              38.444947
            ],
            [
              48.7799252,
              38.4437381
            ],
            [
              48.7795145,
              38.441604
            ],
            [
              48.7742558,
              38.4396928
            ],
            [
              48.7719475,
              38.4401542
            ],
            [
              48.7700408,
              38.4413435
            ],
            [
              48.76731,
              38.440739
            ],
            [
              48.7648876,
              38.43793
            ],
            [
              48.7642574,
              38.4345715
            ],
            [
              48.7614328,
              38.4332757
            ],
            [
              48.7598002,
              38.431183
            ],
            [
              48.7578791,
              38.4305851
            ],
            [
              48.756268,
              38.4289275
            ],
            [
              48.7533339,
              38.4282408
            ],
            [
              48.7524734,
              38.4249915
            ],
            [
              48.7487879,
              38.4235326
            ],
            [
              48.7478518,
              38.4225018
            ],
            [
              48.7478974,
              38.4190443
            ],
            [
              48.7468532,
              38.4171495
            ],
            [
              48.7431185,
              38.4158349
            ],
            [
              48.7413672,
              38.4144627
            ],
            [
              48.7398237,
              38.4120439
            ],
            [
              48.7383031,
              38.4111207
            ],
            [
              48.7327592,
              38.4116718
            ],
            [
              48.7308783,
              38.4107843
            ],
            [
              48.7259062,
              38.409945
            ],
            [
              48.7231122,
              38.4101134
            ],
            [
              48.7207348,
              38.4085225
            ],
            [
              48.7169976,
              38.4079736
            ],
            [
              48.7135296,
              38.4083883
            ],
            [
              48.7111797,
              38.4079736
            ],
            [
              48.7067974,
              38.4083586
            ],
            [
              48.7023639,
              38.4066477
            ],
            [
              48.7012954,
              38.4053219
            ],
            [
              48.6993927,
              38.4053138
            ],
            [
              48.6943126,
              38.4011517
            ],
            [
              48.6936669,
              38.4002742
            ],
            [
              48.6906392,
              38.3992739
            ],
            [
              48.6860783,
              38.398891
            ],
            [
              48.6815596,
              38.3974225
            ],
            [
              48.6764884,
              38.3970701
            ],
            [
              48.6710869,
              38.3958997
            ],
            [
              48.6686731,
              38.3969525
            ],
            [
              48.6673394,
              38.396469
            ],
            [
              48.6664693,
              38.3942382
            ],
            [
              48.6635134,
              38.3934911
            ],
            [
              48.6622715,
              38.3929551
            ],
            [
              48.6592833,
              38.3933659
            ],
            [
              48.6570243,
              38.3960313
            ],
            [
              48.6560848,
              38.3981499
            ],
            [
              48.6544846,
              38.3978572
            ],
            [
              48.6508748,
              38.4000145
            ],
            [
              48.6459001,
              38.4014102
            ],
            [
              48.6421851,
              38.401147
            ],
            [
              48.6409568,
              38.3996062
            ],
            [
              48.6390158,
              38.3991402
            ],
            [
              48.63713,
              38.3995158
            ],
            [
              48.6325079,
              38.402033
            ],
            [
              48.6289704,
              38.4021763
            ],
            [
              48.6282904,
              38.4038445
            ],
            [
              48.6262755,
              38.4045353
            ],
            [
              48.6250371,
              38.4046176
            ],
            [
              48.6236099,
              38.4052919
            ],
            [
              48.6223296,
              38.4074136
            ],
            [
              48.6191602,
              38.4078084
            ],
            [
              48.6184046,
              38.4086965
            ],
            [
              48.6166416,
              38.4092722
            ],
            [
              48.6162123,
              38.4099405
            ],
            [
              48.6145958,
              38.4103575
            ],
            [
              48.6081648,
              38.4154124
            ],
            [
              48.6062137,
              38.4162401
            ],
            [
              48.6048366,
              38.4162494
            ],
            [
              48.6038299,
              38.4170543
            ],
            [
              48.6030904,
              38.4168128
            ],
            [
              48.6018782,
              38.4173601
            ],
            [
              48.602248,
              38.4237662
            ],
            [
              48.6009743,
              38.424233
            ],
            [
              48.5982694,
              38.4260715
            ],
            [
              48.5981218,
              38.427941
            ],
            [
              48.59423,
              38.4315578
            ],
            [
              48.5925356,
              38.4352187
            ],
            [
              48.591972,
              38.4369483
            ],
            [
              48.5928854,
              38.4459367
            ],
            [
              48.5904182,
              38.4495263
            ],
            [
              48.5915804,
              38.4530758
            ],
            [
              48.5908553,
              38.4556542
            ],
            [
              48.5873966,
              38.4546229
            ],
            [
              48.5832971,
              38.456565
            ],
            [
              48.5828061,
              38.4585362
            ],
            [
              48.5818264,
              38.4603383
            ],
            [
              48.5819095,
              38.4608046
            ],
            [
              48.5815206,
              38.4627736
            ],
            [
              48.5788532,
              38.4637336
            ],
            [
              48.579433,
              38.4668173
            ],
            [
              48.5737245,
              38.4687234
            ],
            [
              48.5743428,
              38.4709341
            ],
            [
              48.5663616,
              38.4800099
            ],
            [
              48.5632224,
              38.4796501
            ],
            [
              48.5571388,
              38.4811685
            ],
            [
              48.5567157,
              38.4841492
            ],
            [
              48.5529332,
              38.4859712
            ],
            [
              48.5530467,
              38.4886581
            ],
            [
              48.5496942,
              38.4907226
            ],
            [
              48.5511373,
              38.4927909
            ],
            [
              48.5507374,
              38.4940918
            ],
            [
              48.5433359,
              38.4958484
            ],
            [
              48.5376386,
              38.5034509
            ],
            [
              48.5323299,
              38.5044347
            ],
            [
              48.5310683,
              38.5059085
            ],
            [
              48.5266739,
              38.5142544
            ],
            [
              48.5219245,
              38.515759
            ],
            [
              48.5176091,
              38.5154365
            ],
            [
              48.5167375,
              38.5174825
            ],
            [
              48.5133037,
              38.518379
            ],
            [
              48.5139596,
              38.5223081
            ],
            [
              48.509365,
              38.5256711
            ],
            [
              48.508275,
              38.527929
            ],
            [
              48.5077893,
              38.5395051
            ],
            [
              48.5053279,
              38.5426712
            ],
            [
              48.5055078,
              38.5470001
            ],
            [
              48.4950289,
              38.5532719
            ],
            [
              48.4887298,
              38.552604
            ],
            [
              48.483957,
              38.5540011
            ],
            [
              48.4768878,
              38.5515793
            ],
            [
              48.4722042,
              38.5535327
            ],
            [
              48.4706685,
              38.5564238
            ],
            [
              48.4685627,
              38.5571989
            ],
            [
              48.4681091,
              38.5616275
            ],
            [
              48.4672182,
              38.5622126
            ],
            [
              48.464684,
              38.5613214
            ],
            [
              48.4619022,
              38.5653001
            ],
            [
              48.4621515,
              38.5700897
            ],
            [
              48.4592363,
              38.5775474
            ],
            [
              48.4545155,
              38.5811489
            ],
            [
              48.4541344,
              38.5831819
            ],
            [
              48.4567645,
              38.5859578
            ],
            [
              48.4541987,
              38.5872005
            ],
            [
              48.4535289,
              38.5897663
            ],
            [
              48.4586107,
              38.5980425
            ],
            [
              48.4584176,
              38.6005604
            ],
            [
              48.4559619,
              38.6041669
            ],
            [
              48.4592932,
              38.6076878
            ],
            [
              48.4514814,
              38.6104553
            ],
            [
              48.4474559,
              38.6100329
            ],
            [
              48.4445053,
              38.6120433
            ],
            [
              48.4413158,
              38.6127221
            ],
            [
              48.4358582,
              38.6117569
            ],
            [
              48.4314838,
              38.613568
            ],
            [
              48.4251103,
              38.6132877
            ],
            [
              48.4214685,
              38.6101129
            ],
            [
              48.4179562,
              38.6090349
            ],
            [
              48.4161312,
              38.6059235
            ],
            [
              48.4094692,
              38.6042654
            ],
            [
              48.4079422,
              38.6023118
            ],
            [
              48.3903587,
              38.602443
            ],
            [
              48.3884074,
              38.6050457
            ],
            [
              48.3856521,
              38.6051448
            ],
            [
              48.3818225,
              38.6036449
            ],
            [
              48.3800827,
              38.6018152
            ],
            [
              48.3755371,
              38.6008763
            ],
            [
              48.3742251,
              38.6002886
            ],
            [
              48.3736743,
              38.5984105
            ],
            [
              48.3669945,
              38.5981543
            ],
            [
              48.361489,
              38.5948538
            ],
            [
              48.3563145,
              38.5977879
            ],
            [
              48.3507154,
              38.5951324
            ],
            [
              48.3440111,
              38.5990316
            ],
            [
              48.3415533,
              38.5995834
            ],
            [
              48.3389146,
              38.6012482
            ],
            [
              48.3384919,
              38.6011707
            ],
            [
              48.3376207,
              38.6003004
            ],
            [
              48.3369411,
              38.5998952
            ],
            [
              48.3356942,
              38.5996784
            ],
            [
              48.3334119,
              38.5999759
            ],
            [
              48.3299424,
              38.6028884
            ],
            [
              48.3298235,
              38.6038175
            ],
            [
              48.3287219,
              38.603958
            ],
            [
              48.3282043,
              38.604264
            ],
            [
              48.3258347,
              38.6042457
            ],
            [
              48.3211746,
              38.6020176
            ],
            [
              48.3102234,
              38.6076539
            ],
            [
              48.3083656,
              38.6111998
            ],
            [
              48.307157,
              38.6130918
            ],
            [
              48.3072358,
              38.6206222
            ],
            [
              48.3042708,
              38.6219208
            ],
            [
              48.3028275,
              38.625776
            ],
            [
              48.300278,
              38.629444
            ],
            [
              48.296569,
              38.6313734
            ],
            [
              48.296944,
              38.633611
            ],
            [
              48.293611,
              38.637778
            ],
            [
              48.2958296,
              38.642036
            ],
            [
              48.2949419,
              38.6473191
            ],
            [
              48.2854652,
              38.649176
            ],
            [
              48.2833771,
              38.6524101
            ],
            [
              48.2784822,
              38.6521196
            ],
            [
              48.2754678,
              38.6546514
            ],
            [
              48.2681875,
              38.657183
            ],
            [
              48.2582341,
              38.6576272
            ],
            [
              48.252657,
              38.6619076
            ],
            [
              48.2530584,
              38.6825838
            ],
            [
              48.2515016,
              38.6847685
            ],
            [
              48.2503806,
              38.685515
            ],
            [
              48.2479729,
              38.6891965
            ],
            [
              48.248041,
              38.6917769
            ],
            [
              48.2522601,
              38.6965666
            ],
            [
              48.2583002,
              38.6986486
            ],
            [
              48.259391,
              38.7085091
            ],
            [
              48.2539181,
              38.7135783
            ],
            [
              48.2495889,
              38.7168961
            ],
            [
              48.2468845,
              38.7217306
            ],
            [
              48.2491558,
              38.7260959
            ],
            [
              48.2431049,
              38.7288771
            ],
            [
              48.2424671,
              38.7312832
            ],
            [
              48.2325418,
              38.7324095
            ],
            [
              48.2237072,
              38.7346897
            ],
            [
              48.2205007,
              38.7378686
            ],
            [
              48.2173601,
              38.7364213
            ],
            [
              48.2064716,
              38.7398805
            ],
            [
              48.2023756,
              38.7437628
            ],
            [
              48.2002006,
              38.7449251
            ],
            [
              48.1997534,
              38.7489061
            ],
            [
              48.190467,
              38.7517875
            ],
            [
              48.1918136,
              38.7562153
            ],
            [
              48.1726754,
              38.7617366
            ],
            [
              48.1631169,
              38.7597045
            ],
            [
              48.1482129,
              38.7627958
            ],
            [
              48.1447196,
              38.7668058
            ],
            [
              48.1360452,
              38.7672396
            ],
            [
              48.1329405,
              38.7699824
            ],
            [
              48.1298333,
              38.7684374
            ],
            [
              48.1213841,
              38.7697913
            ],
            [
              48.1204203,
              38.7710563
            ],
            [
              48.1157576,
              38.7709194
            ],
            [
              48.1115885,
              38.7698762
            ],
            [
              48.1073103,
              38.7698813
            ],
            [
              48.1055997,
              38.7730359
            ],
            [
              48.1041168,
              38.7741581
            ],
            [
              48.1027746,
              38.7759556
            ],
            [
              48.1011708,
              38.7768986
            ],
            [
              48.1022216,
              38.7795217
            ],
            [
              48.1038585,
              38.7805091
            ],
            [
              48.1047297,
              38.7828996
            ],
            [
              48.1070769,
              38.7866635
            ],
            [
              48.1071082,
              38.7885576
            ],
            [
              48.0931903,
              38.7890377
            ],
            [
              48.0882912,
              38.7939844
            ],
            [
              48.0783816,
              38.7938976
            ],
            [
              48.0797177,
              38.8009266
            ],
            [
              48.068472,
              38.8031826
            ],
            [
              48.0611234,
              38.808649
            ],
            [
              48.0488756,
              38.8118591
            ],
            [
              48.0448673,
              38.8163705
            ],
            [
              48.0408589,
              38.815503
            ],
            [
              48.0359609,
              38.824387
            ],
            [
              48.034789,
              38.830722
            ],
            [
              48.0207028,
              38.8378898
            ],
            [
              48.0129562,
              38.8809304
            ],
            [
              48.0107745,
              38.9004693
            ],
            [
              48.01027,
              38.907306
            ],
            [
              48.019223,
              38.9120261
            ],
            [
              48.0226406,
              38.9098258
            ],
            [
              48.0282078,
              38.8994282
            ],
            [
              48.0380272,
              38.9008003
            ],
            [
              48.0498167,
              38.9049984
            ],
            [
              48.0540902,
              38.908744
            ],
            [
              48.0629311,
              38.9105692
            ],
            [
              48.0692648,
              38.9109368
            ],
            [
              48.0795509,
              38.9172993
            ],
            [
              48.078535,
              38.9207416
            ],
            [
              48.0799833,
              38.9240089
            ],
            [
              48.0783123,
              38.9272383
            ],
            [
              48.0796942,
              38.9302334
            ],
            [
              48.0824656,
              38.9338592
            ],
            [
              48.0815724,
              38.9372849
            ],
            [
              48.0848494,
              38.9392544
            ],
            [
              48.0882345,
              38.9469508
            ],
            [
              48.1073052,
              38.9431561
            ],
            [
              48.1113935,
              38.9461589
            ],
            [
              48.1227535,
              38.9469538
            ],
            [
              48.1247362,
              38.9466804
            ],
            [
              48.127939,
              38.945918
            ],
            [
              48.1347513,
              38.9480754
            ],
            [
              48.138089,
              38.9479156
            ],
            [
              48.1395288,
              38.9469649
            ],
            [
              48.1426918,
              38.9463385
            ],
            [
              48.144194,
              38.9461934
            ],
            [
              48.1449112,
              38.9458785
            ],
            [
              48.1456799,
              38.9458717
            ],
            [
              48.1471086,
              38.9461598
            ],
            [
              48.1496539,
              38.9479364
            ],
            [
              48.1519715,
              38.9492072
            ],
            [
              48.152847,
              38.9518138
            ],
            [
              48.152481,
              38.952757
            ],
            [
              48.1548124,
              38.9530575
            ],
            [
              48.1565422,
              38.9540406
            ],
            [
              48.1587811,
              38.9538064
            ],
            [
              48.159215,
              38.9532749
            ],
            [
              48.1611304,
              38.9529714
            ],
            [
              48.1632172,
              38.9535003
            ],
            [
              48.1651341,
              38.9548658
            ],
            [
              48.1682119,
              38.9551415
            ],
            [
              48.1710632,
              38.9557254
            ],
            [
              48.1767835,
              38.9546729
            ],
            [
              48.1781374,
              38.9552131
            ],
            [
              48.1794589,
              38.9560189
            ],
            [
              48.1825617,
              38.9557547
            ],
            [
              48.1851767,
              38.9562114
            ],
            [
              48.190793,
              38.9560432
            ],
            [
              48.2064008,
              38.9532876
            ],
            [
              48.2086872,
              38.9540167
            ],
            [
              48.2109092,
              38.9556468
            ],
            [
              48.2176851,
              38.9554053
            ],
            [
              48.2294145,
              38.95977
            ],
            [
              48.2327512,
              38.9597761
            ],
            [
              48.235745,
              38.9610004
            ],
            [
              48.2369545,
              38.9637748
            ],
            [
              48.2395571,
              38.9649726
            ],
            [
              48.2532906,
              38.964558
            ],
            [
              48.2585654,
              38.9667263
            ],
            [
              48.2707532,
              38.9673018
            ],
            [
              48.2772997,
              38.9725795
            ],
            [
              48.2853084,
              38.9755466
            ],
            [
              48.2925906,
              38.9796628
            ],
            [
              48.2936239,
              38.9815289
            ],
            [
              48.2962055,
              38.983356
            ],
            [
              48.2973833,
              38.9829474
            ],
            [
              48.2984228,
              38.9836805
            ],
            [
              48.2982769,
              38.986048
            ],
            [
              48.3077952,
              38.9961588
            ],
            [
              48.3106045,
              38.9982821
            ],
            [
              48.31347671236403,
              39
            ],
            [
              48,
              39
            ],
            [
              48,
              38
            ]
          ]
        ]
      }
    }
  ]
}