{
  "type": "FeatureCollection",
  "features": [
    {
      "type": "Feature",
      "properties": {
        "osm_id": -192796,
        "boundary": "administrative",
        "admin_level": 2,
        "parents": null,
        "name": "Uganda",
        "local_name": "Uganda",
        "name_en": "Uganda",
        "all_tags": {
          "flag": "http://upload.wikimedia.org/wikipedia/commons/4/4e/Flag_of_Uganda.svg",
          "name": "Uganda",
          "name:af": "Uganda",
          "name:am": "ዩጋንዳ",
          "name:an": "Uganda",
          "name:ar": "أوغندا",
          "name:az": "Uqanda",
          "name:ba": "Уганда",
          "name:be": "Уганда",
          "name:bg": "Уганда",
          "name:bm": "Uganda",
          "name:bn": "উগান্ডা",
          "name:bo": "ཨུ་གན་ད།",
          "name:br": "Ouganda",
          "name:bs": "Uganda",
          "name:ca": "Uganda",
          "name:ce": "Уганда",
          "name:cs": "Uganda",
          "name:cv": "Уганда",
          "name:cy": "Uganda",
          "name:da": "Uganda",
          "name:de": "Uganda",
          "name:dv": "ޔުގެންޑާ",
          "name:ee": "Uganda",
          "name:el": "Ουγκάντα",
          "name:en": "Uganda",
          "name:eo": "Ugando",
          "name:es": "Uganda",
          "name:et": "Uganda",
          "name:eu": "Uganda",
          "name:fa": "اوگاندا",
          "name:fi": "Uganda",
          "name:fo": "Uganda",
          "name:fr": "Ouganda",
          "name:fy": "Uganda",
          "name:ga": "Uganda",
          "name:gd": "Uganda",
          "name:gl": "Uganda",
          "name:gn": "Ugánda",
          "name:gv": "Ooganda",
          "name:ha": "Uganda",
          "name:he": "אוגנדה",
          "name:hi": "युगाण्डा",
          "name:hr": "Uganda",
          "name:ht": "Ouganda",
          "name:hu": "Uganda",
          "name:hy": "Ուգանդա",
          "name:ia": "Uganda",
          "name:id": "Uganda",
          "name:ie": "Uganda",
          "name:io": "Uganda",
          "name:is": "Úganda",
          "name:it": "Uganda",
          "name:ja": "ウガンダ",
          "name:jv": "Uganda",
          "name:ka": "უგანდა",
          "name:kg": "Uganda",
          "name:ki": "Uganda",
          "name:kk": "Уганда",
          "name:kl": "Uganda",
          "name:kn": "ಉಗಾಂಡ",
          "name:ko": "우간다",
          "name:ku": "Ûganda",
          "name:kw": "Ouganda",
          "name:la": "Uganda",
          "name:lb": "Uganda",
          "name:lg": "Yuganda",
          "name:li": "Oeganda",
          "name:ln": "Uganda",
          "name:lt": "Uganda",
          "name:lv": "Uganda",
          "name:mi": "Ukānga",
          "name:mk": "Уганда",
          "name:ml": "ഉഗാണ്ട",
          "name:mn": "Уганда",
          "name:mr": "युगांडा",
          "name:ms": "Uganda",
          "name:mt": "Uganda",
          "name:my": "ယူဂန်းဒါးနိုင်ငံ",
          "name:nl": "Oeganda",
          "name:nn": "Uganda",
          "name:no": "Uganda",
          "name:nv": "Yogénda",
          "name:oc": "Oganda",
          "name:or": "ଉଗାଣ୍ଡା",
          "name:os": "Угандæ",
          "name:pa": "ਯੁਗਾਂਡਾ",
          "name:pl": "Uganda",
          "name:pt": "Uganda",
          "name:qu": "Uganda",
          "name:rm": "Uganda",
          "name:ro": "Uganda",
          "name:ru": "Уганда",
          "name:rw": "Ubugande",
          "name:sc": "Uganda",
          "name:se": "Uganda",
          "name:sg": "Ugandäa",
          "name:sh": "Uganda",
          "name:sk": "Uganda",
          "name:sl": "Uganda",
          "name:sn": "Uganda",
          "name:so": "Yugandha",
          "name:sq": "Uganda",
          "name:sr": "Уганда",
          "name:ss": "IBuganda",
          "name:su": "Uganda",
          "name:sv": "Uganda",
          "name:sw": "Uganda",
          "name:ta": "உகாண்டா",
          "name:te": "ఉగాండా",
          "name:tg": "Уганда",
          "name:th": "ประเทศยูกันดา",
          "name:tk": "Uganda",
          "name:tl": "Uganda",
          "name:tr": "Uganda",
          "name:ts": "Uganda",
          "name:tt": "Уганда",
          "name:ug": "ئۇگاندا",
          "name:uk": "Уганда",
          "name:ur": "یوگنڈا",
          "name:uz": "Uganda",
          "name:vi": "Uganda",
          "name:vo": "Lugandayän",
          "name:wo": "Ugandaa",
          "name:yi": "אוגאנדע",
          "name:yo": "Ùgándà",
          "name:zh": "乌干达 / 烏干達",
          "name:zu": "IYuganda",
          "boundary": "administrative",
          "currency": "UGX",
          "name:ace": "Uganda",
          "name:als": "Uganda",
          "name:ang": "Uganda",
          "name:arz": "اوجاندا",
          "name:ast": "Uganda",
          "name:bcl": "Uganda",
          "name:bpy": "উগান্ডা",
          "name:bxr": "Уганда",
          "name:ceb": "Uganda",
          "name:ckb": "ئووگەندا",
          "name:crh": "Uganda",
          "name:diq": "Uganda",
          "name:dsb": "Uganda",
          "name:ext": "Uganda",
          "name:frp": "Oganda",
          "name:gag": "Uganda",
          "name:hif": "Uganda",
          "name:hsb": "Uganda",
          "name:ilo": "Uganda",
          "name:jbo": "ugandas",
          "name:kaa": "Uganda",
          "name:lez": "Уганда",
          "name:lij": "Uganda",
          "name:lmo": "Uganda",
          "name:lzh": "烏干達",
          "name:mhr": "Уганде",
          "name:mrj": "Уганда",
          "name:mzn": "اوگاندا",
          "name:nah": "Uganda",
          "name:nan": "Uganda",
          "name:nds": "Uganda",
          "name:nov": "Uganda",
          "name:nso": "Uganda",
          "name:pam": "Uganda",
          "name:pap": "Uganda",
          "name:pih": "Yuganda",
          "name:pms": "Uganda",
          "name:pnb": "یوگنڈا",
          "name:rue": "Уґанда",
          "name:sah": "Уганда",
          "name:scn": "Uganna",
          "name:sco": "Uganda",
          "name:smn": "Uganda",
          "name:sms": "Uganda",
          "name:stq": "Uganda",
          "name:szl": "Uganda",
          "name:tzl": "Uganda",
          "name:vec": "Uganda",
          "name:vro": "Uganda",
          "name:war": "Uganda",
          "name:xal": "Угандин Орн",
          "name:yue": "烏干達",
          "timezone": "Africa/Kampala",
          "way_area": "19.6288",
          "wikidata": "Q1036",
          "ISO3166-1": "UG",
          "wikipedia": "en:Uganda",
          "admin_level": "2",
          "name:simple": "Uganda",
          "driving_side": "left",
          "name:bat-smg": "Uganda",
          "name:zh-Hans": "乌干达",
          "name:zh-Hant": "烏干達",
          "official_name": "Jamhuri ya Uganda",
          "name:be-tarask": "Уганда",
          "ISO3166-1:alpha2": "UG",
          "ISO3166-1:alpha3": "UGA",
          "official_name:cs": "Ugandská republika",
          "official_name:de": "Republik Uganda",
          "official_name:en": "Republic of Uganda",
          "official_name:gn": "Tavakuairetã Ugánda",
          "official_name:pt": "República de Uganda",
          "official_name:sk": "Ugandská republika",
          "ISO3166-1:numeric": "800"
        }
      },
      "geometry": {
        "type": "Polygon",
        "coordinates": [
          [
            [
              32,
              -1
            ],
            [
              33,
              -1
            ],
            [
              33,
              0
            ],
            [
              32,
              0
            ],
            [
              32,
              -1
            ]
          ]
        ]
      }
    }
  ]
}