{
  "type": "FeatureCollection",
  "features": [
    {
      "type": "Feature",
      "properties": {
        "osm_id": -195273,
        "boundary": "administrative",
        "admin_level": 2,
        "parents": null,
        "name": "Mozambique",
        "local_name": "Moçambique",
        "name_en": "Mozambique",
        "all_tags": {
          "flag": "http://upload.wikimedia.org/wikipedia/commons/d/d0/Flag_of_Mozambique.svg",
          "name": "Moçambique",
          "name:af": "Mosambiek",
          "name:am": "ሞዛምቢክ",
          "name:an": "Mozambique",
          "name:ar": "موزمبيق",
          "name:az": "Mozambik",
          "name:ba": "Мозамбик",
          "name:be": "Мазамбік",
          "name:bg": "Мозамбик",
          "name:bm": "Mozanbik",
          "name:bn": "মোজাম্বিক",
          "name:bo": "མོ་ཛམ་བིཀ།",
          "name:br": "Mozambik",
          "name:bs": "Mozambik",
          "name:ca": "Moçambic",
          "name:ce": "Мозамбик",
          "name:co": "Mozambicu",
          "name:cs": "Mosambik",
          "name:cv": "Мозамбик",
          "name:cy": "Mosambic",
          "name:da": "Mozambique",
          "name:de": "Mosambik",
          "name:dv": "މުސިންބީ",
          "name:el": "Μοζαμβίκη",
          "name:en": "Mozambique",
          "name:eo": "Mozambiko",
          "name:es": "Mozambique",
          "name:et": "Mosambiik",
          "name:eu": "Mozambike",
          "name:fa": "موزامبیک",
          "name:fi": "Mosambik",
          "name:fo": "Mosambik",
          "name:fr": "Mozambique",
          "name:fy": "Mozambyk",
          "name:ga": "Poblacht Mhósaimbíc",
          "name:gd": "Mòsaimbic",
          "name:gl": "Mozambique",
          "name:gn": "Mosambike",
          "name:gv": "Yn Vosambeeck",
          "name:he": "מוזמביק",
          "name:hi": "मोज़ाम्बीक",
          "name:hr": "Mozambik",
          "name:ht": "Mozanbik",
          "name:hu": "Mozambik",
          "name:hy": "Մոզամբիկ",
          "name:ia": "Mozambique",
          "name:id": "Mozambik",
          "name:ie": "Mozambique",
          "name:io": "Mozambik",
          "name:is": "Mósambík",
          "name:it": "Mozambico",
          "name:ja": "モザンビーク",
          "name:jv": "Mozambik",
          "name:ka": "მოზამბიკი",
          "name:kg": "Musambiki",
          "name:kk": "Мозамбик",
          "name:kn": "ಮೊಜಾಂಬಿಕ್",
          "name:ko": "모잠비크",
          "name:ku": "Mozambîk",
          "name:kw": "Mosambik",
          "name:la": "Mozambicum",
          "name:lb": "Mosambik",
          "name:li": "Mozambique",
          "name:ln": "Mozambíki",
          "name:lt": "Mozambikas",
          "name:lv": "Mozambika",
          "name:mg": "Mozambika",
          "name:mi": "Mohapiki",
          "name:mk": "Мозамбик",
          "name:ml": "മൊസാംബിക്ക്",
          "name:mn": "Мозамбик",
          "name:mr": "मोझांबिक",
          "name:ms": "Mozambique",
          "name:mt": "Możambik",
          "name:my": "မိုဇမ်ဘစ်နိုင်ငံ",
          "name:nl": "Mozambique",
          "name:nn": "Mosambik",
          "name:no": "Mosambik",
          "name:ny": "Mozambique",
          "name:oc": "Moçambic",
          "name:or": "ମୋଜାମ୍ବିକ",
          "name:os": "Мозамбик",
          "name:pa": "ਮੋਜ਼ੈਂਬੀਕ",
          "name:pl": "Mozambik",
          "name:ps": "موزمبيق",
          "name:pt": "Moçambique",
          "name:qu": "Musambik",
          "name:ro": "Mozambic",
          "name:ru": "Мозамбик",
          "name:rw": "Mozambike",
          "name:sa": "मोजम्बीक",
          "name:sc": "Mozambico",
          "name:se": "Mosambik",
          "name:sg": "Mözämbîka",
          "name:sh": "Mozambik",
          "name:sk": "Mozambik",
          "name:sl": "Mozambik",
          "name:sn": "Mozambique",
          "name:so": "Musanbiig",
          "name:sq": "Mozambiku",
          "name:sr": "Мозамбик",
          "name:ss": "IMozambikhi",
          "name:su": "Mosambik",
          "name:sv": "Moçambique",
          "name:sw": "Msumbiji",
          "name:ta": "மொசாம்பிக்",
          "name:tg": "Мозамбик",
          "name:th": "ประเทศโมซัมบิก",
          "name:ti": "ሞዛምቢክ",
          "name:tk": "Mozambik",
          "name:tl": "Musambik",
          "name:tr": "Mozambik",
          "name:ts": "Mozambique",
          "name:ug": "موزامبىك",
          "name:uk": "Мозамбік",
          "name:ur": "موزمبیق",
          "name:uz": "Mozambik",
          "name:ve": "Mozambikwi",
          "name:vi": "Mozambique",
          "name:vo": "Mozambikän",
          "name:wo": "Mosambik",
          "name:yi": "מאזאמביק",
          "name:yo": "Mòsámbìk",
          "name:zh": "莫桑比克 / 莫三比克",
          "name:zu": "IMozambiki",
          "boundary": "administrative",
          "name:ace": "Mozambik",
          "name:als": "Mosambik",
          "name:ang": "Mosambice",
          "name:arz": "موزامبيق",
          "name:ast": "Mozambique",
          "name:bcl": "Mosambik",
          "name:bjn": "Mozambik",
          "name:bpy": "মোজাম্বিক",
          "name:bxr": "Мозамбик",
          "name:ceb": "Mozambique",
          "name:ckb": "مۆزامبیک",
          "name:crh": "Mozambik",
          "name:diq": "Mozambik",
          "name:dsb": "Mosambik",
          "name:ext": "Mozambiqui",
          "name:frp": "Mozambique",
          "name:gag": "Mozambik",
          "name:hak": "Mo̍k-sông-pí-khiet",
          "name:hif": "Mozambique",
          "name:hsb": "Mosambik",
          "name:ilo": "Mosambike",
          "name:jbo": "mosambik",
          "name:lad": "Mosambiko",
          "name:lij": "Moçambico",
          "name:lmo": "Muzambich",
          "name:ltg": "Mozambika",
          "name:lzh": "莫三比克",
          "name:min": "Mozambik",
          "name:mwl": "Moçambique",
          "name:nah": "Mozambique",
          "name:nan": "Moçambique",
          "name:nds": "Mosambik",
          "name:nov": "Mozambik",
          "name:nso": "Mozambique",
          "name:pam": "Mozambique",
          "name:pap": "Mozambique",
          "name:pms": "Mosambich",
          "name:pnb": "موزمبیق",
          "name:sah": "Мозамбик",
          "name:scn": "Mozambicu",
          "name:sco": "Mozambique",
          "name:smn": "Mosambik",
          "name:sms": "Mosambikk",
          "name:stq": "Mosambik",
          "name:szl": "Mozambik",
          "name:tet": "Mosambike",
          "name:tzl": "Moçambica",
          "name:vec": "Mozanbico",
          "name:vro": "Mosambiik",
          "name:war": "Mozambique",
          "name:xal": "Мозамбикудин Орн",
          "name:yue": "莫三鼻給",
          "timezone": "Africa/Maputo",
          "way_area": "72.964",
          "wikidata": "Q1029",
          "ISO3166-1": "MZ",
          "wikipedia": "pt:Moçambique",
          "admin_level": "2",
          "name:simple": "Mozambique",
          "driving_side": "left",
          "name:bat-smg": "Mozambėks",
          "name:roa-rup": "Mozambic",
          "name:zh-Hans": "莫桑比克",
          "name:zh-Hant": "莫三比克",
          "name:be-tarask": "Мазамбік",
          "ISO3166-1:alpha2": "MZ",
          "ISO3166-1:alpha3": "MOZ",
          "default_language": "pt",
          "official_name:cs": "Mosambická republika",
          "ISO3166-1:numeric": "508"
        }
      },
      "geometry": {
        "type": "Polygon",
        "coordinates": [
          [
            [
              32,
              -16.43294618813993
            ],
            [
              32.00054,
              -16.43321
            ],
            [
              32.0371967,
              -16.4419996
            ],
            [
              32.0587004,
              -16.441075
            ],
            [
              32.23178,
              -16.43539
            ],
            [
              32.2742908,
              -16.4334892
            ],
            [
              32.30668,
              -16.44007
            ],
            [
              32.32162,
              -16.44481
            ],
            [
              32.33633,
              -16.4484
            ],
            [
              32.34418,
              -16.44917
            ],
            [
              32.34819,
              -16.45197
            ],
            [
              32.4011939,
              -16.4674917
            ],
            [
              32.44119,
              -16.48063
            ],
            [
              32.45494,
              -16.48627
            ],
            [
              32.47627,
              -16.49564
            ],
            [
              32.48766,
              -16.49942
            ],
            [
              32.5711095,
              -16.5317985
            ],
            [
              32.62543,
              -16.55936
            ],
            [
              32.676686,
              -16.583023
            ],
            [
              32.7127649,
              -16.5986334
            ],
            [
              32.71247,
              -16.60298
            ],
            [
              32.7127707,
              -16.6061927
            ],
            [
              32.70985,
              -16.63232
            ],
            [
              32.71025,
              -16.6415
            ],
            [
              32.7066,
              -16.65133
            ],
            [
              32.70408,
              -16.66852
            ],
            [
              32.70234,
              -16.67677
            ],
            [
              32.70351,
              -16.67976
            ],
            [
              32.70918,
              -16.68554
            ],
            [
              32.72486,
              -16.69163
            ],
            [
              32.7611577,
              -16.7055385
            ],
            [
              32.7683582,
              -16.7065872
            ],
            [
              32.7709321,
              -16.7082505
            ],
            [
              32.7747769,
              -16.7080991
            ],
            [
              32.7783321,
              -16.7066892
            ],
            [
              32.7833608,
              -16.7064809
            ],
            [
              32.7898989,
              -16.7092315
            ],
            [
              32.794041,
              -16.7099678
            ],
            [
              32.7969156,
              -16.7091204
            ],
            [
              32.8018092,
              -16.7044927
            ],
            [
              32.8036927,
              -16.7036558
            ],
            [
              32.8060387,
              -16.7037688
            ],
            [
              32.8103859,
              -16.7068711
            ],
            [
              32.8128069,
              -16.7073042
            ],
            [
              32.8161228,
              -16.7076364
            ],
            [
              32.8206031,
              -16.7062992
            ],
            [
              32.8246916,
              -16.7045245
            ],
            [
              32.826346,
              -16.7029509
            ],
            [
              32.8327225,
              -16.69921
            ],
            [
              32.8350356,
              -16.6967463
            ],
            [
              32.8379811,
              -16.6964559
            ],
            [
              32.8433835,
              -16.6994094
            ],
            [
              32.8485848,
              -16.7041815
            ],
            [
              32.8545702,
              -16.70678
            ],
            [
              32.861362,
              -16.7077723
            ],
            [
              32.863991,
              -16.708705
            ],
            [
              32.8668625,
              -16.7083509
            ],
            [
              32.8696007,
              -16.7083059
            ],
            [
              32.8731293,
              -16.710541
            ],
            [
              32.875015,
              -16.7133632
            ],
            [
              32.8806481,
              -16.7156768
            ],
            [
              32.8821595,
              -16.7159066
            ],
            [
              32.8848454,
              -16.7179954
            ],
            [
              32.8879768,
              -16.7192018
            ],
            [
              32.8915817,
              -16.7193662
            ],
            [
              32.8934167,
              -16.719267
            ],
            [
              32.895138,
              -16.7182938
            ],
            [
              32.9050433,
              -16.706708
            ],
            [
              32.9085745,
              -16.7077992
            ],
            [
              32.9136654,
              -16.7036153
            ],
            [
              32.9173006,
              -16.7026589
            ],
            [
              32.921561,
              -16.6973041
            ],
            [
              32.923133,
              -16.6960473
            ],
            [
              32.9251606,
              -16.696198
            ],
            [
              32.9278023,
              -16.6979925
            ],
            [
              32.9294455,
              -16.6988964
            ],
            [
              32.9316103,
              -16.6990389
            ],
            [
              32.9349648,
              -16.7003367
            ],
            [
              32.9399012,
              -16.7012941
            ],
            [
              32.9477232,
              -16.7013881
            ],
            [
              32.9492599,
              -16.700952
            ],
            [
              32.9565065,
              -16.7032671
            ],
            [
              32.9672186,
              -16.7033621
            ],
            [
              32.9713575,
              -16.7041755
            ],
            [
              32.9762108,
              -16.7062135
            ],
            [
              32.9786818,
              -16.7068773
            ],
            [
              32.9838849,
              -16.7068213
            ],
            [
              32.9873181,
              -16.7036974
            ],
            [
              32.9880048,
              -16.6995869
            ],
            [
              32.9884839,
              -16.6981156
            ],
            [
              32.9893353,
              -16.6979573
            ],
            [
              32.9899863,
              -16.6974702
            ],
            [
              32.9908342,
              -16.697412
            ],
            [
              32.9633547,
              -16.7822056
            ],
            [
              32.94226,
              -16.82513
            ],
            [
              32.9134694,
              -16.8902782
            ],
            [
              32.9117379,
              -16.8972381
            ],
            [
              32.9043,
              -16.89968
            ],
            [
              32.8840971,
              -16.9073431
            ],
            [
              32.8327419,
              -16.9230391
            ],
            [
              32.83845,
              -16.93203
            ],
            [
              32.84955,
              -16.94817
            ],
            [
              32.8616927,
              -16.9625273
            ],
            [
              32.862756,
              -16.9645363
            ],
            [
              32.88941750788608,
              -17
            ],
            [
              33,
              -17
            ],
            [
              33,
              -16
            ],
            [
              32,
              -16
            ],
            [
              32,
              -16.43294618813993
            ]
          ]
        ]
      }
    },
    {
      "type": "Feature",
      "properties": {
        "osm_id": -195272,
        "boundary": "administrative",
        "admin_level": 2,
        "parents": null,
        "name": "Zimbabwe",
        "local_name": "Zimbabwe",
        "name_en": "Zimbabwe",
        "all_tags": {
          "flag": "http://upload.wikimedia.org/wikipedia/commons/6/6a/Flag_of_Zimbabwe.svg",
          "name": "Zimbabwe",
          "name:af": "Zimbabwe",
          "name:am": "ዚምባብዌ",
          "name:an": "Zimbabwe",
          "name:ar": "زيمبابوي",
          "name:az": "Zimbabve",
          "name:ba": "Зимбабве",
          "name:be": "Зімбабвэ",
          "name:bg": "Зимбабве",
          "name:bm": "Zimbabwe",
          "name:bn": "জিম্বাবুয়ে",
          "name:bo": "ཛིམ་བབ་ཝི།",
          "name:br": "Zimbabwe",
          "name:bs": "Zimbabve",
          "name:ca": "Zimbabwe",
          "name:ce": "Зимбабве",
          "name:cs": "Zimbabwe",
          "name:cv": "Зимбабве",
          "name:cy": "Zimbabwe",
          "name:da": "Zimbabwe",
          "name:de": "Simbabwe",
          "name:dv": "ޒިމްބާބުވޭ",
          "name:dz": "ཛིམ་བབ་ཝེ་",
          "name:ee": "Zimbabwe",
          "name:el": "Ζιμπάμπουε",
          "name:en": "Zimbabwe",
          "name:eo": "Zimbabvo",
          "name:es": "Zimbabue",
          "name:et": "Zimbabwe",
          "name:eu": "Zimbabwe",
          "name:fa": "زیمبابوه",
          "name:fi": "Zimbabwe",
          "name:fo": "Simbabvi",
          "name:fr": "Zimbabwe",
          "name:fy": "Simbabwe",
          "name:ga": "An tSiombáib",
          "name:gd": "Siombabue",
          "name:gl": "Cimbabue",
          "name:gn": "Simbávue",
          "name:gv": "Yn Çhimbabwe",
          "name:he": "זימבבואה",
          "name:hi": "ज़िम्बाब्वे",
          "name:hr": "Zimbabve",
          "name:ht": "Zimbabwe",
          "name:hu": "Zimbabwe",
          "name:hy": "Զիմբաբվե",
          "name:id": "Zimbabwe",
          "name:ie": "Zimbabwe",
          "name:io": "Zimbabwe",
          "name:is": "Simbabve",
          "name:it": "Zimbabwe",
          "name:ja": "ジンバブエ",
          "name:jv": "Zimbabwe",
          "name:ka": "ზიმბაბვე",
          "name:kg": "Zimbabwe",
          "name:ki": "Zimbabwe",
          "name:kk": "Зимбабве",
          "name:kn": "ಜಿಂಬಾಬ್ವೆ",
          "name:ko": "짐바브웨",
          "name:ku": "Zîmbabwe",
          "name:kw": "Zimbabwe",
          "name:la": "Zimbabua",
          "name:lb": "Simbabwe",
          "name:li": "Zimbabwe",
          "name:ln": "Zimbabwe",
          "name:lt": "Zimbabvė",
          "name:lv": "Zimbabve",
          "name:mi": "Timuwawe",
          "name:mk": "Зимбабве",
          "name:ml": "സിംബാബ്വെ",
          "name:mn": "Зимбабве",
          "name:mr": "झिंबाब्वे",
          "name:ms": "Zimbabwe",
          "name:mt": "Żimbabwe",
          "name:my": "ဇင်ဘာဘွေနိုင်ငံ",
          "name:ne": "जिम्बाब्वे",
          "name:nl": "Zimbabwe",
          "name:nn": "Zimbabwe",
          "name:no": "Zimbabwe",
          "name:nv": "Hooghan Tsé Bee Ádaalyaaí Bikéyah",
          "name:ny": "Zimbabwe",
          "name:oc": "Zimbabwe",
          "name:or": "ଜିମ୍ବାୱେ",
          "name:os": "Зимбабве",
          "name:pa": "ਜ਼ਿੰਬਾਬਵੇ",
          "name:pl": "Zimbabwe",
          "name:ps": "زېمبابوې",
          "name:pt": "Zimbabué",
          "name:qu": "Simbabwi",
          "name:ro": "Zimbabwe",
          "name:ru": "Зимбабве",
          "name:rw": "Zimbabwe",
          "name:sa": "जिम्बाबवे",
          "name:sc": "Zimbabwe",
          "name:se": "Zimbabwe",
          "name:sg": "Zimbäbwe",
          "name:sh": "Zimbabve",
          "name:si": "සිම්බාබ්වේ",
          "name:sk": "Zimbabwe",
          "name:sl": "Zimbabve",
          "name:sn": "Zimbabwe",
          "name:so": "Simbaabwi",
          "name:sq": "Zimbabveja",
          "name:sr": "Зимбабве",
          "name:ss": "IZimbabhwe",
          "name:su": "Zimbabwé",
          "name:sv": "Zimbabwe",
          "name:sw": "Zimbabwe",
          "name:ta": "சிம்பாப்வே",
          "name:te": "జింబాబ్వే",
          "name:tg": "Зимбабве",
          "name:th": "ประเทศซิมบับเว",
          "name:ti": "ዚምባብዌ",
          "name:tk": "Zimbabwe",
          "name:tl": "Simbabwe",
          "name:tn": "Zimbabwe",
          "name:tr": "Zimbabve",
          "name:ts": "Zimbabwe",
          "name:tt": "Зимбабве",
          "name:ug": "زىمبابۋې",
          "name:uk": "Зімбабве",
          "name:ur": "زمبابوے",
          "name:uz": "Zimbabve",
          "name:ve": "Zimbagwe",
          "name:vi": "Zimbabwe",
          "name:vo": "Zimbabiyän",
          "name:wo": "Simbaawee",
          "name:yi": "זימבאבווע",
          "name:yo": "Sìmbábúè",
          "name:zh": "津巴布韦 / 辛巴威",
          "name:zu": "IZimbabwe",
          "boundary": "administrative",
          "name:als": "Simbabwe",
          "name:ang": "Simbabwe",
          "name:arz": "زيمبابوى",
          "name:ast": "Zimbabue",
          "name:bar": "Simbabwe",
          "name:bcl": "Simbabwe",
          "name:bjn": "Zimbabwe",
          "name:bpy": "জিম্বাবুয়ে",
          "name:bxr": "Зимбабве",
          "name:ceb": "Zimbabwe",
          "name:chy": "Zimbabwe",
          "name:ckb": "زیمبابۆی",
          "name:crh": "Zimbabve",
          "name:diq": "Zimbabwe",
          "name:ext": "Zimbagüi",
          "name:frp": "Zimbaboue",
          "name:gag": "Zimbabve",
          "name:hak": "Sîn-pâ-pu-vî",
          "name:hif": "Zimbabwe",
          "name:hsb": "Simbabwe",
          "name:ilo": "Zimbabwe",
          "name:jbo": "zimbabues",
          "name:kaa": "Zimbabve",
          "name:ksh": "Simbabwe",
          "name:lij": "Zimbabwe",
          "name:lmo": "Zimbabwe",
          "name:ltg": "Zimbabve",
          "name:lzh": "辛巴威",
          "name:mrj": "Зимбабве",
          "name:mzn": "زیمبابوه",
          "name:nah": "Zimbabhue",
          "name:nan": "Zimbabwe",
          "name:nds": "Simbabwe",
          "name:nov": "Zimbabwe",
          "name:nso": "Zimbabwe",
          "name:pam": "Zimbabwe",
          "name:pap": "Zimbabwe",
          "name:pms": "Zimbabwe",
          "name:pnb": "زمبابوے",
          "name:sah": "Зимбабве",
          "name:scn": "Zimbabbui",
          "name:sco": "Zimbabwe",
          "name:smn": "Zimbabwe",
          "name:sms": "Zimbabwe",
          "name:stq": "Simbabwe",
          "name:szl": "Zimbabwe",
          "name:tzl": "Zimbabwe",
          "name:vec": "Zinbàbue",
          "name:vro": "Zimbabwe",
          "name:war": "Zimbabwe",
          "name:wuu": "津巴布韦",
          "name:xal": "Зимбабвудин Орн",
          "name:yue": "津巴布韋",
          "timezone": "Africa/Harare",
          "way_area": "33.5333",
          "wikidata": "Q954",
          "ISO3166-1": "ZW",
          "wikipedia": "en:Zimbabwe",
          "admin_level": "2",
          "name:simple": "Zimbabwe",
          "driving_side": "left",
          "name:bat-smg": "Zėmbabvė",
          "name:zh-Hans": "津巴布韦",
          "name:zh-Hant": "辛巴威",
          "name:be-tarask": "Зымбабвэ",
          "ISO3166-1:alpha2": "ZW",
          "ISO3166-1:alpha3": "ZWE",
          "official_name:cs": "Zimbabwská republika",
          "official_name:de": "Republik Zimbabwe",
          "official_name:en": "Republic of Zimbabwe",
          "official_name:es": "República de Zimbabue",
          "official_name:gn": "Tavakuairetã Simbávue",
          "official_name:pt": "República do Zimbabwe",
          "official_name:ru": "Республика Зимбабве",
          "official_name:sk": "Zimbabwianska republika",
          "ISO3166-1:numeric": "716"
        }
      },
      "geometry": {
        "type": "Polygon",
        "coordinates": [
          [
            [
              32,
              -17
            ],
            [
              32.88941750788608,
              -17
            ],
            [
              32.862756,
              -16.9645363
            ],
            [
              32.8616927,
              -16.9625273
            ],
            [
              32.84955,
              -16.94817
            ],
            [
              32.83845,
              -16.93203
            ],
            [
              32.8327419,
              -16.9230391
            ],
            [
              32.8840971,
              -16.9073431
            ],
            [
              32.9043,
              -16.89968
            ],
            [
              32.9117379,
              -16.8972381
            ],
            [
              32.9134694,
              -16.8902782
            ],
            [
              32.94226,
              -16.82513
            ],
            [
              32.9633547,
              -16.7822056
            ],
            [
              32.9908342,
              -16.697412
            ],
            [
              32.9899863,
              -16.6974702
            ],
            [
              32.9893353,
              -16.6979573
            ],
            [
              32.9884839,
              -16.6981156
            ],
            [
              32.9880048,
              -16.6995869
            ],
            [
              32.9873181,
              -16.7036974
            ],
            [
              32.9838849,
              -16.7068213
            ],
            [
              32.9786818,
              -16.7068773
            ],
            [
              32.9762108,
              -16.7062135
            ],
            [
              32.9713575,
              -16.7041755
            ],
            [
              32.9672186,
              -16.7033621
            ],
            [
              32.9565065,
              -16.7032671
            ],
            [
              32.9492599,
              -16.700952
            ],
            [
              32.9477232,
              -16.7013881
            ],
            [
              32.9399012,
              -16.7012941
            ],
            [
              32.9349648,
              -16.7003367
            ],
            [
              32.9316103,
              -16.6990389
            ],
            [
              32.9294455,
              -16.6988964
            ],
            [
              32.9278023,
              -16.6979925
            ],
            [
              32.9251606,
              -16.696198
            ],
            [
              32.923133,
              -16.6960473
            ],
            [
              32.921561,
              -16.6973041
            ],
            [
              32.9173006,
              -16.7026589
            ],
            [
              32.9136654,
              -16.7036153
            ],
            [
              32.9085745,
              -16.7077992
            ],
            [
              32.9050433,
              -16.706708
            ],
            [
              32.895138,
              -16.7182938
            ],
            [
              32.8934167,
              -16.719267
            ],
            [
              32.8915817,
              -16.7193662
            ],
            [
              32.8879768,
              -16.7192018
            ],
            [
              32.8848454,
              -16.7179954
            ],
            [
              32.8821595,
              -16.7159066
            ],
            [
              32.8806481,
              -16.7156768
            ],
            [
              32.875015,
              -16.7133632
            ],
            [
              32.8731293,
              -16.710541
            ],
            [
              32.8696007,
              -16.7083059
            ],
            [
              32.8668625,
              -16.7083509
            ],
            [
              32.863991,
              -16.708705
            ],
            [
              32.861362,
              -16.7077723
            ],
            [
              32.8545702,
              -16.70678
            ],
            [
              32.8485848,
              -16.7041815
            ],
            [
              32.8433835,
              -16.6994094
            ],
            [
              32.8379811,
              -16.6964559
            ],
            [
              32.8350356,
              -16.6967463
            ],
            [
              32.8327225,
              -16.69921
            ],
            [
              32.826346,
              -16.7029509
            ],
            [
              32.8246916,
              -16.7045245
            ],
            [
              32.8206031,
              -16.7062992
            ],
            [
              32.8161228,
              -16.7076364
            ],
            [
              32.8128069,
              -16.7073042
            ],
            [
              32.8103859,
              -16.7068711
            ],
            [
              32.8060387,
              -16.7037688
            ],
            [
              32.8036927,
              -16.7036558
            ],
            [
              32.8018092,
              -16.7044927
            ],
            [
              32.7969156,
              -16.7091204
            ],
            [
              32.794041,
              -16.7099678
            ],
            [
              32.7898989,
              -16.7092315
            ],
            [
              32.7833608,
              -16.7064809
            ],
            [
              32.7783321,
              -16.7066892
            ],
            [
              32.7747769,
              -16.7080991
            ],
            [
              32.7709321,
              -16.7082505
            ],
            [
              32.7683582,
              -16.7065872
            ],
            [
              32.7611577,
              -16.7055385
            ],
            [
              32.72486,
              -16.69163
            ],
            [
              32.70918,
              -16.68554
            ],
            [
              32.70351,
              -16.67976
            ],
            [
              32.70234,
              -16.67677
            ],
            [
              32.70408,
              -16.66852
            ],
            [
              32.7066,
              -16.65133
            ],
            [
              32.71025,
              -16.6415
            ],
            [
              32.70985,
              -16.63232
            ],
            [
              32.7127707,
              -16.6061927
            ],
            [
              32.71247,
              -16.60298
            ],
            [
              32.7127649,
              -16.5986334
            ],
            [
              32.676686,
              -16.583023
            ],
            [
              32.62543,
              -16.55936
            ],
            [
              32.5711095,
              -16.5317985
            ],
            [
              32.48766,
              -16.49942
            ],
            [
              32.47627,
              -16.49564
            ],
            [
              32.45494,
              -16.48627
            ],
            [
              32.44119,
              -16.48063
            ],
            [
              32.4011939,
              -16.4674917
            ],
            [
              32.34819,
              -16.45197
            ],
            [
              32.34418,
              -16.44917
            ],
            [
              32.33633,
              -16.4484
            ],
            [
              32.32162,
              -16.44481
            ],
            [
              32.30668,
              -16.44007
            ],
            [
              32.2742908,
              -16.4334892
            ],
            [
              32.23178,
              -16.43539
            ],
            [
              32.0587004,
              -16.441075
            ],
            [
              32.0371967,
              -16.4419996
            ],
            [
              32.00054,
              -16.43321
            ],
            [
              32,
              -16.43294618813993
            ],
            [
              32,
              -17
            ]
          ]
        ]
      }
    }
  ]
}