{
  "type": "FeatureCollection",
  "features": [
    {
      "type": "Feature",
      "properties": {
        "osm_id": -2184073,
        "boundary": "administrative",
        "admin_level": 2,
        "parents": null,
        "name": "Greenland",
        "local_name": "Kalaallit Nunaat",
        "name_en": "Greenland",
        "all_tags": {
          "flag": "http://upload.wikimedia.org/wikipedia/commons/0/09/Flag_of_Greenland.svg",
          "name": "Kalaallit Nunaat",
          "sqkm": "2166086",
          "name:af": "Groenland",
          "name:am": "ግሪንላንድ",
          "name:an": "Gronlandia",
          "name:ar": "غرينلاند",
          "name:az": "Qrenlandiya",
          "name:be": "Грэнландыя",
          "name:bg": "Гренландия",
          "name:bn": "গ্রিনল্যান্ড",
          "name:bo": "གེ་རེན་ལ",
          "name:br": "Greunland",
          "name:bs": "Grenland",
          "name:ca": "Groenlàndia",
          "name:cs": "Grónsko",
          "name:cv": "Гренланди",
          "name:cy": "Yr Ynys Las",
          "name:da": "Grønland",
          "name:de": "Grönland",
          "name:dv": "ގުރީންލޭންޑު",
          "name:el": "Γροιλανδία",
          "name:en": "Greenland",
          "name:eo": "Gronlando",
          "name:es": "Groenlandia",
          "name:et": "Gröönimaa",
          "name:eu": "Groenlandia",
          "name:fa": "گرینلند",
          "name:fi": "Grönlanti",
          "name:fo": "Grønland",
          "name:fr": "Groenland",
          "name:fy": "Grienlân",
          "name:ga": "An Ghraonlainn",
          "name:gd": "A' Ghraonlainn",
          "name:gl": "Grenlandia",
          "name:gn": "Kyoẽlándia",
          "name:gv": "Greenlynn",
          "name:he": "גרינלנד",
          "name:hi": "ग्रीनलैण्ड",
          "name:hr": "Grenland",
          "name:hu": "Grönland",
          "name:hy": "Գրենլանդիա",
          "name:ia": "Groenlandia",
          "name:id": "Greenland",
          "name:ie": "Grenland",
          "name:io": "Grenlando",
          "name:is": "Grænland",
          "name:it": "Groenlandia",
          "name:iu": "ᐊᑯᑭᑦᑐᑦ",
          "name:ja": "グリーンランド",
          "name:jv": "Greenland",
          "name:ka": "გრენლანდია",
          "name:kk": "Гренландия",
          "name:kl": "Kalaallit Nunaat",
          "name:kn": "ಗ್ರೀನ್‍ಲ್ಯಾಂಡ್",
          "name:ko": "그린란드",
          "name:ku": "Grînlenda",
          "name:kv": "Гренландия",
          "name:kw": "Greunland",
          "name:la": "Groenlandia",
          "name:lb": "Grönland",
          "name:li": "Greunland",
          "name:ln": "Groenlandi",
          "name:lt": "Grenlandija",
          "name:lv": "Grenlande",
          "name:mg": "Groenlanda",
          "name:mi": "Greenland",
          "name:mk": "Гренланд",
          "name:ml": "ഗ്രീൻലാൻഡ്",
          "name:mn": "Гренланд",
          "name:mr": "ग्रीनलँड",
          "name:ms": "Greenland",
          "name:my": "ဂရင်းလန်ကျွန်း",
          "name:ne": "ग्रीनल्याण्ड",
          "name:nl": "Groenland",
          "name:nn": "Grønland",
          "name:no": "Grønland",
          "name:nv": "Haʼaʼaahjí Hakʼaz Dineʼé Bikéyah",
          "name:oc": "Groenlàndia",
          "name:or": "ଗ୍ରୀନଲାଣ୍ଡ",
          "name:os": "Гренланди",
          "name:pa": "ਗਰੀਨਲੈਂਡ",
          "name:pl": "Grenlandia",
          "name:pt": "Gronelândia",
          "name:qu": "Kalalit Nunat",
          "name:ro": "Groenlanda",
          "name:ru": "Гренландия",
          "name:rw": "Goronulande",
          "name:se": "Kalaallit Nunaat",
          "name:sh": "Grenland",
          "name:sk": "Grónsko",
          "name:sl": "Grenlandija",
          "name:so": "Griinland",
          "name:sq": "Groenlanda",
          "name:sr": "Гренланд",
          "name:su": "Lemah Héjo",
          "name:sv": "Grönland",
          "name:sw": "Greenland",
          "name:ta": "கிறீன்லாந்து",
          "name:te": "గ్రీన్‌లాండ్",
          "name:tg": "Гренландия",
          "name:th": "กรีนแลนด์",
          "name:tl": "Lupanlunti",
          "name:tr": "Grönland",
          "name:tt": "Гренландия",
          "name:ug": "گرېنلاندىيە",
          "name:uk": "Ґренландія",
          "name:ur": "گرین لینڈ",
          "name:vi": "Greenland",
          "name:vo": "Gröneän",
          "name:wo": "Groenlaand",
          "name:yi": "גרינלאנד",
          "name:yo": "Grínlándì",
          "name:zh": "格陵兰",
          "boundary": "administrative",
          "name:als": "Grönland",
          "name:ang": "Grēneland",
          "name:arz": "جرينلاند",
          "name:ast": "Groenlandia",
          "name:bar": "Grönland",
          "name:bpy": "গ্রীনল্যান্ড",
          "name:chr": "ᎢᏤᎢᏳᏍᏗ ᎦᏙᎯ",
          "name:ckb": "گرینلاند",
          "name:diq": "Gronlanda",
          "name:dsb": "Grönlandska",
          "name:ext": "Groenlándia",
          "name:frp": "Grônlande",
          "name:frr": "Greenlun",
          "name:hif": "Greenland",
          "name:hsb": "Grönlandska",
          "name:ilo": "Kalaallit Nunaat",
          "name:lij": "Gròenlandia",
          "name:lzh": "格陵蘭",
          "name:mhr": "Гренландий",
          "name:nah": "Groentlālpan",
          "name:nan": "Chheⁿ-tē",
          "name:nds": "Gröönland",
          "name:nov": "Verdi-lande",
          "name:pih": "Griinland",
          "name:pms": "Groenlandia",
          "name:pnb": "گرینلینڈ",
          "name:rue": "Ґронсько",
          "name:sah": "Гренландия",
          "name:scn": "Groenlannia",
          "name:sco": "Greenland",
          "name:stq": "Gräinlound",
          "name:szl": "Grynlandyjo",
          "name:tok": "ma Kalalinuna",
          "name:tpi": "Greenland",
          "name:tzl": "Päts-Virt",
          "name:vec": "Groenlandia",
          "name:war": "Greenland",
          "name:wuu": "格陵兰",
          "name:xal": "Гринлэндин Арл",
          "name:yue": "格陵蘭",
          "name:zea": "Hroenland",
          "way_area": "785.731",
          "wikidata": "Q223",
          "ISO3166-1": "GL",
          "wikipedia": "en:Greenland",
          "name:pt-BR": "Groelândia",
          "population": "57564",
          "admin_level": "2",
          "alt_name:ar": "جرينلاند",
          "alt_name:ca": "Grenlàndia",
          "alt_name:eo": "Grenlando",
          "alt_name:fa": "گروئنلند",
          "alt_name:gl": "Groenlandia",
          "alt_name:pt": "Groenlândia",
          "name:nds-nl": "Gruunlaand",
          "name:bat-smg": "Grenlandėjė",
          "name:be-tarask": "Грэнляндыя",
          "ISO3166-1:alpha2": "GL",
          "ISO3166-1:alpha3": "GRL",
          "default_language": "kl",
          "ISO3166-1:numeric": "304"
        }
      },
      "geometry": {
        "type": "Polygon",
        "coordinates": [
          [
            [
              -41,
              63
            ],
            [
              -40.8177896553288,
              63
            ],
            [
              -40.8172228,
              63.0003916
            ],
            [
              -40.811155,
              63.0048308
            ],
            [
              -40.8053433,
              63.0093403
            ],
            [
              -40.2922316,
              63.4205947
            ],
            [
              -40.2855971,
              63.4245317
            ],
            [
              -40.2769301,
              63.4300508
            ],
            [
              -40.2686815,
              63.4356972
            ],
            [
              -40.2608608,
              63.4414645
            ],
            [
              -40.2534773,
              63.4473463
            ],
            [
              -40.2465394,
              63.4533358
            ],
            [
              -40.2400554,
              63.4594265
            ],
            [
              -40.2340328,
              63.4656112
            ],
            [
              -40.0914736,
              63.6191611
            ],
            [
              -40.0846819,
              63.627439
            ],
            [
              -40.0787152,
              63.6358418
            ],
            [
              -40.0735859,
              63.6443532
            ],
            [
              -40.0713387,
              63.6486444
            ],
            [
              -40,
              63.79203103146673
            ],
            [
              -40,
              64
            ],
            [
              -41,
              64
            ],
            [
              -41,
              63
            ]
          ]
        ]
      }
    }
  ]
}