{
  "type": "FeatureCollection",
  "features": [
    {
      "type": "Feature",
      "properties": {
        "osm_id": -303427,
        "boundary": "administrative",
        "admin_level": 2,
        "parents": null,
        "name": "Afghanistan",
        "local_name": "Ø§ÙØºØ§Ù†Ø³ØªØ§Ù†",
        "name_en": "Afghanistan",
        "all_tags": {
          "flag": "http://upload.wikimedia.org/wikipedia/commons/9/9a/Flag_of_Afghanistan.svg",
          "name": "Ø§ÙØºØ§Ù†Ø³ØªØ§Ù†",
          "name:af": "Afghanistan",
          "name:ak": "Afganistan",
          "name:am": "áŠ ááŒ‹áŠ’áˆµá‰³áŠ•",
          "name:an": "AfganistÃ¡n",
          "name:ar": "Ø£ÙØºØ§Ù†Ø³ØªØ§Ù†",
          "name:as": "à¦†à¦«à¦—à¦¾à¦¨à¦¿à¦¸à§à¦¤à¦¾à¦¨",
          "name:az": "ÆfqanÄ±stan",
          "name:ba": "ĞÑ„Ò“Ğ°Ğ½ÑÑ‚Ğ°Ğ½",
          "name:be": "ĞÑ„Ğ³Ğ°Ğ½Ñ–ÑÑ‚Ğ°Ğ½",
          "name:bg": "ĞÑ„Ğ³Ğ°Ğ½Ğ¸ÑÑ‚Ğ°Ğ½",
          "name:bh": "à¤…à¤«à¤¼à¤—à¤¼à¤¾à¤¨à¤¿à¤¸à¥à¤¤à¤¾à¤¨",
          "name:bm": "AfiganistaÅ‹",
          "name:bn": "à¦†à¦«à¦—à¦¾à¦¨à¦¿à¦¸à§à¦¤à¦¾à¦¨",
          "name:bo": "à½¨à¼‹à½§à¾¥à½´à½ à½´à¼‹à½¢à¾’à½“à¼‹à½¦à½²à¼‹à½à½“à¼",
          "name:br": "Afghanistan",
          "name:bs": "Afganistan",
          "name:ca": "Afganistan",
          "name:ce": "ĞÑ„Ğ³IĞ°Ğ½Ğ¸ÑÑ‚Ğ°Ğ½",
          "name:ch": "Afghanistan",
          "name:co": "Afghanistan",
          "name:cs": "AfghÃ¡nistÃ¡n",
          "name:cv": "ĞÑ„Ğ³Ğ°Ğ½Ğ¸ÑÑ‚Ğ°Ğ½",
          "name:cy": "Affganistan",
          "name:da": "Afghanistan",
          "name:de": "Afghanistan",
          "name:dv": "Ş‡Ş¦ŞŠŞ°Ş£Ş§Ş‚Ş¨ŞŞ°ŞŒŞ§Ş‚Ş°",
          "name:dz": "à½¨à½•à¼‹à½‚à¼‹à½“à½²à½¦à½²à¼‹à½à½±à½“à¼‹",
          "name:ee": "Afghanistan nutome",
          "name:el": "Î‘Ï†Î³Î±Î½Î¹ÏƒÏ„Î¬Î½",
          "name:en": "Afghanistan",
          "name:eo": "Afganio",
          "name:es": "AfganistÃ¡n",
          "name:et": "Afganistan",
          "name:eu": "Afganistan",
          "name:fa": "Ø§ÙØºØ§Ù†Ø³ØªØ§Ù†",
          "name:ff": "Afganistaan",
          "name:fi": "Afganistan",
          "name:fo": "Afghanistan",
          "name:fr": "Afghanistan",
          "name:fy": "Afganistan",
          "name:ga": "An AfganastÃ¡in",
          "name:gd": "Afganastan",
          "name:gl": "AfganistÃ¡n - Ø§ÙØºØ§Ù†Ø³ØªØ§Ù†",
          "name:gn": "AhyganitÃ£",
          "name:gu": "àª…àª«àª˜àª¾àª¨àª¿àª¸à«àª¤àª¾àª¨",
          "name:gv": "Yn Afghanistaan",
          "name:ha": "Afghanistan",
          "name:he": "××¤×’× ×™×¡×˜×Ÿ",
          "name:hi": "à¤…à¤«à¤¼à¥à¤—à¤¾à¤¨à¤¿à¤¸à¥à¤¤à¤¾à¤¨",
          "name:hr": "Afganistan",
          "name:ht": "Afganistan",
          "name:hu": "AfganisztÃ¡n",
          "name:hy": "Ô±Ö†Õ²Õ¡Õ¶Õ½Õ¿Õ¡Õ¶",
          "name:ia": "Afghanistan",
          "name:id": "Afganistan",
          "name:ie": "Afghanistan",
          "name:io": "Afganistan",
          "name:is": "Afganistan",
          "name:it": "Afghanistan",
          "name:iu": "áŠá‘‰á’á“‚á”…á‘•á“",
          "name:ja": "ã‚¢ãƒ•ã‚¬ãƒ‹ã‚¹ã‚¿ãƒ³",
          "name:jv": "Afganistan",
          "name:ka": "áƒáƒ•áƒ¦áƒáƒœáƒ”áƒ—áƒ˜",
          "name:kg": "Afghanistan",
          "name:ki": "Afghanistan",
          "name:kk": "ĞÑƒÒ“Ğ°Ğ½ÑÑ‚Ğ°Ğ½",
          "name:kl": "Afghanistan",
          "name:km": "áŸá¶á’á¶ášáášáŠáŸ’á‹á¥áŸáŸ’á›á¶á˜á¢á¶á áŸ’áœá áŸ’á€á¶á“á¸áŸáŸ’áá¶á“",
          "name:kn": "à²…à²«à³à²˜à²¾à²¨à²¿à²¸à³à²¤à²¾à²¨",
          "name:ko": "ì•„í”„ê°€ë‹ˆìŠ¤íƒ„",
          "name:ks": "Ø§ÙÙØºØ§Ù†ÙØ³ØªØ§Ù†",
          "name:ku": "Afxanistan",
          "name:kv": "ĞÑ„Ğ³Ğ°Ğ½Ğ¸ÑÑ‚Ğ°Ğ½",
          "name:kw": "Afghanistan",
          "name:ky": "ĞĞ¾Ğ³Ğ°Ğ½ÑÑ‚Ğ°Ğ½",
          "name:la": "Afgania",
          "name:lb": "Afghanistan",
          "name:lg": "Afaganisitani",
          "name:li": "Afghanistan",
          "name:ln": "AfganistÃ¡ni",
          "name:lo": "àº­àº±àºšàºàº²àº™àº´àºªàº°àº–àº²àº™",
          "name:lt": "Afganistanas",
          "name:lv": "AfganistÄna",
          "name:mg": "Afganistana",
          "name:mi": "Ä€whekenetÄna",
          "name:mk": "ĞĞ²Ğ³Ğ°Ğ½Ğ¸ÑÑ‚Ğ°Ğ½",
          "name:ml": "à´…à´«àµà´—à´¾à´¨à´¿à´¸àµà´¤à´¾àµ»",
          "name:mn": "ĞÑ„Ğ³Ğ°Ğ½Ğ¸ÑÑ‚Ğ°Ğ½",
          "name:mo": "ĞÑ„Ğ³Ğ°Ğ½Ğ¸ÑÑ‚Ğ°Ğ½",
          "name:mr": "à¤…à¤«à¤—à¤¾à¤£à¤¿à¤¸à¥à¤¤à¤¾à¤¨",
          "name:ms": "Afghanistan",
          "name:mt": "Afganistan",
          "name:my": "á€¡á€¬á€–á€‚á€”á€ºá€”á€…á€¹á€…á€á€”á€ºá€”á€­á€¯á€„á€ºá€„á€¶",
          "name:na": "Apeganitan",
          "name:ne": "à¤…à¤«à¤—à¤¾à¤¨à¤¿à¤¸à¥à¤¤à¤¾à¤¨",
          "name:nl": "Afghanistan",
          "name:nn": "Afghanistan",
          "name:no": "Afghanistan",
          "name:oc": "Afganistan",
          "name:om": "Afgaanistaan",
          "name:or": "à¬†à¬«à¬—à¬¾à¬¨à¬¿à¬¸à­à¬¤à¬¾à¬¨",
          "name:os": "ĞÑ„Ğ³ÑŠĞ°Ğ½Ğ¸ÑÑ‚Ğ°Ğ½",
          "name:pa": "à¨…à¨«à¨¼à¨—à¨¼à¨¾à¨¨à¨¿à¨¸à¨¤à¨¾à¨¨",
          "name:pi": "à¤…à¤«à¤—à¤¾à¤¨à¤¸à¥à¤¥à¤¾à¤¨",
          "name:pl": "Afganistan",
          "name:ps": "Ø§ÙØºØ§Ù†Ø³ØªØ§Ù†",
          "name:pt": "AfeganistÃ£o",
          "name:qu": "Afgansuyu",
          "name:rm": "Afganistan",
          "name:rn": "Afuganisitani",
          "name:ro": "Afganistan",
          "name:ru": "ĞÑ„Ğ³Ğ°Ğ½Ğ¸ÑÑ‚Ğ°Ğ½",
          "name:rw": "Afuganisitani",
          "name:sa": "à¤…à¤«à¤—à¤¾à¤¨à¤¸à¥à¤¥à¤¾à¤¨",
          "name:sc": "AfganistÃ n",
          "name:sd": "Ø§ÙØºØ§Ù†Ø³ØªØ§Ù†",
          "name:se": "AfganistÃ¡na",
          "name:sg": "FaganÃ¯ta, AfganÃ¯stÃ¤an",
          "name:sh": "Afganistan",
          "name:si": "à¶‡à·†à·Šà¶œà¶±à·’à·ƒà·Šà¶®à·à¶±à¶º",
          "name:sk": "Afganistan",
          "name:sl": "Afganistan",
          "name:sm": "Afakanisitana",
          "name:sn": "Afghanistan",
          "name:so": "Afgaanistan",
          "name:sq": "Afganistani",
          "name:sr": "ĞĞ²Ğ³Ğ°Ğ½Ğ¸ÑÑ‚Ğ°Ğ½",
          "name:ss": "I-Afugani",
          "name:su": "Apganistan",
          "name:sv": "Afghanistan",
          "name:sw": "Afghanistan",
          "name:ta": "à®†à®ªà¯à®•à®¾à®©à®¿à®¤à¯à®¤à®¾à®©à¯",
          "name:te": "à°†à°«à±à°˜à°¨à°¿à°¸à±à°¤à°¾à°¨à±",
          "name:tg": "ĞÑ„Ò“Ğ¾Ğ½Ğ¸ÑÑ‚Ğ¾Ğ½",
          "name:th": "à¸›à¸£à¸°à¹€à¸—à¸¨à¸­à¸±à¸Ÿà¸à¸²à¸™à¸´à¸ªà¸–à¸²à¸™",
          "name:ti": "áŠ ááŒ‹áŠ’áˆµá‰³áŠ•",
          "name:tk": "Owganystan",
          "name:tl": "Apganistan",
          "name:to": "Ê»Afukanisitani",
          "name:tr": "Afganistan",
          "name:tt": "Ó˜Ñ„Ğ³Ğ°Ğ½ÑÑ‚Ğ°Ğ½",
          "name:ug": "Ø¦Ø§ÙØºØ§Ù†Ù‰Ø³ØªØ§Ù†",
          "name:uk": "ĞÑ„Ğ³Ğ°Ğ½Ñ–ÑÑ‚Ğ°Ğ½",
          "name:ur": "Ø§ÙØºØ§Ù†Ø³ØªØ§Ù†",
          "name:uz": "AfgÊ»oniston",
          "name:vi": "Afghanistan",
          "name:vo": "LafganistÃ¤n",
          "name:wo": "Afganistaan",
          "name:yi": "××¤×’×× ×™×¡×˜××Ÿ",
          "name:yo": "AfghanÃ­stÃ n",
          "name:za": "Afghanistan",
          "name:zh": "é˜¿å¯Œæ±—",
          "name:zu": "I-Afganistani",
          "boundary": "administrative",
          "name:ace": "Afghanistan",
          "name:ady": "ĞÑ„Ğ³Ğ°Ğ½Ğ¸ÑÑ‚Ğ°Ğ½",
          "name:als": "Afghanischtan",
          "name:ang": "Afghanistan",
          "name:arc": "ÜÜ¦Ü“ÜÜ¢Ü£Ü›ÜÜ¢",
          "name:ary": "Ø£ÙØºØ§Ù†Ø³ØªØ§Ù†",
          "name:arz": "Ø§ÙØºØ§Ù†Ø³ØªØ§Ù†",
          "name:ast": "AfganistÃ¡n",
          "name:awa": "à¤…à¤«à¤—à¤¾à¤¨à¤¿à¤¸à¥à¤¤à¤¾à¤¨",
          "name:azb": "Ø§ÙØºØ§Ù†ÛŒØ³ØªØ§Ù†",
          "name:ban": "Afganistan",
          "name:bar": "Afghanistan",
          "name:bcl": "Apganistan",
          "name:bpy": "à¦†à¦«à¦—à¦¾à¦¨à¦¿à¦¸à§à¦¤à¦¾à¦¨",
          "name:bug": "Afghanistan",
          "name:bxr": "ĞÑ„Ğ³Ğ°Ğ½Ğ¸ÑÑ‚Ğ°Ğ½",
          "name:cdo": "Afghanistan",
          "name:ceb": "Apganistan",
          "name:chr": "á á«á¨á‚áá–á‚",
          "name:chy": "Afghanistan",
          "name:ckb": "Ø¦Û•ÙØºØ§Ù†Ø³ØªØ§Ù†",
          "name:crh": "AfÄŸanistan",
          "name:csb": "AfganistÃ³n",
          "name:diq": "EfÄŸanÄ±stan",
          "name:dsb": "Afghanistan",
          "name:dty": "à¤…à¤«à¤—à¤¾à¤¨à¤¿à¤¸à¥à¤¤à¤¾à¤¨",
          "name:ext": "AfganistÃ¡n",
          "name:frp": "Afganistan",
          "name:frr": "Afghanistan",
          "name:fur": "Afghanistan",
          "name:gag": "Afganistan",
          "name:gcr": "Afganistan",
          "name:gom": "à¤…à¤«à¤—à¤¾à¤£à¤¿à¤¸à¥à¤¤à¤¾à¤¨",
          "name:gor": "Afganistan",
          "name:got": "ğŒ°ğ†ğŒ²ğŒ°ğŒ½ğŒ¹ğƒğ„ğŒ°ğŒ½",
          "name:grc": "Î’Î±ÎºÏ„ÏÎ¯Î±",
          "name:hak": "Ã‚-fu-hon",
          "name:haw": "â€˜Apekanikana",
          "name:hif": "Afghanistan",
          "name:hsb": "Afghanistan",
          "name:hyw": "Ô±Ö†Õ²Õ¡Õ¶Õ«Õ½Õ¿Õ¡Õ¶",
          "name:ilo": "ApganistÃ¡n",
          "name:inh": "ĞÑ„Ğ³Ğ°Ğ½Ğ¸ÑÑ‚Ğ°Ğ½Ğµ",
          "name:jam": "Afganistan",
          "name:jbo": "afyganisTAN",
          "name:kaa": "Afg'anstan",
          "name:kab": "AfÉ£anistan",
          "name:kbd": "ĞÑ„Ğ³Ğ°Ğ½Ğ¸ÑÑ‚ÑĞ½",
          "name:kbp": "Afganistani",
          "name:krc": "ĞÑ„Ğ³Ğ°Ğ½Ğ¸ÑÑ‚Ğ°Ğ½",
          "name:ksh": "Afghanistan",
          "name:lad": "Afganistan",
          "name:lez": "ĞÑ„Ğ³Ğ°Ğ½Ğ¸ÑÑ‚Ğ°Ğ½",
          "name:lfn": "Afganistan",
          "name:lij": "Afghanistan",
          "name:lmo": "Afghanistan",
          "name:lrc": "Ø£ÙØºØ§Ù†Ø³ØªØ§Ù†",
          "name:lzh": "é˜¿å¯Œæ±—",
          "name:mai": "à¤…à¤«à¤—à¤¾à¤¨à¤¿à¤¸à¥à¤¤à¤¾à¤¨",
          "name:mdf": "ĞÑ„Ğ³Ğ°Ğ½Ğ¸ÑÑ‚Ğ°Ğ½",
          "name:mhr": "ĞÑ„Ğ³Ğ°Ğ½Ğ¸ÑÑ‚Ğ°Ğ½",
          "name:min": "Afganistan",
          "name:mwl": "Afeganistan",
          "name:myv": "ĞÑ„Ğ³Ğ°Ğ½Ğ¸ÑÑ‚Ğ°Ğ½ ĞœĞ°ÑÑ‚Ğ¾Ñ€",
          "name:mzn": "Ø§ÙØºØ§Ù†Ø³ØªØ§Ù†",
          "name:nah": "Afganistan",
          "name:nan": "Afghanistan",
          "name:nds": "Afghanistan",
          "name:new": "à¤…à¤«à¤—à¤¾à¤¨à¤¿à¤¸à¥à¤¤à¤¾à¤¨",
          "name:nov": "Afganistan",
          "name:olo": "Afganistuanu",
          "name:ota": "Ø§ÙØºØ§Ù†Ø³ØªØ§Ù†",
          "name:pag": "Afghanistan",
          "name:pam": "Afganistan",
          "name:pap": "AfganistÃ¡n",
          "name:pdc": "Afganischtaan",
          "name:pih": "Afganistaan",
          "name:pms": "AfgÃ nistan",
          "name:pnb": "Ø§ÙØºØ§Ù†Ø³ØªØ§Ù†",
          "name:rue": "ĞÑ„Ò‘Ğ°Ğ½Ñ–ÑÑ‚Ğ°Ğ½",
          "name:sah": "ĞÑ„Ğ³Ğ°Ğ½Ğ¸ÑÑ‚Ğ°Ğ°Ğ½",
          "name:sat": "á±Ÿá±¯á±·á±œá±Ÿá±±á±¤á±¥á±›á±Ÿá±±",
          "name:scn": "AfganistÃ n",
          "name:sco": "Afghanistan",
          "name:shn": "á€™á€­á€°á€„á€ºá€¸á€¢á‚ƒá‚‡á¾áµá¢á¼á€ºá‚‡á¼á€®á‚‡á€á€á¢á¼á€ºá‚‡",
          "name:smn": "Afganistan",
          "name:sms": "Afganistaan",
          "name:stq": "Afghanistan",
          "name:syc": "ÜÜ¦Ü“ÜÜ¢Ü£Ü›ÜÜ¢",
          "name:szl": "AfganistÅn",
          "name:szy": "Afghanistan",
          "name:tet": "Afeganistaun",
          "name:tok": "ma Akanisan",
          "name:tpi": "Afghanistan",
          "name:tum": "Afghanistan",
          "name:udm": "ĞÑ„Ğ³Ğ°Ğ½Ğ¸ÑÑ‚Ğ°Ğ½",
          "name:vec": "Afganistan",
          "name:vep": "Afganistan",
          "name:vls": "Afghanistan",
          "name:vro": "Afganistan",
          "name:war": "Afganistan",
          "name:wuu": "é˜¿å¯Œæ±—",
          "name:xal": "Ğ¡Ğ°Ñ€Ñ‚Ğ° ĞĞ¿Ğ³Ğ°Ğ½Ğ¼ÑƒĞ´Ğ¸Ğ½ ĞÑ€Ğ½",
          "name:xmf": "áƒáƒ•áƒ¦áƒáƒœáƒ”áƒ—áƒ˜",
          "name:yue": "é˜¿å¯Œæ±—",
          "name:zea": "Afghanistan",
          "timezone": "Asia/Kabul",
          "way_area": "62.5448",
          "wikidata": "Q889",
          "ISO3166-1": "AF",
          "wikipedia": "ps:Ø§ÙØºØ§Ù†Ø³ØªØ§Ù†",
          "name:UN:ar": "Ø£ÙØºØ§Ù†Ø³ØªØ§Ù†",
          "name:UN:en": "Afghanistan",
          "name:UN:es": "AfganistÃ¡n (el)",
          "name:UN:fr": "Afghanistan (l')",
          "name:UN:ru": "ĞÑ„Ğ³Ğ°Ğ½Ğ¸ÑÑ‚Ğ°Ğ½",
          "name:UN:zh": "é˜¿å¯Œæ±—",
          "admin_level": "2",
          "alt_name:af": "Afganistan",
          "alt_name:eo": "Afganujo;Afganistano",
          "alt_name:gd": "AfghanastÃ n",
          "alt_name:io": "Afgania",
          "alt_name:it": "Afganistan",
          "alt_name:la": "Afghanistania",
          "alt_name:li": "Afganistan",
          "alt_name:mn": "ĞÑ„Ğ³Ğ°Ğ½ ÑƒĞ»Ñ",
          "alt_name:sh": "Avganistan",
          "alt_name:so": "Afqaanistan",
          "alt_name:vi": "Ãp-ga-nÃ­t-xtÄƒng",
          "name:nds-nl": "Afghanistan",
          "old_name:vi": "A PhÃº HÃ£n",
          "alt_name:kaa": "AwÇµanÄ±stan",
          "alt_name:mzn": "Ø§ÙØºØ§Ù†Ø³ØªÙˆÙ†",
          "alt_name:vec": "Afghanistan",
          "alt_name:war": "Afghanistan",
          "name:bat-smg": "AfganÄ—stans",
          "name:cbk-zam": "Afghanistan",
          "name:kk-Arab": "Ø§Û‹Ø¹Ø§Ù†Ø³ØªØ§Ù†",
          "name:roa-rup": "Afganistan",
          "name:zh-Hans": "é˜¿å¯Œæ±—",
          "name:zh-Hant": "é˜¿å¯Œæ±—",
          "wikipedia:ar": "Ø£ÙØºØ§Ù†Ø³ØªØ§Ù†",
          "wikipedia:fa": "Ø§ÙØºØ§Ù†Ø³ØªØ§Ù†",
          "wikipedia:ur": "Ø§ÙØºØ§Ù†Ø³ØªØ§Ù†",
          "name:roa-tara": "Afghanistan",
          "official_name": "Ø¯ Ø§ÙØºØ§Ù†Ø³ØªØ§Ù† Ø§Ø³Ù„Ø§Ù…ÙŠ Ø¬Ù…Ù‡ÙˆØ±ÙŠØª",
          "name:be-tarask": "ĞÑĞ³Ğ°Ğ½Ñ–ÑÑ‚Ğ°Ğ½",
          "name:zh_pinyin": "Ä€fÃ¹hÃ n",
          "ISO3166-1:alpha2": "AF",
          "ISO3166-1:alpha3": "AFG",
          "default_language": "ps",
          "official_name:af": "Islamitiese Republiek van Afghanistan",
          "official_name:am": "áŠ ááŒ‹áŠ’áˆµá‰³áŠ• áŠ¥áˆµáˆ‹áˆ›á‹Š áˆªáá‰¥áˆŠáŠ­",
          "official_name:an": "Republica Islamica d'AfganistÃ¡n",
          "official_name:ar": "Ø¬Ù…Ù‡ÙˆØ±ÙŠØ© Ø£ÙØºØ§Ù†Ø³ØªØ§Ù† Ø§Ù„Ø¥Ø³Ù„Ø§Ù…ÙŠØ©",
          "official_name:as": "à¦‡à¦›à¦²à¦¾à¦®à§€ à¦ªà§à§°à¦œà¦¾à¦¤à¦¨à§à¦¤à§à§°à§€ à¦†à¦«à¦—à¦¾à¦¨à¦¿à¦¸à§à¦¤à¦¾à¦¨",
          "official_name:az": "ÆfqanÄ±stan Ä°slam RespublikasÄ±",
          "official_name:ba": "ĞÑ„Ò“Ğ°Ğ½ÑÑ‚Ğ°Ğ½ Ğ˜ÑĞ»Ğ°Ğ¼ Ğ ĞµÑĞ¿ÑƒĞ±Ğ»Ğ¸ĞºĞ°Ò»Ñ‹",
          "official_name:be": "Ğ†ÑĞ»Ğ°Ğ¼ÑĞºĞ°Ñ Ğ ÑÑĞ¿ÑƒĞ±Ğ»Ñ–ĞºĞ° ĞÑ„Ğ³Ğ°Ğ½Ñ–ÑÑ‚Ğ°Ğ½",
          "official_name:bg": "Ğ˜ÑĞ»ÑĞ¼ÑĞºĞ° Ñ€ĞµĞ¿ÑƒĞ±Ğ»Ğ¸ĞºĞ° ĞÑ„Ğ³Ğ°Ğ½Ğ¸ÑÑ‚Ğ°Ğ½",
          "official_name:bn": "à¦†à¦«à¦—à¦¾à¦¨à¦¿à¦¸à§à¦¤à¦¾à¦¨ à¦‡à¦¸à¦²à¦¾à¦®à§€ à¦ªà§à¦°à¦œà¦¾à¦¤à¦¨à§à¦¤à§à¦°",
          "official_name:br": "Republik Islamek Afghanistan",
          "official_name:bs": "Islamska Republika Afganistan",
          "official_name:ce": "Ğ˜ÑĞ»Ğ°Ğ¼Ğ°Ğ½ Ğ ĞµÑĞ¿ÑƒĞ±Ğ»Ğ¸ĞºĞ° ĞĞ²Ñ…Ó€Ğ°Ğ½",
          "official_name:cs": "AfghÃ¡nskÃ¡ islÃ¡mskÃ¡ republika",
          "official_name:cv": "Ğ˜ÑĞ»Ğ°Ğ¼ Ğ¿Ğ°Ñ‚ÑˆĞ°Ğ»ÄƒÑ…Ä• ĞÑ„Ğ³Ğ°Ğ½Ğ¸ÑÑ‚Ğ°Ğ½",
          "official_name:cy": "Gweriniaeth Islamaidd Affganistan",
          "official_name:da": "Den Islamiske Republik Afghanistan",
          "official_name:de": "Islamische Republik Afghanistan",
          "official_name:el": "Î™ÏƒÎ»Î±Î¼Î¹ÎºÎ® Î”Î·Î¼Î¿ÎºÏÎ±Ï„Î¯Î± Ï„Î¿Ï… Î‘Ï†Î³Î±Î½Î¹ÏƒÏ„Î¬Î½",
          "official_name:en": "Islamic Republic of Afghanistan",
          "official_name:eo": "Islama Respubliko Afganio",
          "official_name:es": "RepÃºblica IslÃ¡mica de AfganistÃ¡n",
          "official_name:et": "Afganistani Islamivabariik",
          "official_name:eu": "Afganistango Estatu Islamiarra",
          "official_name:fa": "Ø¬Ù…Ù‡ÙˆØ±ÛŒ Ø§Ø³Ù„Ø§Ù…ÛŒ Ø§ÙØºØ§Ù†Ø³ØªØ§Ù†",
          "official_name:fi": "Afganistanin islamilainen tasavalta",
          "official_name:fo": "TaÃ° Islamska LÃ½Ã°veldiÃ° Afghanistan",
          "official_name:fr": "RÃ©publique islamique d'Afghanistan",
          "official_name:fy": "Islamityske Republyk Afganistan",
          "official_name:ga": "Poblacht Ioslamach na AfganastÃ¡in",
          "official_name:gd": "Poblachd Ioslamach AfghanastÃ n",
          "official_name:gl": "RepÃºblica IslÃ¡mica de AfganistÃ¡n",
          "official_name:gn": "TetÃ£ IslÃ£rehegua AhyganitÃ£",
          "official_name:gu": "àª‡àª¸à«àª²àª¾àª®àª¿àª• àª°àª¿àªªàª¬à«àª²àª¿àª• àª“àª« àª…àª«àª˜àª¾àª¨àª¿àª¸à«àª¤àª¾àª¨",
          "official_name:gv": "Pobblaght Islamagh ny h-Afghanistaan",
          "official_name:he": "×”×¨×¤×•×‘×œ×™×§×” ×”××¡×œ×××™×ª ×©×œ ××¤×’× ×™×¡×˜×Ÿ",
          "official_name:hi": "à¤…à¤«à¤¼à¥à¤—à¤¼à¤¾à¤¨à¤¿à¤¸à¥à¤¤à¤¾à¤¨ à¤‡à¤¸à¥à¤²à¤¾à¤®à¤¿à¤• à¤—à¤£à¤°à¤¾à¤œà¥à¤¯",
          "official_name:hr": "Islamska Republika Afganistan",
          "official_name:ht": "Da Afghanistan Islami Dawlat",
          "official_name:hu": "AfganisztÃ¡ni IszlÃ¡m KÃ¶ztÃ¡rsasÃ¡g",
          "official_name:hy": "Ô±Ö†Õ²Õ¡Õ¶Õ½Õ¿Õ¡Õ¶Õ« Ô»Õ½Õ¬Õ¡Õ´Õ¡Õ¯Õ¡Õ¶ Õ€Õ¡Õ¶Ö€Õ¡ÕºÕ¥Õ¿Õ¸Ö‚Õ©ÕµÕ¸Ö‚Õ¶",
          "official_name:id": "Republik Islam Afganistan",
          "official_name:ie": "Republica Islamic de Afganistan",
          "official_name:is": "Ãslamska lÃ½Ã°veldiÃ° Afganistan",
          "official_name:it": "Repubblica Islamica dell'Afghanistan",
          "official_name:ja": "ã‚¢ãƒ•ã‚¬ãƒ‹ã‚¹ã‚¿ãƒ³ãƒ»ã‚¤ã‚¹ãƒ©ãƒ å…±å’Œå›½",
          "official_name:ka": "áƒáƒ•áƒ¦áƒáƒœáƒ”áƒ—áƒ˜áƒ¡ áƒ˜áƒ¡áƒšáƒáƒ›áƒ£áƒ áƒ˜ áƒ áƒ”áƒ¡áƒáƒ£áƒ‘áƒšáƒ˜áƒ™áƒ",
          "official_name:kk": "ĞÑƒÒ“Ğ°Ğ½ÑÑ‚Ğ°Ğ½ Ğ˜ÑĞ»Ğ°Ğ¼ Ğ ĞµÑĞ¿ÑƒĞ±Ğ»Ğ¸ĞºĞ°ÑÑ‹",
          "official_name:km": "áŸá¶á’á¶ášáášáŠáŸ’á‹á¥áŸáŸ’á›á¶á˜á¢á¶á áŸ’áœá áŸ’á‚á¶á“á¸áŸáŸ’áá¶á“",
          "official_name:kn": "à²…à²«à³à²˜à²¾à²¨à²¿à²¸à³à²¤à²¾à²¨ à²‡à²¸à³à²²à²¾à²®à³€à²¯ à²—à²£à²°à²¾à²œà³à²¯",
          "official_name:ko": "ì•„í”„ê°€ë‹ˆìŠ¤íƒ„ ì´ìŠ¬ëŒ ê³µí™”êµ­",
          "official_name:ku": "Komara ÃslamÃ® ya EfxanistanÃª",
          "official_name:ky": "ĞÑ„Ğ³Ğ°Ğ½ÑÑ‚Ğ°Ğ½ Ğ˜ÑĞ»Ğ°Ğ¼ Ó©Ğ»ĞºÓ©ÑÒ¯",
          "official_name:la": "Res Publica Islamica Afganiae",
          "official_name:lo": "àºªàº²àº—àº²àº¥àº°àº™àº°àº¥àº±àº”àº­àº´àº”àºªàº°àº¥àº²àº¡àº­àº±àºŸàºàº²àº™àº´àºªàº°àº–àº²àº™",
          "official_name:lt": "AfganistÃ£no IslÃ£mo RespÃ¹blika",
          "official_name:lv": "AfganistÄnas IslÄma Republika",
          "official_name:mg": "Repoblika islamikan' Afganistana",
          "official_name:mi": "Ihirama o Repupirita o Ä€whekenetÄna",
          "official_name:mk": "Ğ˜ÑĞ»Ğ°Ğ¼ÑĞºĞ° Ğ ĞµĞ¿ÑƒĞ±Ğ»Ğ¸ĞºĞ° ĞĞ²Ğ³Ğ°Ğ½Ğ¸ÑÑ‚Ğ°Ğ½",
          "official_name:ml": "à´‡à´¸àµà´²à´¾à´®à´¿à´•àµâ€Œ à´±à´¿à´ªà´¬àµà´²à´¿à´•àµâ€Œ à´“à´«àµâ€Œ à´…à´«àµà´—à´¾à´¨à´¿à´¸àµà´¤à´¾àµ»",
          "official_name:mn": "Ğ˜ÑĞ»Ğ°Ğ¼Ñ‹Ğ½ Ğ‘Ò¯Ğ³Ğ´ ĞĞ°Ğ¹Ñ€Ğ°Ğ¼Ğ´Ğ°Ñ… ĞÑ„Ğ³Ğ°Ğ½ Ğ£Ğ»Ñ",
          "official_name:mr": "à¤…à¤«à¤—à¤¾à¤£à¤¿à¤¸à¥à¤¤à¤¾à¤¨à¤šà¥‡ à¤‡à¤¸à¥à¤²à¤¾à¤®à¥€ à¤ªà¥à¤°à¤œà¤¾à¤¸à¤¤à¥à¤¤à¤¾à¤•",
          "official_name:ms": "Republik Islam Afghanistan",
          "official_name:mt": "Repubblika IÅ¼lamika tal-Afganistan",
          "official_name:my": "á€¡á€¬á€–á€‚á€”á€ºá€”á€…á€¹á€…á€á€”á€º á€¡á€…á€¹á€…á€œá€¬á€™á€º á€á€™á€¹á€™á€á€”á€­á€¯á€„á€ºá€„á€¶",
          "official_name:ne": "à¤‡à¤¸à¥à¤²à¤¾à¤®à¤¿à¤• à¤—à¤£à¤¤à¤¨à¥à¤¤à¥à¤° à¤…à¤«à¤—à¤¾à¤¨à¤¿à¤¸à¥à¤¤à¤¾à¤¨",
          "official_name:nl": "Islamitische Republiek Afghanistan",
          "official_name:nn": "Den islamske republikken Afghanistan",
          "official_name:no": "Den islamske republikken Afghanistan",
          "official_name:oc": "Republica islamica d'Afganistan",
          "official_name:or": "à¬†à¬«à¬—à¬¾à¬¨à¬¿à¬¸à­à¬¤à¬¾à¬¨ à¬‡à¬¸à¬²à¬¾à¬®à¬¿à¬• à¬—à¬£à¬¤à¬¨à­à¬¤à­à¬°",
          "official_name:os": "ĞÑ„Ğ³ÑŠĞ°Ğ½Ğ¸ÑÑ‚Ğ°Ğ½Ñ‹ Ğ¿Ñ‹ÑÑ‹Ğ»Ğ¼Ğ¾Ğ½ Ñ€ĞµÑĞ¿ÑƒĞ±Ğ»Ğ¸ĞºÃ¦",
          "official_name:pa": "à¨…à¨«à¨¼à¨—à¨¼à¨¾à¨¨à¨¿à¨¸à¨¤à¨¾à¨¨ à¨‡à¨¸à¨²à¨¾à¨®à©€ à¨—à¨£à¨°à¨¾à¨œ",
          "official_name:pl": "Islamska Republika Afganistanu",
          "official_name:ps": "Ø¯ Ø§ÙØºØ§Ù†Ø³ØªØ§Ù† Ø§Ø³Ù„Ø§Ù…ÙŠ Ø¬Ù…Ù‡ÙˆØ±ÙŠØª",
          "official_name:pt": "RepÃºblica IslÃ¢mica do AfeganistÃ£o",
          "official_name:qu": "Muslim Ripuwlika Afgansuyu",
          "official_name:rm": "RepÃºblica IslÃ¡mica de AfganistÃ¡n",
          "official_name:ro": "Republica IslamicÄƒ Afghanistan",
          "official_name:ru": "Ğ˜ÑĞ»Ğ°ÌĞ¼ÑĞºĞ°Ñ Ğ ĞµÑĞ¿ÑƒÌĞ±Ğ»Ğ¸ĞºĞ° ĞÑ„Ğ³Ğ°Ğ½Ğ¸ÑÑ‚Ğ°ÌĞ½",
          "official_name:rw": "Repebulika yâ€™Ubuyisilamu ya Afuganisitani",
          "official_name:sc": "RepÃ¹blica IslÃ mica de s'AfganistÃ n",
          "official_name:sd": "Ø§Ø³Ù„Ø§Ù…ÙŠ Ø¬Ù…Ú¾ÙˆØ±ÙŠÛ Ø§ÙØºØ§Ù†Ø³ØªØ§Ù†",
          "official_name:se": "Afganistana islamlaÅ¡ dÃ¡ssevÃ¡ldi",
          "official_name:sh": "Islamska Republika Avganistan",
          "official_name:si": "à¶‡à·†à·Šà¶œà¶±à·’à·ƒà·Šà¶®à·à¶± à¶‰à·ƒà·Šà¶½à·à¶¸à·’à¶š à¶¢à¶±à¶»à¶¢à¶º",
          "official_name:sk": "AfganskÃ¡ islamskÃ¡ republika",
          "official_name:sl": "Islamska republika Afganistan",
          "official_name:so": "Jamuuriyadda islaamiga Afqaanistan",
          "official_name:sq": "Republika Islamike e Afganistanit",
          "official_name:sr": "Ğ˜ÑĞ»Ğ°Ğ¼ÑĞºĞ° Ğ ĞµĞ¿ÑƒĞ±Ğ»Ğ¸ĞºĞ° ĞĞ²Ğ³Ğ°Ğ½Ğ¸ÑÑ‚Ğ°Ğ½",
          "official_name:ss": "la RÃ©publique islamique dâ€™Afghanistan",
          "official_name:su": "RÃ©publik Islam Apganistan",
          "official_name:sv": "Islamiska republiken Afghanistan",
          "official_name:sw": "Jamhuri ya Kiislamu ya Afghanistan",
          "official_name:ta": "à®…à®ªà¯à®•à®¾à®©à®¿à®¤à¯à®¤à®¾à®©à¯ à®‡à®šà¯à®²à®¾à®®à®¿à®¯à®•à¯ à®•à¯à®Ÿà®¿à®¯à®°à®šà¯",
          "official_name:te": "à°‡à°¸à±à°²à°¾à°®à°¿à°•à± à°°à°¿à°ªà°¬à±à°²à°¿à°•à± à°†à°«à± à°†à°«à±à°˜à°¨à°¿à°¸à±à°¤à°¾à°¨à±",
          "official_name:tg": "Ò¶ÑƒĞ¼Ò³ÑƒÑ€Ğ¸Ğ¸ Ğ˜ÑĞ»Ğ¾Ğ¼Ğ¸Ğ¸ ĞÑ„Ò“Ğ¾Ğ½Ğ¸ÑÑ‚Ğ¾Ğ½",
          "official_name:th": "à¸ªà¸²à¸˜à¸²à¸£à¸“à¸£à¸±à¸à¸­à¸´à¸ªà¸¥à¸²à¸¡à¸­à¸±à¸Ÿà¸à¸²à¸™à¸´à¸ªà¸–à¸²à¸™",
          "official_name:tk": "Owganystan Yslam Respublikasy",
          "official_name:tl": "Republikang Islamiko ng Afghanistan",
          "official_name:tr": "Afganistan Ä°slam Cumhuriyeti",
          "official_name:tt": "Ó˜Ñ„Ğ³Ğ°Ğ½ÑÑ‚Ğ°Ğ½ Ğ˜ÑĞ»Ğ°Ğ¼ Ò–Ó©Ğ¼Ò»Ò¯Ñ€Ğ¸ÑÑ‚Ğµ",
          "official_name:ug": "Ø¦Ø§ÙØºØ§Ù†Ù‰Ø³ØªØ§Ù† Ø¦Ù‰Ø³Ù„Ø§Ù… Ø¬Û‡Ù…Ú¾Û‡Ø±Ù‰ÙŠÙ‰ØªÙ‰",
          "official_name:uk": "Ğ†ÑĞ»Ğ°ÌĞ¼ÑÑŒĞºĞ° Ğ ĞµÑĞ¿ÑƒÌĞ±Ğ»Ñ–ĞºĞ° ĞÑ„Ğ³Ğ°Ğ½Ñ–ÑÑ‚Ğ°ÌĞ½",
          "official_name:ur": "Ø§Ø³Ù„Ø§Ù…ÛŒ Ø¬Ù…ÛÙˆØ±ÛŒÛ Ø§ÙØºØ§Ù†Ø³ØªØ§Ù†",
          "official_name:uz": "AfgÊ»oniston Islom Respublikasi",
          "official_name:vi": "Cá»™ng hÃ²a Há»“i giÃ¡o Afghanistan",
          "official_name:wo": "Etaa Islaamik u TaraansisoÅ‹ bu Afganistaan",
          "official_name:yi": "××™×¡×œ×××™×©×¢ ×¨×¢×¤×•×‘×œ×™×§ ×¤×•×Ÿ ×Ö·×¤Ö¿×’×Ö·× ×™×¡×˜×Ö·×Ÿ",
          "official_name:yo": "OrÃ­láº¹Ì€-Ã¨dÃ¨ OlÃ³mÃ¬nira OnÃ­mÃ le iláº¹Ì€ AfghanÃ­stÃ n",
          "official_name:zh": "é˜¿å¯Œæ±—ä¼Šæ–¯å…°å…±å’Œå›½ / é˜¿å¯Œæ±—ä¼Šæ–¯è˜­å…±å’Œåœ‹",
          "ISO3166-1:numeric": "004",
          "official_name:ace": "Republik Islam Afghanistan",
          "official_name:ady": "Ğ˜ÑĞ»ÑŠĞ°Ğ¼ Ğ ĞµÑĞ¿ÑƒĞ±Ğ»Ğ¸ĞºÑÑƒ ĞÑ„Ğ³Ğ°Ğ½Ğ¸ÑÑ‚Ğ°Ğ½",
          "official_name:als": "Islamischi Republik Afghanistan",
          "official_name:arc": "Ü©Ü˜Ü›Ü¢ÜÜ˜Ü¬Ü ÜÜ£Ü ÜÜ¡ÜÜ¬Ü Ü•ÜÜ¦Ü“ÜÜ¢Ü£Ü›ÜÜ¢",
          "official_name:arz": "Ø¬Ù…Ù‡ÙˆØ±ÙŠØ© Ø§ÙØºØ§Ù†ÙŠØ³ØªØ§Ù† Ø§Ù„Ø§Ø³Ù„Ø§Ù…ÙŠÙ‡",
          "official_name:ast": "EstÃ¡u IslÃ¡micu del AfganistÃ¡n",
          "official_name:awa": "à¤…à¤«à¤¼à¥à¤—à¤¼à¤¾à¤¨à¤¿à¤¸à¥à¤¤à¤¾à¤¨ à¤‡à¤¸à¥à¤²à¤¾à¤®à¥€ à¤—à¤£à¤°à¤¾à¤œà¥à¤¯",
          "official_name:azb": "Ø§ÙØºØ§Ù†ÛŒØ³ØªØ§Ù† Ø§ÛŒØ³Ù„Ø§Ù… Ø¬ÙˆÙ…Ù‡ÙˆØ±ÛŒØªÛŒ",
          "official_name:ban": "RÃ©publik Islam Afganistan",
          "official_name:bar": "Islamische Republik Afghanistan",
          "official_name:bcl": "Islamikong Republika kan Apganistan",
          "official_name:bpy": "à¦‡à¦¸à¦²à¦¾à¦®à¦¿à¦• à¦ªà§à¦°à¦œà¦¾à¦¤à¦¨à§à¦¤à§à¦°à¦¿ à¦†à¦«à¦—à¦¾à¦¨à¦¿à¦¸à§à¦¤à¦¾à¦¨",
          "official_name:bxr": "Ğ›Ğ°Ğ»Ñ‹Ğ½ Ğ‘Ò¯Ğ³ÑĞ´Ñ ĞĞ°Ğ¹Ñ€Ğ°Ğ¼Ğ´Ğ°Ñ…Ğ° ĞÑ„Ğ³Ğ°Ğ½ Ğ£Ğ»Ğ°Ñ",
          "official_name:cdo": "Afghanistan Ä¬-sá¹³Ì†-lÃ ng GÃªÌ¤á¹³ng-huÃ²-guÃ³k",
          "official_name:ceb": "Islamikong Republika sa Apganistan",
          "official_name:chr": "á¢áá³á»á© áá¦ášá© á¾á¿ á á«á¨á‚áá–á‚",
          "official_name:chy": "Islamic Republic of Afghanistan",
          "official_name:ckb": "Ú©Û†Ù…Ø§Ø±ÛŒ Ø¦ÛŒØ³Ù„Ø§Ù…ÛŒÛŒ Ø¦Û•ÙØºØ§Ù†Ø³ØªØ§Ù†",
          "official_name:crh": "AfÄŸanistan Ä°slÃ¢m Cumhuriyeti",
          "official_name:diq": "CumhuriyetÃª EfÄŸanÄ±stano Ä°slami",
          "official_name:dsb": "Islamska republika Afghanistan",
          "official_name:dty": "à¤‡à¤¸à¥à¤²à¤¾à¤®à¤¿à¤• à¤—à¤£à¤¤à¤¨à¥à¤¤à¥à¤° à¤…à¤«à¤—à¤¾à¤¨à¤¿à¤¸à¥à¤¤à¤¾à¤¨",
          "official_name:ext": "RepÃºbrica IslÃ¡mica d'AfganistÃ¡n",
          "official_name:frp": "RÃ¨publica islamica dâ€™Afganistan",
          "official_name:frr": "Islamisk Republik faan Afghanistan",
          "official_name:gag": "Ä°slam RespublikasÄ± Afganistan",
          "official_name:gcr": "RÃ©piblik islamik d'Afganistan",
          "official_name:gor": "Republik Islam Afganistan",
          "official_name:hak": "Afghanistan YÃ®-sá¹³Ì‚-lÃ n Khiung-fÃ²-koet",
          "official_name:hsb": "Islamski stat Afghanistan",
          "official_name:ilo": "Islamiko a Republibka iti Apganistan",
          "official_name:inh": "Ğ‘ÑƒÑÑƒĞ»Ğ±Ğ° Ğ ĞµÑĞ¿ÑƒÌĞ±Ğ»Ğ¸ĞºĞ° ĞÑ„Ğ³Ğ°Ğ½Ğ¸ÑÑ‚Ğ°ÌĞ½Ğµ",
          "official_name:jam": "Izlamik Ripoblik a Afganistan",
          "official_name:jbo": "afyganisTAN.zei muslo gubyseltru",
          "official_name:kbd": "ĞÑ„Ğ³Ğ°Ğ½Ğ¸ÑÑ‚ÑĞ½ ĞœÑ‹ÑĞ»Ğ¸Ğ¼ÑĞ½ Ğ ĞµÑĞ¿ÑƒĞ±Ğ»Ğ¸ĞºÑ",
          "official_name:krc": "ĞÑ„Ğ³Ğ°Ğ½Ğ¸ÑÑ‚Ğ°Ğ½ Ğ˜ÑĞ»Ğ°Ğ¼ Ğ ĞµÑĞ¿ÑƒĞ±Ğ»Ğ¸ĞºĞ°",
          "official_name:ksh": "Islamische Republik Afghanistan",
          "official_name:lez": "Ğ˜ÑĞ»Ğ°Ğ¼Ğ´Ğ¸Ğ½ Ğ ĞµÑĞ¿ÑƒÌĞ±Ğ»Ğ¸ĞºĞ° ĞÑ„Ğ³ÑŠĞ°Ğ½Ğ¸ÑÑ‚Ğ°ÌĞ½",
          "official_name:lfn": "Republica muslim de Afganistan",
          "official_name:lzh": "é˜¿å¯Œæ±—ä¼Šæ–¯è˜­å…±å’Œåœ‹",
          "official_name:mai": "à¤…à¤«à¤—à¤¾à¤¨à¤¿à¤¸à¥à¤¤à¤¾à¤¨ à¤‡à¤¸à¥à¤²à¤¾à¤®à¤¿à¤• à¤—à¤£à¤¤à¤¨à¥à¤¤à¥à¤°",
          "official_name:mdf": "Ğ˜ÑĞ»Ğ°Ğ¼Ğ¾Ğ½ÑŒ Ğ ĞµÑĞ¿ÑƒĞ±Ğ»Ğ¸Ğº ĞÑ„Ğ³Ğ°Ğ½Ğ¸ÑÑ‚Ğ°Ğ½",
          "official_name:mhr": "ĞÑ„Ğ³Ğ°Ğ½Ğ¸ÑÑ‚Ğ°ÌĞ½ Ğ˜ÑĞ»Ğ°Ğ¼ Ğ ĞµÑĞ¿ÑƒÌĞ±Ğ»Ğ¸Ğº",
          "official_name:min": "Republik Islam Afganistan",
          "official_name:mwl": "RepÃºblica EislÃ¡mica de l Afeganistan",
          "official_name:myv": "Ğ˜ÑĞ»Ğ°Ğ¼Ğ¾Ğ½ÑŒ Ğ ĞµÑĞ¿ÑƒĞ±Ğ»Ğ¸ĞºĞ°ÑÑŒ ĞÑ„Ğ³Ğ°Ğ½Ğ¸ÑÑ‚Ğ°Ğ½",
          "official_name:nah": "IslantlÄcatlahtohcÄyÅtl Afganistan",
          "official_name:nan": "Afghanistan Islam KiÅng-hÃ´-kok",
          "official_name:nds": "Islaamsche Republik Afghanistan",
          "official_name:new": "à¤‡à¤¸à¥à¤²à¤¾à¤®à¥€ à¤—à¤£à¤¤à¤¨à¥à¤¤à¥à¤° à¤…à¤«à¤—à¤¾à¤¨à¤¿à¤¸à¥à¤¤à¤¾à¤¨",
          "official_name:olo": "Afganistuanan islamilaine tazavaldu",
          "official_name:pam": "Islamicung Republica ning Afghanistan",
          "official_name:pap": "RepÃºblica IslÃ¡mica de AfganistÃ¡n",
          "official_name:pnb": "Ø§Ø³Ù„Ø§Ù…ÛŒ Ù„ÙˆÚ©Ø±Ø§Ø¬ Ø§ÙØºØ§Ù†Ø³ØªØ§Ù†",
          "official_name:sah": "ĞÑ„Ğ³Ğ°Ğ½Ğ¸ÑÑ‚Ğ°Ğ°Ğ½ Ğ˜ÑĞ»Ğ°Ğ¼ Ó¨Ñ€Ó©ÑĞ¿Ò¯Ò¯Ğ±Ò¯Ğ»Ò¯ĞºÑÑ‚Ñ",
          "official_name:scn": "RipÃ¹bblica Islamica di Afghanistan",
          "official_name:sco": "Islamic Republic o Afghanistan",
          "official_name:shn": "á€™á€­á€°á€„á€ºá€¸á¸á€½á€™á€ºá€•á€½á€„á€ºá¸á€­á€¯á€„á€ºá‚ˆ á€¢á€­á€á€ºá‚‡á€á€œá¢á€™á€ºá‚‡ á€¢á‚ƒá‚‡á¾áµá¢á¼á€ºá‚‡á¼á€®á‚‡á€á€á¢á¼á€ºá‚‡",
          "official_name:smn": "Afganistan islamlÃ¢Å¡ tÃ¤sivÃ¤ldi",
          "official_name:stq": "Dowlat-e Eslami-ye Afghanestan",
          "official_name:szl": "IslamskÅ Rebublika Afganistanu",
          "official_name:udm": "Ğ˜ÑĞ»Ğ°ÌĞ¼ ĞšÑƒĞ½ ĞÑ„Ğ³Ğ°Ğ½Ğ¸ÑÑ‚Ğ°ÌĞ½",
          "official_name:vec": "Republica Islamica de Å‚'Afghanistan",
          "official_name:vep": "Afganistanan Islamine Tazovaldkund",
          "official_name:vls": "Islamitische Republiek Afghanistan",
          "official_name:vro": "Afganistani Islamivabariik",
          "official_name:war": "Republika Islamika han Afganistan",
          "official_name:xmf": "áƒáƒ•áƒ¦áƒáƒœáƒ”áƒ—áƒ˜áƒ¨ áƒ˜áƒ¡áƒšáƒáƒ›áƒ£áƒ áƒ˜ áƒ áƒ”áƒ¡áƒáƒ£áƒ‘áƒšáƒ˜áƒ™áƒ",
          "official_name:yue": "é˜¿å¯Œæ±—ä¼Šæ–¯è˜­å…±å’Œåœ‹",
          "official_name:zea": "Islamitische Rippubliek van Afghanistan",
          "official_name:nds-nl": "islamietiese republiek Afghanistan",
          "official_name:bat-smg": "AfganÄ—stana Ä–slamÄ Respublika",
          "official_name:cbk-zam": "Estado Islimico del Afganistan",
          "official_name:zh-Hans": "é˜¿å¯Œæ±—ä¼Šæ–¯å…°å…±å’Œå›½",
          "official_name:zh-Hant": "é˜¿å¯Œæ±—ä¼Šæ–¯è˜­å…±å’Œåœ‹",
          "official_name:roa-tara": "Repubbleche Islameche de ll'Afghanistan",
          "official_name:be-tarask": "Ğ†ÑĞ»Ğ°ÌĞ¼ÑĞºĞ°Ñ Ğ ÑÑĞ¿ÑƒÌĞ±Ğ»Ñ–ĞºĞ° ĞÑĞ³Ğ°Ğ½Ñ–ÑÑ‚Ğ°ÌĞ½"
        }
      },
      "geometry": {
        "type": "Polygon",
        "coordinates": [
          [
            [
              66,
              29.782199623893767
            ],
            [
              66.249881,
              29.8495227
            ],
            [
              66.250324,
              29.849146
            ],
            [
              66.251613,
              29.849207
            ],
            [
              66.25197,
              29.849576
            ],
            [
              66.251961,
              29.849995
            ],
            [
              66.252236,
              29.850348
            ],
            [
              66.252311,
              29.851188
            ],
            [
              66.252141,
              29.851714
            ],
            [
              66.252388,
              29.851918
            ],
            [
              66.253044,
              29.852031
            ],
            [
              66.253989,
              29.853601
            ],
            [
              66.254568,
              29.853593
            ],
            [
              66.255966,
              29.854771
            ],
            [
              66.256497,
              29.854687
            ],
            [
              66.256804,
              29.854799
            ],
            [
              66.257754,
              29.855771
            ],
            [
              66.258431,
              29.855738
            ],
            [
              66.259771,
              29.857345
            ],
            [
              66.260276,
              29.857729
            ],
            [
              66.260596,
              29.857131
            ],
            [
              66.261227,
              29.856674
            ],
            [
              66.261389,
              29.856333
            ],
            [
              66.261708,
              29.856216
            ],
            [
              66.262963,
              29.857041
            ],
            [
              66.263798,
              29.856875
            ],
            [
              66.265182,
              29.857332
            ],
            [
              66.265425,
              29.857576
            ],
            [
              66.266326,
              29.857527
            ],
            [
              66.266802,
              29.857321
            ],
            [
              66.267317,
              29.857833
            ],
            [
              66.267533,
              29.859076
            ],
            [
              66.267387,
              29.859492
            ],
            [
              66.267685,
              29.860084
            ],
            [
              66.267422,
              29.861059
            ],
            [
              66.267634,
              29.862186
            ],
            [
              66.268691,
              29.864261
            ],
            [
              66.269898,
              29.865634
            ],
            [
              66.270113,
              29.866225
            ],
            [
              66.270627,
              29.866729
            ],
            [
              66.271516,
              29.868252
            ],
            [
              66.272206,
              29.86869
            ],
            [
              66.272503,
              29.869653
            ],
            [
              66.272827,
              29.869855
            ],
            [
              66.273425,
              29.870688
            ],
            [
              66.273317,
              29.871055
            ],
            [
              66.273651,
              29.872404
            ],
            [
              66.275823,
              29.874278
            ],
            [
              66.277857,
              29.875669
            ],
            [
              66.278142,
              29.875641
            ],
            [
              66.278287,
              29.876425
            ],
            [
              66.27919,
              29.8775
            ],
            [
              66.279633,
              29.877388
            ],
            [
              66.280445,
              29.877498
            ],
            [
              66.281018,
              29.877234
            ],
            [
              66.281354,
              29.877671
            ],
            [
              66.281835,
              29.877821
            ],
            [
              66.282034,
              29.87852
            ],
            [
              66.282527,
              29.87896
            ],
            [
              66.282857,
              29.87903
            ],
            [
              66.283617,
              29.87882
            ],
            [
              66.284394,
              29.879316
            ],
            [
              66.284657,
              29.879665
            ],
            [
              66.285681,
              29.879818
            ],
            [
              66.285863,
              29.879984
            ],
            [
              66.286122,
              29.880378
            ],
            [
              66.28607,
              29.881059
            ],
            [
              66.286948,
              29.881734
            ],
            [
              66.286826,
              29.88244
            ],
            [
              66.287115,
              29.883064
            ],
            [
              66.287327,
              29.884221
            ],
            [
              66.287499,
              29.884698
            ],
            [
              66.287912,
              29.885129
            ],
            [
              66.288547,
              29.886914
            ],
            [
              66.288259,
              29.887596
            ],
            [
              66.289261,
              29.888278
            ],
            [
              66.289625,
              29.889365
            ],
            [
              66.290665,
              29.890271
            ],
            [
              66.290917,
              29.890831
            ],
            [
              66.291453,
              29.891321
            ],
            [
              66.291851,
              29.892089
            ],
            [
              66.292685,
              29.893009
            ],
            [
              66.294918,
              29.892429
            ],
            [
              66.294948,
              29.892834
            ],
            [
              66.295444,
              29.893797
            ],
            [
              66.295458,
              29.894576
            ],
            [
              66.295673,
              29.895099
            ],
            [
              66.296257,
              29.895831
            ],
            [
              66.296359,
              29.896291
            ],
            [
              66.296993,
              29.897037
            ],
            [
              66.297762,
              29.896806
            ],
            [
              66.297955,
              29.897105
            ],
            [
              66.298609,
              29.897251
            ],
            [
              66.300099,
              29.898037
            ],
            [
              66.301543,
              29.897279
            ],
            [
              66.302995,
              29.897893
            ],
            [
              66.303559,
              29.897843
            ],
            [
              66.304298,
              29.899343
            ],
            [
              66.304848,
              29.899652
            ],
            [
              66.305122,
              29.900351
            ],
            [
              66.305477,
              29.900735
            ],
            [
              66.306232,
              29.900768
            ],
            [
              66.306827,
              29.901437
            ],
            [
              66.308238,
              29.901158
            ],
            [
              66.308523,
              29.901703
            ],
            [
              66.30945,
              29.902487
            ],
            [
              66.310331,
              29.903967
            ],
            [
              66.311351,
              29.904713
            ],
            [
              66.312495,
              29.906014
            ],
            [
              66.312809,
              29.906685
            ],
            [
              66.312378,
              29.907444
            ],
            [
              66.312361,
              29.907751
            ],
            [
              66.312973,
              29.910156
            ],
            [
              66.313393,
              29.910119
            ],
            [
              66.314589,
              29.909323
            ],
            [
              66.315019,
              29.908667
            ],
            [
              66.316517,
              29.908499
            ],
            [
              66.316829,
              29.90807
            ],
            [
              66.317475,
              29.907816
            ],
            [
              66.317895,
              29.907273
            ],
            [
              66.319178,
              29.906816
            ],
            [
              66.319526,
              29.907306
            ],
            [
              66.319633,
              29.908689
            ],
            [
              66.320777,
              29.909579
            ],
            [
              66.320759,
              29.910368
            ],
            [
              66.321063,
              29.911133
            ],
            [
              66.321446,
              29.91185
            ],
            [
              66.322337,
              29.912792
            ],
            [
              66.322574,
              29.913244
            ],
            [
              66.32337,
              29.913806
            ],
            [
              66.323784,
              29.913707
            ],
            [
              66.324064,
              29.913873
            ],
            [
              66.324667,
              29.913636
            ],
            [
              66.324921,
              29.913683
            ],
            [
              66.326662,
              29.915638
            ],
            [
              66.327741,
              29.9161
            ],
            [
              66.328154,
              29.916694
            ],
            [
              66.328987,
              29.916956
            ],
            [
              66.329496,
              29.917953
            ],
            [
              66.330293,
              29.918479
            ],
            [
              66.330686,
              29.919051
            ],
            [
              66.332042,
              29.920227
            ],
            [
              66.332591,
              29.921373
            ],
            [
              66.332369,
              29.922274
            ],
            [
              66.332609,
              29.923592
            ],
            [
              66.332436,
              29.924175
            ],
            [
              66.333253,
              29.924316
            ],
            [
              66.33356,
              29.925414
            ],
            [
              66.334212,
              29.925877
            ],
            [
              66.334357,
              29.926459
            ],
            [
              66.334903,
              29.926879
            ],
            [
              66.335036,
              29.927634
            ],
            [
              66.335722,
              29.927609
            ],
            [
              66.336189,
              29.927788
            ],
            [
              66.336895,
              29.927348
            ],
            [
              66.338264,
              29.92857
            ],
            [
              66.338676,
              29.928697
            ],
            [
              66.339145,
              29.928613
            ],
            [
              66.339539,
              29.928932
            ],
            [
              66.339497,
              29.929382
            ],
            [
              66.339768,
              29.930415
            ],
            [
              66.340407,
              29.931767
            ],
            [
              66.341282,
              29.932441
            ],
            [
              66.340927,
              29.93268
            ],
            [
              66.341405,
              29.933324
            ],
            [
              66.341565,
              29.934225
            ],
            [
              66.341013,
              29.934712
            ],
            [
              66.341183,
              29.936129
            ],
            [
              66.341667,
              29.936136
            ],
            [
              66.341752,
              29.936291
            ],
            [
              66.341804,
              29.937031
            ],
            [
              66.341601,
              29.937431
            ],
            [
              66.341618,
              29.938065
            ],
            [
              66.342437,
              29.938436
            ],
            [
              66.342694,
              29.939239
            ],
            [
              66.343207,
              29.939736
            ],
            [
              66.343522,
              29.94047
            ],
            [
              66.344006,
              29.940988
            ],
            [
              66.344568,
              29.941295
            ],
            [
              66.34532,
              29.943014
            ],
            [
              66.345767,
              29.944693
            ],
            [
              66.346577,
              29.945056
            ],
            [
              66.346424,
              29.94543
            ],
            [
              66.347038,
              29.94644
            ],
            [
              66.347428,
              29.946794
            ],
            [
              66.348401,
              29.94691
            ],
            [
              66.349,
              29.947199
            ],
            [
              66.349541,
              29.948312
            ],
            [
              66.350076,
              29.948563
            ],
            [
              66.350942,
              29.950748
            ],
            [
              66.351808,
              29.952175
            ],
            [
              66.352033,
              29.953021
            ],
            [
              66.353251,
              29.952928
            ],
            [
              66.355554,
              29.951989
            ],
            [
              66.356883,
              29.953831
            ],
            [
              66.35746,
              29.954989
            ],
            [
              66.358177,
              29.955076
            ],
            [
              66.358265,
              29.955231
            ],
            [
              66.358968,
              29.955083
            ],
            [
              66.359722,
              29.954653
            ],
            [
              66.359907,
              29.954282
            ],
            [
              66.360154,
              29.954202
            ],
            [
              66.361818,
              29.954875
            ],
            [
              66.361894,
              29.955849
            ],
            [
              66.362515,
              29.956594
            ],
            [
              66.362668,
              29.957022
            ],
            [
              66.363251,
              29.957169
            ],
            [
              66.363759,
              29.958059
            ],
            [
              66.364277,
              29.957976
            ],
            [
              66.364703,
              29.958338
            ],
            [
              66.364311,
              29.958872
            ],
            [
              66.36378,
              29.959066
            ],
            [
              66.363566,
              29.95956
            ],
            [
              66.364819,
              29.961085
            ],
            [
              66.364895,
              29.961682
            ],
            [
              66.36561,
              29.962435
            ],
            [
              66.36702,
              29.962942
            ],
            [
              66.367743,
              29.96383
            ],
            [
              66.368131,
              29.964934
            ],
            [
              66.368868,
              29.965512
            ],
            [
              66.369865,
              29.965868
            ],
            [
              66.3705,
              29.967103
            ],
            [
              66.371462,
              29.968314
            ],
            [
              66.372253,
              29.969931
            ],
            [
              66.372846,
              29.970088
            ],
            [
              66.3734743,
              29.9710934
            ],
            [
              66.32812441943972,
              30
            ],
            [
              66,
              30
            ],
            [
              66,
              29.782199623893767
            ]
          ]
        ]
      }
    },
    {
      "type": "Feature",
      "properties": {
        "osm_id": -307573,
        "boundary": "administrative",
        "admin_level": 2,
        "parents": null,
        "name": "Pakistan",
        "local_name": "Ù¾Ø§Ú©Ø³ØªØ§Ù†",
        "name_en": "Pakistan",
        "all_tags": {
          "flag": "http://upload.wikimedia.org/wikipedia/commons/3/32/Flag_of_Pakistan.svg",
          "name": "Ù¾Ø§Ú©Ø³ØªØ§Ù†",
          "name:af": "Pakistan",
          "name:am": "á“áŠªáˆµá‰³áŠ•",
          "name:an": "PakistÃ¡n",
          "name:ar": "Ø¨Ø§ÙƒØ³ØªØ§Ù†",
          "name:as": "à¦ªà¦¾à¦•à¦¿à¦¸à§à¦¤à¦¾à¦¨",
          "name:az": "Pakistan",
          "name:ba": "ĞŸĞ°ĞºĞ¸ÑÑ‚Ğ°Ğ½",
          "name:be": "ĞŸĞ°ĞºÑ–ÑÑ‚Ğ°Ğ½",
          "name:bg": "ĞŸĞ°ĞºĞ¸ÑÑ‚Ğ°Ğ½",
          "name:bh": "à¤ªà¤¾à¤•à¤¿à¤¸à¥à¤¤à¤¾à¤¨",
          "name:bn": "à¦ªà¦¾à¦•à¦¿à¦¸à§à¦¤à¦¾à¦¨",
          "name:bo": "à½”à¼‹à½€à½²à¼‹à½¦à½²à¼‹à½à½“",
          "name:br": "Pakistan",
          "name:bs": "Pakistan",
          "name:ca": "Pakistan",
          "name:ce": "ĞŸĞ°ĞºĞ¸ÑÑ‚Ğ°Ğ½",
          "name:cs": "PÃ¡kistÃ¡n",
          "name:cv": "ĞŸĞ°ĞºĞ¸ÑÑ‚Ğ°Ğ½",
          "name:cy": "Pakistan",
          "name:da": "Pakistan",
          "name:de": "Pakistan",
          "name:dv": "Ş•Ş§Ş†Ş¨ŞŞ°ŞŒŞ§Ş‚Ş°",
          "name:el": "Î Î±ÎºÎ¹ÏƒÏ„Î¬Î½",
          "name:en": "Pakistan",
          "name:eo": "Pakistano",
          "name:es": "PakistÃ¡n",
          "name:et": "Pakistan",
          "name:eu": "Pakistan",
          "name:fa": "Ù¾Ø§Ú©Ø³ØªØ§Ù†",
          "name:fi": "Pakistan",
          "name:fo": "Pakistan",
          "name:fr": "Pakistan",
          "name:fy": "Pakistan",
          "name:ga": "An PhacastÃ¡in",
          "name:gd": "PagastÃ n",
          "name:gl": "PaquistÃ¡n",
          "name:gn": "PakistÃ¡n",
          "name:gu": "àªªàª¾àª•àª¿àª¸à«àª¤àª¾àª¨",
          "name:gv": "Yn Phakistaan",
          "name:ha": "Pakistan",
          "name:he": "×¤×§×™×¡×˜×Ÿ",
          "name:hi": "à¤ªà¤¾à¤•à¤¿à¤¸à¥à¤¤à¤¾à¤¨",
          "name:hr": "Pakistan",
          "name:ht": "Pakistan",
          "name:hu": "PakisztÃ¡n",
          "name:hy": "ÕŠÕ¡Õ¯Õ«Õ½Õ¿Õ¡Õ¶",
          "name:ia": "Pakistan",
          "name:id": "Pakistan",
          "name:ie": "Pakistan",
          "name:io": "Pakistan",
          "name:is": "Pakistan",
          "name:it": "Pakistan",
          "name:iu": "á¸á‘­á”…á‘•á“",
          "name:ja": "ãƒ‘ã‚­ã‚¹ã‚¿ãƒ³",
          "name:jv": "Pakistan",
          "name:ka": "áƒáƒáƒ™áƒ˜áƒ¡áƒ¢áƒáƒœáƒ˜",
          "name:ki": "Pakistan",
          "name:kk": "ĞŸÓ™ĞºÑ–ÑÑ‚Ğ°Ğ½",
          "name:kl": "Pakistan",
          "name:km": "á”áŸ‰á¶á‚á¸áŸáŸ’áá¶á“",
          "name:kn": "à²ªà²¾à²•à²¿à²¸à³à²¤à²¾à²¨",
          "name:ko": "íŒŒí‚¤ìŠ¤íƒ„",
          "name:ks": "Ù¾Ø§Ú©ÙØ³ØªØ§Ù†",
          "name:ku": "Pakistan",
          "name:kv": "ĞŸĞ°ĞºĞ¸ÑÑ‚Ğ°Ğ½",
          "name:kw": "Pakistan",
          "name:ky": "ĞŸĞ°ĞºĞ¸ÑÑ‚Ğ°Ğ½",
          "name:la": "Pakistania",
          "name:lb": "Pakistan",
          "name:li": "Pakistan",
          "name:ln": "PakistÃ¡ni",
          "name:lt": "Pakistanas",
          "name:lv": "PakistÄna",
          "name:mi": "PakitÄne",
          "name:mk": "ĞŸĞ°ĞºĞ¸ÑÑ‚Ğ°Ğ½",
          "name:ml": "à´ªà´¾à´•à´¿à´¸àµà´¤à´¾àµ»",
          "name:mn": "ĞŸĞ°ĞºĞ¸ÑÑ‚Ğ°Ğ½",
          "name:mr": "à¤ªà¤¾à¤•à¤¿à¤¸à¥à¤¤à¤¾à¤¨",
          "name:ms": "Pakistan",
          "name:mt": "Pakistan",
          "name:my": "á€•á€«á€€á€…á€¹á€…á€á€”á€ºá€”á€­á€¯á€„á€ºá€„á€¶",
          "name:na": "Pakistan",
          "name:ne": "à¤ªà¤¾à¤•à¤¿à¤¸à¥à¤¤à¤¾à¤¨",
          "name:nl": "Pakistan",
          "name:nn": "Pakistan",
          "name:no": "Pakistan",
          "name:nv": "EÊ¼eÊ¼aahjÃ­ Naakaii DootÅ‚Ê¼izhÃ­ BikÃ©yah",
          "name:oc": "Paquistan",
          "name:or": "à¬ªà¬¾à¬•à¬¿à¬¸à­à¬¥à¬¾à¬¨",
          "name:os": "ĞŸĞ°ĞºĞ¸ÑÑ‚Ğ°Ğ½",
          "name:pa": "à¨ªà¨¾à¨•à¨¿à¨¸à¨¤à¨¾à¨¨",
          "name:pl": "Pakistan",
          "name:ps": "Ù¾Ø§Ú©Ø³ØªØ§Ù†",
          "name:pt": "PaquistÃ£o",
          "name:qu": "Pakistan",
          "name:ro": "Pakistan",
          "name:ru": "ĞŸĞ°ĞºĞ¸ÑÑ‚Ğ°Ğ½",
          "name:rw": "Pakisitani",
          "name:sa": "à¤ªà¤¾à¤•à¤¿à¤¸à¥à¤¤à¤¾à¤¨à¤®à¥",
          "name:sd": "Ù¾Ø§ÚªØ³ØªØ§Ù†",
          "name:se": "Pakistan",
          "name:sh": "Pakistan",
          "name:si": "à¶´à·à¶šà·’à·ƒà·Šà¶®à·à¶±à¶º",
          "name:sk": "Pakistan",
          "name:sl": "Pakistan",
          "name:so": "Bakistaan",
          "name:sq": "Pakistani",
          "name:sr": "ĞŸĞ°ĞºĞ¸ÑÑ‚Ğ°Ğ½",
          "name:ss": "IPhakhistani",
          "name:su": "Pakistan",
          "name:sv": "Pakistan",
          "name:sw": "Pakistan",
          "name:ta": "à®ªà®¾à®•à¯à®•à®¿à®¤à¯à®¤à®¾à®©à¯",
          "name:te": "à°ªà°¾à°•à°¿à°¸à±à°¤à°¾à°¨à±",
          "name:tg": "ĞŸĞ¾ĞºĞ¸ÑÑ‚Ğ¾Ğ½",
          "name:th": "à¸›à¸£à¸°à¹€à¸—à¸¨à¸›à¸²à¸à¸µà¸ªà¸–à¸²à¸™",
          "name:tk": "PÃ¤kistan",
          "name:tl": "Pakistan",
          "name:tr": "Pakistan",
          "name:tt": "ĞŸĞ°ĞºÑŠÑÑ‚Ğ°Ğ½",
          "name:ug": "Ù¾Ø§ÙƒÙ‰Ø³ØªØ§Ù†",
          "name:uk": "ĞŸĞ°ĞºĞ¸ÑÑ‚Ğ°Ğ½",
          "name:ur": "Ù¾Ø§Ú©Ø³ØªØ§Ù†",
          "name:uz": "Pokiston",
          "name:vi": "Pakistan",
          "name:vo": "PakistÃ¤n",
          "name:wa": "Pakistan",
          "name:wo": "Pakistaan",
          "name:yi": "×¤××§×™×¡×˜××Ÿ",
          "name:yo": "PakÃ­stÃ n",
          "name:zh": "å·´åŸºæ–¯å¦",
          "name:zu": "IPakistani",
          "boundary": "administrative",
          "name:ace": "Pakistan",
          "name:als": "Pakistan",
          "name:ang": "Pacistan",
          "name:arc": "Ü¦ÜÜ©Ü£Ü›ÜÜ¢",
          "name:arz": "Ø¨Ø§ÙƒØ³ØªØ§Ù†",
          "name:ast": "PaquistÃ¡n",
          "name:azb": "Ù¾Ø§Ú©ÛŒØ³ØªØ§Ù†",
          "name:bar": "Pakistan",
          "name:bcl": "Pakistan",
          "name:bjn": "Pakistan",
          "name:bpy": "à¦ªà¦¾à¦•à¦¿à¦¸à§à¦¤à¦¾à¦¨",
          "name:bug": "Pakistan",
          "name:bxr": "ĞŸĞ°ĞºĞ¸ÑÑ‚Ğ°Ğ½",
          "name:ceb": "Pakistan",
          "name:ckb": "Ù¾Ø§Ú©Ø³ØªØ§Ù†",
          "name:crh": "Pakistan",
          "name:csb": "Pakistan",
          "name:din": "PakÃ¤tÃ¤n",
          "name:diq": "PakÄ±stan",
          "name:dsb": "Pakistan",
          "name:ext": "PaquistÃ¡n",
          "name:frp": "Paquistan",
          "name:gag": "Pakistan",
          "name:gan": "å·´åŸºæ–¯å¦",
          "name:hak": "PÃ¢-kÃ®-sá¹³Ì‚-thÃ¡n",
          "name:haw": "Pakitana",
          "name:hif": "Pakistan",
          "name:hsb": "Pakistan",
          "name:ilo": "Pakistan",
          "name:jbo": "kisygu'e",
          "name:kab": "Pakistan",
          "name:kbd": "ĞŸĞ°ĞºĞ¸ÑÑ‚ÑĞ½",
          "name:kmr": "Ù¾Ø§Ú©Ø³ØªØ§Ù†",
          "name:lez": "ĞŸĞ°ĞºĞ¸ÑÑ‚Ğ°Ğ½",
          "name:lij": "Pakistan",
          "name:lmo": "Pakistan",
          "name:lrc": "Ù¾Ø§Ú©Ø³ØªØ§Ù†",
          "name:lzh": "å·´åŸºæ–¯å¦",
          "name:mdf": "ĞŸĞ°ĞºĞ¸ÑÑ‚Ğ°Ğ½",
          "name:mhr": "ĞŸĞ°ĞºĞ¸ÑÑ‚Ğ°Ğ½",
          "name:mzn": "Ù¾Ø§Ú©Ø³ØªÙˆÙ†",
          "name:nah": "Paquistan",
          "name:nan": "Pakistan",
          "name:nap": "Pakistan",
          "name:nds": "Pakistan",
          "name:nov": "Pakistan",
          "name:pam": "Pakistan",
          "name:pap": "Pakistan",
          "name:pih": "Pakistaan",
          "name:pms": "Pakistan",
          "name:pnb": "Ù¾Ø§Ú©Ø³ØªØ§Ù†",
          "name:rmy": "Pakistan",
          "name:rue": "ĞŸĞ°ĞºÑ–ÑÑ‚Ğ°Ğ½",
          "name:sah": "ĞŸĞ°ĞºĞ¸ÑÑ‚Ğ°Ğ½",
          "name:scn": "Pakistan",
          "name:sco": "Pakistan",
          "name:skr": "Ù¾Ø§Ú©Ø³ØªØ§Ù†",
          "name:smn": "Pakistan",
          "name:sms": "Pakistaan",
          "name:srn": "Pakistan",
          "name:stq": "Pakistan",
          "name:syc": "Ü¦ÜÜ©Ü£Ü›ÜÜ¢",
          "name:szl": "PakistÅn",
          "name:tzl": "Pachistan",
          "name:udm": "ĞŸĞ°ĞºĞ¸ÑÑ‚Ğ°Ğ½",
          "name:vec": "Pakistan",
          "name:vro": "Pakistan",
          "name:war": "Pakistan",
          "name:wuu": "å·´åŸºæ–¯å¦",
          "name:xal": "Ğ¡Ğ°Ñ€Ñ‚Ğ° ĞŸĞ°ĞºÑĞ¸Ğ½ ĞÑ€Ğ½",
          "name:xmf": "áƒáƒáƒ™áƒ˜áƒ¡áƒ¢áƒáƒœáƒ˜",
          "name:yue": "å·´åŸºæ–¯å¦",
          "name:zea": "Pakistan",
          "timezone": "Asia/Karachi",
          "way_area": "84.5359",
          "wikidata": "Q843",
          "ISO3166-1": "PK",
          "wikipedia": "ur:Ù¾Ø§Ú©Ø³ØªØ§Ù†",
          "admin_level": "2",
          "alt_name:sd": "Ù¾Ø§Ú©Ø³ØªØ§Ù†",
          "alt_name:vi": "Há»“i Quá»‘c",
          "border_type": "nation",
          "name:nds-nl": "Pakistan",
          "driving_side": "left",
          "name:bat-smg": "PakÄ—stans",
          "name:cbk-zam": "Pakistan",
          "name:kk-Arab": "Ù¾Ø§ÙƒÙ‰Ø³ØªØ§Ù†",
          "name:ku-Arab": "Ù¾Ø§Ú©Ø³ØªØ§Ù†",
          "name:zh-Hans": "å·´åŸºæ–¯å¦",
          "name:zh-Hant": "å·´åŸºæ–¯å¦",
          "name:kab-Arab": "Ù¾Ø§ÙƒØ³ØªØ§Ù†",
          "name:roa-tara": "Pakistan",
          "official_name": "Ø§Ø³Ù„Ø§Ù…ÛŒ Ø¬Ù…ÛÙˆØ±ÛŒÛ‚ Ù¾Ø§Ú©Ø³ØªØ§Ù†",
          "name:be-tarask": "ĞŸĞ°ĞºÑ–ÑÑ‚Ğ°Ğ½",
          "ISO3166-1:alpha2": "PK",
          "ISO3166-1:alpha3": "PAK",
          "default_language": "ur;en;pnb;sd;ps;bal",
          "official_name:ar": "Ø¬Ù…Ù‡ÙˆØ±ÙŠØ© Ø¨Ø§ÙƒØ³ØªØ§Ù† Ø§Ù„Ø¥Ø³Ù„Ø§Ù…ÙŠØ©",
          "official_name:cs": "PÃ¡kistÃ¡nskÃ¡ islÃ¡mskÃ¡ republika",
          "official_name:en": "Islamic Republic of Pakistan",
          "official_name:eo": "Islama Respubliko de Pakistano",
          "official_name:es": "RepÃºblica IslÃ¡mica del PakistÃ¡n",
          "official_name:fa": "Ø¬Ù…Ù‡ÙˆØ±ÛŒ Ø§Ø³Ù„Ø§Ù…ÛŒ Ù¾Ø§Ú©Ø³ØªØ§Ù†",
          "official_name:fr": "RÃ©publique islamique du Pakistan",
          "official_name:ks": "Ø§ÙØ³Ù„Ø§Ù…ÛŒ Ø¬Ù…ÛÙˆÙ—Ø±ÙÛŒØª Ù¾Ø§Ú©ÙØ³ØªØ§Ù†",
          "official_name:pl": "Islamska Republika Pakistanu",
          "official_name:ru": "Ğ˜ÑĞ»Ğ°ÌĞ¼ÑĞºĞ°Ñ Ğ ĞµÑĞ¿ÑƒÌĞ±Ğ»Ğ¸ĞºĞ° ĞŸĞ°ĞºĞ¸ÑÑ‚Ğ°ÌĞ½",
          "official_name:ug": "Ù¾Ø§ÙƒÙ‰Ø³ØªØ§Ù† Ø¦Ù‰Ø³Ù„Ø§Ù… Ø¬Û‡Ù…Ú¾Û‡Ø±Ù‰ÙŠÙ‰ØªÙ‰",
          "official_name:ur": "Ø§Ø³Ù„Ø§Ù…ÛŒ Ø¬Ù…ÛÙˆØ±ÛŒÛ‚ Ù¾Ø§Ú©Ø³ØªØ§Ù†",
          "ISO3166-1:numeric": "586",
          "official_name:kk-Arab": "Ù¾Ø§ÙƒÙ‰Ø³ØªØ§Ù† Ù‰ÙŠØ³Ù„Ø§Ù… Ø±Û•Ø³Ù¾Û‹Ø¨Ù„Ù‰ÙŠÙƒØ§Ø³Ù‰"
        }
      },
      "geometry": {
        "type": "Polygon",
        "coordinates": [
          [
            [
              66,
              29
            ],
            [
              67,
              29
            ],
            [
              67,
              30
            ],
            [
              66.32812441943972,
              30
            ],
            [
              66.3734743,
              29.9710934
            ],
            [
              66.372846,
              29.970088
            ],
            [
              66.372253,
              29.969931
            ],
            [
              66.371462,
              29.968314
            ],
            [
              66.3705,
              29.967103
            ],
            [
              66.369865,
              29.965868
            ],
            [
              66.368868,
              29.965512
            ],
            [
              66.368131,
              29.964934
            ],
            [
              66.367743,
              29.96383
            ],
            [
              66.36702,
              29.962942
            ],
            [
              66.36561,
              29.962435
            ],
            [
              66.364895,
              29.961682
            ],
            [
              66.364819,
              29.961085
            ],
            [
              66.363566,
              29.95956
            ],
            [
              66.36378,
              29.959066
            ],
            [
              66.364311,
              29.958872
            ],
            [
              66.364703,
              29.958338
            ],
            [
              66.364277,
              29.957976
            ],
            [
              66.363759,
              29.958059
            ],
            [
              66.363251,
              29.957169
            ],
            [
              66.362668,
              29.957022
            ],
            [
              66.362515,
              29.956594
            ],
            [
              66.361894,
              29.955849
            ],
            [
              66.361818,
              29.954875
            ],
            [
              66.360154,
              29.954202
            ],
            [
              66.359907,
              29.954282
            ],
            [
              66.359722,
              29.954653
            ],
            [
              66.358968,
              29.955083
            ],
            [
              66.358265,
              29.955231
            ],
            [
              66.358177,
              29.955076
            ],
            [
              66.35746,
              29.954989
            ],
            [
              66.356883,
              29.953831
            ],
            [
              66.355554,
              29.951989
            ],
            [
              66.353251,
              29.952928
            ],
            [
              66.352033,
              29.953021
            ],
            [
              66.351808,
              29.952175
            ],
            [
              66.350942,
              29.950748
            ],
            [
              66.350076,
              29.948563
            ],
            [
              66.349541,
              29.948312
            ],
            [
              66.349,
              29.947199
            ],
            [
              66.348401,
              29.94691
            ],
            [
              66.347428,
              29.946794
            ],
            [
              66.347038,
              29.94644
            ],
            [
              66.346424,
              29.94543
            ],
            [
              66.346577,
              29.945056
            ],
            [
              66.345767,
              29.944693
            ],
            [
              66.34532,
              29.943014
            ],
            [
              66.344568,
              29.941295
            ],
            [
              66.344006,
              29.940988
            ],
            [
              66.343522,
              29.94047
            ],
            [
              66.343207,
              29.939736
            ],
            [
              66.342694,
              29.939239
            ],
            [
              66.342437,
              29.938436
            ],
            [
              66.341618,
              29.938065
            ],
            [
              66.341601,
              29.937431
            ],
            [
              66.341804,
              29.937031
            ],
            [
              66.341752,
              29.936291
            ],
            [
              66.341667,
              29.936136
            ],
            [
              66.341183,
              29.936129
            ],
            [
              66.341013,
              29.934712
            ],
            [
              66.341565,
              29.934225
            ],
            [
              66.341405,
              29.933324
            ],
            [
              66.340927,
              29.93268
            ],
            [
              66.341282,
              29.932441
            ],
            [
              66.340407,
              29.931767
            ],
            [
              66.339768,
              29.930415
            ],
            [
              66.339497,
              29.929382
            ],
            [
              66.339539,
              29.928932
            ],
            [
              66.339145,
              29.928613
            ],
            [
              66.338676,
              29.928697
            ],
            [
              66.338264,
              29.92857
            ],
            [
              66.336895,
              29.927348
            ],
            [
              66.336189,
              29.927788
            ],
            [
              66.335722,
              29.927609
            ],
            [
              66.335036,
              29.927634
            ],
            [
              66.334903,
              29.926879
            ],
            [
              66.334357,
              29.926459
            ],
            [
              66.334212,
              29.925877
            ],
            [
              66.33356,
              29.925414
            ],
            [
              66.333253,
              29.924316
            ],
            [
              66.332436,
              29.924175
            ],
            [
              66.332609,
              29.923592
            ],
            [
              66.332369,
              29.922274
            ],
            [
              66.332591,
              29.921373
            ],
            [
              66.332042,
              29.920227
            ],
            [
              66.330686,
              29.919051
            ],
            [
              66.330293,
              29.918479
            ],
            [
              66.329496,
              29.917953
            ],
            [
              66.328987,
              29.916956
            ],
            [
              66.328154,
              29.916694
            ],
            [
              66.327741,
              29.9161
            ],
            [
              66.326662,
              29.915638
            ],
            [
              66.324921,
              29.913683
            ],
            [
              66.324667,
              29.913636
            ],
            [
              66.324064,
              29.913873
            ],
            [
              66.323784,
              29.913707
            ],
            [
              66.32337,
              29.913806
            ],
            [
              66.322574,
              29.913244
            ],
            [
              66.322337,
              29.912792
            ],
            [
              66.321446,
              29.91185
            ],
            [
              66.321063,
              29.911133
            ],
            [
              66.320759,
              29.910368
            ],
            [
              66.320777,
              29.909579
            ],
            [
              66.319633,
              29.908689
            ],
            [
              66.319526,
              29.907306
            ],
            [
              66.319178,
              29.906816
            ],
            [
              66.317895,
              29.907273
            ],
            [
              66.317475,
              29.907816
            ],
            [
              66.316829,
              29.90807
            ],
            [
              66.316517,
              29.908499
            ],
            [
              66.315019,
              29.908667
            ],
            [
              66.314589,
              29.909323
            ],
            [
              66.313393,
              29.910119
            ],
            [
              66.312973,
              29.910156
            ],
            [
              66.312361,
              29.907751
            ],
            [
              66.312378,
              29.907444
            ],
            [
              66.312809,
              29.906685
            ],
            [
              66.312495,
              29.906014
            ],
            [
              66.311351,
              29.904713
            ],
            [
              66.310331,
              29.903967
            ],
            [
              66.30945,
              29.902487
            ],
            [
              66.308523,
              29.901703
            ],
            [
              66.308238,
              29.901158
            ],
            [
              66.306827,
              29.901437
            ],
            [
              66.306232,
              29.900768
            ],
            [
              66.305477,
              29.900735
            ],
            [
              66.305122,
              29.900351
            ],
            [
              66.304848,
              29.899652
            ],
            [
              66.304298,
              29.899343
            ],
            [
              66.303559,
              29.897843
            ],
            [
              66.302995,
              29.897893
            ],
            [
              66.301543,
              29.897279
            ],
            [
              66.300099,
              29.898037
            ],
            [
              66.298609,
              29.897251
            ],
            [
              66.297955,
              29.897105
            ],
            [
              66.297762,
              29.896806
            ],
            [
              66.296993,
              29.897037
            ],
            [
              66.296359,
              29.896291
            ],
            [
              66.296257,
              29.895831
            ],
            [
              66.295673,
              29.895099
            ],
            [
              66.295458,
              29.894576
            ],
            [
              66.295444,
              29.893797
            ],
            [
              66.294948,
              29.892834
            ],
            [
              66.294918,
              29.892429
            ],
            [
              66.292685,
              29.893009
            ],
            [
              66.291851,
              29.892089
            ],
            [
              66.291453,
              29.891321
            ],
            [
              66.290917,
              29.890831
            ],
            [
              66.290665,
              29.890271
            ],
            [
              66.289625,
              29.889365
            ],
            [
              66.289261,
              29.888278
            ],
            [
              66.288259,
              29.887596
            ],
            [
              66.288547,
              29.886914
            ],
            [
              66.287912,
              29.885129
            ],
            [
              66.287499,
              29.884698
            ],
            [
              66.287327,
              29.884221
            ],
            [
              66.287115,
              29.883064
            ],
            [
              66.286826,
              29.88244
            ],
            [
              66.286948,
              29.881734
            ],
            [
              66.28607,
              29.881059
            ],
            [
              66.286122,
              29.880378
            ],
            [
              66.285863,
              29.879984
            ],
            [
              66.285681,
              29.879818
            ],
            [
              66.284657,
              29.879665
            ],
            [
              66.284394,
              29.879316
            ],
            [
              66.283617,
              29.87882
            ],
            [
              66.282857,
              29.87903
            ],
            [
              66.282527,
              29.87896
            ],
            [
              66.282034,
              29.87852
            ],
            [
              66.281835,
              29.877821
            ],
            [
              66.281354,
              29.877671
            ],
            [
              66.281018,
              29.877234
            ],
            [
              66.280445,
              29.877498
            ],
            [
              66.279633,
              29.877388
            ],
            [
              66.27919,
              29.8775
            ],
            [
              66.278287,
              29.876425
            ],
            [
              66.278142,
              29.875641
            ],
            [
              66.277857,
              29.875669
            ],
            [
              66.275823,
              29.874278
            ],
            [
              66.273651,
              29.872404
            ],
            [
              66.273317,
              29.871055
            ],
            [
              66.273425,
              29.870688
            ],
            [
              66.272827,
              29.869855
            ],
            [
              66.272503,
              29.869653
            ],
            [
              66.272206,
              29.86869
            ],
            [
              66.271516,
              29.868252
            ],
            [
              66.270627,
              29.866729
            ],
            [
              66.270113,
              29.866225
            ],
            [
              66.269898,
              29.865634
            ],
            [
              66.268691,
              29.864261
            ],
            [
              66.267634,
              29.862186
            ],
            [
              66.267422,
              29.861059
            ],
            [
              66.267685,
              29.860084
            ],
            [
              66.267368,
              29.859348
            ],
            [
              66.267533,
              29.859076
            ],
            [
              66.267508,
              29.858658
            ],
            [
              66.267317,
              29.857833
            ],
            [
              66.266802,
              29.857321
            ],
            [
              66.266326,
              29.857527
            ],
            [
              66.265425,
              29.857576
            ],
            [
              66.265182,
              29.857332
            ],
            [
              66.263798,
              29.856875
            ],
            [
              66.263126,
              29.857078
            ],
            [
              66.261708,
              29.856216
            ],
            [
              66.261389,
              29.856333
            ],
            [
              66.261227,
              29.856674
            ],
            [
              66.260596,
              29.857131
            ],
            [
              66.260276,
              29.857729
            ],
            [
              66.259771,
              29.857345
            ],
            [
              66.258431,
              29.855738
            ],
            [
              66.257754,
              29.855771
            ],
            [
              66.256804,
              29.854799
            ],
            [
              66.256497,
              29.854687
            ],
            [
              66.255966,
              29.854771
            ],
            [
              66.254568,
              29.853593
            ],
            [
              66.253989,
              29.853601
            ],
            [
              66.253044,
              29.852031
            ],
            [
              66.252388,
              29.851918
            ],
            [
              66.252141,
              29.851714
            ],
            [
              66.252311,
              29.851188
            ],
            [
              66.252236,
              29.850348
            ],
            [
              66.251961,
              29.849995
            ],
            [
              66.25197,
              29.849576
            ],
            [
              66.251613,
              29.849207
            ],
            [
              66.250324,
              29.849146
            ],
            [
              66.249881,
              29.8495227
            ],
            [
              66,
              29.782199623893767
            ],
            [
              66,
              29
            ]
          ]
        ]
      }
    }
  ]
}