{
  "type": "FeatureCollection",
  "features": [
    {
      "type": "Feature",
      "properties": {
        "osm_id": -555017,
        "boundary": "administrative",
        "admin_level": 2,
        "parents": null,
        "name": "Jamaica",
        "local_name": "Jamaica",
        "name_en": "Jamaica",
        "all_tags": {
          "flag": "http://upload.wikimedia.org/wikipedia/commons/0/0a/Flag_of_Jamaica.svg",
          "name": "Jamaica",
          "name:ar": "جامايكا",
          "name:br": "Jamaika",
          "name:cs": "Jamajka",
          "name:de": "Jamaika",
          "name:el": "Ιαμαϊκή",
          "name:en": "Jamaica",
          "name:eo": "Jamajko",
          "name:es": "Jamaica",
          "name:fr": "Jamaïque",
          "name:fy": "Jamaika",
          "name:gn": "Hamáika",
          "name:hr": "Jamajka",
          "name:io": "Jamaika",
          "name:it": "Giamaica",
          "name:ja": "ジャマイカ",
          "name:ko": "자메이카",
          "name:ku": "Camayka",
          "name:nl": "Jamaica",
          "name:no": "Jamaica",
          "name:oc": "Jamaica",
          "name:pl": "Jamajka",
          "name:pt": "Jamaica",
          "name:ru": "Ямайка",
          "name:se": "Jamaica",
          "name:sk": "Jamajka",
          "name:sl": "Jamajka",
          "name:sv": "Jamaica",
          "name:ta": "ஜமேக்கா",
          "name:uk": "Ямайка",
          "name:vo": "Camekeän",
          "name:zh": "牙买加 / 牙買加",
          "boundary": "administrative",
          "name:ckb": "جامایکا",
          "name:smn": "Jamaika",
          "name:sms": "Jamaika",
          "name:tzl": "Xhamieca",
          "timezone": "America/Jamaica",
          "way_area": "4.34461",
          "wikidata": "Q766",
          "ISO3166-1": "JM",
          "wikipedia": "en:Jamaica",
          "admin_level": "2",
          "border_type": "nation",
          "driving_side": "left",
          "name:zh-Hans": "牙买加",
          "name:zh-Hant": "牙買加",
          "ISO3166-1:alpha2": "JM",
          "ISO3166-1:alpha3": "JAM",
          "default_language": "en",
          "official_name:en": "Commonwealth of Jamaica",
          "ISO3166-1:numeric": "388"
        }
      },
      "geometry": {
        "type": "Polygon",
        "coordinates": [
          [
            [
              -76,
              17.177292397628047
            ],
            [
              -75.9530342,
              17.1878819
            ],
            [
              -75.935147,
              17.1926551
            ],
            [
              -75.9165524,
              17.1984817
            ],
            [
              -75.8722025,
              17.2181384
            ],
            [
              -75.862763,
              17.2236886
            ],
            [
              -75.8304434,
              17.2470998
            ],
            [
              -75.8034161,
              17.2760539
            ],
            [
              -75.7961893,
              17.2854925
            ],
            [
              -75.773733,
              17.3225305
            ],
            [
              -75.7585658,
              17.3696886
            ],
            [
              -75.7541143,
              17.40919
            ],
            [
              -75.7578487,
              17.4487598
            ],
            [
              -75.7696279,
              17.4868491
            ],
            [
              -75.9858646,
              17.9934699
            ],
            [
              -75.98938203907588,
              18
            ],
            [
              -76,
              18
            ],
            [
              -76,
              17.177292397628047
            ]
          ]
        ]
      }
    }
  ]
}