{
  "type": "FeatureCollection",
  "features": [
    {
      "type": "Feature",
      "properties": {
        "osm_id": -307829,
        "boundary": "administrative",
        "admin_level": 2,
        "parents": null,
        "name": "Haiti",
        "local_name": "Ayiti",
        "name_en": "Haiti",
        "all_tags": {
          "flag": "http://upload.wikimedia.org/wikipedia/commons/5/56/Flag_of_Haiti.svg",
          "name": "Ayiti",
          "name:af": "Haïti",
          "name:am": "ሃይቲ",
          "name:an": "Haití",
          "name:ar": "هايتي",
          "name:ay": "Ayti",
          "name:az": "Haiti Respublikası",
          "name:be": "Гаіці",
          "name:bg": "Хаити",
          "name:bm": "Ayiti",
          "name:bn": "হাইতি",
          "name:bo": "ཧའི་ཏི།",
          "name:br": "Republik Haiti",
          "name:bs": "Haiti",
          "name:ca": "Haití",
          "name:ce": "Гаити Пачхьалкх",
          "name:co": "Haiti",
          "name:cs": "Haiti",
          "name:cv": "Гаити",
          "name:cy": "Haiti",
          "name:da": "Haiti",
          "name:de": "Haiti",
          "name:dv": "ހެއިޓީ",
          "name:ee": "Haiti",
          "name:el": "Αϊτή",
          "name:en": "Haiti",
          "name:eo": "Haitio",
          "name:es": "Haití",
          "name:et": "Haiti",
          "name:eu": "Haiti",
          "name:fa": "هائیتی",
          "name:fi": "Haiti",
          "name:fo": "Haiti",
          "name:fr": "Haïti",
          "name:fy": "Haïty",
          "name:ga": "Háítí",
          "name:gd": "Haiti",
          "name:gl": "Haití - Haïti",
          "name:gn": "Haiti",
          "name:gu": "હૈતી",
          "name:gv": "Haiti",
          "name:he": "האיטי",
          "name:hi": "हैती",
          "name:hr": "Haiti",
          "name:ht": "Ayiti",
          "name:hu": "Haiti",
          "name:hy": "Հաիթի",
          "name:ia": "Haiti",
          "name:id": "Haiti",
          "name:io": "Haiti",
          "name:is": "Haítí",
          "name:it": "Haiti",
          "name:ja": "ハイチ",
          "name:jv": "Haiti",
          "name:ka": "ჰაიტი",
          "name:kg": "Ayiti",
          "name:ki": "Haiti",
          "name:kk": "Гаити",
          "name:ko": "아이티",
          "name:ku": "Haîtî",
          "name:kw": "Hayti",
          "name:la": "Haitia",
          "name:lb": "Haiti",
          "name:li": "Haïti",
          "name:ln": "Ayiti",
          "name:lt": "Haitis",
          "name:lv": "Haiti",
          "name:mg": "Haiti",
          "name:mk": "Хаити",
          "name:ml": "ഹെയ്റ്റി",
          "name:mn": "Гайти",
          "name:mr": "हैती",
          "name:ms": "Haiti",
          "name:mt": "Ħaiti",
          "name:my": "ဟေတီနိုင်ငံ",
          "name:na": "Aiti",
          "name:ne": "हाइटी",
          "name:nl": "Haïti",
          "name:nn": "Haiti",
          "name:no": "Haiti",
          "name:nv": "Héítii",
          "name:oc": "Haití (estat)",
          "name:or": "ହିଟି",
          "name:os": "Гаити",
          "name:pa": "ਹੈਤੀ",
          "name:pl": "Haiti",
          "name:ps": "هایتي",
          "name:pt": "Haiti",
          "name:qu": "Ayti (mama llaqta)",
          "name:ro": "Haiti",
          "name:ru": "Гаити",
          "name:rw": "Hayiti",
          "name:se": "Haiti",
          "name:sh": "Haiti",
          "name:si": "හෙයිටි",
          "name:sk": "Haiti",
          "name:sl": "Haiti",
          "name:so": "Haiti",
          "name:sq": "Haitia",
          "name:sr": "Хаити",
          "name:ss": "IHayithi",
          "name:su": "Haiti",
          "name:sv": "Haiti",
          "name:sw": "Haiti",
          "name:ta": "எயிட்டி",
          "name:th": "ประเทศเฮติ",
          "name:tl": "Hayti",
          "name:tr": "Haiti",
          "name:tt": "Гаити",
          "name:ug": "ھايتى",
          "name:uk": "Гаїті",
          "name:ur": "ہیٹی",
          "name:uz": "Gaiti",
          "name:vi": "Haiti",
          "name:vo": "Haitiyän",
          "name:wa": "Ayiti",
          "name:wo": "Ayiti",
          "name:yi": "האיטי",
          "name:yo": "Hàítì",
          "name:zh": "海地",
          "boundary": "administrative",
          "name:als": "Haiti",
          "name:arz": "هاييتى",
          "name:ast": "Haití",
          "name:azb": "هائیتی",
          "name:bcl": "Haiti",
          "name:bjn": "Haiti",
          "name:bpy": "হাইতি",
          "name:bxr": "Һаити Улас",
          "name:ceb": "Haiti",
          "name:ckb": "هایتی",
          "name:crh": "Haiti",
          "name:diq": "Haiti",
          "name:dsb": "Haiti",
          "name:ext": "Aití",
          "name:frp": "Hayiti",
          "name:frr": "Haiti",
          "name:gag": "Haiti",
          "name:grc": "Ἁϊτή",
          "name:hak": "Hói-thi",
          "name:haw": "Heiti",
          "name:hif": "Haiti",
          "name:hsb": "Haiti",
          "name:ilo": "Haiti",
          "name:jbo": "aitas",
          "name:lad": "Ayti",
          "name:lij": "Haiti",
          "name:lmo": "Haiti",
          "name:lzh": "海地",
          "name:mhr": "Гаити",
          "name:mrj": "Гаити",
          "name:nah": "Haiti",
          "name:nan": "Haiti",
          "name:nds": "Haiti",
          "name:new": "हेइटी",
          "name:nov": "Haiti",
          "name:pam": "Haiti",
          "name:pap": "Haiti",
          "name:pih": "Haiti",
          "name:pms": "Haiti",
          "name:pnb": "ہیٹی",
          "name:sah": "Хаити",
          "name:scn": "Aiti",
          "name:sco": "Haiti",
          "name:smn": "Haiti",
          "name:sms": "Haiti",
          "name:szl": "Hajiti",
          "name:tok": "ma Awisi",
          "name:tzl": "Haïtì",
          "name:vec": "Haiti",
          "name:vro": "Haiti",
          "name:war": "Haiti",
          "name:yue": "海地",
          "timezone": "America/Port-au-Prince",
          "way_area": "4.72135",
          "wikidata": "Q790",
          "ISO3166-1": "HT",
          "wikipedia": "ht:Ayiti",
          "admin_level": "2",
          "border_type": "nation",
          "name:nds-nl": "Haïti",
          "name:bat-smg": "Haitės",
          "name:zh-Hans": "海地",
          "name:zh-Hant": "海地",
          "official_name": "République d'Haïti",
          "name:be-tarask": "Гаіці",
          "ISO3166-1:alpha2": "HT",
          "ISO3166-1:alpha3": "HTI",
          "official_name:cs": "Republika Haiti",
          "official_name:de": "Republik Haiti",
          "official_name:en": "Republic of Haiti",
          "official_name:eo": "Haitia Respubliko",
          "official_name:es": "República de Haití",
          "official_name:fr": "République d'Haïti",
          "official_name:gn": "Tavakuairetã Haiti",
          "official_name:ht": "Repiblik Ayiti",
          "official_name:pl": "Republika Haiti",
          "official_name:pt": "República do Haiti",
          "official_name:sk": "Haitská republika",
          "official_name:sr": "Република Хаити",
          "official_name:zh": "海地共和国 / 海地共和國",
          "ISO3166-1:numeric": "332",
          "official_name:ast": "República d'Haití",
          "official_name:grc": "Πολιτεία τῆς Ἁϊτῆς",
          "official_name:zh-Hans": "海地共和国",
          "official_name:zh-Hant": "海地共和國"
        }
      },
      "geometry": {
        "type": "Polygon",
        "coordinates": [
          [
            [
              -75.2384618,
              18.398702
            ],
            [
              -75.2336999,
              18.3664654
            ],
            [
              -75.2288309,
              18.3520806
            ],
            [
              -75.2192144,
              18.3256833
            ],
            [
              -75.2052088,
              18.3013364
            ],
            [
              -75.1923834,
              18.2826809
            ],
            [
              -75.1721527,
              18.2582151
            ],
            [
              -75.1482084,
              18.2370322
            ],
            [
              -75.1219061,
              18.2195619
            ],
            [
              -75.0814085,
              18.201251
            ],
            [
              -75.0374985,
              18.1907252
            ],
            [
              -75,
              18.189452068571747
            ],
            [
              -75,
              18.61160956192165
            ],
            [
              -75.0199034,
              18.6137166
            ],
            [
              -75.0546028,
              18.6121442
            ],
            [
              -75.0880291,
              18.6053034
            ],
            [
              -75.1198508,
              18.5933921
            ],
            [
              -75.1492275,
              18.5767252
            ],
            [
              -75.1596528,
              18.5688721
            ],
            [
              -75.1765697,
              18.5547196
            ],
            [
              -75.1993364,
              18.5289778
            ],
            [
              -75.2172678,
              18.4999677
            ],
            [
              -75.222672,
              18.4886399
            ],
            [
              -75.2322562,
              18.4610773
            ],
            [
              -75.2377069,
              18.4312495
            ],
            [
              -75.2384618,
              18.398702
            ]
          ]
        ]
      }
    },
    {
      "type": "Feature",
      "properties": {
        "osm_id": -555017,
        "boundary": "administrative",
        "admin_level": 2,
        "parents": null,
        "name": "Jamaica",
        "local_name": "Jamaica",
        "name_en": "Jamaica",
        "all_tags": {
          "flag": "http://upload.wikimedia.org/wikipedia/commons/0/0a/Flag_of_Jamaica.svg",
          "name": "Jamaica",
          "name:ar": "جامايكا",
          "name:br": "Jamaika",
          "name:cs": "Jamajka",
          "name:de": "Jamaika",
          "name:el": "Ιαμαϊκή",
          "name:en": "Jamaica",
          "name:eo": "Jamajko",
          "name:es": "Jamaica",
          "name:fr": "Jamaïque",
          "name:fy": "Jamaika",
          "name:gn": "Hamáika",
          "name:hr": "Jamajka",
          "name:io": "Jamaika",
          "name:it": "Giamaica",
          "name:ja": "ジャマイカ",
          "name:ko": "자메이카",
          "name:ku": "Camayka",
          "name:nl": "Jamaica",
          "name:no": "Jamaica",
          "name:oc": "Jamaica",
          "name:pl": "Jamajka",
          "name:pt": "Jamaica",
          "name:ru": "Ямайка",
          "name:se": "Jamaica",
          "name:sk": "Jamajka",
          "name:sl": "Jamajka",
          "name:sv": "Jamaica",
          "name:ta": "ஜமேக்கா",
          "name:uk": "Ямайка",
          "name:vo": "Camekeän",
          "name:zh": "牙买加 / 牙買加",
          "boundary": "administrative",
          "name:ckb": "جامایکا",
          "name:smn": "Jamaika",
          "name:sms": "Jamaika",
          "name:tzl": "Xhamieca",
          "timezone": "America/Jamaica",
          "way_area": "4.34461",
          "wikidata": "Q766",
          "ISO3166-1": "JM",
          "wikipedia": "en:Jamaica",
          "admin_level": "2",
          "border_type": "nation",
          "driving_side": "left",
          "name:zh-Hans": "牙买加",
          "name:zh-Hant": "牙買加",
          "ISO3166-1:alpha2": "JM",
          "ISO3166-1:alpha3": "JAM",
          "default_language": "en",
          "official_name:en": "Commonwealth of Jamaica",
          "ISO3166-1:numeric": "388"
        }
      },
      "geometry": {
        "type": "Polygon",
        "coordinates": [
          [
            [
              -76,
              18
            ],
            [
              -75.98938203907588,
              18
            ],
            [
              -76,
              18.019712167043924
            ],
            [
              -76,
              18
            ]
          ]
        ]
      }
    },
    {
      "type": "Feature",
      "properties": {
        "osm_id": -148838,
        "boundary": "administrative",
        "admin_level": 2,
        "parents": null,
        "name": "United States",
        "local_name": "United States",
        "name_en": "United States",
        "all_tags": {
          "flag": "https://upload.wikimedia.org/wikipedia/commons/a/a4/Flag_of_the_United_States.svg",
          "name": "United States",
          "name:ab": "Америка Еиду Аштатқәа",
          "name:af": "Verenigde State van Amerika",
          "name:am": "የተባበሩት የአሜሪካ ግዛቶች",
          "name:an": "Estatos Unitos d'America",
          "name:ar": "الولايات المتّحدة الأمريكيّة",
          "name:as": "মাৰ্কিন যুক্তৰাষ্ট্ৰ",
          "name:av": "Америкалъул Цолъарал Штатал",
          "name:ay": "Istadus Unidus",
          "name:az": "Amerika Birləşmiş Ştatları",
          "name:ba": "Америка Ҡушма Штаттары",
          "name:be": "Злучаныя Штаты Амерыкі",
          "name:bg": "Съединени американски щати",
          "name:bi": "Yunaeted Stet blong Amerika",
          "name:bm": "Amerika ka Kelenyalen Jamanaw",
          "name:bn": "মার্কিন যুক্তরাষ্ট্র",
          "name:bo": "ཨ་མེ་རི་ཁ་རྒྱལ་ཕྲན་མཉམ་འབྲེལ་རྒྱལ་ཁབ།",
          "name:br": "Stadoù-Unanet Amerika",
          "name:bs": "Sjedinjene Američke Države",
          "name:ca": "Estats Units d'Amèrica",
          "name:ce": "Iамерка пачхьалк",
          "name:co": "Stati Uniti d'America",
          "name:cs": "Spojené státy americké",
          "name:cu": "Амєрика́ньскꙑ Ѥдьнѥнꙑ́ Дрьжа́вꙑ",
          "name:cv": "Америкăри Пĕрлешӳллĕ Штатсем",
          "name:cy": "Unol Daleithiau America",
          "name:da": "Amerikas Forenede Stater",
          "name:de": "Vereinigte Staaten von Amerika",
          "name:dv": "އެމެރިކާ",
          "name:dz": "ཡུ་ནའིཊེཊ་སི་ཊེས",
          "name:ee": "United States",
          "name:el": "Ηνωμένες Πολιτείες της Αμερικής",
          "name:en": "United States",
          "name:eo": "Usono",
          "name:es": "Estados Unidos de América",
          "name:et": "Ameerika Ühendriigid",
          "name:eu": "Ameriketako Estatu Batuak",
          "name:fa": "ایالات متحده آمریکا",
          "name:ff": "Dowlaaji Dentuɗi",
          "name:fi": "Amerikan yhdysvallat",
          "name:fo": "Sambandsríkið Amerika",
          "name:fr": "États-Unis d'Amérique",
          "name:fy": "Feriene Steaten fan Amearika",
          "name:ga": "Stáit Aontaithe Mheiriceá",
          "name:gd": "Na Stàitean Aonaichte",
          "name:gl": "Estados Unidos de América",
          "name:gn": "Tetã peteĩ reko Amérikagua",
          "name:gu": "સંયુક્ત રાજ્ય અમેરિકા",
          "name:gv": "Steatyn Unnaneysit America",
          "name:ha": "kunkiyar taraiyar Amurika",
          "name:he": "ארצות הברית",
          "name:hi": "संयुक्त राज्य अमेरिका",
          "name:hr": "Sjedinjene Američke Države",
          "name:ht": "Etazini",
          "name:hu": "Amerikai Egyesült Államok",
          "name:hy": "Ամերիկայի Միացյալ Նահանգներ",
          "name:ia": "Statos Unite de America",
          "name:id": "Amerika Serikat",
          "name:ie": "Unit States de America",
          "name:ig": "Njikota Obodo Amerika",
          "name:ik": "United States of America",
          "name:io": "Unionita Stati di Amerika",
          "name:is": "Bandaríki Norður-Ameríku",
          "name:it": "Stati Uniti d'America",
          "name:iu": "ᐊᒥᐊᓕᑲ",
          "name:ja": "アメリカ合衆国",
          "name:jv": "Amérika Sarékat",
          "name:ka": "ამერიკის შეერთებული შტატები",
          "name:ki": "United States",
          "name:kk": "Америка Құрама Штаттары",
          "name:kl": "Naalagaaffeqatigiit",
          "name:km": "សហរដ្ឋអាមេរិក",
          "name:kn": "ಅಮೇರಿಕ ಸಂಯುಕ್ತ ಸಂಸ್ಥಾನ",
          "name:ko": "미국",
          "name:ks": "ریاست ہائے متحدہ",
          "name:ku": "Dewletên Yekbûyî yên Amerîkayê",
          "name:kv": "Америкаса Ӧтувтӧм Штатъяс",
          "name:kw": "Statys Unys Amerika",
          "name:ky": "Америка Кошмо Штаттары",
          "name:la": "Civitates Foederatae Americae",
          "name:lb": "Vereenegt Staate vun Amerika",
          "name:lg": "Amereka",
          "name:li": "Vereinegde State van Amerika",
          "name:ln": "Lisangá lya Ameríka",
          "name:lo": "ສະຫະລັດອາເມລິກາ",
          "name:lt": "Jungtinės Amerikos Valstijos",
          "name:lv": "Amerikas Savienotās Valstis",
          "name:mg": "Etazonia",
          "name:mi": "Amerika",
          "name:mk": "Соединети Американски Држави",
          "name:ml": "അമേരിക്കന് ഐക്യനാടുകള്",
          "name:mn": "Америкийн Нэгдсэн Улс",
          "name:mo": "Стателе Уните але Америчий",
          "name:mr": "अमेरिकेची संयुक्त संस्थाने",
          "name:ms": "Amerika Syarikat",
          "name:mt": "Stati Uniti tal-Amerika",
          "name:my": "အမေရိကန်ပြည်ထောင်စု",
          "name:na": "Eben Merika",
          "name:ne": "संयुक्त राज्य अमेरिका",
          "name:nl": "Verenigde Staten",
          "name:nn": "USA",
          "name:no": "Amerikas forente stater",
          "name:nv": "Wááshindoon Bikéyah Ałhidadiidzooígíí",
          "name:oc": "Estats Units d'America",
          "name:om": "USA",
          "name:or": "ଯୁକ୍ତରାଷ୍ଟ୍ର ଆମେରିକା",
          "name:os": "Америкæйы Иугонд Штаттæ",
          "name:pa": "ਸੰਯੁਕਤ ਰਾਜ ਅਮਰੀਕਾ",
          "name:pl": "Stany Zjednoczone",
          "name:ps": "د امریکا متحده آیالاتونه",
          "name:pt": "Estados Unidos da América",
          "name:qu": "Hukllachasqa Amirika Suyukuna",
          "name:rm": "Stadis Unids da l'America",
          "name:rn": "Leta Zunze Ubumwe za Amerika",
          "name:ro": "Statele Unite ale Americii",
          "name:ru": "Соединённые Штаты Америки",
          "name:rw": "Leta Zunze Ubumwe z’Amerika",
          "name:sa": "संयुक्तानि राज्यानि",
          "name:sc": "Istados Unidos de America",
          "name:sd": "آمريڪا",
          "name:se": "Amerihká ovttastuvvan stáhtat",
          "name:sg": "ÂKödörö-ôko tî Amerîka",
          "name:sh": "Sjedinjene Američke Države",
          "name:si": "අ'මෙරිකාවේ එක්සත් රාජ්යයන්",
          "name:sk": "Spojené štáty americké",
          "name:sl": "Združene države Amerike",
          "name:sm": "Iunaite Sitete o Amerika",
          "name:sn": "United States of America",
          "name:so": "Mareykanka",
          "name:sq": "Shtetet e Bashkuara të Amerikës",
          "name:sr": "Сједињене Америчке Државе",
          "name:ss": "IMelika",
          "name:su": "Amérika Sarikat",
          "name:sv": "USA",
          "name:sw": "Muungano wa Madola ya Amerika",
          "name:ta": "ஐக்கிய அமெரிக்கா",
          "name:te": "అమెరికా సంయుక్త రాష్ట్రాలు",
          "name:tg": "Иёлоти Муттаҳидаи Амрико",
          "name:th": "สหรัฐอเมริกา",
          "name:tk": "Amerikanyň Birleşen Ştatlary",
          "name:tl": "Estados Unidos",
          "name:tn": "USA",
          "name:to": "Puleʻanga Fakataha 'o 'Amelika",
          "name:tr": "Amerika Birleşik Devletleri",
          "name:ts": "United States",
          "name:tt": "Америка Кушма Штатлары",
          "name:tw": "USA",
          "name:ty": "Fenua Marite",
          "name:ug": "ئامېرىكا قوشما شتاتلىرى",
          "name:uk": "Сполучені Штати Америки",
          "name:ur": "ریاست ہائے متحدہ",
          "name:uz": "Amerika Qoʻshma Shtatlari",
          "name:vi": "Hoa Kỳ",
          "name:vo": "Lamerikän",
          "name:wa": "Estats Unis d' Amerike",
          "name:wo": "Diwaan-yu-Bennoo yu Aamerig",
          "name:xh": "IYunayithedi Steyitsi",
          "name:yi": "פאראייניקטע שטאטן פון אמעריקע",
          "name:yo": "Àwọn Ìpínlẹ̀ Aṣọ̀kan Amẹ́ríkà",
          "name:za": "Meijgoz",
          "name:zh": "美利坚合众国/美利堅合眾國",
          "name:zu": "IMelika",
          "boundary": "administrative",
          "int_name": "United States of America",
          "name:ace": "Amirika Carékat",
          "name:als": "Vereinigte Schtaate vo Amerika",
          "name:anc": "Ἡνωμέναι Πολιτείαι τῆς Νεοικουμένης",
          "name:ang": "Geānlǣtan Rīcu American",
          "name:arc": "ܐܘܚܕܢܐ ܡܚܝܕܐ",
          "name:arz": "امريكا",
          "name:ast": "Estaos Xuníos d'América",
          "name:azb": "آمریکا بیرلشمیش ایالتلری",
          "name:bar": "Vaeinigtn Staatn vo Amerika",
          "name:bcl": "Estados Unidos",
          "name:bpy": "তিলপারাষ্ট্র",
          "name:bxr": "Американ Нэгэдэһэн Улас",
          "name:cdo": "Mī-lé-giĕng Hăk-cé̤ṳng-guók",
          "name:ceb": "Estados Unidos sa Amerika",
          "name:chr": "ᏌᏊᎢᏳᎾᎵᏍᏔᏅᏍᎦᏚᎩ ᎾᎿ ᎠᎺᏰᏟ",
          "name:chy": "United States",
          "name:ckb": "ویلایەتە یەکگرتووەکانی ئەمریکا",
          "name:crh": "Amerika Qoşma Ştatları",
          "name:csb": "Zjednóné Kraje Americzi",
          "name:din": "Amatnhom Pawut",
          "name:diq": "Dewletê Amerikayê Yewbiyayey",
          "name:dsb": "Zjadnośone staty Ameriki",
          "name:eml": "Stat Unî",
          "name:ext": "Estaus Uñíus d'América",
          "name:frp": "Ètats-Unis d’Amèrica",
          "name:frr": "Feriind Stoote foon Ameerika",
          "name:fur": "Stâts Unîts di Americhe",
          "name:gag": "Amerika Birleşik Devletläri",
          "name:gan": "美國",
          "name:glk": "امریکا",
          "name:grc": "Ἡνωμέναι Πολιτεῖαι τῆς Ἀμερικῆς",
          "name:hak": "Mî-li-kiên Ha̍p-chung-koet",
          "name:haw": "ʻAmelika Hui Pū ʻia",
          "name:hif": "United States",
          "name:hsb": "Zjednoćene staty Ameriki",
          "name:ilo": "stados Unidos iti Amerika",
          "name:jbo": ".iunaited.steits.",
          "name:kaa": "Amerika Qurama Shtatları",
          "name:kab": "Iwunak Yedduklen",
          "name:kbd": "Америкэ Штат Зэгуэт",
          "name:koi": "Америкаись Ӧтлаасьӧм Штаттэз",
          "name:krc": "Американы Бирлешген Штатлары",
          "name:ksh": "Vereenichde Staate van Amerika",
          "name:lad": "Estatos Unitos d'Amerika",
          "name:lbe": "Американал ЦачӀунхьу Штатру",
          "name:lez": "Америкадин Садхьанвай Штатар",
          "name:lij": "Stati Unïi d'America",
          "name:lmo": "Stat Ünì d'America",
          "name:ltg": "Amerikys Saškierstuos Vaļsteibys",
          "name:lzh": "美利堅合眾國",
          "name:mdf": "Америконь Аймакнень Соткссна",
          "name:mhr": "Америкысе Ушымо Штатвлак",
          "name:mia": "mihši-maalhsonki",
          "name:min": "Amerika Sarikat",
          "name:mrj": "Америкын Ушымы Штатвлӓжӹ",
          "name:mwl": "Stados Ounidos de la América",
          "name:myv": "Американь Вейтьсэндявкс Штаттнэ",
          "name:mzn": "متحده ایالات آمریکا",
          "name:nah": "Tlacetilīlli Tlahtohcāyōtl Ixachitlān",
          "name:nan": "America Ha̍p-chiòng-kok",
          "name:nap": "State Aunite d'Amereca",
          "name:nds": "Verenigten Staten vun Amerika",
          "name:new": "संयुक्त राज्य अमेरिका",
          "name:nov": "Unionati States de Amerika",
          "name:nrm": "Êtats Unnis d'Améthique",
          "name:nso": "United States of America",
          "name:pag": "Estados Unidos",
          "name:pam": "United States ning America",
          "name:pap": "Estadonan Uni di Merka",
          "name:pcd": "États-Unis Anmérikes",
          "name:pdc": "Vereenichde Schtaate vun Amerikaa",
          "name:pfl": "Verainischde Schdaade vun Ameriga",
          "name:pih": "Yunitid Staits",
          "name:pms": "Stat Unì d'América",
          "name:pnb": "امریکہ",
          "name:rue": "Споєны Штаты Америцькы",
          "name:sah": "Америка Холбоһуктаах Штаттара",
          "name:scn": "Stati Uniti",
          "name:sco": "Unitit States o Americae",
          "name:smn": "Amerik ovtâstumstaatah",
          "name:sms": "Ameriikk õhttõõvvâmvääʹld",
          "name:srn": "Kondre Makandrameki",
          "name:stq": "Fereende Stoaten fon Amerikoa",
          "name:syc": "ܐܘܚܕܢܐ ܡܚܝܕܐ",
          "name:szl": "Zjednoczōne Sztaty Ameryki",
          "name:tet": "Estadu Naklibur Sira Amérika Nian",
          "name:tpi": "Yunaitet Stet bilong Amerika",
          "name:tzl": "Estats Viensiçeschti d'America",
          "name:udm": "Америкалэн Огазеяськем Штатъёсыз",
          "name:vec": "Stati Unìi de la Mèrica",
          "name:vep": "Amerikan Ühtenzoittud Valdkundad",
          "name:vls": "Verênigde Stoaten van Amerika",
          "name:vro": "Ameeriga Ütisriigiq",
          "name:war": "Estados Unidos",
          "name:wuu": "美国",
          "name:xal": "Америкин Ниицәтә Орн Нутгуд",
          "name:xmf": "ამერიკაშ აკოართაფილი შტატეფი",
          "name:yue": "美利堅合眾國",
          "name:zea": "Vereênigde Staeten",
          "way_area": "1231.9",
          "wikidata": "Q30",
          "ISO3166-1": "US",
          "wikipedia": "en:United States",
          "population": "331449281",
          "short_name": "USA",
          "admin_level": "2",
          "alt_name:be": "Злучаныя Штаты;Штаты",
          "alt_name:en": "America",
          "alt_name:es": "Estados Unidos;EUA",
          "alt_name:fr": "États-Unis",
          "alt_name:ko": "아메리카",
          "alt_name:vi": "Hoa Kì;Mĩ;Hợp chúng quốc Hoa Kì",
          "border_type": "national",
          "int_name:ko": "아메리카합중국",
          "name:nds-nl": "Verienigde Staoten van Amerika",
          "old_name:ar": "الولايات المتحدة الأمريكية الشمالية",
          "old_name:de": "Vereinigte Staaten von Nordamerika",
          "old_name:en": "United States of North America",
          "old_name:eo": "Unuiĝintaj Ŝtatoj de Nordameriko",
          "old_name:es": "Estados Unidos de Norteamérica",
          "old_name:ko": "북아메리카합중국",
          "old_name:pl": "Stany Zjednoczone Ameryki Północnej",
          "old_name:ru": "Северо-Американские Соединённые Штаты",
          "old_name:vi": "Mỹ Lợi Kiên;Ma Ly Căn;Nhã Di Lý",
          "name:az-Arab": "آمریکا بیرلشمیش ایالتلری",
          "name:bat-smg": "JAV",
          "name:cbk-zam": "Estados Unidos de America",
          "name:kk-Arab": "امەرىيكا قۇراما شتاتتارى",
          "name:map-bms": "Amerika Serikat",
          "name:sr-Latn": "Sjedinjene Američke Države",
          "name:zh-Hans": "美利坚合众国",
          "name:zh-Hant": "美利堅合眾國",
          "name:roa-tara": "Statère Aunìte d'Americhe",
          "official_name": "United States of America",
          "short_name:az": "ABŞ",
          "short_name:be": "ЗША",
          "short_name:bg": "САЩ",
          "short_name:cs": "Spojené státy",
          "short_name:en": "USA",
          "short_name:es": "EE.UU.",
          "short_name:fr": "É.-U.",
          "short_name:ko": "미국",
          "short_name:mo": "СУА",
          "short_name:nl": "VS",
          "short_name:pl": "USA",
          "short_name:ru": "США",
          "short_name:sr": "САД",
          "short_name:tr": "ABD",
          "short_name:vi": "Mỹ",
          "short_name:zh": "美国/美國",
          "name:be-tarask": "Злучаныя Штаты Амэрыкі",
          "population:date": "2020",
          "ISO3166-1:alpha2": "US",
          "ISO3166-1:alpha3": "USA",
          "default_language": "en",
          "official_name:ar": "الوِلَايَات المُتَّحِدَة الأَمرِيكِيَّة",
          "official_name:cs": "Spojené státy americké",
          "official_name:de": "Vereinigte Staaten von Amerika",
          "official_name:en": "United States of America",
          "official_name:eo": "Unuiĝintaj Ŝtatoj de Ameriko",
          "official_name:es": "Estados Unidos de América",
          "official_name:ko": "미합중국",
          "official_name:ks": "ریاست ہائے متحدہ",
          "official_name:nl": "Verenigde Staten van Amerika",
          "official_name:pl": "Stany Zjednoczone Ameryki",
          "official_name:ps": "د امریکا متحده آیالاتونه",
          "official_name:sv": "Amerikas Förenta Stater",
          "official_name:ug": "ئامېرىكا قوشما شىتاتلىرى",
          "official_name:ur": "ریاست ہائے متحدہ",
          "official_name:vi": "Hợp chúng quốc Hoa Kỳ;Hợp chúng quốc Hoa Kì;Hợp chủng quốc Hoa Kỳ;Hợp chủng quốc Hoa Kì",
          "ISO3166-1:numeric": "840",
          "alt_short_name:en": "US",
          "alt_short_name:pl": "St. Zj.",
          "official_name:arc": "ܐܬܪܘܬܐ ܡܚܝܕܐ ܕܐܡܪܝܟܐ",
          "official_name:din": "Pawuut Matiic ke Amerïka",
          "official_name:grc": "Ἡνωμέναι Πολιτεῖαι τῆς Ἀμερικῆς",
          "official_name:syc": "ܐܬܪܘܬܐ ܡܚܝܕܐ ܕܐܡܪܝܟܐ",
          "old_short_name:ru": "САСШ",
          "short_name:sr-Latn": "SAD",
          "short_name:zh-Hans": "美国",
          "short_name:zh-Hant": "美國",
          "not:official_name:vi": "Hợp chủng quốc Hoa Kỳ;Hợp chúng quốc Hoa Kì;Hợp chủng quốc Hoa Kỳ;Hợp chủng quốc Hoa Kì",
          "official_name:kk-Arab": "امەرىيكا قۇراما شتاتتارى"
        }
      },
      "geometry": {
        "type": "Polygon",
        "coordinates": [
          [
            [
              -75.2384618,
              18.398702
            ],
            [
              -75.2336999,
              18.3664654
            ],
            [
              -75.2288309,
              18.3520806
            ],
            [
              -75.2192144,
              18.3256833
            ],
            [
              -75.2052088,
              18.3013364
            ],
            [
              -75.1923834,
              18.2826809
            ],
            [
              -75.1721527,
              18.2582151
            ],
            [
              -75.1482084,
              18.2370322
            ],
            [
              -75.1219061,
              18.2195619
            ],
            [
              -75.0814085,
              18.201251
            ],
            [
              -75.0374985,
              18.1907252
            ],
            [
              -75,
              18.189452068571747
            ],
            [
              -75,
              18.61160956192165
            ],
            [
              -75.0199034,
              18.6137166
            ],
            [
              -75.0546028,
              18.6121442
            ],
            [
              -75.0880291,
              18.6053034
            ],
            [
              -75.1198508,
              18.5933921
            ],
            [
              -75.1492275,
              18.5767252
            ],
            [
              -75.1596528,
              18.5688721
            ],
            [
              -75.1765697,
              18.5547196
            ],
            [
              -75.1993364,
              18.5289778
            ],
            [
              -75.2172678,
              18.4999677
            ],
            [
              -75.222672,
              18.4886399
            ],
            [
              -75.2322562,
              18.4610773
            ],
            [
              -75.2377069,
              18.4312495
            ],
            [
              -75.2384618,
              18.398702
            ]
          ]
        ]
      }
    }
  ]
}