{
  "type": "FeatureCollection",
  "features": [
    {
      "type": "Feature",
      "properties": {
        "osm_id": -1252792,
        "boundary": "land_area",
        "admin_level": 2,
        "parents": null,
        "name": "South Africa (land mass)",
        "local_name": "South Africa (land mass)",
        "name_en": "South Africa (land mass)",
        "all_tags": {
          "flag": "http://upload.wikimedia.org/wikipedia/commons/a/af/Flag_of_South_Africa.svg",
          "name": "South Africa (land mass)",
          "name:af": "Suid-Afrika",
          "name:ak": "Afrika Anaafo",
          "name:am": "ደቡብ አፍሪካ",
          "name:an": "Sudafrica",
          "name:ar": "جنوب أفريقيا",
          "name:az": "Cənub Afrika",
          "name:be": "Паўднёва-Афрыканская Рэспубліка",
          "name:bg": "Южна Африка",
          "name:bm": "Worodugu Afriki",
          "name:bn": "দক্ষিণ আফ্রিকা",
          "name:bo": "ལྷོ་ ཨཕྲི་ཀ།",
          "name:br": "Suafrika",
          "name:bs": "Južna Afrika",
          "name:ca": "Sud-àfrica",
          "name:cs": "Jižní Afrika",
          "name:cv": "Кăнтăр Африка",
          "name:cy": "De Affrica",
          "name:da": "Sydafrika",
          "name:de": "Südafrika (Landmass)",
          "name:dv": "ދެކުނު އެފްރިކާ",
          "name:dz": "སཱའུཐ་ ཨཕ་རི་ཀ",
          "name:ee": "Anyiehe Afrika nutome",
          "name:el": "Νότια Αφρική",
          "name:en": "South Africa (land mass)",
          "name:eo": "Sudafriko",
          "name:es": "Sudáfrica",
          "name:et": "Lõuna-Aafrika",
          "name:eu": "Hegoafrika",
          "name:fa": "آفریقای جنوبی",
          "name:ff": "Afrik bŋ Worgo",
          "name:fi": "Etelä-Afrikka",
          "name:fo": "Suðurafrika",
          "name:fr": "Afrique du Sud (terres)",
          "name:fy": "Súd-Afrika",
          "name:ga": "An Afraic Theas",
          "name:gd": "Afraga a Deas",
          "name:gl": "Sudáfrica",
          "name:gn": "Yvyafrika",
          "name:gu": "દક્ષિણ આફ્રિકા",
          "name:gv": "Yn Affrick Yiass",
          "name:ha": "Afirka ta Kudu",
          "name:he": "דרום אפריקה",
          "name:hi": "दक्षिण अफ़्रीका",
          "name:hr": "Južna Afrika",
          "name:ht": "Afrik disid",
          "name:hu": "Dél-Afrika",
          "name:hy": "Հարավային Աֆրիկա",
          "name:ia": "Africa del Sud",
          "name:id": "Afrika Selatan",
          "name:ie": "Sudafrica",
          "name:io": "Sud-Afrika",
          "name:is": "Suður-Afríka",
          "name:it": "Sudafrica",
          "name:ja": "南アフリカ",
          "name:jv": "Afrika Kidul",
          "name:ka": "სამხრეთ აფრიკა",
          "name:kg": "Afelika ya Sudi",
          "name:ki": "Abĩrika Kusini",
          "name:kk": "Оңтүстік Африка",
          "name:km": "អាព្រិក​ភាគ​ខាង​ត្បូង",
          "name:kn": "ದಕ್ಷಿಣ ಆಫ್ರಿಕಾ",
          "name:ko": "남아프리카",
          "name:ks": "جَنوٗبی اَفریٖکا",
          "name:ku": "Afrîkaya Başûr",
          "name:kv": "Лунвыв Африкаса Республика",
          "name:kw": "Afrika Dhyhow",
          "name:ky": "Африкаанс тили",
          "name:la": "Africa Australis",
          "name:lb": "Südafrika",
          "name:lg": "Sawusafirika",
          "name:li": "Zuud-Afrika",
          "name:ln": "Sidafríka",
          "name:lo": "ອາຟະລິກາໃຕ້",
          "name:lt": "Pietų Afrika",
          "name:lv": "Dienvidāfrika",
          "name:mg": "Afrika Atsimo",
          "name:mi": "Āwherika-ki-te-tonga",
          "name:mk": "Јужна Африка",
          "name:ml": "ദക്ഷിണാഫ്രിക്ക",
          "name:mn": "Өмнөд Африк",
          "name:mr": "दक्षिण अफ्रिका",
          "name:ms": "Afrika Selatan",
          "name:mt": "Afrika t’Isfel",
          "name:my": "တောင်အာဖရိက",
          "name:ne": "दक्षिण अफ्रिका",
          "name:nl": "Zuid-Afrika",
          "name:nn": "Sør-Afrika",
          "name:no": "Sør-Afrika",
          "name:oc": "Sud-Africa",
          "name:or": "ଦକ୍ଷିଣ ଆଫ୍ରିକା",
          "name:os": "Хуссар Африкæйы",
          "name:pa": "ਦੱਖਣੀ ਅਫ਼ਰੀਕਾ",
          "name:pl": "Republika Południowej Afryki",
          "name:ps": "سویلي افریقا",
          "name:pt": "África do Sul",
          "name:qu": "Urin Aphrika",
          "name:rm": "Africa dal Sid",
          "name:rn": "Afurika y'Epfo",
          "name:ro": "Africa de Sud",
          "name:ru": "Южная Африка",
          "name:rw": "Afurika y’Epfo",
          "name:sa": "दक्षिण-आफ्रिका",
          "name:sc": "Sudàfrica",
          "name:se": "Lulli-Afrihká",
          "name:sg": "Afrîka-Mbongo",
          "name:sh": "Južna Afrika",
          "name:si": "දකුණු අප්‍රිකාව",
          "name:sk": "Južná Afrika",
          "name:sl": "Južna Afrika",
          "name:so": "Koonfur Afrika",
          "name:sq": "Afrika e Jugut",
          "name:sr": "Јужна Африка",
          "name:ss": "INingizimu Afrika",
          "name:st": "Afrika Borwa",
          "name:su": "Afrika Kidul",
          "name:sv": "Sydafrika",
          "name:sw": "Afrika Kusini",
          "name:ta": "தென் ஆப்பிரிக்கா",
          "name:te": "దక్షిణ ఆఫ్రికా రాజ్యం",
          "name:tg": "Африқои Ҷанубӣ",
          "name:th": "แอฟริกาใต้",
          "name:ti": "ደቡብ አፍሪካ",
          "name:tk": "Günorta Afrika",
          "name:tn": "Aferika Borwa",
          "name:to": "ʻAfilika tonga",
          "name:tr": "Güney Afrika",
          "name:ts": "Afrika-Dzonga",
          "name:tt": "Көньяк Африка",
          "name:ug": "جەنۇبىي ئافرىقا",
          "name:uk": "Південний Африки",
          "name:ur": "جنوبی افریقہ",
          "name:uz": "Janubiy Afrika",
          "name:ve": "Afurika Tshipembe",
          "name:vi": "Nam Phi",
          "name:vo": "Sulüdafrikän",
          "name:wa": "Nonne-Afrike",
          "name:wo": "Afrig gu Bëj-saalum",
          "name:xh": "uMzantsi Afrika",
          "name:yi": "דרום אפריקע",
          "name:yo": "Gúúsù Áfríkà",
          "name:zh": "南非",
          "name:zu": "iNingizimu Afrika",
          "boundary": "land_area",
          "int_name": "South Africa",
          "name:ace": "Afrika Seulatan",
          "name:als": "Südafrika",
          "name:ang": "Sūðaffrica",
          "name:arz": "جنوب افريقيا",
          "name:ast": "Sudáfrica",
          "name:bar": "Südafrika",
          "name:bjn": "Aprika Salatan",
          "name:bpy": "খা আফ্রিকা",
          "name:ceb": "Habagatang Aprika",
          "name:chy": "Mo'hetaneho'e hánêsóvóne",
          "name:ckb": "ئەفریقای باشوور",
          "name:crh": "Cenübiy Afrika",
          "name:diq": "Afrikaya Veroci",
          "name:dsb": "Pódpołdnjowa Afrika",
          "name:ext": "Sudáfrica",
          "name:frp": "Africa du Sud",
          "name:fur": "Sud Afriche",
          "name:gag": "Üülen Afrika Respublikası",
          "name:gan": "南非",
          "name:hak": "Nàm-fî",
          "name:haw": "ʻApelika Hema",
          "name:hif": "South Africa",
          "name:ilo": "Abagatan nga Áprika",
          "name:jbo": "nanfi'ogu'e",
          "name:kaa": "Qubla Afrika",
          "name:kab": "Tafriqt Wadda",
          "name:krc": "Къыбыла-Африкан Республика",
          "name:ksh": "Södaffrika",
          "name:lad": "Sud-Afrika",
          "name:lij": "Sudafrica",
          "name:lmo": "Südafrica",
          "name:ltg": "Dīnavydu Afrikys",
          "name:mdf": "Лямбеширень Африк",
          "name:min": "Afrika Selatan",
          "name:mzn": "جنوبی آفریخا",
          "name:nah": "Africa Huitztlāmpa",
          "name:nan": "Lâm-hui",
          "name:nds": "Süüdafrika",
          "name:new": "दक्षिण अफ्रिका",
          "name:nov": "Sud Afrika",
          "name:nso": "Afrika Borwa",
          "name:pam": "Mauling Aprika",
          "name:pap": "Sur Afrika",
          "name:pdc": "Saut Afrikaa",
          "name:pih": "Sowth Afreka",
          "name:pms": "Sudàfrica",
          "name:pnb": "دکھنی افریقہ",
          "name:rue": "Южна Африка",
          "name:sah": "Соҕуруу Африка",
          "name:scn": "Àfrica dû Sud",
          "name:sco": "Sooth Africae",
          "name:stq": "Suud-Afrikoa",
          "name:szl": "Połedńowyj Afriki",
          "name:tzl": "Südafrica",
          "name:vec": "Sudàfrica",
          "name:war": "Salatan nga Apriká",
          "name:wuu": "南非",
          "name:xal": "Өмн Априкин",
          "name:xmf": "ობჟათე აფრიკა",
          "name:yue": "南非",
          "name:zea": "Zuud-Afrika",
          "timezone": "Africa/Johannesburg",
          "way_area": "113.121",
          "wikidata": "Q258",
          "ISO3166-1": "ZA",
          "land_area": "administrative",
          "wikipedia": "en:South Africa",
          "population": "49991300",
          "admin_level": "2",
          "alt_name:gl": "África do Sur",
          "alt_name:ln": "Afríka ya Súdi",
          "alt_name:oc": "Africa del Sud",
          "alt_name:wo": "Afrig gu Bëj-gànnaar",
          "name:nds-nl": "Zuud-Afrika",
          "capital_city": "Pretoria;Bloemfontein;Cape Town",
          "official_name": "Republic of South Africa",
          "short_name:af": "ZAR",
          "short_name:be": "ПАР",
          "short_name:bg": "РЮА",
          "short_name:cv": "КАР",
          "short_name:en": "RSA",
          "short_name:fr": "RSA",
          "short_name:kv": "ЛАР",
          "short_name:ky": "ТАР",
          "short_name:mn": "ӨАБНУ",
          "short_name:os": "ХАР",
          "short_name:pl": "RPA",
          "short_name:ru": "ЮАР",
          "short_name:sl": "JAR",
          "short_name:tk": "GAR",
          "short_name:tt": "КАҖ",
          "short_name:uk": "ПАР",
          "short_name:uz": "JAR",
          "name:zh_pinyin": "Nán Fēi",
          "short_name:kbd": "ИАР",
          "short_name:krc": "КъАР",
          "short_name:mdf": "ЛАР",
          "short_name:sah": "САР",
          "ISO3166-1:alpha2": "ZA",
          "ISO3166-1:alpha3": "ZAF",
          "official_name:af": "Zuid-Afrikaansche Republiek",
          "official_name:am": "የደቡብ አፍሪካ ሬፑብሊክ",
          "official_name:an": "Republica de Sudafrica",
          "official_name:ar": "جمهورية جنوب أفريقيا",
          "official_name:az": "Cənubi Afrika Respublikası",
          "official_name:be": "Паўднёва-Афрыканская Рэспубліка",
          "official_name:bg": "Република Южна Африка",
          "official_name:bm": "Worodugu Afrika ka Fasojamana",
          "official_name:bn": "রিপাবলিক অফ সাউথ আফ্রিকা",
          "official_name:br": "Republik Suafrika",
          "official_name:bs": "Južnoafrička Republika",
          "official_name:ca": "República de Sud-àfrica",
          "official_name:cs": "Jihoafrická republika",
          "official_name:cv": "Кăнтăр Африка Республики",
          "official_name:cy": "Gweriniaeth De Affrica",
          "official_name:da": "Republikken Sydafrika",
          "official_name:de": "Republik Südafrika",
          "official_name:el": "Δημοκρατία της Νοτίου Αφρικής",
          "official_name:en": "Republic of South Africa",
          "official_name:eo": "Respubliko de Sud-Afriko",
          "official_name:es": "República de Sudáfrica",
          "official_name:et": "Lõuna-Aafrika Vabariik",
          "official_name:eu": "Hegoafrikako Errepublika",
          "official_name:fa": "جمهوری آفریقای جنوبی",
          "official_name:fi": "Etelä-Afrikan tasavalta",
          "official_name:fo": "Tjóðveldið Suðurafrika",
          "official_name:fr": "République d'Afrique du Sud",
          "official_name:fy": "Súd-Afrikaanske Republyk",
          "official_name:ga": "Poblacht na hAfraice Theas",
          "official_name:gd": "Poblachd Afraga a Deas",
          "official_name:gl": "República de Sudáfrica",
          "official_name:gn": "Tetã Yvyafrika",
          "official_name:gu": "દક્ષિણ આફ્રિકાનું ગણરાજ્ય",
          "official_name:gv": "Pobblaght yn Affrick Yiass",
          "official_name:ha": "Jamhuriyar Afrika ta Kudu",
          "official_name:he": "רפובליקת דרום אפריקה",
          "official_name:hi": "दक्षिण अफ़्रीका गणराज्य",
          "official_name:hr": "Južnoafrička Republika",
          "official_name:ht": "Repiblik Afrik disid",
          "official_name:hu": "Dél-Afrikai Köztársaság",
          "official_name:ia": "Republica del Africa del Sud",
          "official_name:id": "Republik Afrika Selatan",
          "official_name:ie": "Republic de Sudafrica",
          "official_name:io": "Republiko di Sud-Afrika",
          "official_name:is": "Lýðveldið Suður-Afríku",
          "official_name:it": "Repubblica del Sudafrica",
          "official_name:ja": "南アフリカ共和国",
          "official_name:jv": "Republik Afrika Kidul",
          "official_name:ka": "სამხრეთ აფრიკის რესპუბლიკა",
          "official_name:kg": "Repubilika ya Afelika ya Sudi",
          "official_name:kk": "Оңтүстік Африка Республикасы",
          "official_name:ku": "Komara Afrîkaya Başûr",
          "official_name:kv": "Лунвыв Африкаса Республика",
          "official_name:ky": "Түштүк-Африка Республикасы",
          "official_name:la": "Res Publica Africae Australis",
          "official_name:lb": "Republik Südafrika",
          "official_name:ln": "Republíki ya Sidafríka",
          "official_name:lt": "Pietų Afrikos Respublika",
          "official_name:lv": "Dienvidāfrikas Republika",
          "official_name:mk": "Јужноафриканска Република",
          "official_name:ml": "റിപബ്ലിക്ക് ഓഫ് സൗത്ത് ആഫ്രിക്ക",
          "official_name:mn": "Өмнөд Африкийн Бүгд Найрамдах Улс",
          "official_name:mr": "दक्षिण आफ्रिकेचे गणराज्य",
          "official_name:ms": "Republik Afrika Selatan",
          "official_name:mt": "Repubblika tal-Afrika t'Isfel",
          "official_name:my": "တောင်အာဖရိက သမ္မတနိုင်ငံ",
          "official_name:nl": "Republiek Zuid-Afrika",
          "official_name:nn": "Sørafrikanske republikken",
          "official_name:no": "Republikken Sør-Afrika",
          "official_name:nr": "iRiphabliki yeSewula Afrika",
          "official_name:nv": "Kéyah Naakai Łizhinii Bikéyah Shádiʼááhjí Siʼánígíí",
          "official_name:oc": "Republica Sud-Africana",
          "official_name:os": "Хуссар Африкæйы Республикæ",
          "official_name:pa": "ਦੱਖਣ ਅਫ਼ਰੀਕਾ ਗਣਰਾਜ",
          "official_name:pl": "Republika Południowej Afryki",
          "official_name:pt": "República da África do Sul",
          "official_name:qu": "Urin Aphrika Republika",
          "official_name:rm": "Republica Sidafricana",
          "official_name:ro": "Republica Africa de Sud",
          "official_name:ru": "Южно-Африканская Республика",
          "official_name:rw": "Repubulika ’Afurika y ’Epfo",
          "official_name:sc": "Repubblica de su Sudàfrica",
          "official_name:se": "Lulli-Afrihká dásseváldi",
          "official_name:sg": "Ködörösêse tî Afrîka-Mbongo",
          "official_name:sh": "Južnoafrička Republika;Republika Južna Afrika",
          "official_name:sk": "Juhoafrická republika",
          "official_name:sl": "Južnoafriška republika;Republika Južna Afrika",
          "official_name:so": "Jamhuuriyadda Koonfur Afrika",
          "official_name:sq": "Republika Jugafrikane",
          "official_name:sr": "Јужноафричка Република;Република Јужна Африка",
          "official_name:ss": "iRiphabhulikhi yeNingizimu Afrika",
          "official_name:st": "Rephabliki ya Afrika Borwa",
          "official_name:su": "Republik Afrika Kidul",
          "official_name:sv": "Republiken Sydafrika",
          "official_name:sw": "Jamhuri ya Afrika Kusini",
          "official_name:tg": "Ҷазираҳои Африқои Ҷанубӣ",
          "official_name:th": "ประเทศแอฟริกาใต้",
          "official_name:tk": "Günorta Afrika Respublikasy",
          "official_name:tn": "Rephaboliki ya Aforika Borwa",
          "official_name:ts": "Riphabliki ya Afrika-Dzonga",
          "official_name:tt": "Көньяк Африка Җөмһүрияте",
          "official_name:uk": "Південно-Африканська Республіка",
          "official_name:uz": "Janubiy Afrika Respublikasi",
          "official_name:ve": "Riphabuḽiki ya Afurika Tshipembe",
          "official_name:vi": "Cộng hòa Nam Phi",
          "official_name:vo": "Repüblikän Sulüdafrikäna",
          "official_name:wa": "Republike di Nonne-Afrike",
          "official_name:wo": "Republik bu Afrig gu Bëj-saalum",
          "official_name:xh": "iRiphabliki yaseMzantsi Afrika",
          "official_name:yi": "רעפובליק פון דרום אפריקע",
          "official_name:yo": "Orílẹ̀-èdè Olómìnira ilẹ̀ Gúúsù Áfríkà",
          "official_name:zh": "南非共和国",
          "official_name:zu": "iRiphabliki yaseNingizimu Afrika",
          "ISO3166-1:numeric": "710",
          "country_code_fips": "SF",
          "official_name:ace": "Republik Afrika Seulatan",
          "official_name:als": "Republik Südafrika",
          "official_name:ang": "Cynewīse Sūþaffrice",
          "official_name:arz": "جمهورية جنوب افريقيا",
          "official_name:ast": "República Sudafricana",
          "official_name:bar": "Republik Südafrika",
          "official_name:bjn": "Republik Aprika Salatan",
          "official_name:bpy": "প্রজাতন্ত্রি খা আফ্রিকা",
          "official_name:ceb": "Republikang Habagatang Aprikano",
          "official_name:ckb": "کۆماری ئافریقای باشوور",
          "official_name:crh": "Cenübiy Afrika Cumhuriyeti",
          "official_name:diq": "Cumhuriyetê Afrikaya Veroci",
          "official_name:dsb": "Pódpołdnjowa Afrika Republika",
          "official_name:ext": "Repúbrica de Sudáfrica",
          "official_name:frp": "Rèpublica de l'Africa du Sud",
          "official_name:gag": "Üülen Afrika Respublikası",
          "official_name:gan": "南非共和國",
          "official_name:hif": "Republic of South Africa",
          "official_name:hsb": "Republika Južna Afrika",
          "official_name:ilo": "Republika iti Abagatan nga Áprika",
          "official_name:kaa": "Qubla Afrika Respublikası",
          "official_name:kbd": "Ипшъэ Африкэ Республикэ",
          "official_name:krc": "Къыбыла-Африкан Республика",
          "official_name:lad": "Repuvlika de Sud-Afrika",
          "official_name:lmo": "Repübliga de Südafrica",
          "official_name:ltg": "Dīnavydu Afrikys Republika",
          "official_name:mdf": "Лямбеширень Африконь Республик",
          "official_name:nah": "Tlācatlahtohcāyōtl Africa Huitztlāmpa",
          "official_name:nan": "Lâm-hui Kiōng-hô-kok",
          "official_name:nds": "Süüdafrikaansche Republiek",
          "official_name:nov": "Sud Afrikani Republike",
          "official_name:nso": "Repabliki le Afrika Borwa",
          "official_name:pam": "Republika ning Mauling Aprika",
          "official_name:pap": "Republika di Sur Afrika",
          "official_name:pdc": "Republik vun Saut Afrikaa",
          "official_name:pih": "Sowth Afrekan Repablik",
          "official_name:pms": "Repùblica Sudafrican-a",
          "official_name:sah": "Соҕуруу Африка Республиката",
          "official_name:scn": "Ripùbbrica dû Àfrica dû Sud",
          "official_name:sco": "Sooth African Republic",
          "official_name:stq": "Suud-afrikoanske Republik",
          "official_name:szl": "Połedńowoafrikańsko Republika;Republika Połedńowyj Afriki",
          "official_name:vec": "Republica Sudafricana",
          "official_name:war": "Republika han Salatan nga Aprika",
          "official_name:xal": "Өмн Априкин Орн",
          "official_name:xmf": "ობჟათე აფრიკაშ რესპუბლიკა",
          "official_name:yue": "南非共和國",
          "official_name:zea": "Zuud-Afrikaonse Republiek",
          "official_name:nds-nl": "Rippebliek Zuud-Afrika",
          "capital_city:judicial": "Bloemfontein",
          "capital_city:legislative": "Cape Town",
          "capital_city:administrative": "Pretoria",
          "country_code_iso3166_1_alpha_2": "ZA"
        }
      },
      "geometry": {
        "type": "Polygon",
        "coordinates": [
          [
            [
              20,
              -34.833621074990106
            ],
            [
              20.0002391,
              -34.8336347
            ],
            [
              20.0005861,
              -34.833238
            ],
            [
              20.0014124,
              -34.833032
            ],
            [
              20.00238,
              -34.83374
            ],
            [
              20.00317,
              -34.8332
            ],
            [
              20.00365,
              -34.83351
            ],
            [
              20.00393,
              -34.83325
            ],
            [
              20.00432,
              -34.8333
            ],
            [
              20.0046219,
              -34.8331321
            ],
            [
              20.0047546,
              -34.8332392
            ],
            [
              20.00492,
              -34.83311
            ],
            [
              20.0054,
              -34.83363
            ],
            [
              20.00636,
              -34.83385
            ],
            [
              20.00669,
              -34.83381
            ],
            [
              20.00677,
              -34.8336
            ],
            [
              20.00705,
              -34.83386
            ],
            [
              20.00733,
              -34.83374
            ],
            [
              20.00731,
              -34.8335
            ],
            [
              20.00762,
              -34.83353
            ],
            [
              20.00776,
              -34.83316
            ],
            [
              20.00807,
              -34.83311
            ],
            [
              20.00807,
              -34.8329
            ],
            [
              20.00771,
              -34.83268
            ],
            [
              20.00812,
              -34.83204
            ],
            [
              20.00873,
              -34.83185
            ],
            [
              20.00907,
              -34.83197
            ],
            [
              20.00916,
              -34.83166
            ],
            [
              20.01001,
              -34.83181
            ],
            [
              20.01023,
              -34.83161
            ],
            [
              20.01058,
              -34.83175
            ],
            [
              20.01108,
              -34.83142
            ],
            [
              20.01125,
              -34.83171
            ],
            [
              20.01164,
              -34.83161
            ],
            [
              20.01221,
              -34.83204
            ],
            [
              20.01269,
              -34.83146
            ],
            [
              20.01404,
              -34.83173
            ],
            [
              20.01458,
              -34.83163
            ],
            [
              20.01464,
              -34.8314
            ],
            [
              20.0143,
              -34.83125
            ],
            [
              20.01418,
              -34.83094
            ],
            [
              20.01365,
              -34.83085
            ],
            [
              20.01385,
              -34.83059
            ],
            [
              20.01364,
              -34.83008
            ],
            [
              20.01302,
              -34.83025
            ],
            [
              20.0134211,
              -34.8291706
            ],
            [
              20.01274,
              -34.82855
            ],
            [
              20.01304,
              -34.82848
            ],
            [
              20.01345,
              -34.82796
            ],
            [
              20.01383,
              -34.82805
            ],
            [
              20.01423,
              -34.82791
            ],
            [
              20.01453,
              -34.82803
            ],
            [
              20.01475,
              -34.82772
            ],
            [
              20.01546,
              -34.82762
            ],
            [
              20.01593,
              -34.8272
            ],
            [
              20.01637,
              -34.82712
            ],
            [
              20.01662,
              -34.82689
            ],
            [
              20.01672,
              -34.82651
            ],
            [
              20.01637,
              -34.82622
            ],
            [
              20.01689,
              -34.82578
            ],
            [
              20.01651,
              -34.82555
            ],
            [
              20.01671,
              -34.82534
            ],
            [
              20.0165,
              -34.82517
            ],
            [
              20.01638,
              -34.82453
            ],
            [
              20.01705,
              -34.82448
            ],
            [
              20.01718,
              -34.8242
            ],
            [
              20.01785,
              -34.82433
            ],
            [
              20.01814,
              -34.8241
            ],
            [
              20.01838,
              -34.82431
            ],
            [
              20.01904,
              -34.8241
            ],
            [
              20.01976,
              -34.82425
            ],
            [
              20.02016,
              -34.8241
            ],
            [
              20.02033,
              -34.82431
            ],
            [
              20.02095,
              -34.82433
            ],
            [
              20.02104,
              -34.82452
            ],
            [
              20.02159,
              -34.82439
            ],
            [
              20.0219,
              -34.82484
            ],
            [
              20.02204,
              -34.82472
            ],
            [
              20.02261,
              -34.82484
            ],
            [
              20.02276,
              -34.82448
            ],
            [
              20.02326,
              -34.82469
            ],
            [
              20.02347,
              -34.82444
            ],
            [
              20.02391,
              -34.82453
            ],
            [
              20.02414,
              -34.82438
            ],
            [
              20.02432,
              -34.8246
            ],
            [
              20.02462,
              -34.82436
            ],
            [
              20.02524,
              -34.82446
            ],
            [
              20.0254,
              -34.82469
            ],
            [
              20.02581,
              -34.8246
            ],
            [
              20.02599,
              -34.82489
            ],
            [
              20.02624,
              -34.8247
            ],
            [
              20.02638,
              -34.82504
            ],
            [
              20.02683,
              -34.82475
            ],
            [
              20.02759,
              -34.82479
            ],
            [
              20.02748,
              -34.82453
            ],
            [
              20.0279,
              -34.82444
            ],
            [
              20.02787,
              -34.82381
            ],
            [
              20.02807,
              -34.82358
            ],
            [
              20.02774,
              -34.82338
            ],
            [
              20.02774,
              -34.82263
            ],
            [
              20.02741,
              -34.82244
            ],
            [
              20.02822,
              -34.82215
            ],
            [
              20.02834,
              -34.82172
            ],
            [
              20.02888,
              -34.82134
            ],
            [
              20.02885,
              -34.82118
            ],
            [
              20.02852,
              -34.82106
            ],
            [
              20.02909,
              -34.82077
            ],
            [
              20.02881,
              -34.8204
            ],
            [
              20.02908,
              -34.82024
            ],
            [
              20.02914,
              -34.81983
            ],
            [
              20.02869,
              -34.81968
            ],
            [
              20.0289,
              -34.81923
            ],
            [
              20.02866,
              -34.81913
            ],
            [
              20.02848,
              -34.81839
            ],
            [
              20.02816,
              -34.81804
            ],
            [
              20.02848,
              -34.81765
            ],
            [
              20.02831,
              -34.81726
            ],
            [
              20.02924,
              -34.81692
            ],
            [
              20.02924,
              -34.81645
            ],
            [
              20.02975,
              -34.81645
            ],
            [
              20.02963,
              -34.81606
            ],
            [
              20.03015,
              -34.81608
            ],
            [
              20.02997,
              -34.8157
            ],
            [
              20.03034,
              -34.81585
            ],
            [
              20.03058,
              -34.8157
            ],
            [
              20.03004,
              -34.81518
            ],
            [
              20.03053,
              -34.81486
            ],
            [
              20.0307,
              -34.81428
            ],
            [
              20.03124,
              -34.81437
            ],
            [
              20.03153,
              -34.81418
            ],
            [
              20.03166,
              -34.81451
            ],
            [
              20.03185,
              -34.81459
            ],
            [
              20.03215,
              -34.81428
            ],
            [
              20.03239,
              -34.81428
            ],
            [
              20.0329,
              -34.81493
            ],
            [
              20.03317,
              -34.81489
            ],
            [
              20.03324,
              -34.81466
            ],
            [
              20.03356,
              -34.81475
            ],
            [
              20.03372,
              -34.81456
            ],
            [
              20.03438,
              -34.81488
            ],
            [
              20.03446,
              -34.8146
            ],
            [
              20.03484,
              -34.81474
            ],
            [
              20.03528,
              -34.8146
            ],
            [
              20.03557,
              -34.81475
            ],
            [
              20.03569,
              -34.81456
            ],
            [
              20.03612,
              -34.81461
            ],
            [
              20.03628,
              -34.81442
            ],
            [
              20.03719,
              -34.8145
            ],
            [
              20.0374,
              -34.81426
            ],
            [
              20.03785,
              -34.81441
            ],
            [
              20.03819,
              -34.8142
            ],
            [
              20.03843,
              -34.81435
            ],
            [
              20.03847,
              -34.81394
            ],
            [
              20.03866,
              -34.81428
            ],
            [
              20.03914,
              -34.81447
            ],
            [
              20.03944,
              -34.81422
            ],
            [
              20.03964,
              -34.81367
            ],
            [
              20.03993,
              -34.81419
            ],
            [
              20.04014,
              -34.81398
            ],
            [
              20.04066,
              -34.81428
            ],
            [
              20.04112,
              -34.81398
            ],
            [
              20.04145,
              -34.81424
            ],
            [
              20.04182,
              -34.81406
            ],
            [
              20.04233,
              -34.81434
            ],
            [
              20.04311,
              -34.81428
            ],
            [
              20.04334,
              -34.81399
            ],
            [
              20.04371,
              -34.81451
            ],
            [
              20.04392,
              -34.8142
            ],
            [
              20.04432,
              -34.81437
            ],
            [
              20.04463,
              -34.81397
            ],
            [
              20.04557,
              -34.81379
            ],
            [
              20.04577,
              -34.81406
            ],
            [
              20.04629,
              -34.81385
            ],
            [
              20.04704,
              -34.8141
            ],
            [
              20.0475,
              -34.81397
            ],
            [
              20.04774,
              -34.8142
            ],
            [
              20.04824,
              -34.81406
            ],
            [
              20.04856,
              -34.81431
            ],
            [
              20.04883,
              -34.81406
            ],
            [
              20.04907,
              -34.81449
            ],
            [
              20.04965,
              -34.81426
            ],
            [
              20.05005,
              -34.81455
            ],
            [
              20.05024,
              -34.81426
            ],
            [
              20.05084,
              -34.81417
            ],
            [
              20.0513,
              -34.81447
            ],
            [
              20.05153,
              -34.81419
            ],
            [
              20.05239,
              -34.81436
            ],
            [
              20.05305,
              -34.81393
            ],
            [
              20.05312,
              -34.81436
            ],
            [
              20.0533,
              -34.81443
            ],
            [
              20.05341,
              -34.81424
            ],
            [
              20.05379,
              -34.81417
            ],
            [
              20.05391,
              -34.81379
            ],
            [
              20.05447,
              -34.81394
            ],
            [
              20.05453,
              -34.81357
            ],
            [
              20.05496,
              -34.8136
            ],
            [
              20.0553,
              -34.81322
            ],
            [
              20.05591,
              -34.81312
            ],
            [
              20.05588,
              -34.81284
            ],
            [
              20.05622,
              -34.81246
            ],
            [
              20.05655,
              -34.81248
            ],
            [
              20.05653,
              -34.81218
            ],
            [
              20.05724,
              -34.81236
            ],
            [
              20.0575,
              -34.81203
            ],
            [
              20.05831,
              -34.81196
            ],
            [
              20.05833,
              -34.81182
            ],
            [
              20.05803,
              -34.8116
            ],
            [
              20.05826,
              -34.81147
            ],
            [
              20.05837,
              -34.81091
            ],
            [
              20.05814,
              -34.81083
            ],
            [
              20.05805,
              -34.81046
            ],
            [
              20.05776,
              -34.81031
            ],
            [
              20.05803,
              -34.81017
            ],
            [
              20.058,
              -34.80989
            ],
            [
              20.05748,
              -34.80955
            ],
            [
              20.05805,
              -34.80905
            ],
            [
              20.05818,
              -34.80874
            ],
            [
              20.05875,
              -34.80879
            ],
            [
              20.05882,
              -34.80855
            ],
            [
              20.05999,
              -34.80805
            ],
            [
              20.06086,
              -34.80773
            ],
            [
              20.06134,
              -34.80772
            ],
            [
              20.06156,
              -34.80713
            ],
            [
              20.0623,
              -34.8072
            ],
            [
              20.06233,
              -34.80689
            ],
            [
              20.06272,
              -34.80702
            ],
            [
              20.063,
              -34.80674
            ],
            [
              20.06299,
              -34.80651
            ],
            [
              20.06341,
              -34.80627
            ],
            [
              20.06335,
              -34.80599
            ],
            [
              20.06384,
              -34.80595
            ],
            [
              20.06367,
              -34.80561
            ],
            [
              20.06407,
              -34.80552
            ],
            [
              20.0641,
              -34.80517
            ],
            [
              20.06382,
              -34.80481
            ],
            [
              20.06427,
              -34.80457
            ],
            [
              20.06445,
              -34.80406
            ],
            [
              20.06505,
              -34.80399
            ],
            [
              20.0648,
              -34.80302
            ],
            [
              20.06444,
              -34.8028
            ],
            [
              20.06403,
              -34.80278
            ],
            [
              20.06421,
              -34.80243
            ],
            [
              20.06415,
              -34.80223
            ],
            [
              20.06362,
              -34.80231
            ],
            [
              20.06368,
              -34.80204
            ],
            [
              20.06349,
              -34.80183
            ],
            [
              20.0629,
              -34.80194
            ],
            [
              20.06269,
              -34.80169
            ],
            [
              20.06252,
              -34.80084
            ],
            [
              20.0622632,
              -34.8005846
            ],
            [
              20.0604585,
              -34.800323
            ],
            [
              20.059918,
              -34.8000477
            ],
            [
              20.0594071,
              -34.7995235
            ],
            [
              20.0597039,
              -34.7988483
            ],
            [
              20.0595119,
              -34.7989521
            ],
            [
              20.0590109,
              -34.8002941
            ],
            [
              20.0580854,
              -34.8004902
            ],
            [
              20.0571886,
              -34.799953
            ],
            [
              20.05685,
              -34.79872
            ],
            [
              20.05632,
              -34.79838
            ],
            [
              20.05344,
              -34.79876
            ],
            [
              20.05267,
              -34.79863
            ],
            [
              20.05044,
              -34.79605
            ],
            [
              20.0476,
              -34.79046
            ],
            [
              20.04668,
              -34.78831
            ],
            [
              20.04654,
              -34.78574
            ],
            [
              20.04708,
              -34.77945
            ],
            [
              20.04892,
              -34.77193
            ],
            [
              20.0510037,
              -34.7663206
            ],
            [
              20.0532138,
              -34.7618344
            ],
            [
              20.0541472,
              -34.7602082
            ],
            [
              20.0561348,
              -34.7574978
            ],
            [
              20.0592005,
              -34.7539278
            ],
            [
              20.0611854,
              -34.7518607
            ],
            [
              20.0693393,
              -34.7443014
            ],
            [
              20.082171,
              -34.7342859
            ],
            [
              20.089649,
              -34.7291102
            ],
            [
              20.0928891,
              -34.7271703
            ],
            [
              20.0967622,
              -34.725248
            ],
            [
              20.1004314,
              -34.7231008
            ],
            [
              20.1049268,
              -34.7211167
            ],
            [
              20.1161385,
              -34.7156711
            ],
            [
              20.1253438,
              -34.7115967
            ],
            [
              20.1335621,
              -34.7085274
            ],
            [
              20.1431966,
              -34.704435
            ],
            [
              20.1578307,
              -34.6990457
            ],
            [
              20.1669609,
              -34.6960466
            ],
            [
              20.1703513,
              -34.695138
            ],
            [
              20.1751417,
              -34.6942735
            ],
            [
              20.1838052,
              -34.6920417
            ],
            [
              20.1920932,
              -34.690542
            ],
            [
              20.1954782,
              -34.6902421
            ],
            [
              20.1981711,
              -34.6897613
            ],
            [
              20.2030072,
              -34.6892166
            ],
            [
              20.2059656,
              -34.689232
            ],
            [
              20.2067488,
              -34.6888858
            ],
            [
              20.2073845,
              -34.688824
            ],
            [
              20.2112791,
              -34.6885219
            ],
            [
              20.2119148,
              -34.6886718
            ],
            [
              20.2135187,
              -34.6885527
            ],
            [
              20.2150074,
              -34.6880312
            ],
            [
              20.21546,
              -34.6879655
            ],
            [
              20.2158442,
              -34.6881955
            ],
            [
              20.2163619,
              -34.6878415
            ],
            [
              20.2168192,
              -34.687944
            ],
            [
              20.2183937,
              -34.6877643
            ],
            [
              20.2187812,
              -34.6879628
            ],
            [
              20.2189241,
              -34.687804
            ],
            [
              20.2196932,
              -34.6876706
            ],
            [
              20.2230889,
              -34.6878426
            ],
            [
              20.2248235,
              -34.6882175
            ],
            [
              20.2249691,
              -34.6883498
            ],
            [
              20.22492,
              -34.68888
            ],
            [
              20.2254131,
              -34.6892187
            ],
            [
              20.2257583,
              -34.6889102
            ],
            [
              20.226357,
              -34.6890117
            ],
            [
              20.22674,
              -34.68877
            ],
            [
              20.22712,
              -34.68881
            ],
            [
              20.2272765,
              -34.6890517
            ],
            [
              20.2283774,
              -34.6889197
            ],
            [
              20.22882,
              -34.68937
            ],
            [
              20.2293235,
              -34.6892478
            ],
            [
              20.2296344,
              -34.6895101
            ],
            [
              20.2298161,
              -34.6895123
            ],
            [
              20.22993,
              -34.68919
            ],
            [
              20.2301691,
              -34.6890368
            ],
            [
              20.2304148,
              -34.6894585
            ],
            [
              20.2306389,
              -34.6895347
            ],
            [
              20.23086,
              -34.6894678
            ],
            [
              20.23088,
              -34.68924
            ],
            [
              20.23112,
              -34.68932
            ],
            [
              20.23132,
              -34.68919
            ],
            [
              20.23169,
              -34.68936
            ],
            [
              20.2317553,
              -34.689711
            ],
            [
              20.2321012,
              -34.6896526
            ],
            [
              20.23225,
              -34.68995
            ],
            [
              20.23248,
              -34.68962
            ],
            [
              20.23291,
              -34.69008
            ],
            [
              20.23324,
              -34.68962
            ],
            [
              20.23355,
              -34.68969
            ],
            [
              20.23351,
              -34.69026
            ],
            [
              20.2339,
              -34.69019
            ],
            [
              20.23389,
              -34.69057
            ],
            [
              20.23405,
              -34.69064
            ],
            [
              20.23439,
              -34.69048
            ],
            [
              20.2345098,
              -34.6909987
            ],
            [
              20.23476,
              -34.69107
            ],
            [
              20.23488,
              -34.69077
            ],
            [
              20.23501,
              -34.69079
            ],
            [
              20.23526,
              -34.6915
            ],
            [
              20.23577,
              -34.6916579
            ],
            [
              20.23626,
              -34.69156
            ],
            [
              20.23599,
              -34.69068
            ],
            [
              20.2360177,
              -34.6900059
            ],
            [
              20.23572,
              -34.68984
            ],
            [
              20.23583,
              -34.6894
            ],
            [
              20.2357,
              -34.68922
            ],
            [
              20.2360786,
              -34.6886689
            ],
            [
              20.236756,
              -34.6885645
            ],
            [
              20.2367677,
              -34.6884555
            ],
            [
              20.236,
              -34.68819
            ],
            [
              20.2356275,
              -34.6878924
            ],
            [
              20.23484,
              -34.68785
            ],
            [
              20.23427,
              -34.68751
            ],
            [
              20.2339,
              -34.68707
            ],
            [
              20.23364,
              -34.68623
            ],
            [
              20.23358,
              -34.68484
            ],
            [
              20.23372,
              -34.68381
            ],
            [
              20.23389,
              -34.68345
            ],
            [
              20.2342923,
              -34.6833792
            ],
            [
              20.2343805,
              -34.68299
            ],
            [
              20.2340042,
              -34.6827515
            ],
            [
              20.23398,
              -34.68239
            ],
            [
              20.23319,
              -34.68233
            ],
            [
              20.2330674,
              -34.6821846
            ],
            [
              20.23347,
              -34.6812
            ],
            [
              20.23419,
              -34.68126
            ],
            [
              20.23452,
              -34.68106
            ],
            [
              20.23446,
              -34.68076
            ],
            [
              20.2340388,
              -34.6807113
            ],
            [
              20.2335092,
              -34.6803848
            ],
            [
              20.2339046,
              -34.6801027
            ],
            [
              20.2338912,
              -34.6797797
            ],
            [
              20.2342131,
              -34.6797082
            ],
            [
              20.23427,
              -34.67932
            ],
            [
              20.2338753,
              -34.6794097
            ],
            [
              20.2332513,
              -34.6792543
            ],
            [
              20.2329,
              -34.6791006
            ],
            [
              20.2328369,
              -34.6788299
            ],
            [
              20.23215,
              -34.67869
            ],
            [
              20.23196,
              -34.67842
            ],
            [
              20.23226,
              -34.67775
            ],
            [
              20.23297,
              -34.67756
            ],
            [
              20.23325,
              -34.67726
            ],
            [
              20.2329863,
              -34.6769645
            ],
            [
              20.23218,
              -34.6768
            ],
            [
              20.23199,
              -34.67645
            ],
            [
              20.23255,
              -34.67416
            ],
            [
              20.23312,
              -34.67407
            ],
            [
              20.23319,
              -34.67375
            ],
            [
              20.23344,
              -34.67353
            ],
            [
              20.2333174,
              -34.6733106
            ],
            [
              20.2329054,
              -34.6732415
            ],
            [
              20.2327985,
              -34.6730053
            ],
            [
              20.23304,
              -34.67202
            ],
            [
              20.23419,
              -34.6705
            ],
            [
              20.23457,
              -34.67021
            ],
            [
              20.23505,
              -34.67029
            ],
            [
              20.23547,
              -34.67009
            ],
            [
              20.23543,
              -34.66962
            ],
            [
              20.23566,
              -34.66945
            ],
            [
              20.23547,
              -34.66871
            ],
            [
              20.23476,
              -34.66888
            ],
            [
              20.23422,
              -34.6688
            ],
            [
              20.23276,
              -34.6678
            ],
            [
              20.23267,
              -34.66758
            ],
            [
              20.23265,
              -34.66466
            ],
            [
              20.2329,
              -34.66411
            ],
            [
              20.2336,
              -34.66364
            ],
            [
              20.23345,
              -34.66327
            ],
            [
              20.23368,
              -34.66257
            ],
            [
              20.23359,
              -34.66235
            ],
            [
              20.2329372,
              -34.6623112
            ],
            [
              20.2328734,
              -34.6615222
            ],
            [
              20.23347,
              -34.66005
            ],
            [
              20.2340672,
              -34.6592855
            ],
            [
              20.2359972,
              -34.6573598
            ],
            [
              20.23631,
              -34.65738
            ],
            [
              20.23697,
              -34.6571
            ],
            [
              20.23716,
              -34.65618
            ],
            [
              20.23674,
              -34.65568
            ],
            [
              20.2376549,
              -34.6544998
            ],
            [
              20.2383408,
              -34.6539191
            ],
            [
              20.23886,
              -34.65386
            ],
            [
              20.23923,
              -34.65325
            ],
            [
              20.23955,
              -34.65319
            ],
            [
              20.2391537,
              -34.65267
            ],
            [
              20.23938,
              -34.65219
            ],
            [
              20.24173,
              -34.65026
            ],
            [
              20.24335,
              -34.64853
            ],
            [
              20.24392,
              -34.64875
            ],
            [
              20.24392,
              -34.64841
            ],
            [
              20.24486,
              -34.6481
            ],
            [
              20.24469,
              -34.64781
            ],
            [
              20.24491,
              -34.64772
            ],
            [
              20.24478,
              -34.64735
            ],
            [
              20.24584,
              -34.64671
            ],
            [
              20.24698,
              -34.64548
            ],
            [
              20.24814,
              -34.64488
            ],
            [
              20.249,
              -34.64401
            ],
            [
              20.24966,
              -34.6439
            ],
            [
              20.25018,
              -34.64362
            ],
            [
              20.25356,
              -34.64127
            ],
            [
              20.25589,
              -34.63989
            ],
            [
              20.25981,
              -34.63782
            ],
            [
              20.26402,
              -34.63607
            ],
            [
              20.2654,
              -34.63522
            ],
            [
              20.26762,
              -34.63415
            ],
            [
              20.27182,
              -34.63236
            ],
            [
              20.27651,
              -34.63072
            ],
            [
              20.27945,
              -34.62949
            ],
            [
              20.28354,
              -34.62816
            ],
            [
              20.28643,
              -34.62678
            ],
            [
              20.28839,
              -34.62635
            ],
            [
              20.29233,
              -34.62618
            ],
            [
              20.29528,
              -34.6254
            ],
            [
              20.29707,
              -34.62461
            ],
            [
              20.29824,
              -34.62364
            ],
            [
              20.3002,
              -34.6228
            ],
            [
              20.30409,
              -34.62179
            ],
            [
              20.3135,
              -34.61797
            ],
            [
              20.31709,
              -34.61571
            ],
            [
              20.31933,
              -34.61378
            ],
            [
              20.32093,
              -34.61295
            ],
            [
              20.32134,
              -34.61286
            ],
            [
              20.32176,
              -34.61335
            ],
            [
              20.32244,
              -34.61316
            ],
            [
              20.32244,
              -34.61289
            ],
            [
              20.32296,
              -34.61306
            ],
            [
              20.32311,
              -34.61299
            ],
            [
              20.32311,
              -34.61262
            ],
            [
              20.3234,
              -34.61264
            ],
            [
              20.32361,
              -34.6123
            ],
            [
              20.32381,
              -34.61245
            ],
            [
              20.32401,
              -34.6123
            ],
            [
              20.32408,
              -34.61171
            ],
            [
              20.32426,
              -34.61149
            ],
            [
              20.32698,
              -34.61065
            ],
            [
              20.32747,
              -34.61096
            ],
            [
              20.3278,
              -34.61047
            ],
            [
              20.32823,
              -34.61065
            ],
            [
              20.32837,
              -34.61033
            ],
            [
              20.3287,
              -34.61044
            ],
            [
              20.32885,
              -34.61025
            ],
            [
              20.32908,
              -34.61029
            ],
            [
              20.3292,
              -34.60977
            ],
            [
              20.32951,
              -34.60954
            ],
            [
              20.32987,
              -34.60963
            ],
            [
              20.32986,
              -34.60925
            ],
            [
              20.33004,
              -34.609
            ],
            [
              20.3304,
              -34.609
            ],
            [
              20.33031,
              -34.60865
            ],
            [
              20.33064,
              -34.60876
            ],
            [
              20.33095,
              -34.60862
            ],
            [
              20.33086,
              -34.60809
            ],
            [
              20.33112,
              -34.60812
            ],
            [
              20.3313,
              -34.60782
            ],
            [
              20.33156,
              -34.60779
            ],
            [
              20.33161,
              -34.60727
            ],
            [
              20.33123,
              -34.60713
            ],
            [
              20.33129,
              -34.60679
            ],
            [
              20.33266,
              -34.60555
            ],
            [
              20.33408,
              -34.60368
            ],
            [
              20.33812,
              -34.59929
            ],
            [
              20.33921,
              -34.59669
            ],
            [
              20.34049,
              -34.59498
            ],
            [
              20.34239,
              -34.59318
            ],
            [
              20.34767,
              -34.59011
            ],
            [
              20.35366,
              -34.5876
            ],
            [
              20.35721,
              -34.58636
            ],
            [
              20.36306,
              -34.58399
            ],
            [
              20.36714,
              -34.58275
            ],
            [
              20.37269,
              -34.58023
            ],
            [
              20.37451,
              -34.57917
            ],
            [
              20.37878,
              -34.57721
            ],
            [
              20.38371,
              -34.57546
            ],
            [
              20.38428,
              -34.57508
            ],
            [
              20.38641,
              -34.57426
            ],
            [
              20.38721,
              -34.5741
            ],
            [
              20.39003,
              -34.57302
            ],
            [
              20.39172,
              -34.57294
            ],
            [
              20.39244,
              -34.57338
            ],
            [
              20.39288,
              -34.5728
            ],
            [
              20.39366,
              -34.57269
            ],
            [
              20.3938,
              -34.57251
            ],
            [
              20.39408,
              -34.57257
            ],
            [
              20.3942,
              -34.57234
            ],
            [
              20.39454,
              -34.57223
            ],
            [
              20.39498,
              -34.57241
            ],
            [
              20.39508,
              -34.57277
            ],
            [
              20.39595,
              -34.57272
            ],
            [
              20.39611,
              -34.57253
            ],
            [
              20.39653,
              -34.5726
            ],
            [
              20.39698,
              -34.57235
            ],
            [
              20.39702,
              -34.57158
            ],
            [
              20.39765,
              -34.57134
            ],
            [
              20.39768,
              -34.57087
            ],
            [
              20.39737,
              -34.57062
            ],
            [
              20.39754,
              -34.57039
            ],
            [
              20.39825,
              -34.57048
            ],
            [
              20.39805,
              -34.57067
            ],
            [
              20.39806,
              -34.57107
            ],
            [
              20.39852,
              -34.57122
            ],
            [
              20.39854,
              -34.57144
            ],
            [
              20.3994,
              -34.57144
            ],
            [
              20.39991,
              -34.57059
            ],
            [
              20.39958,
              -34.57041
            ],
            [
              20.39989,
              -34.57014
            ],
            [
              20.39982,
              -34.56989
            ],
            [
              20.39936,
              -34.56989
            ],
            [
              20.39936,
              -34.5697
            ],
            [
              20.40005,
              -34.56934
            ],
            [
              20.40188,
              -34.5673
            ],
            [
              20.40216,
              -34.56752
            ],
            [
              20.40304,
              -34.56714
            ],
            [
              20.40363,
              -34.56686
            ],
            [
              20.4038,
              -34.56653
            ],
            [
              20.40413,
              -34.56647
            ],
            [
              20.40398,
              -34.56611
            ],
            [
              20.40454,
              -34.56611
            ],
            [
              20.40454,
              -34.56568
            ],
            [
              20.40477,
              -34.56552
            ],
            [
              20.40444,
              -34.56514
            ],
            [
              20.40456,
              -34.56481
            ],
            [
              20.40475,
              -34.56462
            ],
            [
              20.40492,
              -34.56486
            ],
            [
              20.40551,
              -34.56479
            ],
            [
              20.40563,
              -34.56438
            ],
            [
              20.40596,
              -34.56429
            ],
            [
              20.40611,
              -34.56352
            ],
            [
              20.40663,
              -34.56352
            ],
            [
              20.40686,
              -34.56333
            ],
            [
              20.40724,
              -34.56343
            ],
            [
              20.40751,
              -34.56299
            ],
            [
              20.40753,
              -34.56243
            ],
            [
              20.40778,
              -34.56236
            ],
            [
              20.40788,
              -34.56207
            ],
            [
              20.40825,
              -34.56217
            ],
            [
              20.40849,
              -34.56174
            ],
            [
              20.40844,
              -34.56122
            ],
            [
              20.40865,
              -34.56103
            ],
            [
              20.4092,
              -34.56093
            ],
            [
              20.40927,
              -34.56076
            ],
            [
              20.40898,
              -34.56052
            ],
            [
              20.40925,
              -34.56032
            ],
            [
              20.40918,
              -34.55985
            ],
            [
              20.40838,
              -34.55918
            ],
            [
              20.40894,
              -34.55816
            ],
            [
              20.41105,
              -34.55564
            ],
            [
              20.41186,
              -34.55524
            ],
            [
              20.4121,
              -34.55534
            ],
            [
              20.41238,
              -34.5551
            ],
            [
              20.41281,
              -34.55515
            ],
            [
              20.41304,
              -34.5546
            ],
            [
              20.41323,
              -34.55458
            ],
            [
              20.41325,
              -34.55422
            ],
            [
              20.4131,
              -34.5541
            ],
            [
              20.41379,
              -34.5532
            ],
            [
              20.41411,
              -34.55301
            ],
            [
              20.414,
              -34.55206
            ],
            [
              20.41359,
              -34.55206
            ],
            [
              20.41379,
              -34.55175
            ],
            [
              20.41367,
              -34.55167
            ],
            [
              20.41344,
              -34.55182
            ],
            [
              20.41317,
              -34.55135
            ],
            [
              20.41369,
              -34.55068
            ],
            [
              20.41429,
              -34.54907
            ],
            [
              20.41504,
              -34.54806
            ],
            [
              20.41544,
              -34.54688
            ],
            [
              20.41621,
              -34.54551
            ],
            [
              20.41829,
              -34.54318
            ],
            [
              20.41972,
              -34.54015
            ],
            [
              20.41987,
              -34.5384
            ],
            [
              20.42011,
              -34.53768
            ],
            [
              20.42108,
              -34.53605
            ],
            [
              20.42211,
              -34.53361
            ],
            [
              20.42349,
              -34.53171
            ],
            [
              20.42584,
              -34.52903
            ],
            [
              20.42796,
              -34.52619
            ],
            [
              20.42991,
              -34.52469
            ],
            [
              20.43201,
              -34.52243
            ],
            [
              20.43487,
              -34.51996
            ],
            [
              20.43564,
              -34.5188
            ],
            [
              20.43694,
              -34.51774
            ],
            [
              20.43723,
              -34.51722
            ],
            [
              20.4385,
              -34.51594
            ],
            [
              20.44181,
              -34.51345
            ],
            [
              20.44223,
              -34.51289
            ],
            [
              20.44374,
              -34.51196
            ],
            [
              20.44494,
              -34.51076
            ],
            [
              20.44691,
              -34.50992
            ],
            [
              20.45195,
              -34.50619
            ],
            [
              20.45409,
              -34.50524
            ],
            [
              20.45533,
              -34.5041
            ],
            [
              20.45705,
              -34.50336
            ],
            [
              20.46188,
              -34.49996
            ],
            [
              20.4668,
              -34.49735
            ],
            [
              20.46921,
              -34.49638
            ],
            [
              20.47286,
              -34.49401
            ],
            [
              20.47785,
              -34.49146
            ],
            [
              20.4825,
              -34.48937
            ],
            [
              20.48706,
              -34.48754
            ],
            [
              20.48844,
              -34.48662
            ],
            [
              20.48945,
              -34.48616
            ],
            [
              20.49264,
              -34.48514
            ],
            [
              20.49766,
              -34.48271
            ],
            [
              20.50006,
              -34.48224
            ],
            [
              20.5048,
              -34.48067
            ],
            [
              20.50648,
              -34.47996
            ],
            [
              20.5074,
              -34.4798
            ],
            [
              20.50944,
              -34.47904
            ],
            [
              20.50956,
              -34.47884
            ],
            [
              20.51012,
              -34.47882
            ],
            [
              20.51022,
              -34.47847
            ],
            [
              20.51075,
              -34.47855
            ],
            [
              20.51155,
              -34.47823
            ],
            [
              20.51207,
              -34.4778106
            ],
            [
              20.51279,
              -34.47781
            ],
            [
              20.51356,
              -34.47834
            ],
            [
              20.51402,
              -34.47833
            ],
            [
              20.51435,
              -34.47792
            ],
            [
              20.513926,
              -34.4775041
            ],
            [
              20.5139531,
              -34.4770694
            ],
            [
              20.5142757,
              -34.4767525
            ],
            [
              20.5152005,
              -34.476423
            ],
            [
              20.5164034,
              -34.4763269
            ],
            [
              20.5168104,
              -34.4763868
            ],
            [
              20.5170488,
              -34.4766835
            ],
            [
              20.51736,
              -34.47655
            ],
            [
              20.51781,
              -34.47671
            ],
            [
              20.51805,
              -34.47634
            ],
            [
              20.51847,
              -34.47613
            ],
            [
              20.51879,
              -34.47624
            ],
            [
              20.51929,
              -34.47597
            ],
            [
              20.52019,
              -34.47601
            ],
            [
              20.52049,
              -34.47534
            ],
            [
              20.52104,
              -34.47551
            ],
            [
              20.52111,
              -34.47525
            ],
            [
              20.52142,
              -34.47516
            ],
            [
              20.52209,
              -34.47539
            ],
            [
              20.52329,
              -34.4747
            ],
            [
              20.52361,
              -34.47483
            ],
            [
              20.5238,
              -34.4748
            ],
            [
              20.52401,
              -34.47449
            ],
            [
              20.52474,
              -34.4745
            ],
            [
              20.52486,
              -34.47422
            ],
            [
              20.52514,
              -34.47424
            ],
            [
              20.52519,
              -34.4738
            ],
            [
              20.52585,
              -34.47357
            ],
            [
              20.52587,
              -34.47314
            ],
            [
              20.52609,
              -34.47336
            ],
            [
              20.52642,
              -34.47335
            ],
            [
              20.5265,
              -34.47292
            ],
            [
              20.52681,
              -34.47281
            ],
            [
              20.52685,
              -34.47251
            ],
            [
              20.52726,
              -34.47253
            ],
            [
              20.52738,
              -34.47221
            ],
            [
              20.5281,
              -34.4723
            ],
            [
              20.52815,
              -34.47202
            ],
            [
              20.5301,
              -34.47112
            ],
            [
              20.53341,
              -34.47
            ],
            [
              20.5348,
              -34.46976
            ],
            [
              20.53573,
              -34.46983
            ],
            [
              20.53609,
              -34.46929
            ],
            [
              20.53668,
              -34.46944
            ],
            [
              20.53679,
              -34.46906
            ],
            [
              20.53706,
              -34.46912
            ],
            [
              20.53719,
              -34.46893
            ],
            [
              20.53777,
              -34.46905
            ],
            [
              20.53876,
              -34.46863
            ],
            [
              20.53925,
              -34.46872
            ],
            [
              20.53965,
              -34.4684
            ],
            [
              20.54102,
              -34.46823
            ],
            [
              20.54289,
              -34.4676
            ],
            [
              20.54392,
              -34.46767
            ],
            [
              20.54435,
              -34.46729
            ],
            [
              20.54488,
              -34.46767
            ],
            [
              20.54498,
              -34.4673
            ],
            [
              20.54555,
              -34.46737
            ],
            [
              20.54581,
              -34.46705
            ],
            [
              20.54625,
              -34.46691
            ],
            [
              20.54691,
              -34.46712
            ],
            [
              20.54708,
              -34.46668
            ],
            [
              20.54733,
              -34.46668
            ],
            [
              20.54748,
              -34.46646
            ],
            [
              20.54785,
              -34.46661
            ],
            [
              20.5483,
              -34.46634
            ],
            [
              20.54837,
              -34.46651
            ],
            [
              20.54875,
              -34.46655
            ],
            [
              20.54891,
              -34.46625
            ],
            [
              20.54914,
              -34.46625
            ],
            [
              20.54983,
              -34.46655
            ],
            [
              20.54993,
              -34.46613
            ],
            [
              20.55019,
              -34.46593
            ],
            [
              20.55103,
              -34.46599
            ],
            [
              20.55116,
              -34.46579
            ],
            [
              20.55212,
              -34.4658
            ],
            [
              20.55229,
              -34.46559
            ],
            [
              20.55261,
              -34.46588
            ],
            [
              20.5534,
              -34.46529
            ],
            [
              20.55388,
              -34.46554
            ],
            [
              20.55409,
              -34.46542
            ],
            [
              20.55447,
              -34.46563
            ],
            [
              20.55473,
              -34.46554
            ],
            [
              20.55507,
              -34.46605
            ],
            [
              20.55534,
              -34.46605
            ],
            [
              20.55541,
              -34.46542
            ],
            [
              20.55561,
              -34.46526
            ],
            [
              20.55605,
              -34.46525
            ],
            [
              20.55631,
              -34.46497
            ],
            [
              20.55642,
              -34.46525
            ],
            [
              20.55676,
              -34.46525
            ],
            [
              20.55675,
              -34.46465
            ],
            [
              20.55716,
              -34.46474
            ],
            [
              20.55737,
              -34.46463
            ],
            [
              20.55743,
              -34.46427
            ],
            [
              20.55816,
              -34.46434
            ],
            [
              20.55812,
              -34.46389
            ],
            [
              20.5584956,
              -34.4639363
            ],
            [
              20.558764,
              -34.4635658
            ],
            [
              20.55921,
              -34.4635
            ],
            [
              20.5594663,
              -34.4638895
            ],
            [
              20.5594473,
              -34.4636409
            ],
            [
              20.55959,
              -34.463593
            ],
            [
              20.5600819,
              -34.4638579
            ],
            [
              20.5604805,
              -34.4638579
            ],
            [
              20.560669,
              -34.4642058
            ],
            [
              20.5610484,
              -34.4642014
            ],
            [
              20.5612468,
              -34.4639467
            ],
            [
              20.5617145,
              -34.463953
            ],
            [
              20.5615911,
              -34.4636272
            ],
            [
              20.56173,
              -34.46344
            ],
            [
              20.5634988,
              -34.463706
            ],
            [
              20.5640014,
              -34.4630742
            ],
            [
              20.5643084,
              -34.4630795
            ],
            [
              20.5643278,
              -34.4633526
            ],
            [
              20.564699,
              -34.463297
            ],
            [
              20.5647989,
              -34.4630702
            ],
            [
              20.56526,
              -34.46283
            ],
            [
              20.56555,
              -34.46216
            ],
            [
              20.5658986,
              -34.4620644
            ],
            [
              20.566191,
              -34.4617406
            ],
            [
              20.56635,
              -34.46184
            ],
            [
              20.56654,
              -34.46152
            ],
            [
              20.5670868,
              -34.4617118
            ],
            [
              20.5675903,
              -34.4614627
            ],
            [
              20.5683497,
              -34.4614308
            ],
            [
              20.5686464,
              -34.4615142
            ],
            [
              20.5685669,
              -34.4617619
            ],
            [
              20.5687023,
              -34.4619787
            ],
            [
              20.5689414,
              -34.4620055
            ],
            [
              20.5689057,
              -34.4616265
            ],
            [
              20.56916,
              -34.46144
            ],
            [
              20.5691205,
              -34.461164
            ],
            [
              20.5694075,
              -34.460855
            ],
            [
              20.5697819,
              -34.461587
            ],
            [
              20.57012,
              -34.46154
            ],
            [
              20.5705202,
              -34.4617357
            ],
            [
              20.5703251,
              -34.4614765
            ],
            [
              20.57065,
              -34.46149
            ],
            [
              20.5712732,
              -34.4617672
            ],
            [
              20.5717769,
              -34.46146
            ],
            [
              20.5719247,
              -34.4609882
            ],
            [
              20.57238,
              -34.46083
            ],
            [
              20.5730103,
              -34.460297
            ],
            [
              20.5732636,
              -34.4603153
            ],
            [
              20.573299,
              -34.4605239
            ],
            [
              20.57374,
              -34.4605
            ],
            [
              20.5742421,
              -34.4606986
            ],
            [
              20.57427,
              -34.46013
            ],
            [
              20.5748666,
              -34.4605095
            ],
            [
              20.57477,
              -34.45993
            ],
            [
              20.57495,
              -34.4598
            ],
            [
              20.57532,
              -34.46002
            ],
            [
              20.57562,
              -34.45989
            ],
            [
              20.57577,
              -34.45956
            ],
            [
              20.5759,
              -34.45971
            ],
            [
              20.57635,
              -34.45971
            ],
            [
              20.57631,
              -34.46005
            ],
            [
              20.57675,
              -34.4603
            ],
            [
              20.57734,
              -34.45967
            ],
            [
              20.57758,
              -34.45885
            ],
            [
              20.57836,
              -34.45877
            ],
            [
              20.57876,
              -34.45931
            ],
            [
              20.57899,
              -34.45933
            ],
            [
              20.5795,
              -34.45865
            ],
            [
              20.58016,
              -34.45831
            ],
            [
              20.58029,
              -34.45861
            ],
            [
              20.58057,
              -34.45861
            ],
            [
              20.58074,
              -34.45831
            ],
            [
              20.58097,
              -34.45835
            ],
            [
              20.58118,
              -34.45813
            ],
            [
              20.58186,
              -34.45824
            ],
            [
              20.58246,
              -34.45796
            ],
            [
              20.58309,
              -34.45834
            ],
            [
              20.58348,
              -34.45817
            ],
            [
              20.5839,
              -34.45844
            ],
            [
              20.58415,
              -34.45835
            ],
            [
              20.58467,
              -34.45893
            ],
            [
              20.58528,
              -34.45889
            ],
            [
              20.58536,
              -34.45864
            ],
            [
              20.58556,
              -34.4586
            ],
            [
              20.58572,
              -34.45825
            ],
            [
              20.58597,
              -34.45811
            ],
            [
              20.58597,
              -34.45763
            ],
            [
              20.58631,
              -34.45779
            ],
            [
              20.58665,
              -34.45767
            ],
            [
              20.5868,
              -34.45722
            ],
            [
              20.58709,
              -34.45745
            ],
            [
              20.58749,
              -34.45739
            ],
            [
              20.58754,
              -34.45717
            ],
            [
              20.58867,
              -34.45726
            ],
            [
              20.58888,
              -34.45688
            ],
            [
              20.58898,
              -34.45722
            ],
            [
              20.58927,
              -34.45717
            ],
            [
              20.58957,
              -34.4574
            ],
            [
              20.58972,
              -34.45703
            ],
            [
              20.59029,
              -34.45669
            ],
            [
              20.5903,
              -34.45645
            ],
            [
              20.59073,
              -34.45669
            ],
            [
              20.59106,
              -34.45651
            ],
            [
              20.5911,
              -34.45672
            ],
            [
              20.59149,
              -34.45696
            ],
            [
              20.59201,
              -34.45657
            ],
            [
              20.59212,
              -34.45628
            ],
            [
              20.59231,
              -34.45645
            ],
            [
              20.59306,
              -34.45643
            ],
            [
              20.59321,
              -34.45609
            ],
            [
              20.59421,
              -34.45627
            ],
            [
              20.59439,
              -34.45593
            ],
            [
              20.59455,
              -34.45609
            ],
            [
              20.59477,
              -34.4559
            ],
            [
              20.59512,
              -34.45605
            ],
            [
              20.59521,
              -34.45574
            ],
            [
              20.59538,
              -34.45597
            ],
            [
              20.59577,
              -34.45578
            ],
            [
              20.59583,
              -34.45602
            ],
            [
              20.59616,
              -34.45611
            ],
            [
              20.596164,
              -34.4557705
            ],
            [
              20.5967326,
              -34.4556842
            ],
            [
              20.5976714,
              -34.4550019
            ],
            [
              20.5981582,
              -34.4550041
            ],
            [
              20.5984224,
              -34.4553713
            ],
            [
              20.598983,
              -34.4556367
            ],
            [
              20.5996495,
              -34.4551954
            ],
            [
              20.6004676,
              -34.4553292
            ],
            [
              20.6008109,
              -34.454992
            ],
            [
              20.601861,
              -34.455421
            ],
            [
              20.6020246,
              -34.4551866
            ],
            [
              20.6025155,
              -34.4551346
            ],
            [
              20.6037936,
              -34.4545927
            ],
            [
              20.604098,
              -34.454616
            ],
            [
              20.60412,
              -34.45495
            ],
            [
              20.6045,
              -34.45465
            ],
            [
              20.60476,
              -34.45505
            ],
            [
              20.60492,
              -34.45505
            ],
            [
              20.60531,
              -34.45482
            ],
            [
              20.60537,
              -34.45461
            ],
            [
              20.60583,
              -34.45448
            ],
            [
              20.60644,
              -34.45494
            ],
            [
              20.60696,
              -34.45451
            ],
            [
              20.60768,
              -34.45451
            ],
            [
              20.60797,
              -34.45499
            ],
            [
              20.6084,
              -34.45499
            ],
            [
              20.60863,
              -34.45489
            ],
            [
              20.60895,
              -34.45415
            ],
            [
              20.60937,
              -34.45437
            ],
            [
              20.60987,
              -34.4543
            ],
            [
              20.61039,
              -34.45394
            ],
            [
              20.61073,
              -34.45404
            ],
            [
              20.61087,
              -34.45379
            ],
            [
              20.611,
              -34.45409
            ],
            [
              20.61128,
              -34.45408
            ],
            [
              20.61157,
              -34.45386
            ],
            [
              20.61166,
              -34.45348
            ],
            [
              20.6118,
              -34.45348
            ],
            [
              20.6119,
              -34.45295
            ],
            [
              20.61221,
              -34.45304
            ],
            [
              20.61233,
              -34.45289
            ],
            [
              20.61242,
              -34.45319
            ],
            [
              20.6129,
              -34.45343
            ],
            [
              20.61337,
              -34.4531
            ],
            [
              20.61373,
              -34.45327
            ],
            [
              20.61383,
              -34.45305
            ],
            [
              20.61429,
              -34.45333
            ],
            [
              20.61442,
              -34.45306
            ],
            [
              20.61468,
              -34.4531
            ],
            [
              20.61485,
              -34.45271
            ],
            [
              20.61516,
              -34.45281
            ],
            [
              20.61518,
              -34.4525104
            ],
            [
              20.61547,
              -34.45252
            ],
            [
              20.6159,
              -34.45224
            ],
            [
              20.61637,
              -34.45238
            ],
            [
              20.61651,
              -34.45198
            ],
            [
              20.61678,
              -34.45191
            ],
            [
              20.61709,
              -34.45192
            ],
            [
              20.61715,
              -34.45224
            ],
            [
              20.61753,
              -34.45223
            ],
            [
              20.6176,
              -34.4525
            ],
            [
              20.61809,
              -34.45248
            ],
            [
              20.61853,
              -34.45211
            ],
            [
              20.61922,
              -34.45224
            ],
            [
              20.61998,
              -34.45201
            ],
            [
              20.62041,
              -34.45214
            ],
            [
              20.62125,
              -34.45193
            ],
            [
              20.62165,
              -34.45214
            ],
            [
              20.62202,
              -34.45179
            ],
            [
              20.6223,
              -34.45204
            ],
            [
              20.62277,
              -34.45192
            ],
            [
              20.62311,
              -34.45211
            ],
            [
              20.62343,
              -34.45193
            ],
            [
              20.62388,
              -34.45217
            ],
            [
              20.62406,
              -34.45201
            ],
            [
              20.62432,
              -34.45222
            ],
            [
              20.625,
              -34.45226
            ],
            [
              20.62515,
              -34.45208
            ],
            [
              20.62695,
              -34.45151
            ],
            [
              20.63247,
              -34.45098
            ],
            [
              20.63317,
              -34.45063
            ],
            [
              20.63354,
              -34.45063
            ],
            [
              20.63374,
              -34.45082
            ],
            [
              20.63427,
              -34.45078
            ],
            [
              20.63438,
              -34.45097
            ],
            [
              20.63481,
              -34.45106
            ],
            [
              20.63493,
              -34.45091
            ],
            [
              20.6356,
              -34.45082
            ],
            [
              20.63574,
              -34.45055
            ],
            [
              20.63647,
              -34.45087
            ],
            [
              20.64024,
              -34.45044
            ],
            [
              20.64397,
              -34.45043
            ],
            [
              20.64495,
              -34.45023
            ],
            [
              20.64556,
              -34.44986
            ],
            [
              20.64585,
              -34.4501
            ],
            [
              20.64672,
              -34.44995
            ],
            [
              20.6471,
              -34.45009
            ],
            [
              20.64766,
              -34.44991
            ],
            [
              20.64939,
              -34.45022
            ],
            [
              20.65081,
              -34.45009
            ],
            [
              20.65239,
              -34.4502
            ],
            [
              20.65293,
              -34.45054
            ],
            [
              20.65429,
              -34.44976
            ],
            [
              20.65512,
              -34.44997
            ],
            [
              20.65534,
              -34.44967
            ],
            [
              20.65569,
              -34.44987
            ],
            [
              20.65591,
              -34.44972
            ],
            [
              20.65652,
              -34.45005
            ],
            [
              20.65747,
              -34.45012
            ],
            [
              20.66112,
              -34.45017
            ],
            [
              20.66208,
              -34.45005
            ],
            [
              20.665,
              -34.45037
            ],
            [
              20.66901,
              -34.45028
            ],
            [
              20.67027,
              -34.45047
            ],
            [
              20.67325,
              -34.4505
            ],
            [
              20.67346,
              -34.45064
            ],
            [
              20.67427,
              -34.4505
            ],
            [
              20.67437,
              -34.45101
            ],
            [
              20.6747,
              -34.45106
            ],
            [
              20.67527,
              -34.45149
            ],
            [
              20.67559,
              -34.45151
            ],
            [
              20.67611,
              -34.45097
            ],
            [
              20.67634,
              -34.45093
            ],
            [
              20.6766,
              -34.4505
            ],
            [
              20.67684,
              -34.45084
            ],
            [
              20.6772,
              -34.45091
            ],
            [
              20.67742,
              -34.45132
            ],
            [
              20.67793,
              -34.45154
            ],
            [
              20.67846,
              -34.45215
            ],
            [
              20.67882,
              -34.45204
            ],
            [
              20.67893,
              -34.45245
            ],
            [
              20.68005,
              -34.45254
            ],
            [
              20.68074,
              -34.45238
            ],
            [
              20.68099,
              -34.45259
            ],
            [
              20.68158,
              -34.4525
            ],
            [
              20.68199,
              -34.45283
            ],
            [
              20.6825,
              -34.45283
            ],
            [
              20.68308,
              -34.45313
            ],
            [
              20.68379,
              -34.45275
            ],
            [
              20.68435,
              -34.45269
            ],
            [
              20.68491,
              -34.45302
            ],
            [
              20.68585,
              -34.45254
            ],
            [
              20.68639,
              -34.45269
            ],
            [
              20.68661,
              -34.4525
            ],
            [
              20.6873,
              -34.45252
            ],
            [
              20.68788,
              -34.45218
            ],
            [
              20.68839,
              -34.45227
            ],
            [
              20.68855,
              -34.452
            ],
            [
              20.68917,
              -34.45189
            ],
            [
              20.68927,
              -34.45151
            ],
            [
              20.68994,
              -34.45119
            ],
            [
              20.69019,
              -34.45066
            ],
            [
              20.69082,
              -34.45053
            ],
            [
              20.69112,
              -34.45027
            ],
            [
              20.69147,
              -34.45038
            ],
            [
              20.69168,
              -34.45068
            ],
            [
              20.69211,
              -34.45059
            ],
            [
              20.69286,
              -34.45096
            ],
            [
              20.694,
              -34.45096
            ],
            [
              20.69506,
              -34.45064
            ],
            [
              20.69554,
              -34.45077
            ],
            [
              20.69591,
              -34.45053
            ],
            [
              20.69673,
              -34.45099
            ],
            [
              20.6972,
              -34.45097
            ],
            [
              20.69723,
              -34.45121
            ],
            [
              20.69771,
              -34.45133
            ],
            [
              20.69768,
              -34.45153
            ],
            [
              20.69787,
              -34.45174
            ],
            [
              20.69862,
              -34.45164
            ],
            [
              20.69899,
              -34.45183
            ],
            [
              20.69946,
              -34.45135
            ],
            [
              20.69992,
              -34.45124
            ],
            [
              20.70118,
              -34.45164
            ],
            [
              20.70175,
              -34.45159
            ],
            [
              20.70209,
              -34.45188
            ],
            [
              20.7027,
              -34.45183
            ],
            [
              20.70317,
              -34.45207
            ],
            [
              20.70386,
              -34.4519
            ],
            [
              20.70416,
              -34.45212
            ],
            [
              20.70472,
              -34.452
            ],
            [
              20.70517,
              -34.45232
            ],
            [
              20.70711,
              -34.45207
            ],
            [
              20.70749,
              -34.45239
            ],
            [
              20.70817,
              -34.45235
            ],
            [
              20.70858,
              -34.45268
            ],
            [
              20.70901,
              -34.45263
            ],
            [
              20.71001,
              -34.45287
            ],
            [
              20.7103,
              -34.4531
            ],
            [
              20.71063,
              -34.45296
            ],
            [
              20.71147,
              -34.45315
            ],
            [
              20.71238,
              -34.45306
            ],
            [
              20.713,
              -34.45339
            ],
            [
              20.71307,
              -34.45401
            ],
            [
              20.71386,
              -34.45411
            ],
            [
              20.71403,
              -34.45406
            ],
            [
              20.71417,
              -34.45356
            ],
            [
              20.71607,
              -34.45358
            ],
            [
              20.71728,
              -34.4529
            ],
            [
              20.71802,
              -34.45319
            ],
            [
              20.71825,
              -34.45319
            ],
            [
              20.71852,
              -34.4529
            ],
            [
              20.71859,
              -34.45319
            ],
            [
              20.71929,
              -34.45323
            ],
            [
              20.71978,
              -34.45362
            ],
            [
              20.72054,
              -34.45385
            ],
            [
              20.72144,
              -34.45366
            ],
            [
              20.72149,
              -34.45398
            ],
            [
              20.72169,
              -34.45406
            ],
            [
              20.72207,
              -34.45384
            ],
            [
              20.72225,
              -34.45464
            ],
            [
              20.72283,
              -34.45471
            ],
            [
              20.72311,
              -34.45428
            ],
            [
              20.7234,
              -34.45429
            ],
            [
              20.7239,
              -34.45455
            ],
            [
              20.72464,
              -34.45452
            ],
            [
              20.72526,
              -34.45498
            ],
            [
              20.72611,
              -34.45494
            ],
            [
              20.7261,
              -34.45451
            ],
            [
              20.7268,
              -34.45415
            ],
            [
              20.72684,
              -34.45379
            ],
            [
              20.72751,
              -34.45391
            ],
            [
              20.72812,
              -34.45329
            ],
            [
              20.72864,
              -34.45356
            ],
            [
              20.72915,
              -34.4531
            ],
            [
              20.72983,
              -34.45301
            ],
            [
              20.7302,
              -34.45325
            ],
            [
              20.7308166,
              -34.4529831
            ],
            [
              20.7310065,
              -34.4521517
            ],
            [
              20.7309571,
              -34.4512573
            ],
            [
              20.7311655,
              -34.4511772
            ],
            [
              20.7315888,
              -34.451833
            ],
            [
              20.7326271,
              -34.4517222
            ],
            [
              20.7326917,
              -34.4519584
            ],
            [
              20.7325037,
              -34.4523327
            ],
            [
              20.7335712,
              -34.4531428
            ],
            [
              20.7344813,
              -34.4532815
            ],
            [
              20.7350019,
              -34.4535997
            ],
            [
              20.7351983,
              -34.4539746
            ],
            [
              20.73495,
              -34.45465
            ],
            [
              20.73498,
              -34.4551
            ],
            [
              20.73547,
              -34.45504
            ],
            [
              20.73564,
              -34.4554
            ],
            [
              20.73626,
              -34.45533
            ],
            [
              20.73642,
              -34.45564
            ],
            [
              20.73696,
              -34.45561
            ],
            [
              20.73716,
              -34.4558
            ],
            [
              20.73771,
              -34.45569
            ],
            [
              20.73811,
              -34.45596
            ],
            [
              20.73834,
              -34.45573
            ],
            [
              20.73941,
              -34.45578
            ],
            [
              20.7396373,
              -34.4552775
            ],
            [
              20.739949,
              -34.4550807
            ],
            [
              20.7408674,
              -34.4549033
            ],
            [
              20.74225,
              -34.45515
            ],
            [
              20.74234,
              -34.45542
            ],
            [
              20.7428,
              -34.45534
            ],
            [
              20.7431,
              -34.45572
            ],
            [
              20.74341,
              -34.45546
            ],
            [
              20.7436,
              -34.45577
            ],
            [
              20.74398,
              -34.45571
            ],
            [
              20.74413,
              -34.45584
            ],
            [
              20.7447,
              -34.45584
            ],
            [
              20.74493,
              -34.45563
            ],
            [
              20.74516,
              -34.4559
            ],
            [
              20.74552,
              -34.45576
            ],
            [
              20.74581,
              -34.45599
            ],
            [
              20.74605,
              -34.45584
            ],
            [
              20.74633,
              -34.45608
            ],
            [
              20.7465,
              -34.45594
            ],
            [
              20.7467,
              -34.45609
            ],
            [
              20.74714,
              -34.45595
            ],
            [
              20.74722,
              -34.45622
            ],
            [
              20.74788,
              -34.45603
            ],
            [
              20.74812,
              -34.45639
            ],
            [
              20.74828,
              -34.45614
            ],
            [
              20.74862,
              -34.45646
            ],
            [
              20.74885,
              -34.45624
            ],
            [
              20.74896,
              -34.45651
            ],
            [
              20.74941,
              -34.45622
            ],
            [
              20.7497,
              -34.45632
            ],
            [
              20.75013,
              -34.45608
            ],
            [
              20.75059,
              -34.45624
            ],
            [
              20.75085,
              -34.45609
            ],
            [
              20.75101,
              -34.45629
            ],
            [
              20.75142,
              -34.45609
            ],
            [
              20.75261,
              -34.4562
            ],
            [
              20.75295,
              -34.45634
            ],
            [
              20.75287,
              -34.45663
            ],
            [
              20.75311,
              -34.45697
            ],
            [
              20.75358,
              -34.45695
            ],
            [
              20.75358,
              -34.45711
            ],
            [
              20.75382,
              -34.45722
            ],
            [
              20.75435,
              -34.45714
            ],
            [
              20.75446,
              -34.45733
            ],
            [
              20.75558,
              -34.45723
            ],
            [
              20.75596,
              -34.45737
            ],
            [
              20.7563,
              -34.4572
            ],
            [
              20.75652,
              -34.45746
            ],
            [
              20.75693,
              -34.45745
            ],
            [
              20.75691,
              -34.45771
            ],
            [
              20.75737,
              -34.45803
            ],
            [
              20.7577,
              -34.45805
            ],
            [
              20.75794,
              -34.45829
            ],
            [
              20.75837,
              -34.45824
            ],
            [
              20.75841,
              -34.45848
            ],
            [
              20.75884,
              -34.45849
            ],
            [
              20.75887,
              -34.45872
            ],
            [
              20.75918,
              -34.45877
            ],
            [
              20.75938,
              -34.4586
            ],
            [
              20.75965,
              -34.45873
            ],
            [
              20.75994,
              -34.45853
            ],
            [
              20.76032,
              -34.45867
            ],
            [
              20.76051,
              -34.45839
            ],
            [
              20.76075,
              -34.45837
            ],
            [
              20.76079,
              -34.45802
            ],
            [
              20.76136,
              -34.45803
            ],
            [
              20.76148,
              -34.45826
            ],
            [
              20.76197,
              -34.45817
            ],
            [
              20.76232,
              -34.45841
            ],
            [
              20.76238,
              -34.45872
            ],
            [
              20.76281,
              -34.45872
            ],
            [
              20.76276,
              -34.45889
            ],
            [
              20.76314,
              -34.45908
            ],
            [
              20.76457,
              -34.45905
            ],
            [
              20.76496,
              -34.45924
            ],
            [
              20.76533,
              -34.45917
            ],
            [
              20.76555,
              -34.45934
            ],
            [
              20.76638,
              -34.45924
            ],
            [
              20.76671,
              -34.45942
            ],
            [
              20.76705,
              -34.45936
            ],
            [
              20.76721,
              -34.45955
            ],
            [
              20.76766,
              -34.45952
            ],
            [
              20.76779,
              -34.45983
            ],
            [
              20.76805,
              -34.45975
            ],
            [
              20.76824,
              -34.45999
            ],
            [
              20.76879,
              -34.45994
            ],
            [
              20.76895,
              -34.46029
            ],
            [
              20.7693,
              -34.46028
            ],
            [
              20.76957,
              -34.46052
            ],
            [
              20.76981,
              -34.4604
            ],
            [
              20.77014,
              -34.46066
            ],
            [
              20.77043,
              -34.46052
            ],
            [
              20.77062,
              -34.46065
            ],
            [
              20.7723,
              -34.46065
            ],
            [
              20.77258,
              -34.46086
            ],
            [
              20.77258,
              -34.46126
            ],
            [
              20.77293,
              -34.46124
            ],
            [
              20.77313,
              -34.46148
            ],
            [
              20.77344,
              -34.46129
            ],
            [
              20.77382,
              -34.46132
            ],
            [
              20.7739,
              -34.461
            ],
            [
              20.77432,
              -34.4611
            ],
            [
              20.77438,
              -34.46095
            ],
            [
              20.77533,
              -34.46095
            ],
            [
              20.77547,
              -34.46081
            ],
            [
              20.77581,
              -34.46093
            ],
            [
              20.77609,
              -34.46062
            ],
            [
              20.77635,
              -34.46073
            ],
            [
              20.77704,
              -34.46062
            ],
            [
              20.77721,
              -34.46086
            ],
            [
              20.77747,
              -34.46067
            ],
            [
              20.77773,
              -34.46099
            ],
            [
              20.77799,
              -34.46085
            ],
            [
              20.77842,
              -34.46098
            ],
            [
              20.77854,
              -34.46082
            ],
            [
              20.77889,
              -34.46101
            ],
            [
              20.77908,
              -34.46087
            ],
            [
              20.77932,
              -34.46106
            ],
            [
              20.77968,
              -34.46086
            ],
            [
              20.78023,
              -34.46124
            ],
            [
              20.78064,
              -34.46101
            ],
            [
              20.78101,
              -34.4611
            ],
            [
              20.78122,
              -34.46092
            ],
            [
              20.78141,
              -34.4611
            ],
            [
              20.78177,
              -34.46101
            ],
            [
              20.78187,
              -34.46138
            ],
            [
              20.78222,
              -34.46128
            ],
            [
              20.78239,
              -34.46149
            ],
            [
              20.78279,
              -34.46144
            ],
            [
              20.78291,
              -34.46178
            ],
            [
              20.78331,
              -34.46182
            ],
            [
              20.78351,
              -34.46206
            ],
            [
              20.78376,
              -34.46201
            ],
            [
              20.78381,
              -34.46225
            ],
            [
              20.78447,
              -34.46206
            ],
            [
              20.78459,
              -34.46228
            ],
            [
              20.78494,
              -34.4623
            ],
            [
              20.78503,
              -34.46254
            ],
            [
              20.78547,
              -34.46244
            ],
            [
              20.78603,
              -34.46274
            ],
            [
              20.78669,
              -34.46266
            ],
            [
              20.78687,
              -34.46297
            ],
            [
              20.78732,
              -34.46282
            ],
            [
              20.78799,
              -34.46311
            ],
            [
              20.78843,
              -34.46285
            ],
            [
              20.78876,
              -34.4631
            ],
            [
              20.78916,
              -34.46295
            ],
            [
              20.78952,
              -34.46324
            ],
            [
              20.78995,
              -34.46311
            ],
            [
              20.79027,
              -34.46341
            ],
            [
              20.79064,
              -34.46347
            ],
            [
              20.79085,
              -34.46329
            ],
            [
              20.79142,
              -34.46369
            ],
            [
              20.79171,
              -34.46357
            ],
            [
              20.79178,
              -34.46389
            ],
            [
              20.79192,
              -34.46391
            ],
            [
              20.79223,
              -34.46374
            ],
            [
              20.79282,
              -34.46394
            ],
            [
              20.79305,
              -34.4638
            ],
            [
              20.79331,
              -34.46396
            ],
            [
              20.79403,
              -34.46383
            ],
            [
              20.79448,
              -34.46412
            ],
            [
              20.79422,
              -34.46469
            ],
            [
              20.79472,
              -34.46524
            ],
            [
              20.79496,
              -34.46531
            ],
            [
              20.79513,
              -34.46564
            ],
            [
              20.79604,
              -34.46593
            ],
            [
              20.79607,
              -34.46613
            ],
            [
              20.79644,
              -34.46609
            ],
            [
              20.79667,
              -34.46631
            ],
            [
              20.79743,
              -34.46639
            ],
            [
              20.79762,
              -34.46674
            ],
            [
              20.79829,
              -34.4664
            ],
            [
              20.79918,
              -34.46639
            ],
            [
              20.79955,
              -34.4665
            ],
            [
              20.79967,
              -34.46683
            ],
            [
              20.80024,
              -34.46669
            ],
            [
              20.80062,
              -34.467
            ],
            [
              20.80102,
              -34.46655
            ],
            [
              20.80119,
              -34.4665
            ],
            [
              20.80128,
              -34.46674
            ],
            [
              20.8015,
              -34.46677
            ],
            [
              20.80185,
              -34.46645
            ],
            [
              20.8024,
              -34.46693
            ],
            [
              20.80262,
              -34.46678
            ],
            [
              20.80296,
              -34.46695
            ],
            [
              20.80357,
              -34.46689
            ],
            [
              20.80386,
              -34.46732
            ],
            [
              20.80466,
              -34.46718
            ],
            [
              20.80494,
              -34.46738
            ],
            [
              20.80523,
              -34.46719
            ],
            [
              20.80556,
              -34.4678
            ],
            [
              20.80572,
              -34.46784
            ],
            [
              20.80589,
              -34.46763
            ],
            [
              20.80643,
              -34.46813
            ],
            [
              20.8069,
              -34.46791
            ],
            [
              20.80745,
              -34.46795
            ],
            [
              20.80777,
              -34.46771
            ],
            [
              20.80828,
              -34.46789
            ],
            [
              20.80864,
              -34.4675
            ],
            [
              20.80939,
              -34.4676
            ],
            [
              20.80982,
              -34.46735
            ],
            [
              20.80996,
              -34.46748
            ],
            [
              20.80965,
              -34.46832
            ],
            [
              20.81001,
              -34.46833
            ],
            [
              20.81027,
              -34.46857
            ],
            [
              20.81078,
              -34.46856
            ],
            [
              20.81098,
              -34.46877
            ],
            [
              20.81145,
              -34.46868
            ],
            [
              20.81183,
              -34.4689
            ],
            [
              20.81258,
              -34.46899
            ],
            [
              20.81316,
              -34.46882
            ],
            [
              20.81359,
              -34.46895
            ],
            [
              20.81378,
              -34.46882
            ],
            [
              20.81433,
              -34.4692
            ],
            [
              20.81479,
              -34.469
            ],
            [
              20.81521,
              -34.46911
            ],
            [
              20.81611,
              -34.46901
            ],
            [
              20.81687,
              -34.46968
            ],
            [
              20.81773,
              -34.46972
            ],
            [
              20.81785,
              -34.47
            ],
            [
              20.8181,
              -34.47011
            ],
            [
              20.81819,
              -34.47063
            ],
            [
              20.81864,
              -34.47072
            ],
            [
              20.81885,
              -34.47101
            ],
            [
              20.81911,
              -34.47099
            ],
            [
              20.81921,
              -34.4713
            ],
            [
              20.81961,
              -34.47118
            ],
            [
              20.82041,
              -34.47189
            ],
            [
              20.8208,
              -34.47201
            ],
            [
              20.82102,
              -34.47187
            ],
            [
              20.82126,
              -34.47201
            ],
            [
              20.82164,
              -34.47196
            ],
            [
              20.82178,
              -34.47177
            ],
            [
              20.82218,
              -34.47168
            ],
            [
              20.82247,
              -34.4713
            ],
            [
              20.82315,
              -34.4713
            ],
            [
              20.82358,
              -34.47091
            ],
            [
              20.82396,
              -34.47108
            ],
            [
              20.82446,
              -34.47091
            ],
            [
              20.82465,
              -34.47118
            ],
            [
              20.82489,
              -34.47106
            ],
            [
              20.82518,
              -34.47153
            ],
            [
              20.82601,
              -34.47181
            ],
            [
              20.82627,
              -34.47158
            ],
            [
              20.82675,
              -34.47149
            ],
            [
              20.82698,
              -34.47163
            ],
            [
              20.82729,
              -34.47139
            ],
            [
              20.82771,
              -34.47153
            ],
            [
              20.82806,
              -34.47121
            ],
            [
              20.82826,
              -34.47131
            ],
            [
              20.82861,
              -34.47121
            ],
            [
              20.82882,
              -34.47155
            ],
            [
              20.82974,
              -34.47158
            ],
            [
              20.82988,
              -34.47133
            ],
            [
              20.83064,
              -34.47122
            ],
            [
              20.83069,
              -34.47086
            ],
            [
              20.83105,
              -34.47093
            ],
            [
              20.83121,
              -34.47068
            ],
            [
              20.832,
              -34.47036
            ],
            [
              20.83246,
              -34.47065
            ],
            [
              20.83255,
              -34.47102
            ],
            [
              20.8329,
              -34.47115
            ],
            [
              20.83352,
              -34.47107
            ],
            [
              20.83406,
              -34.47059
            ],
            [
              20.83411,
              -34.47027
            ],
            [
              20.83494,
              -34.46993
            ],
            [
              20.83578,
              -34.47039
            ],
            [
              20.83681,
              -34.47061
            ],
            [
              20.83792,
              -34.47062
            ],
            [
              20.83888,
              -34.47026
            ],
            [
              20.83898,
              -34.4705
            ],
            [
              20.83938,
              -34.47039
            ],
            [
              20.83952,
              -34.47051
            ],
            [
              20.83949,
              -34.47091
            ],
            [
              20.84032,
              -34.47089
            ],
            [
              20.84045,
              -34.4712
            ],
            [
              20.84124,
              -34.4712
            ],
            [
              20.84164,
              -34.47191
            ],
            [
              20.84199,
              -34.47206
            ],
            [
              20.84226,
              -34.47209
            ],
            [
              20.84252,
              -34.47187
            ],
            [
              20.84266,
              -34.47191
            ],
            [
              20.84266,
              -34.4722
            ],
            [
              20.84286,
              -34.47225
            ],
            [
              20.84368,
              -34.47197
            ],
            [
              20.84411,
              -34.47254
            ],
            [
              20.84401,
              -34.47283
            ],
            [
              20.84475,
              -34.47289
            ],
            [
              20.84483,
              -34.47364
            ],
            [
              20.84563,
              -34.47369
            ],
            [
              20.8456,
              -34.47388
            ],
            [
              20.84603,
              -34.47432
            ],
            [
              20.84679,
              -34.47422
            ],
            [
              20.84736,
              -34.47478
            ],
            [
              20.84775,
              -34.47488
            ],
            [
              20.84784,
              -34.47421
            ],
            [
              20.84803,
              -34.47397
            ],
            [
              20.84775,
              -34.47322
            ],
            [
              20.84742,
              -34.47307
            ],
            [
              20.84823,
              -34.47277
            ],
            [
              20.84839,
              -34.47257
            ],
            [
              20.84816,
              -34.4721
            ],
            [
              20.84832,
              -34.4719
            ],
            [
              20.84866,
              -34.47224
            ],
            [
              20.84892,
              -34.47228
            ],
            [
              20.84913,
              -34.47206
            ],
            [
              20.84931,
              -34.47214
            ],
            [
              20.84994,
              -34.4719
            ],
            [
              20.85013,
              -34.47145
            ],
            [
              20.85064,
              -34.47138
            ],
            [
              20.85083,
              -34.47109
            ],
            [
              20.85118,
              -34.47133
            ],
            [
              20.85137,
              -34.47128
            ],
            [
              20.85146,
              -34.47102
            ],
            [
              20.8518,
              -34.47095
            ],
            [
              20.85198,
              -34.47101
            ],
            [
              20.85201,
              -34.47131
            ],
            [
              20.85261,
              -34.47159
            ],
            [
              20.85289,
              -34.47107
            ],
            [
              20.85327,
              -34.47109
            ],
            [
              20.85361,
              -34.47087
            ],
            [
              20.85359,
              -34.47039
            ],
            [
              20.85304,
              -34.47033
            ],
            [
              20.85272,
              -34.46983
            ],
            [
              20.85291,
              -34.4695
            ],
            [
              20.85246,
              -34.4692
            ],
            [
              20.85231,
              -34.46869
            ],
            [
              20.85239,
              -34.46831
            ],
            [
              20.85205,
              -34.46779
            ],
            [
              20.8521,
              -34.46757
            ],
            [
              20.85237,
              -34.46758
            ],
            [
              20.85253,
              -34.46725
            ],
            [
              20.85323,
              -34.46698
            ],
            [
              20.85349,
              -34.46654
            ],
            [
              20.85397,
              -34.4665
            ],
            [
              20.85428,
              -34.46602
            ],
            [
              20.85461,
              -34.46602
            ],
            [
              20.85567,
              -34.46533
            ],
            [
              20.85599,
              -34.46532
            ],
            [
              20.85611,
              -34.46494
            ],
            [
              20.85645,
              -34.46475
            ],
            [
              20.85695,
              -34.46469
            ],
            [
              20.85753,
              -34.46485
            ],
            [
              20.85832,
              -34.46425
            ],
            [
              20.85847,
              -34.46459
            ],
            [
              20.85892,
              -34.46432
            ],
            [
              20.85949,
              -34.46454
            ],
            [
              20.85982,
              -34.46449
            ],
            [
              20.86007,
              -34.46463
            ],
            [
              20.86014,
              -34.46503
            ],
            [
              20.86079,
              -34.46499
            ],
            [
              20.86111,
              -34.46536
            ],
            [
              20.86217,
              -34.46554
            ],
            [
              20.86252,
              -34.46541
            ],
            [
              20.86283,
              -34.46553
            ],
            [
              20.86331,
              -34.46524
            ],
            [
              20.8634,
              -34.46542
            ],
            [
              20.8638,
              -34.46554
            ],
            [
              20.86426,
              -34.46531
            ],
            [
              20.86453,
              -34.46567
            ],
            [
              20.86483,
              -34.46574
            ],
            [
              20.86588,
              -34.46562
            ],
            [
              20.86744,
              -34.46591
            ],
            [
              20.86778,
              -34.46563
            ],
            [
              20.86794,
              -34.46601
            ],
            [
              20.86857,
              -34.46618
            ],
            [
              20.8695,
              -34.46592
            ],
            [
              20.86961,
              -34.46524
            ],
            [
              20.86998,
              -34.4646
            ],
            [
              20.86976,
              -34.46398
            ],
            [
              20.8693,
              -34.46384
            ],
            [
              20.86925,
              -34.4636
            ],
            [
              20.86882,
              -34.46341
            ],
            [
              20.86861,
              -34.46305
            ],
            [
              20.86822,
              -34.46298
            ],
            [
              20.86825,
              -34.46274
            ],
            [
              20.86796,
              -34.46248
            ],
            [
              20.8679,
              -34.46196
            ],
            [
              20.86772,
              -34.462
            ],
            [
              20.86751,
              -34.46168
            ],
            [
              20.86721,
              -34.46171
            ],
            [
              20.86691,
              -34.46125
            ],
            [
              20.86613,
              -34.46116
            ],
            [
              20.86617,
              -34.46061
            ],
            [
              20.86565,
              -34.46054
            ],
            [
              20.86564,
              -34.46012
            ],
            [
              20.86535,
              -34.4599
            ],
            [
              20.86556,
              -34.45945
            ],
            [
              20.86524,
              -34.45921
            ],
            [
              20.86525,
              -34.4589
            ],
            [
              20.86548,
              -34.45883
            ],
            [
              20.86548,
              -34.45842
            ],
            [
              20.86586,
              -34.45842
            ],
            [
              20.86581,
              -34.45804
            ],
            [
              20.86672,
              -34.45767
            ],
            [
              20.86657,
              -34.45719
            ],
            [
              20.86738,
              -34.45709
            ],
            [
              20.86736,
              -34.45647
            ],
            [
              20.86783,
              -34.45633
            ],
            [
              20.86899,
              -34.45501
            ],
            [
              20.86903,
              -34.45484
            ],
            [
              20.86863,
              -34.45465
            ],
            [
              20.8694,
              -34.4537
            ],
            [
              20.86972,
              -34.45356
            ],
            [
              20.86972,
              -34.45278
            ],
            [
              20.87002,
              -34.4528
            ],
            [
              20.87014,
              -34.45256
            ],
            [
              20.8704,
              -34.45251
            ],
            [
              20.87107,
              -34.45291
            ],
            [
              20.87128,
              -34.4528
            ],
            [
              20.87134,
              -34.45246
            ],
            [
              20.87181,
              -34.45231
            ],
            [
              20.87207,
              -34.45165
            ],
            [
              20.87212,
              -34.45089
            ],
            [
              20.87202,
              -34.4507
            ],
            [
              20.87137,
              -34.45049
            ],
            [
              20.87125,
              -34.45018
            ],
            [
              20.87099,
              -34.45014
            ],
            [
              20.87095,
              -34.44965
            ],
            [
              20.87043,
              -34.4498
            ],
            [
              20.8702,
              -34.44942
            ],
            [
              20.8692,
              -34.44927
            ],
            [
              20.86937,
              -34.44894
            ],
            [
              20.87001,
              -34.44908
            ],
            [
              20.87026,
              -34.44885
            ],
            [
              20.87125,
              -34.44852
            ],
            [
              20.8713,
              -34.44818
            ],
            [
              20.87158,
              -34.44794
            ],
            [
              20.87098,
              -34.44697
            ],
            [
              20.87109,
              -34.44626
            ],
            [
              20.871,
              -34.44613
            ],
            [
              20.87052,
              -34.44622
            ],
            [
              20.87036,
              -34.44574
            ],
            [
              20.87052,
              -34.44547
            ],
            [
              20.87014,
              -34.4451
            ],
            [
              20.87045,
              -34.44478
            ],
            [
              20.87024,
              -34.44426
            ],
            [
              20.87052,
              -34.44404
            ],
            [
              20.87054,
              -34.44344
            ],
            [
              20.87089,
              -34.44346
            ],
            [
              20.87093,
              -34.44331
            ],
            [
              20.87055,
              -34.44279
            ],
            [
              20.87058,
              -34.44265
            ],
            [
              20.87093,
              -34.44259
            ],
            [
              20.87091,
              -34.44231
            ],
            [
              20.87026,
              -34.44169
            ],
            [
              20.87047,
              -34.44164
            ],
            [
              20.87055,
              -34.4414
            ],
            [
              20.87028,
              -34.44072
            ],
            [
              20.87056,
              -34.44062
            ],
            [
              20.8707,
              -34.44033
            ],
            [
              20.8703,
              -34.44007
            ],
            [
              20.87047,
              -34.43986
            ],
            [
              20.87049,
              -34.43913
            ],
            [
              20.87073,
              -34.43882
            ],
            [
              20.87054,
              -34.43858
            ],
            [
              20.87022,
              -34.43857
            ],
            [
              20.87033,
              -34.4383
            ],
            [
              20.87008,
              -34.43798
            ],
            [
              20.8704,
              -34.43776
            ],
            [
              20.87042,
              -34.43752
            ],
            [
              20.87002,
              -34.43695
            ],
            [
              20.86964,
              -34.43691
            ],
            [
              20.86968,
              -34.43663
            ],
            [
              20.86897,
              -34.43629
            ],
            [
              20.86897,
              -34.43612
            ],
            [
              20.86861,
              -34.43583
            ],
            [
              20.86857,
              -34.43537
            ],
            [
              20.86812,
              -34.43535
            ],
            [
              20.86817,
              -34.43479
            ],
            [
              20.86793,
              -34.43451
            ],
            [
              20.86826,
              -34.43441
            ],
            [
              20.86836,
              -34.43416
            ],
            [
              20.86795,
              -34.4338
            ],
            [
              20.86807,
              -34.43332
            ],
            [
              20.86769,
              -34.43309
            ],
            [
              20.86779,
              -34.4328
            ],
            [
              20.86757,
              -34.43257
            ],
            [
              20.8678,
              -34.43233
            ],
            [
              20.86767,
              -34.43182
            ],
            [
              20.86803,
              -34.43183
            ],
            [
              20.86784,
              -34.4314
            ],
            [
              20.86799,
              -34.4314
            ],
            [
              20.86813,
              -34.43083
            ],
            [
              20.86858,
              -34.43083
            ],
            [
              20.86861,
              -34.43059
            ],
            [
              20.86882,
              -34.43045
            ],
            [
              20.86936,
              -34.43045
            ],
            [
              20.86932,
              -34.42995
            ],
            [
              20.86967,
              -34.42936
            ],
            [
              20.86901,
              -34.42893
            ],
            [
              20.86903,
              -34.42838
            ],
            [
              20.86854,
              -34.42808
            ],
            [
              20.86851,
              -34.42762
            ],
            [
              20.86822,
              -34.42747
            ],
            [
              20.86813,
              -34.42722
            ],
            [
              20.86779,
              -34.4271
            ],
            [
              20.86767,
              -34.42681
            ],
            [
              20.86701,
              -34.42674
            ],
            [
              20.86711,
              -34.42624
            ],
            [
              20.86696,
              -34.42586
            ],
            [
              20.86644,
              -34.42554
            ],
            [
              20.86541,
              -34.42543
            ],
            [
              20.86515,
              -34.42559
            ],
            [
              20.86503,
              -34.42538
            ],
            [
              20.8645,
              -34.42553
            ],
            [
              20.86437,
              -34.42528
            ],
            [
              20.86382,
              -34.42524
            ],
            [
              20.86363,
              -34.425
            ],
            [
              20.86289,
              -34.42509
            ],
            [
              20.86262,
              -34.42487
            ],
            [
              20.86218,
              -34.42496
            ],
            [
              20.86177,
              -34.42473
            ],
            [
              20.8614,
              -34.42477
            ],
            [
              20.86111,
              -34.42441
            ],
            [
              20.86062,
              -34.42442
            ],
            [
              20.86024,
              -34.42405
            ],
            [
              20.85991,
              -34.42416
            ],
            [
              20.85977,
              -34.42392
            ],
            [
              20.85924,
              -34.42391
            ],
            [
              20.85896,
              -34.42362
            ],
            [
              20.85855,
              -34.42366
            ],
            [
              20.85836,
              -34.42335
            ],
            [
              20.85791,
              -34.42328
            ],
            [
              20.85783,
              -34.42308
            ],
            [
              20.85738,
              -34.42293
            ],
            [
              20.85735,
              -34.42259
            ],
            [
              20.85695,
              -34.4224
            ],
            [
              20.85692,
              -34.42204
            ],
            [
              20.85654,
              -34.4219
            ],
            [
              20.85657,
              -34.42137
            ],
            [
              20.85638,
              -34.4213
            ],
            [
              20.8566,
              -34.42085
            ],
            [
              20.85631,
              -34.42059
            ],
            [
              20.85634,
              -34.42011
            ],
            [
              20.85613,
              -34.41988
            ],
            [
              20.85626,
              -34.41945
            ],
            [
              20.85603,
              -34.41926
            ],
            [
              20.85602,
              -34.41873
            ],
            [
              20.85583,
              -34.41845
            ],
            [
              20.85516,
              -34.4185
            ],
            [
              20.85501,
              -34.41792
            ],
            [
              20.85468,
              -34.41783
            ],
            [
              20.85473,
              -34.41638
            ],
            [
              20.8544,
              -34.41633
            ],
            [
              20.8544,
              -34.41591
            ],
            [
              20.85402,
              -34.41587
            ],
            [
              20.85375,
              -34.41559
            ],
            [
              20.85373,
              -34.41512
            ],
            [
              20.85337,
              -34.41494
            ],
            [
              20.85346,
              -34.41445
            ],
            [
              20.85371,
              -34.41428
            ],
            [
              20.85358,
              -34.41394
            ],
            [
              20.85372,
              -34.41365
            ],
            [
              20.85347,
              -34.41342
            ],
            [
              20.85345,
              -34.4128
            ],
            [
              20.853,
              -34.41256
            ],
            [
              20.85273,
              -34.41207
            ],
            [
              20.85271,
              -34.41165
            ],
            [
              20.85225,
              -34.41162
            ],
            [
              20.85221,
              -34.41129
            ],
            [
              20.85177,
              -34.4111
            ],
            [
              20.85173,
              -34.41079
            ],
            [
              20.85083,
              -34.41032
            ],
            [
              20.85039,
              -34.41029
            ],
            [
              20.84999,
              -34.40942
            ],
            [
              20.84958,
              -34.40951
            ],
            [
              20.84932,
              -34.40907
            ],
            [
              20.84895,
              -34.40889
            ],
            [
              20.848594,
              -34.4090881
            ],
            [
              20.84872,
              -34.40875
            ],
            [
              20.84847,
              -34.40845
            ],
            [
              20.84843,
              -34.40774
            ],
            [
              20.84881,
              -34.40614
            ],
            [
              20.84982,
              -34.40365
            ],
            [
              20.85183,
              -34.40078
            ],
            [
              20.85464,
              -34.39783
            ],
            [
              20.85838,
              -34.39602
            ],
            [
              20.86139,
              -34.39397
            ],
            [
              20.86295,
              -34.39336
            ],
            [
              20.86743,
              -34.39116
            ],
            [
              20.87343,
              -34.38719
            ],
            [
              20.8759,
              -34.38535
            ],
            [
              20.87809,
              -34.3841
            ],
            [
              20.88081,
              -34.38209
            ],
            [
              20.88324,
              -34.38076
            ],
            [
              20.89261,
              -34.37625
            ],
            [
              20.89491,
              -34.37559
            ],
            [
              20.89666,
              -34.37486
            ],
            [
              20.89971,
              -34.37405
            ],
            [
              20.90041,
              -34.37366
            ],
            [
              20.90369,
              -34.37265
            ],
            [
              20.90492,
              -34.37247
            ],
            [
              20.90504,
              -34.37268
            ],
            [
              20.90554,
              -34.3725
            ],
            [
              20.90585,
              -34.37261
            ],
            [
              20.90614,
              -34.37233
            ],
            [
              20.90647,
              -34.37235
            ],
            [
              20.9065,
              -34.37208
            ],
            [
              20.90686,
              -34.3722
            ],
            [
              20.90736,
              -34.37201
            ],
            [
              20.90759,
              -34.37209
            ],
            [
              20.90812,
              -34.37171
            ],
            [
              20.90846,
              -34.37188
            ],
            [
              20.90893,
              -34.37147
            ],
            [
              20.90946,
              -34.37148
            ],
            [
              20.90966,
              -34.37134
            ],
            [
              20.9099,
              -34.37148
            ],
            [
              20.91024,
              -34.37123
            ],
            [
              20.91097,
              -34.37133
            ],
            [
              20.91122,
              -34.37108
            ],
            [
              20.91219,
              -34.37102
            ],
            [
              20.91264,
              -34.37072
            ],
            [
              20.91286,
              -34.37088
            ],
            [
              20.91401,
              -34.37019
            ],
            [
              20.9146,
              -34.37017
            ],
            [
              20.91502,
              -34.36995
            ],
            [
              20.91547,
              -34.37006
            ],
            [
              20.91554,
              -34.36989
            ],
            [
              20.91602,
              -34.36986
            ],
            [
              20.91652,
              -34.36945
            ],
            [
              20.91695,
              -34.36963
            ],
            [
              20.91734,
              -34.36946
            ],
            [
              20.91758,
              -34.36963
            ],
            [
              20.9177,
              -34.36945
            ],
            [
              20.91842,
              -34.3692
            ],
            [
              20.91854,
              -34.36899
            ],
            [
              20.91939,
              -34.36914
            ],
            [
              20.92002,
              -34.36873
            ],
            [
              20.92106,
              -34.36883
            ],
            [
              20.9216,
              -34.36848
            ],
            [
              20.92201,
              -34.36866
            ],
            [
              20.92283,
              -34.36823
            ],
            [
              20.92325,
              -34.36818
            ],
            [
              20.92349,
              -34.36833
            ],
            [
              20.92428,
              -34.36794
            ],
            [
              20.92471,
              -34.36811
            ],
            [
              20.92496,
              -34.36786
            ],
            [
              20.92555,
              -34.36788
            ],
            [
              20.92615,
              -34.36747
            ],
            [
              20.92635,
              -34.36772
            ],
            [
              20.92686,
              -34.36777
            ],
            [
              20.927,
              -34.36748
            ],
            [
              20.92756,
              -34.36721
            ],
            [
              20.92821,
              -34.36746
            ],
            [
              20.92834,
              -34.36726
            ],
            [
              20.92896,
              -34.36708
            ],
            [
              20.9298,
              -34.36729
            ],
            [
              20.93021,
              -34.36698
            ],
            [
              20.9306,
              -34.36684
            ],
            [
              20.93092,
              -34.36697
            ],
            [
              20.9311,
              -34.36677
            ],
            [
              20.93167,
              -34.36661
            ],
            [
              20.93203,
              -34.36686
            ],
            [
              20.93254,
              -34.36666
            ],
            [
              20.9327,
              -34.36687
            ],
            [
              20.93331,
              -34.36634
            ],
            [
              20.93321,
              -34.36594
            ],
            [
              20.93456,
              -34.36599
            ],
            [
              20.93477,
              -34.36636
            ],
            [
              20.93507,
              -34.3663
            ],
            [
              20.93511,
              -34.36647
            ],
            [
              20.93535,
              -34.3665
            ],
            [
              20.93578,
              -34.36632
            ],
            [
              20.93604,
              -34.36653
            ],
            [
              20.93618,
              -34.36634
            ],
            [
              20.93681,
              -34.36639
            ],
            [
              20.93687,
              -34.36587
            ],
            [
              20.93718,
              -34.36584
            ],
            [
              20.93799,
              -34.36649
            ],
            [
              20.93863,
              -34.36632
            ],
            [
              20.9387,
              -34.36659
            ],
            [
              20.93885,
              -34.36662
            ],
            [
              20.93931,
              -34.36638
            ],
            [
              20.93994,
              -34.36645
            ],
            [
              20.94097,
              -34.36599
            ],
            [
              20.94148,
              -34.36594
            ],
            [
              20.94176,
              -34.36608
            ],
            [
              20.94233,
              -34.36566
            ],
            [
              20.94395,
              -34.36584
            ],
            [
              20.94395,
              -34.36628
            ],
            [
              20.94429,
              -34.36641
            ],
            [
              20.94443,
              -34.36618
            ],
            [
              20.94476,
              -34.36616
            ],
            [
              20.94494,
              -34.36637
            ],
            [
              20.94506,
              -34.36618
            ],
            [
              20.94537,
              -34.36611
            ],
            [
              20.94563,
              -34.36636
            ],
            [
              20.94588,
              -34.36637
            ],
            [
              20.94621,
              -34.36622
            ],
            [
              20.94634,
              -34.3657
            ],
            [
              20.94703,
              -34.36565
            ],
            [
              20.94739,
              -34.36599
            ],
            [
              20.94815,
              -34.36572
            ],
            [
              20.94827,
              -34.36605
            ],
            [
              20.94888,
              -34.36583
            ],
            [
              20.94927,
              -34.36605
            ],
            [
              20.94992,
              -34.3658
            ],
            [
              20.95003,
              -34.36562
            ],
            [
              20.95052,
              -34.36558
            ],
            [
              20.95085,
              -34.36568
            ],
            [
              20.95086,
              -34.36623
            ],
            [
              20.95168,
              -34.36618
            ],
            [
              20.95188,
              -34.36643
            ],
            [
              20.9524,
              -34.36578
            ],
            [
              20.95279,
              -34.36588
            ],
            [
              20.95335,
              -34.36554
            ],
            [
              20.95501,
              -34.36556
            ],
            [
              20.95903,
              -34.36514
            ],
            [
              20.96315,
              -34.36531
            ],
            [
              20.96469,
              -34.36523
            ],
            [
              20.96487,
              -34.3655
            ],
            [
              20.9653,
              -34.36534
            ],
            [
              20.96542,
              -34.36562
            ],
            [
              20.96606,
              -34.36545
            ],
            [
              20.96612,
              -34.36575
            ],
            [
              20.9665,
              -34.36537
            ],
            [
              20.96673,
              -34.36535
            ],
            [
              20.96693,
              -34.36565
            ],
            [
              20.96752,
              -34.36541
            ],
            [
              20.9677,
              -34.36566
            ],
            [
              20.96815,
              -34.3654
            ],
            [
              20.96864,
              -34.36565
            ],
            [
              20.96897,
              -34.36526
            ],
            [
              20.9727,
              -34.36515
            ],
            [
              20.9785,
              -34.36541
            ],
            [
              20.97852,
              -34.36586
            ],
            [
              20.97895,
              -34.36577
            ],
            [
              20.97913,
              -34.366
            ],
            [
              20.98029,
              -34.36565
            ],
            [
              20.98059,
              -34.36586
            ],
            [
              20.98076,
              -34.36566
            ],
            [
              20.98114,
              -34.36578
            ],
            [
              20.98181,
              -34.36564
            ],
            [
              20.98186,
              -34.36541
            ],
            [
              20.98241,
              -34.36528
            ],
            [
              20.98245,
              -34.36498
            ],
            [
              20.98311,
              -34.36491
            ],
            [
              20.98346,
              -34.3649
            ],
            [
              20.98386,
              -34.36525
            ],
            [
              20.98439,
              -34.36523
            ],
            [
              20.9847,
              -34.36548
            ],
            [
              20.98526,
              -34.36514
            ],
            [
              20.98554,
              -34.36533
            ],
            [
              20.98557,
              -34.36521
            ],
            [
              20.98638,
              -34.36514
            ],
            [
              20.98644,
              -34.36545
            ],
            [
              20.98664,
              -34.36545
            ],
            [
              20.98693,
              -34.36523
            ],
            [
              20.98748,
              -34.36514
            ],
            [
              20.98759,
              -34.36486
            ],
            [
              20.98799,
              -34.36483
            ],
            [
              20.99618,
              -34.3648
            ],
            [
              21,
              -34.36493549602808
            ],
            [
              21,
              -34
            ],
            [
              20,
              -34
            ],
            [
              20,
              -34.833621074990106
            ]
          ]
        ]
      }
    }
  ]
}