{
  "type": "FeatureCollection",
  "features": [
    {
      "type": "Feature",
      "properties": {
        "osm_id": -53296,
        "boundary": "administrative",
        "admin_level": 2,
        "parents": null,
        "name": "Montenegro",
        "local_name": "Crna Gora / Црна Гора",
        "name_en": "Montenegro",
        "all_tags": {
          "flag": "http://upload.wikimedia.org/wikipedia/commons/6/64/Flag_of_Montenegro.svg",
          "name": "Crna Gora / Црна Гора",
          "name:af": "Montenegro",
          "name:am": "ሞንቴኔግሮ",
          "name:an": "Montenegro",
          "name:ar": "الجبل الأسود",
          "name:av": "Чеэраб Меэр",
          "name:az": "Monteneqro",
          "name:ba": "Черногория",
          "name:be": "Чарнагорыя",
          "name:bg": "Черна гора",
          "name:bi": "Montenegro",
          "name:bn": "মন্টিনিগ্রো",
          "name:bo": "མོན་ཊེནིག་རོ།",
          "name:br": "Montenegro",
          "name:bs": "Crna Gora",
          "name:ca": "Montenegro",
          "name:ce": "Iаьржалаьмни",
          "name:cs": "Černá Hora",
          "name:cu": "Чрьна Гора",
          "name:cv": "Черногори",
          "name:cy": "Montenegro",
          "name:da": "Montenegro",
          "name:de": "Montenegro",
          "name:dv": "މޮންޓެނީގުރޯ",
          "name:ee": "Montenegro",
          "name:el": "Μαυροβούνιο",
          "name:en": "Montenegro",
          "name:eo": "Montenegro",
          "name:es": "Montenegro",
          "name:et": "Montenegro",
          "name:eu": "Montenegro",
          "name:fa": "مونته‌نگرو",
          "name:fi": "Montenegro",
          "name:fo": "Montenegro",
          "name:fr": "Monténégro",
          "name:fy": "Montenegro",
          "name:ga": "Montainéagró",
          "name:gd": "Am Monadh Neagrach",
          "name:gl": "Montenegro",
          "name:gn": "Montenégyro",
          "name:gu": "મોન્ટેનીગ્રો",
          "name:gv": "Montenegro",
          "name:he": "מונטנגרו",
          "name:hr": "Crna Gora",
          "name:ht": "Montenegwo",
          "name:hu": "Montenegró",
          "name:hy": "Չեռնոգորիա",
          "name:ia": "Montenegro",
          "name:id": "Montenegro",
          "name:ie": "Montenegro",
          "name:io": "Montenegro",
          "name:is": "Svartfjallaland",
          "name:it": "Montenegro",
          "name:ja": "モンテネグロ",
          "name:jv": "Montenégro",
          "name:ka": "ჩერნოგორია",
          "name:kg": "Monte Negro",
          "name:kk": "Черногория",
          "name:kl": "Montenegro",
          "name:kn": "ಮಾಂಟೆನೆಗ್ರೊ",
          "name:ko": "몬테네그로",
          "name:ku": "Montenegro",
          "name:kv": "Черногория",
          "name:kw": "Montenegro",
          "name:ky": "Монтенегро",
          "name:la": "Mons Niger",
          "name:lb": "Montenegro",
          "name:li": "Montenegro",
          "name:ln": "Montenegro",
          "name:lt": "Juodkalnija",
          "name:lv": "Melnkalne",
          "name:mi": "Monotenīkoro",
          "name:mk": "Црна Гора",
          "name:ml": "മോണ്ടെനെഗ്രൊ",
          "name:mr": "माँटेनिग्रो",
          "name:ms": "Montenegro",
          "name:mt": "Montenegro",
          "name:my": "မွန်တီနီဂရိုးနိုင်ငံ",
          "name:na": "Montenegro",
          "name:ne": "मोन्टेनेग्रो",
          "name:nl": "Montenegro",
          "name:nn": "Montenegro",
          "name:no": "Montenegro",
          "name:nv": "Dziłizhin Bikéyah",
          "name:oc": "Montenegro",
          "name:or": "ମୋଣ୍ଟେନେଗ୍ରୋ",
          "name:os": "Черногори",
          "name:pa": "ਮੋਂਟੇਨੇਗਰੋ",
          "name:pl": "Czarnogóra",
          "name:ps": "مانتېنېګرو",
          "name:pt": "Montenegro",
          "name:qu": "Yanaurqu",
          "name:ro": "Muntenegru",
          "name:ru": "Черногория",
          "name:rw": "Montenegoro",
          "name:sc": "Montenegro",
          "name:se": "Montenegro",
          "name:sh": "Crna Gora",
          "name:sk": "Čierna Hora",
          "name:sl": "Črna gora",
          "name:sm": "Montenegro",
          "name:so": "Montenegro",
          "name:sq": "Mali i Zi",
          "name:sr": "Црна Гора",
          "name:ss": "IMonthenekho",
          "name:su": "Monténégro",
          "name:sv": "Montenegro",
          "name:sw": "Montenegro",
          "name:ta": "மொண்டெனேகுரோ",
          "name:tg": "Монтенегро",
          "name:th": "ประเทศมอนเตเนโกร",
          "name:tk": "Çernogoriýa",
          "name:tl": "Montenegro",
          "name:tr": "Karadağ",
          "name:tt": "Монтенегро",
          "name:ug": "چېرنوگورىيە",
          "name:uk": "Чорногорія",
          "name:ur": "مونٹینیگرو",
          "name:uz": "Chernogoriya",
          "name:vi": "Montenegro",
          "name:vo": "Montenegrän",
          "name:wo": "Montenegro",
          "name:yi": "מאנטענעגרא",
          "name:yo": "Montenẹ́grò",
          "name:zh": "黑山 / 蒙特內哥羅",
          "boundary": "administrative",
          "int_name": "Montenegro",
          "name:ace": "Monténègrô",
          "name:als": "Montenegro",
          "name:ang": "Sweartbeorg",
          "name:arc": "ܛܘܪܐ ܐܘܟܡܐ",
          "name:arz": "مونتينيجرو",
          "name:ast": "Montenegru",
          "name:bar": "Montenegro",
          "name:bcl": "Montenegro",
          "name:bpy": "মন্টিনিগ্রো",
          "name:bxr": "Монтенегро",
          "name:ceb": "Montenegro",
          "name:ckb": "مۆنتینیگرۆ",
          "name:crh": "Montenegro",
          "name:csb": "Czôrnogóra",
          "name:diq": "Montenegro",
          "name:dsb": "Carnogórska",
          "name:ext": "Montenegru",
          "name:frp": "Montènègro",
          "name:frr": "Montenegro",
          "name:gag": "Çernogoriya",
          "name:hak": "Mùng-thi̍t-nui-kô-lò",
          "name:haw": "Montenegero",
          "name:hif": "Montenegro",
          "name:hsb": "Čorna Hora",
          "name:ilo": "Montenegro",
          "name:jbo": "tsrnagoras",
          "name:kaa": "Shernogoriya",
          "name:kbd": "КъущхьэфӀыцӀэ",
          "name:koi": "Цӧрнагора",
          "name:krc": "Черногория",
          "name:lad": "Montenegro",
          "name:lij": "Monteneigro",
          "name:lmo": "Muntnegher",
          "name:ltg": "Malnkalneja",
          "name:mhr": "Шемкурык Эл",
          "name:nah": "Tlīltepēc",
          "name:nan": "O͘-soaⁿ Kiōng-hô-kok",
          "name:nap": "Montenegro",
          "name:nds": "Montenegro",
          "name:nov": "Montenegro",
          "name:nrm": "Crna Gora",
          "name:pap": "Montenegro",
          "name:pcd": "Noérmont",
          "name:pih": "Montiniegrow",
          "name:pms": "Montnèigr",
          "name:pnb": "مونٹی نیگرو",
          "name:pnt": "Μαυροβούνιον",
          "name:sah": "Монтенегро",
          "name:scn": "Montenegru",
          "name:sco": "Montenegro",
          "name:smn": "Montenegro",
          "name:sms": "Montenegro",
          "name:stq": "Montenegro",
          "name:szl": "Czŏrnŏ Gōra",
          "name:tzl": "Muntnegreu",
          "name:vec": "Montenégro",
          "name:vep": "Mustmägi",
          "name:vls": "Montenegro",
          "name:vro": "Montõnegro",
          "name:war": "Montenegro",
          "name:wuu": "黑山共和国",
          "name:xal": "Хар Уулин Орн",
          "name:xmf": "ჩერნოგორია",
          "name:yue": "黑山",
          "name:zea": "Montenehro",
          "timezone": "Europe/Podgorica",
          "way_area": "1.77198",
          "wikidata": "Q236",
          "ISO3166-1": "ME",
          "wikipedia": "en:Montenegro",
          "admin_level": "2",
          "name:nds-nl": "Montenegro",
          "name:bat-smg": "Joudkalnėjė",
          "name:roa-rup": "Montenegro",
          "name:sr-Latn": "Crna Gora",
          "name:zh-Hans": "黑山",
          "name:zh-Hant": "蒙特內哥羅",
          "name:roa-tara": "Mondegnure",
          "official_name": "Crna Gora",
          "name:be-tarask": "Чарнагорыя",
          "ISO3166-1:alpha2": "ME",
          "ISO3166-1:alpha3": "MNE",
          "ISO3166-1:numeric": "499"
        }
      },
      "geometry": {
        "type": "Polygon",
        "coordinates": [
          [
            [
              20,
              43
            ],
            [
              20.067075170138928,
              43
            ],
            [
              20.0657978,
              43.001295
            ],
            [
              20.0655812,
              43.0047766
            ],
            [
              20.0639411,
              43.006826
            ],
            [
              20.0576988,
              43.0081346
            ],
            [
              20.0541294,
              43.009458
            ],
            [
              20.0540942,
              43.0112811
            ],
            [
              20.0565195,
              43.0165295
            ],
            [
              20.0563575,
              43.0176515
            ],
            [
              20.0493337,
              43.0219869
            ],
            [
              20.0497591,
              43.0225919
            ],
            [
              20.0494523,
              43.0232339
            ],
            [
              20.0479263,
              43.0246174
            ],
            [
              20.0473699,
              43.0264705
            ],
            [
              20.0459662,
              43.0274156
            ],
            [
              20.0446647,
              43.0286165
            ],
            [
              20.0435872,
              43.0285725
            ],
            [
              20.0424564,
              43.0290156
            ],
            [
              20.0377131,
              43.0325789
            ],
            [
              20.0286825,
              43.0373423
            ],
            [
              20.0121818,
              43.0425319
            ],
            [
              20,
              43.04817126189616
            ],
            [
              20,
              43
            ]
          ]
        ]
      }
    },
    {
      "type": "Feature",
      "properties": {
        "osm_id": -1741311,
        "boundary": "administrative",
        "admin_level": 2,
        "parents": null,
        "name": "Serbia",
        "local_name": "Србија",
        "name_en": "Serbia",
        "all_tags": {
          "flag": "https://upload.wikimedia.org/wikipedia/commons/f/ff/Flag_of_Serbia.svg",
          "name": "Србија",
          "name:af": "Serwië",
          "name:am": "ሰርቢያ",
          "name:an": "Serbia",
          "name:ar": "صربيا",
          "name:ay": "Sirwiya",
          "name:az": "Serbiya",
          "name:ba": "Сербия",
          "name:be": "Сербія",
          "name:bg": "Сърбия",
          "name:bi": "Serbia",
          "name:bn": "সার্বিয়া",
          "name:bo": "སེར་བྷི་ཡ།",
          "name:br": "Serbia",
          "name:bs": "Srbija",
          "name:ca": "Sèrbia",
          "name:ce": "Серби",
          "name:co": "Serbia",
          "name:cs": "Srbsko",
          "name:cu": "Срьбїꙗ",
          "name:cv": "Серби",
          "name:cy": "Serbia",
          "name:da": "Serbien",
          "name:de": "Serbien",
          "name:dv": "ސާބިއާ",
          "name:ee": "Serbia",
          "name:el": "Σερβία",
          "name:en": "Serbia",
          "name:eo": "Serbio",
          "name:es": "Serbia",
          "name:et": "Serbia",
          "name:eu": "Serbia",
          "name:fa": "صربستان",
          "name:fi": "Serbia",
          "name:fo": "Serbia",
          "name:fr": "Serbie",
          "name:fy": "Servje",
          "name:ga": "An tSeirbia",
          "name:gd": "An t-Sèirb",
          "name:gl": "Serbia",
          "name:gn": "Sevia",
          "name:gv": "Yn Serb",
          "name:he": "סרביה",
          "name:hi": "सर्बिया",
          "name:hr": "Srbija",
          "name:ht": "Sèbi",
          "name:hu": "Szerbia",
          "name:hy": "Սերբիա",
          "name:ia": "Serbia",
          "name:id": "Serbia",
          "name:ie": "Serbia",
          "name:io": "Serbia",
          "name:is": "Serbía",
          "name:it": "Serbia",
          "name:ja": "セルビア",
          "name:jv": "Serbia",
          "name:ka": "სერბეთი",
          "name:kg": "Serbie",
          "name:kk": "Сербия",
          "name:kl": "Serbia",
          "name:ko": "세르비아",
          "name:ku": "Serbistan",
          "name:kv": "Сербия",
          "name:kw": "Serbi",
          "name:ky": "Сербия",
          "name:la": "Serbia",
          "name:lb": "Serbien",
          "name:li": "Servië",
          "name:ln": "Serbia",
          "name:lt": "Serbija",
          "name:lv": "Serbija",
          "name:mg": "Serbia",
          "name:mi": "Serbia",
          "name:mk": "Србија",
          "name:ml": "സെർബിയ",
          "name:mn": "Серби",
          "name:mr": "सर्बिया",
          "name:ms": "Serbia",
          "name:mt": "Serbja",
          "name:my": "ဆားဘီးယားနိုင်ငံ",
          "name:na": "Terbiya",
          "name:ne": "सर्बिया",
          "name:nl": "Servië",
          "name:nn": "Serbia",
          "name:no": "Serbia",
          "name:oc": "Serbia",
          "name:or": "ସର୍ବିଆ",
          "name:os": "Серби",
          "name:pa": "ਸਰਬੀਆ",
          "name:pl": "Serbia",
          "name:ps": "سربيا",
          "name:pt": "Sérvia",
          "name:qu": "Sirbya",
          "name:rm": "Serbia",
          "name:ro": "Serbia",
          "name:ru": "Сербия",
          "name:rw": "Seribiya",
          "name:sa": "सर्बिया",
          "name:sc": "Sèrbia",
          "name:se": "Serbia",
          "name:sh": "Srbija",
          "name:sk": "Srbsko",
          "name:sl": "Srbija",
          "name:sm": "Serbia",
          "name:so": "Serbia",
          "name:sq": "Serbia",
          "name:sr": "Србија",
          "name:ss": "ISebhiya",
          "name:st": "Serbia",
          "name:su": "Sérbia",
          "name:sv": "Serbien",
          "name:sw": "Serbia",
          "name:ta": "செர்பியா",
          "name:te": "సెర్బియా",
          "name:tg": "Сербия",
          "name:th": "ประเทศเซอร์เบีย",
          "name:tk": "Serbiýa",
          "name:tl": "Serbiya",
          "name:tr": "Sırbistan",
          "name:tt": "Сербия",
          "name:tw": "Serbia",
          "name:ty": "Terepia",
          "name:ug": "Sérbiye",
          "name:uk": "Сербія",
          "name:ur": "سروبا",
          "name:uz": "Serbiya",
          "name:vi": "Serbia",
          "name:vo": "Särbän",
          "name:wo": "Seerbi",
          "name:yi": "סערביע",
          "name:yo": "Sérbíà",
          "name:zh": "塞爾維亞",
          "name:zu": "ISerbiya",
          "boundary": "administrative",
          "int_name": "Serbia",
          "name:ace": "Sèrbia",
          "name:als": "Serbien",
          "name:ang": "Serbia",
          "name:arc": "ܣܪܒܝܐ",
          "name:arz": "صيربيا",
          "name:ast": "Serbia",
          "name:bar": "Serbien",
          "name:bcl": "Serbya",
          "name:bpy": "সার্বিয়া",
          "name:bxr": "Серби",
          "name:ceb": "Serbya",
          "name:chr": "ᏒᏈᏯ",
          "name:chy": "Serbia",
          "name:ckb": "سربیا",
          "name:crh": "Sırbistan",
          "name:csb": "Serbskô",
          "name:diq": "Sırbıstan",
          "name:dsb": "Serbiska",
          "name:ext": "Sérbia",
          "name:frp": "Sèrbie",
          "name:frr": "Serbien",
          "name:gag": "Serbiya",
          "name:haw": "Seripia",
          "name:hif": "Serbia",
          "name:hsb": "Serbiska",
          "name:ilo": "Serbia",
          "name:jbo": "serbias",
          "name:kaa": "Serbiya",
          "name:kab": "Serbi",
          "name:kbd": "Сербиэ",
          "name:koi": "Сӧрбия",
          "name:krc": "Сербия",
          "name:ksh": "Serbien",
          "name:lad": "Serbia",
          "name:lij": "Serbia",
          "name:lmo": "Serbia",
          "name:ltg": "Serbeja",
          "name:lzh": "塞爾維亞",
          "name:mdf": "Сербие",
          "name:mhr": "Сербий",
          "name:nah": "Serbia",
          "name:nan": "Srbija",
          "name:nap": "Serbia",
          "name:nds": "Serbien",
          "name:nov": "Serbia",
          "name:nrm": "Sèrbie",
          "name:pap": "Serbia",
          "name:pcd": "Serbie",
          "name:pih": "Serbya",
          "name:pms": "Serbia",
          "name:pnb": "سربیا",
          "name:pnt": "Σερβία",
          "name:rue": "Сербія",
          "name:sah": "Сербия",
          "name:scn": "Serbia",
          "name:sco": "Serbie",
          "name:smn": "Serbia",
          "name:sms": "Serbia",
          "name:stq": "Serbien",
          "name:szl": "Syrbijŏ",
          "name:tpi": "Sebia",
          "name:tzl": "Siarvia",
          "name:vec": "Servia",
          "name:vep": "Serbii",
          "name:vls": "Servië",
          "name:vro": "Serbiä",
          "name:war": "Serbia",
          "name:wuu": "塞尔维亚",
          "name:xal": "Серпудин Орн",
          "name:xmf": "სერბეთი",
          "name:yue": "塞爾維亞",
          "name:zea": "Servië",
          "timezone": "Europe/Belgrade",
          "way_area": "8.74158",
          "wikidata": "Q403",
          "ISO3166-1": "RS",
          "headlight": "required",
          "land_area": "administrative",
          "wikipedia": "sr:Србија",
          "population": "6647003",
          "admin_level": "2",
          "alt_name:eo": "Serbujo",
          "alt_name:ur": "سرویا;سرویہ",
          "name:nds-nl": "Servië",
          "driving_side": "right",
          "name:bat-smg": "Serbėjė",
          "name:cbk-zam": "Serbia",
          "name:roa-rup": "Sărghia",
          "name:sr-Latn": "Srbija",
          "name:zh-Hans": "塞尔维亚",
          "name:zh-Hant": "塞爾維亞",
          "name:roa-tara": "Serbie",
          "official_name": "Република Србија",
          "ref:RS:drzave": "RS",
          "name:be-tarask": "Сэрбія",
          "according_to:CN": "no",
          "according_to:ES": "no",
          "according_to:IN": "no",
          "according_to:RS": "no",
          "according_to:RU": "no",
          "according_to:UA": "no",
          "according_to:XK": "yes",
          "population:date": "2022",
          "ISO3166-1:alpha2": "RS",
          "ISO3166-1:alpha3": "SRB",
          "default_language": "sr",
          "official_name:cs": "Srbská republika",
          "official_name:de": "Republik Serbien",
          "official_name:el": "Δημοκρατία της Σερβίας",
          "official_name:en": "Republic of Serbia",
          "official_name:eo": "Respubliko Serbio",
          "official_name:es": "República de Serbia",
          "official_name:fr": "République de Serbie",
          "official_name:ru": "Республика Сербия",
          "official_name:sr": "Република Србија",
          "ISO3166-1:numeric": "688",
          "official_name:sr-Latn": "Republika Srbija",
          "population:census:2022": "6647003"
        }
      },
      "geometry": {
        "type": "Polygon",
        "coordinates": [
          [
            [
              20,
              43.04817126189616
            ],
            [
              20.0121818,
              43.0425319
            ],
            [
              20.0286825,
              43.0373423
            ],
            [
              20.0377131,
              43.0325789
            ],
            [
              20.0424564,
              43.0290156
            ],
            [
              20.0435872,
              43.0285725
            ],
            [
              20.0446647,
              43.0286165
            ],
            [
              20.0459662,
              43.0274156
            ],
            [
              20.0473699,
              43.0264705
            ],
            [
              20.0479263,
              43.0246174
            ],
            [
              20.0494523,
              43.0232339
            ],
            [
              20.0497591,
              43.0225919
            ],
            [
              20.0493337,
              43.0219869
            ],
            [
              20.0563575,
              43.0176515
            ],
            [
              20.0565195,
              43.0165295
            ],
            [
              20.0540942,
              43.0112811
            ],
            [
              20.0541294,
              43.009458
            ],
            [
              20.0576988,
              43.0081346
            ],
            [
              20.0639411,
              43.006826
            ],
            [
              20.0655812,
              43.0047766
            ],
            [
              20.0657978,
              43.001295
            ],
            [
              20.067075170138928,
              43
            ],
            [
              20.57584357319707,
              43
            ],
            [
              20.5760345,
              43.0000221
            ],
            [
              20.5812203,
              43.001955
            ],
            [
              20.5814419,
              43.005104
            ],
            [
              20.5819143,
              43.0087152
            ],
            [
              20.5799896,
              43.0118337
            ],
            [
              20.5813773,
              43.0127517
            ],
            [
              20.5847188,
              43.013257
            ],
            [
              20.5904481,
              43.0145936
            ],
            [
              20.5908239,
              43.0170347
            ],
            [
              20.5997626,
              43.0156351
            ],
            [
              20.6031288,
              43.0161346
            ],
            [
              20.6065969,
              43.0173137
            ],
            [
              20.6072081,
              43.0172868
            ],
            [
              20.6076632,
              43.0172184
            ],
            [
              20.6096255,
              43.0154087
            ],
            [
              20.6101818,
              43.0153519
            ],
            [
              20.6107766,
              43.0155517
            ],
            [
              20.6120598,
              43.0156354
            ],
            [
              20.6136274,
              43.0154335
            ],
            [
              20.6138158,
              43.0160479
            ],
            [
              20.6142407,
              43.0161153
            ],
            [
              20.6147192,
              43.0167592
            ],
            [
              20.6153993,
              43.0172297
            ],
            [
              20.6176541,
              43.0175521
            ],
            [
              20.6189822,
              43.01685
            ],
            [
              20.6184614,
              43.0156534
            ],
            [
              20.6185451,
              43.0132922
            ],
            [
              20.6180787,
              43.0124581
            ],
            [
              20.6180668,
              43.0120304
            ],
            [
              20.6177532,
              43.0117902
            ],
            [
              20.6178971,
              43.0106039
            ],
            [
              20.6182274,
              43.0104887
            ],
            [
              20.6180414,
              43.0102382
            ],
            [
              20.6181676,
              43.0098591
            ],
            [
              20.6180433,
              43.0096261
            ],
            [
              20.6175021,
              43.0094052
            ],
            [
              20.6169011,
              43.0085332
            ],
            [
              20.6175292,
              43.0079553
            ],
            [
              20.617119,
              43.0077655
            ],
            [
              20.617375,
              43.0069952
            ],
            [
              20.6168561,
              43.0066928
            ],
            [
              20.6170636,
              43.0064089
            ],
            [
              20.6151386,
              43.0047159
            ],
            [
              20.6173375,
              43.0030647
            ],
            [
              20.6180949,
              43.0033385
            ],
            [
              20.619712,
              43.0025427
            ],
            [
              20.6237371,
              43.0039917
            ],
            [
              20.6268823,
              43.0059822
            ],
            [
              20.6271738,
              43.0059525
            ],
            [
              20.6272216,
              43.0067772
            ],
            [
              20.6281246,
              43.0080069
            ],
            [
              20.6280423,
              43.0083769
            ],
            [
              20.6289574,
              43.0085202
            ],
            [
              20.6296746,
              43.0088659
            ],
            [
              20.6298641,
              43.0091231
            ],
            [
              20.6332428,
              43.0086875
            ],
            [
              20.6337636,
              43.0083696
            ],
            [
              20.6345222,
              43.0085084
            ],
            [
              20.6356362,
              43.0079559
            ],
            [
              20.6368564,
              43.0079303
            ],
            [
              20.6388767,
              43.0068259
            ],
            [
              20.6405028,
              43.0068296
            ],
            [
              20.6410229,
              43.0091513
            ],
            [
              20.6408327,
              43.0099166
            ],
            [
              20.6411253,
              43.0103425
            ],
            [
              20.639914,
              43.0116379
            ],
            [
              20.638685,
              43.0122221
            ],
            [
              20.6380978,
              43.0126801
            ],
            [
              20.6379776,
              43.0133119
            ],
            [
              20.6372625,
              43.0144589
            ],
            [
              20.6371712,
              43.0154316
            ],
            [
              20.6368625,
              43.0163688
            ],
            [
              20.6376893,
              43.0165237
            ],
            [
              20.6380865,
              43.0168083
            ],
            [
              20.6381036,
              43.0169968
            ],
            [
              20.6388371,
              43.0171797
            ],
            [
              20.6403081,
              43.0185127
            ],
            [
              20.6403404,
              43.018919
            ],
            [
              20.6408917,
              43.0199418
            ],
            [
              20.6408936,
              43.0221389
            ],
            [
              20.6413768,
              43.0226736
            ],
            [
              20.6423759,
              43.022825
            ],
            [
              20.6427423,
              43.0230747
            ],
            [
              20.6443185,
              43.0232827
            ],
            [
              20.6452135,
              43.0238012
            ],
            [
              20.6463871,
              43.0233638
            ],
            [
              20.6481572,
              43.0234159
            ],
            [
              20.6489842,
              43.0224387
            ],
            [
              20.6501517,
              43.0224502
            ],
            [
              20.6509977,
              43.0220971
            ],
            [
              20.65113,
              43.0258561
            ],
            [
              20.6504636,
              43.0281517
            ],
            [
              20.6504803,
              43.0288777
            ],
            [
              20.6511877,
              43.0298241
            ],
            [
              20.6518442,
              43.0302415
            ],
            [
              20.6522018,
              43.0309098
            ],
            [
              20.6523275,
              43.0314022
            ],
            [
              20.6520286,
              43.0329515
            ],
            [
              20.652157,
              43.0334799
            ],
            [
              20.654999,
              43.0348442
            ],
            [
              20.658618,
              43.0345132
            ],
            [
              20.6596841,
              43.0345282
            ],
            [
              20.6603463,
              43.0347213
            ],
            [
              20.663427,
              43.0341961
            ],
            [
              20.6650295,
              43.0347361
            ],
            [
              20.6655472,
              43.0347613
            ],
            [
              20.6666157,
              43.0353341
            ],
            [
              20.6677501,
              43.0350169
            ],
            [
              20.6686459,
              43.0352647
            ],
            [
              20.6692508,
              43.0351214
            ],
            [
              20.6694797,
              43.0353489
            ],
            [
              20.6688597,
              43.035636
            ],
            [
              20.6707794,
              43.0380719
            ],
            [
              20.6713835,
              43.0390837
            ],
            [
              20.6711318,
              43.0424023
            ],
            [
              20.6712422,
              43.0442489
            ],
            [
              20.6709839,
              43.0461591
            ],
            [
              20.6703065,
              43.0470566
            ],
            [
              20.6704628,
              43.0474606
            ],
            [
              20.6701166,
              43.0479687
            ],
            [
              20.6686887,
              43.0486359
            ],
            [
              20.6665565,
              43.049193
            ],
            [
              20.6656378,
              43.04916
            ],
            [
              20.665459,
              43.0496369
            ],
            [
              20.6657042,
              43.050034
            ],
            [
              20.6658754,
              43.0498791
            ],
            [
              20.6665942,
              43.0509982
            ],
            [
              20.6675934,
              43.0531388
            ],
            [
              20.6705226,
              43.0555657
            ],
            [
              20.6703879,
              43.05822
            ],
            [
              20.6688581,
              43.0590688
            ],
            [
              20.6691505,
              43.0593355
            ],
            [
              20.669748,
              43.0616325
            ],
            [
              20.6697449,
              43.0618828
            ],
            [
              20.6691883,
              43.0625655
            ],
            [
              20.668958,
              43.0635259
            ],
            [
              20.669135,
              43.0643869
            ],
            [
              20.6690976,
              43.0652751
            ],
            [
              20.6685064,
              43.0665097
            ],
            [
              20.6676721,
              43.0667119
            ],
            [
              20.6661361,
              43.0656257
            ],
            [
              20.6635327,
              43.0665932
            ],
            [
              20.6618978,
              43.0667547
            ],
            [
              20.6612137,
              43.067661
            ],
            [
              20.660428,
              43.0683325
            ],
            [
              20.6586587,
              43.0691151
            ],
            [
              20.657699,
              43.0699654
            ],
            [
              20.6578362,
              43.0705207
            ],
            [
              20.6571831,
              43.0711688
            ],
            [
              20.6562388,
              43.0736977
            ],
            [
              20.6578057,
              43.0745216
            ],
            [
              20.6590448,
              43.0765368
            ],
            [
              20.659897,
              43.0766967
            ],
            [
              20.6621481,
              43.0784089
            ],
            [
              20.6629303,
              43.0776818
            ],
            [
              20.6636508,
              43.0773913
            ],
            [
              20.6644813,
              43.0772956
            ],
            [
              20.6654527,
              43.0778123
            ],
            [
              20.6669241,
              43.0774038
            ],
            [
              20.6677581,
              43.0773925
            ],
            [
              20.6700478,
              43.0778005
            ],
            [
              20.6716709,
              43.0783703
            ],
            [
              20.6727177,
              43.0783788
            ],
            [
              20.6734551,
              43.0788286
            ],
            [
              20.6762276,
              43.079755
            ],
            [
              20.6790827,
              43.0798494
            ],
            [
              20.6795689,
              43.0800153
            ],
            [
              20.6817103,
              43.081337
            ],
            [
              20.6838657,
              43.081897
            ],
            [
              20.6846259,
              43.0827845
            ],
            [
              20.6854458,
              43.0832762
            ],
            [
              20.6860394,
              43.0835521
            ],
            [
              20.6872938,
              43.0836626
            ],
            [
              20.6876961,
              43.0839567
            ],
            [
              20.6880124,
              43.0847062
            ],
            [
              20.6887036,
              43.0850998
            ],
            [
              20.6891082,
              43.0859963
            ],
            [
              20.6896922,
              43.0867125
            ],
            [
              20.6896487,
              43.0876601
            ],
            [
              20.6900105,
              43.0885214
            ],
            [
              20.690773,
              43.089363
            ],
            [
              20.6916714,
              43.0900508
            ],
            [
              20.6915816,
              43.0903146
            ],
            [
              20.691731,
              43.0907853
            ],
            [
              20.6926447,
              43.0907117
            ],
            [
              20.6922622,
              43.0924932
            ],
            [
              20.6923896,
              43.0933566
            ],
            [
              20.6932425,
              43.0948194
            ],
            [
              20.6918649,
              43.0963523
            ],
            [
              20.6916874,
              43.0974643
            ],
            [
              20.6905857,
              43.0982532
            ],
            [
              20.6896666,
              43.0997211
            ],
            [
              20.6882479,
              43.1004956
            ],
            [
              20.6873567,
              43.1025399
            ],
            [
              20.6877377,
              43.1029897
            ],
            [
              20.6898772,
              43.104166
            ],
            [
              20.6900801,
              43.1046976
            ],
            [
              20.6907733,
              43.1049886
            ],
            [
              20.6916868,
              43.104978
            ],
            [
              20.6921186,
              43.1053316
            ],
            [
              20.6926761,
              43.1053456
            ],
            [
              20.6930829,
              43.1055498
            ],
            [
              20.6929366,
              43.1074772
            ],
            [
              20.6926019,
              43.1079794
            ],
            [
              20.6927658,
              43.1086016
            ],
            [
              20.6927119,
              43.1092846
            ],
            [
              20.6920492,
              43.1100959
            ],
            [
              20.6908192,
              43.1107243
            ],
            [
              20.6906165,
              43.1110838
            ],
            [
              20.6905676,
              43.111764
            ],
            [
              20.6893154,
              43.1126559
            ],
            [
              20.6890108,
              43.1138347
            ],
            [
              20.6892807,
              43.1142524
            ],
            [
              20.6892476,
              43.1147474
            ],
            [
              20.6881578,
              43.115634
            ],
            [
              20.6882633,
              43.1162382
            ],
            [
              20.6881004,
              43.1165006
            ],
            [
              20.6869865,
              43.1172414
            ],
            [
              20.6863545,
              43.118998
            ],
            [
              20.6864225,
              43.1202826
            ],
            [
              20.6860167,
              43.121441
            ],
            [
              20.6855492,
              43.1218646
            ],
            [
              20.6853605,
              43.1222148
            ],
            [
              20.6854467,
              43.1224939
            ],
            [
              20.6850538,
              43.1230363
            ],
            [
              20.683481,
              43.1237736
            ],
            [
              20.6828885,
              43.1237909
            ],
            [
              20.6810559,
              43.1250583
            ],
            [
              20.6792061,
              43.1257815
            ],
            [
              20.6780146,
              43.1259522
            ],
            [
              20.6774168,
              43.1262622
            ],
            [
              20.6769003,
              43.1261611
            ],
            [
              20.6761022,
              43.1264055
            ],
            [
              20.6747446,
              43.1264479
            ],
            [
              20.6739691,
              43.1267416
            ],
            [
              20.6734313,
              43.1267083
            ],
            [
              20.673148,
              43.1286312
            ],
            [
              20.6732756,
              43.1303511
            ],
            [
              20.6730975,
              43.1310698
            ],
            [
              20.6727808,
              43.1314757
            ],
            [
              20.6710638,
              43.1321586
            ],
            [
              20.670446,
              43.1327525
            ],
            [
              20.6668059,
              43.1340103
            ],
            [
              20.6656718,
              43.1352791
            ],
            [
              20.6630664,
              43.1357202
            ],
            [
              20.6576342,
              43.1379969
            ],
            [
              20.6578184,
              43.1401965
            ],
            [
              20.6589896,
              43.140704
            ],
            [
              20.6592643,
              43.141182
            ],
            [
              20.6600726,
              43.1419322
            ],
            [
              20.6607515,
              43.1429249
            ],
            [
              20.6615111,
              43.1435708
            ],
            [
              20.6620431,
              43.1442854
            ],
            [
              20.661913,
              43.1445637
            ],
            [
              20.6613048,
              43.1448987
            ],
            [
              20.6608836,
              43.144947
            ],
            [
              20.6610383,
              43.1453324
            ],
            [
              20.6600153,
              43.1467041
            ],
            [
              20.6599751,
              43.147625
            ],
            [
              20.6595307,
              43.1484009
            ],
            [
              20.6587266,
              43.1489194
            ],
            [
              20.6581469,
              43.149783
            ],
            [
              20.6575183,
              43.1501308
            ],
            [
              20.6575527,
              43.1503695
            ],
            [
              20.6578897,
              43.1506534
            ],
            [
              20.6581081,
              43.1524274
            ],
            [
              20.6585219,
              43.1526621
            ],
            [
              20.6587322,
              43.1531389
            ],
            [
              20.6585791,
              43.1537873
            ],
            [
              20.658338,
              43.1539911
            ],
            [
              20.6574266,
              43.1541519
            ],
            [
              20.6557338,
              43.154077
            ],
            [
              20.6548606,
              43.1544476
            ],
            [
              20.6544771,
              43.154429
            ],
            [
              20.6533366,
              43.1552716
            ],
            [
              20.6519505,
              43.1559966
            ],
            [
              20.6516669,
              43.1564106
            ],
            [
              20.6521482,
              43.1577532
            ],
            [
              20.6485452,
              43.1590149
            ],
            [
              20.6465334,
              43.158468
            ],
            [
              20.6450763,
              43.1598242
            ],
            [
              20.6409109,
              43.1622817
            ],
            [
              20.6333102,
              43.163907
            ],
            [
              20.6306176,
              43.1639384
            ],
            [
              20.6292506,
              43.163543
            ],
            [
              20.6291515,
              43.1637729
            ],
            [
              20.6285456,
              43.1637083
            ],
            [
              20.6269371,
              43.1647217
            ],
            [
              20.6265617,
              43.1653204
            ],
            [
              20.6253237,
              43.1652556
            ],
            [
              20.624728,
              43.1653974
            ],
            [
              20.6231632,
              43.1671268
            ],
            [
              20.6217898,
              43.1680638
            ],
            [
              20.620183,
              43.1682627
            ],
            [
              20.6185999,
              43.1686851
            ],
            [
              20.6166487,
              43.1694618
            ],
            [
              20.6140961,
              43.1695325
            ],
            [
              20.6133925,
              43.169266
            ],
            [
              20.6116212,
              43.1693998
            ],
            [
              20.6112295,
              43.1697259
            ],
            [
              20.6113155,
              43.1704536
            ],
            [
              20.6103411,
              43.1716538
            ],
            [
              20.6099539,
              43.1730744
            ],
            [
              20.6096127,
              43.1736829
            ],
            [
              20.6081872,
              43.174455
            ],
            [
              20.6078127,
              43.1751909
            ],
            [
              20.6084945,
              43.1758805
            ],
            [
              20.6086475,
              43.1771812
            ],
            [
              20.6094893,
              43.177255
            ],
            [
              20.6117698,
              43.1782398
            ],
            [
              20.6121408,
              43.178742
            ],
            [
              20.6127632,
              43.1790245
            ],
            [
              20.6138229,
              43.1798815
            ],
            [
              20.6140246,
              43.1807739
            ],
            [
              20.613147,
              43.1813486
            ],
            [
              20.6131859,
              43.1819315
            ],
            [
              20.6135441,
              43.1823298
            ],
            [
              20.6132483,
              43.1835025
            ],
            [
              20.6124658,
              43.1838221
            ],
            [
              20.6119187,
              43.1849471
            ],
            [
              20.6112963,
              43.1857302
            ],
            [
              20.6113701,
              43.1861135
            ],
            [
              20.6116677,
              43.1863752
            ],
            [
              20.611843,
              43.1868448
            ],
            [
              20.6108406,
              43.1890329
            ],
            [
              20.610224,
              43.1895392
            ],
            [
              20.6099105,
              43.1900757
            ],
            [
              20.6095047,
              43.1914461
            ],
            [
              20.6094623,
              43.1921215
            ],
            [
              20.6089845,
              43.192462
            ],
            [
              20.6082352,
              43.1926343
            ],
            [
              20.6078775,
              43.1934826
            ],
            [
              20.6074114,
              43.1940262
            ],
            [
              20.606277,
              43.1942971
            ],
            [
              20.6056094,
              43.1950093
            ],
            [
              20.604804,
              43.1952376
            ],
            [
              20.6025046,
              43.1970766
            ],
            [
              20.6017442,
              43.1981177
            ],
            [
              20.60176,
              43.1987604
            ],
            [
              20.6015299,
              43.1993095
            ],
            [
              20.6005398,
              43.2005147
            ],
            [
              20.5995985,
              43.2009613
            ],
            [
              20.5970841,
              43.201725
            ],
            [
              20.5953231,
              43.2037327
            ],
            [
              20.5938437,
              43.2050861
            ],
            [
              20.5948462,
              43.2067148
            ],
            [
              20.5967823,
              43.2073488
            ],
            [
              20.597515,
              43.2079055
            ],
            [
              20.5977141,
              43.2081806
            ],
            [
              20.5977473,
              43.2088976
            ],
            [
              20.5982034,
              43.2096933
            ],
            [
              20.5987668,
              43.2099509
            ],
            [
              20.5993297,
              43.2099982
            ],
            [
              20.6000748,
              43.2103659
            ],
            [
              20.6005244,
              43.2108115
            ],
            [
              20.601777,
              43.2103795
            ],
            [
              20.6034162,
              43.2086823
            ],
            [
              20.6038831,
              43.2079998
            ],
            [
              20.6040856,
              43.2069999
            ],
            [
              20.6050881,
              43.2070159
            ],
            [
              20.6059677,
              43.2073685
            ],
            [
              20.6065343,
              43.2073911
            ],
            [
              20.6087401,
              43.2056079
            ],
            [
              20.6097684,
              43.2050641
            ],
            [
              20.6132541,
              43.2054623
            ],
            [
              20.6138543,
              43.2053233
            ],
            [
              20.6148783,
              43.2043754
            ],
            [
              20.615291,
              43.2043105
            ],
            [
              20.6183888,
              43.2051199
            ],
            [
              20.619593,
              43.2052563
            ],
            [
              20.6202343,
              43.2057167
            ],
            [
              20.6208669,
              43.2064873
            ],
            [
              20.6224724,
              43.2072572
            ],
            [
              20.6243149,
              43.2073787
            ],
            [
              20.6252093,
              43.2078364
            ],
            [
              20.6265422,
              43.2079397
            ],
            [
              20.6279255,
              43.208476
            ],
            [
              20.6297819,
              43.2084718
            ],
            [
              20.6316103,
              43.2090001
            ],
            [
              20.6323614,
              43.2094393
            ],
            [
              20.633248,
              43.2096787
            ],
            [
              20.6339404,
              43.2093614
            ],
            [
              20.6339539,
              43.2085169
            ],
            [
              20.6342269,
              43.2081219
            ],
            [
              20.6353908,
              43.2072038
            ],
            [
              20.6372656,
              43.2067155
            ],
            [
              20.6387367,
              43.2071
            ],
            [
              20.6394034,
              43.2070987
            ],
            [
              20.6403525,
              43.2067407
            ],
            [
              20.6417247,
              43.2067078
            ],
            [
              20.6447056,
              43.2074351
            ],
            [
              20.6450983,
              43.2081072
            ],
            [
              20.6457905,
              43.2087764
            ],
            [
              20.6468364,
              43.2093055
            ],
            [
              20.6495672,
              43.2090332
            ],
            [
              20.6509604,
              43.2093323
            ],
            [
              20.6519812,
              43.210308
            ],
            [
              20.6524888,
              43.211085
            ],
            [
              20.6560459,
              43.2090552
            ],
            [
              20.6635349,
              43.2092912
            ],
            [
              20.6644012,
              43.2094355
            ],
            [
              20.6648154,
              43.2096983
            ],
            [
              20.6659186,
              43.2090959
            ],
            [
              20.6665821,
              43.2094082
            ],
            [
              20.6678402,
              43.2093291
            ],
            [
              20.6688396,
              43.2096361
            ],
            [
              20.6700225,
              43.2093036
            ],
            [
              20.6715714,
              43.2086182
            ],
            [
              20.6754784,
              43.2098166
            ],
            [
              20.6839357,
              43.2129841
            ],
            [
              20.6856831,
              43.2133495
            ],
            [
              20.6866175,
              43.2132662
            ],
            [
              20.6874737,
              43.213546
            ],
            [
              20.6880555,
              43.2140206
            ],
            [
              20.688698,
              43.2148785
            ],
            [
              20.6878191,
              43.2155865
            ],
            [
              20.6877856,
              43.2166952
            ],
            [
              20.6880852,
              43.2170408
            ],
            [
              20.688333,
              43.2180268
            ],
            [
              20.6891974,
              43.2189378
            ],
            [
              20.6920402,
              43.2204936
            ],
            [
              20.6941953,
              43.2208029
            ],
            [
              20.6949451,
              43.2212528
            ],
            [
              20.6958809,
              43.2222653
            ],
            [
              20.6965815,
              43.2223505
            ],
            [
              20.6971597,
              43.2222338
            ],
            [
              20.6983004,
              43.2234132
            ],
            [
              20.6986561,
              43.2235733
            ],
            [
              20.6986892,
              43.2239557
            ],
            [
              20.6990374,
              43.2243444
            ],
            [
              20.6993478,
              43.2251828
            ],
            [
              20.7038214,
              43.2261323
            ],
            [
              20.7080445,
              43.2265296
            ],
            [
              20.7094708,
              43.2272177
            ],
            [
              20.7097727,
              43.2275453
            ],
            [
              20.7094562,
              43.2282358
            ],
            [
              20.7095468,
              43.2288107
            ],
            [
              20.7102939,
              43.229634
            ],
            [
              20.7103721,
              43.2302486
            ],
            [
              20.7101476,
              43.2304325
            ],
            [
              20.710223,
              43.230935
            ],
            [
              20.7106327,
              43.2315687
            ],
            [
              20.7120378,
              43.2324698
            ],
            [
              20.7132145,
              43.2323455
            ],
            [
              20.7137785,
              43.2330105
            ],
            [
              20.715898,
              43.2337615
            ],
            [
              20.7173986,
              43.2340288
            ],
            [
              20.7176913,
              43.2346753
            ],
            [
              20.7179945,
              43.2365407
            ],
            [
              20.718995,
              43.2370188
            ],
            [
              20.7187122,
              43.2374223
            ],
            [
              20.7188209,
              43.2375334
            ],
            [
              20.7187425,
              43.2379984
            ],
            [
              20.718493,
              43.2379587
            ],
            [
              20.7182996,
              43.2386065
            ],
            [
              20.718328,
              43.2389964
            ],
            [
              20.7184918,
              43.2391568
            ],
            [
              20.7184462,
              43.2398793
            ],
            [
              20.7191968,
              43.2394277
            ],
            [
              20.7194914,
              43.2394231
            ],
            [
              20.7201717,
              43.2398718
            ],
            [
              20.7209861,
              43.240686
            ],
            [
              20.7208649,
              43.241258
            ],
            [
              20.721366,
              43.2414327
            ],
            [
              20.7253797,
              43.246606
            ],
            [
              20.7267398,
              43.2473276
            ],
            [
              20.7272738,
              43.247749
            ],
            [
              20.7275895,
              43.2482637
            ],
            [
              20.7281859,
              43.2486513
            ],
            [
              20.7347073,
              43.2483049
            ],
            [
              20.7368142,
              43.2474167
            ],
            [
              20.7370822,
              43.2475814
            ],
            [
              20.742133,
              43.2467616
            ],
            [
              20.7474075,
              43.2448492
            ],
            [
              20.7534401,
              43.2452723
            ],
            [
              20.7612647,
              43.2439986
            ],
            [
              20.7636288,
              43.24484
            ],
            [
              20.7658221,
              43.246058
            ],
            [
              20.7692886,
              43.2475776
            ],
            [
              20.7729096,
              43.2444855
            ],
            [
              20.7759063,
              43.2452466
            ],
            [
              20.7768829,
              43.2440246
            ],
            [
              20.7777474,
              43.2432992
            ],
            [
              20.7781433,
              43.2425628
            ],
            [
              20.7781858,
              43.2419723
            ],
            [
              20.7787309,
              43.242491
            ],
            [
              20.778726,
              43.2429435
            ],
            [
              20.7794466,
              43.2437385
            ],
            [
              20.7801969,
              43.2439714
            ],
            [
              20.7805977,
              43.2443702
            ],
            [
              20.7813769,
              43.2444895
            ],
            [
              20.782903,
              43.2452362
            ],
            [
              20.7853783,
              43.2453664
            ],
            [
              20.7859926,
              43.2451919
            ],
            [
              20.7863434,
              43.2452749
            ],
            [
              20.7896469,
              43.2444855
            ],
            [
              20.7898409,
              43.2441268
            ],
            [
              20.7902217,
              43.2439929
            ],
            [
              20.7914146,
              43.2440509
            ],
            [
              20.7928273,
              43.2446448
            ],
            [
              20.793037,
              43.2450452
            ],
            [
              20.7936343,
              43.24553
            ],
            [
              20.7937368,
              43.2460087
            ],
            [
              20.7937279,
              43.2464925
            ],
            [
              20.7932074,
              43.2474153
            ],
            [
              20.7936094,
              43.2486476
            ],
            [
              20.7926408,
              43.2488745
            ],
            [
              20.7921491,
              43.2494081
            ],
            [
              20.7922077,
              43.2501471
            ],
            [
              20.7931475,
              43.2508922
            ],
            [
              20.7933952,
              43.251516
            ],
            [
              20.7932261,
              43.2524954
            ],
            [
              20.7921329,
              43.254029
            ],
            [
              20.7925004,
              43.2553324
            ],
            [
              20.7921563,
              43.2557224
            ],
            [
              20.7922299,
              43.2562566
            ],
            [
              20.7920261,
              43.2574892
            ],
            [
              20.792235,
              43.2593835
            ],
            [
              20.7927116,
              43.2602219
            ],
            [
              20.7938196,
              43.260254
            ],
            [
              20.7950382,
              43.2610084
            ],
            [
              20.797245,
              43.2620103
            ],
            [
              20.7975417,
              43.2634796
            ],
            [
              20.7980613,
              43.2640024
            ],
            [
              20.7987495,
              43.2643288
            ],
            [
              20.7997726,
              43.2656926
            ],
            [
              20.799994,
              43.2662434
            ],
            [
              20.8007599,
              43.2668271
            ],
            [
              20.8012464,
              43.2670624
            ],
            [
              20.8025808,
              43.2672669
            ],
            [
              20.8028984,
              43.2676075
            ],
            [
              20.8037605,
              43.2676632
            ],
            [
              20.805825,
              43.2667984
            ],
            [
              20.8100428,
              43.2671311
            ],
            [
              20.8133005,
              43.2666949
            ],
            [
              20.828408,
              43.2657868
            ],
            [
              20.8287383,
              43.2654354
            ],
            [
              20.8294587,
              43.2651156
            ],
            [
              20.8301261,
              43.2640418
            ],
            [
              20.8306219,
              43.2617155
            ],
            [
              20.8335129,
              43.2614259
            ],
            [
              20.8350136,
              43.2617061
            ],
            [
              20.8359683,
              43.2616993
            ],
            [
              20.836114,
              43.2615264
            ],
            [
              20.8369641,
              43.2568377
            ],
            [
              20.8433669,
              43.2543348
            ],
            [
              20.8457874,
              43.2526106
            ],
            [
              20.8476594,
              43.2517198
            ],
            [
              20.8513887,
              43.251529
            ],
            [
              20.8519814,
              43.2512199
            ],
            [
              20.8536479,
              43.2474992
            ],
            [
              20.855388,
              43.2457108
            ],
            [
              20.8568911,
              43.245268
            ],
            [
              20.8576859,
              43.243703
            ],
            [
              20.8587139,
              43.2423667
            ],
            [
              20.8598816,
              43.2401507
            ],
            [
              20.8616721,
              43.2378812
            ],
            [
              20.8621376,
              43.2375192
            ],
            [
              20.8635175,
              43.2373264
            ],
            [
              20.8648777,
              43.2367898
            ],
            [
              20.8662589,
              43.2358132
            ],
            [
              20.8687721,
              43.2335971
            ],
            [
              20.8708288,
              43.2322014
            ],
            [
              20.8713488,
              43.2315986
            ],
            [
              20.872625,
              43.2312113
            ],
            [
              20.8731658,
              43.2308393
            ],
            [
              20.8738306,
              43.2290526
            ],
            [
              20.8751078,
              43.2278168
            ],
            [
              20.87699,
              43.2263266
            ],
            [
              20.8769739,
              43.2260484
            ],
            [
              20.877502,
              43.225094
            ],
            [
              20.8768707,
              43.2240865
            ],
            [
              20.8769895,
              43.2233527
            ],
            [
              20.8777887,
              43.2230469
            ],
            [
              20.8794061,
              43.2229128
            ],
            [
              20.8797357,
              43.2222264
            ],
            [
              20.8795913,
              43.2203355
            ],
            [
              20.879025,
              43.2189542
            ],
            [
              20.8791839,
              43.218792
            ],
            [
              20.879203,
              43.2179741
            ],
            [
              20.8790223,
              43.2176623
            ],
            [
              20.8794842,
              43.2173446
            ],
            [
              20.8792066,
              43.2170571
            ],
            [
              20.8792954,
              43.2166721
            ],
            [
              20.8789705,
              43.2152923
            ],
            [
              20.8791725,
              43.2146112
            ],
            [
              20.8799609,
              43.2139525
            ],
            [
              20.8796238,
              43.2133829
            ],
            [
              20.8800447,
              43.2124508
            ],
            [
              20.8798646,
              43.2108573
            ],
            [
              20.880658,
              43.2103364
            ],
            [
              20.8821591,
              43.2098395
            ],
            [
              20.8859812,
              43.2076847
            ],
            [
              20.8889743,
              43.2050468
            ],
            [
              20.8893661,
              43.2037179
            ],
            [
              20.8880626,
              43.2028764
            ],
            [
              20.8869218,
              43.2031336
            ],
            [
              20.8866028,
              43.2035022
            ],
            [
              20.8856099,
              43.2040556
            ],
            [
              20.8846917,
              43.2041736
            ],
            [
              20.8833935,
              43.2037998
            ],
            [
              20.8830302,
              43.203935
            ],
            [
              20.8811942,
              43.2057141
            ],
            [
              20.8805455,
              43.2059113
            ],
            [
              20.8797546,
              43.205582
            ],
            [
              20.8788876,
              43.2055119
            ],
            [
              20.8778275,
              43.2049429
            ],
            [
              20.8757792,
              43.2048726
            ],
            [
              20.8749312,
              43.2050234
            ],
            [
              20.873008,
              43.2047668
            ],
            [
              20.8725506,
              43.2048553
            ],
            [
              20.8716981,
              43.2055043
            ],
            [
              20.8696212,
              43.2062692
            ],
            [
              20.8681268,
              43.2058894
            ],
            [
              20.8666517,
              43.2058781
            ],
            [
              20.8662003,
              43.2054816
            ],
            [
              20.8657805,
              43.2055068
            ],
            [
              20.8650642,
              43.2059879
            ],
            [
              20.8646295,
              43.2069089
            ],
            [
              20.8636684,
              43.2076367
            ],
            [
              20.8623517,
              43.2074647
            ],
            [
              20.8601207,
              43.2062523
            ],
            [
              20.8590899,
              43.2062405
            ],
            [
              20.8568277,
              43.2054644
            ],
            [
              20.8561165,
              43.2054884
            ],
            [
              20.8541955,
              43.2051224
            ],
            [
              20.852683,
              43.2056968
            ],
            [
              20.8521741,
              43.2057479
            ],
            [
              20.8506068,
              43.2055017
            ],
            [
              20.8498907,
              43.2050303
            ],
            [
              20.8492526,
              43.2049483
            ],
            [
              20.8483811,
              43.2054121
            ],
            [
              20.8471716,
              43.2056906
            ],
            [
              20.8457315,
              43.2057488
            ],
            [
              20.8439992,
              43.2069559
            ],
            [
              20.8435522,
              43.2070747
            ],
            [
              20.8412593,
              43.2027491
            ],
            [
              20.8420103,
              43.2021394
            ],
            [
              20.8429943,
              43.2001452
            ],
            [
              20.8434801,
              43.1981392
            ],
            [
              20.847712,
              43.195627
            ],
            [
              20.8496754,
              43.1947832
            ],
            [
              20.8494346,
              43.1941913
            ],
            [
              20.8495889,
              43.1931112
            ],
            [
              20.8494894,
              43.1930339
            ],
            [
              20.8506657,
              43.1926965
            ],
            [
              20.8515791,
              43.1926538
            ],
            [
              20.8517995,
              43.1921996
            ],
            [
              20.8524794,
              43.191789
            ],
            [
              20.8550636,
              43.1891472
            ],
            [
              20.8545753,
              43.1881535
            ],
            [
              20.8485866,
              43.1861839
            ],
            [
              20.8484393,
              43.1855978
            ],
            [
              20.8462051,
              43.185046
            ],
            [
              20.8456284,
              43.1851661
            ],
            [
              20.8439986,
              43.1848706
            ],
            [
              20.8428701,
              43.184927
            ],
            [
              20.8429258,
              43.1845408
            ],
            [
              20.8421257,
              43.183979
            ],
            [
              20.8410321,
              43.1842066
            ],
            [
              20.8391068,
              43.1838195
            ],
            [
              20.8374727,
              43.1837709
            ],
            [
              20.8352845,
              43.1841231
            ],
            [
              20.8347978,
              43.183853
            ],
            [
              20.8346671,
              43.1835626
            ],
            [
              20.8341784,
              43.1836417
            ],
            [
              20.8337661,
              43.1824588
            ],
            [
              20.8310766,
              43.179121
            ],
            [
              20.8387379,
              43.172854
            ],
            [
              20.8398595,
              43.172976
            ],
            [
              20.8401326,
              43.1732958
            ],
            [
              20.8417398,
              43.1736842
            ],
            [
              20.8434487,
              43.1735984
            ],
            [
              20.8440522,
              43.1738615
            ],
            [
              20.8452704,
              43.1735411
            ],
            [
              20.8459719,
              43.1736129
            ],
            [
              20.847469,
              43.173914
            ],
            [
              20.8482139,
              43.1744968
            ],
            [
              20.8488669,
              43.1743752
            ],
            [
              20.8499005,
              43.174503
            ],
            [
              20.8502517,
              43.1743505
            ],
            [
              20.8528879,
              43.1744567
            ],
            [
              20.8532816,
              43.1743904
            ],
            [
              20.854274,
              43.1738371
            ],
            [
              20.8559774,
              43.1744
            ],
            [
              20.8562047,
              43.1743076
            ],
            [
              20.8562836,
              43.174027
            ],
            [
              20.8569947,
              43.1732934
            ],
            [
              20.8586462,
              43.1722732
            ],
            [
              20.8586473,
              43.1704163
            ],
            [
              20.8592027,
              43.1700423
            ],
            [
              20.8594797,
              43.1692852
            ],
            [
              20.8607632,
              43.1683727
            ],
            [
              20.8614823,
              43.1674969
            ],
            [
              20.8623314,
              43.1668894
            ],
            [
              20.8631169,
              43.1657558
            ],
            [
              20.8630845,
              43.1651652
            ],
            [
              20.8632744,
              43.1647861
            ],
            [
              20.8689965,
              43.1645059
            ],
            [
              20.8705305,
              43.1657239
            ],
            [
              20.8715568,
              43.1662185
            ],
            [
              20.8753184,
              43.1671302
            ],
            [
              20.8768148,
              43.1672394
            ],
            [
              20.8780488,
              43.1675644
            ],
            [
              20.8805911,
              43.1672744
            ],
            [
              20.8817156,
              43.1669467
            ],
            [
              20.8809464,
              43.166709
            ],
            [
              20.8805698,
              43.1664174
            ],
            [
              20.8805241,
              43.1660386
            ],
            [
              20.8808248,
              43.1655371
            ],
            [
              20.8833548,
              43.1638948
            ],
            [
              20.885553,
              43.1626951
            ],
            [
              20.8862154,
              43.1611959
            ],
            [
              20.8859035,
              43.161002
            ],
            [
              20.8854927,
              43.1599548
            ],
            [
              20.8858349,
              43.1593739
            ],
            [
              20.8857705,
              43.1585341
            ],
            [
              20.8868156,
              43.1579912
            ],
            [
              20.8893215,
              43.1559819
            ],
            [
              20.8929077,
              43.1546271
            ],
            [
              20.894029,
              43.1547106
            ],
            [
              20.8958411,
              43.1540872
            ],
            [
              20.8975521,
              43.1545977
            ],
            [
              20.8997188,
              43.1557121
            ],
            [
              20.901238,
              43.1546513
            ],
            [
              20.9025097,
              43.1531924
            ],
            [
              20.9061475,
              43.1507671
            ],
            [
              20.9068767,
              43.1499275
            ],
            [
              20.906983,
              43.1494667
            ],
            [
              20.9085831,
              43.148225
            ],
            [
              20.9097256,
              43.1486829
            ],
            [
              20.9111898,
              43.1487321
            ],
            [
              20.9154971,
              43.1475533
            ],
            [
              20.9215837,
              43.1477112
            ],
            [
              20.9222322,
              43.1473084
            ],
            [
              20.9228289,
              43.1471645
            ],
            [
              20.9231811,
              43.146194
            ],
            [
              20.9235689,
              43.1460489
            ],
            [
              20.924447,
              43.1464907
            ],
            [
              20.9262207,
              43.1459192
            ],
            [
              20.9265815,
              43.145529
            ],
            [
              20.9280411,
              43.1448754
            ],
            [
              20.9290449,
              43.1441808
            ],
            [
              20.9291952,
              43.1438443
            ],
            [
              20.9292437,
              43.1426184
            ],
            [
              20.9306951,
              43.1403801
            ],
            [
              20.9309301,
              43.1396798
            ],
            [
              20.9310476,
              43.1383032
            ],
            [
              20.9320742,
              43.13749
            ],
            [
              20.9328304,
              43.1364341
            ],
            [
              20.9335521,
              43.1342211
            ],
            [
              20.9352262,
              43.1342861
            ],
            [
              20.9378807,
              43.1347692
            ],
            [
              20.9410937,
              43.1331229
            ],
            [
              20.9427491,
              43.1334438
            ],
            [
              20.9449944,
              43.13152
            ],
            [
              20.9456631,
              43.1304573
            ],
            [
              20.9463055,
              43.1298807
            ],
            [
              20.9486279,
              43.1289756
            ],
            [
              20.9497488,
              43.1281864
            ],
            [
              20.951519,
              43.127497
            ],
            [
              20.951805,
              43.1272344
            ],
            [
              20.9538425,
              43.1276416
            ],
            [
              20.9552693,
              43.1266339
            ],
            [
              20.9570497,
              43.1259829
            ],
            [
              20.9585446,
              43.126012
            ],
            [
              20.9603868,
              43.1254348
            ],
            [
              20.9616624,
              43.1256581
            ],
            [
              20.9622461,
              43.1252549
            ],
            [
              20.9649172,
              43.1244473
            ],
            [
              20.9668943,
              43.1244001
            ],
            [
              20.9684645,
              43.1253335
            ],
            [
              20.9692768,
              43.126383
            ],
            [
              20.9693436,
              43.1267952
            ],
            [
              20.9686516,
              43.1300645
            ],
            [
              20.96826,
              43.1306084
            ],
            [
              20.9679403,
              43.1306435
            ],
            [
              20.9706804,
              43.132891
            ],
            [
              20.9725413,
              43.1339971
            ],
            [
              20.9745751,
              43.1345422
            ],
            [
              20.9769122,
              43.1356976
            ],
            [
              20.977893,
              43.135446
            ],
            [
              20.9801137,
              43.1358169
            ],
            [
              20.9814549,
              43.1356624
            ],
            [
              20.9821925,
              43.135347
            ],
            [
              20.9827606,
              43.13585
            ],
            [
              20.9836375,
              43.1358648
            ],
            [
              20.9859466,
              43.1353725
            ],
            [
              20.9898517,
              43.136259
            ],
            [
              20.9924638,
              43.1365402
            ],
            [
              20.9932961,
              43.1369545
            ],
            [
              20.9947709,
              43.1382521
            ],
            [
              20.9955346,
              43.1383099
            ],
            [
              20.9972251,
              43.1379628
            ],
            [
              20.9978297,
              43.1375198
            ],
            [
              21,
              43.1364701585783
            ],
            [
              21,
              44
            ],
            [
              20,
              44
            ],
            [
              20,
              43.04817126189616
            ]
          ]
        ]
      }
    },
    {
      "type": "Feature",
      "properties": {
        "osm_id": -2088990,
        "boundary": "administrative",
        "admin_level": 2,
        "parents": null,
        "name": "Kosovo",
        "local_name": "Kosovë",
        "name_en": "Kosovo",
        "all_tags": {
          "flag": "https://upload.wikimedia.org/wikipedia/commons/1/1f/Flag_of_Kosovo.svg",
          "name": "Kosovë",
          "name:af": "Kosovo",
          "name:am": "ኮሶቮ",
          "name:an": "Kosovo",
          "name:ar": "كوسوفو",
          "name:ay": "Kusuwu",
          "name:az": "Kosovo",
          "name:ba": "Косово",
          "name:be": "Косава",
          "name:bg": "Косово",
          "name:bn": "কসোভো",
          "name:bo": "ཁོ་སོ་ཝོ།",
          "name:br": "Kosovo",
          "name:bs": "Kosovo",
          "name:ca": "Kosovo",
          "name:ce": "Косово",
          "name:cs": "Kosovo",
          "name:cv": "Косово",
          "name:cy": "Cosofo",
          "name:da": "Kosovo",
          "name:de": "Kosovo",
          "name:el": "Κοσσυφοπέδιο",
          "name:en": "Kosovo",
          "name:eo": "Kosovo",
          "name:es": "Kosovo",
          "name:et": "Kosovo",
          "name:eu": "Kosovo",
          "name:fa": "کوزوو",
          "name:fi": "Kosovo",
          "name:fo": "Kosovo",
          "name:fr": "Kosovo",
          "name:fy": "Kosovo",
          "name:ga": "An Chosaiv",
          "name:gd": "Cosobho",
          "name:gl": "Kosovo",
          "name:gn": "Kosovo",
          "name:gv": "Kosovo",
          "name:he": "קוסובו",
          "name:hi": "कोसोवो गणराज्य",
          "name:hr": "Kosovo",
          "name:hu": "Koszovó",
          "name:hy": "Կոսովոն",
          "name:ia": "Kosovo",
          "name:id": "Kosovo",
          "name:ie": "Kosovo",
          "name:ig": "Kosovo",
          "name:io": "Kosovo",
          "name:is": "Kosóvó",
          "name:it": "Kosovo",
          "name:ja": "コソボ",
          "name:jv": "Kosovo",
          "name:ka": "კოსოვო",
          "name:kk": "Косово",
          "name:kl": "Kosovo",
          "name:kn": "ಕೊಸೊವೊ",
          "name:ko": "코소보",
          "name:ku": "Kosova",
          "name:kv": "Косово",
          "name:kw": "Kosova",
          "name:ky": "Косово",
          "name:la": "Kosovia",
          "name:lb": "Kosovo",
          "name:li": "Kosovo",
          "name:lo": "ປະເທດໂກໂຊໂວ",
          "name:lt": "Kosovas",
          "name:lv": "Kosova",
          "name:mk": "Косово",
          "name:ml": "കൊസോവോ",
          "name:mn": "Косово",
          "name:mr": "कोसोव्हो",
          "name:ms": "Kosovo",
          "name:mt": "Kosovo",
          "name:my": "ကိုဆိုဗို",
          "name:na": "Kosovo",
          "name:nl": "Kosovo",
          "name:nn": "Kosovo",
          "name:no": "Kosovo",
          "name:ny": "Kosovo",
          "name:oc": "Kosova",
          "name:os": "Косово",
          "name:pa": "ਕੋਸੋਵੋ ਗਣਰਾਜ",
          "name:pl": "Kosowo",
          "name:pt": "Kosovo",
          "name:qu": "Kusuwu",
          "name:rm": "Cosovo",
          "name:ro": "Kosovo",
          "name:ru": "Косово",
          "name:rw": "Kosovo",
          "name:sc": "Kòssovu",
          "name:sh": "Kosovo",
          "name:si": "කොසෝවො",
          "name:sk": "Kosovo",
          "name:sl": "Kosovo",
          "name:sm": "Kosovo",
          "name:sn": "Kosovo",
          "name:so": "Kosofo",
          "name:sq": "Kosovo",
          "name:su": "Kosovo",
          "name:sv": "Kosovo",
          "name:sw": "Kosovo",
          "name:ta": "கொசோவோ",
          "name:te": "కొసావో",
          "name:th": "ประเทศคอซอวอ",
          "name:tl": "Kosovo",
          "name:tr": "Kosova",
          "name:ts": "Kosovo",
          "name:tt": "Косово Җөмһүрияте",
          "name:uk": "Косово",
          "name:ur": "کوسووہ",
          "name:uz": "Kosovo",
          "name:vi": "Kosovo",
          "name:vo": "Kosovän",
          "name:yo": "Kósófò",
          "name:zh": "科索沃",
          "boundary": "administrative",
          "currency": "EUR",
          "int_name": "Kosovo",
          "name:als": "Kosovo",
          "name:ast": "Kosovu",
          "name:azb": "کوزووو",
          "name:bar": "Kosovo",
          "name:bat": "Kuosuovs",
          "name:bcl": "Kosobo",
          "name:cbk": "Kosovo",
          "name:cdo": "Kosovo",
          "name:ceb": "Kosovo",
          "name:chr": "ᎪᏗᏉ",
          "name:ckb": "کۆسۆڤۆ",
          "name:crh": "Kosovo",
          "name:diq": "Kosova",
          "name:dsw": "Kosowo",
          "name:ext": "Cosovu",
          "name:frp": "Kosovo",
          "name:frr": "Kosovo",
          "name:gag": "Kosova",
          "name:gan": "科索沃",
          "name:got": "𐌺𐌰𐌿𐍃𐍉𐌱𐍉",
          "name:hak": "Kosovo",
          "name:hsb": "Kosowo",
          "name:jbo": "kosovas",
          "name:kab": "Kosovo",
          "name:kbd": "Косово",
          "name:ksh": "Kosovo",
          "name:lad": "Kosovo",
          "name:lbe": "Косова",
          "name:lfn": "Cosovo",
          "name:lij": "Kosovo",
          "name:lmo": "Kosovo",
          "name:lrc": "کوزوڤو",
          "name:mzn": "کوزوو جمهوری",
          "name:nah": "Cosovo",
          "name:nds": "Kosovo",
          "name:nov": "Kosovo",
          "name:nrm": "Kosovo",
          "name:pap": "Kosovo",
          "name:pcd": "Kosovo",
          "name:pms": "Kosovo",
          "name:pnb": "کوسوو",
          "name:pnt": "Κόσοβο",
          "name:roa": "Cosova",
          "name:rue": "Косово",
          "name:sah": "Косова",
          "name:scn": "Kòssuvu",
          "name:sco": "Kosovo",
          "name:srn": "Kosovokondre",
          "name:stq": "Kosovo",
          "name:szl": "Kosowo",
          "name:tzl": "Kosove",
          "name:vec": "Kosovo",
          "name:vls": "Kosovo",
          "name:vro": "Kosovo",
          "name:war": "Kosovo",
          "name:wuu": "科索沃",
          "name:xal": "Косовин Таңһч",
          "name:xmf": "კოსოვო",
          "name:yue": "科索沃",
          "timezone": "Europe/Pristina",
          "way_area": "1.19604",
          "wikidata": "Q1246",
          "ISO3166-1": "XK",
          "ISO3166-2": "RS-KO",
          "wikipedia": "en:Kosovo",
          "admin_level": "2",
          "alt_name:el": "Κόσοβο",
          "capital_city": "Prishtina",
          "name:sr-Latn": "Republika e Kosoves",
          "name:zh-Hans": "科索沃",
          "name:zh-Hant": "科索沃",
          "official_name": "Republika e Kosovës",
          "name:be-tarask": "Косава",
          "according_to:CN": "no",
          "according_to:IN": "no",
          "according_to:RS": "no",
          "according_to:RU": "no",
          "according_to:UA": "no",
          "according_to:XK": "yes",
          "ISO3166-1:alpha2": "XK",
          "ISO3166-1:alpha3": "XXK",
          "official_name:ar": "جمهورية كوسوفو",
          "official_name:cs": "Kosovská republika",
          "official_name:de": "Republik Kosovo",
          "official_name:el": "Δημοκρατία του Κοσσυφοπεδίου",
          "official_name:en": "Republic of Kosovo",
          "official_name:eo": "Respubliko Kosovo",
          "official_name:es": "República de Kosovo",
          "official_name:fa": "جمهوری کوزوو",
          "official_name:fr": "République du Kosovo",
          "official_name:sq": "Republika e Kosovës",
          "ref:RS:pokrajina": "RS-KO",
          "official_name:sr-Latn": "Republika e Kosovës",
          "official_name:zh-Hans": "科索沃共和国",
          "official_name:zh-Hant": "科索沃共和國"
        }
      },
      "geometry": {
        "type": "Polygon",
        "coordinates": [
          [
            [
              20.57584357319707,
              43
            ],
            [
              21,
              43
            ],
            [
              21,
              43.1364701585783
            ],
            [
              20.9978297,
              43.1375198
            ],
            [
              20.9972251,
              43.1379628
            ],
            [
              20.9955346,
              43.1383099
            ],
            [
              20.9947709,
              43.1382521
            ],
            [
              20.9932961,
              43.1369545
            ],
            [
              20.9924638,
              43.1365402
            ],
            [
              20.9898517,
              43.136259
            ],
            [
              20.9859466,
              43.1353725
            ],
            [
              20.9836375,
              43.1358648
            ],
            [
              20.9827606,
              43.13585
            ],
            [
              20.9821925,
              43.135347
            ],
            [
              20.9814549,
              43.1356624
            ],
            [
              20.9801137,
              43.1358169
            ],
            [
              20.977893,
              43.135446
            ],
            [
              20.9769122,
              43.1356976
            ],
            [
              20.9745751,
              43.1345422
            ],
            [
              20.9725413,
              43.1339971
            ],
            [
              20.9706804,
              43.132891
            ],
            [
              20.9679403,
              43.1306435
            ],
            [
              20.96826,
              43.1306084
            ],
            [
              20.9686516,
              43.1300645
            ],
            [
              20.9693436,
              43.1267952
            ],
            [
              20.9692768,
              43.126383
            ],
            [
              20.9684645,
              43.1253335
            ],
            [
              20.9668943,
              43.1244001
            ],
            [
              20.9649172,
              43.1244473
            ],
            [
              20.9622461,
              43.1252549
            ],
            [
              20.9616624,
              43.1256581
            ],
            [
              20.9603868,
              43.1254348
            ],
            [
              20.9585446,
              43.126012
            ],
            [
              20.9570497,
              43.1259829
            ],
            [
              20.9552693,
              43.1266339
            ],
            [
              20.9538425,
              43.1276416
            ],
            [
              20.951805,
              43.1272344
            ],
            [
              20.951519,
              43.127497
            ],
            [
              20.9497488,
              43.1281864
            ],
            [
              20.9486279,
              43.1289756
            ],
            [
              20.9463055,
              43.1298807
            ],
            [
              20.9456631,
              43.1304573
            ],
            [
              20.9449944,
              43.13152
            ],
            [
              20.9427491,
              43.1334438
            ],
            [
              20.9410937,
              43.1331229
            ],
            [
              20.9378807,
              43.1347692
            ],
            [
              20.9352262,
              43.1342861
            ],
            [
              20.9335521,
              43.1342211
            ],
            [
              20.9328304,
              43.1364341
            ],
            [
              20.9320742,
              43.13749
            ],
            [
              20.9310476,
              43.1383032
            ],
            [
              20.9309301,
              43.1396798
            ],
            [
              20.9306951,
              43.1403801
            ],
            [
              20.9292437,
              43.1426184
            ],
            [
              20.9291952,
              43.1438443
            ],
            [
              20.9290449,
              43.1441808
            ],
            [
              20.9280411,
              43.1448754
            ],
            [
              20.9265815,
              43.145529
            ],
            [
              20.9262207,
              43.1459192
            ],
            [
              20.924447,
              43.1464907
            ],
            [
              20.9235689,
              43.1460489
            ],
            [
              20.9231811,
              43.146194
            ],
            [
              20.9228289,
              43.1471645
            ],
            [
              20.9222322,
              43.1473084
            ],
            [
              20.9215837,
              43.1477112
            ],
            [
              20.9154971,
              43.1475533
            ],
            [
              20.9111898,
              43.1487321
            ],
            [
              20.9097256,
              43.1486829
            ],
            [
              20.9085831,
              43.148225
            ],
            [
              20.906983,
              43.1494667
            ],
            [
              20.9068767,
              43.1499275
            ],
            [
              20.9061475,
              43.1507671
            ],
            [
              20.9025097,
              43.1531924
            ],
            [
              20.901238,
              43.1546513
            ],
            [
              20.8997188,
              43.1557121
            ],
            [
              20.8975521,
              43.1545977
            ],
            [
              20.8958411,
              43.1540872
            ],
            [
              20.894029,
              43.1547106
            ],
            [
              20.8929077,
              43.1546271
            ],
            [
              20.8893215,
              43.1559819
            ],
            [
              20.8868156,
              43.1579912
            ],
            [
              20.8857705,
              43.1585341
            ],
            [
              20.8858349,
              43.1593739
            ],
            [
              20.8854927,
              43.1599548
            ],
            [
              20.8859035,
              43.161002
            ],
            [
              20.8862154,
              43.1611959
            ],
            [
              20.885553,
              43.1626951
            ],
            [
              20.8833548,
              43.1638948
            ],
            [
              20.8808248,
              43.1655371
            ],
            [
              20.8805241,
              43.1660386
            ],
            [
              20.8805698,
              43.1664174
            ],
            [
              20.8809464,
              43.166709
            ],
            [
              20.8817156,
              43.1669467
            ],
            [
              20.8805911,
              43.1672744
            ],
            [
              20.8780488,
              43.1675644
            ],
            [
              20.8768148,
              43.1672394
            ],
            [
              20.8753184,
              43.1671302
            ],
            [
              20.8715568,
              43.1662185
            ],
            [
              20.8705305,
              43.1657239
            ],
            [
              20.8689965,
              43.1645059
            ],
            [
              20.8632744,
              43.1647861
            ],
            [
              20.8630845,
              43.1651652
            ],
            [
              20.8631169,
              43.1657558
            ],
            [
              20.8623314,
              43.1668894
            ],
            [
              20.8614823,
              43.1674969
            ],
            [
              20.8607632,
              43.1683727
            ],
            [
              20.8594797,
              43.1692852
            ],
            [
              20.8592027,
              43.1700423
            ],
            [
              20.8586473,
              43.1704163
            ],
            [
              20.8586462,
              43.1722732
            ],
            [
              20.8569947,
              43.1732934
            ],
            [
              20.8562836,
              43.174027
            ],
            [
              20.8562047,
              43.1743076
            ],
            [
              20.8559774,
              43.1744
            ],
            [
              20.854274,
              43.1738371
            ],
            [
              20.8532816,
              43.1743904
            ],
            [
              20.8528879,
              43.1744567
            ],
            [
              20.8502517,
              43.1743505
            ],
            [
              20.8499005,
              43.174503
            ],
            [
              20.8488669,
              43.1743752
            ],
            [
              20.8482139,
              43.1744968
            ],
            [
              20.847469,
              43.173914
            ],
            [
              20.8459719,
              43.1736129
            ],
            [
              20.8452704,
              43.1735411
            ],
            [
              20.8440522,
              43.1738615
            ],
            [
              20.8434487,
              43.1735984
            ],
            [
              20.8417398,
              43.1736842
            ],
            [
              20.8401326,
              43.1732958
            ],
            [
              20.8398595,
              43.172976
            ],
            [
              20.8387379,
              43.172854
            ],
            [
              20.8384792,
              43.1729867
            ],
            [
              20.8310766,
              43.179121
            ],
            [
              20.8337661,
              43.1824588
            ],
            [
              20.8341784,
              43.1836417
            ],
            [
              20.8346671,
              43.1835626
            ],
            [
              20.8347978,
              43.183853
            ],
            [
              20.8352845,
              43.1841231
            ],
            [
              20.8374727,
              43.1837709
            ],
            [
              20.8391068,
              43.1838195
            ],
            [
              20.8410321,
              43.1842066
            ],
            [
              20.8421257,
              43.183979
            ],
            [
              20.8429258,
              43.1845408
            ],
            [
              20.8428701,
              43.184927
            ],
            [
              20.8439986,
              43.1848706
            ],
            [
              20.8456284,
              43.1851661
            ],
            [
              20.8462051,
              43.185046
            ],
            [
              20.8484393,
              43.1855978
            ],
            [
              20.8485866,
              43.1861839
            ],
            [
              20.8545753,
              43.1881535
            ],
            [
              20.8550636,
              43.1891472
            ],
            [
              20.8524794,
              43.191789
            ],
            [
              20.8517995,
              43.1921996
            ],
            [
              20.8515791,
              43.1926538
            ],
            [
              20.8506657,
              43.1926965
            ],
            [
              20.8494894,
              43.1930339
            ],
            [
              20.8495889,
              43.1931112
            ],
            [
              20.8494346,
              43.1941913
            ],
            [
              20.8496754,
              43.1947832
            ],
            [
              20.847712,
              43.195627
            ],
            [
              20.8434801,
              43.1981392
            ],
            [
              20.8429943,
              43.2001452
            ],
            [
              20.8420103,
              43.2021394
            ],
            [
              20.8412593,
              43.2027491
            ],
            [
              20.8435522,
              43.2070747
            ],
            [
              20.8439992,
              43.2069559
            ],
            [
              20.8457315,
              43.2057488
            ],
            [
              20.8471716,
              43.2056906
            ],
            [
              20.8483811,
              43.2054121
            ],
            [
              20.8492526,
              43.2049483
            ],
            [
              20.8498907,
              43.2050303
            ],
            [
              20.8506068,
              43.2055017
            ],
            [
              20.8521741,
              43.2057479
            ],
            [
              20.852683,
              43.2056968
            ],
            [
              20.8541955,
              43.2051224
            ],
            [
              20.8561165,
              43.2054884
            ],
            [
              20.8568277,
              43.2054644
            ],
            [
              20.8590899,
              43.2062405
            ],
            [
              20.8601207,
              43.2062523
            ],
            [
              20.8623517,
              43.2074647
            ],
            [
              20.8636684,
              43.2076367
            ],
            [
              20.8646295,
              43.2069089
            ],
            [
              20.8650642,
              43.2059879
            ],
            [
              20.8657805,
              43.2055068
            ],
            [
              20.8662003,
              43.2054816
            ],
            [
              20.8666517,
              43.2058781
            ],
            [
              20.8681268,
              43.2058894
            ],
            [
              20.8696212,
              43.2062692
            ],
            [
              20.8716981,
              43.2055043
            ],
            [
              20.8725506,
              43.2048553
            ],
            [
              20.873008,
              43.2047668
            ],
            [
              20.8749312,
              43.2050234
            ],
            [
              20.8757792,
              43.2048726
            ],
            [
              20.8778275,
              43.2049429
            ],
            [
              20.8788876,
              43.2055119
            ],
            [
              20.8797546,
              43.205582
            ],
            [
              20.8805455,
              43.2059113
            ],
            [
              20.8811942,
              43.2057141
            ],
            [
              20.8830302,
              43.203935
            ],
            [
              20.8833935,
              43.2037998
            ],
            [
              20.8846917,
              43.2041736
            ],
            [
              20.8856099,
              43.2040556
            ],
            [
              20.8866028,
              43.2035022
            ],
            [
              20.8869218,
              43.2031336
            ],
            [
              20.8880626,
              43.2028764
            ],
            [
              20.8893661,
              43.2037179
            ],
            [
              20.8889743,
              43.2050468
            ],
            [
              20.8859812,
              43.2076847
            ],
            [
              20.8821591,
              43.2098395
            ],
            [
              20.880658,
              43.2103364
            ],
            [
              20.8798646,
              43.2108573
            ],
            [
              20.8800447,
              43.2124508
            ],
            [
              20.8796238,
              43.2133829
            ],
            [
              20.8799609,
              43.2139525
            ],
            [
              20.8791725,
              43.2146112
            ],
            [
              20.8789705,
              43.2152923
            ],
            [
              20.8792954,
              43.2166721
            ],
            [
              20.8792066,
              43.2170571
            ],
            [
              20.8794842,
              43.2173446
            ],
            [
              20.8790223,
              43.2176623
            ],
            [
              20.879203,
              43.2179741
            ],
            [
              20.8791839,
              43.218792
            ],
            [
              20.879025,
              43.2189542
            ],
            [
              20.8795913,
              43.2203355
            ],
            [
              20.8797357,
              43.2222264
            ],
            [
              20.8794061,
              43.2229128
            ],
            [
              20.8777887,
              43.2230469
            ],
            [
              20.8769895,
              43.2233527
            ],
            [
              20.8768707,
              43.2240865
            ],
            [
              20.877502,
              43.225094
            ],
            [
              20.8769739,
              43.2260484
            ],
            [
              20.87699,
              43.2263266
            ],
            [
              20.8751078,
              43.2278168
            ],
            [
              20.8738306,
              43.2290526
            ],
            [
              20.8730294,
              43.2309713
            ],
            [
              20.8713488,
              43.2315986
            ],
            [
              20.8708288,
              43.2322014
            ],
            [
              20.8687721,
              43.2335971
            ],
            [
              20.8662589,
              43.2358132
            ],
            [
              20.8648777,
              43.2367898
            ],
            [
              20.8635175,
              43.2373264
            ],
            [
              20.8621376,
              43.2375192
            ],
            [
              20.8616721,
              43.2378812
            ],
            [
              20.8598816,
              43.2401507
            ],
            [
              20.8587139,
              43.2423667
            ],
            [
              20.8576859,
              43.243703
            ],
            [
              20.8568911,
              43.245268
            ],
            [
              20.855388,
              43.2457108
            ],
            [
              20.8536479,
              43.2474992
            ],
            [
              20.8519814,
              43.2512199
            ],
            [
              20.8513887,
              43.251529
            ],
            [
              20.8476594,
              43.2517198
            ],
            [
              20.8457874,
              43.2526106
            ],
            [
              20.8433669,
              43.2543348
            ],
            [
              20.8369641,
              43.2568377
            ],
            [
              20.836114,
              43.2615264
            ],
            [
              20.8359683,
              43.2616993
            ],
            [
              20.8350136,
              43.2617061
            ],
            [
              20.8335129,
              43.2614259
            ],
            [
              20.8306219,
              43.2617155
            ],
            [
              20.8301261,
              43.2640418
            ],
            [
              20.8297056,
              43.2647962
            ],
            [
              20.8294587,
              43.2651156
            ],
            [
              20.8286424,
              43.2655306
            ],
            [
              20.8278947,
              43.2668094
            ],
            [
              20.8271348,
              43.2674172
            ],
            [
              20.8267213,
              43.267976
            ],
            [
              20.8262268,
              43.2683129
            ],
            [
              20.8240222,
              43.2690615
            ],
            [
              20.8230027,
              43.2691791
            ],
            [
              20.8218484,
              43.2700835
            ],
            [
              20.8206048,
              43.2717614
            ],
            [
              20.8197487,
              43.2724664
            ],
            [
              20.8119443,
              43.2733306
            ],
            [
              20.8047106,
              43.2711057
            ],
            [
              20.7977745,
              43.2671806
            ],
            [
              20.7972935,
              43.265668
            ],
            [
              20.7961124,
              43.2648051
            ],
            [
              20.7941076,
              43.2646939
            ],
            [
              20.7933241,
              43.2648098
            ],
            [
              20.7911329,
              43.2644216
            ],
            [
              20.7900395,
              43.2638432
            ],
            [
              20.7894952,
              43.2632751
            ],
            [
              20.7892559,
              43.2626025
            ],
            [
              20.7892601,
              43.2616289
            ],
            [
              20.7878092,
              43.2605926
            ],
            [
              20.7875775,
              43.2588091
            ],
            [
              20.7850881,
              43.253695
            ],
            [
              20.7747798,
              43.2543522
            ],
            [
              20.7731559,
              43.2522095
            ],
            [
              20.7710679,
              43.2505957
            ],
            [
              20.7706906,
              43.249959
            ],
            [
              20.7708707,
              43.2490464
            ],
            [
              20.770511,
              43.2482807
            ],
            [
              20.7692886,
              43.2475776
            ],
            [
              20.7658221,
              43.246058
            ],
            [
              20.7636288,
              43.24484
            ],
            [
              20.7612647,
              43.2439986
            ],
            [
              20.7534401,
              43.2452723
            ],
            [
              20.7474075,
              43.2448492
            ],
            [
              20.742133,
              43.2467616
            ],
            [
              20.7370822,
              43.2475814
            ],
            [
              20.7368142,
              43.2474167
            ],
            [
              20.7347073,
              43.2483049
            ],
            [
              20.7281859,
              43.2486513
            ],
            [
              20.7275895,
              43.2482637
            ],
            [
              20.7272738,
              43.247749
            ],
            [
              20.7267398,
              43.2473276
            ],
            [
              20.7253797,
              43.246606
            ],
            [
              20.721366,
              43.2414327
            ],
            [
              20.7208649,
              43.241258
            ],
            [
              20.7209861,
              43.240686
            ],
            [
              20.7201717,
              43.2398718
            ],
            [
              20.7194914,
              43.2394231
            ],
            [
              20.7191968,
              43.2394277
            ],
            [
              20.7184462,
              43.2398793
            ],
            [
              20.7184918,
              43.2391568
            ],
            [
              20.718328,
              43.2389964
            ],
            [
              20.7182996,
              43.2386065
            ],
            [
              20.718493,
              43.2379587
            ],
            [
              20.7187425,
              43.2379984
            ],
            [
              20.7188209,
              43.2375334
            ],
            [
              20.7187122,
              43.2374223
            ],
            [
              20.718995,
              43.2370188
            ],
            [
              20.7179945,
              43.2365407
            ],
            [
              20.7176913,
              43.2346753
            ],
            [
              20.7173986,
              43.2340288
            ],
            [
              20.715898,
              43.2337615
            ],
            [
              20.7137785,
              43.2330105
            ],
            [
              20.7132145,
              43.2323455
            ],
            [
              20.7120378,
              43.2324698
            ],
            [
              20.7106327,
              43.2315687
            ],
            [
              20.710223,
              43.230935
            ],
            [
              20.7101476,
              43.2304325
            ],
            [
              20.7103721,
              43.2302486
            ],
            [
              20.7102939,
              43.229634
            ],
            [
              20.7095468,
              43.2288107
            ],
            [
              20.7094562,
              43.2282358
            ],
            [
              20.7097727,
              43.2275453
            ],
            [
              20.7094708,
              43.2272177
            ],
            [
              20.7080445,
              43.2265296
            ],
            [
              20.7038214,
              43.2261323
            ],
            [
              20.6993478,
              43.2251828
            ],
            [
              20.6990374,
              43.2243444
            ],
            [
              20.6986892,
              43.2239557
            ],
            [
              20.6986561,
              43.2235733
            ],
            [
              20.6983004,
              43.2234132
            ],
            [
              20.6971597,
              43.2222338
            ],
            [
              20.6965815,
              43.2223505
            ],
            [
              20.6958809,
              43.2222653
            ],
            [
              20.6947419,
              43.2210936
            ],
            [
              20.6937285,
              43.220665
            ],
            [
              20.6928651,
              43.2206897
            ],
            [
              20.6920402,
              43.2204936
            ],
            [
              20.6892587,
              43.2189772
            ],
            [
              20.6886042,
              43.2183532
            ],
            [
              20.688333,
              43.2180268
            ],
            [
              20.6880852,
              43.2170408
            ],
            [
              20.6877856,
              43.2166952
            ],
            [
              20.6877346,
              43.2161973
            ],
            [
              20.6878191,
              43.2155865
            ],
            [
              20.688698,
              43.2148785
            ],
            [
              20.687687,
              43.2136819
            ],
            [
              20.6867891,
              43.213296
            ],
            [
              20.6856831,
              43.2133495
            ],
            [
              20.6839357,
              43.2129841
            ],
            [
              20.6754784,
              43.2098166
            ],
            [
              20.6715714,
              43.2086182
            ],
            [
              20.6700225,
              43.2093036
            ],
            [
              20.6688396,
              43.2096361
            ],
            [
              20.6678402,
              43.2093291
            ],
            [
              20.6665821,
              43.2094082
            ],
            [
              20.6659186,
              43.2090959
            ],
            [
              20.6648154,
              43.2096983
            ],
            [
              20.6644012,
              43.2094355
            ],
            [
              20.6635349,
              43.2092912
            ],
            [
              20.6560459,
              43.2090552
            ],
            [
              20.6524888,
              43.211085
            ],
            [
              20.6519812,
              43.210308
            ],
            [
              20.6509604,
              43.2093323
            ],
            [
              20.6495672,
              43.2090332
            ],
            [
              20.6468364,
              43.2093055
            ],
            [
              20.6457905,
              43.2087764
            ],
            [
              20.6450983,
              43.2081072
            ],
            [
              20.6447056,
              43.2074351
            ],
            [
              20.6417247,
              43.2067078
            ],
            [
              20.6403525,
              43.2067407
            ],
            [
              20.6394034,
              43.2070987
            ],
            [
              20.6387367,
              43.2071
            ],
            [
              20.6372656,
              43.2067155
            ],
            [
              20.6353908,
              43.2072038
            ],
            [
              20.6342269,
              43.2081219
            ],
            [
              20.6339539,
              43.2085169
            ],
            [
              20.6339404,
              43.2093614
            ],
            [
              20.633248,
              43.2096787
            ],
            [
              20.6323614,
              43.2094393
            ],
            [
              20.6316103,
              43.2090001
            ],
            [
              20.6297819,
              43.2084718
            ],
            [
              20.6279255,
              43.208476
            ],
            [
              20.6265422,
              43.2079397
            ],
            [
              20.6252093,
              43.2078364
            ],
            [
              20.6243149,
              43.2073787
            ],
            [
              20.6224724,
              43.2072572
            ],
            [
              20.6208669,
              43.2064873
            ],
            [
              20.6202343,
              43.2057167
            ],
            [
              20.619593,
              43.2052563
            ],
            [
              20.6183888,
              43.2051199
            ],
            [
              20.615291,
              43.2043105
            ],
            [
              20.6148783,
              43.2043754
            ],
            [
              20.6138543,
              43.2053233
            ],
            [
              20.6132541,
              43.2054623
            ],
            [
              20.6097684,
              43.2050641
            ],
            [
              20.6087401,
              43.2056079
            ],
            [
              20.6065343,
              43.2073911
            ],
            [
              20.6059677,
              43.2073685
            ],
            [
              20.6050881,
              43.2070159
            ],
            [
              20.6040856,
              43.2069999
            ],
            [
              20.6038831,
              43.2079998
            ],
            [
              20.6034162,
              43.2086823
            ],
            [
              20.601777,
              43.2103795
            ],
            [
              20.6005244,
              43.2108115
            ],
            [
              20.6000748,
              43.2103659
            ],
            [
              20.5993297,
              43.2099982
            ],
            [
              20.5987668,
              43.2099509
            ],
            [
              20.5982034,
              43.2096933
            ],
            [
              20.5977473,
              43.2088976
            ],
            [
              20.5977141,
              43.2081806
            ],
            [
              20.5967823,
              43.2073488
            ],
            [
              20.5948462,
              43.2067148
            ],
            [
              20.5938437,
              43.2050861
            ],
            [
              20.5953231,
              43.2037327
            ],
            [
              20.5970841,
              43.201725
            ],
            [
              20.5995985,
              43.2009613
            ],
            [
              20.6005398,
              43.2005147
            ],
            [
              20.6015299,
              43.1993095
            ],
            [
              20.60176,
              43.1987604
            ],
            [
              20.6017442,
              43.1981177
            ],
            [
              20.6025046,
              43.1970766
            ],
            [
              20.604804,
              43.1952376
            ],
            [
              20.6056094,
              43.1950093
            ],
            [
              20.606277,
              43.1942971
            ],
            [
              20.6074114,
              43.1940262
            ],
            [
              20.6078775,
              43.1934826
            ],
            [
              20.6082352,
              43.1926343
            ],
            [
              20.6093626,
              43.1922384
            ],
            [
              20.6095843,
              43.1917733
            ],
            [
              20.6095047,
              43.1914461
            ],
            [
              20.6099105,
              43.1900757
            ],
            [
              20.610224,
              43.1895392
            ],
            [
              20.6108406,
              43.1890329
            ],
            [
              20.611213,
              43.1880061
            ],
            [
              20.6114786,
              43.1877132
            ],
            [
              20.611843,
              43.1868448
            ],
            [
              20.6116677,
              43.1863752
            ],
            [
              20.6113701,
              43.1861135
            ],
            [
              20.6112963,
              43.1857302
            ],
            [
              20.6119187,
              43.1849471
            ],
            [
              20.6124658,
              43.1838221
            ],
            [
              20.6132483,
              43.1835025
            ],
            [
              20.6135441,
              43.1823298
            ],
            [
              20.6131859,
              43.1819315
            ],
            [
              20.6131267,
              43.1814202
            ],
            [
              20.6139721,
              43.1808645
            ],
            [
              20.6139107,
              43.1801664
            ],
            [
              20.6136407,
              43.1796782
            ],
            [
              20.6121408,
              43.178742
            ],
            [
              20.6117698,
              43.1782398
            ],
            [
              20.6113163,
              43.177974
            ],
            [
              20.6094893,
              43.177255
            ],
            [
              20.6086475,
              43.1771812
            ],
            [
              20.6084945,
              43.1758805
            ],
            [
              20.6078127,
              43.1751909
            ],
            [
              20.6081872,
              43.174455
            ],
            [
              20.6096127,
              43.1736829
            ],
            [
              20.6099539,
              43.1730744
            ],
            [
              20.6103411,
              43.1716538
            ],
            [
              20.6113155,
              43.1704536
            ],
            [
              20.6112295,
              43.1697259
            ],
            [
              20.6113645,
              43.1695974
            ],
            [
              20.6116212,
              43.1693998
            ],
            [
              20.6133925,
              43.169266
            ],
            [
              20.6140961,
              43.1695325
            ],
            [
              20.6161804,
              43.1695354
            ],
            [
              20.6172516,
              43.1693281
            ],
            [
              20.6185999,
              43.1686851
            ],
            [
              20.620183,
              43.1682627
            ],
            [
              20.6217898,
              43.1680638
            ],
            [
              20.6231632,
              43.1671268
            ],
            [
              20.624728,
              43.1653974
            ],
            [
              20.6253237,
              43.1652556
            ],
            [
              20.6265617,
              43.1653204
            ],
            [
              20.6269371,
              43.1647217
            ],
            [
              20.6285456,
              43.1637083
            ],
            [
              20.6291515,
              43.1637729
            ],
            [
              20.6292506,
              43.163543
            ],
            [
              20.6306176,
              43.1639384
            ],
            [
              20.6333102,
              43.163907
            ],
            [
              20.6409109,
              43.1622817
            ],
            [
              20.6450763,
              43.1598242
            ],
            [
              20.6465334,
              43.158468
            ],
            [
              20.6485452,
              43.1590149
            ],
            [
              20.6521482,
              43.1577532
            ],
            [
              20.6516669,
              43.1564106
            ],
            [
              20.6519505,
              43.1559966
            ],
            [
              20.6533366,
              43.1552716
            ],
            [
              20.6544771,
              43.154429
            ],
            [
              20.6548606,
              43.1544476
            ],
            [
              20.6557338,
              43.154077
            ],
            [
              20.6574266,
              43.1541519
            ],
            [
              20.658338,
              43.1539911
            ],
            [
              20.6585791,
              43.1537873
            ],
            [
              20.6587322,
              43.1531389
            ],
            [
              20.6585219,
              43.1526621
            ],
            [
              20.6581081,
              43.1524274
            ],
            [
              20.6578897,
              43.1506534
            ],
            [
              20.6575527,
              43.1503695
            ],
            [
              20.6575183,
              43.1501308
            ],
            [
              20.6581469,
              43.149783
            ],
            [
              20.6587266,
              43.1489194
            ],
            [
              20.6595307,
              43.1484009
            ],
            [
              20.6599751,
              43.147625
            ],
            [
              20.6600153,
              43.1467041
            ],
            [
              20.6610383,
              43.1453324
            ],
            [
              20.6608836,
              43.144947
            ],
            [
              20.6613048,
              43.1448987
            ],
            [
              20.661913,
              43.1445637
            ],
            [
              20.6620431,
              43.1442854
            ],
            [
              20.6615111,
              43.1435708
            ],
            [
              20.6607515,
              43.1429249
            ],
            [
              20.6600726,
              43.1419322
            ],
            [
              20.6592643,
              43.141182
            ],
            [
              20.6589896,
              43.140704
            ],
            [
              20.6578184,
              43.1401965
            ],
            [
              20.6576342,
              43.1379969
            ],
            [
              20.6630664,
              43.1357202
            ],
            [
              20.6656718,
              43.1352791
            ],
            [
              20.6668059,
              43.1340103
            ],
            [
              20.670446,
              43.1327525
            ],
            [
              20.6710638,
              43.1321586
            ],
            [
              20.6727808,
              43.1314757
            ],
            [
              20.6730975,
              43.1310698
            ],
            [
              20.6732756,
              43.1303511
            ],
            [
              20.673148,
              43.1286312
            ],
            [
              20.6734313,
              43.1267083
            ],
            [
              20.6739691,
              43.1267416
            ],
            [
              20.6747446,
              43.1264479
            ],
            [
              20.6761022,
              43.1264055
            ],
            [
              20.6769003,
              43.1261611
            ],
            [
              20.6774168,
              43.1262622
            ],
            [
              20.6780146,
              43.1259522
            ],
            [
              20.6792061,
              43.1257815
            ],
            [
              20.6810559,
              43.1250583
            ],
            [
              20.6828885,
              43.1237909
            ],
            [
              20.683481,
              43.1237736
            ],
            [
              20.6851196,
              43.1229687
            ],
            [
              20.6854467,
              43.1224939
            ],
            [
              20.6853605,
              43.1222148
            ],
            [
              20.6855492,
              43.1218646
            ],
            [
              20.6860167,
              43.121441
            ],
            [
              20.6864225,
              43.1202826
            ],
            [
              20.6863545,
              43.118998
            ],
            [
              20.6869865,
              43.1172414
            ],
            [
              20.6881004,
              43.1165006
            ],
            [
              20.6882633,
              43.1162382
            ],
            [
              20.6881578,
              43.115634
            ],
            [
              20.6892476,
              43.1147474
            ],
            [
              20.6892807,
              43.1142524
            ],
            [
              20.6890108,
              43.1138347
            ],
            [
              20.6893154,
              43.1126559
            ],
            [
              20.6905676,
              43.111764
            ],
            [
              20.6906165,
              43.1110838
            ],
            [
              20.6908192,
              43.1107243
            ],
            [
              20.6921704,
              43.1100023
            ],
            [
              20.6927605,
              43.1091342
            ],
            [
              20.6926019,
              43.1079794
            ],
            [
              20.6929366,
              43.1074772
            ],
            [
              20.6930829,
              43.1055498
            ],
            [
              20.6926761,
              43.1053456
            ],
            [
              20.6921186,
              43.1053316
            ],
            [
              20.6916868,
              43.104978
            ],
            [
              20.6907733,
              43.1049886
            ],
            [
              20.6900801,
              43.1046976
            ],
            [
              20.6898772,
              43.104166
            ],
            [
              20.6877377,
              43.1029897
            ],
            [
              20.6873567,
              43.1025399
            ],
            [
              20.6882479,
              43.1004956
            ],
            [
              20.6896666,
              43.0997211
            ],
            [
              20.6905857,
              43.0982532
            ],
            [
              20.6916874,
              43.0974643
            ],
            [
              20.6918649,
              43.0963523
            ],
            [
              20.6932425,
              43.0948194
            ],
            [
              20.6923896,
              43.0933566
            ],
            [
              20.6922622,
              43.0924932
            ],
            [
              20.6926447,
              43.0907117
            ],
            [
              20.691731,
              43.0907853
            ],
            [
              20.6915816,
              43.0903146
            ],
            [
              20.6916714,
              43.0900508
            ],
            [
              20.690773,
              43.089363
            ],
            [
              20.6900105,
              43.0885214
            ],
            [
              20.6896487,
              43.0876601
            ],
            [
              20.6896922,
              43.0867125
            ],
            [
              20.6891082,
              43.0859963
            ],
            [
              20.6887036,
              43.0850998
            ],
            [
              20.6880124,
              43.0847062
            ],
            [
              20.6876961,
              43.0839567
            ],
            [
              20.6872938,
              43.0836626
            ],
            [
              20.6860394,
              43.0835521
            ],
            [
              20.6854458,
              43.0832762
            ],
            [
              20.6846259,
              43.0827845
            ],
            [
              20.6838657,
              43.081897
            ],
            [
              20.6835676,
              43.0817483
            ],
            [
              20.6817103,
              43.081337
            ],
            [
              20.6801932,
              43.0803214
            ],
            [
              20.6790827,
              43.0798494
            ],
            [
              20.6762276,
              43.079755
            ],
            [
              20.6734551,
              43.0788286
            ],
            [
              20.6727177,
              43.0783788
            ],
            [
              20.6716709,
              43.0783703
            ],
            [
              20.6700478,
              43.0778005
            ],
            [
              20.6677581,
              43.0773925
            ],
            [
              20.6669241,
              43.0774038
            ],
            [
              20.6654527,
              43.0778123
            ],
            [
              20.6644813,
              43.0772956
            ],
            [
              20.6636508,
              43.0773913
            ],
            [
              20.6629303,
              43.0776818
            ],
            [
              20.6621481,
              43.0784089
            ],
            [
              20.659897,
              43.0766967
            ],
            [
              20.6590448,
              43.0765368
            ],
            [
              20.6578057,
              43.0745216
            ],
            [
              20.6562388,
              43.0736977
            ],
            [
              20.6571831,
              43.0711688
            ],
            [
              20.6578362,
              43.0705207
            ],
            [
              20.657699,
              43.0699654
            ],
            [
              20.6586587,
              43.0691151
            ],
            [
              20.660428,
              43.0683325
            ],
            [
              20.6612137,
              43.067661
            ],
            [
              20.6618978,
              43.0667547
            ],
            [
              20.6635327,
              43.0665932
            ],
            [
              20.6661361,
              43.0656257
            ],
            [
              20.6676721,
              43.0667119
            ],
            [
              20.6685064,
              43.0665097
            ],
            [
              20.6690976,
              43.0652751
            ],
            [
              20.669135,
              43.0643869
            ],
            [
              20.668958,
              43.0635259
            ],
            [
              20.6691883,
              43.0625655
            ],
            [
              20.6697449,
              43.0618828
            ],
            [
              20.669748,
              43.0616325
            ],
            [
              20.6691505,
              43.0593355
            ],
            [
              20.6688581,
              43.0590688
            ],
            [
              20.6703879,
              43.05822
            ],
            [
              20.6705226,
              43.0555657
            ],
            [
              20.6675934,
              43.0531388
            ],
            [
              20.6665942,
              43.0509982
            ],
            [
              20.6658754,
              43.0498791
            ],
            [
              20.6657042,
              43.050034
            ],
            [
              20.665459,
              43.0496369
            ],
            [
              20.6656378,
              43.04916
            ],
            [
              20.6665565,
              43.049193
            ],
            [
              20.6691662,
              43.0484711
            ],
            [
              20.6701166,
              43.0479687
            ],
            [
              20.6704628,
              43.0474606
            ],
            [
              20.6703065,
              43.0470566
            ],
            [
              20.6709839,
              43.0461591
            ],
            [
              20.6712422,
              43.0442489
            ],
            [
              20.6711318,
              43.0424023
            ],
            [
              20.6713835,
              43.0390837
            ],
            [
              20.6707794,
              43.0380719
            ],
            [
              20.6688597,
              43.035636
            ],
            [
              20.6694797,
              43.0353489
            ],
            [
              20.6692508,
              43.0351214
            ],
            [
              20.6686459,
              43.0352647
            ],
            [
              20.6677501,
              43.0350169
            ],
            [
              20.6666157,
              43.0353341
            ],
            [
              20.6655472,
              43.0347613
            ],
            [
              20.6650295,
              43.0347361
            ],
            [
              20.663427,
              43.0341961
            ],
            [
              20.6603463,
              43.0347213
            ],
            [
              20.6596841,
              43.0345282
            ],
            [
              20.658618,
              43.0345132
            ],
            [
              20.654999,
              43.0348442
            ],
            [
              20.652157,
              43.0334799
            ],
            [
              20.6520286,
              43.0329515
            ],
            [
              20.6523275,
              43.0314022
            ],
            [
              20.6522018,
              43.0309098
            ],
            [
              20.6518442,
              43.0302415
            ],
            [
              20.6511877,
              43.0298241
            ],
            [
              20.6504803,
              43.0288777
            ],
            [
              20.6504636,
              43.0281517
            ],
            [
              20.65113,
              43.0258561
            ],
            [
              20.6509977,
              43.0220971
            ],
            [
              20.6501517,
              43.0224502
            ],
            [
              20.6489842,
              43.0224387
            ],
            [
              20.6481572,
              43.0234159
            ],
            [
              20.6463871,
              43.0233638
            ],
            [
              20.6452135,
              43.0238012
            ],
            [
              20.6443185,
              43.0232827
            ],
            [
              20.6427423,
              43.0230747
            ],
            [
              20.6423759,
              43.022825
            ],
            [
              20.6413768,
              43.0226736
            ],
            [
              20.6410234,
              43.0223732
            ],
            [
              20.6408205,
              43.021556
            ],
            [
              20.6408706,
              43.0198135
            ],
            [
              20.6403404,
              43.018919
            ],
            [
              20.6403081,
              43.0185127
            ],
            [
              20.6388371,
              43.0171797
            ],
            [
              20.6381036,
              43.0169968
            ],
            [
              20.6380865,
              43.0168083
            ],
            [
              20.6376893,
              43.0165237
            ],
            [
              20.6368625,
              43.0163688
            ],
            [
              20.6371712,
              43.0154316
            ],
            [
              20.6372625,
              43.0144589
            ],
            [
              20.6379776,
              43.0133119
            ],
            [
              20.6380978,
              43.0126801
            ],
            [
              20.638685,
              43.0122221
            ],
            [
              20.639914,
              43.0116379
            ],
            [
              20.6411253,
              43.0103425
            ],
            [
              20.6408327,
              43.0099166
            ],
            [
              20.6410229,
              43.0091513
            ],
            [
              20.6405028,
              43.0068296
            ],
            [
              20.6388767,
              43.0068259
            ],
            [
              20.6368564,
              43.0079303
            ],
            [
              20.6356362,
              43.0079559
            ],
            [
              20.6345222,
              43.0085084
            ],
            [
              20.6337636,
              43.0083696
            ],
            [
              20.6332428,
              43.0086875
            ],
            [
              20.6298641,
              43.0091231
            ],
            [
              20.6296746,
              43.0088659
            ],
            [
              20.6289574,
              43.0085202
            ],
            [
              20.6280423,
              43.0083769
            ],
            [
              20.6281246,
              43.0080069
            ],
            [
              20.6272216,
              43.0067772
            ],
            [
              20.6271738,
              43.0059525
            ],
            [
              20.6268823,
              43.0059822
            ],
            [
              20.6237371,
              43.0039917
            ],
            [
              20.619712,
              43.0025427
            ],
            [
              20.6180949,
              43.0033385
            ],
            [
              20.6173375,
              43.0030647
            ],
            [
              20.6151386,
              43.0047159
            ],
            [
              20.6170636,
              43.0064089
            ],
            [
              20.6168561,
              43.0066928
            ],
            [
              20.617375,
              43.0069952
            ],
            [
              20.617119,
              43.0077655
            ],
            [
              20.6175292,
              43.0079553
            ],
            [
              20.6169011,
              43.0085332
            ],
            [
              20.6175021,
              43.0094052
            ],
            [
              20.6180433,
              43.0096261
            ],
            [
              20.6181676,
              43.0098591
            ],
            [
              20.6180414,
              43.0102382
            ],
            [
              20.6182274,
              43.0104887
            ],
            [
              20.6178971,
              43.0106039
            ],
            [
              20.6177532,
              43.0117902
            ],
            [
              20.6180668,
              43.0120304
            ],
            [
              20.6180787,
              43.0124581
            ],
            [
              20.6185451,
              43.0132922
            ],
            [
              20.6184614,
              43.0156534
            ],
            [
              20.6189822,
              43.01685
            ],
            [
              20.6177288,
              43.0175194
            ],
            [
              20.6153993,
              43.0172297
            ],
            [
              20.6147192,
              43.0167592
            ],
            [
              20.6142407,
              43.0161153
            ],
            [
              20.6138158,
              43.0160479
            ],
            [
              20.6136274,
              43.0154335
            ],
            [
              20.6120598,
              43.0156354
            ],
            [
              20.6107766,
              43.0155517
            ],
            [
              20.6101818,
              43.0153519
            ],
            [
              20.6096255,
              43.0154087
            ],
            [
              20.6076632,
              43.0172184
            ],
            [
              20.6072081,
              43.0172868
            ],
            [
              20.6065969,
              43.0173137
            ],
            [
              20.6031288,
              43.0161346
            ],
            [
              20.5997626,
              43.0156351
            ],
            [
              20.5908239,
              43.0170347
            ],
            [
              20.5904481,
              43.0145936
            ],
            [
              20.5847188,
              43.013257
            ],
            [
              20.5813773,
              43.0127517
            ],
            [
              20.5799896,
              43.0118337
            ],
            [
              20.5819143,
              43.0087152
            ],
            [
              20.5814419,
              43.005104
            ],
            [
              20.5812203,
              43.001955
            ],
            [
              20.5760345,
              43.0000221
            ],
            [
              20.57584357319707,
              43
            ]
          ]
        ]
      }
    }
  ]
}