{
  "type": "FeatureCollection",
  "features": [
    {
      "type": "Feature",
      "properties": {
        "osm_id": -54224,
        "boundary": "administrative",
        "admin_level": 2,
        "parents": null,
        "name": "Finland",
        "local_name": "Suomi / Finland",
        "name_en": "Finland",
        "all_tags": {
          "flag": "http://upload.wikimedia.org/wikipedia/commons/b/bc/Flag_of_Finland.svg",
          "name": "Suomi / Finland",
          "name:ab": "Суоми",
          "name:af": "Finland",
          "name:am": "ፊንላንድ",
          "name:an": "Finlandia",
          "name:ar": "فنلندا",
          "name:ay": "Phini suyu",
          "name:az": "Finlandiya",
          "name:ba": "Финляндия",
          "name:be": "Фінляндыя",
          "name:bg": "Финландия",
          "name:bi": "Finland",
          "name:bm": "Finland",
          "name:bn": "ফিনল্যান্ড",
          "name:bo": "ཧྥིན་ལན",
          "name:br": "Finland",
          "name:bs": "Finska",
          "name:ca": "Finlàndia",
          "name:ce": "Финлянди",
          "name:co": "Finlandia",
          "name:cs": "Finsko",
          "name:cu": "Соумь",
          "name:cv": "Финлянди",
          "name:cy": "Y Ffindir",
          "name:da": "Finland",
          "name:de": "Finnland",
          "name:dv": "ފިންލޭންޑު",
          "name:dz": "ཕིན་ལེནཌ་",
          "name:ee": "Finland",
          "name:el": "Φινλανδία",
          "name:en": "Finland",
          "name:eo": "Finnlando",
          "name:es": "Finlandia",
          "name:et": "Soome",
          "name:eu": "Finlandia",
          "name:fa": "فنلاند",
          "name:fi": "Suomi",
          "name:fo": "Finnland",
          "name:fr": "Finlande",
          "name:fy": "Finlân",
          "name:ga": "An Fhionlainn",
          "name:gd": "Suòmaidh",
          "name:gl": "Finlandia",
          "name:gn": "Hĩlandia",
          "name:gu": "ફીનલેંડ",
          "name:gv": "Finnlynn",
          "name:he": "פינלנד",
          "name:hi": "फ़िनलैंड",
          "name:hr": "Finska",
          "name:ht": "Fenlann",
          "name:hu": "Finnország",
          "name:hy": "Ֆինլանդիա",
          "name:ia": "Finlandia",
          "name:id": "Finlandia",
          "name:ie": "Finland",
          "name:ig": "Finland",
          "name:io": "Finlando",
          "name:is": "Finnland",
          "name:it": "Finlandia",
          "name:iu": "ᐃᓐᓚᓐᑦ",
          "name:ja": "フィンランド",
          "name:jv": "Finlandia",
          "name:ka": "ფინეთი",
          "name:kg": "Finlandi",
          "name:ki": "Finland",
          "name:kk": "Финландия",
          "name:kl": "Finlandi",
          "name:kn": "ಫಿನ್‍ಲ್ಯಾಂಡ್",
          "name:ko": "핀란드",
          "name:ks": "فننش",
          "name:ku": "Fînland",
          "name:kv": "Финляндия",
          "name:kw": "Pow Finn",
          "name:ky": "Финляндия",
          "name:la": "Finnia",
          "name:lb": "Finnland",
          "name:lg": "Finilandi",
          "name:li": "Finland",
          "name:ln": "Finilanda",
          "name:lt": "Suomija",
          "name:lv": "Somija",
          "name:mg": "Finlandy",
          "name:mi": "Whinarana",
          "name:mk": "Финска",
          "name:ml": "ഫിൻലാന്റ്",
          "name:mn": "Финлянд",
          "name:mr": "फिनलंड",
          "name:ms": "Finland",
          "name:mt": "Finlandja",
          "name:my": "ဖင်လန်နိုင်ငံ",
          "name:na": "Finland",
          "name:ne": "फिनल्याण्ड",
          "name:nl": "Finland",
          "name:nn": "Finland",
          "name:no": "Finland",
          "name:nv": "Nahoditsʼǫʼłání",
          "name:oc": "Finlàndia",
          "name:or": "ଫିନଲ୍ୟାଣ୍ଡ",
          "name:os": "Финлянди",
          "name:pa": "ਫ਼ਿਨਲੈਂਡ",
          "name:pl": "Finlandia",
          "name:ps": "فېنلانډ",
          "name:pt": "Finlândia",
          "name:qu": "Phinsuyu",
          "name:rm": "Finlanda",
          "name:ro": "Finlanda",
          "name:ru": "Финляндия",
          "name:rw": "Finilande",
          "name:sa": "फिन्लैंड",
          "name:sc": "Finlandia",
          "name:se": "Suopma",
          "name:sh": "Finska",
          "name:si": "ෆින්ලන්තය",
          "name:sk": "Fínsko",
          "name:sl": "Finska",
          "name:sm": "Finalagi",
          "name:so": "Finland",
          "name:sq": "Finlanda",
          "name:sr": "Финска",
          "name:ss": "IFini",
          "name:st": "Finland",
          "name:su": "Finlandia",
          "name:sv": "Finland",
          "name:sw": "Ufini",
          "name:ta": "பின்லாந்து",
          "name:te": "ఫిన్లెండ్",
          "name:tg": "Финланд",
          "name:th": "ประเทศฟินแลนด์",
          "name:tk": "Finlýandiýa",
          "name:tl": "Pinlandiya",
          "name:tr": "Finlandiya",
          "name:tt": "Финләндия",
          "name:ug": "فىنلاندىيە",
          "name:uk": "Фінляндія",
          "name:ur": "فن لینڈ",
          "name:uz": "Finlandiya",
          "name:vi": "Phần Lan",
          "name:vo": "Suomiyän",
          "name:wa": "Finlande",
          "name:wo": "Finlaand",
          "name:yi": "פינלאנד",
          "name:yo": "Finlandi",
          "name:za": "Finlan",
          "name:zh": "芬兰",
          "name:zu": "IFinlandi",
          "website": "https://www.finland.fi/",
          "boundary": "administrative",
          "int_name": "Finland",
          "name:ace": "Finlandia",
          "name:als": "Finnland",
          "name:ang": "Finnland",
          "name:arc": "ܦܢܠܢܕܐ",
          "name:arz": "فينلاندا",
          "name:ast": "Finlandia",
          "name:bar": "Finnlånd",
          "name:bcl": "Finlandya",
          "name:bpy": "ফিনল্যান্ড",
          "name:bxr": "Финланд",
          "name:cdo": "Hŭng-làng",
          "name:ceb": "Finlandia",
          "name:chr": "ᏫᏂᎦᏙᎯ",
          "name:ckb": "فینلاند",
          "name:crh": "Finlandiya",
          "name:csb": "Fińskô",
          "name:din": "Pinlɛn",
          "name:diq": "Finlanda",
          "name:dsb": "Finska",
          "name:ext": "Finlándia",
          "name:frp": "Finlande",
          "name:frr": "Finlönj",
          "name:fur": "Finlande",
          "name:gag": "Finlandiya",
          "name:gan": "芬蘭",
          "name:hak": "Fûn-làn",
          "name:haw": "Pinilana",
          "name:hif": "Finland",
          "name:hsb": "Finska",
          "name:ilo": "Finlandia",
          "name:jbo": "finland",
          "name:kaa": "Finlyandiya",
          "name:kbd": "Финлэнд",
          "name:koi": "Суоми",
          "name:krc": "Финляндия",
          "name:ksh": "Finnlandt",
          "name:lad": "Finlandia",
          "name:lez": "Финляндия",
          "name:lij": "Finlandia",
          "name:lmo": "Finlandia",
          "name:ltg": "Suomeja",
          "name:lzh": "芬蘭",
          "name:mdf": "Суоми мастор",
          "name:mhr": "Суоми Эл",
          "name:mrj": "Финлянди",
          "name:myv": "Суоми Мастор",
          "name:nah": "Fintlālpan",
          "name:nan": "Suomi",
          "name:nds": "Finnland",
          "name:new": "फिनल्यान्ड",
          "name:nov": "Finlande",
          "name:nrm": "Fînlande",
          "name:pam": "Finland",
          "name:pap": "Finlandia",
          "name:pcd": "Finlinde",
          "name:pih": "Finland",
          "name:pms": "Finlandia",
          "name:pnb": "فنلینڈ",
          "name:pnt": "Φινλανδία",
          "name:rmy": "Finland",
          "name:rue": "Фіньско",
          "name:sah": "Финляндия",
          "name:scn": "Finlandia",
          "name:sco": "Finland",
          "name:sje": "Suobma",
          "name:smn": "Suomâ",
          "name:sms": "Lääʹddjânnam",
          "name:srn": "Finland",
          "name:stq": "Finlound",
          "name:szl": "Finland",
          "name:tet": "Finlándia",
          "name:tok": "ma Sumi",
          "name:tpi": "Pinlan",
          "name:tzl": "Finphäts",
          "name:udm": "Финляндия",
          "name:vec": "Finlandia",
          "name:vep": "Suomenma",
          "name:vls": "Finland",
          "name:vro": "Soomõ",
          "name:war": "Finlandya",
          "name:wuu": "芬兰",
          "name:xal": "Суһомудин Орн",
          "name:xmf": "ფინეთი",
          "name:yue": "芬蘭",
          "name:zea": "Finland",
          "way_area": "72.1163",
          "wikidata": "Q33",
          "ISO3166-1": "FI",
          "wikipedia": "fi:Suomi",
          "admin_level": "2",
          "alt_name:eo": "Finlando;Finnio;Finnujo;Suomio;Suomujo",
          "name:nds-nl": "Finlaand",
          "driving_side": "right",
          "name:bat-smg": "Soumėjė",
          "name:roa-rup": "Finlanda",
          "name:zh-Hans": "芬兰",
          "name:zh-Hant": "芬蘭",
          "name:roa-tara": "Finlandie",
          "official_name": "Suomen tasavalta / Republiken Finland",
          "name:be-tarask": "Фінляндыя",
          "name:zh_pinyin": "Fēnlán",
          "ISO3166-1:alpha2": "FI",
          "ISO3166-1:alpha3": "FIN",
          "default_language": "fi",
          "official_name:ar": "جمهورية فنلندا",
          "official_name:be": "Фінляндская Рэспубліка",
          "official_name:cs": "Finská republika",
          "official_name:da": "Repbulikken Finland",
          "official_name:de": "Republik Finnland",
          "official_name:el": "Δημοκρατία της Φινλανδίας",
          "official_name:en": "Republic of Finland",
          "official_name:eo": "Respubliko Finnlando",
          "official_name:es": "República de Finlandia",
          "official_name:et": "Soome Vabariik",
          "official_name:fa": "جمهوری فنلاند",
          "official_name:fi": "Suomen tasavalta",
          "official_name:fr": "République de Finlande",
          "official_name:id": "Republik Finlandia",
          "official_name:is": "Lýðveldið Finnland",
          "official_name:it": "Repubblica di Finlandia",
          "official_name:ja": "フィンランド共和国",
          "official_name:lt": "Suomijos Respublika",
          "official_name:nn": "Republikken Finland",
          "official_name:no": "Republikken Finland",
          "official_name:pt": "República da Finlândia",
          "official_name:ru": "Финляндская Республика",
          "official_name:se": "Suoma dásseváldi",
          "official_name:sk": "Fínska republika",
          "official_name:sv": "Republiken Finland",
          "official_name:ur": "جمہوریہ فن لینڈ",
          "official_name:vi": "Cộng hòa Phần Lan",
          "official_name:zh": "芬兰共和国",
          "ISO3166-1:numeric": "246",
          "official_name:zh-Hans": "芬兰共和国",
          "official_name:zh-Hant": "芬蘭共和國"
        }
      },
      "geometry": {
        "type": "Polygon",
        "coordinates": [
          [
            [
              20.1635668,
              63.1664346
            ],
            [
              20.1866531,
              63.1287022
            ],
            [
              20.228223,
              63.0563557
            ],
            [
              20.260393348257995,
              63
            ],
            [
              21,
              63
            ],
            [
              21,
              63.53837651157979
            ],
            [
              20.9362094,
              63.5218572
            ],
            [
              20.6928675,
              63.4851816
            ],
            [
              20.3962064,
              63.3334993
            ],
            [
              20.1635668,
              63.1664346
            ]
          ]
        ]
      }
    },
    {
      "type": "Feature",
      "properties": {
        "osm_id": -52822,
        "boundary": "administrative",
        "admin_level": 2,
        "parents": null,
        "name": "Sweden",
        "local_name": "Sverige",
        "name_en": "Sweden",
        "all_tags": {
          "flag": "http://upload.wikimedia.org/wikipedia/commons/4/4c/Flag_of_Sweden.svg",
          "name": "Sverige",
          "name:ab": "Швециа",
          "name:af": "Swede",
          "name:ak": "Sweden",
          "name:am": "ስዊድን",
          "name:an": "Suecia",
          "name:ar": "السويد",
          "name:az": "İsveç",
          "name:ba": "Швеция",
          "name:be": "Швецыя",
          "name:bg": "Швеция",
          "name:bi": "Sweden",
          "name:bm": "Swedi",
          "name:bn": "সুইডেন",
          "name:bo": "སི་ཝེ་དེན།",
          "name:br": "Sveden",
          "name:bs": "Švedska",
          "name:ca": "Suècia",
          "name:ce": "Швеци",
          "name:co": "Svezia",
          "name:cs": "Švédsko",
          "name:cu": "Свєньско",
          "name:cv": "Швеци",
          "name:cy": "Sweden",
          "name:da": "Sverige",
          "name:de": "Schweden",
          "name:dv": "ސުވިޑަން",
          "name:dz": "སུའི་ཌན་",
          "name:ee": "Sweden",
          "name:el": "Σουηδία",
          "name:en": "Sweden",
          "name:eo": "Svedio",
          "name:es": "Suecia",
          "name:et": "Rootsi",
          "name:eu": "Suedia",
          "name:fa": "سوئد",
          "name:fi": "Ruotsi",
          "name:fo": "Svøríki",
          "name:fr": "Suède",
          "name:fy": "Sweden",
          "name:ga": "An tSualainn",
          "name:gd": "An t-Suain",
          "name:gl": "Suecia",
          "name:gn": "Suesia",
          "name:gu": "સ્વિડન",
          "name:gv": "Yn Toolynn",
          "name:he": "שבדיה",
          "name:hi": "स्वीडन",
          "name:hr": "Švedska",
          "name:ht": "Syèd",
          "name:hu": "Svédország",
          "name:hy": "Շվեդիա",
          "name:ia": "Svedia",
          "name:id": "Swedia",
          "name:ie": "Svedia",
          "name:io": "Suedia",
          "name:is": "Svíþjóð",
          "name:it": "Svezia",
          "name:iu": "ᔅᕗᕆᑭ",
          "name:ja": "スウェーデン",
          "name:jv": "Swédia",
          "name:ka": "შვედეთი",
          "name:kg": "Suedi",
          "name:ki": "Sweden",
          "name:kk": "Швеция",
          "name:kl": "Svenskit Nunaat",
          "name:km": "ស៊ុយអែត",
          "name:kn": "ಸ್ವೀಡನ್",
          "name:ko": "스웨덴",
          "name:ku": "Swêd",
          "name:kv": "Швеция",
          "name:kw": "Swedherwyk",
          "name:ky": "Швеция",
          "name:la": "Suecia",
          "name:lb": "Schweden",
          "name:lg": "Swiiden",
          "name:li": "Zwede",
          "name:ln": "Swédi",
          "name:lt": "Švedija",
          "name:lv": "Zviedrija",
          "name:mg": "Soeda",
          "name:mi": "Huītene",
          "name:mk": "Шведска",
          "name:ml": "സ്വീഡൻ",
          "name:mn": "Швед",
          "name:mr": "स्वीडन",
          "name:ms": "Sweden",
          "name:mt": "Żvezja",
          "name:my": "ဆွီဒင်နိုင်ငံ",
          "name:na": "Widen",
          "name:ne": "स्वीडेन",
          "name:nl": "Zweden",
          "name:nn": "Sverige",
          "name:no": "Sverige",
          "name:oc": "Suècia",
          "name:or": "ସ୍ଵିଡେନ",
          "name:os": "Швеци",
          "name:pa": "ਸਵੀਡਨ",
          "name:pl": "Szwecja",
          "name:ps": "سويډن",
          "name:pt": "Suécia",
          "name:qu": "Suwidsuyu",
          "name:rm": "Svezia",
          "name:ro": "Suedia",
          "name:ru": "Швеция",
          "name:rw": "Suwede",
          "name:sa": "स्वीडन",
          "name:sc": "Isvetzia",
          "name:se": "Ruoŧŧa",
          "name:sh": "Švedska",
          "name:sk": "Švédsko",
          "name:sl": "Švedska",
          "name:sm": "Sweden",
          "name:so": "Iswiidhan",
          "name:sq": "Suedia",
          "name:sr": "Шведска",
          "name:ss": "ISwideni",
          "name:su": "Swédia",
          "name:sv": "Sverige",
          "name:sw": "Uswidi",
          "name:ta": "சுவீடன்",
          "name:te": "స్వీడన్",
          "name:tg": "Шветсия",
          "name:th": "ประเทศสวีเดน",
          "name:tk": "Şwesiýa",
          "name:tl": "Suwesya",
          "name:tr": "İsveç",
          "name:tt": "Швеция",
          "name:tw": "Sweden",
          "name:ug": "شۋېتسىيە",
          "name:uk": "Швеція",
          "name:ur": "سویڈن",
          "name:uz": "Shvetsiya",
          "name:vi": "Thụy Điển",
          "name:vo": "Svedän",
          "name:wa": "Suwedwesse",
          "name:wo": "Suweed",
          "name:yi": "שוועדן",
          "name:yo": "Swídìn",
          "name:zh": "瑞典",
          "name:zu": "ISwidi",
          "boundary": "administrative",
          "int_name": "Sweden",
          "name:ace": "Swèdia",
          "name:als": "Schweden",
          "name:ang": "Swēoland",
          "name:arc": "ܣܘܝܕ",
          "name:arz": "السويد",
          "name:ast": "Suecia",
          "name:bar": "Schwedn",
          "name:bcl": "Suesya",
          "name:bpy": "সুইডেন",
          "name:bxr": "Швед",
          "name:cdo": "Sôi-diēng",
          "name:ceb": "Suwesya",
          "name:chr": "ᏍᏫᏕᏂ",
          "name:ckb": "سوید",
          "name:crh": "İsveç",
          "name:csb": "Szwedzkô",
          "name:diq": "İswec",
          "name:dsb": "Šwedska",
          "name:ext": "Suécia",
          "name:frp": "Suède",
          "name:frr": "Swärik",
          "name:fur": "Svezie",
          "name:gag": "Şvețiya",
          "name:gan": "瑞典",
          "name:hak": "Shuì-tién",
          "name:haw": "Kuekene",
          "name:hif": "Sweden",
          "name:hsb": "Šwedska",
          "name:ilo": "Suésia",
          "name:jbo": "sueriges",
          "name:kaa": "Shvetsiya",
          "name:kab": "Sswid",
          "name:kbd": "Шуэц",
          "name:koi": "Шведму",
          "name:krc": "Швеция",
          "name:krl": "Ruočči",
          "name:lad": "Suesia",
          "name:lez": "Швеция",
          "name:lij": "Sveçia",
          "name:lmo": "Svezia",
          "name:ltg": "Švedeja",
          "name:lzh": "瑞典",
          "name:mdf": "Шведмастор",
          "name:mhr": "Швеций",
          "name:myv": "Швеция Мастор",
          "name:mzn": "سوئد",
          "name:nah": "Suecia",
          "name:nan": "Sūi-tián",
          "name:nap": "Sguezia",
          "name:nds": "Sweden",
          "name:new": "स्विदेन",
          "name:nov": "Suedia",
          "name:nrm": "Suède",
          "name:pag": "Suesia",
          "name:pam": "Sweden",
          "name:pap": "Suecia",
          "name:pcd": "Suède",
          "name:pih": "Swiiden",
          "name:pms": "Svessia",
          "name:pnb": "سویڈن",
          "name:pnt": "Σουηδία",
          "name:rue": "Швеція",
          "name:sah": "Швеция",
          "name:scn": "Svezzia",
          "name:sco": "Swaden",
          "name:sje": "Sverrje",
          "name:smn": "Ruotâ",
          "name:sms": "Ruõcc",
          "name:stq": "Sweeden",
          "name:szl": "Szwedyjŏ",
          "name:tet": "Suésia",
          "name:tok": "ma Wensa",
          "name:tpi": "Suwidan",
          "name:tzl": "Sveiria",
          "name:udm": "Швеция",
          "name:vec": "Svèsia",
          "name:vep": "Ročinma",
          "name:vls": "Zweedn",
          "name:vro": "Roodsi",
          "name:war": "Suwesya",
          "name:wuu": "瑞典",
          "name:xal": "Сведин Нутг",
          "name:xmf": "შვედეთი",
          "name:yue": "瑞典",
          "name:zea": "Zweden",
          "timezone": "Europe/Stockholm",
          "way_area": "92.383",
          "wikidata": "Q34",
          "ISO3166-1": "SE",
          "wikipedia": "sv:Sverige",
          "admin_level": "2",
          "alt_name:eo": "Svedujo",
          "name:nds-nl": "Sveden",
          "name:bat-smg": "Švedėjė",
          "name:roa-rup": "Suidia",
          "name:zh-Hans": "瑞典",
          "name:roa-tara": "Svezzie",
          "official_name": "Konungariket Sverige",
          "name:be-tarask": "Швэцыя",
          "ISO3166-1:alpha2": "SE",
          "ISO3166-1:alpha3": "SWE",
          "default_language": "sv",
          "official_name:be": "Каралеўства Швецыя",
          "official_name:cs": "Švédské království",
          "official_name:de": "Königreich Schweden",
          "official_name:el": "Βασίλειο της Σουηδίας",
          "official_name:eo": "Reĝlando Svedio",
          "official_name:sv": "Konungariket Sverige",
          "ISO3166-1:numeric": "752"
        }
      },
      "geometry": {
        "type": "Polygon",
        "coordinates": [
          [
            [
              20,
              63.165522178642156
            ],
            [
              20.0151894,
              63.1644427
            ],
            [
              20.0304711,
              63.1636005
            ],
            [
              20.0458079,
              63.1629984
            ],
            [
              20.0611824,
              63.1626371
            ],
            [
              20.0765753,
              63.1625172
            ],
            [
              20.0919667,
              63.1626377
            ],
            [
              20.1073394,
              63.1630002
            ],
            [
              20.1226775,
              63.1636024
            ],
            [
              20.1379597,
              63.1644452
            ],
            [
              20.1635668,
              63.1664346
            ],
            [
              20.3962064,
              63.3334993
            ],
            [
              20.6928675,
              63.4851816
            ],
            [
              20.9362094,
              63.5218572
            ],
            [
              21,
              63.53838624717295
            ],
            [
              21,
              64
            ],
            [
              20,
              64
            ],
            [
              20,
              63.165522178642156
            ]
          ]
        ]
      }
    }
  ]
}