{
  "type": "FeatureCollection",
  "features": [
    {
      "type": "Feature",
      "properties": {
        "osm_id": -304938,
        "boundary": "administrative",
        "admin_level": 2,
        "parents": null,
        "name": "Iran",
        "local_name": "ایران",
        "name_en": "Iran",
        "all_tags": {
          "flag": "http://upload.wikimedia.org/wikipedia/commons/c/ca/Flag_of_Iran.svg",
          "name": "ایران",
          "sqkm": "1628762",
          "name:af": "Iran",
          "name:am": "ፋርስ",
          "name:an": "Irán",
          "name:ar": "إیران",
          "name:az": "İran",
          "name:ba": "Иран",
          "name:be": "Іран",
          "name:bg": "Иран",
          "name:bn": "ইরান",
          "name:bo": "ཡི་ལང་།",
          "name:br": "Iran",
          "name:bs": "Iran",
          "name:ca": "Iran",
          "name:ce": "Иран",
          "name:co": "Iranu",
          "name:cs": "Írán",
          "name:cy": "Iran",
          "name:da": "Iran",
          "name:de": "Iran",
          "name:dv": "އީރާން",
          "name:dz": "ཨི་རཱན་",
          "name:el": "Ιράν",
          "name:en": "Iran",
          "name:eo": "Irano",
          "name:es": "Irán",
          "name:et": "Iraan",
          "name:eu": "Iran",
          "name:fa": "ایران",
          "name:fi": "Iran",
          "name:fo": "Iran",
          "name:fr": "Iran",
          "name:fy": "Iran",
          "name:ga": "An Iaráin",
          "name:gd": "Ioràn",
          "name:gl": "Irán - ایران",
          "name:gn": "Irán",
          "name:gu": "ઈરાન",
          "name:gv": "Yn Eeraan",
          "name:ha": "Iran",
          "name:he": "איראן",
          "name:hi": "ईरान",
          "name:hr": "Iran",
          "name:ht": "Iran",
          "name:hu": "Irán",
          "name:hy": "Իրան",
          "name:ia": "Iran",
          "name:id": "Iran",
          "name:ie": "Iran",
          "name:io": "Iran",
          "name:is": "Íran",
          "name:it": "Iran",
          "name:ja": "イラン",
          "name:jv": "Iran",
          "name:ka": "ირანი",
          "name:kk": "Иран",
          "name:kl": "Iran",
          "name:km": "អ៊ីរ៉ង់",
          "name:kn": "ಇರಾನ್",
          "name:ko": "이란",
          "name:ks": "ایٖران",
          "name:ku": "Îran",
          "name:kv": "Иран",
          "name:kw": "Iran",
          "name:ky": "Иран",
          "name:la": "Irania",
          "name:lb": "Iran",
          "name:li": "Iran",
          "name:ln": "Iran",
          "name:lt": "Iranas",
          "name:lv": "Irāna",
          "name:mg": "Iran",
          "name:mi": "Irāna",
          "name:mk": "Иран",
          "name:ml": "ഇറാൻ",
          "name:mn": "Иран",
          "name:mr": "इराण",
          "name:ms": "Iran",
          "name:mt": "Iran",
          "name:my": "အီရန်နိုင်ငံ",
          "name:na": "Iran",
          "name:ne": "इरान",
          "name:nl": "Iran",
          "name:nn": "Iran",
          "name:no": "Iran",
          "name:nv": "Iiwą́ą́",
          "name:oc": "Iran",
          "name:or": "ଇରାନ",
          "name:os": "Иран",
          "name:pa": "ਇਰਾਨ",
          "name:pl": "Iran",
          "name:ps": "ایران",
          "name:pt": "Irão",
          "name:qu": "Iran",
          "name:rm": "Iran",
          "name:ro": "Iran",
          "name:ru": "Иран",
          "name:rw": "Irani",
          "name:sa": "ईरान",
          "name:sc": "Iran",
          "name:se": "Iran",
          "name:sh": "Iran",
          "name:si": "ඉරානය",
          "name:sk": "Irán",
          "name:sl": "Iran",
          "name:so": "Iiraan",
          "name:sq": "Irani",
          "name:sr": "Иран",
          "name:ss": "I-Irani",
          "name:su": "Iran",
          "name:sv": "Iran",
          "name:sw": "Uajemi",
          "name:ta": "ஈரான்",
          "name:te": "ఇరాన్",
          "name:tg": "Эрон",
          "name:th": "ประเทศอิหร่าน",
          "name:tk": "Eýran",
          "name:tl": "Iran",
          "name:tr": "İran",
          "name:tt": "Иран",
          "name:tw": "Iran",
          "name:ug": "ئىران",
          "name:uk": "Іран",
          "name:ur": "ایران",
          "name:uz": "Eron",
          "name:vi": "Iran",
          "name:vo": "Lirän",
          "name:wa": "Iran",
          "name:wo": "Iraan",
          "name:yi": "איראן",
          "name:yo": "Ìránì",
          "name:za": "Iran",
          "name:zh": "伊朗",
          "name:zu": "I-Irani",
          "boundary": "administrative",
          "int_name": "Iran",
          "name:ace": "Iran",
          "name:als": "Iran",
          "name:ang": "Persealand",
          "name:arc": "ܐܝܪܐܢ",
          "name:arz": "ایران",
          "name:ast": "Irán",
          "name:azb": "ایران",
          "name:bar": "Iran",
          "name:bcl": "Iran",
          "name:bpy": "ইরান",
          "name:bug": "Iran",
          "name:bxr": "Иран",
          "name:cdo": "Ĭ-lāng",
          "name:ceb": "Iran",
          "name:ckb": "ئێران",
          "name:crh": "İran",
          "name:csb": "Iran",
          "name:diq": "İran",
          "name:dsb": "Iran",
          "name:ext": "Irán",
          "name:frp": "Éran",
          "name:gag": "İran",
          "name:gan": "伊朗",
          "name:grc": "Περσίς",
          "name:hak": "Yî-lóng",
          "name:haw": "‘Ilana",
          "name:hif": "Iran",
          "name:hsb": "Iran",
          "name:ilo": "Iran",
          "name:jbo": "iran",
          "name:kaa": "İran",
          "name:kab": "Iran",
          "name:kbd": "Къажэр",
          "name:lad": "Iran",
          "name:lbe": "Иран",
          "name:lez": "Иран",
          "name:lij": "Iran",
          "name:lmo": "Iran",
          "name:lzh": "伊朗",
          "name:mdf": "Иран",
          "name:mhr": "Иран",
          "name:mzn": "ایران",
          "name:nah": "Iran",
          "name:nan": "Iran",
          "name:nap": "Iran",
          "name:nds": "Iran",
          "name:new": "इरान",
          "name:nov": "Iran",
          "name:pam": "Iran",
          "name:pap": "Iran",
          "name:pcd": "Iran",
          "name:pdc": "Iraen",
          "name:pih": "Eraan",
          "name:pms": "Iran",
          "name:pnb": "ایران",
          "name:rue": "Іран",
          "name:sah": "Ираан",
          "name:scn": "Iran",
          "name:sco": "Iran",
          "name:smn": "Iran",
          "name:sms": "Iraan",
          "name:stq": "Iran",
          "name:syc": "ܐܝܪܐܢ",
          "name:szl": "Iran",
          "name:tok": "ma Ilan",
          "name:udm": "Иран",
          "name:vec": "Iran",
          "name:vep": "Iran",
          "name:vro": "Iraan",
          "name:war": "Iran",
          "name:wuu": "伊朗",
          "name:xmf": "ირანი",
          "name:yue": "伊朗",
          "name:zea": "Iran",
          "timezone": "Asia/Tehran",
          "way_area": "163.814",
          "wikidata": "Q794",
          "ISO3166-1": "IR",
          "wikipedia": "fa:ایران",
          "name:pt-BR": "Irã",
          "population": "79926270",
          "admin_level": "2",
          "border_type": "nation",
          "name:nds-nl": "Iran",
          "name:simple": "Iran",
          "old_name:ar": "فارس",
          "old_name:cs": "Persie",
          "old_name:de": "Persien",
          "old_name:en": "Persia",
          "old_name:es": "Persia",
          "old_name:fr": "Perse",
          "old_name:pa": "ਪਾਰਸ",
          "old_name:ur": "پارس‎",
          "name:bat-smg": "Irans",
          "name:roa-rup": "Iran",
          "name:zh-Hans": "伊朗",
          "name:zh-Hant": "伊朗",
          "old_name:grc": "Περσίς",
          "name:roa-tara": "Iran",
          "official_name": "جمهوری اسلامی ایران",
          "name:be-tarask": "Іран",
          "population:date": "2016",
          "ISO3166-1:alpha2": "IR",
          "ISO3166-1:alpha3": "IRN",
          "default_language": "fa",
          "official_name:ar": "الجمهورية الإسلامية الإيرانية",
          "official_name:cs": "Íránská islámská republika",
          "official_name:cv": "Ислам Республики Иран",
          "official_name:de": "Islamische Republik Iran",
          "official_name:en": "Islamic Republic of Iran",
          "official_name:es": "República Islámica de Irán",
          "official_name:fr": "République islamique d'Iran",
          "official_name:pa": "ਈਰਾਨ ਦਾ ਇਸਲਾਮੀ ਗਣਤੰਤਰ",
          "official_name:ru": "Исламская Республика Иран",
          "official_name:sr": "Исламска Република Иран",
          "official_name:ur": "اسلامی جمہوریۂ ایران",
          "ISO3166-1:numeric": "364",
          "official_name:azb": "ایران ایسلام جۇمهۇریَّتی",
          "official_name:xal": "Сарта Иранмудин Орн"
        }
      },
      "geometry": {
        "type": "Polygon",
        "coordinates": [
          [
            [
              50,
              37
            ],
            [
              50.99737892818455,
              37
            ],
            [
              50.9934571,
              37.0020905
            ],
            [
              50.9814698,
              37.0077088
            ],
            [
              50.9718623,
              37.0117235
            ],
            [
              50.962046,
              37.0153995
            ],
            [
              50.9508236,
              37.019098
            ],
            [
              50.9429801,
              37.0221793
            ],
            [
              50.9372961,
              37.0251394
            ],
            [
              50.9282385,
              37.0312499
            ],
            [
              50.9195972,
              37.0365834
            ],
            [
              50.9151693,
              37.0391353
            ],
            [
              50.9061095,
              37.0440033
            ],
            [
              50.8932914,
              37.0501441
            ],
            [
              50.8839662,
              37.0541324
            ],
            [
              50.8750469,
              37.0575786
            ],
            [
              50.865838,
              37.0607774
            ],
            [
              50.8520718,
              37.0660069
            ],
            [
              50.8369756,
              37.0796476
            ],
            [
              50.8302706,
              37.0851324
            ],
            [
              50.8233074,
              37.090407
            ],
            [
              50.8160961,
              37.0954636
            ],
            [
              50.8075951,
              37.1009473
            ],
            [
              50.8032341,
              37.1035761
            ],
            [
              50.7943018,
              37.1086017
            ],
            [
              50.7897347,
              37.110996
            ],
            [
              50.7804094,
              37.1155418
            ],
            [
              50.7756557,
              37.1176911
            ],
            [
              50.7610578,
              37.1236327
            ],
            [
              50.7414062,
              37.1307152
            ],
            [
              50.7315385,
              37.1374371
            ],
            [
              50.7228852,
              37.1427706
            ],
            [
              50.7139482,
              37.1477961
            ],
            [
              50.7047448,
              37.1525041
            ],
            [
              50.6942799,
              37.1573291
            ],
            [
              50.6720796,
              37.1664753
            ],
            [
              50.6583265,
              37.1716745
            ],
            [
              50.6513077,
              37.1740203
            ],
            [
              50.6390503,
              37.1776481
            ],
            [
              50.6286322,
              37.1802837
            ],
            [
              50.6180797,
              37.1825523
            ],
            [
              50.6087603,
              37.1842221
            ],
            [
              50.6054481,
              37.1895591
            ],
            [
              50.6002138,
              37.1972338
            ],
            [
              50.5974406,
              37.2010008
            ],
            [
              50.5915884,
              37.2083849
            ],
            [
              50.5853379,
              37.2155574
            ],
            [
              50.582067,
              37.21906
            ],
            [
              50.5752416,
              37.2258896
            ],
            [
              50.5711045,
              37.2297477
            ],
            [
              50.566846,
              37.2335205
            ],
            [
              50.5579756,
              37.2408005
            ],
            [
              50.5497531,
              37.2470265
            ],
            [
              50.5428575,
              37.2518431
            ],
            [
              50.5386358,
              37.2546221
            ],
            [
              50.5299691,
              37.2599555
            ],
            [
              50.514149,
              37.2686541
            ],
            [
              50.5112612,
              37.2754297
            ],
            [
              50.507321,
              37.2835858
            ],
            [
              50.5029384,
              37.2915966
            ],
            [
              50.5005523,
              37.2955926
            ],
            [
              50.4965277,
              37.3040251
            ],
            [
              50.4881236,
              37.3189529
            ],
            [
              50.4812259,
              37.3364326
            ],
            [
              50.4793256,
              37.3407905
            ],
            [
              50.4755084,
              37.3486991
            ],
            [
              50.4748739,
              37.3551215
            ],
            [
              50.4725334,
              37.3705247
            ],
            [
              50.471764,
              37.3749255
            ],
            [
              50.4698764,
              37.3836102
            ],
            [
              50.4675327,
              37.3921504
            ],
            [
              50.4647239,
              37.4006008
            ],
            [
              50.4614549,
              37.4089454
            ],
            [
              50.4596498,
              37.4130729
            ],
            [
              50.4554486,
              37.4217194
            ],
            [
              50.4531606,
              37.4259821
            ],
            [
              50.4455308,
              37.4390578
            ],
            [
              50.4409637,
              37.4464119
            ],
            [
              50.4334635,
              37.4571043
            ],
            [
              50.4311541,
              37.4612001
            ],
            [
              50.4263267,
              37.4690502
            ],
            [
              50.4210732,
              37.4767247
            ],
            [
              50.4170435,
              37.482119
            ],
            [
              50.4128032,
              37.48741
            ],
            [
              50.4083564,
              37.4925923
            ],
            [
              50.4004046,
              37.5011453
            ],
            [
              50.3927112,
              37.5088584
            ],
            [
              50.3854916,
              37.5154428
            ],
            [
              50.3817478,
              37.5186392
            ],
            [
              50.3740011,
              37.5248326
            ],
            [
              50.3700019,
              37.5278267
            ],
            [
              50.3617614,
              37.5336025
            ],
            [
              50.3572479,
              37.5365582
            ],
            [
              50.345724,
              37.5435205
            ],
            [
              50.3390974,
              37.5471704
            ],
            [
              50.3323268,
              37.5506491
            ],
            [
              50.3254191,
              37.553953
            ],
            [
              50.3109033,
              37.5601486
            ],
            [
              50.2854049,
              37.5698909
            ],
            [
              50.2701234,
              37.5747884
            ],
            [
              50.2614736,
              37.57716
            ],
            [
              50.2527207,
              37.5792793
            ],
            [
              50.2199582,
              37.5866905
            ],
            [
              50.2075818,
              37.5892192
            ],
            [
              50.1950594,
              37.5912437
            ],
            [
              50.1505369,
              37.5972186
            ],
            [
              50.1377042,
              37.5984864
            ],
            [
              50.13207,
              37.6035864
            ],
            [
              50.1244866,
              37.6099131
            ],
            [
              50.1165622,
              37.6159702
            ],
            [
              50.108312,
              37.6217459
            ],
            [
              50.0954487,
              37.6296403
            ],
            [
              50.0865449,
              37.6347368
            ],
            [
              50.0773716,
              37.6395186
            ],
            [
              50.0698417,
              37.6431318
            ],
            [
              50.0680237,
              37.6441518
            ],
            [
              50.0632365,
              37.646301
            ],
            [
              50.0534904,
              37.6503473
            ],
            [
              50.0435305,
              37.6540509
            ],
            [
              50.0333759,
              37.6574046
            ],
            [
              50.023118,
              37.6603827
            ],
            [
              50.0127795,
              37.6629869
            ],
            [
              50,
              37.66576565450652
            ],
            [
              50,
              37
            ]
          ]
        ]
      }
    }
  ]
}