{
  "type": "FeatureCollection",
  "features": [
    {
      "type": "Feature",
      "properties": {
        "osm_id": -296961,
        "boundary": "administrative",
        "admin_level": 2,
        "parents": null,
        "name": "Eritrea",
        "local_name": "ኤርትራ Eritrea إرتريا",
        "name_en": "Eritrea",
        "all_tags": {
          "flag": "http://upload.wikimedia.org/wikipedia/commons/2/29/Flag_of_Eritrea.svg",
          "name": "ኤርትራ Eritrea إرتريا",
          "name:af": "Eritrea",
          "name:am": "ኤርትራ",
          "name:an": "Eritrea",
          "name:ar": "إرتريا",
          "name:az": "Eritreya",
          "name:ba": "Эритрея",
          "name:be": "Эрытрэя",
          "name:bg": "Еритрея",
          "name:bm": "Eritrea",
          "name:bn": "ইরিত্রিয়া",
          "name:bo": "ཨི་རི་ཏྲའ།",
          "name:br": "Eritrea",
          "name:bs": "Eritreja",
          "name:ca": "Eritrea",
          "name:ce": "Эритре",
          "name:cs": "Eritrea",
          "name:cu": "Єрѷѳрїꙗ",
          "name:cy": "Eritrea",
          "name:da": "Eritrea",
          "name:de": "Eritrea",
          "name:dv": "އެރިތުރިއާ",
          "name:ee": "Eritrea",
          "name:el": "Ερυθραία",
          "name:en": "Eritrea",
          "name:eo": "Eritreo",
          "name:es": "Eritrea",
          "name:et": "Eritrea",
          "name:eu": "Eritrea",
          "name:fa": "اریتره",
          "name:fi": "Eritrea",
          "name:fo": "Eritrea",
          "name:fr": "Érythrée",
          "name:fy": "Eritreä",
          "name:ga": "An Eiritré",
          "name:gd": "Eartra",
          "name:gl": "Eritrea",
          "name:gn": "Erityrea",
          "name:gr": "Ἐρυθραία",
          "name:gv": "Eritrea",
          "name:he": "אריתריאה",
          "name:hi": "इरित्रिया",
          "name:hr": "Eritreja",
          "name:ht": "Eritre",
          "name:hu": "Eritrea",
          "name:hy": "Էրիթրեա",
          "name:ia": "Eritrea",
          "name:id": "Eritrea",
          "name:ie": "Eritréa",
          "name:io": "Eritrea",
          "name:is": "Erítrea",
          "name:it": "Eritrea",
          "name:ja": "エリトリア",
          "name:jv": "Eritrea",
          "name:ka": "ერიტრეა",
          "name:kg": "Eritrea",
          "name:kk": "Эритрея",
          "name:kn": "ಎರಿಟ್ರಿಯ",
          "name:ko": "에리트레아",
          "name:ks": "ارتریا",
          "name:ku": "Erîtrea",
          "name:kw": "Eritrea",
          "name:ky": "Эритрея",
          "name:la": "Erythraea",
          "name:lb": "Eritrea",
          "name:li": "Eritrea",
          "name:ln": "Elitré",
          "name:lt": "Eritrėja",
          "name:lv": "Eritreja",
          "name:mi": "Eritēria",
          "name:mk": "Еритреја",
          "name:ml": "എരിട്രിയ",
          "name:mn": "Эритрей",
          "name:mr": "इरिट्रिया",
          "name:ms": "Eritrea",
          "name:mt": "Eritrea",
          "name:my": "အီရီထရီးယားနိုင်ငံ",
          "name:na": "Eritrea",
          "name:ne": "एरिट्रिया",
          "name:nl": "Eritrea",
          "name:nn": "Eritrea",
          "name:no": "Eritrea",
          "name:oc": "Eritrèa",
          "name:om": "Eritrea",
          "name:or": "ଇରିଟ୍ରିଆ",
          "name:os": "Эритрей",
          "name:pa": "ਇਰੀਤਰੀਆ",
          "name:pl": "Erytrea",
          "name:ps": "اریتریا",
          "name:pt": "Eritreia",
          "name:qu": "Iritriya",
          "name:ro": "Eritreea",
          "name:ru": "Эритрея",
          "name:rw": "Eritereya",
          "name:sa": "इरीट्रिया",
          "name:sc": "Eritrea",
          "name:se": "Eritrea",
          "name:sg": "Eritrëe",
          "name:sh": "Eritreja",
          "name:sk": "Eritrea",
          "name:sl": "Eritreja",
          "name:sn": "Eritrea",
          "name:so": "Eratareya",
          "name:sq": "Eritrea",
          "name:sr": "Еритреја",
          "name:ss": "IRitheya",
          "name:st": "Eritrea",
          "name:su": "Éritréa",
          "name:sv": "Eritrea",
          "name:sw": "Eritrea",
          "name:ta": "எரித்திரியா",
          "name:te": "ఎరిత్రియా",
          "name:tg": "Эритрея",
          "name:th": "ประเทศเอริเทรีย",
          "name:ti": "ኤርትራ",
          "name:tk": "Eritreýa",
          "name:tl": "Eritrea",
          "name:tr": "Eritre",
          "name:ts": "Eritreya",
          "name:tt": "Эритрея",
          "name:ug": "ئېرىترېيە",
          "name:uk": "Еритрея",
          "name:ur": "ارتریا",
          "name:uz": "Eritriya",
          "name:vi": "Eritrea",
          "name:vo": "Lerüträn",
          "name:wo": "Eritere",
          "name:yi": "עריטרעא",
          "name:yo": "Ẹritrẹ́à",
          "name:zh": "厄立特里亚 / 厄利垂亞",
          "name:zu": "I-Eritrea",
          "boundary": "administrative",
          "name:ace": "Eritrea",
          "name:als": "Eritrea",
          "name:ang": "Æriþrea",
          "name:ast": "Eritrea",
          "name:azb": "اریتره",
          "name:bcl": "Eritreya",
          "name:bjn": "Eritrea",
          "name:bpy": "ইরিত্রিয়া",
          "name:bxr": "Эритрей",
          "name:ceb": "Eritrea",
          "name:ckb": "ئێریتریا",
          "name:crh": "Eritreya",
          "name:din": "Eriteria",
          "name:diq": "Eritreya",
          "name:dsb": "Eritreja",
          "name:ext": "Eritrea",
          "name:frp": "Èritrê",
          "name:gag": "Eritreya",
          "name:grc": "Ἐρυθραία",
          "name:hif": "Eritrea",
          "name:hsb": "Eritreja",
          "name:ilo": "Eritrea",
          "name:jbo": "eritreas",
          "name:kab": "Iritirya",
          "name:lad": "Eritrea",
          "name:lij": "Eritrea",
          "name:lmo": "Eritrea",
          "name:mhr": "Эритрей",
          "name:min": "Eritrea",
          "name:mrj": "Эритрей",
          "name:nah": "Eritrea",
          "name:nan": "Eritrea",
          "name:nds": "Eritrea",
          "name:nov": "Eritrea",
          "name:nso": "Eritrea",
          "name:pam": "Eritrea",
          "name:pap": "Eritrea",
          "name:pih": "Eritreya",
          "name:pms": "Eritrea",
          "name:pnb": "اریٹریا",
          "name:sah": "Эритрея",
          "name:scn": "Eritria",
          "name:sco": "Eritrea",
          "name:smn": "Eritrea",
          "name:sms": "Eritrea",
          "name:stq": "Eritrea",
          "name:szl": "Erytryja",
          "name:tok": "ma Eliteja",
          "name:tzl": "Eriþraia",
          "name:vec": "Eritrea",
          "name:vro": "Eritrea",
          "name:war": "Eritrea",
          "name:xal": "Эритреймудин Орн",
          "name:yue": "厄立特里亞",
          "timezone": "Africa/Asmara",
          "way_area": "13.4765",
          "wikidata": "Q986",
          "ISO3166-1": "ER",
          "wikipedia": "ar:إريتريا",
          "population": "3497000",
          "admin_level": "2",
          "alt_name:ar": "إريتريا",
          "alt_name:ps": "اریتره;اریتریه",
          "alt_name:pt": "Eritréia",
          "name:az-Arab": "اریتره",
          "name:bat-smg": "Eritrėjė",
          "name:kk-Arab": "ەرىيترەيا",
          "name:roa-rup": "Eritrea",
          "name:zh-Hans": "厄立特里亚",
          "name:zh-Hant": "厄利垂亞",
          "name:be-tarask": "Эрытрэя",
          "population:date": "2019-08",
          "ISO3166-1:alpha2": "ER",
          "ISO3166-1:alpha3": "ERI",
          "official_name:af": "Staat Eritrea",
          "official_name:ar": "دولة إرتريا",
          "official_name:cs": "Stát Eritrea",
          "official_name:de": "Staat Eritrea",
          "official_name:el": "Κράτος της Ερυθραίας",
          "official_name:en": "State of Eritrea",
          "official_name:es": "Estado de Eritrea",
          "official_name:nl": "Staat Eritrea",
          "official_name:pa": "ਇਰੀਤਰੀਆ ਦਾ ਮੁਲਕ",
          "official_name:ps": "د اریتریا هیواد ولسمشریزه",
          "official_name:pt": "Estado da Eritreia",
          "official_name:ru": "Государство Эритрея",
          "ISO3166-1:numeric": "232",
          "official_name:nds": "Staat Eritrea",
          "official_name:kk-Arab": "ەرىيترەيا مەملەكەتى"
        }
      },
      "geometry": {
        "type": "MultiPolygon",
        "coordinates": [
          [
            [
              [
                36.835090895288886,
                16
              ],
              [
                37,
                16
              ],
              [
                37,
                16.75713372321428
              ],
              [
                36.995278,
                16.7475
              ],
              [
                36.988889,
                16.725556
              ],
              [
                36.986667,
                16.721111
              ],
              [
                36.985,
                16.715556
              ],
              [
                36.980556,
                16.706111
              ],
              [
                36.969444,
                16.696111
              ],
              [
                36.965,
                16.693611
              ],
              [
                36.96,
                16.691667
              ],
              [
                36.955833,
                16.688889
              ],
              [
                36.946944,
                16.683889
              ],
              [
                36.942778,
                16.681111
              ],
              [
                36.931667,
                16.671389
              ],
              [
                36.928611,
                16.667222
              ],
              [
                36.925556,
                16.6625
              ],
              [
                36.922778,
                16.658611
              ],
              [
                36.916667,
                16.650556
              ],
              [
                36.912222,
                16.641111
              ],
              [
                36.910556,
                16.635556
              ],
              [
                36.910556,
                16.630278
              ],
              [
                36.910833,
                16.623889
              ],
              [
                36.913056,
                16.619167
              ],
              [
                36.915833,
                16.615
              ],
              [
                36.918333,
                16.610833
              ],
              [
                36.920278,
                16.606111
              ],
              [
                36.920278,
                16.599167
              ],
              [
                36.919444,
                16.593056
              ],
              [
                36.916944,
                16.588333
              ],
              [
                36.910278,
                16.574167
              ],
              [
                36.908611,
                16.568611
              ],
              [
                36.906389,
                16.563889
              ],
              [
                36.903056,
                16.553056
              ],
              [
                36.901667,
                16.547778
              ],
              [
                36.898333,
                16.536944
              ],
              [
                36.896667,
                16.524722
              ],
              [
                36.896389,
                16.517778
              ],
              [
                36.896944,
                16.511667
              ],
              [
                36.898056,
                16.506111
              ],
              [
                36.899444,
                16.500556
              ],
              [
                36.901389,
                16.495833
              ],
              [
                36.904167,
                16.491667
              ],
              [
                36.906111,
                16.486667
              ],
              [
                36.908889,
                16.4825
              ],
              [
                36.912222,
                16.479167
              ],
              [
                36.915,
                16.475
              ],
              [
                36.918611,
                16.470556
              ],
              [
                36.925278,
                16.463611
              ],
              [
                36.928056,
                16.459444
              ],
              [
                36.931667,
                16.456111
              ],
              [
                36.935,
                16.4525
              ],
              [
                36.938611,
                16.448889
              ],
              [
                36.942778,
                16.446111
              ],
              [
                36.946111,
                16.4425
              ],
              [
                36.949722,
                16.439167
              ],
              [
                36.952222,
                16.435
              ],
              [
                36.954444,
                16.43
              ],
              [
                36.955,
                16.430833
              ],
              [
                36.955,
                16.43
              ],
              [
                36.956944,
                16.425278
              ],
              [
                36.9575,
                16.419167
              ],
              [
                36.955833,
                16.406667
              ],
              [
                36.954722,
                16.400556
              ],
              [
                36.953333,
                16.395278
              ],
              [
                36.9525,
                16.389167
              ],
              [
                36.949167,
                16.378333
              ],
              [
                36.948333,
                16.372222
              ],
              [
                36.947778,
                16.358333
              ],
              [
                36.949167,
                16.353056
              ],
              [
                36.950278,
                16.3475
              ],
              [
                36.954444,
                16.337778
              ],
              [
                36.957222,
                16.333611
              ],
              [
                36.959167,
                16.328611
              ],
              [
                36.961944,
                16.324444
              ],
              [
                36.969722,
                16.305278
              ],
              [
                36.973611,
                16.288611
              ],
              [
                36.974167,
                16.2825
              ],
              [
                36.973889,
                16.275556
              ],
              [
                36.973056,
                16.269444
              ],
              [
                36.971389,
                16.264167
              ],
              [
                36.965556,
                16.256111
              ],
              [
                36.961667,
                16.252778
              ],
              [
                36.9575,
                16.25
              ],
              [
                36.948611,
                16.245
              ],
              [
                36.944444,
                16.242222
              ],
              [
                36.94,
                16.239722
              ],
              [
                36.931389,
                16.234444
              ],
              [
                36.920278,
                16.224444
              ],
              [
                36.915833,
                16.215
              ],
              [
                36.908889,
                16.1975
              ],
              [
                36.902778,
                16.180556
              ],
              [
                36.896389,
                16.163611
              ],
              [
                36.889444,
                16.146667
              ],
              [
                36.877222,
                16.112778
              ],
              [
                36.870833,
                16.095833
              ],
              [
                36.864722,
                16.078889
              ],
              [
                36.857778,
                16.061944
              ],
              [
                36.835090895288886,
                16
              ]
            ]
          ],
          [
            [
              [
                36.986944,
                16.943056
              ],
              [
                36.988333,
                16.9375
              ],
              [
                36.991667,
                16.933889
              ],
              [
                36.995278,
                16.930556
              ],
              [
                36.999444,
                16.9275
              ],
              [
                37,
                16.92712933333333
              ],
              [
                37,
                16.966163941035312
              ],
              [
                36.996944,
                16.961944
              ],
              [
                36.993056,
                16.958611
              ],
              [
                36.990278,
                16.954444
              ],
              [
                36.988611,
                16.949167
              ],
              [
                36.986944,
                16.943056
              ]
            ]
          ]
        ]
      }
    },
    {
      "type": "Feature",
      "properties": {
        "osm_id": -192789,
        "boundary": "administrative",
        "admin_level": 2,
        "parents": null,
        "name": "Sudan",
        "local_name": "السودان",
        "name_en": "Sudan",
        "all_tags": {
          "flag": "http://upload.wikimedia.org/wikipedia/commons/0/01/Flag_of_Sudan.svg",
          "name": "السودان",
          "name:af": "Soedan",
          "name:ak": "Sudan",
          "name:am": "ሱዳን",
          "name:an": "Sudán",
          "name:ar": "السودان",
          "name:az": "Sudan",
          "name:ba": "Судан",
          "name:be": "Судан",
          "name:bg": "Судан",
          "name:bm": "Sudan",
          "name:bn": "সুদান",
          "name:bo": "སུའུ་ཏན།",
          "name:br": "Soudan",
          "name:bs": "Sudan",
          "name:ca": "Sudan",
          "name:ce": "Судан",
          "name:cs": "Súdán",
          "name:cv": "Судан",
          "name:cy": "Sudan",
          "name:da": "Sudan",
          "name:de": "Sudan",
          "name:dv": "ސޫދާން",
          "name:ee": "Sudan",
          "name:el": "Σουδάν",
          "name:en": "Sudan",
          "name:eo": "Sudano",
          "name:es": "Sudán",
          "name:et": "Sudaan",
          "name:eu": "Sudan",
          "name:fa": "سودان",
          "name:fi": "Sudan",
          "name:fo": "Sudan",
          "name:fr": "Soudan",
          "name:fy": "Sûdan",
          "name:ga": "An tSúdáin",
          "name:gd": "Sudan",
          "name:gl": "Sudán",
          "name:gn": "Sudano",
          "name:gu": "સુદાન",
          "name:gv": "Yn Toodaan",
          "name:ha": "Sudan",
          "name:he": "סודאן",
          "name:hi": "सूडान",
          "name:hr": "Sudan",
          "name:ht": "Soudan",
          "name:hu": "Szudán",
          "name:hy": "Սուդան",
          "name:ia": "Sudan",
          "name:id": "Sudan",
          "name:ie": "Sudan",
          "name:ig": "Sudan",
          "name:io": "Sudan",
          "name:is": "Súdan",
          "name:it": "Sudan",
          "name:ja": "スーダン",
          "name:jv": "Sudan",
          "name:ka": "სუდანი",
          "name:kg": "Sudan",
          "name:ki": "Sũdana",
          "name:kk": "Судан",
          "name:kn": "ಸುಡಾನ್",
          "name:ko": "수단",
          "name:ku": "Sûdan",
          "name:kw": "Soudan",
          "name:ky": "Судан",
          "name:la": "Sudania",
          "name:lb": "Sudan",
          "name:li": "Soedan",
          "name:ln": "Sudani",
          "name:lt": "Sudanas",
          "name:lv": "Sudāna",
          "name:mi": "Hūtāne",
          "name:mk": "Судан",
          "name:ml": "സുഡാൻ",
          "name:mn": "Судан",
          "name:mr": "सुदान",
          "name:ms": "Sudan",
          "name:mt": "Sudan",
          "name:my": "ဆူဒန်နိုင်ငံ",
          "name:na": "Tudan",
          "name:nl": "Soedan",
          "name:nn": "Sudan",
          "name:no": "Sudan",
          "name:nv": "Soodą́ą",
          "name:ny": "Sudan",
          "name:oc": "Sodan",
          "name:om": "Sudaan",
          "name:or": "ସୁଦାନ",
          "name:os": "Судан",
          "name:pa": "ਸੁਡਾਨ",
          "name:pl": "Sudan",
          "name:ps": "سوډان",
          "name:pt": "Sudão",
          "name:qu": "Sudan",
          "name:rm": "Sudan",
          "name:ro": "Sudan",
          "name:ru": "Судан",
          "name:rw": "Sudani",
          "name:sa": "सूडान",
          "name:sc": "Sudan",
          "name:sd": "سوڊان",
          "name:se": "Sudan",
          "name:sg": "Sudäan",
          "name:sh": "Sudan",
          "name:sk": "Sudán",
          "name:sl": "Sudan",
          "name:sm": "Sudan",
          "name:sn": "Sudan",
          "name:so": "Suudaan",
          "name:sq": "Sudani",
          "name:sr": "Судан",
          "name:ss": "ISudani",
          "name:su": "Sudan",
          "name:sv": "Sudan",
          "name:sw": "Sudan",
          "name:ta": "சூடான்",
          "name:te": "సూడాన్",
          "name:tg": "Судон",
          "name:th": "ประเทศซูดาน",
          "name:ti": "ሱዳን",
          "name:tk": "Sudan",
          "name:tl": "Sudan",
          "name:tr": "Sudan",
          "name:ts": "Sudan",
          "name:tt": "Судан",
          "name:ug": "سۇدان",
          "name:uk": "Судан",
          "name:ur": "سوڈان",
          "name:uz": "Sudan",
          "name:vi": "Sudan",
          "name:vo": "Sudän",
          "name:wo": "Sudaan",
          "name:yi": "סודאן",
          "name:yo": "Sudan",
          "name:zh": "苏丹 / 蘇丹",
          "boundary": "administrative",
          "name:ace": "Sudan",
          "name:als": "Sudan",
          "name:ang": "Sudan",
          "name:arc": "ܣܘܕܐܢ",
          "name:arz": "السودان",
          "name:ast": "Sudán",
          "name:azb": "سودان",
          "name:bar": "Sudan",
          "name:bcl": "Sudan",
          "name:ber": "ⵙⵓⴷⴰⵏ",
          "name:bjn": "Sudan",
          "name:bpy": "সুদান",
          "name:bxr": "Судан",
          "name:ceb": "Sudan",
          "name:ckb": "سوودان",
          "name:crh": "Sudan",
          "name:din": "Thudän",
          "name:diq": "Sudan",
          "name:dsb": "Sudan",
          "name:ext": "Sudán",
          "name:frp": "Sodan",
          "name:gag": "Sudan",
          "name:hif": "Sudan",
          "name:hsb": "Sudan",
          "name:ilo": "Sudan",
          "name:jbo": "sudan",
          "name:kaa": "Sudan",
          "name:kab": "Sudan",
          "name:kbd": "Судан",
          "name:kmr": "سوودان",
          "name:lez": "Судан",
          "name:lij": "Sudan",
          "name:lmo": "Sudan",
          "name:lzh": "蘇丹",
          "name:mrj": "Судан",
          "name:mzn": "سودان",
          "name:nah": "Sudan",
          "name:nan": "Sudan",
          "name:nds": "Sudan",
          "name:new": "सुदान",
          "name:nov": "Sudan",
          "name:nso": "Sudan",
          "name:ota": "سودان",
          "name:pam": "Sudan",
          "name:pap": "Sudan",
          "name:pih": "Sudan",
          "name:pms": "Sudan",
          "name:pnb": "سوڈان",
          "name:rue": "Судан",
          "name:sah": "Судан",
          "name:scn": "Sudan",
          "name:sco": "Sudan",
          "name:smn": "Sudan",
          "name:sms": "Sudaan",
          "name:stq": "Sudan",
          "name:szl": "Sudan",
          "name:tzl": "Sudan",
          "name:vec": "Sudan",
          "name:vro": "Sudaan",
          "name:war": "Sudan",
          "name:wuu": "苏丹",
          "name:xal": "Суданмудин Орн",
          "name:yue": "蘇丹",
          "name:zgh": "ⵙⵓⴷⴰⵏ",
          "timezone": "Africa/Khartoum",
          "way_area": "158.862",
          "wikidata": "Q1049",
          "ISO3166-1": "SD",
          "wikipedia": "ar:السودان",
          "admin_level": "2",
          "alt_name:vi": "Xu-đăng",
          "name:simple": "Sudan",
          "name:bat-smg": "Sudans",
          "name:kk-Arab": "سۋدان",
          "name:ku-Arab": "سوودان",
          "name:zh-Hans": "苏丹",
          "name:zh-Hant": "蘇丹",
          "name:kab-Arab": "سودان",
          "name:roa-tara": "Sudan",
          "official_name": "جمهورية السودان",
          "name:be-tarask": "Судан",
          "ISO3166-1:alpha2": "SD",
          "ISO3166-1:alpha3": "SDN",
          "default_language": "ar",
          "official_name:ar": "جمهورية السودان",
          "official_name:cs": "Súdánská republika",
          "official_name:fa": "جمهوری سودان",
          "official_name:ur": "جمہوریہ سوڈان",
          "official_name:vi": "Cộng hòa Sudan",
          "official_name:zh": "苏丹共和国 / 蘇丹共和國",
          "ISO3166-1:numeric": "729",
          "official_name:azb": "سودان جومهوریتی",
          "official_name:zh-Hans": "苏丹共和国",
          "official_name:zh-Hant": "蘇丹共和國"
        }
      },
      "geometry": {
        "type": "Polygon",
        "coordinates": [
          [
            [
              36,
              16
            ],
            [
              36.835090895288886,
              16
            ],
            [
              36.857778,
              16.061944
            ],
            [
              36.864722,
              16.078889
            ],
            [
              36.870833,
              16.095833
            ],
            [
              36.877222,
              16.112778
            ],
            [
              36.889444,
              16.146667
            ],
            [
              36.896389,
              16.163611
            ],
            [
              36.902778,
              16.180556
            ],
            [
              36.908889,
              16.1975
            ],
            [
              36.915833,
              16.215
            ],
            [
              36.920278,
              16.224444
            ],
            [
              36.931389,
              16.234444
            ],
            [
              36.94,
              16.239722
            ],
            [
              36.944444,
              16.242222
            ],
            [
              36.948611,
              16.245
            ],
            [
              36.9575,
              16.25
            ],
            [
              36.961667,
              16.252778
            ],
            [
              36.965556,
              16.256111
            ],
            [
              36.971389,
              16.264167
            ],
            [
              36.973056,
              16.269444
            ],
            [
              36.973889,
              16.275556
            ],
            [
              36.974167,
              16.2825
            ],
            [
              36.973611,
              16.288611
            ],
            [
              36.969722,
              16.305278
            ],
            [
              36.961944,
              16.324444
            ],
            [
              36.959167,
              16.328611
            ],
            [
              36.957222,
              16.333611
            ],
            [
              36.954444,
              16.337778
            ],
            [
              36.950278,
              16.3475
            ],
            [
              36.949167,
              16.353056
            ],
            [
              36.947778,
              16.358333
            ],
            [
              36.948333,
              16.372222
            ],
            [
              36.949167,
              16.378333
            ],
            [
              36.9525,
              16.389167
            ],
            [
              36.953333,
              16.395278
            ],
            [
              36.954722,
              16.400556
            ],
            [
              36.955833,
              16.406667
            ],
            [
              36.9575,
              16.419167
            ],
            [
              36.956944,
              16.425278
            ],
            [
              36.955,
              16.43
            ],
            [
              36.955,
              16.430833
            ],
            [
              36.954444,
              16.43
            ],
            [
              36.952222,
              16.435
            ],
            [
              36.949722,
              16.439167
            ],
            [
              36.946111,
              16.4425
            ],
            [
              36.942778,
              16.446111
            ],
            [
              36.938611,
              16.448889
            ],
            [
              36.935,
              16.4525
            ],
            [
              36.931667,
              16.456111
            ],
            [
              36.928056,
              16.459444
            ],
            [
              36.925278,
              16.463611
            ],
            [
              36.918611,
              16.470556
            ],
            [
              36.915,
              16.475
            ],
            [
              36.912222,
              16.479167
            ],
            [
              36.908889,
              16.4825
            ],
            [
              36.906111,
              16.486667
            ],
            [
              36.904167,
              16.491667
            ],
            [
              36.901389,
              16.495833
            ],
            [
              36.899444,
              16.500556
            ],
            [
              36.898056,
              16.506111
            ],
            [
              36.896944,
              16.511667
            ],
            [
              36.896389,
              16.517778
            ],
            [
              36.896667,
              16.524722
            ],
            [
              36.898333,
              16.536944
            ],
            [
              36.901667,
              16.547778
            ],
            [
              36.903056,
              16.553056
            ],
            [
              36.906389,
              16.563889
            ],
            [
              36.908611,
              16.568611
            ],
            [
              36.910278,
              16.574167
            ],
            [
              36.916944,
              16.588333
            ],
            [
              36.919444,
              16.593056
            ],
            [
              36.920278,
              16.599167
            ],
            [
              36.920278,
              16.606111
            ],
            [
              36.918333,
              16.610833
            ],
            [
              36.915833,
              16.615
            ],
            [
              36.913056,
              16.619167
            ],
            [
              36.910833,
              16.623889
            ],
            [
              36.910556,
              16.630278
            ],
            [
              36.910556,
              16.635556
            ],
            [
              36.912222,
              16.641111
            ],
            [
              36.916667,
              16.650556
            ],
            [
              36.922778,
              16.658611
            ],
            [
              36.925556,
              16.6625
            ],
            [
              36.928611,
              16.667222
            ],
            [
              36.931667,
              16.671389
            ],
            [
              36.942778,
              16.681111
            ],
            [
              36.946944,
              16.683889
            ],
            [
              36.955833,
              16.688889
            ],
            [
              36.96,
              16.691667
            ],
            [
              36.965,
              16.693611
            ],
            [
              36.969444,
              16.696111
            ],
            [
              36.980556,
              16.706111
            ],
            [
              36.985,
              16.715556
            ],
            [
              36.986667,
              16.721111
            ],
            [
              36.988889,
              16.725556
            ],
            [
              36.995278,
              16.7475
            ],
            [
              37,
              16.75713372321428
            ],
            [
              37,
              16.92712933333333
            ],
            [
              36.999444,
              16.9275
            ],
            [
              36.995278,
              16.930556
            ],
            [
              36.991667,
              16.933889
            ],
            [
              36.988333,
              16.9375
            ],
            [
              36.986944,
              16.943056
            ],
            [
              36.988611,
              16.949167
            ],
            [
              36.990278,
              16.954444
            ],
            [
              36.993056,
              16.958611
            ],
            [
              36.996944,
              16.961944
            ],
            [
              37,
              16.966163941035312
            ],
            [
              37,
              17
            ],
            [
              36,
              17
            ],
            [
              36,
              16
            ]
          ]
        ]
      }
    }
  ]
}