{
  "type": "FeatureCollection",
  "features": [
    {
      "type": "Feature",
      "properties": {
        "osm_id": -184818,
        "boundary": "administrative",
        "admin_level": 2,
        "parents": null,
        "name": "Jordan",
        "local_name": "الأردن",
        "name_en": "Jordan",
        "all_tags": {
          "flag": "http://upload.wikimedia.org/wikipedia/commons/c/c0/Flag_of_Jordan.svg",
          "name": "الأردن",
          "sqkm": "89342",
          "name:af": "Jordanië",
          "name:am": "ጆርዳን",
          "name:an": "Chordania",
          "name:ar": "الأردن",
          "name:az": "İordaniya",
          "name:ba": "Иордания",
          "name:be": "Іарданія",
          "name:bg": "Йордания",
          "name:bm": "Ordon",
          "name:bn": "জর্দান",
          "name:bo": "རྗོར་ཌན།",
          "name:br": "Jordania",
          "name:bs": "Jordan",
          "name:ca": "Jordània",
          "name:cs": "Jordánsko",
          "name:cv": "Иордани",
          "name:cy": "Gwlad Iorddonen",
          "name:da": "Jordan",
          "name:de": "Jordanien",
          "name:dv": "އުރުދުން",
          "name:el": "Ιορδανία",
          "name:en": "Jordan",
          "name:eo": "Jordanio",
          "name:es": "Jordania",
          "name:et": "Jordaania",
          "name:eu": "Jordania",
          "name:fa": "اردن",
          "name:fi": "Jordania",
          "name:fo": "Jordan",
          "name:fr": "Jordanie",
          "name:fy": "Jordaanje",
          "name:ga": "An Iordáin",
          "name:gd": "Iòrdan",
          "name:gl": "Xordania",
          "name:gn": "Horytáña",
          "name:gu": "જૉર્ડન",
          "name:gv": "Yn Jordaan",
          "name:he": "ירדן",
          "name:hi": "जॉर्डन",
          "name:hr": "Jordan",
          "name:ht": "Jòdani",
          "name:hu": "Jordánia",
          "name:hy": "Հորդանան",
          "name:ia": "Jordania",
          "name:id": "Yordania",
          "name:ie": "Jordania",
          "name:io": "Jordania",
          "name:is": "Jórdanía",
          "name:it": "Giordania",
          "name:ja": "ヨルダン",
          "name:jv": "Yordania",
          "name:ka": "იორდანია",
          "name:kk": "Иордания",
          "name:kl": "Jordan",
          "name:km": "ហ្សកដង់",
          "name:ko": "요르단",
          "name:ks": "اردن",
          "name:ku": "Urdun",
          "name:kv": "Иордания",
          "name:kw": "Jordan",
          "name:la": "Iordania",
          "name:lb": "Jordanien",
          "name:li": "Jordanië",
          "name:ln": "Zordaní",
          "name:lt": "Jordanija",
          "name:lv": "Jordānija",
          "name:mi": "Hōrano",
          "name:mk": "Јордан",
          "name:ml": "ജോർദാൻ",
          "name:mn": "Йордан",
          "name:mr": "जॉर्डन",
          "name:ms": "Jordan",
          "name:mt": "Ġordan",
          "name:my": "ဂျော်ဒန်နိုင်ငံ",
          "name:na": "Djordan",
          "name:nl": "Jordanië",
          "name:nn": "Jordan",
          "name:no": "Jordan",
          "name:nv": "Jóoʼdan",
          "name:oc": "Jordania",
          "name:or": "ଜୋର୍ଡାନ",
          "name:os": "Иордани",
          "name:pa": "ਜਾਰਡਨ",
          "name:pl": "Jordania",
          "name:ps": "اردن",
          "name:pt": "Jordânia",
          "name:qu": "Hurdanya",
          "name:ro": "Iordania",
          "name:ru": "Иордания",
          "name:rw": "Yorudani",
          "name:sa": "जार्डन",
          "name:se": "Jordania",
          "name:sh": "Jordan",
          "name:sk": "Jordánsko",
          "name:sl": "Jordanija",
          "name:so": "Urdun",
          "name:sq": "Jordania",
          "name:sr": "Јордан",
          "name:ss": "IJoridane",
          "name:su": "Yordania",
          "name:sv": "Jordanien",
          "name:sw": "Yordani",
          "name:ta": "ஜோர்தான்",
          "name:te": "జోర్డాన్",
          "name:th": "ประเทศจอร์แดน",
          "name:tk": "Iordaniýa",
          "name:tl": "Hordan",
          "name:tr": "Ürdün",
          "name:tt": "Үрдүн",
          "name:ug": "ئىئوردانىيە",
          "name:uk": "Йорданія",
          "name:ur": "اردن",
          "name:uz": "Iordaniya",
          "name:vi": "Jordan",
          "name:vo": "Yordän",
          "name:wo": "Jordaani",
          "name:yi": "יארדאניע",
          "name:yo": "Jọ́rdánì",
          "name:zh": "约旦 / 約旦",
          "boundary": "administrative",
          "name:ace": "Yordania",
          "name:als": "Jordanien",
          "name:alt": "الأردن",
          "name:arc": "ܝܘܪܕܢܢ",
          "name:arz": "الاردن",
          "name:ast": "Xordania",
          "name:bar": "Jordanien",
          "name:bcl": "Yordanya",
          "name:bjn": "Yordania",
          "name:bpy": "জর্ডান",
          "name:bug": "Yordania",
          "name:bxr": "Йордан",
          "name:cdo": "Iók-dáng",
          "name:ceb": "Hordanya",
          "name:ckb": "ئوردن",
          "name:crh": "Urdun",
          "name:csb": "Jordaniô",
          "name:diq": "Urdun",
          "name:dsb": "Jordaniska",
          "name:ext": "Jordania",
          "name:frp": "J·ordanie",
          "name:gag": "İordaniya",
          "name:hak": "Yok-tan",
          "name:haw": "Ioredāne",
          "name:hif": "Jordan",
          "name:hsb": "Jordaniska",
          "name:ilo": "Hordania",
          "name:jbo": "gugdeju'o",
          "name:kab": "Urdun",
          "name:kbd": "Йордан",
          "name:krc": "Иордания",
          "name:lez": "Иордания",
          "name:lij": "Giordannia",
          "name:lmo": "Giurdania",
          "name:mdf": "Иордание",
          "name:mzn": "اوردون",
          "name:nah": "Iordania",
          "name:nan": "Iok-tàn",
          "name:nap": "Giordania",
          "name:nds": "Jordanien",
          "name:nov": "Jordan",
          "name:pam": "Hordanya",
          "name:pap": "Jordan",
          "name:pih": "Jordan",
          "name:pms": "Giordania",
          "name:pnb": "اردن",
          "name:sah": "Иордания",
          "name:scn": "Giurdania",
          "name:sco": "Jordan",
          "name:smn": "Jordania",
          "name:sms": "Jordania",
          "name:stq": "Jordanien",
          "name:szl": "Jordanijŏ",
          "name:tzl": "Xhordan",
          "name:udm": "Иордания",
          "name:vec": "Zordania",
          "name:vro": "Jordaania",
          "name:war": "Hordanya",
          "name:wuu": "约旦",
          "name:yue": "約旦",
          "name:zea": "Jordaonië",
          "timezone": "Asia/Amman",
          "way_area": "8.46267",
          "wikidata": "Q810",
          "ISO3166-1": "JO",
          "wikipedia": "ar:الأردن",
          "admin_level": "2",
          "alt_name:vi": "Gioóc-đa-ni;Gioócđani;Gioocđani;Ước Đán",
          "border_type": "administrative",
          "name:simple": "Jordan",
          "name:bat-smg": "Juordanėjė",
          "name:ku-Arab": "ئوردون",
          "name:zh-Hans": "约旦",
          "name:zh-Hant": "約旦",
          "official_name": "المملكة الأردنية الهاشمية",
          "name:be-tarask": "Ярданія",
          "ISO3166-1:alpha2": "JO",
          "ISO3166-1:alpha3": "JOR",
          "default_language": "ar",
          "official_name:ar": "المملكة الأردنية الهاشمية",
          "official_name:cs": "Jordánské hášimovské království",
          "official_name:de": "Haschemitisches Königreich Jordanien",
          "official_name:en": "Hashemite Kingdom of Jordan",
          "official_name:eo": "Haŝemida Reĝlando Jordanio",
          "official_name:es": "Reino Hachemita de Jordania",
          "official_name:fa": "پادشاهی اُردُن هاشمی",
          "official_name:fr": "Royaume hachémite de Jordanie",
          "official_name:gn": "Tavetã Hachemita Horytáña",
          "official_name:he": "הממלכה הירדנית ההאשמית",
          "official_name:pt": "Reino Haxemita da Jordânia",
          "official_name:ru": "Иорданское Хашимитское Королевство",
          "official_name:ur": "ہاشمی مملکت اردن",
          "ISO3166-1:numeric": "400",
          "official_name:ang": "Hascemisce Cynerīce þæs Iordanes",
          "official_name:xal": "Хашимит Җордин Нутг"
        }
      },
      "geometry": {
        "type": "Polygon",
        "coordinates": [
          [
            [
              36,
              29.195361820237775
            ],
            [
              36.0023764,
              29.1951371
            ],
            [
              36.0728117,
              29.183401
            ],
            [
              36.0828026,
              29.1889626
            ],
            [
              36.0981653,
              29.202582
            ],
            [
              36.1497373,
              29.2306702
            ],
            [
              36.1518434,
              29.2319967
            ],
            [
              36.1761444,
              29.2526984
            ],
            [
              36.1953924,
              29.2700526
            ],
            [
              36.21258,
              29.2861835
            ],
            [
              36.2497018,
              29.3126665
            ],
            [
              36.2879024,
              29.3382089
            ],
            [
              36.2980449,
              29.3439036
            ],
            [
              36.3102611,
              29.3520463
            ],
            [
              36.3200389,
              29.3621232
            ],
            [
              36.3313248,
              29.3730873
            ],
            [
              36.3339417,
              29.3741273
            ],
            [
              36.337124,
              29.3763094
            ],
            [
              36.3417408,
              29.3801086
            ],
            [
              36.3475494,
              29.3826399
            ],
            [
              36.3568507,
              29.3882563
            ],
            [
              36.3709416,
              29.3975525
            ],
            [
              36.3868493,
              29.4027781
            ],
            [
              36.3970023,
              29.4013873
            ],
            [
              36.4093314,
              29.4057279
            ],
            [
              36.4212602,
              29.412407
            ],
            [
              36.4232862,
              29.4133853
            ],
            [
              36.425605,
              29.4151569
            ],
            [
              36.4308447,
              29.4199872
            ],
            [
              36.4371469,
              29.4207286
            ],
            [
              36.4426732,
              29.4253672
            ],
            [
              36.4493379,
              29.4303741
            ],
            [
              36.4552247,
              29.4422094
            ],
            [
              36.460084,
              29.4524646
            ],
            [
              36.4665838,
              29.4585345
            ],
            [
              36.4740593,
              29.4643212
            ],
            [
              36.4778233,
              29.4691613
            ],
            [
              36.4803331,
              29.4729664
            ],
            [
              36.4817498,
              29.4741288
            ],
            [
              36.4922954,
              29.4853161
            ],
            [
              36.5004053,
              29.4918729
            ],
            [
              36.5076946,
              29.4984061
            ],
            [
              36.5200067,
              29.5073189
            ],
            [
              36.5272872,
              29.5143326
            ],
            [
              36.5349574,
              29.5269595
            ],
            [
              36.5396777,
              29.5337912
            ],
            [
              36.5472841,
              29.5462442
            ],
            [
              36.5484671,
              29.5605264
            ],
            [
              36.5503771,
              29.5636375
            ],
            [
              36.5668996,
              29.5817876
            ],
            [
              36.5744342,
              29.5892887
            ],
            [
              36.6159716,
              29.6317777
            ],
            [
              36.6189599,
              29.6335678
            ],
            [
              36.6232517,
              29.6358025
            ],
            [
              36.6244587,
              29.6368563
            ],
            [
              36.6258863,
              29.6391382
            ],
            [
              36.627882,
              29.6441919
            ],
            [
              36.631392,
              29.6550796
            ],
            [
              36.6392385,
              29.6737922
            ],
            [
              36.6438183,
              29.6873765
            ],
            [
              36.6431171,
              29.6920332
            ],
            [
              36.6441187,
              29.6943972
            ],
            [
              36.6474244,
              29.6998225
            ],
            [
              36.6595733,
              29.7161234
            ],
            [
              36.6676932,
              29.7277916
            ],
            [
              36.6809221,
              29.7494058
            ],
            [
              36.6902299,
              29.7550516
            ],
            [
              36.7268109,
              29.78221
            ],
            [
              36.7327733,
              29.786337
            ],
            [
              36.7360779,
              29.7889886
            ],
            [
              36.7448223,
              29.8011126
            ],
            [
              36.7557384,
              29.8150787
            ],
            [
              36.757927,
              29.817576
            ],
            [
              36.7598732,
              29.8204542
            ],
            [
              36.7616074,
              29.8246444
            ],
            [
              36.7631866,
              29.8292435
            ],
            [
              36.7638675,
              29.8319661
            ],
            [
              36.7639466,
              29.8349672
            ],
            [
              36.7647738,
              29.837799
            ],
            [
              36.769583,
              29.8438576
            ],
            [
              36.7757762,
              29.8520384
            ],
            [
              36.7787601,
              29.8584556
            ],
            [
              36.7836516,
              29.8662879
            ],
            [
              36.7849032,
              29.8679012
            ],
            [
              36.788199,
              29.8687259
            ],
            [
              36.7906237,
              29.8708894
            ],
            [
              36.7920401,
              29.8715299
            ],
            [
              36.7968612,
              29.8708795
            ],
            [
              36.7987551,
              29.8720906
            ],
            [
              36.8044458,
              29.872539
            ],
            [
              36.8649845,
              29.8856103
            ],
            [
              36.9798921,
              29.9067125
            ],
            [
              37,
              29.91058590412422
            ],
            [
              37,
              30
            ],
            [
              36,
              30
            ],
            [
              36,
              29.195361820237775
            ]
          ]
        ]
      }
    },
    {
      "type": "Feature",
      "properties": {
        "osm_id": -307584,
        "boundary": "administrative",
        "admin_level": 2,
        "parents": null,
        "name": "Saudi Arabia",
        "local_name": "السعودية",
        "name_en": "Saudi Arabia",
        "all_tags": {
          "flag": "http://upload.wikimedia.org/wikipedia/commons/0/0d/Flag_of_Saudi_Arabia.svg",
          "name": "السعودية",
          "name:af": "Saoedi-Arabië",
          "name:am": "ሳዑዲ አረቢያ",
          "name:an": "Arabia Saudí",
          "name:ar": "السعودية",
          "name:av": "СагIудиязул ГIарабия",
          "name:az": "Səudiyyə Ərəbistanı",
          "name:ba": "Сәғүд Ғәрәбстаны",
          "name:be": "Саудаўская Аравія",
          "name:bg": "Саудитска Арабия",
          "name:bm": "Saudia Arabu ka Faamamara",
          "name:bn": "সৌদি আরব",
          "name:bo": "སའུ་དི་ཨ་ར་པི་ཡ།",
          "name:br": "Arabia Saoudat",
          "name:bs": "Saudijska Arabija",
          "name:ca": "Aràbia Saudita",
          "name:ce": "СаӀудийн Ӏаьрбийчоь",
          "name:cs": "Saúdská Arábie",
          "name:cv": "Сауд Аравийĕ",
          "name:cy": "Saudi Arabia",
          "name:da": "Saudi-Arabien",
          "name:de": "Saudi-Arabien",
          "name:dv": "ސައޫދީ އަރަބިއްޔާ",
          "name:dz": "སའུ་དི་ཨེ་ར་སྦི་ཡ་",
          "name:el": "Σαουδική Αραβία",
          "name:en": "Saudi Arabia",
          "name:eo": "Sauda Arabio",
          "name:es": "Arabia Saudita",
          "name:et": "Saudi Araabia",
          "name:eu": "Saudi Arabia",
          "name:fa": "عربستان سعودی",
          "name:fi": "Saudi-Arabia",
          "name:fo": "Saudi-Arabia",
          "name:fr": "Arabie saoudite",
          "name:fy": "Saûdy-Araabje",
          "name:ga": "An Araib Shádach",
          "name:gd": "Aràibia nan Sabhd",
          "name:gl": "Arabia Saudí",
          "name:gn": "Aravia Saudíta",
          "name:gu": "સાઉદી અરેબિયા",
          "name:gv": "Yn Araab Saudi",
          "name:he": "ערב הסעודית",
          "name:hi": "सउदी अरब",
          "name:hr": "Saudijska Arabija",
          "name:ht": "Arabi Sawoudit",
          "name:hu": "Szaúd-Arábia",
          "name:hy": "Սաուդյան Արաբիա",
          "name:ia": "Arabia Saudita",
          "name:id": "Arab Saudi",
          "name:ie": "Saudi Arabia",
          "name:io": "Saudia Arabia",
          "name:is": "Sádí-Arabía",
          "name:it": "Arabia Saudita",
          "name:ja": "サウジアラビア",
          "name:jv": "Arab Saudi",
          "name:ka": "საუდის არაბეთი",
          "name:kk": "Сауд Арабиясы",
          "name:kl": "Saudi Arabia",
          "name:km": "អារ៉ាប៊ីសាអូឌីត",
          "name:kn": "ಸೌದಿ ಅರೆಬಿಯ",
          "name:ko": "사우디아라비아",
          "name:ku": "Erebistana Siyûdî",
          "name:kv": "Саудса Аравия",
          "name:kw": "Arabi Saoudek",
          "name:ky": "Сауд Арабия Падышалыгы",
          "name:la": "Arabia Saudiana",
          "name:lb": "Saudi-Arabien",
          "name:li": "Saoedi-Arabië",
          "name:ln": "Saudi Arabia",
          "name:lt": "Saudo Arabija",
          "name:lv": "Saūda Arābija",
          "name:mk": "Саудиска Арабија",
          "name:ml": "സൗദി അറേബ്യ",
          "name:mn": "Саудын Араб",
          "name:mr": "सौदी अरेबिया",
          "name:ms": "Arab Saudi",
          "name:mt": "Arabja Sawdija",
          "name:my": "ဆော်ဒီအာရေဗျနိုင်ငံ",
          "name:na": "Taudiarabiya",
          "name:ne": "साउदी अरब",
          "name:nl": "Saoedi-Arabië",
          "name:nn": "Saudi-Arabia",
          "name:no": "Saudi-Arabia",
          "name:nv": "Ásáí Bikéyah Saʼoodí",
          "name:oc": "Arabia Saudita",
          "name:or": "ସାଉଦି ଆରବ",
          "name:os": "Сауды Арави",
          "name:pa": "ਸਉਦੀ ਅਰਬ",
          "name:pl": "Arabia Saudyjska",
          "name:ps": "سعودي عربستان",
          "name:pt": "Arábia Saudita",
          "name:qu": "Sawud Arabya",
          "name:rm": "Arabia Saudita",
          "name:ro": "Arabia Saudită",
          "name:ru": "Саудовская Аравия",
          "name:rw": "Arabiya Sawudite",
          "name:sa": "सऊदी अरब",
          "name:se": "Saudi-Arábia",
          "name:sh": "Saudijska Arabija",
          "name:si": "සවුදි අරාබියාව",
          "name:sk": "Saudská Arábia",
          "name:sl": "Saudova Arabija",
          "name:so": "Sacuudi Carabiya",
          "name:sq": "Arabia Saudite",
          "name:sr": "Саудијска Арабија",
          "name:ss": "I-Arabhiya",
          "name:su": "Saudi Arabia",
          "name:sv": "Saudiarabien",
          "name:sw": "Saudia",
          "name:ta": "சவூதி அரேபியா",
          "name:te": "సౌదీ అరేబియా",
          "name:tg": "Арабистони Саудӣ",
          "name:th": "ประเทศซาอุดีอาระเบีย",
          "name:tk": "Saud Arabystany",
          "name:tl": "Arabyang Saudi",
          "name:tr": "Suudi Arabistan",
          "name:tt": "Согуд Гарәбстаны",
          "name:ug": "سەئۇدى ئەرەبىستان",
          "name:uk": "Саудівська Аравія",
          "name:ur": "سعودی عرب",
          "name:uz": "Saudiya Arabistoni",
          "name:vi": "Ả Rập Saudi",
          "name:vo": "Sauda-Larabän",
          "name:wo": "Araabi Sawdit",
          "name:yi": "סאודי אראביע",
          "name:yo": "Sáúdí Arábíà",
          "name:zh": "沙特阿拉伯 / 沙烏地阿拉伯",
          "boundary": "administrative",
          "name:ace": "Arab Saudi",
          "name:als": "Saudi-Arabien",
          "name:ang": "Saudisc Arabea",
          "name:arc": "ܣܥܘܕܝܐ",
          "name:arz": "المملكه العربيه السعوديه",
          "name:ast": "Arabia Saudita",
          "name:bar": "Saudi Arabien",
          "name:bcl": "Arabya Saudita",
          "name:bpy": "সৌদি আরব",
          "name:bug": "Arab Saudi",
          "name:bxr": "Саудын Араб",
          "name:ceb": "Arabyang Saudita",
          "name:ckb": "عەرەبستانی سعوودی",
          "name:crh": "Saudiy Arabistan",
          "name:csb": "Saudëjskô Arabijô",
          "name:diq": "Erebıstanê Seudi",
          "name:dsb": "Saudiska-Arabska",
          "name:ext": "Arabia Saudita",
          "name:frp": "Arabie saoudita",
          "name:gag": "Saudi Arabiya",
          "name:gan": "沙特阿拉伯",
          "name:hak": "Sâ-vû-thi Â-lâ-pak",
          "name:haw": "Saudi ʻAlapia",
          "name:hif": "Saudi Arabia",
          "name:hsb": "Sawdi-Arabska",
          "name:ilo": "Saudi Arabia",
          "name:jbo": "djogu'e",
          "name:kbd": "Сауд Хьэрыпей",
          "name:lbe": "Саоьдуллал Аьрабусттан",
          "name:lez": "Сауди Арабистан",
          "name:lij": "Arabia Saudïa",
          "name:lmo": "Arabia Saudita",
          "name:lzh": "沙特阿拉伯",
          "name:nah": "Saudarabia",
          "name:nan": "Saud ê A-la-pek",
          "name:nds": "Saudi-Arabien",
          "name:nov": "Saudi Arabia",
          "name:nrm": "Arabie Saudi",
          "name:pam": "Saudita Arabia",
          "name:pap": "Saudi Arabia",
          "name:pdc": "Saudi Arabia",
          "name:pms": "Arabia Saodita",
          "name:pnb": "سعودی عرب",
          "name:rue": "Саудьска Арабія",
          "name:sah": "Сауд Арабията",
          "name:scn": "Arabbia Saudita",
          "name:sco": "Saudi Arabie",
          "name:smn": "Saudi-Arabia",
          "name:sms": "Saudi-Arabia",
          "name:szl": "Saudyjskŏ Arabijŏ",
          "name:tok": "ma Sawusi",
          "name:tzl": "Arabxha Saudì",
          "name:udm": "Сауд Аравия",
          "name:vec": "Arabia Saudìa",
          "name:vro": "Saudi Araabia",
          "name:war": "Arabya Saudita",
          "name:wuu": "沙特阿拉伯",
          "name:xal": "Саудин Араб Нутг",
          "name:yue": "沙地阿拉伯",
          "name:zea": "Saoedi-Araobië",
          "timezone": "Asia/Riyadh",
          "way_area": "182.048",
          "wikidata": "Q851",
          "ISO3166-1": "SA",
          "wikipedia": "ar:السعودية",
          "population": "32175224",
          "admin_level": "2",
          "alt_name:eo": "Sauda Arabujo;Saud-Arabio;Saud-Arabujo",
          "alt_name:vi": "Ả Rập Xê Út;A-rập Xê-út",
          "border_type": "nation",
          "name:bat-smg": "Sauda Arabėjė",
          "name:roa-rup": "Arabia Saudescã",
          "name:zh-Hans": "沙特阿拉伯",
          "name:zh-Hant": "沙烏地阿拉伯",
          "name:roa-tara": "Arabie Saudite",
          "official_name": "المملكة العربية السعودية",
          "name:be-tarask": "Саудаўская Арабія",
          "population:date": "2022",
          "ISO3166-1:alpha2": "SA",
          "ISO3166-1:alpha3": "SAU",
          "default_language": "ar",
          "official_name:ar": "المملكة العربية السعودية",
          "official_name:cs": "Království Saúdská Arábie",
          "official_name:en": "Kingdom of Saudi Arabia",
          "official_name:eo": "Reĝlando Sauda Arabio",
          "official_name:es": "Reino de Arabia Saudita",
          "official_name:fr": "Royaume d’Arabie saoudite",
          "official_name:pt": "Reino da Arábia Saudita",
          "official_name:ru": "Королевство Саудовская Аравия",
          "ISO3166-1:numeric": "682"
        }
      },
      "geometry": {
        "type": "Polygon",
        "coordinates": [
          [
            [
              36,
              29
            ],
            [
              37,
              29
            ],
            [
              37,
              29.91058590412422
            ],
            [
              36.9798921,
              29.9067125
            ],
            [
              36.8649845,
              29.8856103
            ],
            [
              36.8044458,
              29.872539
            ],
            [
              36.7987551,
              29.8720906
            ],
            [
              36.7968612,
              29.8708795
            ],
            [
              36.7920401,
              29.8715299
            ],
            [
              36.7906237,
              29.8708894
            ],
            [
              36.788199,
              29.8687259
            ],
            [
              36.7849032,
              29.8679012
            ],
            [
              36.7836516,
              29.8662879
            ],
            [
              36.7787601,
              29.8584556
            ],
            [
              36.7757762,
              29.8520384
            ],
            [
              36.769583,
              29.8438576
            ],
            [
              36.7647738,
              29.837799
            ],
            [
              36.7639466,
              29.8349672
            ],
            [
              36.7638675,
              29.8319661
            ],
            [
              36.7631866,
              29.8292435
            ],
            [
              36.7616074,
              29.8246444
            ],
            [
              36.7598732,
              29.8204542
            ],
            [
              36.757927,
              29.817576
            ],
            [
              36.7557384,
              29.8150787
            ],
            [
              36.7448223,
              29.8011126
            ],
            [
              36.7360779,
              29.7889886
            ],
            [
              36.7327733,
              29.786337
            ],
            [
              36.7268109,
              29.78221
            ],
            [
              36.6902299,
              29.7550516
            ],
            [
              36.6809221,
              29.7494058
            ],
            [
              36.6676932,
              29.7277916
            ],
            [
              36.6595733,
              29.7161234
            ],
            [
              36.6474244,
              29.6998225
            ],
            [
              36.6441187,
              29.6943972
            ],
            [
              36.6431171,
              29.6920332
            ],
            [
              36.6438183,
              29.6873765
            ],
            [
              36.6392385,
              29.6737922
            ],
            [
              36.631392,
              29.6550796
            ],
            [
              36.627882,
              29.6441919
            ],
            [
              36.6258863,
              29.6391382
            ],
            [
              36.6244587,
              29.6368563
            ],
            [
              36.6232517,
              29.6358025
            ],
            [
              36.6189599,
              29.6335678
            ],
            [
              36.6159716,
              29.6317777
            ],
            [
              36.5744342,
              29.5892887
            ],
            [
              36.5668996,
              29.5817876
            ],
            [
              36.5503771,
              29.5636375
            ],
            [
              36.5484671,
              29.5605264
            ],
            [
              36.5472841,
              29.5462442
            ],
            [
              36.5396777,
              29.5337912
            ],
            [
              36.5349574,
              29.5269595
            ],
            [
              36.5272872,
              29.5143326
            ],
            [
              36.5200067,
              29.5073189
            ],
            [
              36.5076946,
              29.4984061
            ],
            [
              36.5004053,
              29.4918729
            ],
            [
              36.4922954,
              29.4853161
            ],
            [
              36.4817498,
              29.4741288
            ],
            [
              36.4803331,
              29.4729664
            ],
            [
              36.4778233,
              29.4691613
            ],
            [
              36.4740593,
              29.4643212
            ],
            [
              36.4665838,
              29.4585345
            ],
            [
              36.460084,
              29.4524646
            ],
            [
              36.4552247,
              29.4422094
            ],
            [
              36.4493379,
              29.4303741
            ],
            [
              36.4426732,
              29.4253672
            ],
            [
              36.4371469,
              29.4207286
            ],
            [
              36.4308447,
              29.4199872
            ],
            [
              36.425605,
              29.4151569
            ],
            [
              36.4232862,
              29.4133853
            ],
            [
              36.4212602,
              29.412407
            ],
            [
              36.4093314,
              29.4057279
            ],
            [
              36.3970023,
              29.4013873
            ],
            [
              36.3868493,
              29.4027781
            ],
            [
              36.3709416,
              29.3975525
            ],
            [
              36.3568507,
              29.3882563
            ],
            [
              36.3475494,
              29.3826399
            ],
            [
              36.3417408,
              29.3801086
            ],
            [
              36.337124,
              29.3763094
            ],
            [
              36.3339417,
              29.3741273
            ],
            [
              36.3313248,
              29.3730873
            ],
            [
              36.3200389,
              29.3621232
            ],
            [
              36.3102611,
              29.3520463
            ],
            [
              36.2980449,
              29.3439036
            ],
            [
              36.2879024,
              29.3382089
            ],
            [
              36.2497018,
              29.3126665
            ],
            [
              36.21258,
              29.2861835
            ],
            [
              36.1953924,
              29.2700526
            ],
            [
              36.1761444,
              29.2526984
            ],
            [
              36.1518434,
              29.2319967
            ],
            [
              36.1497373,
              29.2306702
            ],
            [
              36.0981653,
              29.202582
            ],
            [
              36.0828026,
              29.1889626
            ],
            [
              36.0728117,
              29.183401
            ],
            [
              36.0023764,
              29.1951371
            ],
            [
              36,
              29.195361820237775
            ],
            [
              36,
              29
            ]
          ]
        ]
      }
    }
  ]
}