{
  "type": "FeatureCollection",
  "features": [
    {
      "type": "Feature",
      "properties": {
        "osm_id": -50371,
        "boundary": "administrative",
        "admin_level": 2,
        "parents": null,
        "name": "Myanmar",
        "local_name": "မြန်မာ",
        "name_en": "Myanmar",
        "all_tags": {
          "flag": "http://upload.wikimedia.org/wikipedia/commons/8/8c/Flag_of_Myanmar.svg",
          "name": "မြန်မာ",
          "name:af": "Mianmar",
          "name:am": "ምየንማ",
          "name:an": "Myanmar",
          "name:ar": "بورما",
          "name:az": "Myanma",
          "name:ba": "Мьянма",
          "name:be": "М'янма",
          "name:bg": "Мианмар",
          "name:bi": "Burma",
          "name:bn": "মিয়ানমার",
          "name:bo": "བྷར་མ།",
          "name:br": "Myanmar",
          "name:bs": "Mijanmar",
          "name:ca": "Myanmar",
          "name:ce": "Мьянма",
          "name:cs": "Myanmar",
          "name:cv": "Мьянма",
          "name:cy": "Myanmar",
          "name:da": "Myanmar",
          "name:de": "Myanmar",
          "name:dv": "ބަރުމާ",
          "name:dz": "མེ་མར་",
          "name:el": "Μιανμάρ",
          "name:en": "Myanmar",
          "name:eo": "Birmo / Mjanmao",
          "name:es": "Myanmar",
          "name:et": "Birma",
          "name:eu": "Myanmar",
          "name:fa": "میانمار",
          "name:fi": "Myanmar",
          "name:fo": "Burma",
          "name:fr": "Birmanie",
          "name:fy": "Birma",
          "name:ga": "Maenmar",
          "name:gd": "Mianmar",
          "name:gl": "Myanmar",
          "name:gn": "Miamar",
          "name:gu": "બર્મા",
          "name:gv": "Myanmar",
          "name:he": "מיאנמר",
          "name:hi": "म्यान्मार",
          "name:hr": "Mijanmar",
          "name:ht": "Bimani",
          "name:hu": "Mianmar",
          "name:hy": "Մյանմա",
          "name:ia": "Birmania",
          "name:id": "Myanmar",
          "name:ie": "Myanmar",
          "name:io": "Myanmar",
          "name:is": "Búrma",
          "name:it": "Birmania",
          "name:ja": "ミャンマー",
          "name:jv": "Myanmar",
          "name:ka": "მიანმარი",
          "name:ki": "Myanmar",
          "name:kk": "Мианма",
          "name:km": "មីយ៉ាន់ម៉ា",
          "name:kn": "ಮಯನ್ಮಾರ್",
          "name:ko": "미얀마",
          "name:ku": "Myanmar",
          "name:kv": "Мьянма",
          "name:kw": "Byrmani",
          "name:ky": "Мьянма",
          "name:la": "Birmania",
          "name:lb": "Myanmar",
          "name:li": "Myanmar",
          "name:lo": "ປະເທດມຽນມາ",
          "name:lt": "Mianmaras",
          "name:lv": "Mjanma",
          "name:mg": "Myanmara",
          "name:mi": "Pēma",
          "name:mk": "Мјанмар",
          "name:ml": "മ്യാന്മാർ",
          "name:mn": "Мьянмар",
          "name:mr": "म्यानमार",
          "name:ms": "Myanmar",
          "name:mt": "Myanmar",
          "name:my": "မြန်မာ",
          "name:na": "Miyanmar",
          "name:ne": "म्यानमार",
          "name:nl": "Myanmar",
          "name:nn": "Myanmar",
          "name:no": "Myanmar",
          "name:oc": "Birmania",
          "name:or": "ବର୍ମା",
          "name:os": "Мьянмæ",
          "name:pa": "ਮਿਆਂਮਾਰ",
          "name:pl": "Mjanma",
          "name:ps": "ميانمار",
          "name:pt": "Birmânia",
          "name:qu": "Myanmar",
          "name:ro": "Birmania",
          "name:ru": "Мьянма",
          "name:rw": "Mayanimari",
          "name:sa": "म्यान्मार",
          "name:sc": "Birmania",
          "name:se": "Myanmar",
          "name:sh": "Mianmar",
          "name:si": "බුරුමය",
          "name:sk": "Mjanmarsko",
          "name:sl": "Mjanmar",
          "name:so": "Myanmar",
          "name:sq": "Birmania",
          "name:sr": "Мјанмар",
          "name:ss": "IMayanima",
          "name:su": "Myanmar",
          "name:sv": "Myanmar",
          "name:sw": "Myanmar",
          "name:ta": "மியான்மர்",
          "name:te": "మయన్మార్",
          "name:tg": "Мянма",
          "name:th": "ประเทศพม่า",
          "name:tk": "Mýanma",
          "name:tl": "Myanmar",
          "name:tr": "Myanmar",
          "name:tt": "Мьянма",
          "name:ug": "بىرما",
          "name:uk": "М'янма",
          "name:ur": "میانمار",
          "name:uz": "Birma",
          "name:vi": "Myanma",
          "name:vo": "Mianmarän",
          "name:wo": "Miyanmaar",
          "name:yi": "מיאנמאר",
          "name:yo": "Myanmar",
          "name:za": "Mienjdien",
          "name:zh": "缅甸 / 緬甸",
          "boundary": "administrative",
          "int_name": "Myanmar",
          "name:ace": "Myanmar",
          "name:als": "Myanmar",
          "name:ang": "Burma",
          "name:ast": "Myanmar",
          "name:bar": "Myanmar",
          "name:bcl": "Myanmar",
          "name:bpy": "মায়ানমার",
          "name:bug": "Myanmar",
          "name:bxr": "Мьянмар",
          "name:ceb": "Birmanya",
          "name:ckb": "میانمار",
          "name:crh": "Myanmar",
          "name:csb": "Myanmar",
          "name:diq": "Myanmar",
          "name:dsb": "Myanmar",
          "name:ext": "Myanmar",
          "name:frp": "Birmanie",
          "name:gag": "Myanmar",
          "name:gan": "緬甸",
          "name:hak": "Mién-thien",
          "name:haw": "Puruma",
          "name:hif": "Myanmar",
          "name:hsb": "Myanmar",
          "name:ilo": "Myanmar",
          "name:jbo": "mianmar",
          "name:kbd": "Миянмэ",
          "name:lij": "Myanmar",
          "name:lmo": "Myanmar",
          "name:lzh": "緬甸",
          "name:mzn": "میونمار",
          "name:nah": "Mianma",
          "name:nan": "Myanma",
          "name:nap": "Birmania",
          "name:nds": "Myanmar",
          "name:new": "म्यान्मार",
          "name:nov": "Myanmar",
          "name:pam": "Myanmar",
          "name:pap": "Myanmar",
          "name:pms": "Myanmar",
          "name:pnb": "میانمر",
          "name:sah": "Мьянмар",
          "name:scn": "Myanmar",
          "name:sco": "Myanmar",
          "name:smn": "Myanmar",
          "name:sms": "Myanmar",
          "name:szl": "Birma",
          "name:tet": "Birmánia",
          "name:tzl": "Míanmar",
          "name:udm": "Мьянма",
          "name:vec": "Birmania",
          "name:vro": "Birma",
          "name:war": "Myanmar",
          "name:wuu": "缅甸",
          "name:xal": "Мьянмудин Ниицән",
          "name:xmf": "მიანმარი",
          "name:yue": "緬甸",
          "name:zea": "Myanmar",
          "timezone": "Asia/Yangon",
          "way_area": "70.8987",
          "wikidata": "Q836",
          "ISO3166-1": "MM",
          "wikipedia": "my:မြန်မာနိုင်ငံ",
          "admin_level": "2",
          "alt_name:bn": "মায়ানমার",
          "alt_name:pl": "Birma",
          "old_name:bn": "বার্মা",
          "old_name:es": "Birmania",
          "old_name:fi": "Burma",
          "old_name:ko": "버마",
          "old_name:vi": "Miến Điện;Diến Điện",
          "driving_side": "right",
          "name:bat-smg": "Mianmars",
          "name:map-bms": "Myanmar",
          "name:zh-Hans": "缅甸",
          "name:zh-Hant": "緬甸",
          "name:be-tarask": "М’янма",
          "ISO3166-1:alpha2": "MM",
          "ISO3166-1:alpha3": "MMR",
          "default_language": "my",
          "official_name:bn": "প্রজাতান্ত্রিক ঐক্যতন্ত্রী মিয়ানমার",
          "official_name:cs": "Republika Myanmarský svaz",
          "official_name:en": "Republic of the Union of Myanmar",
          "official_name:es": "República de la Unión de Myanmar",
          "official_name:gn": "Tavakuairetã Joaty Miamar",
          "official_name:pl": "Republika Związku Mjanmy",
          "official_name:pt": "República da União de Myanmar",
          "official_name:ru": "Республика Союз Мьянма",
          "ISO3166-1:numeric": "104"
        }
      },
      "geometry": {
        "type": "Polygon",
        "coordinates": [
          [
            [
              98,
              17
            ],
            [
              98.44972699294256,
              17
            ],
            [
              98.4502777,
              17.0006207
            ],
            [
              98.4503091,
              17.0031129
            ],
            [
              98.4510018,
              17.0044677
            ],
            [
              98.4534837,
              17.0073218
            ],
            [
              98.4547404,
              17.0096352
            ],
            [
              98.4559011,
              17.010835
            ],
            [
              98.4559011,
              17.0116088
            ],
            [
              98.452698,
              17.0147918
            ],
            [
              98.4521625,
              17.0162373
            ],
            [
              98.4522573,
              17.0181688
            ],
            [
              98.4546811,
              17.0186806
            ],
            [
              98.4561853,
              17.0199091
            ],
            [
              98.4564341,
              17.0205336
            ],
            [
              98.4551337,
              17.022721
            ],
            [
              98.4529073,
              17.0242801
            ],
            [
              98.4497224,
              17.0243572
            ],
            [
              98.4447347,
              17.022945
            ],
            [
              98.4410268,
              17.0209058
            ],
            [
              98.4362356,
              17.0211542
            ],
            [
              98.4352337,
              17.0219625
            ],
            [
              98.4332968,
              17.0219028
            ],
            [
              98.4316983,
              17.0214532
            ],
            [
              98.4303725,
              17.0217551
            ],
            [
              98.4304671,
              17.0233543
            ],
            [
              98.4319752,
              17.0244659
            ],
            [
              98.4337631,
              17.0250656
            ],
            [
              98.4352636,
              17.0251852
            ],
            [
              98.4366381,
              17.0267385
            ],
            [
              98.4382969,
              17.0305091
            ],
            [
              98.4385472,
              17.0338903
            ],
            [
              98.438172,
              17.0360131
            ],
            [
              98.4375188,
              17.0368459
            ],
            [
              98.4368064,
              17.0368163
            ],
            [
              98.4362734,
              17.0364566
            ],
            [
              98.435484,
              17.036517
            ],
            [
              98.4327585,
              17.0385837
            ],
            [
              98.4303188,
              17.0391818
            ],
            [
              98.4280995,
              17.039122
            ],
            [
              98.4261888,
              17.0378043
            ],
            [
              98.4243644,
              17.0378043
            ],
            [
              98.4237329,
              17.0385591
            ],
            [
              98.4237644,
              17.0403611
            ],
            [
              98.4249532,
              17.0428437
            ],
            [
              98.4240802,
              17.0441553
            ],
            [
              98.4223291,
              17.0452914
            ],
            [
              98.4208961,
              17.0457382
            ],
            [
              98.419521,
              17.044035
            ],
            [
              98.4173862,
              17.0429244
            ],
            [
              98.416157,
              17.0431956
            ],
            [
              98.4131162,
              17.0484704
            ],
            [
              98.4127398,
              17.04988
            ],
            [
              98.4127085,
              17.0523956
            ],
            [
              98.4125214,
              17.0534984
            ],
            [
              98.4104326,
              17.054631
            ],
            [
              98.4099009,
              17.0542423
            ],
            [
              98.4042644,
              17.0563977
            ],
            [
              98.4015151,
              17.0535303
            ],
            [
              98.4012963,
              17.0505122
            ],
            [
              98.4016419,
              17.0499414
            ],
            [
              98.4004163,
              17.0476276
            ],
            [
              98.3991262,
              17.0472667
            ],
            [
              98.3955173,
              17.0477167
            ],
            [
              98.3941062,
              17.0503848
            ],
            [
              98.3934512,
              17.0510408
            ],
            [
              98.3919201,
              17.0514889
            ],
            [
              98.3911955,
              17.0515191
            ],
            [
              98.3905023,
              17.052724
            ],
            [
              98.3906599,
              17.0537787
            ],
            [
              98.3922888,
              17.0550366
            ],
            [
              98.3928525,
              17.0575511
            ],
            [
              98.3935406,
              17.0582089
            ],
            [
              98.3935096,
              17.0591579
            ],
            [
              98.3904495,
              17.0608296
            ],
            [
              98.3886353,
              17.0599624
            ],
            [
              98.3869456,
              17.0600223
            ],
            [
              98.3836229,
              17.0570255
            ],
            [
              98.3800184,
              17.0594826
            ],
            [
              98.3774267,
              17.0588259
            ],
            [
              98.3769288,
              17.0581119
            ],
            [
              98.3765528,
              17.0558652
            ],
            [
              98.3756366,
              17.0550496
            ],
            [
              98.3723468,
              17.0570565
            ],
            [
              98.3669988,
              17.0539171
            ],
            [
              98.3659965,
              17.0518208
            ],
            [
              98.3597224,
              17.0486117
            ],
            [
              98.359015,
              17.0494833
            ],
            [
              98.3559857,
              17.0499013
            ],
            [
              98.3555788,
              17.0495124
            ],
            [
              98.3541942,
              17.0496026
            ],
            [
              98.3530051,
              17.0502608
            ],
            [
              98.3512572,
              17.0499623
            ],
            [
              98.3503482,
              17.0492431
            ],
            [
              98.3494077,
              17.0492431
            ],
            [
              98.3468072,
              17.0478352
            ],
            [
              98.3437327,
              17.0484351
            ],
            [
              98.3411479,
              17.0498448
            ],
            [
              98.3401342,
              17.0510562
            ],
            [
              98.3377133,
              17.0511852
            ],
            [
              98.3368847,
              17.0532765
            ],
            [
              98.3348634,
              17.0553163
            ],
            [
              98.333965,
              17.0567925
            ],
            [
              98.3324245,
              17.0580778
            ],
            [
              98.3317512,
              17.0580778
            ],
            [
              98.3300648,
              17.0591259
            ],
            [
              98.3278156,
              17.0599321
            ],
            [
              98.3270284,
              17.0614372
            ],
            [
              98.3244494,
              17.0636884
            ],
            [
              98.3237195,
              17.0636348
            ],
            [
              98.3229563,
              17.0642562
            ],
            [
              98.3224772,
              17.065361
            ],
            [
              98.3226452,
              17.0669678
            ],
            [
              98.3208282,
              17.0678496
            ],
            [
              98.3198999,
              17.0677959
            ],
            [
              98.3178318,
              17.0696787
            ],
            [
              98.3153299,
              17.0737096
            ],
            [
              98.3158354,
              17.075857
            ],
            [
              98.3147168,
              17.0775679
            ],
            [
              98.3139046,
              17.0776213
            ],
            [
              98.3125791,
              17.0785379
            ],
            [
              98.3119884,
              17.0828124
            ],
            [
              98.3139567,
              17.0873906
            ],
            [
              98.3135858,
              17.0888848
            ],
            [
              98.3119417,
              17.0898228
            ],
            [
              98.3107461,
              17.0897465
            ],
            [
              98.3078744,
              17.0901277
            ],
            [
              98.3053687,
              17.0883201
            ],
            [
              98.3021441,
              17.0889587
            ],
            [
              98.3003299,
              17.0909733
            ],
            [
              98.3002229,
              17.0926354
            ],
            [
              98.3018273,
              17.0936322
            ],
            [
              98.3047547,
              17.0934796
            ],
            [
              98.3057615,
              17.0942141
            ],
            [
              98.3074897,
              17.0974416
            ],
            [
              98.3077827,
              17.100114
            ],
            [
              98.3084511,
              17.1008041
            ],
            [
              98.3095496,
              17.1014699
            ],
            [
              98.3123251,
              17.0991232
            ],
            [
              98.3137353,
              17.0949015
            ],
            [
              98.3148998,
              17.0943956
            ],
            [
              98.3160651,
              17.0945982
            ],
            [
              98.3176034,
              17.0959672
            ],
            [
              98.317311,
              17.1021437
            ],
            [
              98.3169109,
              17.1035199
            ],
            [
              98.3184842,
              17.1064253
            ],
            [
              98.3228219,
              17.1092231
            ],
            [
              98.3233784,
              17.1108692
            ],
            [
              98.322691,
              17.1118292
            ],
            [
              98.3190784,
              17.1127432
            ],
            [
              98.316632,
              17.1115129
            ],
            [
              98.314264,
              17.1118996
            ],
            [
              98.3114537,
              17.1121315
            ],
            [
              98.3085663,
              17.1114953
            ],
            [
              98.3068047,
              17.1108307
            ],
            [
              98.3048111,
              17.1090722
            ],
            [
              98.3034003,
              17.1075033
            ],
            [
              98.3025742,
              17.1071342
            ],
            [
              98.3015549,
              17.1071701
            ],
            [
              98.3010292,
              17.1075085
            ],
            [
              98.3006322,
              17.1078212
            ],
            [
              98.2996827,
              17.1094208
            ],
            [
              98.2994091,
              17.1105642
            ],
            [
              98.299377,
              17.1149733
            ],
            [
              98.300364,
              17.1210742
            ],
            [
              98.3001983,
              17.1258215
            ],
            [
              98.2994609,
              17.1272075
            ],
            [
              98.2986037,
              17.1277692
            ],
            [
              98.2975505,
              17.1274649
            ],
            [
              98.2940775,
              17.1234633
            ],
            [
              98.2941021,
              17.1196047
            ],
            [
              98.2958785,
              17.1173647
            ],
            [
              98.2953589,
              17.1152131
            ],
            [
              98.2932588,
              17.1132769
            ],
            [
              98.2909888,
              17.1127581
            ],
            [
              98.2897555,
              17.1120979
            ],
            [
              98.2857621,
              17.1114255
            ],
            [
              98.2849574,
              17.1115485
            ],
            [
              98.2840776,
              17.1121023
            ],
            [
              98.2837021,
              17.1129226
            ],
            [
              98.2829726,
              17.1135173
            ],
            [
              98.2797432,
              17.115527
            ],
            [
              98.2795715,
              17.1168908
            ],
            [
              98.2805371,
              17.1210844
            ],
            [
              98.2846734,
              17.1284546
            ],
            [
              98.2866794,
              17.1307634
            ],
            [
              98.2868242,
              17.1316246
            ],
            [
              98.2866955,
              17.1380735
            ],
            [
              98.2848608,
              17.1429229
            ],
            [
              98.2849294,
              17.1434647
            ],
            [
              98.2867024,
              17.1446332
            ],
            [
              98.2878649,
              17.1448093
            ],
            [
              98.2900643,
              17.1445325
            ],
            [
              98.2923281,
              17.1433432
            ],
            [
              98.2955253,
              17.1412723
            ],
            [
              98.2962978,
              17.141098
            ],
            [
              98.2973277,
              17.1414978
            ],
            [
              98.2982504,
              17.1427793
            ],
            [
              98.2980144,
              17.147198
            ],
            [
              98.2959544,
              17.1510456
            ],
            [
              98.2931537,
              17.1520637
            ],
            [
              98.2905418,
              17.1553008
            ],
            [
              98.2873585,
              17.1565896
            ],
            [
              98.2839569,
              17.1539842
            ],
            [
              98.2830089,
              17.1526902
            ],
            [
              98.2787575,
              17.1519657
            ],
            [
              98.2766498,
              17.1524821
            ],
            [
              98.2734047,
              17.1508801
            ],
            [
              98.2723966,
              17.1511664
            ],
            [
              98.2691222,
              17.1565706
            ],
            [
              98.2685547,
              17.1582234
            ],
            [
              98.2676892,
              17.1591536
            ],
            [
              98.2674442,
              17.1599343
            ],
            [
              98.2695839,
              17.163894
            ],
            [
              98.2799963,
              17.1675116
            ],
            [
              98.2809651,
              17.1684887
            ],
            [
              98.2805332,
              17.1728999
            ],
            [
              98.2798875,
              17.1737224
            ],
            [
              98.2781334,
              17.174367
            ],
            [
              98.2732932,
              17.1750387
            ],
            [
              98.2681254,
              17.1767964
            ],
            [
              98.2671534,
              17.1776993
            ],
            [
              98.2661326,
              17.177648
            ],
            [
              98.26118,
              17.1745193
            ],
            [
              98.2592512,
              17.1762323
            ],
            [
              98.2593055,
              17.1780477
            ],
            [
              98.2613902,
              17.1808154
            ],
            [
              98.2652545,
              17.1837327
            ],
            [
              98.2652276,
              17.1864874
            ],
            [
              98.2633414,
              17.18762
            ],
            [
              98.261291,
              17.1876715
            ],
            [
              98.2562103,
              17.1855285
            ],
            [
              98.2519096,
              17.1825569
            ],
            [
              98.2502249,
              17.1823232
            ],
            [
              98.2494351,
              17.1833379
            ],
            [
              98.2496788,
              17.1864945
            ],
            [
              98.2515447,
              17.1911962
            ],
            [
              98.2520665,
              17.1976788
            ],
            [
              98.2504345,
              17.1982279
            ],
            [
              98.2468935,
              17.1967965
            ],
            [
              98.2455959,
              17.1968145
            ],
            [
              98.2447329,
              17.1974741
            ],
            [
              98.2441175,
              17.199144
            ],
            [
              98.2443152,
              17.2021341
            ],
            [
              98.2461059,
              17.2061755
            ],
            [
              98.2478211,
              17.2083054
            ],
            [
              98.2477215,
              17.2100747
            ],
            [
              98.2458933,
              17.2114852
            ],
            [
              98.2426558,
              17.2115805
            ],
            [
              98.2385312,
              17.2099938
            ],
            [
              98.2334183,
              17.2058362
            ],
            [
              98.2308408,
              17.2027175
            ],
            [
              98.229114,
              17.2028825
            ],
            [
              98.2279085,
              17.2048564
            ],
            [
              98.2279085,
              17.2086315
            ],
            [
              98.2285961,
              17.2112585
            ],
            [
              98.2340332,
              17.2168738
            ],
            [
              98.2370544,
              17.2186965
            ],
            [
              98.2388744,
              17.2192873
            ],
            [
              98.2409325,
              17.2191312
            ],
            [
              98.2438671,
              17.2206227
            ],
            [
              98.2449027,
              17.2224075
            ],
            [
              98.2450104,
              17.2247597
            ],
            [
              98.2442171,
              17.2269909
            ],
            [
              98.2415802,
              17.2299404
            ],
            [
              98.2388129,
              17.2305761
            ],
            [
              98.2383986,
              17.2288227
            ],
            [
              98.2348526,
              17.227098
            ],
            [
              98.230442,
              17.2221448
            ],
            [
              98.2296423,
              17.2209896
            ],
            [
              98.2283006,
              17.2204563
            ],
            [
              98.226295,
              17.2215038
            ],
            [
              98.2194466,
              17.2274901
            ],
            [
              98.2175472,
              17.228574
            ],
            [
              98.2135918,
              17.2284438
            ],
            [
              98.2117943,
              17.2300679
            ],
            [
              98.2107426,
              17.2320749
            ],
            [
              98.2105317,
              17.2339496
            ],
            [
              98.2090263,
              17.2365011
            ],
            [
              98.2085096,
              17.2387257
            ],
            [
              98.2094646,
              17.2421865
            ],
            [
              98.2085117,
              17.2448617
            ],
            [
              98.2055202,
              17.2495258
            ],
            [
              98.1983969,
              17.2543741
            ],
            [
              98.1952895,
              17.2551528
            ],
            [
              98.1873231,
              17.2556255
            ],
            [
              98.1855613,
              17.258145
            ],
            [
              98.1796708,
              17.2583173
            ],
            [
              98.1753905,
              17.2582536
            ],
            [
              98.1734873,
              17.259332
            ],
            [
              98.1720115,
              17.2628634
            ],
            [
              98.1707258,
              17.2631617
            ],
            [
              98.1678189,
              17.262233
            ],
            [
              98.1660909,
              17.2635173
            ],
            [
              98.1649814,
              17.2659469
            ],
            [
              98.1671901,
              17.2688224
            ],
            [
              98.1680217,
              17.2726093
            ],
            [
              98.1634765,
              17.2759407
            ],
            [
              98.1624812,
              17.2792185
            ],
            [
              98.1567373,
              17.2827527
            ],
            [
              98.1535568,
              17.2830087
            ],
            [
              98.1504556,
              17.2861836
            ],
            [
              98.150896,
              17.2868428
            ],
            [
              98.1505848,
              17.2877178
            ],
            [
              98.147403,
              17.2888052
            ],
            [
              98.1472525,
              17.2894128
            ],
            [
              98.1473097,
              17.2910878
            ],
            [
              98.1466535,
              17.2921167
            ],
            [
              98.1458624,
              17.2923382
            ],
            [
              98.1444236,
              17.2913927
            ],
            [
              98.1424852,
              17.2913783
            ],
            [
              98.1415084,
              17.2921851
            ],
            [
              98.1371102,
              17.2912762
            ],
            [
              98.1361699,
              17.2913867
            ],
            [
              98.1356978,
              17.2915967
            ],
            [
              98.1342334,
              17.2933125
            ],
            [
              98.1343621,
              17.2936813
            ],
            [
              98.1350166,
              17.2939937
            ],
            [
              98.1361592,
              17.2949976
            ],
            [
              98.1375432,
              17.297999
            ],
            [
              98.1376451,
              17.2994485
            ],
            [
              98.137216,
              17.3006521
            ],
            [
              98.1362128,
              17.302291
            ],
            [
              98.1355423,
              17.3049953
            ],
            [
              98.1343299,
              17.3066495
            ],
            [
              98.1340456,
              17.3068646
            ],
            [
              98.1317981,
              17.306821
            ],
            [
              98.1292605,
              17.3071207
            ],
            [
              98.128649,
              17.3075202
            ],
            [
              98.1283754,
              17.3086162
            ],
            [
              98.1293839,
              17.3093793
            ],
            [
              98.1290835,
              17.3112537
            ],
            [
              98.1288046,
              17.3149514
            ],
            [
              98.1268251,
              17.3185107
            ],
            [
              98.1253391,
              17.3206257
            ],
            [
              98.1248617,
              17.3210354
            ],
            [
              98.122893,
              17.3219572
            ],
            [
              98.121804,
              17.3222133
            ],
            [
              98.1206667,
              17.3231146
            ],
            [
              98.1198245,
              17.3232989
            ],
            [
              98.1192076,
              17.3232272
            ],
            [
              98.11836,
              17.3228124
            ],
            [
              98.1178558,
              17.3222747
            ],
            [
              98.1171745,
              17.3205028
            ],
            [
              98.1160426,
              17.3194325
            ],
            [
              98.1130555,
              17.3191504
            ],
            [
              98.1126394,
              17.3194298
            ],
            [
              98.1116206,
              17.3208847
            ],
            [
              98.1114981,
              17.3218813
            ],
            [
              98.1090092,
              17.3258649
            ],
            [
              98.1084558,
              17.3286693
            ],
            [
              98.1084444,
              17.3297556
            ],
            [
              98.1051645,
              17.337687
            ],
            [
              98.1056438,
              17.3391982
            ],
            [
              98.1044723,
              17.3432708
            ],
            [
              98.1048983,
              17.3467193
            ],
            [
              98.1072823,
              17.3493475
            ],
            [
              98.1073719,
              17.3500746
            ],
            [
              98.1063276,
              17.3512108
            ],
            [
              98.105138,
              17.3531132
            ],
            [
              98.1058674,
              17.3544162
            ],
            [
              98.1082379,
              17.3556944
            ],
            [
              98.1089485,
              17.3566888
            ],
            [
              98.1100662,
              17.3586305
            ],
            [
              98.1102217,
              17.3614037
            ],
            [
              98.1111649,
              17.3634935
            ],
            [
              98.1134451,
              17.3664482
            ],
            [
              98.1161967,
              17.3682588
            ],
            [
              98.1173328,
              17.369465
            ],
            [
              98.119154,
              17.3706885
            ],
            [
              98.1194227,
              17.3711582
            ],
            [
              98.1195198,
              17.3721918
            ],
            [
              98.1194629,
              17.3733269
            ],
            [
              98.1189082,
              17.3745239
            ],
            [
              98.1176722,
              17.3753341
            ],
            [
              98.1161514,
              17.3757874
            ],
            [
              98.113075,
              17.3755729
            ],
            [
              98.1124151,
              17.3754203
            ],
            [
              98.1120761,
              17.3749642
            ],
            [
              98.1117188,
              17.3749181
            ],
            [
              98.1091021,
              17.3766111
            ],
            [
              98.1088405,
              17.3774059
            ],
            [
              98.1088687,
              17.3786963
            ],
            [
              98.1091074,
              17.3796957
            ],
            [
              98.1082546,
              17.3812257
            ],
            [
              98.1080852,
              17.3825544
            ],
            [
              98.1103976,
              17.3836158
            ],
            [
              98.1103989,
              17.3853092
            ],
            [
              98.1061347,
              17.3877096
            ],
            [
              98.1013701,
              17.3909613
            ],
            [
              98.0950267,
              17.3904967
            ],
            [
              98.0937963,
              17.3908466
            ],
            [
              98.093239,
              17.391192
            ],
            [
              98.0908083,
              17.3942077
            ],
            [
              98.0904633,
              17.3949179
            ],
            [
              98.0891145,
              17.3963718
            ],
            [
              98.0881844,
              17.3963804
            ],
            [
              98.0871136,
              17.3954689
            ],
            [
              98.082942,
              17.3903095
            ],
            [
              98.0809505,
              17.389645
            ],
            [
              98.0800948,
              17.3903214
            ],
            [
              98.07966,
              17.3927016
            ],
            [
              98.0787611,
              17.3952794
            ],
            [
              98.0754228,
              17.3998501
            ],
            [
              98.0736102,
              17.3999005
            ],
            [
              98.0724973,
              17.4022232
            ],
            [
              98.0723105,
              17.4030133
            ],
            [
              98.0712546,
              17.4054314
            ],
            [
              98.0716322,
              17.4064132
            ],
            [
              98.0715571,
              17.4075385
            ],
            [
              98.0706165,
              17.4083336
            ],
            [
              98.0691829,
              17.4090448
            ],
            [
              98.067553,
              17.4093635
            ],
            [
              98.0658322,
              17.4103995
            ],
            [
              98.064357,
              17.4130668
            ],
            [
              98.0642475,
              17.4149234
            ],
            [
              98.0621386,
              17.417183
            ],
            [
              98.0611593,
              17.4205727
            ],
            [
              98.0566131,
              17.4236981
            ],
            [
              98.0535472,
              17.4238454
            ],
            [
              98.0510492,
              17.4252166
            ],
            [
              98.0495837,
              17.4267747
            ],
            [
              98.0466012,
              17.4287215
            ],
            [
              98.0458406,
              17.4294501
            ],
            [
              98.0455302,
              17.4301749
            ],
            [
              98.0454212,
              17.4319781
            ],
            [
              98.0462267,
              17.4333758
            ],
            [
              98.0489662,
              17.4345681
            ],
            [
              98.0518976,
              17.433591
            ],
            [
              98.0552618,
              17.4355423
            ],
            [
              98.0573469,
              17.4382326
            ],
            [
              98.0558938,
              17.4416591
            ],
            [
              98.0534702,
              17.4435399
            ],
            [
              98.0526692,
              17.4434506
            ],
            [
              98.0514488,
              17.4428558
            ],
            [
              98.0499255,
              17.4426825
            ],
            [
              98.0490056,
              17.4428591
            ],
            [
              98.0482819,
              17.4433119
            ],
            [
              98.0434702,
              17.4481582
            ],
            [
              98.0423981,
              17.4505936
            ],
            [
              98.0383803,
              17.4514276
            ],
            [
              98.0373041,
              17.4513548
            ],
            [
              98.0365185,
              17.4520273
            ],
            [
              98.0359016,
              17.4528409
            ],
            [
              98.0336337,
              17.4572437
            ],
            [
              98.0300992,
              17.4611953
            ],
            [
              98.0297477,
              17.4624253
            ],
            [
              98.0166321,
              17.4781758
            ],
            [
              98.0158691,
              17.479599
            ],
            [
              98.0098077,
              17.4871205
            ],
            [
              98.0075358,
              17.4894814
            ],
            [
              98.0047276,
              17.4920383
            ],
            [
              98.0046976,
              17.4932379
            ],
            [
              98.0029001,
              17.4946759
            ],
            [
              98.0019707,
              17.4975241
            ],
            [
              98,
              17.499270041716898
            ],
            [
              98,
              17
            ]
          ]
        ]
      }
    },
    {
      "type": "Feature",
      "properties": {
        "osm_id": -2067731,
        "boundary": "administrative",
        "admin_level": 2,
        "parents": null,
        "name": "Thailand",
        "local_name": "ประเทศไทย",
        "name_en": "Thailand",
        "all_tags": {
          "fee": "no",
          "flag": "http://upload.wikimedia.org/wikipedia/commons/a/a9/Flag_of_Thailand.svg",
          "name": "ประเทศไทย",
          "name:af": "Thailand",
          "name:am": "ታይላንድ",
          "name:an": "Tailandia",
          "name:ar": "تايلاند",
          "name:az": "Tailand",
          "name:ba": "Таиланд",
          "name:be": "Тайланд",
          "name:bg": "Тайланд",
          "name:bn": "থাইল্যান্ড",
          "name:bo": "ཐའི་ལེན།",
          "name:br": "Thailand",
          "name:bs": "Tajland",
          "name:ca": "Tailàndia",
          "name:ce": "Таиланд",
          "name:cs": "Thajsko",
          "name:cv": "Таиланд",
          "name:cy": "Gwlad Thai",
          "name:da": "Thailand",
          "name:de": "Thailand",
          "name:dv": "ސިޔާމު",
          "name:dz": "ཐཱའི་ལེནཌ",
          "name:el": "Ταϊλάνδη",
          "name:en": "Thailand",
          "name:eo": "Tajlando",
          "name:es": "Tailandia",
          "name:et": "Tai",
          "name:eu": "Thailandia",
          "name:fa": "تایلند",
          "name:fi": "Thaimaa",
          "name:fo": "Teiland",
          "name:fr": "Thaïlande",
          "name:fy": "Tailân",
          "name:ga": "An Téalainn",
          "name:gd": "Dùthaich nan Tàidh",
          "name:gl": "Tailandia",
          "name:gn": "Tailandia",
          "name:gu": "થાઇલેન્ડ",
          "name:gv": "Yn Çheer Thai",
          "name:he": "תאילנד",
          "name:hi": "थाईलैण्ड",
          "name:hr": "Tajland",
          "name:ht": "Tayilann",
          "name:hu": "Thaiföld",
          "name:hy": "Թաիլանդ",
          "name:ia": "Thailanda",
          "name:id": "Thailand",
          "name:ie": "Thailand",
          "name:io": "Tailando",
          "name:is": "Taíland",
          "name:it": "Thailandia",
          "name:ja": "タイ王国",
          "name:jv": "Thailand",
          "name:ka": "ტაილანდი",
          "name:ki": "Thailand",
          "name:kk": "Тайланд",
          "name:kl": "Thailandi",
          "name:km": "ថៃ",
          "name:kn": "ಥೈಲ್ಯಾಂಡ್",
          "name:ko": "태국",
          "name:ks": "تھائی لینڈ",
          "name:ku": "Taylenda",
          "name:kv": "Таиланд",
          "name:kw": "Pow Tay",
          "name:la": "Thailandia",
          "name:lb": "Thailand",
          "name:li": "Thailand",
          "name:lo": "ປະເທດໄທ",
          "name:lt": "Tailandas",
          "name:lv": "Taizeme",
          "name:mg": "Tailandy",
          "name:mi": "Tairana",
          "name:mk": "Тајланд",
          "name:ml": "തായ്‌ലാന്റ്",
          "name:mn": "Тайланд",
          "name:mr": "थायलंड",
          "name:ms": "Thailand",
          "name:my": "ထိုင်းနိုင်ငံ",
          "name:na": "Thailand",
          "name:ne": "थाइल्याण्ड",
          "name:nl": "Thailand",
          "name:nn": "Thailand",
          "name:no": "Thailand",
          "name:nv": "Tʼáí Bikéyah",
          "name:oc": "Tailàndia",
          "name:or": "ଥାଇଲାଣ୍ଡ",
          "name:os": "Таиланд",
          "name:pa": "ਥਾਈਲੈਂਡ",
          "name:pl": "Tajlandia",
          "name:ps": "تايلنډ",
          "name:pt": "Tailândia",
          "name:qu": "Thaysuyu",
          "name:ro": "Thailanda",
          "name:ru": "Таиланд",
          "name:rw": "Tayilande",
          "name:sa": "श्यामदेश",
          "name:sd": "ٿائيلينڊ",
          "name:se": "Thaieana",
          "name:sg": "Tailânde",
          "name:sh": "Tajland",
          "name:sk": "Thajsko",
          "name:sl": "Tajska",
          "name:so": "Tayland",
          "name:sq": "Tajlanda",
          "name:sr": "Тајланд",
          "name:ss": "IThayilandi",
          "name:su": "Thailand",
          "name:sv": "Thailand",
          "name:sw": "Uthai",
          "name:ta": "தாய்லாந்து",
          "name:te": "థాయిలాండ్",
          "name:tg": "Таиланд",
          "name:th": "ประเทศไทย",
          "name:tk": "Tailand",
          "name:tl": "Taylandiya",
          "name:tr": "Tayland",
          "name:tt": "Таиланд",
          "name:tw": "Thailand",
          "name:ug": "تايلاند",
          "name:uk": "Таїланд",
          "name:ur": "تھائی لینڈ",
          "name:uz": "Tailand",
          "name:vi": "Thái Lan",
          "name:vo": "Tayän",
          "name:wo": "Taaylaand",
          "name:yi": "טיילאנד",
          "name:yo": "Tháílàndì",
          "name:za": "Daigoz",
          "name:zh": "泰国 / 泰國",
          "boundary": "administrative",
          "name:als": "Thailand",
          "name:ang": "Thailand",
          "name:arz": "تايلاندا",
          "name:ast": "Tailandia",
          "name:azb": "تایلند",
          "name:bar": "Thailand",
          "name:bcl": "Tailandya",
          "name:bpy": "টাইলান্ডিয়া",
          "name:bug": "Thailand",
          "name:bxr": "Таиланд",
          "name:ceb": "Tailandya",
          "name:chr": "ᏔᏱᎦᏙᎯ",
          "name:ckb": "تایلەند",
          "name:crh": "Tayland",
          "name:csb": "Tajlandiô",
          "name:diq": "Taylanda",
          "name:dsb": "Thailandska",
          "name:ext": "Tailándia",
          "name:frp": "Tayilande",
          "name:fur": "Tailandie",
          "name:gag": "Tailand",
          "name:gan": "泰國",
          "name:hak": "Thai-koet",
          "name:haw": "Tailani",
          "name:hif": "Thailand",
          "name:hsb": "Thailandska",
          "name:ilo": "Tailandia",
          "name:jbo": "tais",
          "name:kbd": "Тайлэнд",
          "name:lez": "Таиланд",
          "name:lij": "Thailandia",
          "name:lmo": "Thailandia",
          "name:lrc": "تاؽلٱند",
          "name:lzh": "泰國",
          "name:mhr": "Таиланд",
          "name:min": "Thailand",
          "name:mzn": "تایلند",
          "name:nah": "Taitlālpan",
          "name:nan": "Thài-kok",
          "name:nds": "Thailand",
          "name:new": "थाइल्याण्ड",
          "name:nov": "Tailande",
          "name:pam": "Tailandya",
          "name:pap": "Thailand",
          "name:pih": "Tailan",
          "name:pms": "Thailandia",
          "name:pnb": "تھائی لینڈ",
          "name:rue": "Таїланд",
          "name:sah": "Тайлаан",
          "name:scn": "Thailandia",
          "name:sco": "Thailand",
          "name:srn": "Taikondre",
          "name:stq": "Thailound",
          "name:szl": "Tajlandyjŏ",
          "name:tpi": "Tailan",
          "name:tzl": "Taiphäts",
          "name:udm": "Таиланд",
          "name:vec": "Thailandia",
          "name:vro": "Tai",
          "name:war": "Taylandya",
          "name:wuu": "泰国",
          "name:xal": "Тагилмудин Нутг",
          "name:yue": "泰國",
          "name:zea": "Thailand",
          "timezone": "Asia/Bangkok",
          "way_area": "52.5396",
          "wikidata": "Q869",
          "ISO3166-1": "TH",
          "wikipedia": "en:Thailand",
          "admin_level": "2",
          "alt_name:eo": "Tajujo",
          "alt_name:ko": "타이",
          "name:nds-nl": "Thailaand",
          "driving_side": "left",
          "name:bat-smg": "Tailands",
          "name:kk-Arab": "تايلاند",
          "name:map-bms": "Thailand",
          "name:zh-Hans": "泰国",
          "name:zh-Hant": "泰國",
          "name:roa-tara": "Thailandie",
          "official_name": "ราชอาณาจักรไทย",
          "name:be-tarask": "Тайлянд",
          "ISO3166-1:alpha2": "TH",
          "ISO3166-1:alpha3": "THA",
          "default_language": "th",
          "official_name:ar": "مملكة تايلاند",
          "official_name:cs": "Thajské království",
          "official_name:en": "Kingdom of Thailand",
          "official_name:eo": "Tajlanda Reĝlando",
          "official_name:fa": "پادشاهی تایلند",
          "official_name:ko": "타이왕국",
          "official_name:pl": "Królestwo Tajlandii",
          "official_name:ur": "تمملکت تھائی لینڈ",
          "ISO3166-1:numeric": "764"
        }
      },
      "geometry": {
        "type": "Polygon",
        "coordinates": [
          [
            [
              98,
              17.499270041716898
            ],
            [
              98.0019707,
              17.4975241
            ],
            [
              98.0029001,
              17.4946759
            ],
            [
              98.0046976,
              17.4932379
            ],
            [
              98.0047276,
              17.4920383
            ],
            [
              98.0075358,
              17.4894814
            ],
            [
              98.0098077,
              17.4871205
            ],
            [
              98.0158691,
              17.479599
            ],
            [
              98.0166321,
              17.4781758
            ],
            [
              98.0297477,
              17.4624253
            ],
            [
              98.0300992,
              17.4611953
            ],
            [
              98.0336337,
              17.4572437
            ],
            [
              98.0359016,
              17.4528409
            ],
            [
              98.0365185,
              17.4520273
            ],
            [
              98.0373041,
              17.4513548
            ],
            [
              98.0383803,
              17.4514276
            ],
            [
              98.0423981,
              17.4505936
            ],
            [
              98.0434702,
              17.4481582
            ],
            [
              98.0482819,
              17.4433119
            ],
            [
              98.0490056,
              17.4428591
            ],
            [
              98.0499255,
              17.4426825
            ],
            [
              98.0514488,
              17.4428558
            ],
            [
              98.0526692,
              17.4434506
            ],
            [
              98.0534702,
              17.4435399
            ],
            [
              98.0558938,
              17.4416591
            ],
            [
              98.0573469,
              17.4382326
            ],
            [
              98.0552618,
              17.4355423
            ],
            [
              98.0518976,
              17.433591
            ],
            [
              98.0489662,
              17.4345681
            ],
            [
              98.0462267,
              17.4333758
            ],
            [
              98.0454212,
              17.4319781
            ],
            [
              98.0455302,
              17.4301749
            ],
            [
              98.0458406,
              17.4294501
            ],
            [
              98.0466012,
              17.4287215
            ],
            [
              98.0495837,
              17.4267747
            ],
            [
              98.0510492,
              17.4252166
            ],
            [
              98.0535472,
              17.4238454
            ],
            [
              98.0566131,
              17.4236981
            ],
            [
              98.0611593,
              17.4205727
            ],
            [
              98.0621386,
              17.417183
            ],
            [
              98.0642475,
              17.4149234
            ],
            [
              98.064357,
              17.4130668
            ],
            [
              98.0658322,
              17.4103995
            ],
            [
              98.067553,
              17.4093635
            ],
            [
              98.0691829,
              17.4090448
            ],
            [
              98.0706165,
              17.4083336
            ],
            [
              98.0715571,
              17.4075385
            ],
            [
              98.0716322,
              17.4064132
            ],
            [
              98.0712546,
              17.4054314
            ],
            [
              98.0723105,
              17.4030133
            ],
            [
              98.0724973,
              17.4022232
            ],
            [
              98.0736102,
              17.3999005
            ],
            [
              98.0754228,
              17.3998501
            ],
            [
              98.0787611,
              17.3952794
            ],
            [
              98.07966,
              17.3927016
            ],
            [
              98.0800948,
              17.3903214
            ],
            [
              98.0809505,
              17.389645
            ],
            [
              98.082942,
              17.3903095
            ],
            [
              98.0871136,
              17.3954689
            ],
            [
              98.0881844,
              17.3963804
            ],
            [
              98.0891145,
              17.3963718
            ],
            [
              98.0904633,
              17.3949179
            ],
            [
              98.0908083,
              17.3942077
            ],
            [
              98.093239,
              17.391192
            ],
            [
              98.0937963,
              17.3908466
            ],
            [
              98.0950267,
              17.3904967
            ],
            [
              98.1013701,
              17.3909613
            ],
            [
              98.1061347,
              17.3877096
            ],
            [
              98.1103989,
              17.3853092
            ],
            [
              98.1103976,
              17.3836158
            ],
            [
              98.1080852,
              17.3825544
            ],
            [
              98.1082546,
              17.3812257
            ],
            [
              98.1091074,
              17.3796957
            ],
            [
              98.1088687,
              17.3786963
            ],
            [
              98.1088405,
              17.3774059
            ],
            [
              98.1091021,
              17.3766111
            ],
            [
              98.1117188,
              17.3749181
            ],
            [
              98.1120761,
              17.3749642
            ],
            [
              98.1124151,
              17.3754203
            ],
            [
              98.113075,
              17.3755729
            ],
            [
              98.1161514,
              17.3757874
            ],
            [
              98.1176722,
              17.3753341
            ],
            [
              98.1189082,
              17.3745239
            ],
            [
              98.1194629,
              17.3733269
            ],
            [
              98.1195198,
              17.3721918
            ],
            [
              98.1194227,
              17.3711582
            ],
            [
              98.119154,
              17.3706885
            ],
            [
              98.1173328,
              17.369465
            ],
            [
              98.1161967,
              17.3682588
            ],
            [
              98.1134451,
              17.3664482
            ],
            [
              98.1111649,
              17.3634935
            ],
            [
              98.1102217,
              17.3614037
            ],
            [
              98.1100662,
              17.3586305
            ],
            [
              98.1089485,
              17.3566888
            ],
            [
              98.1082379,
              17.3556944
            ],
            [
              98.1058674,
              17.3544162
            ],
            [
              98.105138,
              17.3531132
            ],
            [
              98.1063276,
              17.3512108
            ],
            [
              98.1073719,
              17.3500746
            ],
            [
              98.1072823,
              17.3493475
            ],
            [
              98.1048983,
              17.3467193
            ],
            [
              98.1044723,
              17.3432708
            ],
            [
              98.1056438,
              17.3391982
            ],
            [
              98.1051645,
              17.337687
            ],
            [
              98.1084444,
              17.3297556
            ],
            [
              98.1084558,
              17.3286693
            ],
            [
              98.1090092,
              17.3258649
            ],
            [
              98.1114981,
              17.3218813
            ],
            [
              98.1116206,
              17.3208847
            ],
            [
              98.1126394,
              17.3194298
            ],
            [
              98.1130555,
              17.3191504
            ],
            [
              98.1160426,
              17.3194325
            ],
            [
              98.1171745,
              17.3205028
            ],
            [
              98.1178558,
              17.3222747
            ],
            [
              98.11836,
              17.3228124
            ],
            [
              98.1192076,
              17.3232272
            ],
            [
              98.1198245,
              17.3232989
            ],
            [
              98.1206667,
              17.3231146
            ],
            [
              98.121804,
              17.3222133
            ],
            [
              98.122893,
              17.3219572
            ],
            [
              98.1248617,
              17.3210354
            ],
            [
              98.1253391,
              17.3206257
            ],
            [
              98.1268251,
              17.3185107
            ],
            [
              98.1288046,
              17.3149514
            ],
            [
              98.1290835,
              17.3112537
            ],
            [
              98.1293839,
              17.3093793
            ],
            [
              98.1283754,
              17.3086162
            ],
            [
              98.128649,
              17.3075202
            ],
            [
              98.1292605,
              17.3071207
            ],
            [
              98.1317981,
              17.306821
            ],
            [
              98.1340456,
              17.3068646
            ],
            [
              98.1343299,
              17.3066495
            ],
            [
              98.1355423,
              17.3049953
            ],
            [
              98.1362128,
              17.302291
            ],
            [
              98.137216,
              17.3006521
            ],
            [
              98.1376451,
              17.2994485
            ],
            [
              98.1375432,
              17.297999
            ],
            [
              98.1361592,
              17.2949976
            ],
            [
              98.1350166,
              17.2939937
            ],
            [
              98.1343621,
              17.2936813
            ],
            [
              98.1342334,
              17.2933125
            ],
            [
              98.1356978,
              17.2915967
            ],
            [
              98.1361699,
              17.2913867
            ],
            [
              98.1371102,
              17.2912762
            ],
            [
              98.1415084,
              17.2921851
            ],
            [
              98.1424852,
              17.2913783
            ],
            [
              98.1444236,
              17.2913927
            ],
            [
              98.1458624,
              17.2923382
            ],
            [
              98.1466535,
              17.2921167
            ],
            [
              98.1473097,
              17.2910878
            ],
            [
              98.1472525,
              17.2894128
            ],
            [
              98.147403,
              17.2888052
            ],
            [
              98.1505848,
              17.2877178
            ],
            [
              98.150896,
              17.2868428
            ],
            [
              98.1504556,
              17.2861836
            ],
            [
              98.1535568,
              17.2830087
            ],
            [
              98.1567373,
              17.2827527
            ],
            [
              98.1624812,
              17.2792185
            ],
            [
              98.1634765,
              17.2759407
            ],
            [
              98.1680217,
              17.2726093
            ],
            [
              98.1671901,
              17.2688224
            ],
            [
              98.1649814,
              17.2659469
            ],
            [
              98.1660909,
              17.2635173
            ],
            [
              98.1678189,
              17.262233
            ],
            [
              98.1707258,
              17.2631617
            ],
            [
              98.1720115,
              17.2628634
            ],
            [
              98.1734873,
              17.259332
            ],
            [
              98.1753905,
              17.2582536
            ],
            [
              98.1796708,
              17.2583173
            ],
            [
              98.1855613,
              17.258145
            ],
            [
              98.1873231,
              17.2556255
            ],
            [
              98.1952895,
              17.2551528
            ],
            [
              98.1983969,
              17.2543741
            ],
            [
              98.2055202,
              17.2495258
            ],
            [
              98.2085117,
              17.2448617
            ],
            [
              98.2094646,
              17.2421865
            ],
            [
              98.2085096,
              17.2387257
            ],
            [
              98.2090263,
              17.2365011
            ],
            [
              98.2105317,
              17.2339496
            ],
            [
              98.2107426,
              17.2320749
            ],
            [
              98.2117943,
              17.2300679
            ],
            [
              98.2135918,
              17.2284438
            ],
            [
              98.2175472,
              17.228574
            ],
            [
              98.2194466,
              17.2274901
            ],
            [
              98.226295,
              17.2215038
            ],
            [
              98.2283006,
              17.2204563
            ],
            [
              98.2296423,
              17.2209896
            ],
            [
              98.230442,
              17.2221448
            ],
            [
              98.2348526,
              17.227098
            ],
            [
              98.2383986,
              17.2288227
            ],
            [
              98.2388129,
              17.2305761
            ],
            [
              98.2415802,
              17.2299404
            ],
            [
              98.2442171,
              17.2269909
            ],
            [
              98.2450104,
              17.2247597
            ],
            [
              98.2449027,
              17.2224075
            ],
            [
              98.2438671,
              17.2206227
            ],
            [
              98.2409325,
              17.2191312
            ],
            [
              98.2388744,
              17.2192873
            ],
            [
              98.2370544,
              17.2186965
            ],
            [
              98.2340332,
              17.2168738
            ],
            [
              98.2285961,
              17.2112585
            ],
            [
              98.2279085,
              17.2086315
            ],
            [
              98.2279085,
              17.2048564
            ],
            [
              98.229114,
              17.2028825
            ],
            [
              98.2308408,
              17.2027175
            ],
            [
              98.2334183,
              17.2058362
            ],
            [
              98.2385312,
              17.2099938
            ],
            [
              98.2426558,
              17.2115805
            ],
            [
              98.2458933,
              17.2114852
            ],
            [
              98.2477215,
              17.2100747
            ],
            [
              98.2478211,
              17.2083054
            ],
            [
              98.2461059,
              17.2061755
            ],
            [
              98.2443152,
              17.2021341
            ],
            [
              98.2441175,
              17.199144
            ],
            [
              98.2447329,
              17.1974741
            ],
            [
              98.2455959,
              17.1968145
            ],
            [
              98.2468935,
              17.1967965
            ],
            [
              98.2504345,
              17.1982279
            ],
            [
              98.2520665,
              17.1976788
            ],
            [
              98.2515447,
              17.1911962
            ],
            [
              98.2496788,
              17.1864945
            ],
            [
              98.2494351,
              17.1833379
            ],
            [
              98.2502249,
              17.1823232
            ],
            [
              98.2519096,
              17.1825569
            ],
            [
              98.2562103,
              17.1855285
            ],
            [
              98.261291,
              17.1876715
            ],
            [
              98.2633414,
              17.18762
            ],
            [
              98.2652276,
              17.1864874
            ],
            [
              98.2652545,
              17.1837327
            ],
            [
              98.2613902,
              17.1808154
            ],
            [
              98.2593055,
              17.1780477
            ],
            [
              98.2592512,
              17.1762323
            ],
            [
              98.26118,
              17.1745193
            ],
            [
              98.2661326,
              17.177648
            ],
            [
              98.2671534,
              17.1776993
            ],
            [
              98.2681254,
              17.1767964
            ],
            [
              98.2732932,
              17.1750387
            ],
            [
              98.2781334,
              17.174367
            ],
            [
              98.2798875,
              17.1737224
            ],
            [
              98.2805332,
              17.1728999
            ],
            [
              98.2809651,
              17.1684887
            ],
            [
              98.2799963,
              17.1675116
            ],
            [
              98.2695839,
              17.163894
            ],
            [
              98.2674442,
              17.1599343
            ],
            [
              98.2676892,
              17.1591536
            ],
            [
              98.2685547,
              17.1582234
            ],
            [
              98.2691222,
              17.1565706
            ],
            [
              98.2723966,
              17.1511664
            ],
            [
              98.2734047,
              17.1508801
            ],
            [
              98.2766498,
              17.1524821
            ],
            [
              98.2787575,
              17.1519657
            ],
            [
              98.2830089,
              17.1526902
            ],
            [
              98.2839569,
              17.1539842
            ],
            [
              98.2873585,
              17.1565896
            ],
            [
              98.2905418,
              17.1553008
            ],
            [
              98.2931537,
              17.1520637
            ],
            [
              98.2959544,
              17.1510456
            ],
            [
              98.2980144,
              17.147198
            ],
            [
              98.2982504,
              17.1427793
            ],
            [
              98.2973277,
              17.1414978
            ],
            [
              98.2962978,
              17.141098
            ],
            [
              98.2955253,
              17.1412723
            ],
            [
              98.2923281,
              17.1433432
            ],
            [
              98.2900643,
              17.1445325
            ],
            [
              98.2878649,
              17.1448093
            ],
            [
              98.2867024,
              17.1446332
            ],
            [
              98.2849294,
              17.1434647
            ],
            [
              98.2848608,
              17.1429229
            ],
            [
              98.2866955,
              17.1380735
            ],
            [
              98.2868242,
              17.1316246
            ],
            [
              98.2866794,
              17.1307634
            ],
            [
              98.2846734,
              17.1284546
            ],
            [
              98.2805371,
              17.1210844
            ],
            [
              98.2795715,
              17.1168908
            ],
            [
              98.2797432,
              17.115527
            ],
            [
              98.2829726,
              17.1135173
            ],
            [
              98.2837021,
              17.1129226
            ],
            [
              98.2840776,
              17.1121023
            ],
            [
              98.2849574,
              17.1115485
            ],
            [
              98.2857621,
              17.1114255
            ],
            [
              98.2897555,
              17.1120979
            ],
            [
              98.2909888,
              17.1127581
            ],
            [
              98.2932588,
              17.1132769
            ],
            [
              98.2953589,
              17.1152131
            ],
            [
              98.2958785,
              17.1173647
            ],
            [
              98.2941021,
              17.1196047
            ],
            [
              98.2940775,
              17.1234633
            ],
            [
              98.2975505,
              17.1274649
            ],
            [
              98.2986037,
              17.1277692
            ],
            [
              98.2994609,
              17.1272075
            ],
            [
              98.3001983,
              17.1258215
            ],
            [
              98.300364,
              17.1210742
            ],
            [
              98.299377,
              17.1149733
            ],
            [
              98.2994091,
              17.1105642
            ],
            [
              98.2996827,
              17.1094208
            ],
            [
              98.3006322,
              17.1078212
            ],
            [
              98.3010292,
              17.1075085
            ],
            [
              98.3015549,
              17.1071701
            ],
            [
              98.3025742,
              17.1071342
            ],
            [
              98.3034003,
              17.1075033
            ],
            [
              98.3048111,
              17.1090722
            ],
            [
              98.3068047,
              17.1108307
            ],
            [
              98.3085663,
              17.1114953
            ],
            [
              98.3114537,
              17.1121315
            ],
            [
              98.314264,
              17.1118996
            ],
            [
              98.316632,
              17.1115129
            ],
            [
              98.3190784,
              17.1127432
            ],
            [
              98.322691,
              17.1118292
            ],
            [
              98.3233784,
              17.1108692
            ],
            [
              98.3228219,
              17.1092231
            ],
            [
              98.3184842,
              17.1064253
            ],
            [
              98.3169109,
              17.1035199
            ],
            [
              98.317311,
              17.1021437
            ],
            [
              98.3176034,
              17.0959672
            ],
            [
              98.3160651,
              17.0945982
            ],
            [
              98.3148998,
              17.0943956
            ],
            [
              98.3137353,
              17.0949015
            ],
            [
              98.3123251,
              17.0991232
            ],
            [
              98.3095496,
              17.1014699
            ],
            [
              98.3084511,
              17.1008041
            ],
            [
              98.3077827,
              17.100114
            ],
            [
              98.3074897,
              17.0974416
            ],
            [
              98.3057615,
              17.0942141
            ],
            [
              98.3047547,
              17.0934796
            ],
            [
              98.3018273,
              17.0936322
            ],
            [
              98.3002229,
              17.0926354
            ],
            [
              98.3003299,
              17.0909733
            ],
            [
              98.3021441,
              17.0889587
            ],
            [
              98.3053687,
              17.0883201
            ],
            [
              98.3078744,
              17.0901277
            ],
            [
              98.3107461,
              17.0897465
            ],
            [
              98.3119417,
              17.0898228
            ],
            [
              98.3135858,
              17.0888848
            ],
            [
              98.3139567,
              17.0873906
            ],
            [
              98.3119884,
              17.0828124
            ],
            [
              98.3125791,
              17.0785379
            ],
            [
              98.3139046,
              17.0776213
            ],
            [
              98.3147168,
              17.0775679
            ],
            [
              98.3158354,
              17.075857
            ],
            [
              98.3153299,
              17.0737096
            ],
            [
              98.3178318,
              17.0696787
            ],
            [
              98.3198999,
              17.0677959
            ],
            [
              98.3208282,
              17.0678496
            ],
            [
              98.3226452,
              17.0669678
            ],
            [
              98.3224772,
              17.065361
            ],
            [
              98.3229563,
              17.0642562
            ],
            [
              98.3237195,
              17.0636348
            ],
            [
              98.3244494,
              17.0636884
            ],
            [
              98.3270284,
              17.0614372
            ],
            [
              98.3278156,
              17.0599321
            ],
            [
              98.3300648,
              17.0591259
            ],
            [
              98.3317512,
              17.0580778
            ],
            [
              98.3324245,
              17.0580778
            ],
            [
              98.333965,
              17.0567925
            ],
            [
              98.3348634,
              17.0553163
            ],
            [
              98.3368847,
              17.0532765
            ],
            [
              98.3377133,
              17.0511852
            ],
            [
              98.3401342,
              17.0510562
            ],
            [
              98.3411479,
              17.0498448
            ],
            [
              98.3437327,
              17.0484351
            ],
            [
              98.3468072,
              17.0478352
            ],
            [
              98.3494077,
              17.0492431
            ],
            [
              98.3503482,
              17.0492431
            ],
            [
              98.3512572,
              17.0499623
            ],
            [
              98.3530051,
              17.0502608
            ],
            [
              98.3541942,
              17.0496026
            ],
            [
              98.3555788,
              17.0495124
            ],
            [
              98.3559857,
              17.0499013
            ],
            [
              98.359015,
              17.0494833
            ],
            [
              98.3597224,
              17.0486117
            ],
            [
              98.3659965,
              17.0518208
            ],
            [
              98.3669988,
              17.0539171
            ],
            [
              98.3723468,
              17.0570565
            ],
            [
              98.3756366,
              17.0550496
            ],
            [
              98.3765528,
              17.0558652
            ],
            [
              98.3769288,
              17.0581119
            ],
            [
              98.3774267,
              17.0588259
            ],
            [
              98.3800184,
              17.0594826
            ],
            [
              98.3836229,
              17.0570255
            ],
            [
              98.3869456,
              17.0600223
            ],
            [
              98.3886353,
              17.0599624
            ],
            [
              98.3904495,
              17.0608296
            ],
            [
              98.3935096,
              17.0591579
            ],
            [
              98.3935406,
              17.0582089
            ],
            [
              98.3928525,
              17.0575511
            ],
            [
              98.3922888,
              17.0550366
            ],
            [
              98.3906599,
              17.0537787
            ],
            [
              98.3905023,
              17.052724
            ],
            [
              98.3911955,
              17.0515191
            ],
            [
              98.3919201,
              17.0514889
            ],
            [
              98.3934512,
              17.0510408
            ],
            [
              98.3941062,
              17.0503848
            ],
            [
              98.3955173,
              17.0477167
            ],
            [
              98.3991262,
              17.0472667
            ],
            [
              98.4004163,
              17.0476276
            ],
            [
              98.4016419,
              17.0499414
            ],
            [
              98.4012963,
              17.0505122
            ],
            [
              98.4015151,
              17.0535303
            ],
            [
              98.4042644,
              17.0563977
            ],
            [
              98.4099009,
              17.0542423
            ],
            [
              98.4104326,
              17.054631
            ],
            [
              98.4125214,
              17.0534984
            ],
            [
              98.4127085,
              17.0523956
            ],
            [
              98.4127398,
              17.04988
            ],
            [
              98.4131162,
              17.0484704
            ],
            [
              98.416157,
              17.0431956
            ],
            [
              98.4173862,
              17.0429244
            ],
            [
              98.419521,
              17.044035
            ],
            [
              98.4208961,
              17.0457382
            ],
            [
              98.4223291,
              17.0452914
            ],
            [
              98.4240802,
              17.0441553
            ],
            [
              98.4249532,
              17.0428437
            ],
            [
              98.4237644,
              17.0403611
            ],
            [
              98.4237329,
              17.0385591
            ],
            [
              98.4243644,
              17.0378043
            ],
            [
              98.4261888,
              17.0378043
            ],
            [
              98.4280995,
              17.039122
            ],
            [
              98.4303188,
              17.0391818
            ],
            [
              98.4327585,
              17.0385837
            ],
            [
              98.435484,
              17.036517
            ],
            [
              98.4362734,
              17.0364566
            ],
            [
              98.4368064,
              17.0368163
            ],
            [
              98.4375188,
              17.0368459
            ],
            [
              98.438172,
              17.0360131
            ],
            [
              98.4385472,
              17.0338903
            ],
            [
              98.4382969,
              17.0305091
            ],
            [
              98.4366381,
              17.0267385
            ],
            [
              98.4352636,
              17.0251852
            ],
            [
              98.4337631,
              17.0250656
            ],
            [
              98.4319752,
              17.0244659
            ],
            [
              98.4304671,
              17.0233543
            ],
            [
              98.4303725,
              17.0217551
            ],
            [
              98.4316983,
              17.0214532
            ],
            [
              98.4332968,
              17.0219028
            ],
            [
              98.4352337,
              17.0219625
            ],
            [
              98.4362356,
              17.0211542
            ],
            [
              98.4410268,
              17.0209058
            ],
            [
              98.4447347,
              17.022945
            ],
            [
              98.4497224,
              17.0243572
            ],
            [
              98.4529073,
              17.0242801
            ],
            [
              98.4551337,
              17.022721
            ],
            [
              98.4564341,
              17.0205336
            ],
            [
              98.4561853,
              17.0199091
            ],
            [
              98.4546811,
              17.0186806
            ],
            [
              98.4522573,
              17.0181688
            ],
            [
              98.4521625,
              17.0162373
            ],
            [
              98.452698,
              17.0147918
            ],
            [
              98.4559011,
              17.0116088
            ],
            [
              98.4559011,
              17.010835
            ],
            [
              98.4547404,
              17.0096352
            ],
            [
              98.4534837,
              17.0073218
            ],
            [
              98.4510018,
              17.0044677
            ],
            [
              98.4503091,
              17.0031129
            ],
            [
              98.4502777,
              17.0006207
            ],
            [
              98.44972699294256,
              17
            ],
            [
              99,
              17
            ],
            [
              99,
              18
            ],
            [
              98,
              18
            ],
            [
              98,
              17.499270041716898
            ]
          ]
        ]
      }
    }
  ]
}