{
  "type": "FeatureCollection",
  "features": [
    {
      "type": "Feature",
      "properties": {
        "osm_id": -1872673,
        "boundary": "administrative",
        "admin_level": 2,
        "parents": null,
        "name": "Samoa",
        "local_name": "Sāmoa",
        "name_en": "Samoa",
        "all_tags": {
          "flag": "http://upload.wikimedia.org/wikipedia/commons/3/31/Flag_of_Samoa.svg",
          "name": "Sāmoa",
          "name:am": "ሳሞአ",
          "name:ar": "ساموا",
          "name:be": "Самоа",
          "name:bg": "Самоа",
          "name:bm": "Samowa",
          "name:bn": "সামোয়া",
          "name:bo": "ནུ་བ་ས་མོ་འ།",
          "name:br": "Samoa",
          "name:ca": "Samoa",
          "name:cs": "Samoa",
          "name:da": "Samoa",
          "name:de": "Samoa",
          "name:dz": "ས་མོ་ཨ",
          "name:ee": "Samoa nutome",
          "name:el": "Σαμόα",
          "name:en": "Samoa",
          "name:eo": "Samoo",
          "name:es": "Samoa",
          "name:et": "Samoa",
          "name:fa": "ساموآ",
          "name:ff": "Samowaa",
          "name:fi": "Samoa",
          "name:fo": "Sámoa",
          "name:fr": "Samoa",
          "name:fy": "Samoä",
          "name:ga": "Samó",
          "name:gd": "Samotha",
          "name:gn": "Samóa",
          "name:gu": "સમોઆ",
          "name:gv": "Samoa",
          "name:ha": "Samowa",
          "name:he": "סמואה",
          "name:hi": "समोआ",
          "name:hr": "Samoa",
          "name:hu": "Szamoa",
          "name:hy": "Սամոա",
          "name:ia": "Samoa",
          "name:io": "Samoa",
          "name:is": "Samóa",
          "name:it": "Samoa",
          "name:ja": "サモア",
          "name:ka": "სამოა",
          "name:km": "សាមូអា",
          "name:kn": "ಸಮೋವಾ",
          "name:ko": "사모아",
          "name:ks": "سیمووا",
          "name:ku": "Samoa",
          "name:lg": "Samowa",
          "name:li": "Samoa",
          "name:lo": "ຊາມົວ",
          "name:lv": "Samoa",
          "name:mi": "Hāmoa",
          "name:mk": "Самоа",
          "name:ml": "സാമോവ",
          "name:mn": "Самоа",
          "name:mr": "सामोआ",
          "name:ne": "सामोआ",
          "name:nl": "Samoa",
          "name:no": "Samoa",
          "name:or": "ସାମୋଆ",
          "name:pl": "Samoa",
          "name:pt": "Samoa",
          "name:rn": "Samowa",
          "name:ru": "Самоа",
          "name:se": "Samoa",
          "name:sg": "Samoäa",
          "name:si": "සැමෝවා",
          "name:sk": "Samoa",
          "name:sl": "Samoa",
          "name:sr": "Самоа",
          "name:sv": "Samoa",
          "name:ta": "சமோவா",
          "name:te": "సమోవా",
          "name:th": "ประเทศซามัว",
          "name:ti": "ሳሞአ",
          "name:to": "Haʻamoa",
          "name:uk": "Самоа",
          "name:ur": "ساموآ",
          "name:vo": "Samovuäns",
          "name:yo": "Orílẹ́ède Samọ",
          "name:zh": "萨摩亚 / 薩摩亞",
          "name:zu": "i-Samoa",
          "boundary": "administrative",
          "name:ckb": "ساموا",
          "name:jbo": "samoas",
          "name:kab": "Samwa",
          "name:ksh": "Sammoha",
          "name:smn": "Samoa",
          "name:sms": "Samoa",
          "name:tzl": "Samovia",
          "old_name": "Western Samoa;German Samoa",
          "timezone": "Pacific/Apia",
          "way_area": "1.07749",
          "wikidata": "Q683",
          "ISO3166-1": "WS",
          "wikipedia": "en:Samoa",
          "admin_level": "2",
          "old_name:cs": "Západní Samoa;Německá Samoa",
          "old_name:eo": "Okcidenta Samoo",
          "old_name:sl": "Zahodna Samoa",
          "driving_side": "left",
          "name:zh-Hans": "萨摩亚",
          "name:zh-Hant": "薩摩亞",
          "official_name": "Malo Sa'oloto Tuto'atasi o Sāmoa",
          "ISO3166-1:alpha2": "WS",
          "ISO3166-1:alpha3": "WSM",
          "official_name:be": "Незалежная Дзяржава Самоа",
          "official_name:cs": "Nezávislý stát Samoa",
          "official_name:de": "Unabhängiger Staat Samoa",
          "official_name:en": "Independent State of Samoa",
          "official_name:eo": "Sendependa Ŝtato Samoo",
          "official_name:es": "Estado Independiente de Samoa",
          "official_name:fr": "Samoa occidentales",
          "official_name:gn": "Tetã Hekosãsóva Samóa",
          "official_name:ja": "サモア独立国",
          "official_name:ku": "Dewleta Serbixweya Samoa",
          "official_name:lb": "Unabhängiger Stat Samoa",
          "official_name:lt": "Samoa Nepriklausomoji Valstybė",
          "official_name:no": "Den selvstendige staten Samoa",
          "official_name:pl": "Niezależne Państwo Samoa",
          "official_name:pt": "Estado Independente de Samoa",
          "official_name:ru": "Независимое Государство Самоа",
          "official_name:sv": "Självständiga staten Samoa",
          "official_name:vi": "Nhà nước Độc lập Samoa",
          "ISO3166-1:numeric": "882"
        }
      },
      "geometry": {
        "type": "Polygon",
        "coordinates": [
          [
            [
              -173,
              -13.573365222746084
            ],
            [
              -172.9947122,
              -13.5904241
            ],
            [
              -172.9790126,
              -13.621023
            ],
            [
              -172.9610897,
              -13.6498696
            ],
            [
              -172.9368988,
              -13.6811185
            ],
            [
              -172.9058081,
              -13.7087859
            ],
            [
              -172.8743963,
              -13.733266
            ],
            [
              -172.854231,
              -13.7535265
            ],
            [
              -172.827004,
              -13.7735089
            ],
            [
              -172.8130546,
              -13.7892859
            ],
            [
              -172.790096,
              -13.814585
            ],
            [
              -172.7353759,
              -13.8937249
            ],
            [
              -172.7103162,
              -13.9185982
            ],
            [
              -172.6865706,
              -13.9425819
            ],
            [
              -172.6595956,
              -13.9635367
            ],
            [
              -172.6334991,
              -13.9781349
            ],
            [
              -172.6059695,
              -13.9898289
            ],
            [
              -172.56770432801574,
              -14
            ],
            [
              -172.48621583042166,
              -14
            ],
            [
              -172.4702913,
              -13.9970423
            ],
            [
              -172.4067958,
              -13.9904618
            ],
            [
              -172.3527393,
              -13.9797202
            ],
            [
              -172.3347275,
              -13.986987
            ],
            [
              -172.3135494,
              -13.9927117
            ],
            [
              -172.28254405084905,
              -14
            ],
            [
              -172,
              -14
            ],
            [
              -172,
              -13.552916816802734
            ],
            [
              -172.0223344,
              -13.499093
            ],
            [
              -172.0395369,
              -13.4687129
            ],
            [
              -172.0734673,
              -13.4233741
            ],
            [
              -172.098804,
              -13.3912516
            ],
            [
              -172.1166381,
              -13.3704533
            ],
            [
              -172.150532,
              -13.32875
            ],
            [
              -172.171226,
              -13.3081431
            ],
            [
              -172.192295,
              -13.2914356
            ],
            [
              -172.2226862,
              -13.2727856
            ],
            [
              -172.2476831,
              -13.2605262
            ],
            [
              -172.2862823,
              -13.2474761
            ],
            [
              -172.3434074,
              -13.2381892
            ],
            [
              -172.3807932,
              -13.2397638
            ],
            [
              -172.4345952,
              -13.2509571
            ],
            [
              -172.4456274,
              -13.2516989
            ],
            [
              -172.4827777,
              -13.2611349
            ],
            [
              -172.4923454,
              -13.2608999
            ],
            [
              -172.5249356,
              -13.26525
            ],
            [
              -172.552919,
              -13.2736055
            ],
            [
              -172.5731073,
              -13.2766144
            ],
            [
              -172.6067449,
              -13.2841289
            ],
            [
              -172.6282697,
              -13.2924606
            ],
            [
              -172.643165,
              -13.2936552
            ],
            [
              -172.6738845,
              -13.3003403
            ],
            [
              -172.6818092,
              -13.3033699
            ],
            [
              -172.6873398,
              -13.3011025
            ],
            [
              -172.7245498,
              -13.2916303
            ],
            [
              -172.7629097,
              -13.2891207
            ],
            [
              -172.8152186,
              -13.2940434
            ],
            [
              -172.8431383,
              -13.3002176
            ],
            [
              -172.8695951,
              -13.3099936
            ],
            [
              -172.8978761,
              -13.3253811
            ],
            [
              -172.9227357,
              -13.3443259
            ],
            [
              -172.9471811,
              -13.3684892
            ],
            [
              -172.965039,
              -13.3907019
            ],
            [
              -172.9835159,
              -13.4181238
            ],
            [
              -172.999773,
              -13.4553668
            ],
            [
              -173,
              -13.456363394341423
            ],
            [
              -173,
              -13.573365222746084
            ]
          ]
        ]
      }
    }
  ]
}