{
  "type": "FeatureCollection",
  "features": [
    {
      "type": "Feature",
      "properties": {
        "osm_id": -1311341,
        "boundary": "administrative",
        "admin_level": 2,
        "parents": null,
        "name": "Spain",
        "local_name": "España",
        "name_en": "Spain",
        "all_tags": {
          "flag": "http://upload.wikimedia.org/wikipedia/commons/3/32/Flag_of_Spain_%28Civil%29.svg",
          "name": "España",
          "name:af": "Spanje",
          "name:am": "እስፓንያ",
          "name:an": "Espanya",
          "name:ar": "إسبانيا",
          "name:ay": "Ispaña",
          "name:az": "İspaniya",
          "name:ba": "Испания",
          "name:be": "Іспанія",
          "name:bg": "Испания",
          "name:bi": "Spain",
          "name:bn": "স্পেন",
          "name:bo": "ཞི་པན་ཡ།",
          "name:br": "Spagn",
          "name:bs": "Španija",
          "name:ca": "Espanya",
          "name:ce": "Испани",
          "name:ch": "España",
          "name:co": "Spagna",
          "name:cs": "Španělsko",
          "name:cu": "Їспанїꙗ",
          "name:cv": "Испани",
          "name:cy": "Sbaen",
          "name:da": "Spanien",
          "name:de": "Spanien",
          "name:dv": "އިސްޕެއިން",
          "name:dz": "སིཔཱེན་",
          "name:ee": "Spain",
          "name:el": "Ισπανία",
          "name:en": "Spain",
          "name:eo": "Hispanio",
          "name:es": "España",
          "name:et": "Hispaania",
          "name:eu": "Espainia",
          "name:fa": "اسپانیا",
          "name:fi": "Espanja",
          "name:fo": "Spania",
          "name:fr": "Espagne",
          "name:fy": "Spanje",
          "name:ga": "An Spáinn",
          "name:gd": "An Spàinn",
          "name:gl": "España",
          "name:gn": "España",
          "name:gu": "સ્પેન",
          "name:gv": "Yn Spaainey",
          "name:he": "ספרד",
          "name:hi": "स्पेन",
          "name:hr": "Španjolska",
          "name:ht": "Espay",
          "name:hu": "Spanyolország",
          "name:hy": "Իսպանիա",
          "name:ia": "Espania",
          "name:id": "Spanyol",
          "name:ie": "Hispania",
          "name:ig": "Spain",
          "name:ik": "Spaña",
          "name:io": "Hispania",
          "name:is": "Spánn",
          "name:it": "Spagna",
          "name:iu": "ᓯᐸᐃᓐ",
          "name:ja": "スペイン",
          "name:jv": "Spanyol",
          "name:ka": "ესპანეთი",
          "name:kg": "Espania",
          "name:kk": "Испания",
          "name:kl": "Spania",
          "name:km": "អេស្ប៉ាញ",
          "name:kn": "ಸ್ಪೇನ್",
          "name:ko": "스페인",
          "name:ku": "Spanya",
          "name:kv": "Испания",
          "name:kw": "Spayn",
          "name:ky": "Испания",
          "name:la": "Hispania",
          "name:lb": "Spuenien",
          "name:li": "Spanje",
          "name:ln": "Espania",
          "name:lt": "Ispanija",
          "name:lv": "Spānija",
          "name:mg": "Espaina",
          "name:mi": "Peina",
          "name:mk": "Шпанија",
          "name:ml": "സ്പെയിൻ",
          "name:mn": "Испани",
          "name:mr": "स्पेन",
          "name:ms": "Sepanyol",
          "name:mt": "Spanja",
          "name:my": "စပိန်နိုင်ငံ",
          "name:na": "Pain",
          "name:ne": "स्पेन",
          "name:nl": "Spanje",
          "name:nn": "Spania",
          "name:no": "Spania",
          "name:nv": "Dibé Diníí Bikéyah",
          "name:oc": "Espanha",
          "name:or": "ସ୍ପେନ",
          "name:os": "Испани",
          "name:pa": "ਸਪੇਨ",
          "name:pl": "Hiszpania",
          "name:ps": "اسپانیا",
          "name:pt": "Espanha",
          "name:qu": "Ispaña",
          "name:rm": "Spagna",
          "name:rn": "Esipanye",
          "name:ro": "Spania",
          "name:ru": "Испания",
          "name:rw": "Esipanye",
          "name:sa": "स्पेन्",
          "name:sc": "Ispagna",
          "name:se": "Espánnja",
          "name:sh": "Španija",
          "name:sk": "Španielsko",
          "name:sl": "Španija",
          "name:sm": "Spania",
          "name:so": "Isbania",
          "name:sq": "Spanja",
          "name:sr": "Шпанија",
          "name:ss": "Sipeyini",
          "name:st": "Spain",
          "name:su": "Spanyol",
          "name:sv": "Spanien",
          "name:sw": "Hispania",
          "name:ta": "எசுப்பானியா",
          "name:te": "స్పెయిన్",
          "name:tg": "Испониё",
          "name:th": "ประเทศสเปน",
          "name:tk": "Ispaniýa",
          "name:tl": "Espanya",
          "name:to": "Sepeni",
          "name:tr": "İspanya",
          "name:ts": "Spaniya",
          "name:tt": "Испания",
          "name:ty": "Paniora",
          "name:ug": "ئىسپانىيە",
          "name:uk": "Іспанія",
          "name:ur": "ہسپانیہ",
          "name:uz": "Ispaniya",
          "name:vi": "Tây Ban Nha",
          "name:vo": "Spanyän",
          "name:wa": "Espagne",
          "name:wo": "Ispaañ",
          "name:yi": "שפאניע",
          "name:yo": "Spéìn",
          "name:za": "Sihbanhyaz",
          "name:zh": "西班牙",
          "name:zu": "ISpeyini",
          "boundary": "administrative",
          "currency": "EUR",
          "int_name": "Spain",
          "name:ace": "Seupanyo",
          "name:als": "Spanien",
          "name:ang": "Spēonland",
          "name:arc": "ܐܣܦܢܝܐ",
          "name:arz": "اسبانيا",
          "name:ast": "España",
          "name:bar": "Spanien",
          "name:bcl": "Espanya",
          "name:bpy": "স্পেন",
          "name:bug": "Spanyol",
          "name:bxr": "Испани",
          "name:cdo": "Să̤-băng-ngà",
          "name:ceb": "Espanya",
          "name:chr": "ᏍᏆᏂᏱ",
          "name:chy": "Spain",
          "name:ckb": "ئیسپانیا",
          "name:crh": "İspaniya",
          "name:csb": "Szpańskô",
          "name:diq": "İspanya",
          "name:dsb": "Špańska",
          "name:eml": "Spaggna",
          "name:ext": "España",
          "name:frp": "Èspagne",
          "name:frr": "Spaanien",
          "name:fur": "Spagne",
          "name:gag": "İspaniya",
          "name:gan": "西班牙",
          "name:glk": "ائسپانيا",
          "name:hak": "Sî-pân-ngà",
          "name:haw": "Sepania",
          "name:hif": "Spain",
          "name:hsb": "Španiska",
          "name:ilo": "España",
          "name:jbo": "sangu'e",
          "name:kaa": "İspaniya",
          "name:kab": "Spenyul",
          "name:kbd": "Эспаниэ",
          "name:koi": "Эспання",
          "name:krc": "Испания",
          "name:lad": "Espanya",
          "name:lez": "Испания",
          "name:lij": "Spagna",
          "name:lmo": "Spagna",
          "name:ltg": "Spaneja",
          "name:lzh": "西班牙",
          "name:mdf": "Испания",
          "name:mhr": "Испаний",
          "name:min": "Spanyol",
          "name:mwl": "Spanha",
          "name:mzn": "ایسپانیا",
          "name:nah": "Caxtillān",
          "name:nan": "Se-pan-gâ",
          "name:nap": "Spagna",
          "name:nds": "Spanien",
          "name:new": "स्पेन",
          "name:nov": "Spania",
          "name:nrm": "Espangne",
          "name:pag": "Espanya",
          "name:pam": "Espanya",
          "name:pap": "Spaña",
          "name:pcd": "Espanne",
          "name:pdc": "Schpaani",
          "name:pih": "Spain",
          "name:pms": "Spagna",
          "name:pnb": "سپین",
          "name:pnt": "Ισπανία",
          "name:rmy": "Spaniya",
          "name:rue": "Іспанія",
          "name:sah": "Испания",
          "name:scn": "Spagna",
          "name:sco": "Spain",
          "name:smn": "Espanja",
          "name:sms": "Espanja",
          "name:srn": "Spanyorokondre",
          "name:stq": "Spanien",
          "name:szl": "Szpanijŏ",
          "name:tet": "España",
          "name:tok": "ma Epanja",
          "name:tpi": "Spen",
          "name:tzl": "Espain",
          "name:udm": "Испания",
          "name:vec": "Spagna",
          "name:vep": "Ispanii",
          "name:vls": "Spanje",
          "name:vro": "Hispaania",
          "name:war": "Espanya",
          "name:wuu": "西班牙",
          "name:xal": "Эспанмудин Нутг",
          "name:xmf": "ესპანეთი",
          "name:yue": "西班牙",
          "name:zea": "Spanje",
          "way_area": "65.939",
          "wikidata": "Q29",
          "ISO3166-1": "ES",
          "wikipedia": "es:España",
          "admin_level": "2",
          "alt_name:eo": "Hispanujo",
          "alt_name:gl": "Espanha",
          "name:nds-nl": "Spanje",
          "name:bat-smg": "Ispanėjė",
          "name:cbk-zam": "España",
          "name:zh-Hans": "西班牙",
          "name:zh-Hant": "西班牙",
          "name:roa-tara": "Spagne",
          "official_name": "Reino de España",
          "name:be-tarask": "Гішпанія",
          "ISO3166-1:alpha2": "ES",
          "ISO3166-1:alpha3": "ESP",
          "official_name:ar": "مملكة إسبانيا",
          "official_name:be": "Каралеўства Іспанія",
          "official_name:cs": "Španělské království",
          "official_name:el": "Βασίλειο της Ισπανίας",
          "official_name:eo": "Reĝlando Hispanio",
          "official_name:fa": "پادشاهی اسپانیا",
          "official_name:gl": "Reino de España",
          "official_name:pt": "Reino de Espanha",
          "official_name:ur": "مملکت ہسپانیہ",
          "official_name:zh": "西班牙王国",
          "ISO3166-1:numeric": "724",
          "official_name:zh-Hans": "西班牙王国",
          "official_name:zh-Hant": "西班牙王國"
        }
      },
      "geometry": {
        "type": "Polygon",
        "coordinates": [
          [
            [
              -6,
              36
            ],
            [
              -5.403713893877399,
              36
            ],
            [
              -5.3958327,
              36.0021392
            ],
            [
              -5.395506017706415,
              36
            ],
            [
              -5.062493986238869,
              36
            ],
            [
              -5.0691305,
              36.0076996
            ],
            [
              -5.0793785,
              36.0180696
            ],
            [
              -5.0883595,
              36.0260256
            ],
            [
              -5.0954635,
              36.0332106
            ],
            [
              -5.1065315,
              36.0430106
            ],
            [
              -5.1119098,
              36.0471993
            ],
            [
              -5.0794075,
              36.1210833
            ],
            [
              -5.0748555,
              36.1360106
            ],
            [
              -5,
              36.19068063062394
            ],
            [
              -5,
              37
            ],
            [
              -6,
              37
            ],
            [
              -6,
              36
            ]
          ],
          [
            [
              -5.4006553,
              36.1483668
            ],
            [
              -5.3981384,
              36.1501073
            ],
            [
              -5.397562,
              36.1501463
            ],
            [
              -5.3845771,
              36.1548255
            ],
            [
              -5.3518028,
              36.1548102
            ],
            [
              -5.3453466,
              36.1550376
            ],
            [
              -5.3386321,
              36.1528168
            ],
            [
              -5.2767611,
              36.1494904
            ],
            [
              -5.2767356,
              36.1405496
            ],
            [
              -5.2774774,
              36.1350016
            ],
            [
              -5.2784012,
              36.1311926
            ],
            [
              -5.2780188,
              36.1272368
            ],
            [
              -5.2780024,
              36.1238718
            ],
            [
              -5.2781785,
              36.1211467
            ],
            [
              -5.2788016,
              36.1168656
            ],
            [
              -5.279672,
              36.1133816
            ],
            [
              -5.2804462,
              36.1111019
            ],
            [
              -5.2812795,
              36.1069823
            ],
            [
              -5.282094,
              36.1042494
            ],
            [
              -5.2839236,
              36.0995909
            ],
            [
              -5.2858379,
              36.0940463
            ],
            [
              -5.288043,
              36.0893265
            ],
            [
              -5.2902863,
              36.0855961
            ],
            [
              -5.2926641,
              36.0823151
            ],
            [
              -5.2957205,
              36.0788062
            ],
            [
              -5.3001333,
              36.074652
            ],
            [
              -5.3046978,
              36.0711862
            ],
            [
              -5.309176,
              36.0683731
            ],
            [
              -5.3130948,
              36.0663298
            ],
            [
              -5.3190198,
              36.0637007
            ],
            [
              -5.3248878,
              36.0617138
            ],
            [
              -5.3286608,
              36.060712
            ],
            [
              -5.3332888,
              36.0597873
            ],
            [
              -5.3407872,
              36.0588971
            ],
            [
              -5.347109,
              36.058755
            ],
            [
              -5.3525274,
              36.0590241
            ],
            [
              -5.3570753,
              36.0595515
            ],
            [
              -5.3637517,
              36.0607944
            ],
            [
              -5.3699001,
              36.0699959
            ],
            [
              -5.3821257,
              36.0876896
            ],
            [
              -5.3834628,
              36.0899391
            ],
            [
              -5.3853382,
              36.0937314
            ],
            [
              -5.3873222,
              36.0983644
            ],
            [
              -5.3888207,
              36.1043053
            ],
            [
              -5.3894796,
              36.1081687
            ],
            [
              -5.3907618,
              36.1106526
            ],
            [
              -5.3956721,
              36.1191205
            ],
            [
              -5.3967048,
              36.1226313
            ],
            [
              -5.3971326,
              36.1294556
            ],
            [
              -5.3974625,
              36.13177
            ],
            [
              -5.4006553,
              36.1483668
            ]
          ]
        ]
      }
    },
    {
      "type": "Feature",
      "properties": {
        "osm_id": -1278736,
        "boundary": "administrative",
        "admin_level": 2,
        "parents": null,
        "name": "Gibraltar",
        "local_name": "Gibraltar",
        "name_en": "Gibraltar",
        "all_tags": {
          "flag": "http://upload.wikimedia.org/wikipedia/commons/0/02/Flag_of_Gibraltar.svg",
          "name": "Gibraltar",
          "name:af": "Gibraltar",
          "name:an": "Chibraltar",
          "name:ar": "جبل طارق",
          "name:az": "Cəbəli-Tariq",
          "name:ba": "Гибралтар",
          "name:be": "Гібралтар",
          "name:bg": "Гибралтар",
          "name:bn": "জিব্রাল্টার",
          "name:br": "Jibraltar",
          "name:bs": "Gibraltar",
          "name:ca": "Gibraltar",
          "name:cs": "Gibraltar",
          "name:cv": "Гибралтар",
          "name:cy": "Gibraltar",
          "name:da": "Gibraltar",
          "name:de": "Gibraltar",
          "name:dv": "ޖަބަލްޠާރިޤު",
          "name:el": "Γιβραλτάρ",
          "name:en": "Gibraltar",
          "name:eo": "Ĝibraltaro",
          "name:es": "Gibraltar",
          "name:et": "Gibraltar",
          "name:eu": "Gibraltar",
          "name:fa": "جبل طارق",
          "name:fi": "Gibraltar",
          "name:fo": "Gibraltar",
          "name:fr": "Gibraltar",
          "name:fy": "Gibraltar",
          "name:ga": "Giobráltar",
          "name:gd": "Giobraltair",
          "name:gl": "Xibraltar",
          "name:gv": "Gibraaltar",
          "name:he": "גיברלטר",
          "name:hi": "जिब्राल्टर",
          "name:hr": "Gibraltar",
          "name:hu": "Gibraltár",
          "name:hy": "Ջիբրալթար",
          "name:ia": "Gibraltar",
          "name:id": "Gibraltar",
          "name:ie": "Gibraltar",
          "name:io": "Gibraltar",
          "name:is": "Gíbraltar",
          "name:it": "Gibilterra",
          "name:ja": "ジブラルタル",
          "name:jv": "Gibraltar",
          "name:ka": "გიბრალტარი",
          "name:kk": "Гибралтар",
          "name:ko": "지브롤터",
          "name:ku": "Cîbraltar",
          "name:kw": "Jibraltar",
          "name:la": "Gibraltar",
          "name:lb": "Gibraltar",
          "name:li": "Gibraltar",
          "name:lt": "Gibraltaras",
          "name:lv": "Gibraltārs",
          "name:mi": "Kāmaka",
          "name:mk": "Гибралтар",
          "name:mn": "Гибралтар",
          "name:mr": "जिब्राल्टर",
          "name:ms": "Gibraltar",
          "name:my": "ဂျီဘရော်လ်တာ",
          "name:ne": "गिब्राल्टार",
          "name:nl": "Gibraltar",
          "name:nn": "Gibraltar",
          "name:no": "Gibraltar",
          "name:oc": "Gibartar",
          "name:or": "ଜିବ୍ରାଲେଟର",
          "name:os": "Гибралтар",
          "name:pa": "ਜਿਬਰਾਲਟਰ",
          "name:pl": "Gibraltar",
          "name:pt": "Gibraltar",
          "name:ro": "Gibraltar",
          "name:ru": "Гибралтар",
          "name:rw": "Giburalitari",
          "name:sh": "Gibraltar",
          "name:sk": "Gibraltár",
          "name:sl": "Gibraltar",
          "name:so": "Jibraltaar",
          "name:sq": "Gjibraltari",
          "name:sr": "Гибралтар",
          "name:su": "Gibraltar",
          "name:sv": "Gibraltar",
          "name:sw": "Gibraltar",
          "name:ta": "ஜிப்ரால்ட்டர்",
          "name:tg": "Гибралтар",
          "name:th": "ยิบรอลตาร์",
          "name:tl": "Hibraltar",
          "name:tr": "Cebelitarık",
          "name:tt": "Гибралтар",
          "name:uk": "Гібралтар",
          "name:ur": "جبرالٹر",
          "name:vi": "Gibraltar",
          "name:wa": "Djibraltar",
          "name:wo": "Jibraltaar",
          "name:yi": "גיבראלטאר",
          "name:yo": "Gibraltar",
          "name:zh": "直布罗陀 / 直布羅陀",
          "boundary": "administrative",
          "int_name": "Gibraltar",
          "name:ace": "Gibraltar",
          "name:ang": "Calpis",
          "name:arz": "جيبرالتار",
          "name:ast": "Xibraltar",
          "name:bar": "Gibraltar",
          "name:bpy": "জিব্রালটার",
          "name:ckb": "گیبرالتار",
          "name:dsb": "Gibraltar",
          "name:ext": "Gibraltar",
          "name:frp": "Gibraltar",
          "name:frr": "Gibraltaar",
          "name:hif": "Gibraltar",
          "name:hsb": "Gibraltar",
          "name:kaa": "Gibraltar",
          "name:lad": "Jibraltar",
          "name:lez": "Гибралтар",
          "name:lij": "Gibiltæra",
          "name:lmo": "Gibiltera",
          "name:nan": "Gibraltar",
          "name:nds": "Gibraltar",
          "name:new": "जिब्राल्टर",
          "name:nov": "Gibraltar",
          "name:nrm": "Dgibrâltar",
          "name:pam": "Gibraltar",
          "name:pih": "Jibrulta",
          "name:pms": "Gibiltèra",
          "name:pnb": "جبرالٹر",
          "name:scn": "Gibbilterra",
          "name:sco": "Gibraltar",
          "name:vec": "Gibiltera",
          "name:war": "Gibraltar",
          "name:wuu": "直布罗陀",
          "name:xal": "Гибралта Балһсн",
          "name:yue": "直布羅陀",
          "timezone": "Europe/Gibraltar",
          "way_area": "0.00929915",
          "wikidata": "Q1410",
          "ISO3166-1": "GI",
          "population": "32194",
          "wdb:source": "CIA World database II - europe-bdy.txt - segment 81",
          "admin_level": "2",
          "alt_name:ur": "جبل الطارق",
          "border_type": "nation",
          "description": "Considered a Non-Self-Governing Territory by the United Nations.",
          "name:nds-nl": "Gibraltar",
          "name:simple": "Gibraltar",
          "name:zh-Hans": "直布罗陀",
          "name:zh-Hant": "直布羅陀",
          "official_name": "Gibraltar",
          "name:be-tarask": "Гібральтар",
          "population:date": "2015",
          "ISO3166-1:alpha2": "GI",
          "ISO3166-1:alpha3": "GIB",
          "default_language": "en",
          "ISO3166-1:numeric": "292"
        }
      },
      "geometry": {
        "type": "Polygon",
        "coordinates": [
          [
            [
              -5.4006553,
              36.1483668
            ],
            [
              -5.3974625,
              36.13177
            ],
            [
              -5.3971326,
              36.1294556
            ],
            [
              -5.3967048,
              36.1226313
            ],
            [
              -5.3956721,
              36.1191205
            ],
            [
              -5.3907618,
              36.1106526
            ],
            [
              -5.3894796,
              36.1081687
            ],
            [
              -5.3888207,
              36.1043053
            ],
            [
              -5.3873222,
              36.0983644
            ],
            [
              -5.3853382,
              36.0937314
            ],
            [
              -5.3834628,
              36.0899391
            ],
            [
              -5.3821257,
              36.0876896
            ],
            [
              -5.3699001,
              36.0699959
            ],
            [
              -5.3637517,
              36.0607944
            ],
            [
              -5.3570753,
              36.0595515
            ],
            [
              -5.3525274,
              36.0590241
            ],
            [
              -5.347109,
              36.058755
            ],
            [
              -5.3407872,
              36.0588971
            ],
            [
              -5.3332888,
              36.0597873
            ],
            [
              -5.3286608,
              36.060712
            ],
            [
              -5.3248878,
              36.0617138
            ],
            [
              -5.3190198,
              36.0637007
            ],
            [
              -5.3130948,
              36.0663298
            ],
            [
              -5.309176,
              36.0683731
            ],
            [
              -5.3046978,
              36.0711862
            ],
            [
              -5.3001333,
              36.074652
            ],
            [
              -5.2957205,
              36.0788062
            ],
            [
              -5.2926641,
              36.0823151
            ],
            [
              -5.2902863,
              36.0855961
            ],
            [
              -5.288043,
              36.0893265
            ],
            [
              -5.2858379,
              36.0940463
            ],
            [
              -5.2839236,
              36.0995909
            ],
            [
              -5.282094,
              36.1042494
            ],
            [
              -5.2812795,
              36.1069823
            ],
            [
              -5.2804462,
              36.1111019
            ],
            [
              -5.279672,
              36.1133816
            ],
            [
              -5.2788016,
              36.1168656
            ],
            [
              -5.2781785,
              36.1211467
            ],
            [
              -5.2780024,
              36.1238718
            ],
            [
              -5.2780188,
              36.1272368
            ],
            [
              -5.2784012,
              36.1311926
            ],
            [
              -5.2774774,
              36.1350016
            ],
            [
              -5.2767356,
              36.1405496
            ],
            [
              -5.2767611,
              36.1494904
            ],
            [
              -5.3386321,
              36.1528168
            ],
            [
              -5.3453466,
              36.1550376
            ],
            [
              -5.3518028,
              36.1548102
            ],
            [
              -5.3845771,
              36.1548255
            ],
            [
              -5.397562,
              36.1501463
            ],
            [
              -5.3981384,
              36.1501073
            ],
            [
              -5.4006553,
              36.1483668
            ]
          ]
        ]
      }
    },
    {
      "type": "Feature",
      "properties": {
        "osm_id": -3630439,
        "boundary": "administrative",
        "admin_level": 2,
        "parents": null,
        "name": "Morocco",
        "local_name": "Maroc ⵍⵎⵖⵔⵉⴱ المغرب",
        "name_en": "Morocco",
        "all_tags": {
          "flag": "http://upload.wikimedia.org/wikipedia/commons/2/2c/Flag_of_Morocco.svg",
          "name": "Maroc ⵍⵎⵖⵔⵉⴱ المغرب",
          "name:ar": "المغرب",
          "name:az": "Mərakeş",
          "name:ba": "Марокко",
          "name:be": "Марока",
          "name:bg": "Мароко",
          "name:bm": "Maroko",
          "name:bn": "মরোক্কো",
          "name:bo": "མོ་རོ་ཁོ།",
          "name:br": "Maroko",
          "name:bs": "Maroko",
          "name:ca": "Marroc",
          "name:ce": "Марокко",
          "name:cs": "Maroko",
          "name:cv": "Марокко",
          "name:cy": "Moroco",
          "name:da": "Marokko",
          "name:de": "Marokko",
          "name:dv": "މައުރިބު",
          "name:el": "Μαρόκο",
          "name:en": "Morocco",
          "name:eo": "Maroko",
          "name:es": "Marruecos",
          "name:et": "Maroko",
          "name:eu": "Maroko",
          "name:fa": "مراکش",
          "name:fi": "Marokko",
          "name:fo": "Marokko",
          "name:fr": "Maroc",
          "name:fy": "Marokko",
          "name:ga": "Maracó",
          "name:gd": "Maroco",
          "name:gl": "Marrocos",
          "name:gn": "Marruéko",
          "name:gv": "Yn Varoc",
          "name:he": "מרוקו",
          "name:hi": "मोरक्को",
          "name:hr": "Maroko",
          "name:ht": "Mawòk",
          "name:hu": "Marokkó",
          "name:hy": "Մարոկկո",
          "name:ia": "Marocco",
          "name:id": "Maroko",
          "name:ie": "Morocco",
          "name:io": "Maroko",
          "name:is": "Marokkó",
          "name:it": "Marocco",
          "name:ja": "モロッコ",
          "name:jv": "Maroko",
          "name:ka": "მაროკო",
          "name:kg": "Maroko",
          "name:kk": "Мағрибия",
          "name:kn": "ಮೊರಾಕೊ",
          "name:ko": "모로코",
          "name:ku": "Maroko",
          "name:kw": "Marokk",
          "name:ky": "Марокко",
          "name:la": "Marocum",
          "name:lb": "Marokko",
          "name:li": "Marokko",
          "name:ln": "Marɔkɛ",
          "name:lt": "Marokas",
          "name:lv": "Maroka",
          "name:mg": "Marôka",
          "name:mi": "Marako",
          "name:mk": "Мароко",
          "name:ml": "മൊറോക്കൊ",
          "name:mn": "Марокко",
          "name:mr": "मोरोक्को",
          "name:ms": "Maghribi",
          "name:mt": "Marokk",
          "name:my": "မော်ရိုကိုနိုင်ငံ",
          "name:nl": "Marokko",
          "name:nn": "Marokko",
          "name:no": "Marokko",
          "name:nv": "Moroko",
          "name:oc": "Marròc",
          "name:or": "ମୋରୋକୋ",
          "name:os": "Марокко",
          "name:pa": "ਮੋਰਾਕੋ",
          "name:pl": "Maroko",
          "name:ps": "مراکش",
          "name:pt": "Marrocos",
          "name:qu": "Maruku",
          "name:ro": "Maroc",
          "name:ru": "Марокко",
          "name:rw": "Maroke",
          "name:sa": "मोराको",
          "name:sc": "Marocco",
          "name:se": "Marokko",
          "name:sg": "Marôko",
          "name:sh": "Maroko",
          "name:sk": "Maroko",
          "name:sl": "Maroko",
          "name:sn": "Morocco",
          "name:so": "Marooko",
          "name:sq": "Maroku",
          "name:sr": "Мароко",
          "name:ss": "IMorokho",
          "name:su": "Maroko",
          "name:sv": "Marocko",
          "name:sw": "Moroko",
          "name:ta": "மொரோக்கோ",
          "name:te": "మొరాకో",
          "name:tg": "Марокаш",
          "name:th": "ประเทศโมร็อกโก",
          "name:ti": "ሞሮኮ",
          "name:tk": "Marokko",
          "name:tl": "Maruekos",
          "name:tr": "Fas",
          "name:ts": "Morocco",
          "name:tt": "Марокко",
          "name:ug": "ماراكەش",
          "name:uk": "Марокко",
          "name:ur": "مراکش",
          "name:uz": "Marokash",
          "name:vi": "Maroc",
          "name:vo": "Marokän",
          "name:wa": "Marok",
          "name:wo": "Marok",
          "name:yi": "מאראקא",
          "name:yo": "Mòrókò",
          "name:zh": "摩洛哥",
          "name:zu": "IMorokho",
          "boundary": "administrative",
          "name:ast": "Marruecos",
          "name:bcl": "Moroko",
          "name:ber": "ⵍⵎⵖⵔⵉⴱ",
          "name:bjn": "Maroko",
          "name:bpy": "মরক্কো",
          "name:bxr": "Марокко",
          "name:ceb": "Maruwekos",
          "name:ckb": "مەغریب",
          "name:crh": "Mağrip",
          "name:diq": "Marok",
          "name:dsb": "Marokko",
          "name:ext": "Marruecus",
          "name:frp": "Maroc",
          "name:gag": "Marokko",
          "name:hif": "Morocco",
          "name:hsb": "Marokko",
          "name:ilo": "Morocco",
          "name:jbo": "morgu'e",
          "name:kab": "Merruk",
          "name:lad": "Marroko",
          "name:lij": "Maròcco",
          "name:lmo": "Maroch",
          "name:lzh": "摩洛哥",
          "name:min": "Maroko",
          "name:mrj": "Марокко",
          "name:mwl": "Marrocos",
          "name:mzn": "مراکش",
          "name:nah": "Marruecos",
          "name:nan": "Morocco",
          "name:nds": "Marokko",
          "name:new": "मोरक्को",
          "name:nov": "Moroko",
          "name:nso": "Morocco",
          "name:pam": "Morocco",
          "name:pap": "Morocco",
          "name:pms": "Maròch",
          "name:pnb": "مراکش",
          "name:sah": "Марокко",
          "name:scn": "Maroccu",
          "name:sco": "Morocco",
          "name:smn": "Marokko",
          "name:sms": "Marokko",
          "name:stq": "Marokko",
          "name:szl": "Maroko",
          "name:tok": "ma Malipe",
          "name:tzl": "Maroc",
          "name:vec": "Maroco",
          "name:vep": "Marok",
          "name:vro": "Maroko",
          "name:war": "Morocco",
          "name:xal": "Морокин Нутг",
          "name:yue": "摩洛哥",
          "name:zea": "Marokko",
          "name:zgh": "ⵍⵎⵖⵔⵉⴱ",
          "old_name": "مراكش",
          "way_area": "61.8833",
          "wikidata": "Q1028",
          "ISO3166-1": "MA",
          "wikipedia": "ar:المغرب",
          "population": "33848242",
          "admin_level": "2",
          "name:simple": "Morocco",
          "old_name:ar": "مراكش",
          "name:bat-smg": "Maruoks",
          "name:zh-Hans": "摩洛哥",
          "name:zh-Hant": "摩洛哥",
          "official_name": "ⵍⵎⵖⵔⵉⴱ المغرب",
          "name:be-tarask": "Марока",
          "population:date": "2014",
          "ISO3166-1:alpha2": "MA",
          "ISO3166-1:alpha3": "MAR",
          "default_language": "ar",
          "official_name:ar": "المغرب",
          "official_name:cs": "Marocké království",
          "official_name:en": "Morocco",
          "official_name:fr": "Maroc",
          "official_name:gn": "Mburuvi Marruéko",
          "official_name:pt": "Marrocos",
          "ISO3166-1:numeric": "504",
          "official_name:ber": "ⵍⵎⵖⵔⵉⴱ"
        }
      },
      "geometry": {
        "type": "Polygon",
        "coordinates": [
          [
            [
              -5.403713893877399,
              36
            ],
            [
              -5.395506017706415,
              36
            ],
            [
              -5.3958327,
              36.0021392
            ],
            [
              -5.403713893877399,
              36
            ]
          ]
        ]
      }
    }
  ]
}