{
  "type": "FeatureCollection",
  "features": [
    {
      "type": "Feature",
      "properties": {
        "osm_id": -62149,
        "boundary": "administrative",
        "admin_level": 2,
        "parents": null,
        "name": "United Kingdom",
        "local_name": "United Kingdom",
        "name_en": "United Kingdom",
        "all_tags": {
          "flag": "https://upload.wikimedia.org/wikipedia/commons/a/ae/Flag_of_the_United_Kingdom.svg",
          "name": "United Kingdom",
          "name:ab": "–ë—Ä–∏—Ç–∞–Ω–∏–∞ –î—É",
          "name:af": "Verenigde Koninkryk",
          "name:ak": "United Kingdom",
          "name:am": "·ã©·äì·ã≠·âµ·ãµ ·ä™·äï·åç·ã∞·àù",
          "name:an": "Reino Unito",
          "name:ar": "ÿßŸÑŸÖŸÖŸÑŸÉÿ© ÿßŸÑŸÖÿ™ÿ≠ÿØÿ©",
          "name:as": "‡¶Ø‡ßÅ‡¶ï‡ßç‡¶§‡ß∞‡¶æ‡¶ú‡ßç‡¶Ø",
          "name:av": "–ö”è—É–¥–∞–±–∏—Ä–∏—Ç–∞–Ω",
          "name:az": "B√∂y√ºk Britaniya",
          "name:ba": "–ë”©–π”©–∫ –ë—Ä–∏—Ç–∞–Ω–∏—è",
          "name:be": "–í—è–ª—ñ–∫–∞–±—Ä—ã—Ç–∞–Ω—ñ—è",
          "name:bg": "–û–±–µ–¥–∏–Ω–µ–Ω–æ –∫—Ä–∞–ª—Å—Ç–≤–æ –í–µ–ª–∏–∫–æ–±—Ä–∏—Ç–∞–Ω–∏—è –∏ –°–µ–≤–µ—Ä–Ω–∞ –ò—Ä–ª–∞–Ω–¥–∏—è",
          "name:bh": "‡§Ø‡•Ç‡§®‡§æ‡§á‡§ü‡•á‡§° ‡§ï‡§ø‡§Ç‡§ó‡§°‡§Æ",
          "name:bi": "Unaeted Kingdom",
          "name:bn": "‡¶Ø‡ßÅ‡¶ï‡ßç‡¶§‡¶∞‡¶æ‡¶ú‡ßç‡¶Ø",
          "name:bo": "‡Ωë‡Ωñ‡æ±‡Ω≤‡Ωì‡ºã‡Ωá‡Ω≤‡ºã‡Ωò‡Ωâ‡Ωò‡ºã‡Ω†‡Ωñ‡æ≤‡Ω∫‡Ω£‡ºç",
          "name:br": "Rouantelezh-Unanet",
          "name:bs": "Ujedinjeno Kraljevstvo Velike Britanije i Sjeverne Irske",
          "name:ca": "Regne Unit",
          "name:ce": "–ô–æ–∫–∫—Ö–∞ –ë—Ä–∏—Ç–∞–Ω–∏",
          "name:ch": "Reinu Unidu",
          "name:co": "Regnu Unitu",
          "name:cs": "Spojen√© kr√°lovstv√≠",
          "name:cu": "–í—î–ª–∏–∫–∞ –ë—Ä–∏—Ç–∞–Ω—óÍôó",
          "name:cv": "–ê—Å–ªƒÉ –ë—Ä–∏—Ç–∞–Ω–∏",
          "name:cy": "Deyrnas Unedig",
          "name:da": "Storbritannien",
          "name:de": "Vereinigtes K√∂nigreich",
          "name:dv": "ﬁîﬁ™ﬁÇﬁ¶ﬁáﬁ®ﬁìﬁ¨ﬁëﬁ∞ ﬁÜﬁ®ﬁÇﬁ∞ﬁéﬁ∞ﬁëﬁ¶ﬁâﬁ∞",
          "name:dz": "‡Ω°‡Ω¥‡ºã‡Ωì‡Ω†‡Ω≤‡ºã‡Ωä‡Ω∫‡Ωä‡ºã‡ΩÄ‡Ω≤‡ΩÑ‡ºã‡Ωå‡Ωò",
          "name:ee": "United Kingdom",
          "name:el": "ŒóŒΩœâŒºŒ≠ŒΩŒø ŒíŒ±œÉŒØŒªŒµŒπŒø",
          "name:en": "United Kingdom",
          "name:eo": "Unuiƒùinta Reƒùlando",
          "name:es": "Reino Unido",
          "name:et": "Suurbritannia",
          "name:eu": "Erresuma Batua",
          "name:fa": "ÿ®ÿ±€åÿ™ÿßŸÜ€åÿß",
          "name:ff": "Biritaani-Mawndi",
          "name:fi": "Yhdistynyt kuningaskunta",
          "name:fj": "Matanitu Cokovata",
          "name:fo": "St√≥ra Bretland",
          "name:fr": "Royaume-Uni",
          "name:fy": "Feriene Keninkryk",
          "name:ga": "An R√≠ocht Aontaithe",
          "name:gd": "An R√¨oghachd Aonaichte",
          "name:gl": "Reino Unido",
          "name:gn": "Tavet√£ Joaju",
          "name:gu": "‡™Ø‡´Å‡™®‡™æ‡™á‡™ü‡´á‡™° ‡™ï‡™ø‡™Ç‡™ó‡™°‡™Æ",
          "name:gv": "Reeriaght Unnaneysit",
          "name:ha": "Birtaniya",
          "name:he": "◊î◊û◊û◊ú◊õ◊î ◊î◊û◊ê◊ï◊ó◊ì◊™",
          "name:hi": "‡§Ø‡•Ç‡§®‡§æ‡§á‡§ü‡•á‡§° ‡§ï‡§ø‡§Ç‡§ó‡§°‡§Æ",
          "name:hr": "Ujedinjeno Kraljevstvo",
          "name:ht": "Way√≤m Ini",
          "name:hu": "Egyes√ºlt Kir√°lys√°g",
          "name:hy": "’Ñ’´’°÷Å’µ’°’¨ ‘π’°’£’°’æ’∏÷Ä’∏÷Ç’©’µ’∏÷Ç’∂",
          "name:ia": "Regno Unite",
          "name:id": "Britania Raya",
          "name:ie": "Reyatu Unit",
          "name:ig": "Obodo√©z√® N√† Of√∫",
          "name:ik": "Tannapta Umialgutia",
          "name:io": "Unionita Rejio",
          "name:is": "Bretland",
          "name:it": "Regno Unito",
          "name:iu": "·ëê·ìó·êÉ·ë¶ ·ìÑ·ìà·ë¶",
          "name:ja": "„Ç§„ÇÆ„É™„Çπ",
          "name:jv": "Britania Raya",
          "name:ka": "·Éí·Éê·Éî·É†·Éó·Éò·Éê·Éú·Éî·Éë·É£·Éö·Éò ·É°·Éê·Éõ·Éî·É§·Éù",
          "name:kg": "Royaume-Uni",
          "name:ki": "United Kingdom",
          "name:kk": "“∞–ª—ã–±—Ä–∏—Ç–∞–Ω–∏—è",
          "name:kl": "Tuluit Nunaat",
          "name:km": "·ûö·û∂·ûá·û∂·ûé·û∂·ûÖ·ûÄ·üí·ûö·ûö·ûΩ·ûò",
          "name:kn": "‡≤Ø‡≥Å‡≤®‡≥à‡≤ü‡≥Ü‡≤°‡≥ç ‡≤ï‡≤ø‡≤Ç‡≤ó‡≥ç‚Äå‡≤°‡≤Ç",
          "name:ko": "ÏòÅÍµ≠",
          "name:ku": "Keyaniya Yekb√ªy√Æ",
          "name:kv": "–´–¥–∂—ã–¥ –ë—Ä–∏—Ç–∞–Ω–∏—è",
          "name:kw": "Ruvaneth Unys",
          "name:ky": "–£–ª—É—É –ë—Ä–∏—Ç–∞–Ω–∏—è –∂–∞–Ω–∞ –¢“Ø–Ω–¥“Ø–∫ –ò—Ä–ª–∞–Ω–¥–∏—è",
          "name:la": "Britanniarum Regnum",
          "name:lb": "Groussbritannien an Nordirland",
          "name:li": "Vereineg Keuninkriek",
          "name:ln": "Ing…õl…õÃÅt…õl…õ",
          "name:lo": "‡∫™‡∫∞‡∫´‡∫∞‡∫£‡∫≤‡∫ä‡∫≠‡∫≤‡∫ô‡∫≤‡∫à‡∫±‡∫Å",
          "name:lt": "Jungtinƒó Karalystƒó",
          "name:lv": "ApvienotƒÅ Karaliste",
          "name:mg": "Fanjakana Mitambatra",
          "name:mi": "Kƒ´ngitanga Kotahi",
          "name:mk": "–û–±–µ–¥–∏–Ω–µ—Ç–æ –ö—Ä–∞–ª—Å—Ç–≤–æ",
          "name:ml": "‡¥Ø‡µÅ‡¥£‡µà‡¥±‡µç‡¥±‡¥°‡µç ‡¥ï‡¥ø‡¥ô‡µç‡¥°‡¥Ç",
          "name:mn": "–ò—Ö –ë—Ä–∏—Ç–∞–Ω–∏",
          "name:mr": "‡§Ø‡•Å‡§®‡§æ‡§Ø‡§ü‡•á‡§° ‡§ï‡§ø‡§Ç‡§ó‡•ç‡§°‡§Æ",
          "name:ms": "United Kingdom",
          "name:mt": "Renju Unit",
          "name:my": "·Äö·Ä∞·Äî·Ä≠·ÄØ·ÄÄ·Ä∫·Äê·ÄÄ·Ä∫·ÄÄ·ÄÑ·Ä∫·Ä∏·Äí·Äô·Ä∫·Ä∏·Äî·Ä≠·ÄØ·ÄÑ·Ä∫·ÄÑ·Ä∂",
          "name:na": "Ingerand",
          "name:ne": "‡§∏‡§Ç‡§Ø‡•Å‡§ï‡•ç‡§§ ‡§Ö‡§ß‡§ø‡§∞‡§æ‡§ú‡•ç‡§Ø",
          "name:nl": "Verenigd Koninkrijk",
          "name:nn": "Storbritannia",
          "name:no": "Storbritannia",
          "name:nv": "T√≥ta º Dine º√© Bik√©yah",
          "name:ny": "United Kingdom",
          "name:oc": "Reialme Unit",
          "name:om": "Yunaayitid Kingidem",
          "name:or": "‡¨Ø‡≠Å‡¨ï‡≠ç‡¨§‡¨∞‡¨æ‡¨ú‡≠ç‡≠ü",
          "name:os": "–°—Ç—ã—Ä –ë—Ä–∏—Ç–∞–Ω–∏",
          "name:pa": "‡®∏‡©∞‡®Ø‡©Å‡®ï‡®§ ‡®¨‡®æ‡®¶‡®∏‡®º‡®æ‡®π‡©Ä",
          "name:pl": "Wielka Brytania",
          "name:ps": "ÿ®ÿ±Ÿäÿ™ÿßŸÜŸäÿß",
          "name:pt": "Reino Unido",
          "name:qu": "Hukllachasqa Qhapaq Suyu",
          "name:rm": "Reginavel Un√¨",
          "name:ro": "Regatul Unit al Marii Britanii »ôi al Irlandei de Nord",
          "name:ru": "–í–µ–ª–∏–∫–æ–±—Ä–∏—Ç–∞–Ω–∏—è",
          "name:rw": "Ubwongereza",
          "name:sa": "‡§∏‡§Ç‡§Ø‡•Å‡§ï‡•ç‡§§ ‡§Ö‡§ß‡§ø‡§∞‡§æ‡§ú‡•ç‡§Ø",
          "name:sc": "Rennu Auniadu",
          "name:sd": "⁄Ø⁄èŸäŸÑ ÿ®ÿßÿØÿ¥ÿß⁄æÿ™",
          "name:se": "Ovttastuvvan gonagasriika",
          "name:sh": "Ujedinjeno Kraljevstvo",
          "name:si": "‡∂ë‡∂ö‡∑ä‡∑É‡∂≠‡∑ä ‡∂ª‡∑è‡∂¢‡∂∞‡∑è‡∂±‡∑í‡∂∫",
          "name:sk": "Spojen√© kr√°ƒæovstvo",
          "name:sl": "Zdru≈æeno kraljestvo",
          "name:sm": "PeretƒÅnia",
          "name:sn": "United Kingdom",
          "name:so": "Midowga boqortooyada Britan",
          "name:sq": "Mbret√´ria e Bashkuar e Britanis√´ dhe Irland√´s s√´ Veriut",
          "name:sr": "–£—ò–µ–¥–∏—ö–µ–Ω–æ –ö—Ä–∞—ô–µ–≤—Å—Ç–≤–æ",
          "name:ss": "United Kingdom",
          "name:su": "Britania",
          "name:sv": "Storbritannien",
          "name:sw": "Ufalme wa Muungano",
          "name:ta": "‡Æê‡Æï‡Øç‡Æï‡Æø‡ÆØ ‡Æá‡Æ∞‡Ææ‡Æö‡Øç‡Æö‡Æø‡ÆØ‡ÆÆ‡Øç",
          "name:te": "‡∞Ø‡±Å‡∞®‡±à‡∞ü‡±Ü‡∞°‡±ç ‡∞ï‡∞ø‡∞Ç‡∞ó‡±ç‚Äå‡∞°‡∞Æ‡±ç",
          "name:tg": "–ü–æ–¥—à–æ“≥–∏–∏ –ú—É—Ç—Ç–∞“≥–∏–¥–∞",
          "name:th": "‡∏™‡∏´‡∏£‡∏≤‡∏ä‡∏≠‡∏≤‡∏ì‡∏≤‡∏à‡∏±‡∏Å‡∏£",
          "name:tk": "Birle≈üen Paty≈üalyk",
          "name:tl": "Nagkakaisang Kaharian",
          "name:to": "PilitƒÅnia",
          "name:tr": "Birle≈üik Krallƒ±k",
          "name:ts": "United Kingdom",
          "name:tt": "–ë”©–µ–∫–±—Ä–∏—Ç–∞–Ω–∏—è",
          "name:tw": "United Kingdom",
          "name:ty": "ParatƒÅne",
          "name:ug": "ÿ®€àŸä€àŸÉ ÿ®€êÿ±Ÿâÿ™ÿßŸÜŸâŸä€ï",
          "name:uk": "–í–µ–ª–∏–∫–∞ –ë—Ä–∏—Ç–∞–Ω—ñ—è",
          "name:ur": "ÿ®ÿ±ÿ∑ÿßŸÜ€å€Å",
          "name:uz": "Birlashgan Qirollik",
          "name:vi": "V∆∞∆°ng qu·ªëc Anh",
          "name:vo": "Reg√§n Pebal√∂l",
          "name:wa": "Rwey√•me-Uni",
          "name:wo": "Nguur-Yu-Bennoo",
          "name:yi": "◊§◊ê◊®◊ê◊ô◊ô◊†◊ô◊í◊ò◊¢ ◊ß◊¢◊†◊ô◊í◊®◊ô◊ô◊ö",
          "name:yo": "Il·∫πÃÄ·ªçba A·π£·ªçÃÄkan",
          "name:za": "Yinghgoz",
          "name:zh": "Ëã±ÂõΩ / Ëã±Âúã",
          "name:zu": "Umbuso Ohlangeneyo",
          "ref:gss": "K02000001",
          "boundary": "administrative",
          "currency": "GBP",
          "int_name": "United Kingdom",
          "name:ace": "Keurajeu√´n Inggr√©h",
          "name:ady": "–ë—Ä–∏—Ç–∞–Ω–∏–µ—à—Ö–æ –ü–∞—á—ä—ã—Ö—å—ã–≥—ä–æ",
          "name:als": "Vereinigtes K√∂nigreich",
          "name:ang": "GeƒÅned Cynerƒ´ce",
          "name:arc": "‹°‹†‹ü‹ò‹¨‹ê ‹°‹ö‹ù‹ï‹¨‹ê",
          "name:ary": "ŸÑŸÖŸÖŸÑŸÉÿ© ŸÑŸÖÿ™ÿ≠ÿØÿ©",
          "name:arz": "ÿßŸÑŸÖŸÖŸÑŸÉŸá ÿßŸÑŸÖÿ™ÿ≠ÿØŸá",
          "name:ast": "Reinu Xun√≠u",
          "name:avk": "Tanaragazaxo",
          "name:awa": "‡§Ø‡•Ç‡§®‡§æ‡§á‡§ü‡•á‡§° ‡§ï‡§ø‡§Ç‡§ó‡§°‡§Æ",
          "name:azb": "ÿ®€åÿ±ŸÑÿ¥ŸÖ€åÿ¥ ÿ¥ÿßŸáŸÑ€åŸÇ",
          "name:ban": "Britania Agung",
          "name:bar": "Vaeinigts Kinireich",
          "name:bcl": "Reyno Unido",
          "name:bjn": "Britania Raya",
          "name:bpy": "‡¶§‡¶ø‡¶≤‡¶™‡¶æ‡¶∞‡¶æ‡¶ú‡ßç‡¶Ø",
          "name:bug": "United Kingdom",
          "name:bxr": "–ù—ç–≥–¥—Å—ç–Ω –í–∞–Ω—Ç –£–ª—Å",
          "name:cdo": "ƒ¨ng-gu√≥k",
          "name:ceb": "Hiniusang Gingharian",
          "name:chr": "·é°·éµ·èè·éØ",
          "name:chy": "United Kingdom",
          "name:ckb": "ÿ¥ÿßŸÜÿ¥€åŸÜ€å €å€ï⁄©⁄Øÿ±ÿ™ŸàŸà",
          "name:crh": "B√ºy√ºk Britaniya",
          "name:csb": "Wi√¥lg√¥ Britanij√¥",
          "name:din": "Amatnhom M√§c≈ãaknhom",
          "name:diq": "Qraliya Yewbiyayiye",
          "name:dsb": "Wjelika Britaniska",
          "name:dty": "‡§∏‡§Ç‡§Ø‡•Å‡§ï‡•ç‡§§ ‡§Ö‡§ß‡§ø‡§∞‡§æ‡§ú‡•ç‡§Ø",
          "name:eml": "R√©gn Un√Æ",
          "name:ext": "R√©inu Uniu",
          "name:frp": "Roy√¥mo-Uni",
          "name:frr": "Feriind Kiningrik",
          "name:fur": "Ream Un√Æt",
          "name:gag": "B√º√ºk Britaniya",
          "name:gan": "Ëã±Âúã",
          "name:gcr": "Rw√©yonm-Ini",
          "name:gom": "‡§Ø‡•Å‡§®‡§æ‡§Ø‡§ü‡•á‡§° ‡§ï‡§ø‡§Ç‡§ó‡§°‡§Æ",
          "name:hak": "Y√Æn-koet",
          "name:haw": "Aupuni M≈ç ªƒ´ Hui P≈´  ªia",
          "name:hif": "United Kingdom",
          "name:hsb": "Zjednoƒáene kralestwo",
          "name:ilo": "Nagkaykaysa a Pagarian",
          "name:inh": "–í–µ–ª–∏–∫–æ–±—Ä–∏—Ç–∞–Ω–∏",
          "name:jam": "Yunaitid Kindom",
          "name:jbo": "ritygu'e",
          "name:kaa": "Ullƒ± Britaniya",
          "name:kab": "Legliz",
          "name:kbd": "–ë—Ä–∏—Ç–∞–Ω–∏—ç—à—Ö—É—ç",
          "name:koi": "–´–¥–∂—ã—Ç –ë—Ä–∏—Ç–º—É",
          "name:krc": "–£–ª–ª—É –ë—Ä–∏—Ç–∞–Ω–∏—è",
          "name:ksh": "Jru√übritannie",
          "name:lad": "Reyno Unido",
          "name:lez": "–ßI–µ—Ö–∏–±—Ä–∏—Ç–∞–Ω–∏—è",
          "name:lij": "Regno Un√Øo",
          "name:lmo": "Regn √ún√¨",
          "name:ltg": "Lelbrytaneja",
          "name:lzh": "Ëã±Âúã",
          "name:mad": "Britania Raya",
          "name:mai": "‡§∏‡§Ç‡§Ø‡•Å‡§ï‡•ç‡§§ ‡§Ö‡§ß‡§ø‡§∞‡§æ‡§ú‡•ç‡§Ø",
          "name:mdf": "–û—Ü—é –ë—Ä–∏—Ç–∞–Ω–∏—è",
          "name:mhr": "–£—à—ã–º–æ –ö–æ—Ä–æ–ª–µ–≤—Å—Ç–≤–µ",
          "name:min": "Baritania Rayo",
          "name:mni": "ÍØåÍØ®ÍØÖÍØ•ÍØ¢ÍØáÍØ¶ÍØó ÍØÄÍØ§ÍØ°ÍØóÍØù",
          "name:mrj": "–ö–æ–≥–æ –ë—Ä–∏—Ç–∞–Ω–∏",
          "name:mwl": "Reino Ounido",
          "name:myv": "–ò–Ω–µ–±—Ä–∏—Ç–∞–Ω–∏—è –ú–∞—Å—Ç–æ—Ä",
          "name:mzn": "ÿ®ÿ±€åÿ™ÿßŸÜ€åÿß",
          "name:nah": "Tlacetilƒ´lli HuƒìyitlahtohcƒÅy≈çtl",
          "name:nan": "Li√¢n-haÃçp √îng-kok",
          "name:nap": "Gran Vretagna",
          "name:nds": "Vereenigt K√∂nigriek vun Grootbritannien un Noordirland",
          "name:new": "‡§∏‡§Ç‡§Ø‡•Å‡§ï‡•ç‡§§ ‡§Ö‡§ß‡§ø‡§∞‡§æ‡§ú‡•ç‡§Ø",
          "name:nov": "Unionati Regia",
          "name:nqo": "ﬂ°ﬂäﬂ≤ﬂ¨ﬂõﬂäﬂ¨ﬂüﬂäﬂ´ ﬂòﬂçﬂ¨ﬂ£ﬂçﬂ≤",
          "name:nrm": "Rouoyaume Unni",
          "name:nso": "United Kingdom",
          "name:pag": "Reino Unido",
          "name:pam": "Pisanmetung a Ka-arian",
          "name:pap": "Reino Uni",
          "name:pcd": "Ro√©y√¥me-Uni",
          "name:pih": "Yunitid Kingdum",
          "name:pms": "Regn Un√¨",
          "name:pnb": "ÿ®ÿ±ÿ∑ÿßŸÜ€å€Å",
          "name:pnt": "ŒóŒΩœâŒºŒ≠ŒΩŒø ŒíŒ±œÉŒØŒªŒµŒπŒø",
          "name:rmy": "Phandlo Thagaripen la Bare Britaniyako thai le Nordutne Irlandesko",
          "name:rue": "–í–µ–ª–∏–∫–∞ –ë—Ä—ñ—Ç–∞–Ω—ñ—è",
          "name:sah": "–•–æ–ª–±–æh—É–∫—Ç–∞–∞—Ö –•–æ—Ä—É–æ–ª–ª—É–∫",
          "name:sat": "·±•·±Æ·±û·±Æ·±´ ·±´·±§·±•·±ö·±¢",
          "name:scn": "Regnu Unitu",
          "name:sco": "Unitit Kinrick",
          "name:shi": "Bri·π≠anya",
          "name:shn": "·Äô·Ä≠·Ä∞·ÄÑ·Ä∫·Ä∏·ÇÅ·Ä∞·Äô·Ä∫·Çà·Äê·ÄØ·Äô·Ä∫·ÇÅ·Ä±·ÇÉ·Å∂·Äô·Ä∫·Ä∏ ·Äï·Äõ·Ä≠·Äê·Ä∫·Çà·Äê·Äµ·Åº·Ä∫·Çá",
          "name:skr": "ÿ®ÿ±ÿ∑ÿßŸÜ€å€Å",
          "name:smn": "Ovt√¢stum kun√¢g√¢skodde",
          "name:sms": "√ïhtt√µ√µvv√¢m koon«•√µsk√• πdd",
          "name:srn": "Ingriskondre",
          "name:stq": "Fereeniged K√∂√∂nichriek fon Groot-Britannien un Noudirlound",
          "name:szl": "Wielg≈è Brytanij≈è",
          "name:tcy": "‡≤Ø‡≥Å‡≤®‡≥à‡≤ü‡≥Ü‡≤°‡≥ç ‡≤ï‡≤ø‡≤Ç‡≤ó‡≥ç‡≤°‡≤Æ‡≥ç",
          "name:tet": "Reinu Naklibur",
          "name:tok": "ma Juke",
          "name:tpi": "Yunaitet Kingdom",
          "name:trv": "United Kingdom",
          "name:tzl": "Regip√§ts Viensi√ßat",
          "name:udm": "–í–µ–ª–∏–∫–æ–±—Ä–∏—Ç–∞–Ω–∏—è",
          "name:vec": "Regno Un√¨o",
          "name:vep": "Sur' Britanii",
          "name:vls": "Ver√™nigd Keunienkryk",
          "name:vro": "√útiskuningriik",
          "name:war": "Reino Unido",
          "name:wuu": "Ëã±ÂõΩ",
          "name:xal": "–ò–∫ –ë—Ä–∏—Ç–∏—à–∏–Ω –±–æ–ª–Ω –ê—Ä –ì”ô”ô–ª–≥“Ø–¥–∏–Ω –ù–∏–∏—Ü”ô—Ç”ô –ù—É—Ç–≥",
          "name:xmf": "·Éí·Éù·Éê·É†·Éó·Éù·Éò·Éê·Éú·Éê·É§·Éò·Éö·Éò ·Éù·Éõ·Éê·É§·Éî",
          "name:yue": "Ëã±Âúã",
          "name:zea": "Vere√™nigd Konienkriek",
          "timezone": "Europe/London",
          "way_area": "56.5151",
          "wikidata": "Q145",
          "ISO3166-1": "GB",
          "wikipedia": "en:United Kingdom",
          "short_name": "UK",
          "admin_level": "2",
          "alt_name:be": "–í—è–ª—ñ–∫–∞—è –ë—Ä—ã—Ç–∞–Ω—ñ—è;–ë—Ä—ã—Ç–∞–Ω—ñ—è;–ó–ª—É—á–∞–Ω–∞–µ –ö–∞—Ä–∞–ª–µ—û—Å—Ç–≤–∞",
          "alt_name:eo": "Britio;Britujo",
          "name:nds-nl": "Verienigd Keuninkriek",
          "native_name": "United Kingdom of Great Britain and Northern Ireland",
          "driving_side": "left",
          "name:bat-smg": "Jongtƒónƒó Karalƒ´stƒó",
          "name:cbk-zam": "Reinos Unidos de Gran Britania y Norte Irelandia",
          "name:roa-rup": "Britania Mari",
          "name:zh-Hans": "Ëã±ÂõΩ",
          "name:zh-Hant": "Ëã±Âúã",
          "name:roa-tara": "Regne Aun√¨te",
          "official_name": "United Kingdom of Great Britain and Northern Ireland",
          "short_name:el": "ŒóŒí",
          "short_name:fr": "RU",
          "short_name:nl": "VK",
          "short_name:vo": "Brit√§n",
          "short_name:wa": "RU",
          "name:be-tarask": "–í—è–ª—ñ–∫–∞–±—Ä—ã—Ç–∞–Ω—ñ—è",
          "native_name:da": "Det Forenede Kongerige Storbritannien og Nordirland",
          "native_name:es": "Reino Unido de Gran Breta√±a e Irlanda del Norte",
          "native_name:vi": "V∆∞∆°ng qu·ªëc Li√™n hi·ªáp Anh v√† B·∫Øc Ireland",
          "short_name:pcd": "RU",
          "short_name:vls": "VK",
          "ISO3166-1:alpha2": "GB",
          "ISO3166-1:alpha3": "GBR",
          "official_name:be": "–ó–ª—É—á–∞–Ω–∞–µ –ö–∞—Ä–∞–ª–µ—û—Å—Ç–≤–∞ –í—è–ª—ñ–∫–∞–±—Ä—ã—Ç–∞–Ω—ñ—ñ —ñ –ü–∞—û–Ω–æ—á–Ω–∞–π –Ü—Ä–ª–∞–Ω–¥—ã—ñ",
          "official_name:ca": "Regne Unit de Gran Bretanya i Irlanda del Nord",
          "official_name:cs": "Spojen√© kr√°lovstv√≠ Velk√© Brit√°nie a Severn√≠ho Irska",
          "official_name:de": "Vereinigtes K√∂nigreich Gro√übritannien und Nordirland",
          "official_name:el": "ŒóŒΩœâŒºŒ≠ŒΩŒø ŒíŒ±œÉŒØŒªŒµŒπŒø œÑŒ∑œÇ ŒúŒµŒ≥Œ¨ŒªŒ∑œÇ ŒíœÅŒµœÑŒ±ŒΩŒØŒ±œÇ Œ∫Œ±Œπ œÑŒ∑œÇ ŒíœåœÅŒµŒπŒ±œÇ ŒôœÅŒªŒ±ŒΩŒ¥ŒØŒ±œÇ",
          "official_name:en": "United Kingdom of Great Britain and Northern Ireland",
          "official_name:eo": "Unuiƒùinta Reƒùlando de Granda Britio kaj Nord-Irlando",
          "official_name:fr": "Royaume-Uni de Grande-Bretagne et d'Irlande du Nord",
          "official_name:hr": "Ujedinjeno Kraljevstvo Velike Britanije i Sjeverne Irske",
          "official_name:is": "Sameina√∞a konungsveldi St√≥ra-Bretlands og Nor√∞ur-√çrlands",
          "official_name:it": "Regno Unito di Gran Bretagna e Irlanda del Nord",
          "official_name:la": "Coniunctum Britanniae Maioris et Hiberniae Septentrionalis Regnum",
          "official_name:nl": "Verenigd Koninkrijk van Groot-Brittanni√´ en Noord-Ierland",
          "official_name:pl": "Zjednoczone Kr√≥lestwo Wielkiej Brytanii i Irlandii P√≥≈Çnocnej",
          "official_name:ru": "–°–æ–µ–¥–∏–Ω—ë–Ω–Ω–æ–µ –∫–æ—Ä–æ–ª–µ–≤—Å—Ç–≤–æ –í–µ–ª–∏–∫–æ–±—Ä–∏—Ç–∞–Ω–∏–∏ –∏ –°–µ–≤–µ—Ä–Ω–æ–π –ò—Ä–ª–∞–Ω–¥–∏–∏",
          "official_name:sk": "Spojen√© kr√°ƒæovstvo Veƒækej Brit√°nie a Severn√©ho √çrska",
          "official_name:sl": "Zdru≈æeno kraljestvo Velike Britanije in Severne Irske",
          "official_name:wa": "Ro√©y√¥me-uni √©d Grande-Bretagne pi d'Irlinde-du-Nord",
          "official_name:zh": "Â§ß‰∏çÂàóÈ°õÊö®ÂåóÊÑõÁàæËò≠ËÅØÂêàÁéãÂúã/Â§ß‰∏çÂàóÈ¢†ÂèäÂåóÁà±Â∞îÂÖ∞ËÅîÂêàÁéãÂõΩ",
          "ISO3166-1:numeric": "826",
          "official_name:din": "Amatnhom M√§c≈ãaknhom n√´ Britain D√Øt ku Parut Ireland",
          "official_name:pcd": "Rwey√•me-Uni di Grande Burtaegne et d' Irlande do N√¥r",
          "official_name:vls": "Ver√™nigd Keunienkryk van Gr√¥ot-Brittanni√´ en N√¥ord-Ierland",
          "official_name:zh-Hans": "Â§ß‰∏çÂàóÈ¢†ÂèäÂåóÁà±Â∞îÂÖ∞ËÅîÂêàÁéãÂõΩ",
          "official_name:zh-Hant": "Â§ß‰∏çÂàóÈ°õÊö®ÂåóÊÑõÁàæËò≠ËÅØÂêàÁéãÂúã"
        }
      },
      "geometry": {
        "type": "MultiPolygon",
        "coordinates": [
          [
            [
              [
                -6,
                53.962468218418486
              ],
              [
                -5.9510735,
                53.931586
              ],
              [
                -5.826004,
                53.8701676
              ],
              [
                -5.8161107,
                53.879
              ],
              [
                -5.7946709,
                53.889
              ],
              [
                -5.7753741,
                53.896
              ],
              [
                -5.7678483,
                53.899
              ],
              [
                -5.7584414,
                53.903
              ],
              [
                -5.7454889,
                53.909
              ],
              [
                -5.7318583,
                53.916
              ],
              [
                -5.7212496,
                53.922
              ],
              [
                -5.7099512,
                53.929
              ],
              [
                -5.6996723,
                53.936
              ],
              [
                -5.6890267,
                53.944
              ],
              [
                -5.6771382,
                53.95
              ],
              [
                -5.6678273,
                53.955
              ],
              [
                -5.6591678,
                53.96
              ],
              [
                -5.6495425,
                53.966
              ],
              [
                -5.6392545,
                53.973
              ],
              [
                -5.6285737,
                53.981
              ],
              [
                -5.6174297,
                53.99
              ],
              [
                -5.6095009,
                53.997
              ],
              [
                -5.606419262500001,
                54
              ],
              [
                -6,
                54
              ],
              [
                -6,
                53.962468218418486
              ]
            ]
          ],
          [
            [
              [
                -5.0344043,
                53.309
              ],
              [
                -5.0343305,
                53.303
              ],
              [
                -5.0339554,
                53.297
              ],
              [
                -5.0332779,
                53.291
              ],
              [
                -5.0322965,
                53.285
              ],
              [
                -5.031472,
                53.281
              ],
              [
                -5.0299776,
                53.275
              ],
              [
                -5.0288079,
                53.271
              ],
              [
                -5.0267893,
                53.265
              ],
              [
                -5.0252651,
                53.261
              ],
              [
                -5.0227062,
                53.255
              ],
              [
                -5.0208152,
                53.251
              ],
              [
                -5.0165772,
                53.243
              ],
              [
                -5.0110564,
                53.234
              ],
              [
                -5.0047696,
                53.225
              ],
              [
                -5.0014772,
                53.219
              ],
              [
                -5,
                53.216570261527494
              ],
              [
                -5,
                53.395686032645884
              ],
              [
                -5.0005849,
                53.395
              ],
              [
                -5.0052832,
                53.389
              ],
              [
                -5.0088935,
                53.384
              ],
              [
                -5.012237,
                53.379
              ],
              [
                -5.0153222,
                53.374
              ],
              [
                -5.0186942,
                53.368
              ],
              [
                -5.0212367,
                53.363
              ],
              [
                -5.0239754,
                53.357
              ],
              [
                -5.0256161,
                53.353
              ],
              [
                -5.0278049,
                53.347
              ],
              [
                -5.0290855,
                53.343
              ],
              [
                -5.0307429,
                53.337
              ],
              [
                -5.0320881,
                53.331
              ],
              [
                -5.0331252,
                53.325
              ],
              [
                -5.0338572,
                53.319
              ],
              [
                -5.0341766,
                53.315
              ],
              [
                -5.0344043,
                53.309
              ]
            ]
          ]
        ]
      }
    },
    {
      "type": "Feature",
      "properties": {
        "osm_id": -62273,
        "boundary": "administrative",
        "admin_level": 2,
        "parents": null,
        "name": "Ireland",
        "local_name": "√âire / Ireland",
        "name_en": "Ireland",
        "all_tags": {
          "flag": "http://upload.wikimedia.org/wikipedia/commons/4/45/Flag_of_Ireland.svg",
          "name": "√âire / Ireland",
          "name:ab": "–ò—Ä–ª–∞–Ω–¥–∏–∞",
          "name:af": "Ierland",
          "name:ak": "Aereland",
          "name:am": "·ä†·ã®·à≠·àã·äï·ãµ",
          "name:an": "Irlanda",
          "name:ar": "ÿ£Ÿäÿ±ŸÑŸÜÿØÿß",
          "name:av": "–ò—Ä–ª–∞–Ω–¥–∏—è",
          "name:ay": "Irlandiya",
          "name:az": "ƒ∞rlandiya",
          "name:ba": "–ò—Ä–ª–∞–Ω–¥–∏—è",
          "name:be": "–Ü—Ä–ª–∞–Ω–¥—ã—è",
          "name:bg": "–ò—Ä–ª–∞–Ω–¥–∏—è",
          "name:bh": "‡§Ü‡§Ø‡§∞‡§≤‡•à‡§Ç‡§° ‡§∞‡§ø‡§™‡§¨‡•ç‡§≤‡§ø‡§ï",
          "name:bi": "Ireland",
          "name:bm": "Irilandi",
          "name:bn": "‡¶Ü‡¶Ø‡¶º‡¶æ‡¶∞‡¶≤‡ßç‡¶Ø‡¶æ‡¶®‡ßç‡¶°",
          "name:bo": "‡Ω®‡ºã‡Ω°‡Ω¢‡ºã‡Ω£‡Ωì‡Ωå‡ºç",
          "name:br": "Iwerzhon",
          "name:bs": "Irska",
          "name:ca": "Irlanda",
          "name:ce": "–ò—Ä–ª–∞–Ω–¥–∏",
          "name:ch": "Irlanda",
          "name:co": "Irlanda",
          "name:cs": "Irsko",
          "name:cu": "–Ñ–∏—Ä—å",
          "name:cv": "–ò—Ä–ª–∞–Ω–¥–∏ –†–µ—Å–ø—É–±–ª–∏–∫–∏",
          "name:cy": "Iwerddon",
          "name:da": "Irland",
          "name:de": "Irland",
          "name:dv": "ﬁáﬁ¶ﬁîﬁ¶ﬁçﬁ≠ﬁÇﬁ∞ﬁëﬁ™ﬁéﬁ¨ ﬁñﬁ™ﬁâﬁ∞ﬁÄﬁ´ﬁÉﬁ®ﬁáﬁ∞ﬁîﬁß",
          "name:dz": "‡Ω®‡Ω±‡ºã‡Ω°‡ºã‡Ω£‡Ω∫‡Ωì‡Ωå",
          "name:ee": "Ireland nutome",
          "name:el": "ŒôœÅŒªŒ±ŒΩŒ¥ŒØŒ±",
          "name:en": "Ireland",
          "name:eo": "Irlando",
          "name:es": "Irlanda",
          "name:et": "Iirimaa",
          "name:eu": "Irlanda",
          "name:fa": "ÿß€åÿ±ŸÑŸÜÿØ",
          "name:ff": "Irlannda",
          "name:fi": "Irlanti",
          "name:fo": "√çrland",
          "name:fr": "Irlande",
          "name:fy": "Ierl√¢n",
          "name:ga": "√âire",
          "name:gd": "√àirinn",
          "name:gl": "Irlanda",
          "name:gn": "Ilandia",
          "name:gu": "‡™Ü‡™Ø‡™∞‡´ç‡™≤‡´á‡™Ç‡™°",
          "name:gv": "Nerin",
          "name:ha": "Ayalan",
          "name:he": "◊ê◊ô◊®◊ú◊†◊ì",
          "name:hi": "‡§Ü‡§Ø‡§∞‡§≤‡•à‡§Ç‡§°",
          "name:hr": "Irska",
          "name:ht": "Ilann",
          "name:hu": "√çrorsz√°g",
          "name:hy": "‘ª’º’¨’°’∂’§’´’°",
          "name:ia": "Irlanda",
          "name:id": "Irlandia",
          "name:ie": "Irland",
          "name:ig": "Ireland",
          "name:io": "Irlando",
          "name:is": "√çrland",
          "name:it": "Irlanda",
          "name:ja": "„Ç¢„Ç§„É´„É©„É≥„Éâ",
          "name:jv": "Republik Irlandia",
          "name:ka": "·Éò·É†·Éö·Éê·Éú·Éì·Éò·Éê",
          "name:ki": "Ayalandi",
          "name:kk": "–ò—Ä–ª–∞–Ω–¥–∏—è",
          "name:kl": "Irlandi",
          "name:km": "·û¢·üÄ·ûö·û°·ûÑ·üã",
          "name:kn": "‡≤ê‡≤∞‡≥ç‡≤≤‡≥Ü‡≤Ç‡≤°‡≥ç",
          "name:ko": "ÏïÑÏùºÎûúÎìú",
          "name:ks": "ÿßŸé€åŸéÿ±ŸÑ€åŸÜŸõ⁄ë",
          "name:ku": "√érland",
          "name:kv": "–ò—Ä–ª–∞–Ω–¥–∏—è",
          "name:kw": "Repoblek Iwerdhon",
          "name:ky": "–ò—Ä–ª–∞–Ω–¥–∏—è",
          "name:la": "Hibernia",
          "name:lb": "Irland",
          "name:lg": "Ayalandi",
          "name:li": "Ierland",
          "name:ln": "Ireland…õ",
          "name:lo": "‡ªÑ‡∫≠‡ªÅ‡∫•‡∫ô",
          "name:lt": "Airija",
          "name:lv": "ƒ™rija",
          "name:mg": "Irlandy",
          "name:mi": "Airangi",
          "name:mk": "–ò—Ä—Å–∫–∞",
          "name:ml": "‡¥Ö‡¥Ø‡µº‡¥≤‡¥æ‡µª‡¥°‡µç",
          "name:mn": "–ò—Ä–ª–∞–Ω–¥",
          "name:mr": "‡§Ü‡§Ø‡§∞‡•ç‡§≤‡§Ç‡§°",
          "name:ms": "Ireland",
          "name:mt": "Irlanda",
          "name:my": "·Ä°·Ä≠·ÄØ·ÄÑ·Ä∫·Äö·Ä¨·Äú·Äî·Ä∫",
          "name:na": "Ripubrikit Airerand",
          "name:ne": "‡§Ü‡§á‡§∞‡§≤‡•ç‡§Ø‡§æ‡§£‡•ç‡§°",
          "name:nl": "Ierland",
          "name:nn": "Irland",
          "name:no": "Irland",
          "name:nv": "Bitsiigha º ≈Åich√≠√≠ º√≠ Bik√©yah",
          "name:oc": "Republica d'Irlanda",
          "name:om": "Aayerlaandi",
          "name:or": "‡¨Ü‡≠ü‡¨∞‡¨≤‡≠ç‡≠ü‡¨æ‡¨£‡≠ç‡¨°",
          "name:os": "–ò—Ä–ª–∞–Ω–¥–∏",
          "name:pa": "‡®Ü‡®á‡®∞‡®≤‡©à‡®Ç‡®° ‡®ó‡®£‡®∞‡®æ‡®ú",
          "name:pl": "Irlandia",
          "name:ps": "ÿØ ÿ¢Ÿäÿ±ŸÑ€êŸÜ⁄â ÿ¨ŸÖŸáŸàÿ±Ÿäÿ™",
          "name:pt": "Irlanda",
          "name:qu": "Ilanda",
          "name:rm": "Irlanda",
          "name:rn": "Irilandi",
          "name:ro": "Irlanda",
          "name:ru": "–ò—Ä–ª–∞–Ω–¥–∏—è",
          "name:rw": "Irilande",
          "name:sa": "‡§ê‡§∞‡•ç‡§≤‡•á‡§£‡•ç‡§°‡•ç ‡§ó‡§£‡§∞‡§æ‡§ú‡•ç‡§Ø‡§Æ‡•ç",
          "name:sc": "Irlanda",
          "name:sd": "ÿ¨ŸÖ⁄æŸàÿ±Ÿäÿß ÿ¢ÿ¶ÿ±ŸÑŸäŸÜ⁄ä",
          "name:se": "Irl√°nda",
          "name:sg": "Irl√¢nde",
          "name:sh": "Irska",
          "name:si": "‡∂Ö‡∂∫‡∂ª‡∑ä‡∂Ω‡∂±‡∑ä‡∂≠‡∂∫",
          "name:sk": "√çrsko",
          "name:sl": "Irska",
          "name:sm": "Ripapelika o Aialani",
          "name:sn": "Ireland",
          "name:so": "Ayrlaand",
          "name:sq": "Irland√´",
          "name:sr": "–ò—Ä—Å–∫–∞",
          "name:ss": "IYalendi",
          "name:sv": "Irland",
          "name:sw": "Ayalandi",
          "name:ta": "‡ÆÖ‡ÆØ‡Æ∞‡Øç‡Æ≤‡Ææ‡Æ®‡Øç‡Æ§‡ØÅ",
          "name:te": "‡∞ê‡∞∞‡±ç ‡∞≤‡∞æ‡∞Ç‡∞°‡±ç",
          "name:tg": "“∂—É–º“≥—É—Ä–∏–∏ –ò—Ä–ª–∞–Ω–¥–∏—è",
          "name:th": "‡∏™‡∏≤‡∏ò‡∏≤‡∏£‡∏ì‡∏£‡∏±‡∏ê‡πÑ‡∏≠‡∏£‡πå‡πÅ‡∏•‡∏ô‡∏î‡πå",
          "name:ti": "·ä†·ã®·à≠·àã·äï·ãµ",
          "name:tk": "Irlandi√Ωa",
          "name:tl": "Irlanda",
          "name:to": " ªAealani",
          "name:tr": "ƒ∞rlanda",
          "name:ts": "Ireland",
          "name:tt": "–ò—Ä–ª–∞–Ω–¥–∏—è",
          "name:uk": "–Ü—Ä–ª–∞–Ω–¥—ñ—è",
          "name:ur": "ÿ¢ÿ¶ÿ±ŸÑ€åŸÜ⁄à",
          "name:uz": "Irlandiya",
          "name:ve": "Ireland",
          "name:vi": "Ai-len",
          "name:vo": "Lirey√§n",
          "name:wa": "Irlande",
          "name:wo": "Irlaand",
          "name:yi": "◊ê◊ô◊®◊ú◊ê◊†◊ì",
          "name:yo": "Or√≠l·∫πÃÅ√®de Ailandi",
          "name:za": "Aiwjlanz Gunghozgoz",
          "name:zh": "Áà±Â∞îÂÖ∞ / ÊÑõÁàæËò≠",
          "name:zu": "i-Ireland",
          "alt_name": "Republic of Ireland",
          "boundary": "administrative",
          "currency": "EUR",
          "int_name": "Ireland",
          "name:ace": "Irlandia",
          "name:ady": "–ò—Ä–ª–∞–Ω–¥–∏–µ",
          "name:als": "Irland",
          "name:ang": "ƒ™rland Cynewƒ´se",
          "name:arc": "‹©‹ò‹õ‹¢‹ù‹ò‹¨‹ê ‹ï‹ê‹ù‹™‹†‹¢‹ï",
          "name:ary": "ÿ•ÿ±ŸÑÿßŸÜÿØÿß",
          "name:arz": "ÿ¨ŸÖŸáŸàÿ±Ÿäÿ© ÿßŸäÿ±ŸÑÿßŸÜÿØÿß",
          "name:ast": "Rep√∫blica d'Irlanda",
          "name:avk": "Eirea",
          "name:awa": "‡§Ü‡§Ø‡§∞‡§≤‡•à‡§Ç‡§° ‡§ó‡§£‡§∞‡§æ‡§ú‡•ç‡§Ø",
          "name:azb": "ÿß€åÿ±ŸÑŸÜÿØ",
          "name:ban": "Irlandia",
          "name:bar": "Irland",
          "name:bcl": "Irlandya",
          "name:bpy": "‡¶Ü‡¶Ø‡¶º‡¶æ‡¶∞‡¶≤‡ßç‡¶Ø‡¶æ‡¶®‡ßç‡¶°",
          "name:bug": "Irlandia",
          "name:bxr": "–ò—Ä–ª–∞–Ω–¥",
          "name:cdo": "√Åi-ƒ´-l√†ng",
          "name:ceb": "Irlanda",
          "name:chr": "·é†·é¢·é¥·èÇ·èó",
          "name:chy": "Ireland",
          "name:ckb": "ÿ¶€åÿ±ŸÑ€ïŸÜÿØ",
          "name:crh": "ƒ∞rlandiya",
          "name:csb": "Irland√´j√¥",
          "name:diq": "Cumhuriyet√™ ƒ∞rlanda",
          "name:dsb": "Irska",
          "name:dty": "‡§ó‡§£‡§§‡§®‡•ç‡§§‡•ç‡§∞ ‡§Ü‡§Ø‡§∞‡§≤‡•ç‡§Ø‡§æ‡§®‡•ç‡§°",
          "name:eml": "Irl√†nda",
          "name:ext": "Irlanda",
          "name:frp": "Irlande",
          "name:frr": "Irl√∂nj",
          "name:fur": "Irlande",
          "name:gag": "ƒ∞rlandiya",
          "name:gan": "ÊÑõÁàæËò≠",
          "name:gcr": "Irlann",
          "name:gom": "‡§Ü‡§Ø‡§∞‡•ç‡§≤‡§Ç‡§°",
          "name:got": "êå¥êåπêçÇêå∞êåªêå∞êåΩêå≥",
          "name:hak": "Ireland",
          "name:haw": "‚ÄòIlelani",
          "name:hif": "Republic of Ireland",
          "name:hsb": "Irska",
          "name:hyw": "‘ª÷Ä’¨’°’∂’ø’°",
          "name:ilo": "Republika iti Irl√°nda",
          "name:jam": "Ripoblik a Airilan",
          "name:jbo": "airland",
          "name:kaa": "ƒ∞rlandiya",
          "name:kab": "Lirlund",
          "name:kbd": "–ò—Ä–ª—ç–Ω–¥",
          "name:koi": "–ò—Ä–º—É",
          "name:krc": "–ò—Ä–ª–∞–Ω–¥–∏—è",
          "name:ksh": "Irrland",
          "name:lad": "Irlanda",
          "name:lez": "–ò—Ä–ª–∞–Ω–¥–∏—è",
          "name:lij": "√âire",
          "name:lld": "Irlanda",
          "name:lmo": "Irlanda",
          "name:ltg": "Eireja",
          "name:lzh": "ÊÑõÁàæËò≠ÂÖ±ÂíåÂúã",
          "name:mad": "Republik Irlandia",
          "name:mdf": "–ò—Ä–ª–∞–Ω–¥–∏—è –º–∞—Å—Ç–æ—Ä",
          "name:mhr": "–ò—Ä–ª–∞–Ω–¥–∏–π",
          "name:mrj": "–ò—Ä–ª–∞–Ω–¥–∏",
          "name:mwl": "Irlanda",
          "name:myv": "–ò—Ä–ª–∞–Ω–¥–∏—è –ú–∞—Å—Ç–æ—Ä",
          "name:mzn": "ÿß€åÿ±ŸÑŸÜÿØ ÿ¨ŸÖŸáŸàÿ±€å",
          "name:nah": "IrtlƒÅlpan",
          "name:nan": "√âire",
          "name:nds": "Irland",
          "name:new": "‡§ó‡§£‡§§‡§®‡•ç‡§§‡•ç‡§∞ ‡§Ü‡§Ø‡§∞‡§≤‡•ç‡§Ø‡§æ‡§®‡•ç‡§¶",
          "name:nov": "Republike de Irlande",
          "name:nrm": "R√©publyique d'Irlande",
          "name:nso": "Ireland",
          "name:pag": "Irlanda",
          "name:pam": "Irlanda",
          "name:pap": "Irlandia",
          "name:pcd": "Irlinde",
          "name:pdc": "Irland",
          "name:pih": "Repablik o' Airiland",
          "name:pms": "Irlanda",
          "name:pnb": "ŸÑŸà⁄©ÿ±ÿßÿ¨ ÿ¢ÿ¶ÿ±ŸÑ€åŸÜ⁄à",
          "name:pnt": "ŒôœÅŒªŒ±ŒΩŒ¥ŒØŒ±",
          "name:rmy": "Republika Irland",
          "name:rue": "–Ü—Ä—å—Å–∫–æ",
          "name:sah": "–ò—Ä–ª–∞–Ω–¥–∏—è –†–µ—Å–ø—É–±–ª–∏–∫–∞—Ç–∞",
          "name:sat": "·±ü·±≠·±ü·±®·±û·±Æ·±±·±∞ ·±®·±Æ·±±·±ü·±ú ·±ü·±π·±Ø·±±·±ü·±π·±õ",
          "name:scn": "Irlanda",
          "name:sco": "Republic o Ireland",
          "name:shn": "·Äô·Ä≠·Ä∞·ÄÑ·Ä∫·Ä∏·Ä¢·Å¢·ÇÜ·Çá·Äö·ÇÉ·Çá·Äú·ÇÖ·Åº·Ä∫·Çá",
          "name:smn": "Irland",
          "name:sms": "Irlantt",
          "name:srn": "Irikondre",
          "name:stq": "Irlound",
          "name:szl": "Irlandyj≈è",
          "name:tet": "Irlanda",
          "name:tok": "ma Alan",
          "name:tpi": "Ripablik bilong Aialan",
          "name:tzl": "Oira",
          "name:udm": "–ò—Ä–ª–∞–Ω–¥–∏—è",
          "name:vec": "Irlanda",
          "name:vep": "Irlandii",
          "name:vls": "Republiek Ierland",
          "name:vro": "Iirimaa",
          "name:war": "Republika han Irlanda",
          "name:wuu": "Áà±Â∞îÂÖ∞",
          "name:xal": "–ì”ô”ô–ª–≥“Ø–¥–∏–Ω –û—Ä–Ω",
          "name:xmf": "·Éò·É†·Éö·Éê·Éú·Éì·Éò·Éê",
          "name:yue": "ÊÑõÁàæËò≠ÂÖ±ÂíåÂúã",
          "name:zea": "Ierland",
          "timezone": "Europe/Dublin",
          "way_area": "14.613",
          "wikidata": "Q27",
          "ISO3166-1": "IE",
          "wikipedia": "en:Republic of Ireland",
          "population": "5123536",
          "ref:nuts:1": "IE0",
          "admin_level": "2",
          "alt_name:vi": "Ireland;√Åi Nhƒ© Lan",
          "description": "Republic of Ireland",
          "geonames:id": "2963597",
          "is_in:ocean": "Atlantic",
          "name:nds-nl": "Ierlaand",
          "capital_city": "Dublin",
          "driving_side": "left",
          "name:bat-smg": "Airƒójƒó",
          "name:roa-rup": "Irlanda",
          "name:zh-Hans": "Áà±Â∞îÂÖ∞",
          "name:zh-Hant": "ÊÑõÁàæËò≠",
          "name:roa-tara": "Irlanne",
          "official_name": "√âire",
          "name:be-tarask": "–Ü—Ä–ª—è–Ω–¥—ã—è",
          "name:zh_pinyin": "√Äiƒõrl√°n",
          "name:zh-min-nan": "√Äi-n√≠-l√¢n",
          "population:date": "2022",
          "ISO3166-1:alpha2": "IE",
          "ISO3166-1:alpha3": "IRL",
          "default_language": "en",
          "official_name:cs": "Irsk√° republika",
          "official_name:en": "Ireland",
          "official_name:eo": "Respubliko de Irlando",
          "official_name:fi": "Irlannin tasavalta",
          "official_name:ga": "√âire",
          "official_name:io": "Republiko di Irlando",
          "official_name:la": "Hibernia",
          "official_name:pt": "Rep√∫blica da Irlanda",
          "ISO3166-1:numeric": "372",
          "country_code_fips": "EI"
        }
      },
      "geometry": {
        "type": "Polygon",
        "coordinates": [
          [
            [
              -6,
              53
            ],
            [
              -5.670591375,
              53
            ],
            [
              -5.672074,
              53.005
            ],
            [
              -5.6749699,
              53.013
            ],
            [
              -5.6784456,
              53.021
            ],
            [
              -5.6814444,
              53.027
            ],
            [
              -5.6859841,
              53.035
            ],
            [
              -5.6911682,
              53.043
            ],
            [
              -5.6970303,
              53.051
            ],
            [
              -5.7018961,
              53.057
            ],
            [
              -5.7012608,
              53.067
            ],
            [
              -5.7011877,
              53.073
            ],
            [
              -5.7014142,
              53.079
            ],
            [
              -5.7021277,
              53.087
            ],
            [
              -5.7028527,
              53.093
            ],
            [
              -5.7037829,
              53.099
            ],
            [
              -5.705041,
              53.111
            ],
            [
              -5.7059082,
              53.117
            ],
            [
              -5.7070423,
              53.123
            ],
            [
              -5.7084842,
              53.129
            ],
            [
              -5.7103832,
              53.141
            ],
            [
              -5.7126951,
              53.151
            ],
            [
              -5.7150664,
              53.159
            ],
            [
              -5.7179725,
              53.167
            ],
            [
              -5.720533,
              53.173
            ],
            [
              -5.7253268,
              53.183
            ],
            [
              -5.7285589,
              53.189
            ],
            [
              -5.7343906,
              53.199
            ],
            [
              -5.7396588,
              53.207
            ],
            [
              -5.7439778,
              53.213
            ],
            [
              -5.7448525,
              53.215
            ],
            [
              -5.7470282,
              53.223
            ],
            [
              -5.7489441,
              53.229
            ],
            [
              -5.7490192,
              53.231
            ],
            [
              -5.7468956,
              53.237
            ],
            [
              -5.7445575,
              53.245
            ],
            [
              -5.7431676,
              53.251
            ],
            [
              -5.741792,
              53.259
            ],
            [
              -5.7411151,
              53.265
            ],
            [
              -5.7406822,
              53.273
            ],
            [
              -5.7407089,
              53.279
            ],
            [
              -5.7412133,
              53.287
            ],
            [
              -5.7401744,
              53.289
            ],
            [
              -5.7363986,
              53.295
            ],
            [
              -5.7329827,
              53.301
            ],
            [
              -5.7308997,
              53.305
            ],
            [
              -5.7280593,
              53.311
            ],
            [
              -5.7238348,
              53.319
            ],
            [
              -5.7193038,
              53.329
            ],
            [
              -5.7155894,
              53.339
            ],
            [
              -5.7143475,
              53.343
            ],
            [
              -5.7127467,
              53.349
            ],
            [
              -5.7114564,
              53.355
            ],
            [
              -5.7104732,
              53.361
            ],
            [
              -5.7097271,
              53.367
            ],
            [
              -5.7092,
              53.373
            ],
            [
              -5.7089751,
              53.379
            ],
            [
              -5.7091449,
              53.387
            ],
            [
              -5.7086426,
              53.389
            ],
            [
              -5.7036153,
              53.394
            ],
            [
              -5.6989106,
              53.399
            ],
            [
              -5.6945135,
              53.404
            ],
            [
              -5.6904107,
              53.409
            ],
            [
              -5.6873324,
              53.413
            ],
            [
              -5.6830426,
              53.419
            ],
            [
              -5.6803942,
              53.423
            ],
            [
              -5.6767282,
              53.429
            ],
            [
              -5.6744833,
              53.433
            ],
            [
              -5.6714064,
              53.439
            ],
            [
              -5.6695445,
              53.443
            ],
            [
              -5.6670293,
              53.449
            ],
            [
              -5.6655344,
              53.453
            ],
            [
              -5.6635601,
              53.459
            ],
            [
              -5.6619024,
              53.465
            ],
            [
              -5.6605569,
              53.471
            ],
            [
              -5.6598314,
              53.475
            ],
            [
              -5.6589984,
              53.481
            ],
            [
              -5.6586123,
              53.485
            ],
            [
              -5.6582858,
              53.491
            ],
            [
              -5.658262,
              53.497
            ],
            [
              -5.658541,
              53.503
            ],
            [
              -5.6588955,
              53.507
            ],
            [
              -5.6596814,
              53.513
            ],
            [
              -5.6607743,
              53.519
            ],
            [
              -5.6616749,
              53.523
            ],
            [
              -5.6632869,
              53.529
            ],
            [
              -5.6645375,
              53.533
            ],
            [
              -5.6666817,
              53.539
            ],
            [
              -5.6682927,
              53.543
            ],
            [
              -5.6709872,
              53.549
            ],
            [
              -5.6729724,
              53.553
            ],
            [
              -5.6729034,
              53.555
            ],
            [
              -5.6714768,
              53.559
            ],
            [
              -5.6696039,
              53.565
            ],
            [
              -5.668531,
              53.569
            ],
            [
              -5.6671821,
              53.575
            ],
            [
              -5.665864,
              53.583
            ],
            [
              -5.6652324,
              53.589
            ],
            [
              -5.6649805,
              53.593
            ],
            [
              -5.6648554,
              53.599
            ],
            [
              -5.6649406,
              53.603
            ],
            [
              -5.6653215,
              53.609
            ],
            [
              -5.6657446,
              53.613
            ],
            [
              -5.6666347,
              53.619
            ],
            [
              -5.6673993,
              53.623
            ],
            [
              -5.6688057,
              53.629
            ],
            [
              -5.6699179,
              53.633
            ],
            [
              -5.671852,
              53.639
            ],
            [
              -5.67411,
              53.645
            ],
            [
              -5.676699,
              53.651
            ],
            [
              -5.6796269,
              53.657
            ],
            [
              -5.6829033,
              53.663
            ],
            [
              -5.6865392,
              53.669
            ],
            [
              -5.6905473,
              53.675
            ],
            [
              -5.6949424,
              53.681
            ],
            [
              -5.6997414,
              53.687
            ],
            [
              -5.704964,
              53.693
            ],
            [
              -5.7106334,
              53.699
            ],
            [
              -5.7157182,
              53.704
            ],
            [
              -5.7222792,
              53.71
            ],
            [
              -5.7281542,
              53.715
            ],
            [
              -5.7344254,
              53.72
            ],
            [
              -5.7411218,
              53.725
            ],
            [
              -5.7482769,
              53.73
            ],
            [
              -5.755931,
              53.735
            ],
            [
              -5.7641323,
              53.74
            ],
            [
              -5.7711265,
              53.744
            ],
            [
              -5.7785449,
              53.748
            ],
            [
              -5.7864313,
              53.752
            ],
            [
              -5.7948393,
              53.756
            ],
            [
              -5.8038352,
              53.76
            ],
            [
              -5.8135035,
              53.764
            ],
            [
              -5.8212606,
              53.767
            ],
            [
              -5.8383454,
              53.773
            ],
            [
              -5.8478473,
              53.776
            ],
            [
              -5.8581551,
              53.779
            ],
            [
              -5.8694569,
              53.782
            ],
            [
              -5.8776766,
              53.784
            ],
            [
              -5.8783765,
              53.786
            ],
            [
              -5.8780055,
              53.794
            ],
            [
              -5.8780829,
              53.8
            ],
            [
              -5.8783039,
              53.804
            ],
            [
              -5.8788904,
              53.81
            ],
            [
              -5.8797845,
              53.816
            ],
            [
              -5.8814595,
              53.824
            ],
            [
              -5.8830827,
              53.83
            ],
            [
              -5.8857454,
              53.838
            ],
            [
              -5.8881238,
              53.844
            ],
            [
              -5.8873699,
              53.845
            ],
            [
              -5.8797725,
              53.849
            ],
            [
              -5.8726106,
              53.853
            ],
            [
              -5.8524835,
              53.865
            ],
            [
              -5.8466211,
              53.867
            ],
            [
              -5.826004,
              53.8701676
            ],
            [
              -5.9510735,
              53.931586
            ],
            [
              -6,
              53.962468218418486
            ],
            [
              -6,
              53
            ]
          ]
        ]
      }
    },
    {
      "type": "Feature",
      "properties": {
        "osm_id": -62269,
        "boundary": "administrative",
        "admin_level": 2,
        "parents": null,
        "name": "Isle of Man",
        "local_name": "Ellan Vannin / Isle of Man",
        "name_en": "Isle of Man",
        "all_tags": {
          "flag": "http://upload.wikimedia.org/wikipedia/commons/b/bc/Flag_of_the_Isle_of_Man.svg",
          "name": "Ellan Vannin / Isle of Man",
          "name:af": "Eiland Man",
          "name:an": "Isla de Man",
          "name:ar": "ÿ¨ÿ≤Ÿäÿ±ÿ© ŸÖÿßŸÜ",
          "name:az": "Men adasƒ±",
          "name:be": "–í–æ—Å—Ç—Ä–∞—û –ú—ç–Ω",
          "name:bg": "–ú–∞–Ω",
          "name:bn": "‡¶Ü‡¶á‡¶≤ ‡¶Ö‡¶´ ‡¶Æ‡ßç‡¶Ø‡¶æ‡¶®",
          "name:br": "Manav",
          "name:bs": "Ostrvo Man",
          "name:ca": "Illa de Man",
          "name:cs": "Man",
          "name:cv": "–ú—ç–Ω —É—Ç—Ä–∞–≤ƒï",
          "name:cy": "Ynys Manaw",
          "name:da": "Isle of Man",
          "name:de": "Insel Man",
          "name:dv": "ﬁáﬁ¶ﬁáﬁ®ﬁíﬁ¶ﬁçﬁ∞ ﬁáﬁÆﬁäﬁ∞ ﬁâﬁ≠ﬁÇﬁ∞",
          "name:el": "ŒùŒÆœÉŒøœÇ œÑŒøœÖ ŒúŒ±ŒΩ",
          "name:en": "Isle of Man",
          "name:eo": "Manksinsulo",
          "name:es": "Isla de Man",
          "name:et": "Man",
          "name:eu": "Man",
          "name:fa": "ÿ¨ÿ≤€åÿ±Ÿá ŸÖŸÜ",
          "name:fi": "Mansaari",
          "name:fo": "Mann",
          "name:fr": "√éle de Man",
          "name:fy": "Man",
          "name:ga": "Oile√°n Mhanann",
          "name:gd": "Eilean Mhanainn",
          "name:gl": "Illa de Man",
          "name:gv": "Ellan Vannin",
          "name:he": "◊î◊ê◊ô ◊û◊ê◊ü",
          "name:hi": "‡§Ü‡§á‡§≤ ‡§ë‡§´‡§º ‡§Æ‡•à‡§®",
          "name:hr": "Otok Man",
          "name:hu": "Man-sziget",
          "name:hy": "’Ñ’•’∂ ’Ø’≤’¶’´",
          "name:ia": "Insula de Man",
          "name:id": "Pulau Man",
          "name:io": "Man-Insulo",
          "name:is": "M√∂n",
          "name:it": "Isola di Man",
          "name:ja": "„Éû„É≥Â≥∂",
          "name:jv": "Pulo Man",
          "name:ka": "·Éõ·Éî·Éú·Éò",
          "name:ko": "Îß® ÏÑ¨",
          "name:kw": "Ynys Manow",
          "name:la": "Monapia",
          "name:li": "Man",
          "name:lt": "Meno Sala",
          "name:lv": "Menas Sala",
          "name:mi": "Motu o Man",
          "name:mk": "–ú–∞–Ω",
          "name:ml": "‡¥ê‡µΩ ‡¥í‡¥´‡µç ‡¥Æ‡¥æ‡µª",
          "name:mr": "‡§Ü‡§à‡§≤ ‡§ë‡§´ ‡§Æ‡§æ‡§®",
          "name:ms": "Isle of Man",
          "name:nl": "Man",
          "name:nn": "Isle of Man",
          "name:no": "Man",
          "name:oc": "Illa de Man",
          "name:os": "–ú—ç–Ω",
          "name:pa": "‡®Æ‡©à‡®® ‡®ü‡®æ‡®™‡©Ç",
          "name:pl": "Wyspa Man",
          "name:pt": "Ilha de Man",
          "name:qu": "Man wat'a",
          "name:ro": "Insula Man",
          "name:ru": "–û—Å—Ç—Ä–æ–≤ –ú—ç–Ω",
          "name:rw": "Ikirwa cya Man",
          "name:sh": "Otok Man",
          "name:sk": "Ostrov Man",
          "name:sl": "Otok Man",
          "name:sq": "Ishulli i Njeriut",
          "name:sr": "–û—Å—Ç—Ä–≤–æ –ú–∞–Ω",
          "name:su": "Pulo Man",
          "name:sv": "Isle of Man",
          "name:sw": "Isle of Man",
          "name:ta": "‡ÆÆ‡Ææ‡Æ£‡Øç ‡Æ§‡ØÄ‡Æµ‡ØÅ",
          "name:th": "‡πÄ‡∏Å‡∏≤‡∏∞‡πÅ‡∏°‡∏ô",
          "name:tl": "Pulo ng Man",
          "name:tr": "Man Adasƒ±",
          "name:tt": "–ú—ç–Ω —É—Ç—Ä–∞–≤—ã",
          "name:uk": "–û—Å—Ç—Ä—ñ–≤ –ú–µ–Ω",
          "name:ur": "ÿ¢ÿ¶ŸÑ ÿ¢ŸÅ ŸÖ€åŸÜ",
          "name:vi": "ƒê·∫£o Man",
          "name:vo": "M√§ne√§n",
          "name:yo": "Er√©k√π·π£√π il·∫πÃÄ Man",
          "name:zh": "È©¨ÊÅ©Â≤õ / ÊõºÂ≥∂",
          "boundary": "administrative",
          "int_name": "Isle of Man",
          "name:ace": "Pulo Man",
          "name:ang": "Manƒ´eg",
          "name:arz": "ÿ¨ÿ≤Ÿäÿ±ÿ© ŸÖÿßŸÜ",
          "name:ast": "Islla de Man",
          "name:bar": "Insl vo Man",
          "name:bpy": "‡¶Ü‡¶á‡¶∏‡¶≤ ‡¶Ö‡¶´ ‡¶Æ‡ßç‡¶Ø‡¶æ‡¶®",
          "name:dsb": "Man",
          "name:ext": "Man",
          "name:frp": "Ila de Man",
          "name:frr": "Eilun Man",
          "name:hsb": "Man",
          "name:lij": "Izoa de Man",
          "name:lmo": "Isula de Man",
          "name:nan": "Mannin",
          "name:nds": "Isle of Man",
          "name:nov": "Isle de Man",
          "name:nrm": "√éle d√© Man",
          "name:pih": "Ailen o' Maan",
          "name:pnb": "ÿ¢ÿ¶ŸÑ ÿ¢ŸÅ ŸÖ€åŸÜ",
          "name:scn": "√åsula di Man",
          "name:sco": "Isle o Man",
          "name:tzl": "Vian",
          "name:vec": "√åxo≈Ça de Man",
          "name:war": "Isla han Man",
          "name:wuu": "È©¨ÊÅ©Â≤õ",
          "name:xal": "–ú—ç–Ω–∏–Ω –ê—Ä–ª",
          "name:yue": "È¶¨ÊÅ©Â≥∂",
          "name:zea": "Eiland Man",
          "timezone": "Europe/Isle_of_Man",
          "way_area": "0.620114",
          "wikidata": "Q9676",
          "ISO3166-1": "IM",
          "wikipedia": "en:Isle of Man",
          "population": "75049",
          "admin_level": "2",
          "alt_name:eo": "Manksio;Manksujo",
          "alt_name:vi": "ƒê·∫£o Mann",
          "name:nds-nl": "Man",
          "name:zh-Hans": "È©¨ÊÅ©Â≤õ",
          "name:zh-Hant": "ÊõºÂ≥∂",
          "official_name": "Isle of Man",
          "name:be-tarask": "–ú—ç–Ω",
          "ISO3166-1:alpha2": "IM",
          "ISO3166-1:alpha3": "IMN",
          "default_language": "en",
          "official_name:cs": "Ostrov Man",
          "ISO3166-1:numeric": "833"
        }
      },
      "geometry": {
        "type": "Polygon",
        "coordinates": [
          [
            [
              -5.1582831,
              54
            ],
            [
              -5.1568818,
              53.997
            ],
            [
              -5.153141,
              53.99
            ],
            [
              -5.1489129,
              53.983
            ],
            [
              -5.1400181,
              53.97
            ],
            [
              -5.1356712,
              53.964
            ],
            [
              -5.1300928,
              53.957
            ],
            [
              -5.1248549,
              53.951
            ],
            [
              -5.1191723,
              53.945
            ],
            [
              -5.1130188,
              53.939
            ],
            [
              -5.1063637,
              53.933
            ],
            [
              -5.0991708,
              53.927
            ],
            [
              -5.0913967,
              53.921
            ],
            [
              -5.084437,
              53.916
            ],
            [
              -5.0754535,
              53.91
            ],
            [
              -5.0673889,
              53.905
            ],
            [
              -5.0587409,
              53.9
            ],
            [
              -5.0494423,
              53.895
            ],
            [
              -5.0394088,
              53.89
            ],
            [
              -5.0307812,
              53.886
            ],
            [
              -5.021544,
              53.882
            ],
            [
              -5.0116068,
              53.878
            ],
            [
              -5.0008516,
              53.874
            ],
            [
              -5,
              53.873706257042336
            ],
            [
              -5,
              54
            ],
            [
              -5.1582831,
              54
            ]
          ]
        ]
      }
    }
  ]
}