{
  "type": "FeatureCollection",
  "features": [
    {
      "type": "Feature",
      "properties": {
        "osm_id": -571802,
        "boundary": "administrative",
        "admin_level": 2,
        "parents": null,
        "name": "Federated States of Micronesia",
        "local_name": "Micronesia",
        "name_en": "Federated States of Micronesia",
        "all_tags": {
          "flag": "http://upload.wikimedia.org/wikipedia/commons/e/e4/Flag_of_the_Federated_States_of_Micronesia.svg",
          "name": "Micronesia",
          "name:af": "Gefedereerde State van Mikronesië",
          "name:am": "የማይክሮኔዥያ ተባባሪ ክፍላገሮች",
          "name:an": "Estaus Federaus de Micronesia",
          "name:ar": "ميكرونيسيا",
          "name:az": "Mikroneziya Federativ Ştatları",
          "name:ba": "Микронезия Федератив Штаттары",
          "name:be": "Федэратыўныя Штаты Мікранезіі",
          "name:bg": "Микронезия",
          "name:bi": "Mikronesia",
          "name:bn": "মাইক্রোনেশিয়া যুক্তরাজ্য",
          "name:bo": "མའི་ཀོ་རོ་ནེ་ཤི་ཡ།",
          "name:br": "Mikronezia",
          "name:bs": "Savezne Države Mikronezije",
          "name:ca": "Estats Federats de Micronèsia",
          "name:ce": "Микронезин Федеративни штаташ",
          "name:cs": "Mikronésie",
          "name:cv": "Микронезин Федеративлă Штачĕсем",
          "name:cy": "Taleithiau Ffederal Micronesia",
          "name:da": "Mikronesien",
          "name:de": "Föderierte Staaten von Mikronesien",
          "name:dv": "މައިކްރޮނޭޝިއާ",
          "name:el": "Ομόσπονδες Πολιτείες της Μικρονησίας",
          "name:en": "Federated States of Micronesia",
          "name:eo": "Mikronezio",
          "name:es": "Estados Federados de Micronesia",
          "name:et": "Mikroneesia Liiduriigid",
          "name:eu": "Mikronesiako Estatu Federatuak",
          "name:fa": "ایالات فدرال میکرونزی",
          "name:fi": "Mikronesia",
          "name:fo": "Mikronesiasamveldið",
          "name:fr": "États fédérés de Micronésie",
          "name:fy": "Mikroneezje",
          "name:ga": "Stáit Chónaidhme na Micrinéise",
          "name:gd": "Na Meanbh Eileanan",
          "name:gl": "Estados Federados de Micronesia",
          "name:gn": "Mikyonésia Retãvore Ñembyatypyrekuéra",
          "name:gv": "Steatyn Conastit y Vynneeys",
          "name:ha": "Mikroneziya",
          "name:he": "מיקרונזיה",
          "name:hi": "संघीकृत राज्य माइक्रोनेशिया",
          "name:hr": "Mikronezija",
          "name:ht": "Mikwonezi",
          "name:hu": "Mikronéziai Szövetségi Államok",
          "name:hy": "Միկրոնեզիայի Դաշնային Նահանգներ",
          "name:ia": "Micronesia",
          "name:id": "Federasi Mikronesia",
          "name:ie": "Micronesia",
          "name:io": "Mikronezia",
          "name:is": "Míkrónesía",
          "name:it": "Stati Federati di Micronesia",
          "name:ja": "ミクロネシア連邦",
          "name:jv": "Pèdherasi Mikronésia",
          "name:ka": "მიკრონეზიის ფედერაციული შტატები",
          "name:kk": "Микронезия Федерациялық Штаттары",
          "name:kn": "ಮೈಕ್ರೊನೇಷ್ಯದ ಸಂಯುಕ್ತ ರಾಜ್ಯಗಳು",
          "name:ko": "미크로네시아 연방",
          "name:ku": "Dewletên Federal ên Mîkronezyayê",
          "name:kw": "Mikronesi",
          "name:ky": "Микронезия Федеративдик Штаттары",
          "name:la": "Civitates Foederatae Micronesiae",
          "name:lb": "Federéiert Staate vu Mikronesien",
          "name:li": "Federaol Staote vaan Micronesië",
          "name:lt": "Mikronezijos Federacinės Valstijos",
          "name:lv": "Mikronēzija",
          "name:mg": "Mikrônezia",
          "name:mk": "Сојузни Држави на Микронезија",
          "name:ml": "മൈക്രോനേഷ്യ",
          "name:mn": "Микронезийн Холбооны Улс",
          "name:mr": "मायक्रोनेशिया",
          "name:ms": "Persekutuan Mikronesia",
          "name:mt": "Stati Federati tal-Mikroneżja",
          "name:my": "မိုက်ခရိုနီးရှားနိုင်ငံ",
          "name:na": "Eben Oning",
          "name:nl": "Micronesia",
          "name:nn": "Mikronesiaføderasjonen",
          "name:no": "Mikronesiaføderasjonen",
          "name:nv": "Eʼeʼaahjí Tónteel Bikáaʼdi Kéyah Ałhidadiidzooígíí",
          "name:oc": "Estats Federats de Micronesia",
          "name:or": "ମାଇକ୍ରୋନେସିଆ",
          "name:os": "Микронезийы Федеративон Штаттæ",
          "name:pa": "ਮਾਈਕ੍ਰੋਨੇਸ਼ੀਆ ਦੇ ਸੰਘੀ ਰਾਜ",
          "name:pl": "Mikronezja",
          "name:ps": "د میکرونزي فدرال ټاپوګان",
          "name:pt": "Estados Federados da Micronésia",
          "name:qu": "Mikrunisya",
          "name:ro": "Statele Federate ale Microneziei",
          "name:ru": "Федеративные Штаты Микронезии",
          "name:rw": "Mikoronesiya",
          "name:sc": "Istados Federados de Micronèsia",
          "name:sd": "مائڪرونيشيا جون فيڊريٽيڊ اسٽيٽس",
          "name:se": "Mikronesia",
          "name:sh": "Federalne Države Mikronezije",
          "name:si": "මයික්‍රොනීසියා ගිවිසුම් ජනපද",
          "name:sk": "Mikronézia",
          "name:sl": "Mikronezija",
          "name:sm": "Feterisitete o Micronisia",
          "name:sn": "Federated States of Micronesia",
          "name:sq": "Federata Mikroneziane",
          "name:sr": "Савезне Државе Микронезије",
          "name:su": "Féderasi Mikronésia",
          "name:sv": "Mikronesiens federerade stater",
          "name:sw": "Shirikisho la Mikronesia",
          "name:ta": "மைக்குரோனீசியக் கூட்டு நாடுகள்",
          "name:tg": "Микронезия",
          "name:th": "ประเทศไมโครนีเชีย",
          "name:tl": "Micronesia",
          "name:tr": "Mikronezya Federal Devletleri",
          "name:tt": "Микронезия Федератив Штатлары",
          "name:ty": "Mitoronetia",
          "name:ug": "مىكرونېزىيە فېدېراتسىيىسى",
          "name:uk": "Федеративні Штати Мікронезії",
          "name:ur": "ریاستہائے وفاقیہ مائکرونیشیا",
          "name:uz": "Mikroneziya Federativ Shtatlari",
          "name:vi": "Liên bang Micronesia",
          "name:vo": "Smala-Seanuäns",
          "name:wo": "Réew yu Bennoo yu Mikronesi",
          "name:yo": "Àwọn Ìpínlẹ̀ Àṣepapọ̀ ilẹ̀ Mikronésíà",
          "name:za": "Micronesia Lienzbangh",
          "name:zh": "密克罗尼西亚 / 密克羅尼西亞",
          "boundary": "administrative",
          "name:ace": "Federasi Mikronesia",
          "name:ary": "ميكرونيزيا",
          "name:arz": "مايكرونيزيا",
          "name:ast": "Estaos Federaos de Micronesia",
          "name:avk": "Mikronesia Galda",
          "name:ban": "Negara Féderasi Mikronésia",
          "name:bpy": "মাইক্রোনেশিয়া তিলপারাষ্ট্র",
          "name:ceb": "Pederadong Estados sa Micronesia",
          "name:chr": "ᎠᏰᏟᏧᎾᎵᎪᎯᎾᎿᎹᎢᏉᏂᏏᏯ",
          "name:chy": "Micronesia",
          "name:ckb": "ویلایەتە فیدراڵییەکانی مایکرۆنیزیا",
          "name:crh": "Mikroneziya",
          "name:ext": "Estaus Federaus de Micronésia",
          "name:frp": "Micronèsie",
          "name:frr": "Tupslööden Stooten faan Mikroneesien",
          "name:fur": "Stâts Federâts di Micronesie",
          "name:gag": "Mikroneziya",
          "name:gom": "मायक्रोनेशियाची संघीय राज्ये",
          "name:hak": "Micronesia Lièn-pâng",
          "name:hif": "Federated States of Micronesia",
          "name:hsb": "Mikroneziska",
          "name:ilo": "Pederado nga Es-estado ti Mikronesia",
          "name:jam": "Fedarietid Stiet a Maikroniija",
          "name:jbo": "mikronesias",
          "name:lfn": "Statos Federada de Micronesia",
          "name:lij": "Stâti Federæ da Micronesia",
          "name:lmo": "Statt Federaa de Micronesia",
          "name:mzn": "ایالات فدرال میکرونزی",
          "name:nan": "Micronesia",
          "name:nds": "Mikronesien",
          "name:new": "संघीय गनतन्त्र माईक्रोनेसिया",
          "name:pam": "Federated States of Micronesia",
          "name:pap": "Mikronesia",
          "name:sah": "Микронезия Федератив Штаттара",
          "name:scn": "Stati Fidirati di Micronesia",
          "name:sco": "Federatit States o Micronesie",
          "name:shn": "မိူင်းႁူမ်ႈတုမ် မၢႆႇၶရူဝ်ႇၼေးသျႃး",
          "name:smn": "Mikronesia",
          "name:sms": "Mikronesia",
          "name:szl": "Mikrōnezyjŏ",
          "name:tpi": "Ol Pedereted Stet bilong Maikronisia",
          "name:trv": "Micronesia",
          "name:udm": "Микронезия",
          "name:vec": "Stati Federai de Micronezia",
          "name:vep": "Federativižed Mikronezijan Valdkundad",
          "name:war": "Micronesia",
          "name:wuu": "密克羅尼西亞聯邦",
          "name:xal": "Микронезин Ниицәтә Орн Нутгуд",
          "name:zea": "Micronesia",
          "way_area": "8.34586",
          "wikidata": "Q702",
          "ISO3166-1": "FM",
          "wikipedia": "en:Federated States of Micronesia",
          "admin_level": "2",
          "driving_side": "right",
          "name:zh-Hans": "密克罗尼西亚",
          "name:zh-Hant": "密克羅尼西亞",
          "official_name": "Federated States of Micronesia",
          "ISO3166-1:alpha2": "FM",
          "ISO3166-1:alpha3": "FSM",
          "default_language": "en",
          "official_name:ar": "ولايات ميكرونيسيا المتحدة",
          "official_name:cs": "Federativní státy Mikronésie",
          "official_name:en": "Federated States of Micronesia",
          "official_name:eo": "Federaciaj Ŝtatoj de Mikronezio;Federacio de Mikronezio",
          "official_name:es": "Estados Federados de Micronesia",
          "official_name:fr": "États fédérés de Micronésie",
          "official_name:pl": "Sfederowane Stany Mikronezji",
          "official_name:ru": "Федеративные Штаты Микронезии",
          "official_name:sk": "Mikronézske federatívne štáty",
          "official_name:sr": "Федералне Државе Микронезије",
          "official_name:zh": "密克罗尼西亚联邦 / 密克羅尼西亞聯邦",
          "ISO3166-1:numeric": "583",
          "official_name:zh-Hans": "密克罗尼西亚联邦",
          "official_name:zh-Hant": "密克羅尼西亞聯邦"
        }
      },
      "geometry": {
        "type": "MultiPolygon",
        "coordinates": [
          [
            [
              [
                144,
                7.160841550925928
              ],
              [
                144.0032833,
                7.1624528
              ],
              [
                144.01375,
                7.1683917
              ],
              [
                144.0238389,
                7.1749417
              ],
              [
                144.0335222,
                7.1820833
              ],
              [
                144.0427583,
                7.1897889
              ],
              [
                144.0503583,
                7.19675
              ],
              [
                144.0575917,
                7.2040889
              ],
              [
                144.0643139,
                7.2114611
              ],
              [
                144.0706639,
                7.2191528
              ],
              [
                144.0766222,
                7.2271528
              ],
              [
                144.082175,
                7.2354361
              ],
              [
                144.0873111,
                7.2439861
              ],
              [
                144.0907833,
                7.2503
              ],
              [
                144.0940278,
                7.2567333
              ],
              [
                144.0985667,
                7.2666389
              ],
              [
                144.1025611,
                7.2767778
              ],
              [
                144.1053,
                7.2844278
              ],
              [
                144.1077306,
                7.2921833
              ],
              [
                144.1125833,
                7.3097611
              ],
              [
                144.1147556,
                7.3198278
              ],
              [
                144.1164111,
                7.3299917
              ],
              [
                144.1175417,
                7.3402278
              ],
              [
                144.1181472,
                7.3505083
              ],
              [
                144.1182222,
                7.3608056
              ],
              [
                144.1180222,
                7.3680722
              ],
              [
                144.1175556,
                7.3753278
              ],
              [
                144.116425,
                7.3865583
              ],
              [
                144.1146639,
                7.3977083
              ],
              [
                144.1122778,
                7.4087444
              ],
              [
                144.1097139,
                7.4227694
              ],
              [
                144.1074389,
                7.4322083
              ],
              [
                144.1047083,
                7.441525
              ],
              [
                144.1015306,
                7.4507
              ],
              [
                144.0979806,
                7.4597556
              ],
              [
                144.094,
                7.4686306
              ],
              [
                144.0895917,
                7.4773
              ],
              [
                144.0847667,
                7.48575
              ],
              [
                144.0786167,
                7.4953278
              ],
              [
                144.0722917,
                7.5042
              ],
              [
                144.0654944,
                7.5127139
              ],
              [
                144.0582444,
                7.52085
              ],
              [
                144.0505639,
                7.5285806
              ],
              [
                144.042475,
                7.5358861
              ],
              [
                144.034,
                7.5427444
              ],
              [
                144.0251667,
                7.5491333
              ],
              [
                144.0151,
                7.5555778
              ],
              [
                144.0056222,
                7.5609944
              ],
              [
                144,
                7.563815957039647
              ],
              [
                144,
                7.160841550925928
              ]
            ]
          ],
          [
            [
              [
                144.2314278,
                7.2522583
              ],
              [
                144.2317167,
                7.2409333
              ],
              [
                144.2326444,
                7.2296444
              ],
              [
                144.2342083,
                7.2184222
              ],
              [
                144.2364,
                7.2073083
              ],
              [
                144.2392167,
                7.1963361
              ],
              [
                144.24265,
                7.1855389
              ],
              [
                144.2466833,
                7.1749528
              ],
              [
                144.2506917,
                7.1650694
              ],
              [
                144.253125,
                7.1594861
              ],
              [
                144.2583222,
                7.1486583
              ],
              [
                144.2641556,
                7.1381583
              ],
              [
                144.2706056,
                7.1280278
              ],
              [
                144.27765,
                7.1182972
              ],
              [
                144.2852639,
                7.1090056
              ],
              [
                144.2934194,
                7.1001861
              ],
              [
                144.3020861,
                7.0918667
              ],
              [
                144.3112361,
                7.0840806
              ],
              [
                144.3208333,
                7.0768528
              ],
              [
                144.3308472,
                7.0702111
              ],
              [
                144.3412389,
                7.0641778
              ],
              [
                144.3519722,
                7.058775
              ],
              [
                144.3630083,
                7.0540222
              ],
              [
                144.3743111,
                7.0499361
              ],
              [
                144.3858361,
                7.0465306
              ],
              [
                144.3975444,
                7.0438194
              ],
              [
                144.4048722,
                7.0424139
              ],
              [
                144.4122472,
                7.0412833
              ],
              [
                144.4208917,
                7.0402417
              ],
              [
                144.4312778,
                7.0394778
              ],
              [
                144.4431694,
                7.0381722
              ],
              [
                144.4551167,
                7.0375722
              ],
              [
                144.4643861,
                7.0374611
              ],
              [
                144.47365,
                7.0377778
              ],
              [
                144.4828917,
                7.0385194
              ],
              [
                144.49475,
                7.0400583
              ],
              [
                144.5064972,
                7.0422944
              ],
              [
                144.5180889,
                7.0452278
              ],
              [
                144.5294861,
                7.0488417
              ],
              [
                144.5406472,
                7.053125
              ],
              [
                144.5515361,
                7.0580639
              ],
              [
                144.5621111,
                7.0636417
              ],
              [
                144.5723389,
                7.0698361
              ],
              [
                144.5821778,
                7.076625
              ],
              [
                144.5910194,
                7.0834278
              ],
              [
                144.5994722,
                7.0907083
              ],
              [
                144.6075083,
                7.0984472
              ],
              [
                144.6151,
                7.1066194
              ],
              [
                144.6222306,
                7.1152
              ],
              [
                144.6288694,
                7.1241611
              ],
              [
                144.6350056,
                7.1334778
              ],
              [
                144.6406111,
                7.1431167
              ],
              [
                144.645675,
                7.1530528
              ],
              [
                144.6502139,
                7.1631972
              ],
              [
                144.6541833,
                7.1735778
              ],
              [
                144.657575,
                7.1841611
              ],
              [
                144.660375,
                7.1949139
              ],
              [
                144.662575,
                7.2058083
              ],
              [
                144.6641694,
                7.2168028
              ],
              [
                144.66515,
                7.2278722
              ],
              [
                144.6655194,
                7.2389778
              ],
              [
                144.6654389,
                7.2472278
              ],
              [
                144.6650194,
                7.2554667
              ],
              [
                144.6642611,
                7.2636833
              ],
              [
                144.6627778,
                7.2746278
              ],
              [
                144.6606972,
                7.2854778
              ],
              [
                144.6580222,
                7.2961944
              ],
              [
                144.6547583,
                7.3067472
              ],
              [
                144.6509222,
                7.3171083
              ],
              [
                144.6465194,
                7.3272417
              ],
              [
                144.6415667,
                7.3371167
              ],
              [
                144.6372972,
                7.3448389
              ],
              [
                144.6326444,
                7.3538528
              ],
              [
                144.6274583,
                7.3629528
              ],
              [
                144.6218028,
                7.3717722
              ],
              [
                144.6156917,
                7.3802833
              ],
              [
                144.6091472,
                7.3884667
              ],
              [
                144.6021833,
                7.3963
              ],
              [
                144.5964944,
                7.4022083
              ],
              [
                144.5905694,
                7.4078806
              ],
              [
                144.5844167,
                7.4133056
              ],
              [
                144.5754361,
                7.4205306
              ],
              [
                144.5660583,
                7.4272278
              ],
              [
                144.5563111,
                7.4333778
              ],
              [
                144.546225,
                7.4389611
              ],
              [
                144.5358361,
                7.4439583
              ],
              [
                144.5306667,
                7.4462194
              ],
              [
                144.5208472,
                7.4501111
              ],
              [
                144.5108389,
                7.4534806
              ],
              [
                144.5006639,
                7.4563222
              ],
              [
                144.4903556,
                7.458625
              ],
              [
                144.4809278,
                7.4604139
              ],
              [
                144.471425,
                7.46175
              ],
              [
                144.4618694,
                7.4626333
              ],
              [
                144.4522833,
                7.4630583
              ],
              [
                144.4411611,
                7.4630778
              ],
              [
                144.4300583,
                7.4624833
              ],
              [
                144.4190028,
                7.4612778
              ],
              [
                144.4080333,
                7.4594639
              ],
              [
                144.3971806,
                7.45705
              ],
              [
                144.3869028,
                7.4543889
              ],
              [
                144.3766722,
                7.4514083
              ],
              [
                144.3666167,
                7.4478889
              ],
              [
                144.3567583,
                7.4438417
              ],
              [
                144.3471306,
                7.4392806
              ],
              [
                144.3377583,
                7.4342167
              ],
              [
                144.3286667,
                7.4286667
              ],
              [
                144.3204278,
                7.4232
              ],
              [
                144.3124694,
                7.4173333
              ],
              [
                144.3048083,
                7.4110861
              ],
              [
                144.2962972,
                7.4034472
              ],
              [
                144.2882333,
                7.3953389
              ],
              [
                144.2806444,
                7.3867861
              ],
              [
                144.2735556,
                7.3778139
              ],
              [
                144.2669889,
                7.3684556
              ],
              [
                144.2609667,
                7.3587417
              ],
              [
                144.2555056,
                7.3487
              ],
              [
                144.2521472,
                7.3418917
              ],
              [
                144.2472667,
                7.3308972
              ],
              [
                144.2430556,
                7.3196306
              ],
              [
                144.239525,
                7.3081361
              ],
              [
                144.2366472,
                7.2971778
              ],
              [
                144.2343944,
                7.286075
              ],
              [
                144.2327694,
                7.2748639
              ],
              [
                144.2317806,
                7.2635806
              ],
              [
                144.2314278,
                7.2522583
              ]
            ]
          ]
        ]
      }
    }
  ]
}