{
  "type": "FeatureCollection",
  "features": [
    {
      "type": "Feature",
      "properties": {
        "osm_id": -192307,
        "boundary": "administrative",
        "admin_level": 2,
        "parents": null,
        "name": "Greece",
        "local_name": "ŒïŒªŒªŒ¨œÇ",
        "name_en": "Greece",
        "all_tags": {
          "flag": "http://upload.wikimedia.org/wikipedia/commons/5/5c/Flag_of_Greece.svg",
          "name": "ŒïŒªŒªŒ¨œÇ",
          "name:ab": "–ë–∞—Ä–∑–µ–Ω—Ç”ô—ã–ª–∞",
          "name:af": "Griekeland",
          "name:am": "·åç·à™·ä≠",
          "name:an": "Grecia",
          "name:ar": "ÿßŸÑŸäŸàŸÜÿßŸÜ",
          "name:ay": "Grisya",
          "name:az": "Yunanƒ±stan",
          "name:ba": "–ì—Ä–µ—Ü–∏—è",
          "name:be": "–ì—Ä—ç—Ü—ã—è",
          "name:bg": "–ì—ä—Ä—Ü–∏—è",
          "name:bi": "Greece",
          "name:bn": "‡¶ó‡ßç‡¶∞‡¶ø‡¶∏",
          "name:bo": "‡ΩÄ‡Ω∫‡ºã‡Ω¢‡Ω≤‡ºã‡Ω¶‡Ω≤‡ºç",
          "name:br": "Gres",
          "name:bs": "Grƒçka",
          "name:ca": "Gr√®cia",
          "name:ce": "–ì—Ä–µ—Ü–∏",
          "name:co": "Grecia",
          "name:cs": "≈òecko",
          "name:cu": "–ì—Ä—å—Ü–∏",
          "name:cv": "–ì—Ä–µ—Ü–∏",
          "name:cy": "Gwlad Groeg",
          "name:da": "Gr√¶kenland",
          "name:de": "Griechenland",
          "name:dv": "ﬁîﬁ´ﬁÇﬁßﬁÇﬁ∞",
          "name:dz": "‡ΩÇ‡æ≤‡æÄ‡Ω¶",
          "name:ee": "Greece",
          "name:el": "ŒïŒªŒªŒ¨Œ¥Œ±",
          "name:en": "Greece",
          "name:eo": "Grekio",
          "name:es": "Grecia",
          "name:et": "Kreeka",
          "name:eu": "Grezia",
          "name:fa": "€åŸàŸÜÿßŸÜ",
          "name:fi": "Kreikka",
          "name:fo": "Grikkaland",
          "name:fr": "Gr√®ce",
          "name:fy": "Grikel√¢n",
          "name:ga": "An Ghr√©ig",
          "name:gd": "A' Ghr√®ig",
          "name:gl": "Grecia",
          "name:gn": "Gyresia",
          "name:gu": "‡™ó‡´ç‡™∞‡´Ä‡™∏",
          "name:gv": "Yn Ghreag",
          "name:he": "◊ô◊ï◊ï◊ü",
          "name:hi": "‡§Ø‡•Ç‡§®‡§æ‡§®",
          "name:hr": "Grƒçka",
          "name:ht": "Gr√®s",
          "name:hu": "G√∂r√∂gorsz√°g",
          "name:hy": "’Ä’∏÷Ç’∂’°’Ω’ø’°’∂",
          "name:ia": "Grecia",
          "name:id": "Yunani",
          "name:ie": "Grecia",
          "name:io": "Grekia",
          "name:is": "Grikkland",
          "name:it": "Grecia",
          "name:ja": "„ÇÆ„É™„Ç∑„É£",
          "name:jv": "Yunani",
          "name:ka": "·É°·Éê·Éë·Éî·É†·É´·Éú·Éî·Éó·Éò",
          "name:kg": "Gelesi",
          "name:ki": "Ngiriki",
          "name:kk": "–ì—Ä–µ–∫–∏—è",
          "name:kl": "Gr√¶kerit Nunaat",
          "name:kn": "‡≤ó‡≥ç‡≤∞‡≥Ä‡≤∏‡≥ç",
          "name:ko": "Í∑∏Î¶¨Ïä§",
          "name:ku": "Yewnanistan",
          "name:kv": "–≠–ª–ª–∞–¥–∞",
          "name:kw": "Pow Grek",
          "name:ky": "–ì—Ä–µ—Ü–∏—è",
          "name:la": "Graecia",
          "name:lb": "Griicheland",
          "name:lg": "Buyonaani",
          "name:li": "Griekeland",
          "name:ln": "Gresi",
          "name:lt": "Graikija",
          "name:lv": "Grieƒ∑ija",
          "name:mg": "Grisy",
          "name:mi": "Kirihi",
          "name:mk": "–ì—Ä—Ü–∏—ò–∞",
          "name:ml": "‡¥ó‡µç‡¥∞‡µÄ‡¥∏‡µç",
          "name:mn": "–ì—Ä–µ–∫",
          "name:mr": "‡§ó‡•ç‡§∞‡•Ä‡§∏",
          "name:ms": "Greece",
          "name:mt": "Greƒãja",
          "name:my": "·ÄÇ·Äõ·Ä≠·Äî·Ä≠·ÄØ·ÄÑ·Ä∫·ÄÑ·Ä∂",
          "name:na": "Grit",
          "name:ne": "‡§ó‡•ç‡§∞‡•Ä‡§∏",
          "name:nl": "Griekenland",
          "name:nn": "Hellas",
          "name:no": "Hellas",
          "name:nv": "Gw√≠√≠k Dine º√© Bik√©yah",
          "name:oc": "Gr√®cia",
          "name:or": "‡¨ó‡≠ç‡¨∞‡≠Ä‡¨∏",
          "name:os": "–ì—Ä–µ–∫—ä",
          "name:pa": "‡®Ø‡©Ç‡®®‡®æ‡®®",
          "name:pl": "Grecja",
          "name:ps": "ŸäŸàŸÜÿßŸÜ",
          "name:pt": "Gr√©cia",
          "name:qu": "Grisya",
          "name:rm": "Grezia",
          "name:rn": "Grecia",
          "name:ro": "Grecia",
          "name:ru": "–ì—Ä–µ—Ü–∏—è",
          "name:rw": "Ubugereki",
          "name:sa": "‡§Ø‡§µ‡§®‡§¶‡•á‡§∂‡§É",
          "name:sc": "Gr√®ghia",
          "name:se": "Greika",
          "name:sh": "Grƒçka",
          "name:si": "‡∂ú‡∑ä‚Äç‡∂ª‡∑ì‡∑É‡∑í‡∂∫",
          "name:sk": "Gr√©cko",
          "name:sl": "Grƒçija",
          "name:sm": "Kuliti",
          "name:so": "Giriig",
          "name:sq": "Greqia",
          "name:sr": "–ì—Ä—á–∫–∞",
          "name:ss": "IGrikhi",
          "name:su": "Yunani",
          "name:sv": "Grekland",
          "name:sw": "Ugiriki",
          "name:ta": "‡Æï‡Æø‡Æ∞‡Øá‡Æï‡Øç‡Æï ‡Æ®‡Ææ‡Æü‡ØÅ",
          "name:te": "‡∞ó‡±ç‡∞∞‡±Ä‡∞∏‡±ç",
          "name:tg": "–Æ–Ω–æ–Ω",
          "name:th": "‡∏õ‡∏£‡∏∞‡πÄ‡∏ó‡∏®‡∏Å‡∏£‡∏µ‡∏ã",
          "name:tk": "Gresi√Ωa",
          "name:tl": "Gresya",
          "name:tr": "Yunanistan",
          "name:tt": "–ì—Ä–µ—Ü–∏—è",
          "name:ug": "Gr√©tsiye",
          "name:uk": "–ì—Ä–µ—Ü—ñ—è",
          "name:ur": "€åŸàŸÜÿßŸÜ",
          "name:uz": "Yunoniston",
          "name:vi": "Hy L·∫°p",
          "name:vo": "Grik√§n",
          "name:wo": "Girees",
          "name:yi": "◊í◊®◊ô◊õ◊†◊ú◊ê◊†◊ì",
          "name:yo": "Gr√≠√¨s√¨",
          "name:zh": "Â∏åËÖä",
          "name:zu": "IGreki",
          "alt_name": "ŒïŒªŒªŒ¨Œ¥Œ±",
          "boundary": "administrative",
          "int_name": "Greece",
          "name:ace": "Yunani",
          "name:als": "Griechenland",
          "name:ang": "Crƒìcland",
          "name:arc": "‹ù‹ò‹¢",
          "name:arz": "ÿßŸÑŸäŸàŸÜÿßŸÜ",
          "name:ast": "Grecia",
          "name:bar": "Griachaland",
          "name:bcl": "Gresya",
          "name:bpy": "‡¶ó‡ßç‡¶∞‡ßÄ‡¶∏",
          "name:bxr": "–ì—Ä–µ–∫ —É–ª–∞—Å",
          "name:cdo": "Hƒ≠-l√©-n√†Ã§",
          "name:ceb": "Gresya",
          "name:chr": "·é™·é¢",
          "name:ckb": "€å€ÜŸÜÿßŸÜ",
          "name:crh": "Yunanistan",
          "name:csb": "Greck√¥",
          "name:diq": "Yunanƒ±stan",
          "name:dsb": "Grichiska",
          "name:ext": "Gr√©cia",
          "name:frp": "Gr√®ce",
          "name:frr": "Griichenl√∂nj",
          "name:fur": "Grecie",
          "name:gag": "Gre»õiya",
          "name:gan": "Â∏åËáò",
          "name:hak": "H√Æ-liaÃçp",
          "name:haw": "Helene",
          "name:hif": "Greece",
          "name:hsb": "Grjekska",
          "name:ilo": "Gresia",
          "name:jbo": "xesygu'e",
          "name:kaa": "Gretsiya",
          "name:kbd": "–ê–ª—ã–¥–∂–µ–π",
          "name:koi": "–≠–ª–ª–∞–¥–∞",
          "name:krc": "–ì—Ä–µ—Ü–∏—è",
          "name:lad": "Gresia",
          "name:lez": "–ì—Ä–µ—Ü–∏—è",
          "name:lij": "Gre√ßia",
          "name:lmo": "Grecia",
          "name:ltg": "Grekeja",
          "name:lzh": "Â∏åËáòÂÖ±ÂíåÂúã",
          "name:mdf": "–ì—Ä–µ–∫–º–∞—Å—Ç–æ—Ä",
          "name:mhr": "–ì—Ä–µ—Ü–∏–π",
          "name:mwl": "Gr√©cia",
          "name:mzn": "€åŸàŸÜÿßŸÜ",
          "name:nah": "Grecia",
          "name:nan": "Hi-liaÃçp",
          "name:nap": "Grecia",
          "name:nds": "Grekenland",
          "name:nov": "Grekia",
          "name:nrm": "Gr√™ce",
          "name:pag": "Gresia",
          "name:pam": "Grekya",
          "name:pcd": "Gr√®che",
          "name:pih": "Griese",
          "name:pms": "Grecia",
          "name:pnb": "€åŸàŸÜÿßŸÜ",
          "name:pnt": "ŒïŒªŒªŒ¨Œ¥Œ±",
          "name:rue": "“ê—Ä–µ—Ü—ñ—è",
          "name:sah": "–ì—Ä–µ—Ü–∏—è",
          "name:scn": "Grecia",
          "name:sco": "Greece",
          "name:smn": "Kreikka",
          "name:sms": "Kreikka",
          "name:srn": "Grikikondre",
          "name:stq": "Griechenlound",
          "name:szl": "Grecyj≈è",
          "name:tet": "Gr√©sia",
          "name:tok": "ma Elena",
          "name:tpi": "Gris",
          "name:tzl": "Graicea",
          "name:udm": "–ì—Ä–µ—Ü–∏—è",
          "name:vec": "Gresia",
          "name:vep": "Grekanma",
          "name:vls": "Grieknland",
          "name:vro": "Kreeka",
          "name:war": "Gresya",
          "name:wuu": "Â∏åËÖä",
          "name:xal": "–ì—Ä–∏—Å–∏–Ω –û—Ä–Ω",
          "name:xmf": "·É°·Éê·Éë·Éî·É†·É´·Éú·Éî·Éó·Éò",
          "name:yue": "Â∏åËáò",
          "name:zea": "Griek'nland",
          "ref:nuts": "EL",
          "timezone": "Europe/Athens",
          "way_area": "24.7793",
          "wikidata": "Q41",
          "ISO3166-1": "GR",
          "wikipedia": "el:ŒïŒªŒªŒ¨Œ¥Œ±",
          "admin_level": "2",
          "alt_name:eo": "Grekujo;Helenio;Helenujo",
          "name:nds-nl": "Griekenlaand",
          "name:bat-smg": "Graikƒójƒó",
          "name:roa-rup": "G√¢r»õia",
          "name:zh-Hans": "Â∏åËÖä",
          "name:zh-Hant": "Â∏åËáò",
          "name:roa-tara": "Grecie",
          "official_name": "ŒïŒªŒªŒ∑ŒΩŒπŒ∫ŒÆ ŒîŒ∑ŒºŒøŒ∫œÅŒ±œÑŒØŒ±",
          "name:be-tarask": "–ì—Ä—ç—Ü—ã—è",
          "ISO3166-1:alpha2": "GR",
          "ISO3166-1:alpha3": "GRC",
          "default_language": "el",
          "official_name:cs": "≈òeck√° republika",
          "official_name:eo": "Helena Respubliko",
          "official_name:fi": "Helleenien tasavalta",
          "official_name:pl": "Republika Grecka",
          "ISO3166-1:numeric": "300",
          "TMC:cid_58:tabcd_1:Class": "Area",
          "TMC:cid_58:tabcd_1:LCLversion": "8.00",
          "TMC:cid_58:tabcd_1:LocationCode": "12"
        }
      },
      "geometry": {
        "type": "MultiPolygon",
        "coordinates": [
          [
            [
              [
                25,
                39.38570414983779
              ],
              [
                25.0007627,
                39.3857686
              ],
              [
                25.006842,
                39.3866165
              ],
              [
                25.0128417,
                39.3877534
              ],
              [
                25.0189515,
                39.3892246
              ],
              [
                25.0261914,
                39.391411
              ],
              [
                25.031811,
                39.3934696
              ],
              [
                25.0372538,
                39.3957945
              ],
              [
                25.0424987,
                39.3983767
              ],
              [
                25.0475254,
                39.4012062
              ],
              [
                25.0528226,
                39.4045912
              ],
              [
                25.0596337,
                39.4097098
              ],
              [
                25.0657841,
                39.415305
              ],
              [
                25.0703643,
                39.4202954
              ],
              [
                25.0741927,
                39.4249858
              ],
              [
                25.0767753,
                39.4285337
              ],
              [
                25.0807597,
                39.4306167
              ],
              [
                25.0857622,
                39.4335588
              ],
              [
                25.0905966,
                39.4367946
              ],
              [
                25.0940452,
                39.4393767
              ],
              [
                25.0983855,
                39.443013
              ],
              [
                25.1025148,
                39.4468505
              ],
              [
                25.1053549,
                39.4497766
              ],
              [
                25.1106156,
                39.4556766
              ],
              [
                25.1257258,
                39.4665134
              ],
              [
                25.1309511,
                39.4709678
              ],
              [
                25.1347976,
                39.474749
              ],
              [
                25.1374779,
                39.4777022
              ],
              [
                25.1407676,
                39.4817841
              ],
              [
                25.1437212,
                39.4860162
              ],
              [
                25.146327,
                39.4903818
              ],
              [
                25.148047,
                39.4937336
              ],
              [
                25.149562,
                39.4971436
              ],
              [
                25.1508685,
                39.5006044
              ],
              [
                25.1521217,
                39.5046931
              ],
              [
                25.1540785,
                39.5078956
              ],
              [
                25.1559192,
                39.5113201
              ],
              [
                25.1575443,
                39.5148087
              ],
              [
                25.1592403,
                39.5190015
              ],
              [
                25.1603827,
                39.5224229
              ],
              [
                25.1615872,
                39.5270405
              ],
              [
                25.1622491,
                39.530536
              ],
              [
                25.162807,
                39.5352259
              ],
              [
                25.1629881,
                39.5389314
              ],
              [
                25.1629408,
                39.5425708
              ],
              [
                25.1626705,
                39.5462042
              ],
              [
                25.1620399,
                39.5508519
              ],
              [
                25.1610582,
                39.5555032
              ],
              [
                25.160045,
                39.5590722
              ],
              [
                25.1588133,
                39.5625999
              ],
              [
                25.1568359,
                39.5672256
              ],
              [
                25.1551059,
                39.5706264
              ],
              [
                25.1524773,
                39.5750547
              ],
              [
                25.1502701,
                39.5782868
              ],
              [
                25.1478664,
                39.5814343
              ],
              [
                25.1452717,
                39.5844903
              ],
              [
                25.1415249,
                39.5884105
              ],
              [
                25.1385077,
                39.5912264
              ],
              [
                25.1342282,
                39.5948004
              ],
              [
                25.1308711,
                39.5973123
              ],
              [
                25.1261642,
                39.6004674
              ],
              [
                25.1212108,
                39.6033898
              ],
              [
                25.1173455,
                39.6054218
              ],
              [
                25.1120076,
                39.6079098
              ],
              [
                25.1078774,
                39.6096045
              ],
              [
                25.1036487,
                39.6111481
              ],
              [
                25.0978732,
                39.6129656
              ],
              [
                25.0888159,
                39.615196
              ],
              [
                25.0842186,
                39.6160554
              ],
              [
                25.0782272,
                39.6169124
              ],
              [
                25.0734287,
                39.6208402
              ],
              [
                25.0687329,
                39.624204
              ],
              [
                25.0637663,
                39.6273285
              ],
              [
                25.0585496,
                39.6302008
              ],
              [
                25.0531464,
                39.6327968
              ],
              [
                25.0476432,
                39.6350822
              ],
              [
                25.0419651,
                39.6370977
              ],
              [
                25.0361342,
                39.6388355
              ],
              [
                25.0301735,
                39.6402887
              ],
              [
                25.0225757,
                39.6416965
              ],
              [
                25.0148582,
                39.6426423
              ],
              [
                25.0085108,
                39.6430702
              ],
              [
                25.0022054,
                39.6431869
              ],
              [
                25,
                39.6431068844079
              ],
              [
                25,
                39.38570414983779
              ]
            ]
          ],
          [
            [
              [
                25,
                39.76081111780349
              ],
              [
                25.0012723,
                39.760317
              ],
              [
                25.0069825,
                39.7583928
              ],
              [
                25.0113616,
                39.7571316
              ],
              [
                25.0173108,
                39.7556977
              ],
              [
                25.0233648,
                39.7545521
              ],
              [
                25.0283947,
                39.7538298
              ],
              [
                25.0345825,
                39.7531983
              ],
              [
                25.0392503,
                39.7529205
              ],
              [
                25.0454907,
                39.7528124
              ],
              [
                25.0501701,
                39.7529283
              ],
              [
                25.0548373,
                39.7532127
              ],
              [
                25.0609742,
                39.753847
              ],
              [
                25.065157,
                39.7502901
              ],
              [
                25.0684853,
                39.7477536
              ],
              [
                25.0756984,
                39.7429841
              ],
              [
                25.0833887,
                39.7387963
              ],
              [
                25.0915582,
                39.7351846
              ],
              [
                25.097235,
                39.733113
              ],
              [
                25.1015978,
                39.7317418
              ],
              [
                25.1075364,
                39.7301627
              ],
              [
                25.1150312,
                39.7286143
              ],
              [
                25.1193238,
                39.7271291
              ],
              [
                25.1251649,
                39.7253981
              ],
              [
                25.1311356,
                39.7239521
              ],
              [
                25.1432243,
                39.7214518
              ],
              [
                25.1478469,
                39.7207289
              ],
              [
                25.1540697,
                39.7200278
              ],
              [
                25.1634805,
                39.7195445
              ],
              [
                25.1729087,
                39.7197465
              ],
              [
                25.1776029,
                39.7201042
              ],
              [
                25.183714,
                39.7208313
              ],
              [
                25.1901147,
                39.7206716
              ],
              [
                25.1959518,
                39.7207924
              ],
              [
                25.2049266,
                39.7181334
              ],
              [
                25.2140556,
                39.7161651
              ],
              [
                25.2202331,
                39.7152239
              ],
              [
                25.2249102,
                39.7147157
              ],
              [
                25.2343319,
                39.7142124
              ],
              [
                25.2441197,
                39.7144114
              ],
              [
                25.2488194,
                39.7147645
              ],
              [
                25.255042,
                39.7155005
              ],
              [
                25.2642319,
                39.7171662
              ],
              [
                25.2736046,
                39.7196244
              ],
              [
                25.2785854,
                39.7185715
              ],
              [
                25.2843278,
                39.7175833
              ],
              [
                25.305712,
                39.7113061
              ],
              [
                25.3127862,
                39.7095364
              ],
              [
                25.3193756,
                39.7082167
              ],
              [
                25.3292544,
                39.7065852
              ],
              [
                25.3372614,
                39.7055514
              ],
              [
                25.3450701,
                39.7050316
              ],
              [
                25.3529078,
                39.7049846
              ],
              [
                25.360726,
                39.705411
              ],
              [
                25.3686848,
                39.7063336
              ],
              [
                25.378862,
                39.7080378
              ],
              [
                25.3878503,
                39.710179
              ],
              [
                25.3956635,
                39.7126235
              ],
              [
                25.404238,
                39.7160132
              ],
              [
                25.41116,
                39.7193733
              ],
              [
                25.4185605,
                39.7236907
              ],
              [
                25.4251447,
                39.7282562
              ],
              [
                25.4296135,
                39.7316649
              ],
              [
                25.4348622,
                39.7362762
              ],
              [
                25.4395062,
                39.7410643
              ],
              [
                25.4436519,
                39.7461152
              ],
              [
                25.4465928,
                39.7503247
              ],
              [
                25.4491873,
                39.7546664
              ],
              [
                25.4514254,
                39.7591235
              ],
              [
                25.4537095,
                39.764811
              ],
              [
                25.456475,
                39.7680908
              ],
              [
                25.4589785,
                39.7714188
              ],
              [
                25.4615097,
                39.775217
              ],
              [
                25.4641419,
                39.779644
              ],
              [
                25.4663628,
                39.7840666
              ],
              [
                25.4679197,
                39.7877471
              ],
              [
                25.4695413,
                39.7924625
              ],
              [
                25.4704997,
                39.7960456
              ],
              [
                25.4712786,
                39.7998866
              ],
              [
                25.4719063,
                39.8047113
              ],
              [
                25.4721359,
                39.8095564
              ],
              [
                25.4719664,
                39.8144027
              ],
              [
                25.4713986,
                39.8192308
              ],
              [
                25.4699865,
                39.8264532
              ],
              [
                25.468885,
                39.8305609
              ],
              [
                25.4673583,
                39.8350826
              ],
              [
                25.4654758,
                39.8395242
              ],
              [
                25.4632444,
                39.8438693
              ],
              [
                25.460869,
                39.8478672
              ],
              [
                25.4580554,
                39.8519811
              ],
              [
                25.4615414,
                39.8571086
              ],
              [
                25.4642509,
                39.861915
              ],
              [
                25.4695335,
                39.8673647
              ],
              [
                25.4720978,
                39.8704269
              ],
              [
                25.4744696,
                39.8735789
              ],
              [
                25.4773236,
                39.8779091
              ],
              [
                25.4798146,
                39.8823691
              ],
              [
                25.4824028,
                39.888099
              ],
              [
                25.4836691,
                39.8916059
              ],
              [
                25.484717,
                39.8951547
              ],
              [
                25.4855439,
                39.8987376
              ],
              [
                25.4861481,
                39.9023464
              ],
              [
                25.4866673,
                39.9088819
              ],
              [
                25.4871667,
                39.909427
              ],
              [
                25.4911535,
                39.9113278
              ],
              [
                25.4962832,
                39.9140838
              ],
              [
                25.5023619,
                39.9178665
              ],
              [
                25.5132042,
                39.9257934
              ],
              [
                25.5195438,
                39.9310713
              ],
              [
                25.5243155,
                39.9358013
              ],
              [
                25.5293842,
                39.9418322
              ],
              [
                25.5317225,
                39.9451026
              ],
              [
                25.533866,
                39.9484817
              ],
              [
                25.5369496,
                39.9542793
              ],
              [
                25.5390059,
                39.9591473
              ],
              [
                25.5408835,
                39.9650135
              ],
              [
                25.5426532,
                39.9734584
              ],
              [
                25.543377,
                39.9781568
              ],
              [
                25.5437204,
                39.9828802
              ],
              [
                25.5437275,
                39.9864282
              ],
              [
                25.5435198,
                39.9899725
              ],
              [
                25.5430364,
                39.9940331
              ],
              [
                25.5440262,
                39.9974292
              ],
              [
                25.54461240780633,
                40
              ],
              [
                25,
                40
              ],
              [
                25,
                39.76081111780349
              ]
            ]
          ],
          [
            [
              [
                25.720239,
                39.199909
              ],
              [
                25.7204433,
                39.194988
              ],
              [
                25.7212659,
                39.1888668
              ],
              [
                25.7223744,
                39.184018
              ],
              [
                25.7243032,
                39.1780753
              ],
              [
                25.7262448,
                39.1734881
              ],
              [
                25.7291843,
                39.1679003
              ],
              [
                25.7327481,
                39.1623947
              ],
              [
                25.7367048,
                39.1571896
              ],
              [
                25.7402398,
                39.1532075
              ],
              [
                25.7444964,
                39.1490318
              ],
              [
                25.7466429,
                39.1459657
              ],
              [
                25.7491239,
                39.1427872
              ],
              [
                25.7540466,
                39.1372387
              ],
              [
                25.761229,
                39.1299321
              ],
              [
                25.7642184,
                39.1271024
              ],
              [
                25.7684659,
                39.1235057
              ],
              [
                25.777562,
                39.1166603
              ],
              [
                25.7836163,
                39.1128141
              ],
              [
                25.7897881,
                39.1094748
              ],
              [
                25.7941631,
                39.1045023
              ],
              [
                25.7990779,
                39.0997597
              ],
              [
                25.8051921,
                39.0947719
              ],
              [
                25.8113289,
                39.0904623
              ],
              [
                25.8162729,
                39.0874676
              ],
              [
                25.8201347,
                39.0853829
              ],
              [
                25.8254723,
                39.0828273
              ],
              [
                25.831597,
                39.0803148
              ],
              [
                25.8373895,
                39.0770449
              ],
              [
                25.8440433,
                39.0738547
              ],
              [
                25.8481828,
                39.0721381
              ],
              [
                25.8590646,
                39.0680658
              ],
              [
                25.8634391,
                39.066636
              ],
              [
                25.8683912,
                39.0652423
              ],
              [
                25.8727791,
                39.0601363
              ],
              [
                25.8776966,
                39.055295
              ],
              [
                25.8830942,
                39.0507722
              ],
              [
                25.8889376,
                39.0465967
              ],
              [
                25.8951899,
                39.0427949
              ],
              [
                25.901309,
                39.0396154
              ],
              [
                25.9087271,
                39.0362008
              ],
              [
                25.9170919,
                39.0329401
              ],
              [
                25.9244208,
                39.0306441
              ],
              [
                25.9334897,
                39.0284938
              ],
              [
                25.94122,
                39.0272193
              ],
              [
                25.9490559,
                39.0264238
              ],
              [
                25.9585291,
                39.0261083
              ],
              [
                25.9712449,
                39.0265299
              ],
              [
                25.9790896,
                39.0270813
              ],
              [
                25.9865524,
                39.0280358
              ],
              [
                25.9927576,
                39.0262239
              ],
              [
                25.9981619,
                39.0248941
              ],
              [
                26,
                39.024188270291056
              ],
              [
                26,
                39.36922885649806
              ],
              [
                25.9940425,
                39.3672455
              ],
              [
                25.9868696,
                39.3655996
              ],
              [
                25.9794842,
                39.3634111
              ],
              [
                25.9754336,
                39.3624937
              ],
              [
                25.9703048,
                39.3626103
              ],
              [
                25.9640757,
                39.3650752
              ],
              [
                25.958311,
                39.3669919
              ],
              [
                25.9509047,
                39.3689877
              ],
              [
                25.9444973,
                39.3703422
              ],
              [
                25.936868,
                39.3715059
              ],
              [
                25.9296894,
                39.3721707
              ],
              [
                25.9225456,
                39.3731218
              ],
              [
                25.9163048,
                39.3736175
              ],
              [
                25.9116045,
                39.3737898
              ],
              [
                25.9053309,
                39.3737529
              ],
              [
                25.8990728,
                39.3734114
              ],
              [
                25.8944042,
                39.3729561
              ],
              [
                25.8882324,
                39.3720856
              ],
              [
                25.8836567,
                39.3712369
              ],
              [
                25.8776458,
                39.3698478
              ],
              [
                25.8717597,
                39.3681695
              ],
              [
                25.8632151,
                39.3651246
              ],
              [
                25.8555122,
                39.3619497
              ],
              [
                25.8514689,
                39.3600987
              ],
              [
                25.8437424,
                39.3559659
              ],
              [
                25.8365526,
                39.3512894
              ],
              [
                25.8310172,
                39.3470067
              ],
              [
                25.8260848,
                39.3425479
              ],
              [
                25.8219743,
                39.3402842
              ],
              [
                25.8170843,
                39.3372514
              ],
              [
                25.81245,
                39.3339871
              ],
              [
                25.8091531,
                39.3313946
              ],
              [
                25.8038109,
                39.3266382
              ],
              [
                25.7988563,
                39.3214129
              ],
              [
                25.7950801,
                39.3179053
              ],
              [
                25.7916754,
                39.314374
              ],
              [
                25.7866931,
                39.3108443
              ],
              [
                25.7818088,
                39.3069121
              ],
              [
                25.777776,
                39.3032159
              ],
              [
                25.7740501,
                39.2993315
              ],
              [
                25.771466,
                39.2963037
              ],
              [
                25.7690684,
                39.2931852
              ],
              [
                25.7668627,
                39.2899828
              ],
              [
                25.7642286,
                39.2855948
              ],
              [
                25.7624888,
                39.2822246
              ],
              [
                25.7604908,
                39.2776394
              ],
              [
                25.7592377,
                39.2741417
              ],
              [
                25.7581332,
                39.2703432
              ],
              [
                25.7542722,
                39.2660092
              ],
              [
                25.7517471,
                39.262898
              ],
              [
                25.7486828,
                39.2586118
              ],
              [
                25.7464462,
                39.2550034
              ],
              [
                25.7428654,
                39.2518052
              ],
              [
                25.7400291,
                39.2489942
              ],
              [
                25.7348736,
                39.2430829
              ],
              [
                25.7311299,
                39.2378924
              ],
              [
                25.7278716,
                39.2324192
              ],
              [
                25.7261339,
                39.2289408
              ],
              [
                25.7246147,
                39.2254014
              ],
              [
                25.7229352,
                39.2206014
              ],
              [
                25.7219389,
                39.2169518
              ],
              [
                25.7211662,
                39.2132465
              ],
              [
                25.7205048,
                39.2083598
              ],
              [
                25.7202724,
                39.2046785
              ],
              [
                25.720239,
                39.199909
              ]
            ]
          ]
        ]
      }
    },
    {
      "type": "Feature",
      "properties": {
        "osm_id": -174737,
        "boundary": "administrative",
        "admin_level": 2,
        "parents": null,
        "name": "Turkey",
        "local_name": "T√ºrkiye",
        "name_en": "Turkey",
        "all_tags": {
          "flag": "http://upload.wikimedia.org/wikipedia/commons/b/b4/Flag_of_Turkey.svg",
          "name": "T√ºrkiye",
          "name:aa": "Torusko",
          "name:ab": "“¨—ã—Ä“õ”ô—Ç”ô—ã–ª–∞",
          "name:af": "Turkye",
          "name:ak": "Turki",
          "name:am": "·â±·à≠·ä≠",
          "name:an": "Turqu√≠a",
          "name:ar": "ÿ™ÿ±ŸÉŸäÿß",
          "name:av": "–¢—É—Ä–∫–∏—è",
          "name:ay": "Turkiya",
          "name:az": "T√ºrkiy…ô",
          "name:ba": "–¢”©—Ä–∫–∏”ô",
          "name:be": "–¢—É—Ä—Ü—ã—è",
          "name:bg": "–¢—É—Ä—Ü–∏—è",
          "name:bi": "Turkey",
          "name:bn": "‡¶§‡ßÅ‡¶∞‡¶∏‡ßç‡¶ï",
          "name:bo": "‡Ωè‡Ω¥‡Ω¢‡ºã‡ΩÄ‡Ω≤‡ºç",
          "name:br": "Turkia",
          "name:bs": "Turska",
          "name:ca": "Turquia",
          "name:ce": "–¢—É—Ä–∫–æ–π—á–æ—å",
          "name:co": "Turchia",
          "name:cr": "·ëê·ïí·ë≠",
          "name:cs": "Turecko",
          "name:cu": "–¢—∑—Ä—Ü–∏",
          "name:cv": "–¢—É—Ä—Ü–∏",
          "name:cy": "Twrci",
          "name:da": "Tyrkiet",
          "name:de": "T√ºrkei",
          "name:dv": "ﬁåﬁ™ﬁÉﬁ™ﬁÜﬁ©ﬁàﬁ®ﬁçﬁßﬁåﬁ∞",
          "name:dz": "‡Ωñ‡æ±‡Ω†‡Ω≤‡ºã‡Ω¢‡Ω≤‡ΩÇ‡Ω¶‡ºã‡ΩÖ‡Ω≤‡ΩÇ",
          "name:ee": "Turkey",
          "name:el": "Œ§ŒøœÖœÅŒ∫ŒØŒ±",
          "name:en": "Turkey",
          "name:eo": "Turkio",
          "name:es": "Turqu√≠a",
          "name:et": "T√ºrgi",
          "name:eu": "Turkia",
          "name:fa": "ÿ™ÿ±⁄©€åŸá",
          "name:fi": "Turkki",
          "name:fo": "Turkaland",
          "name:fr": "Turquie",
          "name:fy": "Turkije",
          "name:ga": "An Tuirc",
          "name:gd": "An Tuirc",
          "name:gl": "Turqu√≠a",
          "name:gn": "Tuykia",
          "name:gu": "‡™§‡´Å‡™∞‡´ç‡™ï‡™∏‡´ç‡™§‡™æ‡™®",
          "name:gv": "Yn Turkee",
          "name:ha": "Turkiyya",
          "name:he": "◊ò◊ï◊®◊ß◊ô◊î",
          "name:hi": "‡§§‡•Å‡§∞‡•ç‡§ï‡•Ä",
          "name:hr": "Turska",
          "name:ht": "Tiki",
          "name:hu": "T√∂r√∂korsz√°g",
          "name:hy": "‘π’∏÷Ç÷Ä÷Ñ’´’°",
          "name:ia": "Turchia",
          "name:id": "Turki",
          "name:ie": "Turcia",
          "name:ik": "Turkey",
          "name:io": "Turkia",
          "name:is": "Tyrkland",
          "name:it": "Turchia",
          "name:ja": "„Éà„É´„Ç≥",
          "name:jv": "Turki",
          "name:ka": "·Éó·É£·É†·É•·Éî·Éó·Éò",
          "name:kg": "Turki",
          "name:ki": "Turkey",
          "name:kk": "–¢“Ø—Ä–∫–∏—è",
          "name:kl": "Tyrkia",
          "name:km": "·ûè·ûΩ·ûÄ·ûÇ·û∏",
          "name:kn": "‡≤ü‡≤∞‡≥ç‡≤ï‡≤ø",
          "name:ko": "ÌäÄÎ•¥ÌÇ§Ïòà",
          "name:ku": "Tirkiye",
          "name:kv": "–¢—É—Ä—Ü–∏—è",
          "name:kw": "Turki",
          "name:ky": "–¢“Ø—Ä–∫–∏—è",
          "name:la": "Turcia",
          "name:lb": "Tierkei",
          "name:lg": "Buturuki",
          "name:li": "Turkije",
          "name:ln": "Turk√≠",
          "name:lt": "Turkija",
          "name:lv": "Turcija",
          "name:mg": "Torkia",
          "name:mi": "TƒÅkei",
          "name:mk": "–¢—É—Ä—Ü–∏—ò–∞",
          "name:ml": "‡¥§‡µÅ‡µº‡¥ï‡µç‡¥ï‡¥ø",
          "name:mn": "–¢—É—Ä–∫",
          "name:mr": "‡§§‡•Å‡§∞‡•ç‡§ï‡§∏‡•ç‡§§‡§æ‡§®",
          "name:ms": "Turki",
          "name:mt": "Turkija",
          "name:my": "·Äê·Ä∞·Äõ·ÄÄ·ÄÆ·Äî·Ä≠·ÄØ·ÄÑ·Ä∫·ÄÑ·Ä∂",
          "name:na": "Terki",
          "name:ne": "‡§ü‡§∞‡•ç‡§ï‡•Ä",
          "name:nl": "Turkije",
          "name:nn": "Tyrkia",
          "name:no": "Tyrkia",
          "name:nv": "T º√≥ok Bik√©yah",
          "name:oc": "Turquia",
          "name:or": "‡¨§‡≠Å‡¨∞‡≠ç‡¨ï‡≠Ä",
          "name:os": "–¢—É—Ä–∫",
          "name:pa": "‡®§‡©Å‡®∞‡®ï‡©Ä",
          "name:pl": "Turcja",
          "name:ps": "ÿ™Ÿàÿ±⁄©ŸäŸá",
          "name:pt": "Turquia",
          "name:qu": "Turkiya",
          "name:rm": "Tirchia",
          "name:rn": "Turukiya",
          "name:ro": "Turcia",
          "name:ru": "–¢—É—Ä—Ü–∏—è",
          "name:rw": "Turukiya",
          "name:sa": "‡§§‡•Å‡§∞‡•ç‡§ï‡•Ä",
          "name:sc": "Turkia",
          "name:se": "Durka",
          "name:sh": "Turska",
          "name:si": "‡∂≠‡∑î‡∂ª‡∑ä‡∂ö‡∑í‡∂∫",
          "name:sk": "Turecko",
          "name:sl": "Turƒçija",
          "name:sm": "Take",
          "name:so": "Turkiga",
          "name:sq": "Turqia",
          "name:sr": "–¢—É—Ä—Å–∫–∞",
          "name:ss": "IThekhi",
          "name:su": "Turki",
          "name:sv": "Turkiet",
          "name:sw": "Uturuki",
          "name:ta": "‡Æ§‡ØÅ‡Æ∞‡ØÅ‡Æï‡Øç‡Æï‡Æø",
          "name:te": "‡∞ü‡∞∞‡±ç‡∞ï‡±Ä",
          "name:tg": "–¢—É—Ä–∫–∏—è",
          "name:th": "‡∏õ‡∏£‡∏∞‡πÄ‡∏ó‡∏®‡∏ï‡∏∏‡∏£‡∏Å‡∏µ",
          "name:ti": "·â±·à≠·ä™",
          "name:tk": "T√ºrki√Ωe",
          "name:tl": "Turkiya",
          "name:tr": "T√ºrkiye",
          "name:tt": "–¢”©—Ä–∫–∏—è",
          "name:tw": "Turkey",
          "name:ty": "Turiti",
          "name:ug": "ÿ™€àÿ±ŸÉŸâŸä€ï",
          "name:uk": "–¢—É—Ä–µ—á—á–∏–Ω–∞",
          "name:ur": "ÿ™ÿ±⁄©€å",
          "name:uz": "Turkiya",
          "name:vi": "Th·ªï Nhƒ© K·ª≥",
          "name:vo": "T√ºrk√§n",
          "name:wa": "Tourkeye",
          "name:wo": "Tirki",
          "name:xh": "ITurkiya",
          "name:yi": "◊ò◊¢◊®◊ß◊ô◊ô",
          "name:yo": "T√∫rk√¨",
          "name:za": "Dujwjgiz",
          "name:zh": "ÂúüËÄ≥ÂÖ∂",
          "name:zu": "ITheki",
          "boundary": "administrative",
          "int_name": "T√ºrkiye",
          "name:ace": "Turuki",
          "name:ady": "–¢—ã—Ä–∫—É–µ",
          "name:als": "T√ºrkei",
          "name:ang": "Turcland",
          "name:apc": "ÿ™ÿ±ŸÉŸäÿß",
          "name:arc": "‹õ‹ò‹™‹©‹ù‹ê",
          "name:ary": "ÿ£ŸÜŸÇÿßÿ±ÿß",
          "name:arz": "ÿ™Ÿàÿ±ŸÉŸäÿß",
          "name:ast": "Turqu√≠a",
          "name:azb": "ÿ™Ÿàÿ±⁄©€åŸá",
          "name:bar": "Tiakei",
          "name:bcl": "Turkiya",
          "name:bjn": "Turki",
          "name:bpy": "‡¶§‡ßÅ‡¶∞‡¶∏‡ßç‡¶ï",
          "name:bug": "Turki",
          "name:bxr": "–¢—é—Ä–∫ –£–ª–∞—Å",
          "name:cdo": "T≈´-ƒ´-g√¨",
          "name:ceb": "Turkiya",
          "name:chr": "·é¨·èÇ·è±",
          "name:chy": "Turkey",
          "name:ckb": "ÿ™Ÿàÿ±⁄©€åÿß",
          "name:cnr": "–¢—É—Ä—Å–∫–∞",
          "name:crh": "T√ºrkiye",
          "name:csb": "T√´reck√¥",
          "name:din": "Turkia",
          "name:diq": "Tƒ±rkiya",
          "name:dsb": "Turkojska",
          "name:eml": "Turch√Æ",
          "name:ext": "Turquia",
          "name:frp": "Turquie",
          "name:frr": "T√ºrkei",
          "name:fur": "Turchie",
          "name:gag": "T√ºrkiye",
          "name:gan": "ÂúüËÄ≥ÂÖ∂",
          "name:glk": "ÿ™€äÿ±⁄©ŸäŸá",
          "name:got": "êçÑêçÖêçÇêå∫êåæêå∞",
          "name:hak": "Th√∫-ng√≠-kh√¨",
          "name:haw": "Tureke",
          "name:hif": "Turkey",
          "name:hsb": "Turkowska",
          "name:hyw": "‘π’∏÷Ç÷Ä÷Ñ’´’°",
          "name:ilo": "Turkia",
          "name:inh": "–¢—É—Ä–∫–∏–π",
          "name:jbo": "turk",
          "name:kaa": "T√∫rkiya",
          "name:kab": "Tturk",
          "name:kbd": "–¢—ã—Ä–∫—É",
          "name:kiu": "Tƒ±rkiya",
          "name:koi": "–¢—é—Ä–∫–∏—è",
          "name:krc": "–¢—é—Ä–∫",
          "name:ksh": "T√ºrkei",
          "name:lad": "Turkia",
          "name:lbe": "–¢—É—Ä–∫–∏—è",
          "name:lez": "–¢—É—Ä—Ü–∏—è",
          "name:lij": "Turchia",
          "name:lmo": "T√ºrchia",
          "name:ltg": "Turceja",
          "name:lzh": "ÂúüËÄ≥ÂÖ∂",
          "name:mdf": "–¢—É—Ä–∫–∞–º–∞—Å—Ç–æ—Ä",
          "name:mhr": "–¢—É—Ä—Ü–∏–π",
          "name:mrj": "–¢—É—Ä—Ü–∏",
          "name:mwl": "Turquie",
          "name:mzn": "ÿ™ÿ±⁄©€åŸá",
          "name:nah": "Turquia",
          "name:nan": "T√ºrkiye",
          "name:nap": "Turchia",
          "name:nds": "T√∂rkie",
          "name:new": "‡§ü‡§∞‡•ç‡§ï‡•Ä",
          "name:nov": "Turkia",
          "name:nrm": "Turtchie",
          "name:nso": "Turkey",
          "name:pam": "Turkia",
          "name:pap": "Turkia",
          "name:pcd": "Turkie",
          "name:pdc": "Turkie",
          "name:pes": "ÿ™ÿ±⁄©€åŸá",
          "name:pfl": "Tirkei",
          "name:pih": "Turkii",
          "name:pms": "Turch√¨a",
          "name:pnb": "ÿ™ÿ±⁄©€å",
          "name:pnt": "Œ§ŒøœÖœÅŒ∫ŒØŒ±",
          "name:prs": "ÿ™ÿ±⁄©€åŸá",
          "name:rmy": "Turkiya",
          "name:rue": "–¢—É—Ä—Ü—ñ—è",
          "name:sah": "–¢“Ø—Ä–∫–∏–π—ç",
          "name:scn": "Turch√¨a",
          "name:sco": "Turkey",
          "name:smn": "Turkki",
          "name:sms": "Turkk",
          "name:srn": "Turkiyakondre",
          "name:stq": "Turk√§i",
          "name:szl": "Turcyj≈è",
          "name:tet": "Turkia",
          "name:tpi": "Teki",
          "name:tsd": "Œ§ŒøœÖœÅŒ∫ŒØŒ±",
          "name:tum": "Turkey",
          "name:tzl": "T√ºrchia",
          "name:udm": "–¢—É—Ä—Ü–∏—è",
          "name:vec": "Turchia",
          "name:vep": "Turcii",
          "name:vls": "Turkeye",
          "name:vro": "T√ºrg√º",
          "name:war": "Turkeya",
          "name:wuu": "ÂúüËÄ≥ÂÖ∂",
          "name:xal": "–¢“Ø—Ä–≥“Ø–¥–∏–Ω –û—Ä–Ω",
          "name:xmf": "·Éó·É£·É†·É•·Éî·Éó·Éò",
          "name:yue": "ÂúüËÄ≥ÂÖ∂",
          "name:zea": "Turkije",
          "name:zza": "Tƒ±rkiya",
          "timezone": "Europe/Istanbul",
          "way_area": "89.1987",
          "wikidata": "Q43",
          "ISO3166-1": "TR",
          "name:vlca": "Turquia",
          "wikipedia": "tr:T√ºrkiye",
          "population": "85279553",
          "admin_level": "2",
          "alt_name:ar": "ÿ™ÿ±ŸÉŸäÿß",
          "alt_name:eo": "Turkujo",
          "alt_name:vi": "Th·ªï Nhƒ© K√¨",
          "name:nds-nl": "Turkije",
          "old_name:ko": "ÌÑ∞ÌÇ§",
          "alt_name:haw": "Kuleke",
          "alt_name:lad": "Turkiya",
          "alt_name:tzl": "ma Tuki",
          "name:bat-smg": "Torkƒójƒó",
          "name:cbk-zam": "Turqu√≠a",
          "name:ks-Arab": "ÿ™Ÿèÿ±⁄©€å",
          "name:mn-Mong": "·†≤·†¶·†∑·†ª",
          "name:roa-rup": "Turchia",
          "name:zh-Hans": "ÂúüËÄ≥ÂÖ∂",
          "name:zh-Hant": "ÂúüËÄ≥ÂÖ∂",
          "name:cnr-Latn": "Turska",
          "name:lad-Hebr": "◊ò◊ï◊®◊ß◊≤◊î",
          "name:roa-tara": "Turchie",
          "official_name": "T√ºrkiye Cumhuriyeti",
          "name:be-tarask": "–¢—É—Ä—ç—á—á—ã–Ω–∞",
          "population:date": "2022",
          "ISO3166-1:alpha2": "TR",
          "ISO3166-1:alpha3": "TUR",
          "default_language": "tr",
          "official_name:ar": "ÿßŸÑÿ¨ŸÖŸáŸàÿ±Ÿäÿ© ÿßŸÑÿ™ÿ±ŸÉŸäÿ©",
          "official_name:cs": "Tureck√° republika",
          "official_name:de": "Republik Turkei",
          "official_name:el": "ŒîŒ∑ŒºŒøŒ∫œÅŒ±œÑŒØŒ± œÑŒ∑œÇ Œ§ŒøœÖœÅŒ∫ŒØŒ±œÇ",
          "official_name:en": "Republic of T√ºrkiye",
          "official_name:eo": "Turka Respubliko",
          "official_name:es": "Rep√∫blica de Turqu√≠a",
          "official_name:fi": "Turkin tasavalta",
          "official_name:fr": "R√©publique de Turquie",
          "official_name:he": "◊î◊®◊§◊ï◊ë◊ú◊ô◊ß◊î ◊î◊ò◊ï◊®◊ß◊ô◊™",
          "official_name:ko": "ÌäÄÎ•¥ÌÇ§Ïòà Í≥µÌôîÍµ≠",
          "official_name:ku": "Komara Tirkiyey√™",
          "official_name:ky": "–¢“Ø—Ä–∫–∏—è –†–µ—Å–ø—É–±–ª–∏–∫–∞—Å—ã",
          "official_name:ru": "–¢—É—Ä–µ—Ü–∫–∞—è –†–µ—Å–ø—É–±–ª–∏–∫–∞",
          "official_name:zh": "ÂúüËÄ≥ÂÖ∂ÂÖ±ÂíåÂúã / ÂúüËÄ≥ÂÖ∂ÂÖ±ÂíåÂõΩ",
          "ISO3166-1:numeric": "792",
          "official_name:xal": "–¢“Ø—Ä–≥“Ø–¥–∏–Ω –û—Ä–Ω",
          "official_name:zh-Hans": "ÂúüËÄ≥ÂÖ∂ÂÖ±ÂíåÂõΩ",
          "official_name:zh-Hant": "ÂúüËÄ≥ÂÖ∂ÂÖ±ÂíåÂúã"
        }
      },
      "geometry": {
        "type": "MultiPolygon",
        "coordinates": [
          [
            [
              [
                25.8625435,
                39.8379346
              ],
              [
                25.8627996,
                39.8331205
              ],
              [
                25.863449,
                39.828328
              ],
              [
                25.8641928,
                39.8247591
              ],
              [
                25.8662144,
                39.8174735
              ],
              [
                25.8679632,
                39.8128404
              ],
              [
                25.8707058,
                39.807045
              ],
              [
                25.8726358,
                39.8035579
              ],
              [
                25.8747876,
                39.8001481
              ],
              [
                25.8784251,
                39.7951672
              ],
              [
                25.8820248,
                39.7894199
              ],
              [
                25.885985,
                39.7842228
              ],
              [
                25.8895276,
                39.7802468
              ],
              [
                25.8933882,
                39.7764493
              ],
              [
                25.8980145,
                39.7723835
              ],
              [
                25.902335,
                39.7689979
              ],
              [
                25.909446,
                39.7639776
              ],
              [
                25.9143058,
                39.7609367
              ],
              [
                25.9255753,
                39.7545431
              ],
              [
                25.9335181,
                39.7506892
              ],
              [
                25.9404732,
                39.7479277
              ],
              [
                25.9476884,
                39.7455936
              ],
              [
                25.9566274,
                39.7433769
              ],
              [
                25.9645134,
                39.7419943
              ],
              [
                25.9684237,
                39.740762
              ],
              [
                25.9757765,
                39.7372479
              ],
              [
                25.9822165,
                39.7321296
              ],
              [
                25.9857332,
                39.7297012
              ],
              [
                25.9902645,
                39.7268669
              ],
              [
                25.9979382,
                39.7227094
              ],
              [
                26,
                39.721785636004554
              ],
              [
                26,
                40
              ],
              [
                25.99799222162186,
                40
              ],
              [
                25.9966969,
                39.9992169
              ],
              [
                25.991569,
                39.99579
              ],
              [
                25.9864824,
                39.9920403
              ],
              [
                25.9822301,
                39.9884703
              ],
              [
                25.9782805,
                39.9847014
              ],
              [
                25.9746496,
                39.9807487
              ],
              [
                25.9718722,
                39.9773142
              ],
              [
                25.9667472,
                39.9717281
              ],
              [
                25.9642774,
                39.9686223
              ],
              [
                25.9612892,
                39.9643477
              ],
              [
                25.9592832,
                39.961051
              ],
              [
                25.9569309,
                39.9565486
              ],
              [
                25.9549554,
                39.9519408
              ],
              [
                25.9537259,
                39.9484267
              ],
              [
                25.9523952,
                39.9435663
              ],
              [
                25.9515035,
                39.9388692
              ],
              [
                25.9509932,
                39.9341385
              ],
              [
                25.9508664,
                39.9293923
              ],
              [
                25.9511236,
                39.9246489
              ],
              [
                25.9517469,
                39.9200272
              ],
              [
                25.9436869,
                39.9168795
              ],
              [
                25.9363358,
                39.9133556
              ],
              [
                25.9303385,
                39.9119267
              ],
              [
                25.9245482,
                39.9102358
              ],
              [
                25.9175209,
                39.9077402
              ],
              [
                25.9120939,
                39.9054473
              ],
              [
                25.905588,
                39.9022252
              ],
              [
                25.90063,
                39.8993748
              ],
              [
                25.8959121,
                39.8962938
              ],
              [
                25.8903798,
                39.8921364
              ],
              [
                25.8850728,
                39.8874733
              ],
              [
                25.8804344,
                39.8826968
              ],
              [
                25.8755275,
                39.8766211
              ],
              [
                25.8720169,
                39.8713074
              ],
              [
                25.8686631,
                39.8650827
              ],
              [
                25.8662497,
                39.8593551
              ],
              [
                25.8644296,
                39.8534992
              ],
              [
                25.863214,
                39.8475513
              ],
              [
                25.8626818,
                39.8427512
              ],
              [
                25.8625435,
                39.8379346
              ]
            ]
          ],
          [
            [
              [
                25.9635701,
                39.4780524
              ],
              [
                25.9640699,
                39.471152
              ],
              [
                25.9645379,
                39.4674952
              ],
              [
                25.9652311,
                39.4638595
              ],
              [
                25.9665031,
                39.4590592
              ],
              [
                25.967715,
                39.455505
              ],
              [
                25.9696696,
                39.4508428
              ],
              [
                25.9720039,
                39.4462857
              ],
              [
                25.9747554,
                39.4417409
              ],
              [
                25.9777362,
                39.4375219
              ],
              [
                25.9810257,
                39.4334542
              ],
              [
                25.9846363,
                39.429552
              ],
              [
                25.9900801,
                39.4243052
              ],
              [
                25.9942097,
                39.4207331
              ],
              [
                25.9986184,
                39.4173657
              ],
              [
                26,
                39.416434063586536
              ],
              [
                26,
                39.58797623255101
              ],
              [
                25.9996551,
                39.5872378
              ],
              [
                25.9982933,
                39.5837184
              ],
              [
                25.997151,
                39.5801528
              ],
              [
                25.9962308,
                39.576549
              ],
              [
                25.9954624,
                39.5725318
              ],
              [
                25.9948996,
                39.5676513
              ],
              [
                25.9931144,
                39.5609268
              ],
              [
                25.9924275,
                39.5575794
              ],
              [
                25.9904384,
                39.5545054
              ],
              [
                25.988519,
                39.5511575
              ],
              [
                25.9868082,
                39.5477429
              ],
              [
                25.9849566,
                39.5433543
              ],
              [
                25.9811831,
                39.5382497
              ],
              [
                25.9778153,
                39.5327341
              ],
              [
                25.9750239,
                39.5270299
              ],
              [
                25.9727089,
                39.5208545
              ],
              [
                25.970979,
                39.5142153
              ],
              [
                25.9694547,
                39.5103902
              ],
              [
                25.9679694,
                39.505718
              ],
              [
                25.9671052,
                39.5021717
              ],
              [
                25.9662194,
                39.4974681
              ],
              [
                25.9649667,
                39.4926866
              ],
              [
                25.9642879,
                39.4890764
              ],
              [
                25.9638313,
                39.4854453
              ],
              [
                25.9635853,
                39.481581
              ],
              [
                25.9635701,
                39.4780524
              ]
            ]
          ]
        ]
      }
    }
  ]
}