{
  "type": "FeatureCollection",
  "features": [
    {
      "type": "Feature",
      "properties": {
        "osm_id": -307828,
        "boundary": "administrative",
        "admin_level": 2,
        "parents": null,
        "name": "Dominican Republic",
        "local_name": "República Dominicana",
        "name_en": "Dominican Republic",
        "all_tags": {
          "flag": "http://upload.wikimedia.org/wikipedia/commons/9/9f/Flag_of_the_Dominican_Republic.svg",
          "name": "República Dominicana",
          "name:af": "Dominikaanse Republiek",
          "name:am": "ዶሚኒካን ሪፐብሊክ",
          "name:an": "Republica Dominicana",
          "name:ar": "جمهورية الدومينيكان",
          "name:ay": "Republika Duminikana",
          "name:az": "Dominikan Respublikası",
          "name:be": "Дамініканская Рэспубліка",
          "name:bg": "Доминиканска република",
          "name:bn": "ডোমিনিকান প্রজাতন্ত্র",
          "name:bo": "ཌོ་མི་ནི་ཀན་སྤྱི་མཐུན་རྒྱལ་ཁབ།",
          "name:br": "Republik Dominikan",
          "name:bs": "Dominikanska Republika",
          "name:ca": "República Dominicana",
          "name:ce": "Доминикан Пачхьалкх",
          "name:cs": "Dominikánská republika",
          "name:cy": "Gweriniaeth Dominica",
          "name:da": "Dominikanske Republik",
          "name:de": "Dominikanische Republik",
          "name:dv": "ޑޮމިނިކަން ޖުމްހޫރިއްޔާ",
          "name:ee": "Dominican Republic",
          "name:el": "Δομινικανή Δημοκρατία",
          "name:en": "Dominican Republic",
          "name:eo": "Domingo",
          "name:es": "República Dominicana",
          "name:et": "Dominikaani Vabariik",
          "name:eu": "Dominikar Errepublika",
          "name:fa": "جمهوری دومینیکن",
          "name:fi": "Dominikaaninen tasavalta",
          "name:fo": "Dominikanalýðveldið",
          "name:fr": "République dominicaine",
          "name:fy": "Dominikaanske Republyk",
          "name:ga": "An Phoblacht Dhoiminiceach",
          "name:gd": "Poblachd Dhoiminicia",
          "name:gl": "República Dominicana",
          "name:gn": "Tavakuairetã Ndominikagua",
          "name:gv": "Yn Phobblaght Ghominicagh",
          "name:he": "הרפובליקה הדומיניקנית",
          "name:hi": "डोमिनिकन गणराज्य",
          "name:hr": "Dominikanska Republika",
          "name:ht": "Repiblik Dominikèn",
          "name:hu": "Dominikai Köztársaság",
          "name:hy": "Դոմինիկյան Հանրապետություն",
          "name:ia": "Republica Dominican",
          "name:id": "Republik Dominika",
          "name:io": "Dominikana Republiko",
          "name:is": "Dóminíska lýðveldið",
          "name:it": "Repubblica Dominicana",
          "name:ja": "ドミニカ共和国",
          "name:jv": "Republik Dominika",
          "name:ka": "დომინიკელთა რესპუბლიკა",
          "name:kk": "Доминикан Республикасы",
          "name:kn": "ಡೊಮಿನಿಕ ಗಣರಾಜ್ಯ",
          "name:ko": "도미니카 공화국",
          "name:ku": "Komara Domînîk",
          "name:kw": "Repoblek Dhominikanek",
          "name:la": "Respublica Dominicana",
          "name:lb": "Dominikanesch Republik",
          "name:li": "Dominicaanse Rippubliek",
          "name:ln": "Republiki Dominikani",
          "name:lt": "Dominikos Respublika",
          "name:lv": "Dominikāna",
          "name:mi": "Te Whenua Tominika",
          "name:mk": "Доминиканска Република",
          "name:ml": "ഡൊമനിക്കൻ റിപ്പബ്ലിക്",
          "name:mr": "डॉमिनिकन प्रजासत्ताक",
          "name:ms": "Republik Dominika",
          "name:mt": "Repubblika Dominikana",
          "name:my": "ဒိုမီနီကန်သမ္မတနိုင်ငံ",
          "name:na": "Ripubrikin Dominika",
          "name:ne": "डोमिनिकन गणतन्त्र",
          "name:nl": "Dominicaanse Republiek",
          "name:nn": "Den dominikanske republikken",
          "name:no": "Den dominikanske republikk",
          "name:nv": "Domingo Bikéyah",
          "name:oc": "Republica Dominicana",
          "name:or": "ଡୋମେନିକାନ ରିପବ୍ଲିକ",
          "name:os": "Доминиканæйы Республикæ",
          "name:pa": "ਡੋਮਿਨਿਕਾਈ ਗਣਰਾਜ",
          "name:pl": "Dominikana",
          "name:ps": "ډومنيکان جمهوريت",
          "name:pt": "República Dominicana",
          "name:qu": "Duminikana",
          "name:ro": "Republica Dominicană",
          "name:ru": "Доминиканская Республика",
          "name:rw": "Repubulika ya Dominikani",
          "name:sa": "डोमोनिकन रिपब्लिक",
          "name:se": "Dominikána dásseváldi",
          "name:sh": "Dominikanska Republika",
          "name:sk": "Dominikánska republika",
          "name:sl": "Dominikanska republika",
          "name:sq": "Republika Dominikane",
          "name:sr": "Доминиканска Република",
          "name:ss": "Tibuse weDomonokha",
          "name:su": "Républik Dominika",
          "name:sv": "Dominikanska Republiken",
          "name:sw": "Jamhuri ya Dominika",
          "name:ta": "டொமினிக்கன் குடியரசு",
          "name:te": "డొమెనికన్ రిపబ్లిక్",
          "name:tg": "Ҷумҳурии Доминикана",
          "name:th": "สาธารณรัฐโดมินิกัน",
          "name:tl": "Republikang Dominikano",
          "name:tr": "Dominik Cumhuriyeti",
          "name:tt": "Доминикан Җөмһүрияте",
          "name:ug": "دومىنىكان جۇمھۇرىيەتى",
          "name:uk": "Домініканська Республіка",
          "name:ur": "جمہوریہ ڈومینیکن",
          "name:uz": "Dominika Respublikasi",
          "name:vi": "Cộng hòa Dominica",
          "name:vo": "Sandominän",
          "name:wo": "Réewum Dominik",
          "name:yi": "דאמיניקאנישע רעפובליק",
          "name:yo": "Orílẹ̀òmìnira Dómíníkì",
          "name:zh": "多明尼加",
          "boundary": "administrative",
          "name:als": "Dominikanische Republik",
          "name:arz": "جمهورية الدومينيكان",
          "name:ast": "República Dominicana",
          "name:azb": "دومینیکن جومهوریتی",
          "name:bcl": "Dominikanang Republika",
          "name:bpy": "ডোমিনিকান প্রজাতন্ত্র",
          "name:bxr": "Доминикана Бүгэдэ Найрамдаха Улас",
          "name:ceb": "Republikang Dominikano",
          "name:ckb": "کۆماری دۆمینیکا",
          "name:crh": "Dominikan Cumhuriyeti",
          "name:diq": "Cumhuriyetê Dominika",
          "name:dsb": "Dominikańska republika",
          "name:ext": "Repúbrica Dominicana",
          "name:frp": "Rèpublica domeniquêna",
          "name:frr": "Dominikaans Republiik",
          "name:gag": "Dominikan Respublikası",
          "name:gcf": "Sendomeng",
          "name:grc": "Δομινικανὴ Πολιτεία",
          "name:hak": "Tô-mí-nì-kâ Khiung-fò-koet",
          "name:hif": "Dominican Republic",
          "name:hsb": "Dominikanska republika",
          "name:ilo": "Republica Dominicana",
          "name:lij": "Repubbrica Dominicann-a",
          "name:lmo": "Repübliga Dominicana",
          "name:mzn": "دومینیکن",
          "name:nah": "Dominicanatlācatlahtohcāyōtl",
          "name:nan": "Dominic Kiōng-hô-kok",
          "name:nds": "Dominikaansche Republiek",
          "name:nov": "Dominikal Republike",
          "name:pag": "Republika na Dominikana",
          "name:pam": "Dominikana Republika",
          "name:pap": "Republika Dominikano",
          "name:pih": "Dominikan Repablik",
          "name:pms": "Repùblica Duminican-a",
          "name:pnb": "ڈومینیکن",
          "name:sah": "Доминика Республиката",
          "name:scn": "Ripùbbrica Duminicana",
          "name:sco": "Dominican Republic",
          "name:smn": "Dominikaanisâš täsiväldi",
          "name:sms": "Dominikaanlaž tääʹssväʹldd",
          "name:szl": "Dōminikana",
          "name:vec": "Repùblica Dominicana",
          "name:vro": "Dominikaani Vabariik",
          "name:war": "Republika Dominicana",
          "name:xal": "Доминиканмудин Орн",
          "name:yue": "多明尼加",
          "timezone": "America/Santo_Domingo",
          "way_area": "10.5359",
          "wikidata": "Q786",
          "ISO3166-1": "DO",
          "wikipedia": "es:República Dominicana",
          "population": "10464474",
          "short_name": "R.D.",
          "admin_level": "2",
          "border_type": "nation",
          "name:nds-nl": "Dominikaanse Reppubliek",
          "alt_name:grc": "Δομηνικανὴ Πολιτεία",
          "name:bat-smg": "Duomėnėkas Respoblėka",
          "name:zh-Hans": "多明尼加",
          "name:zh-Hant": "多明尼加",
          "official_name": "República Dominicana",
          "short_name:en": "D.R.",
          "name:be-tarask": "Дамініканская Рэспубліка",
          "ISO3166-1:alpha2": "DO",
          "ISO3166-1:alpha3": "DOM",
          "default_language": "es",
          "official_name:ar": "جمهورية الدومينيكان",
          "official_name:be": "Дамініканская Рэспубліка",
          "official_name:de": "Dominikanische Republik",
          "official_name:en": "Republica Dominicana",
          "official_name:eo": "Dominika Respubliko",
          "official_name:es": "República Dominicana",
          "official_name:pa": "ਦੋਮੀਨੀਕਾਨਾ ਗਣਰਾਜ",
          "official_name:pl": "Republika Dominikany",
          "official_name:sr": "Доминиканска Република",
          "official_name:ug": "دومىنىكان جۇمھۇرىيەتى",
          "official_name:ur": "جمہوریہ ڈومینیکن",
          "official_name:zh": "多明尼加共和國",
          "ISO3166-1:numeric": "214",
          "official_name:azb": "دومینیکن جومهوریتی",
          "official_name:grc": "Δομινικανὴ Πολιτεία",
          "official_name:be-tarask": "Дамініканская Рэспубліка"
        }
      },
      "geometry": {
        "type": "Polygon",
        "coordinates": [
          [
            [
              -69,
              18
            ],
            [
              -68.3958888582716,
              18
            ],
            [
              -68.3920549,
              18.0055647
            ],
            [
              -68.3867257,
              18.0142518
            ],
            [
              -68.3818153,
              18.0232971
            ],
            [
              -68.1329466,
              18.5102398
            ],
            [
              -68.1306088,
              18.514971
            ],
            [
              -68.1263167,
              18.5246277
            ],
            [
              -68.1226038,
              18.5343859
            ],
            [
              -68.1194374,
              18.5442657
            ],
            [
              -68.1168479,
              18.5541584
            ],
            [
              -68.1147943,
              18.5641057
            ],
            [
              -68.1132451,
              18.574446
            ],
            [
              -68.1126795,
              18.5797457
            ],
            [
              -68.1120131,
              18.5896089
            ],
            [
              -68.1101725,
              18.6354107
            ],
            [
              -68.1102162,
              18.6441726
            ],
            [
              -68.1104012,
              18.6485806
            ],
            [
              -68.1110362,
              18.6571334
            ],
            [
              -68.1120538,
              18.6655482
            ],
            [
              -68.1143148,
              18.6782564
            ],
            [
              -68.1163226,
              18.686729
            ],
            [
              -68.1187048,
              18.6950528
            ],
            [
              -68.22144322384565,
              19
            ],
            [
              -69,
              19
            ],
            [
              -69,
              18
            ]
          ]
        ]
      }
    },
    {
      "type": "Feature",
      "properties": {
        "osm_id": -148838,
        "boundary": "administrative",
        "admin_level": 2,
        "parents": null,
        "name": "United States",
        "local_name": "United States",
        "name_en": "United States",
        "all_tags": {
          "flag": "https://upload.wikimedia.org/wikipedia/commons/a/a4/Flag_of_the_United_States.svg",
          "name": "United States",
          "name:ab": "Америка Еиду Аштатқәа",
          "name:af": "Verenigde State van Amerika",
          "name:am": "የተባበሩት የአሜሪካ ግዛቶች",
          "name:an": "Estatos Unitos d'America",
          "name:ar": "الولايات المتّحدة الأمريكيّة",
          "name:as": "মাৰ্কিন যুক্তৰাষ্ট্ৰ",
          "name:av": "Америкалъул Цолъарал Штатал",
          "name:ay": "Istadus Unidus",
          "name:az": "Amerika Birləşmiş Ştatları",
          "name:ba": "Америка Ҡушма Штаттары",
          "name:be": "Злучаныя Штаты Амерыкі",
          "name:bg": "Съединени американски щати",
          "name:bi": "Yunaeted Stet blong Amerika",
          "name:bm": "Amerika ka Kelenyalen Jamanaw",
          "name:bn": "মার্কিন যুক্তরাষ্ট্র",
          "name:bo": "ཨ་མེ་རི་ཁ་རྒྱལ་ཕྲན་མཉམ་འབྲེལ་རྒྱལ་ཁབ།",
          "name:br": "Stadoù-Unanet Amerika",
          "name:bs": "Sjedinjene Američke Države",
          "name:ca": "Estats Units d'Amèrica",
          "name:ce": "Iамерка пачхьалк",
          "name:co": "Stati Uniti d'America",
          "name:cs": "Spojené státy americké",
          "name:cu": "Амєрика́ньскꙑ Ѥдьнѥнꙑ́ Дрьжа́вꙑ",
          "name:cv": "Америкăри Пĕрлешӳллĕ Штатсем",
          "name:cy": "Unol Daleithiau America",
          "name:da": "Amerikas Forenede Stater",
          "name:de": "Vereinigte Staaten von Amerika",
          "name:dv": "އެމެރިކާ",
          "name:dz": "ཡུ་ནའིཊེཊ་སི་ཊེས",
          "name:ee": "United States",
          "name:el": "Ηνωμένες Πολιτείες της Αμερικής",
          "name:en": "United States",
          "name:eo": "Usono",
          "name:es": "Estados Unidos de América",
          "name:et": "Ameerika Ühendriigid",
          "name:eu": "Ameriketako Estatu Batuak",
          "name:fa": "ایالات متحده آمریکا",
          "name:ff": "Dowlaaji Dentuɗi",
          "name:fi": "Amerikan yhdysvallat",
          "name:fo": "Sambandsríkið Amerika",
          "name:fr": "États-Unis d'Amérique",
          "name:fy": "Feriene Steaten fan Amearika",
          "name:ga": "Stáit Aontaithe Mheiriceá",
          "name:gd": "Na Stàitean Aonaichte",
          "name:gl": "Estados Unidos de América",
          "name:gn": "Tetã peteĩ reko Amérikagua",
          "name:gu": "સંયુક્ત રાજ્ય અમેરિકા",
          "name:gv": "Steatyn Unnaneysit America",
          "name:ha": "kunkiyar taraiyar Amurika",
          "name:he": "ארצות הברית",
          "name:hi": "संयुक्त राज्य अमेरिका",
          "name:hr": "Sjedinjene Američke Države",
          "name:ht": "Etazini",
          "name:hu": "Amerikai Egyesült Államok",
          "name:hy": "Ամերիկայի Միացյալ Նահանգներ",
          "name:ia": "Statos Unite de America",
          "name:id": "Amerika Serikat",
          "name:ie": "Unit States de America",
          "name:ig": "Njikota Obodo Amerika",
          "name:ik": "United States of America",
          "name:io": "Unionita Stati di Amerika",
          "name:is": "Bandaríki Norður-Ameríku",
          "name:it": "Stati Uniti d'America",
          "name:iu": "ᐊᒥᐊᓕᑲ",
          "name:ja": "アメリカ合衆国",
          "name:jv": "Amérika Sarékat",
          "name:ka": "ამერიკის შეერთებული შტატები",
          "name:ki": "United States",
          "name:kk": "Америка Құрама Штаттары",
          "name:kl": "Naalagaaffeqatigiit",
          "name:km": "សហរដ្ឋអាមេរិក",
          "name:kn": "ಅಮೇರಿಕ ಸಂಯುಕ್ತ ಸಂಸ್ಥಾನ",
          "name:ko": "미국",
          "name:ks": "ریاست ہائے متحدہ",
          "name:ku": "Dewletên Yekbûyî yên Amerîkayê",
          "name:kv": "Америкаса Ӧтувтӧм Штатъяс",
          "name:kw": "Statys Unys Amerika",
          "name:ky": "Америка Кошмо Штаттары",
          "name:la": "Civitates Foederatae Americae",
          "name:lb": "Vereenegt Staate vun Amerika",
          "name:lg": "Amereka",
          "name:li": "Vereinegde State van Amerika",
          "name:ln": "Lisangá lya Ameríka",
          "name:lo": "ສະຫະລັດອາເມລິກາ",
          "name:lt": "Jungtinės Amerikos Valstijos",
          "name:lv": "Amerikas Savienotās Valstis",
          "name:mg": "Etazonia",
          "name:mi": "Amerika",
          "name:mk": "Соединети Американски Држави",
          "name:ml": "അമേരിക്കന് ഐക്യനാടുകള്",
          "name:mn": "Америкийн Нэгдсэн Улс",
          "name:mo": "Стателе Уните але Америчий",
          "name:mr": "अमेरिकेची संयुक्त संस्थाने",
          "name:ms": "Amerika Syarikat",
          "name:mt": "Stati Uniti tal-Amerika",
          "name:my": "အမေရိကန်ပြည်ထောင်စု",
          "name:na": "Eben Merika",
          "name:ne": "संयुक्त राज्य अमेरिका",
          "name:nl": "Verenigde Staten",
          "name:nn": "USA",
          "name:no": "Amerikas forente stater",
          "name:nv": "Wááshindoon Bikéyah Ałhidadiidzooígíí",
          "name:oc": "Estats Units d'America",
          "name:om": "USA",
          "name:or": "ଯୁକ୍ତରାଷ୍ଟ୍ର ଆମେରିକା",
          "name:os": "Америкæйы Иугонд Штаттæ",
          "name:pa": "ਸੰਯੁਕਤ ਰਾਜ ਅਮਰੀਕਾ",
          "name:pl": "Stany Zjednoczone",
          "name:ps": "د امریکا متحده آیالاتونه",
          "name:pt": "Estados Unidos da América",
          "name:qu": "Hukllachasqa Amirika Suyukuna",
          "name:rm": "Stadis Unids da l'America",
          "name:rn": "Leta Zunze Ubumwe za Amerika",
          "name:ro": "Statele Unite ale Americii",
          "name:ru": "Соединённые Штаты Америки",
          "name:rw": "Leta Zunze Ubumwe z’Amerika",
          "name:sa": "संयुक्तानि राज्यानि",
          "name:sc": "Istados Unidos de America",
          "name:sd": "آمريڪا",
          "name:se": "Amerihká ovttastuvvan stáhtat",
          "name:sg": "ÂKödörö-ôko tî Amerîka",
          "name:sh": "Sjedinjene Američke Države",
          "name:si": "අ'මෙරිකාවේ එක්සත් රාජ්යයන්",
          "name:sk": "Spojené štáty americké",
          "name:sl": "Združene države Amerike",
          "name:sm": "Iunaite Sitete o Amerika",
          "name:sn": "United States of America",
          "name:so": "Mareykanka",
          "name:sq": "Shtetet e Bashkuara të Amerikës",
          "name:sr": "Сједињене Америчке Државе",
          "name:ss": "IMelika",
          "name:su": "Amérika Sarikat",
          "name:sv": "USA",
          "name:sw": "Muungano wa Madola ya Amerika",
          "name:ta": "ஐக்கிய அமெரிக்கா",
          "name:te": "అమెరికా సంయుక్త రాష్ట్రాలు",
          "name:tg": "Иёлоти Муттаҳидаи Амрико",
          "name:th": "สหรัฐอเมริกา",
          "name:tk": "Amerikanyň Birleşen Ştatlary",
          "name:tl": "Estados Unidos",
          "name:tn": "USA",
          "name:to": "Puleʻanga Fakataha 'o 'Amelika",
          "name:tr": "Amerika Birleşik Devletleri",
          "name:ts": "United States",
          "name:tt": "Америка Кушма Штатлары",
          "name:tw": "USA",
          "name:ty": "Fenua Marite",
          "name:ug": "ئامېرىكا قوشما شتاتلىرى",
          "name:uk": "Сполучені Штати Америки",
          "name:ur": "ریاست ہائے متحدہ",
          "name:uz": "Amerika Qoʻshma Shtatlari",
          "name:vi": "Hoa Kỳ",
          "name:vo": "Lamerikän",
          "name:wa": "Estats Unis d' Amerike",
          "name:wo": "Diwaan-yu-Bennoo yu Aamerig",
          "name:xh": "IYunayithedi Steyitsi",
          "name:yi": "פאראייניקטע שטאטן פון אמעריקע",
          "name:yo": "Àwọn Ìpínlẹ̀ Aṣọ̀kan Amẹ́ríkà",
          "name:za": "Meijgoz",
          "name:zh": "美利坚合众国/美利堅合眾國",
          "name:zu": "IMelika",
          "boundary": "administrative",
          "int_name": "United States of America",
          "name:ace": "Amirika Carékat",
          "name:als": "Vereinigte Schtaate vo Amerika",
          "name:anc": "Ἡνωμέναι Πολιτείαι τῆς Νεοικουμένης",
          "name:ang": "Geānlǣtan Rīcu American",
          "name:arc": "ܐܘܚܕܢܐ ܡܚܝܕܐ",
          "name:arz": "امريكا",
          "name:ast": "Estaos Xuníos d'América",
          "name:azb": "آمریکا بیرلشمیش ایالتلری",
          "name:bar": "Vaeinigtn Staatn vo Amerika",
          "name:bcl": "Estados Unidos",
          "name:bpy": "তিলপারাষ্ট্র",
          "name:bxr": "Американ Нэгэдэһэн Улас",
          "name:cdo": "Mī-lé-giĕng Hăk-cé̤ṳng-guók",
          "name:ceb": "Estados Unidos sa Amerika",
          "name:chr": "ᏌᏊᎢᏳᎾᎵᏍᏔᏅᏍᎦᏚᎩ ᎾᎿ ᎠᎺᏰᏟ",
          "name:chy": "United States",
          "name:ckb": "ویلایەتە یەکگرتووەکانی ئەمریکا",
          "name:crh": "Amerika Qoşma Ştatları",
          "name:csb": "Zjednóné Kraje Americzi",
          "name:din": "Amatnhom Pawut",
          "name:diq": "Dewletê Amerikayê Yewbiyayey",
          "name:dsb": "Zjadnośone staty Ameriki",
          "name:eml": "Stat Unî",
          "name:ext": "Estaus Uñíus d'América",
          "name:frp": "Ètats-Unis d’Amèrica",
          "name:frr": "Feriind Stoote foon Ameerika",
          "name:fur": "Stâts Unîts di Americhe",
          "name:gag": "Amerika Birleşik Devletläri",
          "name:gan": "美國",
          "name:glk": "امریکا",
          "name:grc": "Ἡνωμέναι Πολιτεῖαι τῆς Ἀμερικῆς",
          "name:hak": "Mî-li-kiên Ha̍p-chung-koet",
          "name:haw": "ʻAmelika Hui Pū ʻia",
          "name:hif": "United States",
          "name:hsb": "Zjednoćene staty Ameriki",
          "name:ilo": "stados Unidos iti Amerika",
          "name:jbo": ".iunaited.steits.",
          "name:kaa": "Amerika Qurama Shtatları",
          "name:kab": "Iwunak Yedduklen",
          "name:kbd": "Америкэ Штат Зэгуэт",
          "name:koi": "Америкаись Ӧтлаасьӧм Штаттэз",
          "name:krc": "Американы Бирлешген Штатлары",
          "name:ksh": "Vereenichde Staate van Amerika",
          "name:lad": "Estatos Unitos d'Amerika",
          "name:lbe": "Американал ЦачӀунхьу Штатру",
          "name:lez": "Америкадин Садхьанвай Штатар",
          "name:lij": "Stati Unïi d'America",
          "name:lmo": "Stat Ünì d'America",
          "name:ltg": "Amerikys Saškierstuos Vaļsteibys",
          "name:lzh": "美利堅合眾國",
          "name:mdf": "Америконь Аймакнень Соткссна",
          "name:mhr": "Америкысе Ушымо Штатвлак",
          "name:mia": "mihši-maalhsonki",
          "name:min": "Amerika Sarikat",
          "name:mrj": "Америкын Ушымы Штатвлӓжӹ",
          "name:mwl": "Stados Ounidos de la América",
          "name:myv": "Американь Вейтьсэндявкс Штаттнэ",
          "name:mzn": "متحده ایالات آمریکا",
          "name:nah": "Tlacetilīlli Tlahtohcāyōtl Ixachitlān",
          "name:nan": "America Ha̍p-chiòng-kok",
          "name:nap": "State Aunite d'Amereca",
          "name:nds": "Verenigten Staten vun Amerika",
          "name:new": "संयुक्त राज्य अमेरिका",
          "name:nov": "Unionati States de Amerika",
          "name:nrm": "Êtats Unnis d'Améthique",
          "name:nso": "United States of America",
          "name:pag": "Estados Unidos",
          "name:pam": "United States ning America",
          "name:pap": "Estadonan Uni di Merka",
          "name:pcd": "États-Unis Anmérikes",
          "name:pdc": "Vereenichde Schtaate vun Amerikaa",
          "name:pfl": "Verainischde Schdaade vun Ameriga",
          "name:pih": "Yunitid Staits",
          "name:pms": "Stat Unì d'América",
          "name:pnb": "امریکہ",
          "name:rue": "Споєны Штаты Америцькы",
          "name:sah": "Америка Холбоһуктаах Штаттара",
          "name:scn": "Stati Uniti",
          "name:sco": "Unitit States o Americae",
          "name:smn": "Amerik ovtâstumstaatah",
          "name:sms": "Ameriikk õhttõõvvâmvääʹld",
          "name:srn": "Kondre Makandrameki",
          "name:stq": "Fereende Stoaten fon Amerikoa",
          "name:syc": "ܐܘܚܕܢܐ ܡܚܝܕܐ",
          "name:szl": "Zjednoczōne Sztaty Ameryki",
          "name:tet": "Estadu Naklibur Sira Amérika Nian",
          "name:tpi": "Yunaitet Stet bilong Amerika",
          "name:tzl": "Estats Viensiçeschti d'America",
          "name:udm": "Америкалэн Огазеяськем Штатъёсыз",
          "name:vec": "Stati Unìi de la Mèrica",
          "name:vep": "Amerikan Ühtenzoittud Valdkundad",
          "name:vls": "Verênigde Stoaten van Amerika",
          "name:vro": "Ameeriga Ütisriigiq",
          "name:war": "Estados Unidos",
          "name:wuu": "美国",
          "name:xal": "Америкин Ниицәтә Орн Нутгуд",
          "name:xmf": "ამერიკაშ აკოართაფილი შტატეფი",
          "name:yue": "美利堅合眾國",
          "name:zea": "Vereênigde Staeten",
          "way_area": "1231.9",
          "wikidata": "Q30",
          "ISO3166-1": "US",
          "wikipedia": "en:United States",
          "population": "331449281",
          "short_name": "USA",
          "admin_level": "2",
          "alt_name:be": "Злучаныя Штаты;Штаты",
          "alt_name:en": "America",
          "alt_name:es": "Estados Unidos;EUA",
          "alt_name:fr": "États-Unis",
          "alt_name:ko": "아메리카",
          "alt_name:vi": "Hoa Kì;Mĩ;Hợp chúng quốc Hoa Kì",
          "border_type": "national",
          "int_name:ko": "아메리카합중국",
          "name:nds-nl": "Verienigde Staoten van Amerika",
          "old_name:ar": "الولايات المتحدة الأمريكية الشمالية",
          "old_name:de": "Vereinigte Staaten von Nordamerika",
          "old_name:en": "United States of North America",
          "old_name:eo": "Unuiĝintaj Ŝtatoj de Nordameriko",
          "old_name:es": "Estados Unidos de Norteamérica",
          "old_name:ko": "북아메리카합중국",
          "old_name:pl": "Stany Zjednoczone Ameryki Północnej",
          "old_name:ru": "Северо-Американские Соединённые Штаты",
          "old_name:vi": "Mỹ Lợi Kiên;Ma Ly Căn;Nhã Di Lý",
          "name:az-Arab": "آمریکا بیرلشمیش ایالتلری",
          "name:bat-smg": "JAV",
          "name:cbk-zam": "Estados Unidos de America",
          "name:kk-Arab": "امەرىيكا قۇراما شتاتتارى",
          "name:map-bms": "Amerika Serikat",
          "name:sr-Latn": "Sjedinjene Američke Države",
          "name:zh-Hans": "美利坚合众国",
          "name:zh-Hant": "美利堅合眾國",
          "name:roa-tara": "Statère Aunìte d'Americhe",
          "official_name": "United States of America",
          "short_name:az": "ABŞ",
          "short_name:be": "ЗША",
          "short_name:bg": "САЩ",
          "short_name:cs": "Spojené státy",
          "short_name:en": "USA",
          "short_name:es": "EE.UU.",
          "short_name:fr": "É.-U.",
          "short_name:ko": "미국",
          "short_name:mo": "СУА",
          "short_name:nl": "VS",
          "short_name:pl": "USA",
          "short_name:ru": "США",
          "short_name:sr": "САД",
          "short_name:tr": "ABD",
          "short_name:vi": "Mỹ",
          "short_name:zh": "美国/美國",
          "name:be-tarask": "Злучаныя Штаты Амэрыкі",
          "population:date": "2020",
          "ISO3166-1:alpha2": "US",
          "ISO3166-1:alpha3": "USA",
          "default_language": "en",
          "official_name:ar": "الوِلَايَات المُتَّحِدَة الأَمرِيكِيَّة",
          "official_name:cs": "Spojené státy americké",
          "official_name:de": "Vereinigte Staaten von Amerika",
          "official_name:en": "United States of America",
          "official_name:eo": "Unuiĝintaj Ŝtatoj de Ameriko",
          "official_name:es": "Estados Unidos de América",
          "official_name:ko": "미합중국",
          "official_name:ks": "ریاست ہائے متحدہ",
          "official_name:nl": "Verenigde Staten van Amerika",
          "official_name:pl": "Stany Zjednoczone Ameryki",
          "official_name:ps": "د امریکا متحده آیالاتونه",
          "official_name:sv": "Amerikas Förenta Stater",
          "official_name:ug": "ئامېرىكا قوشما شىتاتلىرى",
          "official_name:ur": "ریاست ہائے متحدہ",
          "official_name:vi": "Hợp chúng quốc Hoa Kỳ;Hợp chúng quốc Hoa Kì;Hợp chủng quốc Hoa Kỳ;Hợp chủng quốc Hoa Kì",
          "ISO3166-1:numeric": "840",
          "alt_short_name:en": "US",
          "alt_short_name:pl": "St. Zj.",
          "official_name:arc": "ܐܬܪܘܬܐ ܡܚܝܕܐ ܕܐܡܪܝܟܐ",
          "official_name:din": "Pawuut Matiic ke Amerïka",
          "official_name:grc": "Ἡνωμέναι Πολιτεῖαι τῆς Ἀμερικῆς",
          "official_name:syc": "ܐܬܪܘܬܐ ܡܚܝܕܐ ܕܐܡܪܝܟܐ",
          "old_short_name:ru": "САСШ",
          "short_name:sr-Latn": "SAD",
          "short_name:zh-Hans": "美国",
          "short_name:zh-Hant": "美國",
          "not:official_name:vi": "Hợp chủng quốc Hoa Kỳ;Hợp chúng quốc Hoa Kì;Hợp chủng quốc Hoa Kỳ;Hợp chủng quốc Hoa Kì",
          "official_name:kk-Arab": "امەرىيكا قۇراما شتاتتارى"
        }
      },
      "geometry": {
        "type": "Polygon",
        "coordinates": [
          [
            [
              -68.16127,
              18.159037
            ],
            [
              -68.1610843,
              18.1520307
            ],
            [
              -68.1606875,
              18.1453149
            ],
            [
              -68.1596278,
              18.1348517
            ],
            [
              -68.1586039,
              18.1279118
            ],
            [
              -68.1573273,
              18.1210103
            ],
            [
              -68.1557998,
              18.1141556
            ],
            [
              -68.1543944,
              18.108697
            ],
            [
              -68.1551971,
              18.1017305
            ],
            [
              -68.1559232,
              18.0912413
            ],
            [
              -68.1560878,
              18.0842345
            ],
            [
              -68.1559967,
              18.0772263
            ],
            [
              -68.1553808,
              18.0667306
            ],
            [
              -68.1546515,
              18.0597568
            ],
            [
              -68.1530818,
              18.0493522
            ],
            [
              -68.15172,
              18.0424658
            ],
            [
              -68.1492088,
              18.0322316
            ],
            [
              -68.1472251,
              18.0254848
            ],
            [
              -68.1437917,
              18.0154989
            ],
            [
              -68.139817,
              18.0056986
            ],
            [
              -68.13713964461618,
              18
            ],
            [
              -68,
              18
            ],
            [
              -68,
              18.357031539338333
            ],
            [
              -68.0067451,
              18.3553959
            ],
            [
              -68.0137731,
              18.3533758
            ],
            [
              -68.0207229,
              18.3511226
            ],
            [
              -68.0309821,
              18.3473114
            ],
            [
              -68.041018,
              18.3429922
            ],
            [
              -68.0508029,
              18.338177
            ],
            [
              -68.0619923,
              18.3318864
            ],
            [
              -68.0711477,
              18.3260512
            ],
            [
              -68.0799701,
              18.3197659
            ],
            [
              -68.0884354,
              18.313048
            ],
            [
              -68.0965204,
              18.3059157
            ],
            [
              -68.101688,
              18.3009403
            ],
            [
              -68.1066705,
              18.2957956
            ],
            [
              -68.1137835,
              18.2877747
            ],
            [
              -68.1221029,
              18.2773522
            ],
            [
              -68.1282655,
              18.2686436
            ],
            [
              -68.133942,
              18.2596385
            ],
            [
              -68.1374485,
              18.2534827
            ],
            [
              -68.1407279,
              18.2472136
            ],
            [
              -68.1452122,
              18.2376144
            ],
            [
              -68.1491641,
              18.227804
            ],
            [
              -68.1514976,
              18.2211597
            ],
            [
              -68.1535869,
              18.2144416
            ],
            [
              -68.1562574,
              18.204244
            ],
            [
              -68.1583656,
              18.1939268
            ],
            [
              -68.1599056,
              18.1835182
            ],
            [
              -68.1608736,
              18.1730469
            ],
            [
              -68.1611997,
              18.1660452
            ],
            [
              -68.16127,
              18.159037
            ]
          ]
        ]
      }
    }
  ]
}