{
  "type": "FeatureCollection",
  "features": [
    {
      "type": "Feature",
      "properties": {
        "osm_id": -449220,
        "boundary": "administrative",
        "admin_level": 2,
        "parents": null,
        "name": "Taiwan",
        "local_name": "臺灣",
        "name_en": "Taiwan",
        "all_tags": {
          "flag": "http://upload.wikimedia.org/wikipedia/commons/7/72/Flag_of_the_Republic_of_China.svg",
          "name": "臺灣",
          "name:af": "Taiwan",
          "name:ak": "Taiwan",
          "name:am": "ታይዋን",
          "name:an": "Taiwán",
          "name:ar": "تايوان",
          "name:as": "টাইৱান",
          "name:az": "Tayvan",
          "name:be": "Тайв́ань",
          "name:bg": "Тайван",
          "name:bh": "ताइवान",
          "name:bm": "Tayiwani",
          "name:bn": "তাইওয়ান",
          "name:bo": "ཐེ་ཝན",
          "name:br": "Taiwan",
          "name:bs": "Tajvan",
          "name:ca": "Taiwan",
          "name:ce": "Тайвань",
          "name:cs": "Tchaj-wan",
          "name:cv": "Тайва́нь",
          "name:cy": "Taiwan",
          "name:da": "Taiwan",
          "name:de": "Taiwan",
          "name:dv": "ޖުމްހޫރީ ޗައިނާ",
          "name:dz": "ཏའི་ཝཱན་",
          "name:ee": "Taiwan",
          "name:el": "Ταϊβάν",
          "name:en": "Taiwan",
          "name:eo": "Tajvano",
          "name:es": "Taiwán",
          "name:et": "Taiwan",
          "name:eu": "Taiwan",
          "name:fa": "تایوان",
          "name:ff": "Taywaan",
          "name:fi": "Taiwan",
          "name:fo": "Teivan",
          "name:fr": "Taïwan",
          "name:fy": "Taiwan",
          "name:ga": "an Téaváin",
          "name:gd": "Taidh-Bhàn",
          "name:gl": "Taiwán",
          "name:gn": "Taiuã",
          "name:gu": "તાઇવાન",
          "name:gv": "yn Taiwaan",
          "name:he": "טאיוואן",
          "name:hi": "ताइवान",
          "name:hr": "Tajvan",
          "name:ht": "Taywann",
          "name:hu": "Tajvan",
          "name:hy": "Թայվան",
          "name:ia": "Taiwan",
          "name:id": "Taiwan",
          "name:ie": "Taiwan",
          "name:io": "Taiwan",
          "name:is": "Taívan",
          "name:it": "Taiwan",
          "name:ja": "台湾",
          "name:jv": "Taiwan",
          "name:ka": "ტაივანი",
          "name:ki": "Taiwani",
          "name:kk": "Тайвань",
          "name:kl": "Taiwan",
          "name:km": "តៃវ៉ាន់",
          "name:kn": "ಟೈವಾನ್",
          "name:ko": "대만",
          "name:ku": "Taywan",
          "name:kw": "Taywan",
          "name:ky": "Тайвань",
          "name:la": "Taivania",
          "name:lb": "Taiwan",
          "name:lg": "Tayiwani",
          "name:li": "Taiwan",
          "name:ln": "Taiwan",
          "name:lo": "ໄຕ້ຫວັນ",
          "name:lt": "Taivanas",
          "name:lv": "Taivāna",
          "name:mg": "Taiwan",
          "name:mi": "Taiwana",
          "name:mk": "Тајван",
          "name:ml": "തായ്വാൻ",
          "name:mn": "Тайвань",
          "name:mr": "तैवान",
          "name:ms": "Taiwan",
          "name:mt": "Tajwan",
          "name:my": "ထိုင်ဝမ်",
          "name:ne": "ताइवान",
          "name:nl": "Taiwan",
          "name:nn": "Taiwan",
          "name:no": "Taiwan",
          "name:oc": "Taiwan",
          "name:or": "ତାଇୱାନ",
          "name:os": "Тайван",
          "name:pa": "ਤਾਈਵਾਨ",
          "name:pi": "तैवान",
          "name:pl": "Tajwan",
          "name:ps": "تایوان",
          "name:pt": "Taiwan",
          "name:qu": "Taiwán",
          "name:rm": "Taiwan",
          "name:rn": "Tayiwani",
          "name:ro": "Taiwan",
          "name:ru": "Тайвань",
          "name:rw": "Tayiwani",
          "name:sa": "तैवान",
          "name:se": "Taiwan",
          "name:sg": "Tâiwâni",
          "name:sh": "Tajvan",
          "name:si": "තායිවානය",
          "name:sk": "Taiwan",
          "name:sl": "Tajvan",
          "name:sn": "Taiwan",
          "name:so": "Taywan",
          "name:sq": "Tajvani",
          "name:sr": "Тајван",
          "name:ss": "iThayiwani",
          "name:su": "Tiongkok",
          "name:sv": "Taiwan",
          "name:sw": "Taiwan",
          "name:te": "తైవాన్",
          "name:tg": "Тайва́н",
          "name:th": "ไต้หวัน",
          "name:tk": "Taýwan",
          "name:tl": "Taiwan",
          "name:to": "Taiuani",
          "name:tr": "Tayvan",
          "name:tt": "Тайва́нь",
          "name:ug": "تەيۋەن",
          "name:uk": "Тайва́нь",
          "name:ur": "تائیوان",
          "name:uz": "Tayvan",
          "name:vi": "Đài Loan",
          "name:vo": "Tayvän",
          "name:wo": "Taaywaan",
          "name:yi": "טייוואַן",
          "name:yo": "Taiwan",
          "name:za": "Daizvanh",
          "name:zh": "臺灣",
          "name:zu": "i-Taiwan",
          "alt_name": "中華民國",
          "boundary": "administrative",
          "int_name": "Taiwan",
          "name:ace": "Taywan",
          "name:als": "Taiwan",
          "name:arz": "تايوان",
          "name:ast": "Taiwán",
          "name:azb": "تایوان",
          "name:bar": "Taiwan",
          "name:bcl": "Taiwan",
          "name:bpy": "তাইৱান",
          "name:bxr": "Тайвань",
          "name:cdo": "Dài-uăng",
          "name:ceb": "Taiwan",
          "name:chy": "Taiwan",
          "name:ckb": "تایوان",
          "name:crh": "Tayvan",
          "name:csb": "Tajwan",
          "name:diq": "Taywan",
          "name:dsb": "Taiwan",
          "name:dty": "ताइवान",
          "name:ext": "Taiwán",
          "name:frp": "Tayivan",
          "name:frr": "Taiwan",
          "name:fur": "Taiwan",
          "name:gag": "Tayvan",
          "name:gom": "तैवान",
          "name:hak": "Thòi-vân",
          "name:hif": "Taiwan",
          "name:hsb": "Taiwan",
          "name:ilo": "Taiwan",
          "name:jam": "Taiwan",
          "name:kaa": "Tayvan",
          "name:kab": "Ṭaywan",
          "name:kbp": "Tayɩwanɩ",
          "name:ksh": "Taiwan",
          "name:lad": "Taiwan",
          "name:lij": "Taivan",
          "name:lmo": "Taiwan",
          "name:lrc": "تایوان",
          "name:lzh": "臺灣",
          "name:mai": "ताइवान",
          "name:mhr": "Тайвань",
          "name:min": "Taiwan",
          "name:myv": "Тайва́нь",
          "name:mzn": "تایوان",
          "name:nah": "Taihuan",
          "name:nan": "Tâi-oân",
          "name:nds": "Taiwan",
          "name:nov": "Taiwan",
          "name:pam": "Taiwan",
          "name:pap": "Taiwan",
          "name:pcd": "Taïwan",
          "name:pms": "Taiwan",
          "name:pnb": "تائیوان",
          "name:sah": "Тайбаан",
          "name:scn": "Taiwan",
          "name:sco": "Taiwan",
          "name:stq": "Taiwan",
          "name:szl": "Tajwan",
          "name:tet": "Taiwán",
          "name:tpi": "Taiwan",
          "name:udm": "Тайвань",
          "name:vec": "Taiwan",
          "name:vls": "Taiwan",
          "name:vro": "Taivanis",
          "name:war": "Taiwan",
          "name:xal": "Китдин Орн",
          "name:xmf": "ტაივანი",
          "name:yue": "臺灣",
          "name:zea": "Taiwan",
          "timezone": "Asia/Taipei",
          "way_area": "8.06416",
          "wikidata": "Q865",
          "ISO3166-1": "TW",
          "wikipedia": "zh:中華民國",
          "name:zh-CN": "台湾",
          "short_name": "TW",
          "admin_level": "2",
          "alt_name:af": "Republiek van Sjina",
          "alt_name:am": "የቻይና ሪፐብሊክ",
          "alt_name:an": "Republica de China",
          "alt_name:ar": "جمهورية الصين",
          "alt_name:az": "Çin Respublikası",
          "alt_name:be": "Рэспубліка Кітай",
          "alt_name:bg": "Република Китай",
          "alt_name:bh": "चीन (गणराज्य)",
          "alt_name:bn": "প্রজাতন্ত্রী চীন",
          "alt_name:bo": "ཐའེ་ཝན།",
          "alt_name:br": "Republik Sina",
          "alt_name:bs": "Republika Kina",
          "alt_name:ca": "República de la Xina",
          "alt_name:cs": "Čínská republika",
          "alt_name:da": "Republikken Kina",
          "alt_name:de": "Republik China",
          "alt_name:dv": "ޖުމްހޫރީ ޗައިނާ",
          "alt_name:dz": "ཏའི་ཝཱན་",
          "alt_name:el": "Δημοκρατία της Κίνας",
          "alt_name:en": "Republic of China",
          "alt_name:eo": "Respubliko Ĉinujo",
          "alt_name:es": "República de China",
          "alt_name:et": "Hiina Vabariik",
          "alt_name:fa": "تایوان",
          "alt_name:fi": "Kiinan tasavalta",
          "alt_name:fr": "République de Chine",
          "alt_name:gd": "Poblachd na Sìne",
          "alt_name:gn": "Tavakuairetã Chína",
          "alt_name:gu": "ચીની ગણતંત્ર",
          "alt_name:gv": "Pobblaght ny Sheen",
          "alt_name:ha": "Taiwan",
          "alt_name:he": "טאיוואן",
          "alt_name:hi": "चीनी गणराज्य",
          "alt_name:hr": "Republika Kina",
          "alt_name:hu": "Kínai Köztársaság",
          "alt_name:hy": "Չինաստանի Հանրապետություն",
          "alt_name:ia": "Republica de China",
          "alt_name:id": "Republik Cina",
          "alt_name:ie": "Republic of China",
          "alt_name:io": "Republiko di Chinia",
          "alt_name:is": "Lýðveldið Kína",
          "alt_name:it": "Repubblica di Cina",
          "alt_name:ja": "中華民国",
          "alt_name:jv": "Républik Cina",
          "alt_name:ka": "ტაივანი",
          "alt_name:km": "តៃវ៉ាន់",
          "alt_name:kn": "ಚೀನಿ ಗಣರಾಜ್ಯ",
          "alt_name:ko": "대만",
          "alt_name:ks": "تایوان",
          "alt_name:la": "Res publica Sinarum",
          "alt_name:li": "Republiek China",
          "alt_name:lo": "ໄຖວານ",
          "alt_name:lv": "Ķīnas Republika",
          "alt_name:mk": "Република Кина",
          "alt_name:ml": "തായ്വാൻ",
          "alt_name:mn": "Бүгд Найрамдах Хятад Улс",
          "alt_name:mr": "चीनचे प्रजासत्ताक",
          "alt_name:ms": "Republik China di Taiwan",
          "alt_name:my": "တရုတ်သမ္မတနိုင်ငံ",
          "alt_name:na": "Republik Tsiene",
          "alt_name:ne": "चीनी गणराज्य",
          "alt_name:nl": "Republiek China",
          "alt_name:nn": "Republikken Kina",
          "alt_name:no": "Republikken Kina",
          "alt_name:oc": "Republica de China",
          "alt_name:or": "ତାଇୱାନ",
          "alt_name:os": "Китайы Республикæ",
          "alt_name:pa": "ਚੀਨ ਗਣਰਾਜ",
          "alt_name:pl": "Republika Chińska",
          "alt_name:ps": "د چين جمهوريت",
          "alt_name:pt": "República da China",
          "alt_name:qu": "Chunwa Republika",
          "alt_name:ro": "Republica Chineză",
          "alt_name:ru": "Китайская Республика",
          "alt_name:sa": "तैवान",
          "alt_name:sh": "Republika Kina",
          "alt_name:si": "තායිවානය",
          "alt_name:sm": "Lepulika o Saina",
          "alt_name:sq": "Republika e Kinës",
          "alt_name:sr": "Република Кина",
          "alt_name:sv": "Republiken Kina",
          "alt_name:sw": "Jamhuri ya China",
          "alt_name:ta": "சீனக் குடியரசு",
          "alt_name:te": "రిపబ్లిక్ ఆఫ్ చైనా",
          "alt_name:th": "สาธารณรัฐจีน",
          "alt_name:ti": "ታይዋን",
          "alt_name:tl": "Republika ng Tsina",
          "alt_name:tr": "Çin Cumhuriyeti",
          "alt_name:tt": "Кытай Җөмһүрияте",
          "alt_name:ug": "تەيۋەن",
          "alt_name:uk": "Республіка Китай",
          "alt_name:ur": "جمہوریۂ چین",
          "alt_name:vi": "Trung Hoa Dân Quốc",
          "alt_name:yi": "רעפובליק פון כינע",
          "alt_name:yo": "Orílẹ̀-èdè Olómìnira ilẹ̀ Ṣáínà",
          "alt_name:za": "Cunghvaz Minzgoz",
          "alt_name:zh": "中華民國",
          "description": "ISO3166-2 code is CN-71 or CN-TW, but not use by Taiwan Government, and the territory size is not the same as China think",
          "name:nan-HJ": "臺灣",
          "name:nan-TL": "Tâi-uân",
          "old_name:af": "Nasionaal-China",
          "old_name:ca": "Formosa",
          "old_name:de": "Nationalchina",
          "old_name:en": "Nationalist China",
          "old_name:es": "China Nacionalista",
          "old_name:et": "Rahvuslik Hiina",
          "old_name:fa": "چین ملی",
          "old_name:fr": "Formose",
          "old_name:fy": "Formosa'",
          "old_name:gd": "Formòsa",
          "old_name:io": "Formoza",
          "old_name:it": "Formosa",
          "old_name:li": "Nationalistisch Sjina",
          "old_name:nl": "Formosa",
          "old_name:oc": "Formosa",
          "old_name:pl": "Formoza",
          "old_name:sk": "Formóza",
          "old_name:so": "Formosa",
          "old_name:sq": "Formosa",
          "old_name:tl": "Formosa",
          "old_name:tr": "Formoza",
          "old_name:zh": "福爾摩沙",
          "alt_name:als": "Republik China uf Taiwan",
          "alt_name:arz": "جمهورية الصين",
          "alt_name:ast": "República de China",
          "alt_name:bar": "Republik China",
          "alt_name:bpy": "তাইৱান",
          "alt_name:bxr": "Бүгэдэ Найрамдаха Хитад Улас",
          "alt_name:cdo": "Dài-uăng",
          "alt_name:ceb": "Republika sa Tsina",
          "alt_name:chy": "Republic of China",
          "alt_name:ckb": "کۆماری چین",
          "alt_name:crh": "Çin Cumhuriyeti",
          "alt_name:diq": "Cumhuriyetê Çini",
          "alt_name:dsb": "Republika Chinskeje",
          "alt_name:ext": "Repúbrica de China",
          "alt_name:frp": "Rèpublica de Ch·ina",
          "alt_name:gag": "Kitay Respublikası",
          "alt_name:gan": "中華民國",
          "alt_name:hak": "Chûng-fà Mìn-koet",
          "alt_name:hif": "Republic of China",
          "alt_name:hsb": "Chinska republika",
          "alt_name:kbd": "Хъутей Республикэ",
          "alt_name:lad": "Repuvlika de Kina",
          "alt_name:lmo": "Taiwan",
          "alt_name:lrc": "تایڤان",
          "alt_name:lzh": "中華民國",
          "alt_name:nan": "Tiong-hoâ Bîn-kok",
          "alt_name:nds": "Republiek China",
          "alt_name:nov": "Republike de China",
          "alt_name:pam": "Republika ning Tsina",
          "alt_name:pap": "Republika di China",
          "alt_name:pnb": "تائیوان",
          "alt_name:sah": "Кытай Республиката",
          "alt_name:sco": "Republic o Cheenae",
          "alt_name:szl": "Chińskŏ Republika",
          "alt_name:tpi": "Ripablik bilong Saina",
          "alt_name:vec": "Republica de Cina",
          "alt_name:vro": "Hiina Vabariik",
          "alt_name:war": "Republika han Tsina",
          "alt_name:xal": "Китдин Орн",
          "alt_name:yue": "中華民國",
          "name:cbk-zam": "Taiwán",
          "name:nan-POJ": "Tâi-oân",
          "name:zh-Hans": "台湾",
          "name:zh-Hant": "臺灣",
          "old_name:als": "Nationalchina",
          "old_name:bar": "Nationalkina",
          "old_name:ceb": "Nasyonalistang Tsina",
          "old_name:chy": "Formosa",
          "old_name:nan": "Hô-jú-mô͘-sa",
          "old_name:pms": "Formòsa",
          "old_name:scn": "Formosa",
          "old_name:szl": "Formoza",
          "old_name:vls": "Formosa",
          "old_name:zea": "Formosa",
          "official_name": "中華民國",
          "short_name:en": "TW",
          "short_name:zh": "台",
          "alt_name:zh-HK": "中華民國",
          "name:be-tarask": "Тайва́нь",
          "name:zh_pinyin": "Táiwān",
          "alt_name:nan-HJ": "中華民國",
          "alt_name:nan-TL": "Tiong-huâ-bîn-kok",
          "old_name:nan-HJ": "福爾摩沙",
          "old_name:nan-TL": "Hō-jú-môo-sa",
          "ISO3166-1:alpha2": "TW",
          "ISO3166-1:alpha3": "TWN",
          "alt_name:nan-POJ": "Tiong-hoâ Bîn-kok",
          "alt_name:zh-Hans": "中华民国",
          "alt_name:zh-Hant": "中華民國",
          "default_language": "zh",
          "official_name:af": "Republiek van Sjina",
          "official_name:am": "የቻይና ሪፐብሊክ",
          "official_name:an": "Republica de China",
          "official_name:ar": "جمهورية الصين",
          "official_name:as": "চীন প্ৰজাতন্ত্ৰ",
          "official_name:az": "Çin Respublikası",
          "official_name:be": "Рэспубліка Кітай",
          "official_name:bg": "Република Китай",
          "official_name:bh": "चीन गणराज्य",
          "official_name:bn": "প্রজাতন্ত্রী চীন",
          "official_name:bo": "ཐའེ་ཝན།",
          "official_name:br": "Republik Sina",
          "official_name:bs": "Republika Kina",
          "official_name:ca": "República de la Xina",
          "official_name:cs": "Čínská republika",
          "official_name:cy": "Gweriniaeth Tsieina",
          "official_name:da": "Republikken Kina",
          "official_name:de": "Republik China",
          "official_name:dv": "ޖުމްހޫރީ ޗައިނާ",
          "official_name:dz": "ཏའི་ཝཱན་",
          "official_name:el": "Δημοκρατία της Κίνας",
          "official_name:en": "Republic of China",
          "official_name:eo": "Respubliko Ĉinio",
          "official_name:es": "República de China",
          "official_name:et": "Hiina Vabariik",
          "official_name:eu": "Txinako Errepublika",
          "official_name:fa": "جمهوری چین",
          "official_name:fi": "Kiinan tasavalta",
          "official_name:fo": "Lýðveldið Kina",
          "official_name:fr": "République de Chine",
          "official_name:ga": "Poblacht na Síne",
          "official_name:gd": "Poblachd na Sìne",
          "official_name:gl": "República da China",
          "official_name:gn": "Tavakuairetã Chína",
          "official_name:gu": "ચીની ગણતંત્ર",
          "official_name:gv": "Pobblaght ny Sheen",
          "official_name:he": "הרפובליקה הסינית",
          "official_name:hi": "चीनी गणराज्य",
          "official_name:hr": "Republika Kina",
          "official_name:hu": "Kínai Köztársaság",
          "official_name:hy": "Չինաստանի Հանրապետություն",
          "official_name:ia": "Republica de China",
          "official_name:id": "Republik Tiongkok",
          "official_name:ie": "Republica de China",
          "official_name:io": "Republiko di Chinia",
          "official_name:is": "Lýðveldið Kína",
          "official_name:it": "Repubblica di Cina",
          "official_name:ja": "中華民国",
          "official_name:jv": "Républik Cina",
          "official_name:ka": "ჩინეთის რესპუბლიკა",
          "official_name:km": "សាធារណរដ្ឋចិន",
          "official_name:kn": "ಚೀನಿ ಗಣರಾಜ್ಯ",
          "official_name:ko": "중화민국",
          "official_name:ku": "Komara Çînê",
          "official_name:kw": "Repoblek China",
          "official_name:ky": "Кытай Республикасы",
          "official_name:la": "Res publica Sinarum",
          "official_name:lb": "Republik China",
          "official_name:li": "Republiek China",
          "official_name:lo": "ສາທາລະນະລັດຈີນ",
          "official_name:lt": "Kinijos Respublika",
          "official_name:lv": "Ķīnas Republika",
          "official_name:mg": "Repoblika an'i Sina",
          "official_name:mi": "Tūwehe o Haina",
          "official_name:mk": "Република Кина",
          "official_name:ml": "റിപ്പബ്ലിക് ഓഫ് ചൈന",
          "official_name:mn": "Бүгд Найрамдах Хятад Улс",
          "official_name:mr": "चीनचे प्रजासत्ताक",
          "official_name:ms": "Republik China di Taiwan",
          "official_name:my": "တရုတ်သမ္မတနိုင်ငံ",
          "official_name:na": "Republik Tsiene",
          "official_name:ne": "गणतन्त्र चीन",
          "official_name:nl": "Republiek China",
          "official_name:nn": "Republikken Kina",
          "official_name:no": "Republikken Kina",
          "official_name:oc": "Republica de China",
          "official_name:or": "ତାଇୱାନ",
          "official_name:os": "Китайы Республикæ",
          "official_name:pa": "ਚੀਨ ਗਣਰਾਜ",
          "official_name:pl": "Republika Chińska",
          "official_name:ps": "چین جمهوریت",
          "official_name:pt": "República da China",
          "official_name:qu": "Chunwa Republika",
          "official_name:ro": "Republica Chineză",
          "official_name:ru": "Китайская Республика",
          "official_name:sa": "तैवान",
          "official_name:sh": "Republika Kina",
          "official_name:si": "චීන සමූහාණ්ඩුව",
          "official_name:sk": "Čínska republika",
          "official_name:sl": "Republika Kitajska",
          "official_name:sm": "Lepulika o Saina",
          "official_name:sq": "Republika e Kinës",
          "official_name:sr": "Република Кина",
          "official_name:su": "Républik Tiongkok",
          "official_name:sv": "Republiken Kina",
          "official_name:sw": "Jamhuri ya China",
          "official_name:ta": "சீனக் குடியரசு",
          "official_name:te": "తైవాన్",
          "official_name:tg": "Ҷумҳурии Чин",
          "official_name:th": "สาธารณรัฐจีน",
          "official_name:tl": "Republika ng Tsina",
          "official_name:tr": "Çin Cumhuriyeti",
          "official_name:tt": "Кытай Республикасы",
          "official_name:ug": "تەيۋەن",
          "official_name:uk": "Респу́бліка Кита́й",
          "official_name:ur": "جمہوریۂ چین",
          "official_name:uz": "Xitoy Respublikasi",
          "official_name:vi": "Trung Hoa Dân Quốc",
          "official_name:vo": "Repüblik Tsyinäna",
          "official_name:wo": "Republik bu Ciin",
          "official_name:yi": "רעפובליק פון כינע",
          "official_name:yo": "Orílẹ̀-èdè Olómìnira ilẹ̀ Ṣáínà",
          "official_name:za": "Cunghvaz Minzgoz",
          "official_name:zh": "中華民國",
          "old_name:nan-POJ": "Hô-jú-mô͘-sa",
          "old_name:zh-Hant": "福爾摩沙",
          "ISO3166-1:numeric": "158",
          "alt_short_name:cs": "ROC",
          "alt_short_name:en": "ROC",
          "alt_short_name:gv": "PNC",
          "alt_short_name:ia": "ROC",
          "alt_short_name:it": "RDC",
          "alt_short_name:pt": "RC",
          "alt_short_name:uk": "РК",
          "official_name:als": "Republik China",
          "official_name:arz": "جمهورية الصين",
          "official_name:ast": "República de China",
          "official_name:azb": "چین جمهوریتی",
          "official_name:bar": "Republik Kina",
          "official_name:bpy": "তাইৱান",
          "official_name:bxr": "Бүгэдэ Найрамдаха Хитад Улас",
          "official_name:cdo": "Dṳ̆ng-huà Mìng-guók",
          "official_name:ceb": "Republika sa Tsina",
          "official_name:chy": "Republic of China",
          "official_name:ckb": "کۆماری چین",
          "official_name:crh": "Çin Cumhuriyeti",
          "official_name:csb": "Repùblika Chińskô",
          "official_name:diq": "Cumhuriyetê Çini",
          "official_name:dsb": "Republika Chinskeje",
          "official_name:ext": "Repúbrica de China",
          "official_name:frp": "Rèpublica de Ch·ina",
          "official_name:frr": "Sjineesk Republiik",
          "official_name:gag": "Kitay Respublikası",
          "official_name:gan": "中華民國",
          "official_name:hak": "Chûng-fà Mìn-koet",
          "official_name:hif": "Republic of China",
          "official_name:hsb": "Chinska republika",
          "official_name:ilo": "Republika ti Tsina",
          "official_name:jam": "Ripoblik a Chaina",
          "official_name:kbd": "Хъутей Республикэ",
          "official_name:lad": "Repuvlika de Kina",
          "official_name:lij": "Repubbrica da Cinn-a",
          "official_name:lmo": "Republega de Cina",
          "official_name:lzh": "中華民國",
          "official_name:min": "Republik Cino",
          "official_name:myv": "Китайень Республикась",
          "official_name:nah": "Tlācatlahtohcayōtl China",
          "official_name:nan": "Tiong-hoâ Bîn-kok",
          "official_name:nds": "Republiek China",
          "official_name:nov": "Republike de China",
          "official_name:pam": "Republika ning Tsina",
          "official_name:pap": "Republika di China",
          "official_name:pcd": "Républike Kine",
          "official_name:pnb": "لوکراج چین",
          "official_name:sah": "Кытай Өрөспүүбүлүкэтэ",
          "official_name:scn": "Ripùbblica di Cina",
          "official_name:sco": "Republic o Cheenae",
          "official_name:stq": "Republik China",
          "official_name:szl": "Chińskŏ Republika",
          "official_name:tpi": "Ripablik bilong Saina",
          "official_name:vec": "Republica de Cina",
          "official_name:vls": "Republiek China",
          "official_name:vro": "Hiina Vabariik",
          "official_name:war": "Republika han Tsina",
          "official_name:wuu": "中华民国",
          "official_name:xal": "Китдин Орн",
          "official_name:xmf": "ჩინეთიშ რესპუბლიკა",
          "official_name:yue": "中華民國",
          "alt_name:be-tarask": "Рэспубліка Кітай",
          "alt_short_name:ceb": "RT",
          "alt_short_name:frr": "ROC",
          "alt_short_name:hif": "ROC",
          "alt_short_name:ilo": "ROC",
          "alt_short_name:sco": "ROC",
          "official_name:nan-HJ": "中華民國",
          "official_name:nan-TL": "Tiong-huâ Bîn-kok",
          "official_name:nan-POJ": "Tiong-hoâ Bîn-kok",
          "official_name:zh-Hans": "中华民国",
          "official_name:zh-Hant": "中華民國",
          "official_name:be-tarask": "Рэспу́бліка Кіта́й"
        }
      },
      "geometry": {
        "type": "Polygon",
        "coordinates": [
          [
            [
              120,
              24
            ],
            [
              121,
              24
            ],
            [
              121,
              25
            ],
            [
              120.66840158844767,
              25
            ],
            [
              120,
              24.441654885404102
            ],
            [
              120,
              24
            ]
          ]
        ]
      }
    }
  ]
}