{
  "type": "FeatureCollection",
  "features": [
    {
      "type": "Feature",
      "properties": {
        "osm_id": -536807,
        "boundary": "administrative",
        "admin_level": 2,
        "parents": null,
        "name": "Sri Lanka",
        "local_name": "ශ්‍රී ලංකාව இலங்கை",
        "name_en": "Sri Lanka",
        "all_tags": {
          "flag": "http://upload.wikimedia.org/wikipedia/commons/1/11/Flag_of_Sri_Lanka.svg",
          "name": "ශ්‍රී ලංකාව இலங்கை",
          "name:af": "Sri Lanka",
          "name:am": "ሽሪ ላንካ",
          "name:an": "Sri Lanka",
          "name:ar": "سريلانكا",
          "name:az": "Şri-Lanka",
          "name:ba": "Шри-Ланка",
          "name:be": "Шры-Ланка",
          "name:bg": "Шри Ланка",
          "name:bn": "শ্রীলঙ্কা",
          "name:bo": "སེང་ག་གླིང་།",
          "name:br": "Sri Lanka",
          "name:bs": "Šri Lanka",
          "name:ca": "Sri Lanka",
          "name:cs": "Šrí Lanka",
          "name:cv": "Шри-Ланка",
          "name:cy": "Sri Lanka",
          "name:da": "Sri Lanka",
          "name:de": "Sri Lanka",
          "name:dv": "އޮޅުދޫކަރަ",
          "name:dz": "ཤྲཱྀ་ལངཀ་",
          "name:el": "Σρι Λάνκα",
          "name:en": "Sri Lanka",
          "name:eo": "Sri-Lanko",
          "name:es": "Sri Lanka",
          "name:et": "Sri Lanka",
          "name:eu": "Sri Lanka",
          "name:fa": "سری‌لانکا",
          "name:fi": "Sri Lanka",
          "name:fo": "Sri Lanka",
          "name:fr": "Sri Lanka",
          "name:fy": "Sry Lanka",
          "name:ga": "Srí Lanca",
          "name:gd": "Sri Lanca",
          "name:gl": "Sri Lanka - Sri Lankā",
          "name:gn": "Seilãu",
          "name:gu": "શ્રીલંકા",
          "name:gv": "Sri Lanka",
          "name:he": "סרי לנקה",
          "name:hi": "श्रीलंका",
          "name:hr": "Šri Lanka",
          "name:ht": "Srilanka",
          "name:hu": "Srí Lanka",
          "name:hy": "Շրի Լանկա",
          "name:ia": "Sri Lanka",
          "name:id": "Sri Lanka",
          "name:ie": "Sri Lanka",
          "name:io": "Sri Lanka",
          "name:is": "Srí Lanka",
          "name:it": "Sri Lanka",
          "name:ja": "スリランカ",
          "name:jv": "Sri Lanka",
          "name:ka": "შრი-ლანკა",
          "name:ki": "Sri Lanka",
          "name:kk": "Шри-Ланка",
          "name:km": "ស្រីលង្កា",
          "name:kn": "ಶ್ರೀಲಂಕಾ",
          "name:ko": "스리랑카",
          "name:ku": "Srî Lanka",
          "name:kv": "Шри-Ланка",
          "name:kw": "Shri Lanka",
          "name:la": "Taprobane",
          "name:lb": "Sri Lanka",
          "name:li": "Sri Lanka",
          "name:ln": "Sri Lanka",
          "name:lt": "Šri Lanka",
          "name:lv": "Šrilanka",
          "name:mg": "Sri Lanka",
          "name:mi": "Hīraka",
          "name:mk": "Шри Ланка",
          "name:ml": "ശ്രീലങ്ക",
          "name:mn": "Шри Ланка",
          "name:mr": "श्रीलंका",
          "name:ms": "Sri Lanka",
          "name:mt": "Sri Lanka",
          "name:my": "သီရိလင်္ကာနိုင်ငံ",
          "name:na": "Sri Lanka",
          "name:ne": "श्रीलंका",
          "name:nl": "Sri Lanka",
          "name:nn": "Sri Lanka",
          "name:no": "Sri Lanka",
          "name:nv": "Swii Lankʼa",
          "name:oc": "Sri Lanka",
          "name:om": "Sirilaankaa",
          "name:or": "ଶ୍ରୀଲଙ୍କା",
          "name:os": "Шри-Ланка",
          "name:pa": "ਸ੍ਰੀਲੰਕਾ",
          "name:pl": "Sri Lanka",
          "name:ps": "سریلانکا",
          "name:pt": "Seri-Lanca",
          "name:qu": "Sri Lanka",
          "name:ro": "Sri Lanka",
          "name:ru": "Шри-Ланка",
          "name:rw": "Siri Lanka",
          "name:sa": "श्रीलङ्का",
          "name:se": "Sri Lanka",
          "name:sh": "Šri Lanka",
          "name:si": "ශ්‍රී ලංකාව",
          "name:sk": "Srí Lanka",
          "name:sl": "Šrilanka",
          "name:sm": "Sri Lanka",
          "name:so": "Siri Lanka",
          "name:sq": "Sri Lanka",
          "name:sr": "Шри Ланка",
          "name:ss": "Siri Lanka",
          "name:su": "Sri Langka",
          "name:sv": "Sri Lanka",
          "name:sw": "Sri Lanka",
          "name:ta": "இலங்கை",
          "name:te": "శ్రీలంక",
          "name:tg": "Шри-Ланка",
          "name:th": "ประเทศศรีลังกา",
          "name:tk": "Şri-Lanka",
          "name:tl": "Sri Lanka",
          "name:tr": "Sri Lanka",
          "name:tt": "Шри-Ланка",
          "name:ug": "سرىلانكا",
          "name:uk": "Шрі-Ланка",
          "name:ur": "سری لنکا",
          "name:uz": "Shri-Lanka",
          "name:vi": "Sri Lanka",
          "name:vo": "Sri-Lankän",
          "name:wo": "Siri Laanka",
          "name:yi": "סרי לאנקא",
          "name:yo": "Sri Lanka",
          "name:zh": "斯里兰卡 / 斯里蘭卡",
          "alt_name": "Ceylon",
          "boundary": "administrative",
          "name:ace": "Srilanka",
          "name:als": "Sri Lanka",
          "name:ang": "Tāprabane",
          "name:arz": "سريلانكا",
          "name:ast": "Sri Lanka",
          "name:bar": "Sri Lanka",
          "name:bcl": "Sri Lanka",
          "name:bpy": "শ্রীলঙ্কা",
          "name:bug": "Sri Lanka",
          "name:bxr": "Шри Ланка",
          "name:ceb": "Sri Lanka",
          "name:ckb": "سریلانکا",
          "name:crh": "Şri Lanka",
          "name:csb": "Sri Lanka",
          "name:din": "Thirïlɛŋkä",
          "name:diq": "Sri Lanka",
          "name:ext": "Sri Lanka",
          "name:frp": "Sri Lanka",
          "name:fur": "Sri Lanka",
          "name:gag": "Şri Lanka",
          "name:hak": "Sṳ̂-lî-làn-khà",
          "name:haw": "Sililanaka",
          "name:hif": "Sri Lanka",
          "name:hsb": "Sri Lanka",
          "name:ilo": "Sri Lanka",
          "name:jbo": "srilankas",
          "name:kab": "Sri Lanka",
          "name:lez": "Шри-Ланка",
          "name:lij": "Sri Lanka",
          "name:lmo": "Sri Lanka",
          "name:mhr": "Шри-Ланка",
          "name:nah": "Sri Lanca",
          "name:nan": "Sri Lanka",
          "name:nds": "Sri Lanka",
          "name:new": "श्रीलङ्का",
          "name:nov": "Sri Lanka",
          "name:pam": "Sri Lanka",
          "name:pih": "Sri Lanka",
          "name:pms": "Sri Lanka",
          "name:pnb": "سری لنکا",
          "name:sah": "Сри Ланка",
          "name:scn": "Sri Lanka",
          "name:sco": "Sri Lanka",
          "name:smn": "Sri Lanka",
          "name:sms": "Sri Lanka",
          "name:szl": "Sri Lanka",
          "name:tzl": "Sri Lanka",
          "name:udm": "Шри-Ланка",
          "name:vro": "Sri Lanka",
          "name:war": "Sri Lanka",
          "name:wuu": "斯里兰卡",
          "name:xal": "Сриланкудин Улс Орн",
          "name:xmf": "შრი-ლანკა",
          "name:yue": "斯里蘭卡",
          "timezone": "Asia/Colombo",
          "way_area": "7.96051",
          "wikidata": "Q854",
          "ISO3166-1": "LK",
          "wikipedia": "cs:Srí Lanka",
          "admin_level": "2",
          "alt_name:en": "Lanka",
          "alt_name:eo": "Srilanko",
          "alt_name:es": "Ceilán",
          "alt_name:fr": "Ceylan",
          "alt_name:hi": "लंका",
          "alt_name:ja": "セイロン",
          "alt_name:ko": "실론",
          "alt_name:ru": "Цейлон",
          "alt_name:si": "ලංකා",
          "alt_name:ta": "சிலோன்",
          "alt_name:th": "ศรีลังกา",
          "border_type": "nation",
          "driving_side": "left",
          "name:bat-smg": "Šri Lanka",
          "name:zh-Hans": "斯里兰卡",
          "name:zh-Hant": "斯里蘭卡",
          "short_name:cs": "Šrí Lanka",
          "name:be-tarask": "Шры-Ланка",
          "ISO3166-1:alpha2": "LK",
          "ISO3166-1:alpha3": "LKA",
          "alt_name:zh-Hans": "锡兰",
          "alt_name:zh-Hant": "錫蘭",
          "official_name:cs": "Šrílanská demokratická socialistická republika",
          "official_name:de": "Democratische Socialistische Republiek Sri Lanka",
          "official_name:en": "Democratic Socialist Republic of Sri Lanka",
          "official_name:es": "República Democrática Socialista de Sri Lanka",
          "official_name:fr": "République socialiste démocratique du Sri Lanka",
          "official_name:gn": "Tavakuairetã Jekopytyjojápe Socialista Sri Lanka",
          "official_name:ja": "スリランカ民主社会主義共和国",
          "official_name:ko": "스리랑카 민주 사회주의 공화국",
          "official_name:pa": "ਸ਼੍ਰੀਲੰਕਾ ਦਾ ਲੋਕਤੰਤਰੀ ਸਮਾਜਵਾਦੀ ਗਣਰਾਜ",
          "official_name:pt": "República Democrática Socialista do Sri Lanka",
          "official_name:ru": "Демократическая Социалистическая Республика Шри-Ланка",
          "official_name:si": "ශ්‍රී ලංකා ප්‍රජාතාන්ත්‍රික සමාජවාදී ජනරජය",
          "official_name:ta": "இலங்கை ஜனநாயக சோசலிச குடியரசு",
          "ISO3166-1:numeric": "144",
          "official_name:zh-Hans": "斯里兰卡民主社会主义共和国",
          "official_name:zh-Hant": "斯里蘭卡民主社會主義共和國"
        }
      },
      "geometry": {
        "type": "Polygon",
        "coordinates": [
          [
            [
              79.6386952,
              6.933
            ],
            [
              79.6388779,
              6.927
            ],
            [
              79.6392425,
              6.921
            ],
            [
              79.6400133,
              6.913
            ],
            [
              79.641788,
              6.901
            ],
            [
              79.6433921,
              6.893
            ],
            [
              79.6463625,
              6.881
            ],
            [
              79.6492465,
              6.871
            ],
            [
              79.653403,
              6.859
            ],
            [
              79.6580037,
              6.841
            ],
            [
              79.6596933,
              6.833
            ],
            [
              79.6599542,
              6.831
            ],
            [
              79.660562,
              6.819
            ],
            [
              79.66114,
              6.813
            ],
            [
              79.6628519,
              6.801
            ],
            [
              79.6646771,
              6.791
            ],
            [
              79.665944,
              6.785
            ],
            [
              79.6719714,
              6.761
            ],
            [
              79.6736405,
              6.755
            ],
            [
              79.6761761,
              6.747
            ],
            [
              79.6797395,
              6.737
            ],
            [
              79.6823433,
              6.727
            ],
            [
              79.6861475,
              6.715
            ],
            [
              79.6891595,
              6.707
            ],
            [
              79.6940606,
              6.695
            ],
            [
              79.7038097,
              6.669
            ],
            [
              79.7072488,
              6.657
            ],
            [
              79.7092199,
              6.651
            ],
            [
              79.7114052,
              6.645
            ],
            [
              79.7164252,
              6.633
            ],
            [
              79.7238341,
              6.617
            ],
            [
              79.7300251,
              6.605
            ],
            [
              79.7366261,
              6.593
            ],
            [
              79.7491242,
              6.565
            ],
            [
              79.7528033,
              6.555
            ],
            [
              79.7600078,
              6.537
            ],
            [
              79.7624888,
              6.529
            ],
            [
              79.7668111,
              6.513
            ],
            [
              79.7692991,
              6.505
            ],
            [
              79.7739546,
              6.489
            ],
            [
              79.7734317,
              6.481
            ],
            [
              79.7732323,
              6.471
            ],
            [
              79.773468,
              6.455
            ],
            [
              79.774075,
              6.445
            ],
            [
              79.775191,
              6.435
            ],
            [
              79.7764559,
              6.427
            ],
            [
              79.7785126,
              6.417
            ],
            [
              79.7805489,
              6.409
            ],
            [
              79.7842812,
              6.397
            ],
            [
              79.7880442,
              6.387
            ],
            [
              79.7930985,
              6.375
            ],
            [
              79.7966556,
              6.367
            ],
            [
              79.800064,
              6.36
            ],
            [
              79.8032365,
              6.354
            ],
            [
              79.8077996,
              6.342
            ],
            [
              79.812186,
              6.332
            ],
            [
              79.8153233,
              6.32
            ],
            [
              79.8189,
              6.308
            ],
            [
              79.8208696,
              6.302
            ],
            [
              79.8230533,
              6.296
            ],
            [
              79.8254588,
              6.29
            ],
            [
              79.8280947,
              6.284
            ],
            [
              79.8314747,
              6.277
            ],
            [
              79.8320914,
              6.275
            ],
            [
              79.8323242,
              6.273
            ],
            [
              79.832366,
              6.265
            ],
            [
              79.8328716,
              6.255
            ],
            [
              79.8341069,
              6.243
            ],
            [
              79.8353296,
              6.235
            ],
            [
              79.836467,
              6.229
            ],
            [
              79.8382837,
              6.221
            ],
            [
              79.8398767,
              6.215
            ],
            [
              79.8452614,
              6.197
            ],
            [
              79.8480766,
              6.189
            ],
            [
              79.850444,
              6.183
            ],
            [
              79.853915,
              6.175
            ],
            [
              79.8588474,
              6.165
            ],
            [
              79.8639053,
              6.156
            ],
            [
              79.8662526,
              6.146
            ],
            [
              79.8678357,
              6.14
            ],
            [
              79.8695631,
              6.134
            ],
            [
              79.8729041,
              6.124
            ],
            [
              79.8768503,
              6.114
            ],
            [
              79.8795247,
              6.108
            ],
            [
              79.8829518,
              6.101
            ],
            [
              79.886728,
              6.094
            ],
            [
              79.8927752,
              6.084
            ],
            [
              79.8982167,
              6.076
            ],
            [
              79.903465,
              6.069
            ],
            [
              79.9133783,
              6.057
            ],
            [
              79.916797,
              6.049
            ],
            [
              79.9196313,
              6.043
            ],
            [
              79.9248483,
              6.033
            ],
            [
              79.9308152,
              6.023
            ],
            [
              79.9368972,
              6.014
            ],
            [
              79.9413656,
              6.008
            ],
            [
              79.9478959,
              6
            ],
            [
              80,
              6
            ],
            [
              80,
              7
            ],
            [
              79.64791053,
              7
            ],
            [
              79.6476616,
              6.999
            ],
            [
              79.6453213,
              6.987
            ],
            [
              79.6443038,
              6.983
            ],
            [
              79.6421415,
              6.973
            ],
            [
              79.6407948,
              6.965
            ],
            [
              79.6400035,
              6.959
            ],
            [
              79.639579,
              6.955
            ],
            [
              79.638874,
              6.945
            ],
            [
              79.6386952,
              6.933
            ]
          ]
        ]
      }
    }
  ]
}