{
  "type": "FeatureCollection",
  "features": [
    {
      "type": "Feature",
      "properties": {
        "osm_id": -192778,
        "boundary": "administrative",
        "admin_level": 2,
        "parents": null,
        "name": "Guinea",
        "local_name": "Guinée",
        "name_en": "Guinea",
        "all_tags": {
          "flag": "http://upload.wikimedia.org/wikipedia/commons/e/ed/Flag_of_Guinea.svg",
          "name": "Guinée",
          "name:af": "Guinee",
          "name:am": "ጊኔ",
          "name:an": "Guinea",
          "name:ar": "غينيا",
          "name:az": "Qvineya",
          "name:ba": "Гвинея",
          "name:be": "Гвінея",
          "name:bg": "Гвинея",
          "name:bm": "Gine",
          "name:bn": "গিনি",
          "name:bo": "གི་ནེ།",
          "name:br": "Ginea",
          "name:bs": "Gvineja",
          "name:ca": "República de Guinea",
          "name:ce": "Гвине",
          "name:cs": "Guinea",
          "name:cv": "Гвиней",
          "name:cy": "Guinée",
          "name:da": "Guinea",
          "name:de": "Guinea",
          "name:dv": "ގީނިއާ",
          "name:ee": "Guinea",
          "name:el": "Γουινέα",
          "name:en": "Guinea",
          "name:eo": "Gvineo",
          "name:es": "Guinea",
          "name:et": "Guinea",
          "name:eu": "Ginea",
          "name:fa": "گینه",
          "name:ff": "Gine",
          "name:fi": "Guinea",
          "name:fo": "Guinea",
          "name:fr": "Guinée",
          "name:fy": "Guinee",
          "name:ga": "An Ghuine",
          "name:gd": "Gini",
          "name:gl": "Guinea",
          "name:gn": "Ginéa",
          "name:gv": "Yn Ghuinea",
          "name:ha": "Gine",
          "name:he": "גינאה",
          "name:hi": "गिनी",
          "name:hr": "Gvineja",
          "name:ht": "Gine",
          "name:hu": "Guinea",
          "name:hy": "Գվինեա",
          "name:ia": "Guinea",
          "name:id": "Guinea",
          "name:ie": "Guinea",
          "name:io": "Guinea",
          "name:is": "Gínea",
          "name:it": "Guinea",
          "name:ja": "ギニア",
          "name:jv": "Guinea",
          "name:ka": "გვინეა",
          "name:kg": "Ginea",
          "name:kk": "Гвинея",
          "name:ko": "기니",
          "name:ku": "Gîne",
          "name:kw": "Gyni",
          "name:ky": "Гвинея",
          "name:la": "Guinea",
          "name:lb": "Guinea",
          "name:li": "Guinee",
          "name:ln": "Gine-Konakry",
          "name:lt": "Gvinėja",
          "name:lv": "Gvineja",
          "name:mi": "Kini",
          "name:mk": "Гвинеја",
          "name:ml": "ഗിനി",
          "name:mn": "Гвиней",
          "name:mr": "गिनी",
          "name:ms": "Guinea",
          "name:my": "ဂီနီနိုင်ငံ",
          "name:na": "Gini",
          "name:ne": "गिनी",
          "name:nl": "Guinee",
          "name:nn": "Guinea",
          "name:no": "Guinea",
          "name:nv": "Gíní",
          "name:oc": "Guinèa",
          "name:or": "ଗିନି",
          "name:os": "Гвиней",
          "name:pa": "ਗਿਨੀ",
          "name:pl": "Gwinea",
          "name:pt": "Guiné",
          "name:qu": "Khiniya",
          "name:ro": "Guineea",
          "name:ru": "Гвинея",
          "name:rw": "Gineya",
          "name:sa": "गिनी",
          "name:sc": "Guinea",
          "name:se": "Guinea",
          "name:sg": "Ginëe",
          "name:sh": "Gvineja",
          "name:sk": "Guinea",
          "name:sl": "Gvineja",
          "name:sm": "Guinea",
          "name:sn": "Guinea",
          "name:so": "Guinea",
          "name:sq": "Guinea",
          "name:sr": "Гвинеја",
          "name:ss": "IGiniya",
          "name:st": "Guinea",
          "name:su": "Guinéa",
          "name:sv": "Guinea",
          "name:sw": "Guinea",
          "name:ta": "கினி",
          "name:tg": "Гвинея",
          "name:th": "ประเทศกินี",
          "name:tk": "Gwineýa",
          "name:tl": "Ginea",
          "name:tr": "Gine",
          "name:ts": "Gineya",
          "name:tt": "Гвинея",
          "name:ug": "ۋىنېيە",
          "name:uk": "Ґвінея",
          "name:ur": "جمہوریہ گنی",
          "name:uz": "Gvineya",
          "name:vi": "Guinée",
          "name:vo": "Gineyän",
          "name:wo": "Gine",
          "name:yi": "גינע",
          "name:yo": "Guinea",
          "name:zh": "几内亚 / 畿內亞",
          "name:zu": "IGini",
          "boundary": "administrative",
          "name:ace": "Guinea",
          "name:als": "Guinea",
          "name:ang": "Guinea",
          "name:arz": "جينيا",
          "name:ast": "Guinea",
          "name:bcl": "Guineya",
          "name:bjn": "Guinea",
          "name:bpy": "গিনি",
          "name:bxr": "Гвиней",
          "name:ceb": "Guinea",
          "name:ckb": "گینێ",
          "name:crh": "Gvineya",
          "name:diq": "Gineya",
          "name:ext": "Guinea",
          "name:frp": "Guinê",
          "name:gag": "Gvineya",
          "name:hif": "Guinea",
          "name:hsb": "Gineja",
          "name:ilo": "Guinea",
          "name:lij": "Guinea",
          "name:lmo": "Guinea",
          "name:min": "Guinea",
          "name:mrj": "Гвиней",
          "name:nah": "Guinea",
          "name:nan": "Guinée",
          "name:nds": "Guinea",
          "name:new": "गिनी",
          "name:nov": "Gini",
          "name:nso": "Guinea",
          "name:pam": "Guinea",
          "name:pih": "Gini",
          "name:pms": "Guinea",
          "name:pnb": "گنی",
          "name:sah": "Гуинея",
          "name:scn": "Guinia",
          "name:sco": "Guinea",
          "name:smn": "Guinea",
          "name:sms": "Guinea",
          "name:stq": "Guinea",
          "name:szl": "Gwinyjo",
          "name:tzl": "Guineia",
          "name:vec": "Guinea",
          "name:vro": "Ginea",
          "name:war": "Guinea",
          "name:xal": "Гвинмудин Орн",
          "name:yue": "畿內亞",
          "timezone": "Africa/Conakry",
          "way_area": "21.0677",
          "wikidata": "Q1006",
          "ISO3166-1": "GN",
          "wikipedia": "en:Guinea",
          "admin_level": "2",
          "alt_name:fr": "Guinée-Conakry",
          "name:simple": "Guinea",
          "name:bat-smg": "Gvėniejė",
          "name:zh-Hans": "几内亚",
          "name:zh-Hant": "畿內亞",
          "name:be-tarask": "Гвінэя",
          "ISO3166-1:alpha2": "GN",
          "ISO3166-1:alpha3": "GIN",
          "default_language": "fr",
          "official_name:ar": "جمهورية غينيا",
          "official_name:cs": "Guinejská republika",
          "official_name:fa": "جمهوری گینه",
          "official_name:fr": "République de Guinée",
          "official_name:gn": "Tavakuairetã Ginéa",
          "official_name:pt": "República da Guiné",
          "official_name:ur": "جمہوریہ گنی",
          "ISO3166-1:numeric": "324"
        }
      },
      "geometry": {
        "type": "Polygon",
        "coordinates": [
          [
            [
              -15.5680508,
              10.6313833
            ],
            [
              -15.5679618,
              10.5998564
            ],
            [
              -15.5628616,
              10.5687357
            ],
            [
              -15.5528785,
              10.5387954
            ],
            [
              -15.5382618,
              10.5107807
            ],
            [
              -15.5371246,
              10.5089679
            ],
            [
              -15.5179689,
              10.4832671
            ],
            [
              -15.4949225,
              10.4609129
            ],
            [
              -15.4685735,
              10.4424762
            ],
            [
              -15.4395944,
              10.4284277
            ],
            [
              -15.4087241,
              10.4191267
            ],
            [
              -15.3767502,
              10.4148114
            ],
            [
              -15.3444884,
              10.4155928
            ],
            [
              -15.312762,
              10.4214518
            ],
            [
              -15.282381,
              10.4322397
            ],
            [
              -15.2541215,
              10.4476821
            ],
            [
              -15.2433316,
              10.4559184
            ],
            [
              -15.2329978,
              10.4620604
            ],
            [
              -15.2082,
              10.4828058
            ],
            [
              -15.1870792,
              10.5072173
            ],
            [
              -15.1701827,
              10.5346642
            ],
            [
              -15.1575315,
              10.5656293
            ],
            [
              -15.1502998,
              10.5980133
            ],
            [
              -15.148679,
              10.6292531
            ],
            [
              -15.1434728,
              10.625
            ],
            [
              -15.1368572,
              10.62
            ],
            [
              -15.12963,
              10.615
            ],
            [
              -15.1234165,
              10.611
            ],
            [
              -15.1116057,
              10.604
            ],
            [
              -15.1060181,
              10.601
            ],
            [
              -15.0999749,
              10.598
            ],
            [
              -15.0885977,
              10.593
            ],
            [
              -15.0778382,
              10.589
            ],
            [
              -15.0682661,
              10.586
            ],
            [
              -15.0534761,
              10.582
            ],
            [
              -15.0406291,
              10.579
            ],
            [
              -15.021012,
              10.575
            ],
            [
              -15,
              10.57176447264076
            ],
            [
              -15,
              10.956528997580786
            ],
            [
              -15.002236,
              10.955649
            ],
            [
              -15.0051543,
              10.9527587
            ],
            [
              -15.0072974,
              10.9497608
            ],
            [
              -15.0097966,
              10.9441523
            ],
            [
              -15.0214779,
              10.9315208
            ],
            [
              -15.0311055,
              10.925932
            ],
            [
              -15.0342376,
              10.9257242
            ],
            [
              -15.0360999,
              10.925267
            ],
            [
              -15.0382797,
              10.9246437
            ],
            [
              -15.0397399,
              10.9237501
            ],
            [
              -15.0411578,
              10.9214229
            ],
            [
              -15.0436339,
              10.9161864
            ],
            [
              -15.0456443,
              10.9140461
            ],
            [
              -15.0504334,
              10.910477
            ],
            [
              -15.0740264,
              10.8917638
            ],
            [
              -15.0774323,
              10.889737
            ],
            [
              -15.0823675,
              10.8877394
            ],
            [
              -15.087998,
              10.8857418
            ],
            [
              -15.0929848,
              10.8852445
            ],
            [
              -15.0972506,
              10.8855901
            ],
            [
              -15.1016794,
              10.8844185
            ],
            [
              -15.1084944,
              10.8777683
            ],
            [
              -15.2470908,
              10.7513326
            ],
            [
              -15.3416667,
              10.6666667
            ],
            [
              -15.561771,
              10.6666667
            ],
            [
              -15.5631247,
              10.6625317
            ],
            [
              -15.5680508,
              10.6313833
            ]
          ]
        ]
      }
    },
    {
      "type": "Feature",
      "properties": {
        "osm_id": -192776,
        "boundary": "administrative",
        "admin_level": 2,
        "parents": null,
        "name": "Guinea-Bissau",
        "local_name": "Guiné-Bissau",
        "name_en": "Guinea-Bissau",
        "all_tags": {
          "flag": "http://upload.wikimedia.org/wikipedia/commons/0/01/Flag_of_Guinea-Bissau.svg",
          "name": "Guiné-Bissau",
          "name:af": "Guinee-Bissau",
          "name:am": "ጊኔ-ቢሳው",
          "name:an": "Guinea-Bissau",
          "name:ar": "غينيا بيساو",
          "name:az": "Qvineya-Bisau",
          "name:ba": "Гвинея-Бисау",
          "name:be": "Гвінея-Бісау",
          "name:bg": "Гвинея-Бисау",
          "name:bm": "Gine Bisau",
          "name:bn": "গিনি-বিসাউ",
          "name:bo": "གི་ནེ་-བི་སའོ།",
          "name:br": "Ginea-Bissau",
          "name:bs": "Gvineja-Bisau",
          "name:ca": "Guinea Bissau",
          "name:ce": "Гвине-Бисау",
          "name:co": "Guinea-Bissau",
          "name:cs": "Guinea-Bissau",
          "name:cv": "Гвиней-Бисау",
          "name:cy": "Guiné-Bissau",
          "name:da": "Guinea-Bissau",
          "name:de": "Guinea-Bissau",
          "name:dv": "ގީނީ-ބިސާއޫ",
          "name:ee": "Guinea-Bissau",
          "name:el": "Γουινέα-Μπισσάου",
          "name:en": "Guinea-Bissau",
          "name:eo": "Gvineo Bisaŭa",
          "name:es": "Guinea-Bisáu",
          "name:et": "Guinea-Bissau",
          "name:eu": "Ginea-Bissau",
          "name:fa": "گینه بیسائو",
          "name:ff": "Gine-Bisaawo",
          "name:fi": "Guinea-Bissau",
          "name:fo": "Guinea-Bissau",
          "name:fr": "Guinée-Bissau",
          "name:fy": "Guinee-Bissau",
          "name:ga": "Guine-Bissau",
          "name:gd": "Gini-Bissau",
          "name:gl": "Guinea-Bisau",
          "name:gn": "Ginéa Mbisáu",
          "name:gv": "Yn Ghuinea-Bissau",
          "name:he": "גינאה ביסאו",
          "name:hi": "गिनी-बिसाऊ",
          "name:hr": "Gvineja Bisau",
          "name:ht": "Gine-Bisao",
          "name:hu": "Bissau-Guinea",
          "name:hy": "Գվինեա Բիսաու",
          "name:ia": "Guinea-Bissau",
          "name:id": "Guinea-Bissau",
          "name:ie": "Guinea-Bissau",
          "name:io": "Guinea Bisau",
          "name:is": "Gínea-Bissá",
          "name:it": "Guinea-Bissau",
          "name:ja": "ギニアビサウ",
          "name:jv": "Guinea-Bissau",
          "name:ka": "გვინეა-ბისაუ",
          "name:kg": "Ginea-Bisau",
          "name:kk": "Гвинея-Бисау",
          "name:ko": "기니비사우",
          "name:ku": "Gîne-Bissau",
          "name:kw": "Gyni-Bissaw",
          "name:ky": "Гвинея-Бисау",
          "name:la": "Guinea Bissaviensis",
          "name:lb": "Guinea-Bissau",
          "name:li": "Guinee-Bissau",
          "name:ln": "Gine-Bisau",
          "name:lt": "Bisau Gvinėja",
          "name:lv": "Gvineja-Bisava",
          "name:mi": "Kini Pihō",
          "name:mk": "Гвинеја-Бисау",
          "name:ml": "ഗിനി-ബിസൗ",
          "name:mr": "गिनी-बिसाउ",
          "name:ms": "Guinea-Bissau",
          "name:my": "ဂင်းနီဗစ်ဆောနိုင်ငံ",
          "name:na": "Gini-Bitau",
          "name:ne": "गिनी-बिसाउ",
          "name:nl": "Guinee-Bissau",
          "name:nn": "Guinea-Bissau",
          "name:no": "Guinea-Bissau",
          "name:nv": "Gíní Bisó",
          "name:oc": "Guinèa Bissau",
          "name:os": "Гвиней-Бисау",
          "name:pa": "ਗਿਨੀ-ਬਿਸਾਊ",
          "name:pl": "Gwinea Bissau",
          "name:pt": "Guiné-Bissau",
          "name:qu": "Khiniya-Wisaw",
          "name:ro": "Guineea-Bissau",
          "name:ru": "Гвинея-Бисау",
          "name:rw": "Gineya-Biso",
          "name:sc": "Guinea-Bissau",
          "name:se": "Guinea-Bissau",
          "name:sg": "Ginëe-Bisau",
          "name:sh": "Gvineja Bisau",
          "name:sk": "Guinea-Bissau",
          "name:sl": "Gvineja Bissau",
          "name:sn": "Guinea-Bissau",
          "name:so": "Guinea-Bissau",
          "name:sq": "Guinea Bisau",
          "name:sr": "Гвинеја Бисао",
          "name:ss": "IGiniya-Bhasawu",
          "name:st": "Guinea-Bissau",
          "name:su": "Guinéa-Bissau",
          "name:sv": "Guinea-Bissau",
          "name:sw": "Guinea Bisau",
          "name:ta": "கினி-பிசாவு",
          "name:tg": "Гвинея Бисау",
          "name:th": "ประเทศกินี-บิสเซา",
          "name:tk": "Gwineýa-Bisau",
          "name:tl": "Ginea-Bissau",
          "name:tr": "Gine-Bissau",
          "name:ts": "Guinea-Bissau",
          "name:tt": "Гвинея-Бисау",
          "name:ug": "گۋىنېيە بىسسائۇ",
          "name:uk": "Гвінея-Бісау",
          "name:ur": "گنی بساؤ",
          "name:uz": "Gvineya-Bissau",
          "name:vi": "Guiné-Bissau",
          "name:vo": "Gineyän-Bisauän",
          "name:wo": "Gine Bisaawóo",
          "name:yi": "גינע-ביסאו",
          "name:yo": "Guinea-Bissau",
          "name:zh": "几内亚比绍 / 幾內亞比索",
          "name:zu": "IGini Bisawu",
          "boundary": "administrative",
          "name:ace": "Guinea Bissau",
          "name:als": "Guinea-Bissau",
          "name:arz": "جينيا بيساو",
          "name:ast": "Guinea-Bisáu",
          "name:bcl": "Guineya-Bisau",
          "name:bjn": "Guinea-Bissau",
          "name:bpy": "গিনি-বিসাও",
          "name:bxr": "Гвиней-Бисау",
          "name:ceb": "Guinea-Bissau",
          "name:ckb": "گینێ بیساو",
          "name:crh": "Gvineya Bissau",
          "name:diq": "Gineya-Bisau",
          "name:ext": "Guinea-Bissau",
          "name:frp": "Guinê-Bissaou",
          "name:gag": "Gvineya Bissau",
          "name:hif": "Guinea-Bissau",
          "name:hsb": "Gineja-Bissau",
          "name:ilo": "Guinea-Bissau",
          "name:lij": "Guinea Bissau",
          "name:lmo": "Guinea-Bissau",
          "name:mrj": "Гвиней-Бисау",
          "name:mwl": "Guiné-Bissau",
          "name:nah": "Guinea Bissau",
          "name:nan": "Guiné-Bissau",
          "name:nds": "Guinea-Bissau",
          "name:nov": "Gini-Bisau",
          "name:nso": "Guinea-Bissau",
          "name:pam": "Guinea-Bissau",
          "name:pap": "Guinea-Bissau",
          "name:pih": "Gini-Bisau",
          "name:pms": "Guinea-Bissau",
          "name:pnb": "گنی بساو",
          "name:sah": "Гуинея-Биссау",
          "name:scn": "Guinia Bissau",
          "name:sco": "Guinea-Bissau",
          "name:smn": "Guinea-Bissau",
          "name:sms": "Guinea-Bissau",
          "name:stq": "Guinea-Bissau",
          "name:tet": "Giné-Bisau",
          "name:tzl": "Guineia-Bissau",
          "name:vec": "Guinea-Bissau",
          "name:vro": "Ginea-Bissau",
          "name:war": "Guinea-Bissau",
          "name:xal": "Биса Гвинмудин Орн",
          "name:yue": "畿內亞比紹",
          "timezone": "Africa/Bissau",
          "way_area": "4.43348",
          "wikidata": "Q1007",
          "ISO3166-1": "GW",
          "wikipedia": "en:Guinea-Bissau",
          "admin_level": "2",
          "name:simple": "Guinea-Bissau",
          "name:bat-smg": "Bisau Gvinėjė",
          "name:zh-Hans": "几内亚比绍",
          "name:zh-Hant": "幾內亞比索",
          "name:be-tarask": "Гвінэя-Бісаў",
          "ISO3166-1:alpha2": "GW",
          "ISO3166-1:alpha3": "GNB",
          "default_language": "pt",
          "official_name:cs": "Republika Guinea-Bissau",
          "ISO3166-1:numeric": "624"
        }
      },
      "geometry": {
        "type": "Polygon",
        "coordinates": [
          [
            [
              -16,
              10.744906969786943
            ],
            [
              -15.9116367,
              10.712563
            ],
            [
              -15.798057,
              10.6701301
            ],
            [
              -15.7828279,
              10.6651569
            ],
            [
              -15.7672473,
              10.6613798
            ],
            [
              -15.7514122,
              10.6588222
            ],
            [
              -15.7354213,
              10.6575002
            ],
            [
              -15.5934635,
              10.6514215
            ],
            [
              -15.5708333,
              10.6666667
            ],
            [
              -15.3416667,
              10.6666667
            ],
            [
              -15.2470908,
              10.7513326
            ],
            [
              -15.1084944,
              10.8777683
            ],
            [
              -15.1016794,
              10.8844185
            ],
            [
              -15.0972506,
              10.8855901
            ],
            [
              -15.0929848,
              10.8852445
            ],
            [
              -15.087998,
              10.8857418
            ],
            [
              -15.0823675,
              10.8877394
            ],
            [
              -15.0774323,
              10.889737
            ],
            [
              -15.0740264,
              10.8917638
            ],
            [
              -15.0504334,
              10.910477
            ],
            [
              -15.0456443,
              10.9140461
            ],
            [
              -15.0436339,
              10.9161864
            ],
            [
              -15.0411578,
              10.9214229
            ],
            [
              -15.0397399,
              10.9237501
            ],
            [
              -15.0382797,
              10.9246437
            ],
            [
              -15.0360999,
              10.925267
            ],
            [
              -15.0342376,
              10.9257242
            ],
            [
              -15.0311055,
              10.925932
            ],
            [
              -15.0214779,
              10.9315208
            ],
            [
              -15.0097966,
              10.9441523
            ],
            [
              -15.0072974,
              10.9497608
            ],
            [
              -15.0051543,
              10.9527587
            ],
            [
              -15.002236,
              10.955649
            ],
            [
              -15,
              10.956528997580786
            ],
            [
              -15,
              11
            ],
            [
              -16,
              11
            ],
            [
              -16,
              10.744906969786943
            ]
          ]
        ]
      }
    }
  ]
}