{
  "type": "FeatureCollection",
  "features": [
    {
      "type": "Feature",
      "properties": {
        "osm_id": -536900,
        "boundary": "administrative",
        "admin_level": 2,
        "parents": null,
        "name": "Antigua and Barbuda",
        "local_name": "Antigua and Barbuda",
        "name_en": "Antigua and Barbuda",
        "all_tags": {
          "flag": "http://upload.wikimedia.org/wikipedia/commons/8/89/Flag_of_Antigua_and_Barbuda.svg",
          "name": "Antigua and Barbuda",
          "name:af": "Antigua en Barbuda",
          "name:ak": "Antigua ne Baabuda",
          "name:am": "አንቲጋ እና ባርቡዳ",
          "name:an": "Antigua y Barbuda",
          "name:ar": "أنتيغوا وباربودا",
          "name:as": "এণ্টিগুৱা আৰু বাৰ্বুডা",
          "name:ay": "Antiwa wan Barbuda",
          "name:az": "Antiqua və Barbuda",
          "name:ba": "Антигуа һәм Барбуда",
          "name:be": "Антыгуа і Барбуда",
          "name:bg": "Антигуа и Барбуда",
          "name:bm": "Antiga-ni-Barbuda",
          "name:bn": "অ্যান্টিগুয়া ও বার্বুডা",
          "name:bo": "ཨེན་ཊི་གུའ་དང་བར་བུ་ཌ།",
          "name:br": "Antigua ha Barbuda",
          "name:bs": "Antigva i Barbuda",
          "name:ca": "Antigua i Barbuda",
          "name:ce": "Антигуа а Барбуда",
          "name:cs": "Antigua a Barbuda",
          "name:cy": "Antigwa a Barbiwda",
          "name:da": "Antigua og Barbuda",
          "name:de": "Antigua und Barbuda",
          "name:dv": "އެންޓިގުއާ އަދި ބާބިއުޑާ",
          "name:dz": "ཨན་ཊི་གུ་ཝ་ ཨེནཌ་ བྷར་བྷུ་ཌ",
          "name:ee": "Antigua and Barbuda",
          "name:el": "Αντίγκουα και Μπαρμπούντα",
          "name:en": "Antigua and Barbuda",
          "name:eo": "Antigvo-Barbudo",
          "name:es": "Antigua y Barbuda",
          "name:et": "Antigua ja Barbuda",
          "name:eu": "Antigua eta Barbuda",
          "name:fa": "آنتیگوا و باربودا",
          "name:ff": "Antiguwaa e Barbudaa",
          "name:fi": "Antigua ja Barbuda",
          "name:fo": "Antigua og Barbuda",
          "name:fr": "Antigua-et-Barbuda",
          "name:fy": "Antigûa en Barbûda",
          "name:ga": "Antigua agus Barbúda",
          "name:gd": "Antigua agus Barbuda",
          "name:gl": "Antiga e Barbuda",
          "name:gn": "Antigua ha Barbuda",
          "name:gu": "એન્ટીગુઆ અને બરબુડા",
          "name:gv": "Antigua as Barbuda",
          "name:ha": "Antigwa da Barbuba",
          "name:he": "אנטיגואה וברבודה",
          "name:hi": "अण्टीगुआ और बारबूडा",
          "name:hr": "Antigva i Barbuda",
          "name:ht": "Antigwa ak Babouda",
          "name:hu": "Antigua és Barbuda",
          "name:hy": "Անտիգուա և Բարբուդա",
          "name:ia": "Antigua e Barbuda",
          "name:id": "Antigua dan Barbuda",
          "name:ie": "Antigua e Barbuda",
          "name:io": "Antigua e Barbuda",
          "name:is": "Antígva og Barbúda",
          "name:it": "Antigua e Barbuda",
          "name:ja": "アンティグア・バーブーダ",
          "name:jv": "Antigua lan Barbuda",
          "name:ka": "ანტიგუა და ბარბუდა",
          "name:ki": "Antigua na Barbuda",
          "name:kk": "Антигуа және Барбуда",
          "name:kl": "Antigua aamma Barbuda",
          "name:km": "អង់ទីគ័រ និង​បាបុយដា",
          "name:kn": "ಆಂಟಿಗುವ ಮತ್ತು ಬಾರ್ಬುಡ",
          "name:ko": "앤티가 바부다",
          "name:ks": "اٮ۪نٹِگُوا تہٕ باربوڑا",
          "name:ku": "Antîgua û Berbûda",
          "name:kw": "Antiga ha Barbuda",
          "name:ky": "Антигуа жана Барбуда",
          "name:la": "Antiqua et Barbuda",
          "name:lb": "Antigua a Barbuda",
          "name:lg": "Antigwa ne Barabuda",
          "name:li": "Antigua en Barbuda",
          "name:ln": "Antigua mpé Barbuda",
          "name:lo": "ແອນຕີກາວ ແລະ ບາບູດາ",
          "name:lt": "Antigva ir Barbuda",
          "name:lv": "Antigva un Barbuda",
          "name:mg": "Antigua sy Barbuda",
          "name:mk": "Антигва и Барбуда",
          "name:ml": "ആന്റിഗ്വയ ആന്റ് ബാർബൂഡ",
          "name:mn": "Антигуа ба Барбуда",
          "name:mr": "अँटिगा आणि बार्बुडा",
          "name:ms": "Antigua dan Barbuda",
          "name:mt": "Antigwa u Barbuda",
          "name:my": "အင်တီဂွါနှင့် ဘာဘူဒါ",
          "name:na": "Antigua me Barbuda",
          "name:nb": "Antigua og Barbuda",
          "name:ne": "एन्टिगुआ र बर्बुडा",
          "name:nl": "Antigua en Barbuda",
          "name:nn": "Antigua og Barbuda",
          "name:no": "Antigua og Barbuda",
          "name:nv": "Antíígwa dóó Hashkʼaan Bikéyah Yázhí",
          "name:oc": "Antigua e Barbuda",
          "name:om": "Antiiguwaa fi Baarbuudaa",
          "name:or": "ଆଣ୍ଟିଗୁଆ ଓ ବରବୁଡା",
          "name:os": "Антигуæ æмæ Барбудæ",
          "name:pa": "ਐਂਟੀਗੁਆ ਅਤੇ ਬਰਬੂਡਾ",
          "name:pl": "Antigua i Barbuda",
          "name:pt": "Antígua e Barbuda",
          "name:qu": "Antiwa Barbudawan",
          "name:rm": "Antigua e Barbuda",
          "name:ro": "Antigua și Barbuda",
          "name:ru": "Антигуа и Барбуда",
          "name:rw": "Antigwa na Baribuda",
          "name:sa": "अण्टीग्वा",
          "name:sc": "Antigua e Barbuda",
          "name:se": "Antigua ja Barbuda",
          "name:sh": "Antigva i Barbuda",
          "name:si": "ඇන්ටිගුවා සහ බාබියුඩා",
          "name:sk": "Antigua a Barbuda",
          "name:sl": "Antigva in Barbuda",
          "name:sn": "Antigua and Barbuda",
          "name:so": "Antigua iyo Barbuda",
          "name:sq": "Antigua dhe Barbuda",
          "name:sr": "Антигва и Барбуда",
          "name:ss": "iBhabudi ne Anithikhu",
          "name:su": "Antigua jeung Barbuda",
          "name:sv": "Antigua och Barbuda",
          "name:sw": "Antigua na Barbuda",
          "name:ta": "அன்டிகுவா பர்புடா",
          "name:te": "ఆంటిగ్వా మరియు బార్బుడా",
          "name:tg": "Антигуаю Барбуда",
          "name:th": "แอนทีกาและบาร์บิวดา",
          "name:ti": "አንቲጓ እና ባሩዳ",
          "name:tl": "Antigua at Barbuda",
          "name:to": "Anitikua mo Palaputa",
          "name:tr": "Antigua ve Barbuda",
          "name:tt": "Антигуа һәм Барбуда",
          "name:ug": "ئانتىگۇئا ۋە باربۇدا",
          "name:uk": "Антигуа і Барбуда",
          "name:ur": "اینٹیگوا و باربوڈا",
          "name:uz": "Antigua va Barbuda",
          "name:vi": "Antigua và Barbuda",
          "name:vo": "Lantigeän e Barbudeän",
          "name:wo": "Antigua ak Barbuda",
          "name:yo": "Ántígúà àti Bàrbúdà",
          "name:za": "Antigua caeuq Barbuda",
          "name:zh": "安提瓜和巴布达 / 安提瓜巴布達",
          "name:zu": "i-Antigua and Barbuda",
          "boundary": "administrative",
          "int_name": "Antigua and Barbuda",
          "name:ace": "Antigua ngon Barbuda",
          "name:als": "Antigua und Barbuda",
          "name:ang": "Antigua and Barbuda",
          "name:arz": "أنتيجا و باربودا",
          "name:ast": "Antigua y Barbuda",
          "name:azb": "آنتیگوآ و باربودا",
          "name:bar": "Antigua und Barbuda",
          "name:bcl": "Antigwa asin Barbuda",
          "name:bpy": "এন্টিগুয়া বারো বার্বুডা",
          "name:bxr": "Антигуа ба Барбуда",
          "name:cdo": "Antigua gâe̤ng Barbuda",
          "name:ceb": "Antigua ug Barbuda",
          "name:chr": "ᎤᏪᏘ ᎠᎴ ᏆᏊᏓ",
          "name:ckb": "ئەنتیگوا و بەربوودا",
          "name:crh": "Antigua ve Barbuda",
          "name:dsb": "Antigua a Barbuda",
          "name:dty": "एन्टिगुवा र बर्बुडा",
          "name:ext": "Antígua i Barbua",
          "name:frp": "Antigoa-et-Barbuda",
          "name:frr": "Antiigua an Barbuuda",
          "name:fur": "Antigua e Barbuda",
          "name:gag": "Antigua hem Barbuda",
          "name:gom": "अँटिगा आणि बार्बुडा",
          "name:hak": "Antigua lâu Barbuda",
          "name:hif": "Antigua and Barbuda",
          "name:hsb": "Antigua a Barbuda",
          "name:ilo": "Antigua ken Barbuda",
          "name:jam": "Antiiga ah Baabyuuda",
          "name:jbo": "ntiguas.joik.barbudas",
          "name:kaa": "Antigua ha'm Barbuda",
          "name:kab": "Antigua ed Barbuda",
          "name:kbd": "Антигуэрэ Барбудэрэ",
          "name:ksh": "Antigwa un Barbuda",
          "name:lad": "Antigua i Barbuda",
          "name:lij": "Antigua e Barbuda",
          "name:lmo": "Antigua e Barbuda",
          "name:mai": "एन्टिगुआ आ बर्बुडा",
          "name:min": "Antigua jo Barbuda",
          "name:mrj": "Антигуа дӓ Барбуда",
          "name:nah": "Antigua īhuān Barbuda",
          "name:nan": "Antigua kap Barbuda",
          "name:nds": "Antigua un Barbuda",
          "name:new": "एन्टिगुवा व बार्बुडा",
          "name:nov": "Antigua e Barbuda",
          "name:olo": "Antigua da Barbuda",
          "name:pam": "Antigua at Barbuda",
          "name:pap": "Antigua y Barbuda",
          "name:pih": "Antigua a' Barbuda",
          "name:pms": "Antigua e Barbuda",
          "name:pnb": "انٹیگوا تے باربودا",
          "name:rue": "Антіґуа і Барбуда",
          "name:rup": "Antigua și Barbuda",
          "name:sah": "Антигуа уонна Барбуда",
          "name:scn": "Antigua e Barbuda",
          "name:sco": "Antigua an Barbuda",
          "name:smg": "Antėgva ė Barbuda",
          "name:smn": "Antigua já Barbuda",
          "name:sms": "Antigua da Barbuda",
          "name:szl": "Antigua i Barbuda",
          "name:tet": "Antígua no Barbuda",
          "name:vec": "Antigua e Barbuda",
          "name:vep": "Antigua da Barbud",
          "name:vro": "Antigua ja Barbuda",
          "name:war": "Antigua ngan Barbuda",
          "name:xal": "Антигуд болн Барбуд",
          "name:xmf": "ანტიგუა დო ბარბუდა",
          "name:yue": "安提瓜巴布達",
          "name:zea": "Antigua en Barbuda",
          "timezone": "America/Antigua",
          "way_area": "0.870229",
          "wikidata": "Q781",
          "ISO3166-1": "AG",
          "wikipedia": "en:Antigua and Barbuda",
          "population": "69842",
          "admin_level": "2",
          "alt_name:eo": "Antigvo kaj Barbudo",
          "alt_name:fr": "Antigue-et-Barbude",
          "alt_name:gd": "Aintìoga is Barbuda",
          "alt_name:ml": "ആന്റിഗ്വ ബർബുഡ",
          "alt_name:zh": "安地卡及巴布達",
          "alt_name:ckb": "ئانتیگوا و باربوود",
          "driving_side": "left",
          "name:zh-Hans": "安提瓜和巴布达",
          "name:zh-Hant": "安提瓜巴布達",
          "official_name": "State of Antigua and Barbuda",
          "name:be-tarask": "Антыгуа і Барбуда",
          "ISO3166-1:alpha2": "AG",
          "ISO3166-1:alpha3": "ATG",
          "default_language": "en",
          "official_name:cs": "Stát Antigua a Barbuda",
          "official_name:de": "Antigua und Barbuda",
          "official_name:en": "State of Antigua and Barbuda",
          "official_name:fa": "آنتیگوا و باربودا",
          "official_name:fr": "Antigue-et-Barbude",
          "official_name:it": "Antigua e Barbuda",
          "official_name:ka": "ანტიგუა და ბარბუდა",
          "official_name:my": "အင်တီဂွါနှင့် ဘာဘူဒါနိုင်ငံ",
          "official_name:th": "แอนทีกาและบาร์บิวดา",
          "official_name:tr": "Antigua ve Barbuda",
          "ISO3166-1:numeric": "028",
          "official_name:ckb": "کۆماری ئەنتیگوا و بەربوودا",
          "official_name:dsb": "Stat Antiguy a Barbudy",
          "official_name:vec": "Antigua e Barbuda",
          "official_name:roa-rup": "Republica Antigua și Barbuda"
        }
      },
      "geometry": {
        "type": "Polygon",
        "coordinates": [
          [
            [
              -62.47192450957997,
              17
            ],
            [
              -62,
              17
            ],
            [
              -62,
              17.892465583789626
            ],
            [
              -62.0235341,
              17.8725656
            ],
            [
              -62.0320109,
              17.8645542
            ],
            [
              -62.0373921,
              17.8589628
            ],
            [
              -62.041259,
              17.854682
            ],
            [
              -62.0555995,
              17.837437
            ],
            [
              -62.061357,
              17.8301082
            ],
            [
              -62.0678041,
              17.8209985
            ],
            [
              -62.0729987,
              17.8127956
            ],
            [
              -62.3765746,
              17.3025549
            ],
            [
              -62.3741863,
              17.28273
            ],
            [
              -62.3762529,
              17.2617825
            ],
            [
              -62.3819499,
              17.1942686
            ],
            [
              -62.3836473,
              17.1894029
            ],
            [
              -62.3887367,
              17.1721348
            ],
            [
              -62.3983399,
              17.1320789
            ],
            [
              -62.4018896,
              17.1124891
            ],
            [
              -62.4230758,
              17.0731081
            ],
            [
              -62.4328511,
              17.0514212
            ],
            [
              -62.4379847,
              17.0396036
            ],
            [
              -62.4421553,
              17.0349882
            ],
            [
              -62.4600783,
              17.0139806
            ],
            [
              -62.47192450957997,
              17
            ]
          ]
        ]
      }
    },
    {
      "type": "Feature",
      "properties": {
        "osm_id": -2202162,
        "boundary": "administrative",
        "admin_level": 2,
        "parents": null,
        "name": "France",
        "local_name": "France",
        "name_en": "France",
        "all_tags": {
          "flag": "http://upload.wikimedia.org/wikipedia/commons/c/c3/Flag_of_France.svg",
          "name": "France",
          "name:af": "Frankryk",
          "name:ak": "Frɛnkyeman",
          "name:am": "ፈረንሣይ",
          "name:an": "Francia",
          "name:ar": "فرنسا",
          "name:as": "ফ্ৰান্স",
          "name:ay": "Phransiya",
          "name:az": "Fransa",
          "name:ba": "Франция",
          "name:be": "Францыя",
          "name:bg": "Франция",
          "name:bi": "Franis",
          "name:bm": "France",
          "name:bn": "ফ্রান্স",
          "name:bo": "ཧྥ་རན་སི།",
          "name:br": "Bro-C'hall",
          "name:bs": "Francuska",
          "name:ca": "França",
          "name:ce": "Франци",
          "name:co": "Francia",
          "name:cs": "Francie",
          "name:cu": "Франкїꙗ",
          "name:cv": "Франци",
          "name:cy": "Ffrainc",
          "name:da": "Frankrig",
          "name:de": "Frankreich",
          "name:dv": "ފަރަންސޭސިވިލާތް",
          "name:dz": "ཕརཱནསི་",
          "name:ee": "France",
          "name:el": "Γαλλία",
          "name:en": "France",
          "name:eo": "Francio",
          "name:es": "Francia",
          "name:et": "Prantsusmaa",
          "name:eu": "Frantzia",
          "name:fa": "فرانسه",
          "name:ff": "Faransi",
          "name:fi": "Ranska",
          "name:fo": "Frakland",
          "name:fr": "France",
          "name:fy": "Frankryk",
          "name:ga": "An Fhrainc",
          "name:gd": "An Fhraing",
          "name:gl": "Francia",
          "name:gn": "Hyãsia",
          "name:gu": "ફ્રાન્સ",
          "name:gv": "Yn Rank",
          "name:ha": "Faransa",
          "name:he": "צרפת",
          "name:hi": "फ़्रान्स",
          "name:hr": "Francuska",
          "name:ht": "Frans",
          "name:hu": "Franciaország",
          "name:hy": "Ֆրանսիա",
          "name:ia": "Francia",
          "name:id": "Perancis",
          "name:ie": "Francia",
          "name:ii": "ꃔꇩ",
          "name:io": "Francia",
          "name:is": "Frakkland",
          "name:it": "Francia",
          "name:ja": "フランス",
          "name:jv": "Prancis",
          "name:ka": "საფრანგეთი",
          "name:kg": "Fwalansa",
          "name:ki": "Ubaranja",
          "name:kk": "Франция",
          "name:kl": "Frankrigi",
          "name:km": "បារាំង",
          "name:kn": "ಫ್ರಾನ್ಸ್",
          "name:ko": "프랑스",
          "name:ks": "فرٛانس",
          "name:ku": "Fransa",
          "name:kv": "Франция",
          "name:kw": "Pow Frynk",
          "name:ky": "Франция",
          "name:la": "Francia",
          "name:lb": "Frankräich",
          "name:lg": "Bufalansa",
          "name:li": "Frankriek",
          "name:ln": "Falansia",
          "name:lo": "ປະເທດຝະລັ່ງ",
          "name:lt": "Prancūzija",
          "name:lv": "Francija",
          "name:mg": "Frantsa",
          "name:mi": "Wīwī",
          "name:mk": "Франција",
          "name:ml": "ഫ്രാൻസ്",
          "name:mn": "Франц",
          "name:mo": "Франца",
          "name:mr": "फ्रान्स",
          "name:ms": "Perancis",
          "name:mt": "Franza",
          "name:my": "ပြင်သစ်နိုင်ငံ",
          "name:na": "Prant",
          "name:ne": "फ्रान्स",
          "name:nl": "Frankrijk",
          "name:nn": "Frankrike",
          "name:no": "Frankrike",
          "name:nv": "Dáághahii Dineʼé Bikéyah",
          "name:oc": "França",
          "name:or": "ଫ୍ରାନ୍ସ",
          "name:os": "Франц",
          "name:pa": "ਫ੍ਰਾਂਸ",
          "name:pl": "Francja",
          "name:ps": "فرانسه",
          "name:pt": "França",
          "name:qu": "Ransiya",
          "name:rm": "Frantscha",
          "name:rn": "Francia",
          "name:ro": "Franța",
          "name:ru": "Франция",
          "name:rw": "Ubufaransa",
          "name:sa": "फ्रान्सदेशः",
          "name:sc": "Frantza",
          "name:se": "Frankriika",
          "name:sg": "Farânzi",
          "name:sh": "Francuska",
          "name:si": "ප්රංශය",
          "name:sk": "Francúzsko",
          "name:sl": "Francija",
          "name:sm": "Farani",
          "name:so": "Faransiiska",
          "name:sq": "Franca",
          "name:sr": "Француска",
          "name:ss": "IFulansi",
          "name:st": "Fora",
          "name:su": "Perancis",
          "name:sv": "Frankrike",
          "name:sw": "Ufaransa",
          "name:ta": "பிரான்சு",
          "name:te": "ఫ్రాన్స్",
          "name:tg": "Фаронса",
          "name:th": "ประเทศฝรั่งเศส",
          "name:ti": "ፈረንሳይ",
          "name:tk": "Fransiýa",
          "name:tl": "Pransiya",
          "name:to": "Falanisē",
          "name:tr": "Fransa",
          "name:tt": "Франция",
          "name:ty": "Farāni",
          "name:ug": "فرانسىيە",
          "name:uk": "Франція",
          "name:ur": "فرانس",
          "name:uz": "Fransiya",
          "name:vi": "Pháp",
          "name:vo": "Fransän",
          "name:wa": "France",
          "name:wo": "Faraas",
          "name:yi": "פראנקרייך",
          "name:yo": "Fránsì",
          "name:za": "Fazgoz",
          "name:zh": "法国/法國",
          "name:zu": "IFulansi",
          "boundary": "administrative",
          "currency": "EUR",
          "int_name": "France",
          "name:ace": "Peurancih",
          "name:ang": "Francland",
          "name:arc": "ܦܪܢܣܐ",
          "name:arz": "فرنسا",
          "name:ast": "Francia",
          "name:bar": "Frankreich",
          "name:bcl": "Pransya",
          "name:bjn": "Parancis",
          "name:bpy": "ফ্রান্স",
          "name:bug": "Perancis",
          "name:bxr": "Франци",
          "name:cdo": "Huák-guók",
          "name:ceb": "Pransiya",
          "name:chr": "ᎦᎸᏥᏱ",
          "name:chy": "France",
          "name:ckb": "فەڕەنسا",
          "name:crh": "Frenkistan",
          "name:csb": "Francëjô",
          "name:diq": "Fransa",
          "name:dsb": "Francojska",
          "name:eml": "Franza",
          "name:ext": "Fráncia",
          "name:frp": "France",
          "name:frr": "Frånkrik",
          "name:fur": "France",
          "name:gag": "Franțiya",
          "name:gan": "法國",
          "name:grc": "Γαλλία",
          "name:gsw": "Frankreich",
          "name:hak": "Fap-koet",
          "name:haw": "Palani",
          "name:hif": "France",
          "name:hsb": "Francoska",
          "name:ilo": "Pransia",
          "name:jbo": "fasygu'e'Eyn",
          "name:kaa": "Frantsiya",
          "name:kab": "Fransa",
          "name:kbd": "Фрэндж",
          "name:koi": "Франс",
          "name:krc": "Франция",
          "name:ksh": "Frankreich",
          "name:lad": "Fransia",
          "name:lez": "Франция",
          "name:lfn": "Frans",
          "name:lij": "Fransa",
          "name:lmo": "Frància",
          "name:ltg": "Praņceja",
          "name:lzh": "法國",
          "name:mdf": "Кранцмастор",
          "name:mhr": "Франций",
          "name:min": "Parancih",
          "name:mwl": "Fráncia",
          "name:myv": "Франция Мастор",
          "name:mzn": "فرانسه",
          "name:nah": "Francia",
          "name:nan": "Hoat-kok",
          "name:nap": "Franza",
          "name:nds": "Frankriek",
          "name:nov": "Fransia",
          "name:nrm": "France",
          "name:nso": "Fora",
          "name:pag": "Fransia",
          "name:pam": "Pransiya",
          "name:pap": "Fransia",
          "name:pcd": "Franche",
          "name:pdc": "Frankreich",
          "name:pfl": "Frongraisch",
          "name:pih": "France",
          "name:pms": "Fransa",
          "name:pnb": "فرانس",
          "name:pnt": "Γαλλία",
          "name:rmy": "Franchiya",
          "name:rue": "Франція",
          "name:sah": "Франция",
          "name:scn": "Francia",
          "name:sco": "Fraunce",
          "name:sje": "Frankrijjka",
          "name:smn": "Ránská",
          "name:sms": "Franskkjânnam",
          "name:srn": "Franskondre",
          "name:stq": "Frankriek",
          "name:szl": "Francyjŏ",
          "name:tet": "Fransa",
          "name:tok": "ma Kanse",
          "name:tpi": "Frens",
          "name:tzl": "França",
          "name:udm": "Франция",
          "name:vec": "Fransa",
          "name:vep": "Francii",
          "name:vls": "Vrankryk",
          "name:vro": "Prantsusmaa",
          "name:war": "Fransya",
          "name:wuu": "法国",
          "name:xal": "Пранцсин Орн",
          "name:xmf": "საფრანგეთი",
          "name:yue": "法國",
          "name:zea": "Frankriek",
          "way_area": "124.365",
          "wikidata": "Q142",
          "ISO3166-1": "FR",
          "wikipedia": "fr:France",
          "euro_const": "FR",
          "population": "67852556",
          "admin_level": "2",
          "alt_name:eo": "Francujo",
          "alt_name:zh": "法兰西/法蘭西",
          "border_type": "territorial",
          "name:nds-nl": "Frankriek",
          "name:bat-smg": "Prancūzėjė",
          "name:cbk-zam": "Francia",
          "name:zh-Hans": "法国",
          "name:zh-Hant": "法國",
          "name:roa-tara": "Frange",
          "official_name": "République française",
          "name:be-tarask": "Францыя",
          "name:zh_pinyin": "Fǎguó",
          "ISO3166-1:alpha2": "FR",
          "ISO3166-1:alpha3": "FRA",
          "alt_name:zh-Hans": "法兰西",
          "alt_name:zh-Hant": "法蘭西",
          "default_language": "fr",
          "official_name:ar": "الجمهورية الفرنسية",
          "official_name:be": "Рэспубліка Францыя",
          "official_name:br": "Republik Frañs",
          "official_name:ca": "República Francesa",
          "official_name:cs": "Francouzská republika",
          "official_name:el": "Γαλλική Δημοκρατία",
          "official_name:en": "French Republic",
          "official_name:eo": "Franca Respubliko",
          "official_name:es": "República francesa",
          "official_name:et": "Prantsuse Vabariik",
          "official_name:eu": "Frantziako Errepublika",
          "official_name:fa": "جمهوری فرانسه",
          "official_name:fr": "République française",
          "official_name:gd": "Poblachd na Frainge",
          "official_name:id": "Republik Perancis",
          "official_name:it": "Repubblica francese",
          "official_name:ku": "Komara Fransayê",
          "official_name:lb": "Franséisch Republik",
          "official_name:lt": "Prancūzijos Respublika",
          "official_name:mo": "Република Франчезэ",
          "official_name:nl": "Franse Republiek",
          "official_name:ps": "د فرانسې جمهوریت",
          "official_name:pt": "República Francesa",
          "official_name:ru": "Французская Республика",
          "official_name:sk": "Francúzska republika",
          "official_name:sl": "Francoska republika",
          "official_name:sr": "Република Француска",
          "official_name:sv": "Republiken Frankrike",
          "official_name:ug": "فرانسىيە جۇمھۇرىيىتى",
          "official_name:ur": "جمہوریہ فرانس",
          "official_name:uz": "Fransiya Respublikasi",
          "official_name:vi": "Cộng hòa Pháp",
          "official_name:zh": "法兰西共和国/法蘭西共和國",
          "ISO3166-1:numeric": "250",
          "official_name:azb": "فرانسه جومهوریتی",
          "official_name:ckb": "کۆماری فەڕەنسا",
          "official_name:vls": "Fransche Republik",
          "official_name:zh-Hans": "法兰西共和国",
          "official_name:zh-Hant": "法蘭西共和國",
          "official_name:be-tarask": "Рэспубліка Францыя"
        }
      },
      "geometry": {
        "type": "Polygon",
        "coordinates": [
          [
            [
              -63,
              17.730007475112508
            ],
            [
              -62.94639,
              17.714165
            ],
            [
              -62.8472259,
              17.6739756
            ],
            [
              -62.8327097,
              17.6722572
            ],
            [
              -62.8212247,
              17.6714477
            ],
            [
              -62.806973,
              17.670931
            ],
            [
              -62.7784313,
              17.6722206
            ],
            [
              -62.7627579,
              17.6742099
            ],
            [
              -62.7491978,
              17.6768966
            ],
            [
              -62.7425144,
              17.6785758
            ],
            [
              -62.7287993,
              17.6827006
            ],
            [
              -62.7168922,
              17.6870448
            ],
            [
              -62.7107836,
              17.6897185
            ],
            [
              -62.7072892,
              17.6913029
            ],
            [
              -62.6904233,
              17.6999779
            ],
            [
              -62.6813975,
              17.7055594
            ],
            [
              -62.6692972,
              17.7139389
            ],
            [
              -62.6572732,
              17.7235684
            ],
            [
              -62.6462487,
              17.733899
            ],
            [
              -62.6391789,
              17.7415412
            ],
            [
              -62.6329558,
              17.7490366
            ],
            [
              -62.6263869,
              17.7575969
            ],
            [
              -62.6193194,
              17.7677793
            ],
            [
              -62.6135971,
              17.777479
            ],
            [
              -62.6104463,
              17.7834647
            ],
            [
              -62.6053371,
              17.7940844
            ],
            [
              -62.6022245,
              17.8018337
            ],
            [
              -62.599114,
              17.8104302
            ],
            [
              -62.5966167,
              17.818069
            ],
            [
              -62.58782,
              17.8528514
            ],
            [
              -62.5858235,
              17.8685658
            ],
            [
              -62.5849768,
              17.8792922
            ],
            [
              -62.5845546,
              17.8876269
            ],
            [
              -62.5844019,
              17.8957053
            ],
            [
              -62.5844401,
              17.9058409
            ],
            [
              -62.5847096,
              17.9150923
            ],
            [
              -62.5852463,
              17.9241605
            ],
            [
              -62.5860144,
              17.9331552
            ],
            [
              -62.5872451,
              17.9425169
            ],
            [
              -62.5877818,
              17.9479811
            ],
            [
              -62.5886262,
              17.9518782
            ],
            [
              -62.5896638,
              17.9588853
            ],
            [
              -62.593275,
              17.9755832
            ],
            [
              -62.5945034,
              17.9806209
            ],
            [
              -62.5999966,
              17.994119
            ],
            [
              -62.6025373038396,
              18
            ],
            [
              -62.960716477663226,
              18
            ],
            [
              -62.969445,
              17.986665
            ],
            [
              -63,
              17.92179176620764
            ],
            [
              -63,
              17.730007475112508
            ]
          ]
        ]
      }
    },
    {
      "type": "Feature",
      "properties": {
        "osm_id": -536899,
        "boundary": "administrative",
        "admin_level": 2,
        "parents": null,
        "name": "Saint Kitts and Nevis",
        "local_name": "Saint Kitts and Nevis",
        "name_en": "Saint Kitts and Nevis",
        "all_tags": {
          "flag": "http://upload.wikimedia.org/wikipedia/commons/f/fe/Flag_of_Saint_Kitts_and_Nevis.svg",
          "name": "Saint Kitts and Nevis",
          "name:ar": "سانت كيتس ونيفيس",
          "name:br": "Saint Kitts-ha-Nevis",
          "name:cs": "Svatý Kryštof a Nevis",
          "name:de": "St. Kitts und Nevis",
          "name:el": "Άγιος Χριστόφορος και Νέβις",
          "name:en": "Saint Kitts and Nevis",
          "name:eo": "Sankta Kristoforo kaj Neviso",
          "name:es": "San Cristóbal y Nieves",
          "name:fr": "Saint-Christophe-et-Niévès",
          "name:gn": "San Cristóbal ha Nieves",
          "name:hr": "Sveti Kristofor i Nevis",
          "name:hu": "Saint Kitts és Nevis",
          "name:ia": "Sancte Christophoro e Nevis",
          "name:io": "Santa Kitts e Nevis",
          "name:it": "Saint Kitts e Nevis",
          "name:ja": "セントクリストファー・ネイビス",
          "name:ko": "세인트키츠 네비스",
          "name:la": "Sanctus Christophorus et Nives",
          "name:lt": "Sent Kitsas ir Nevis",
          "name:mk": "Свети Кристифер и Невис",
          "name:nl": "Saint Kitts en Nevis",
          "name:no": "St Kitts og Nevis",
          "name:pl": "Saint Kitts i Nevis",
          "name:pt": "São Cristóvão e Neves",
          "name:ru": "Сент-Китс и Невис",
          "name:se": "Saint Kitts ja Nevis",
          "name:sl": "Sveti Krištof in Nevis",
          "name:sv": "Saint Kitts och Nevis",
          "name:ta": "செயிண்ட் கிட்சும் நெவிசும்",
          "name:tr": "Saint Kitts ve Nevis",
          "name:uk": "Сент-Кiтс i Невiс",
          "name:vo": "Sankiteän e Neviseän",
          "name:zh": "聖克里斯多福及尼維斯",
          "boundary": "administrative",
          "name:jbo": "seint.kits.joik.nevis",
          "name:smn": "Saint Kitts já Nevis",
          "name:sms": "Saint Kitts da Nevis",
          "name:szl": "Saint Kitts i Nevis",
          "timezone": "America/St_Kitts",
          "way_area": "0.290941",
          "wikidata": "Q763",
          "ISO3166-1": "KN",
          "wikipedia": "en:Saint Kitts and Nevis",
          "admin_level": "2",
          "alt_name:eo": "Sankta-Kito kaj Neviso",
          "driving_side": "left",
          "ISO3166-1:alpha2": "KN",
          "ISO3166-1:alpha3": "KNA",
          "default_language": "en",
          "official_name:cs": "Federace Svatý Kryštof a Nevis",
          "official_name:en": "Federation of Saint Kitts and Nevis",
          "official_name:es": "Federación de San Cristóbal y Nieves",
          "official_name:fr": "Fédération de Saint-Christophe-et-Niévès",
          "official_name:gn": "Tetã Ñembyatypyre San Cristóbal ha Nieves",
          "official_name:lt": "Sent Kristoferio ir Nevio Federacija",
          "official_name:pt": "Federação de São Cristóvão e Neves",
          "ISO3166-1:numeric": "659"
        }
      },
      "geometry": {
        "type": "Polygon",
        "coordinates": [
          [
            [
              -63,
              17.21039523336376
            ],
            [
              -62.9994205,
              17.2097718
            ],
            [
              -62.9913521,
              17.2020289
            ],
            [
              -62.9862993,
              17.1975855
            ],
            [
              -62.9790248,
              17.1916741
            ],
            [
              -62.9659562,
              17.1806024
            ],
            [
              -62.9602348,
              17.1760431
            ],
            [
              -62.9533576,
              17.1709672
            ],
            [
              -62.9440747,
              17.1646338
            ],
            [
              -62.9358437,
              17.1594412
            ],
            [
              -62.9265897,
              17.1511464
            ],
            [
              -62.9203622,
              17.1460935
            ],
            [
              -62.9149598,
              17.1420222
            ],
            [
              -62.9075735,
              17.1368812
            ],
            [
              -62.899961,
              17.1320543
            ],
            [
              -62.8941836,
              17.1286854
            ],
            [
              -62.8882939,
              17.1255021
            ],
            [
              -62.8660038,
              17.1142494
            ],
            [
              -62.859805,
              17.1114731
            ],
            [
              -62.8535147,
              17.108893
            ],
            [
              -62.8472827,
              17.1065618
            ],
            [
              -62.8403068,
              17.1042114
            ],
            [
              -62.8400149,
              17.1033028
            ],
            [
              -62.8387291,
              17.0957823
            ],
            [
              -62.836493,
              17.0851079
            ],
            [
              -62.8343634,
              17.0766897
            ],
            [
              -62.8318573,
              17.0683341
            ],
            [
              -62.8292628,
              17.0608568
            ],
            [
              -62.8270094,
              17.0550109
            ],
            [
              -62.8243054,
              17.0462682
            ],
            [
              -62.8212608,
              17.0378294
            ],
            [
              -62.8170656,
              17.0278194
            ],
            [
              -62.8122417,
              17.017892
            ],
            [
              -62.8113142,
              17.0161326
            ],
            [
              -62.8109164,
              17.0158327
            ],
            [
              -62.8076497,
              17.0095733
            ],
            [
              -62.8033758,
              17.0025761
            ],
            [
              -62.80164616734115,
              17
            ],
            [
              -62.47192450957997,
              17
            ],
            [
              -62.4600783,
              17.0139806
            ],
            [
              -62.4421553,
              17.0349882
            ],
            [
              -62.4379847,
              17.0396036
            ],
            [
              -62.4328511,
              17.0514212
            ],
            [
              -62.4230758,
              17.0731081
            ],
            [
              -62.4018896,
              17.1124891
            ],
            [
              -62.3983399,
              17.1320789
            ],
            [
              -62.3887367,
              17.1721348
            ],
            [
              -62.3836473,
              17.1894029
            ],
            [
              -62.3819499,
              17.1942686
            ],
            [
              -62.3762529,
              17.2617825
            ],
            [
              -62.3741863,
              17.28273
            ],
            [
              -62.3762149,
              17.2995691
            ],
            [
              -62.3838542,
              17.3101363
            ],
            [
              -62.3891451,
              17.3170093
            ],
            [
              -62.3944168,
              17.3232983
            ],
            [
              -62.400712,
              17.3301881
            ],
            [
              -62.4073802,
              17.3368622
            ],
            [
              -62.4132928,
              17.3422966
            ],
            [
              -62.4203831,
              17.3482894
            ],
            [
              -62.4283806,
              17.3544257
            ],
            [
              -62.4357687,
              17.3595756
            ],
            [
              -62.4420464,
              17.3635848
            ],
            [
              -62.4508799,
              17.3687333
            ],
            [
              -62.4593755,
              17.3731494
            ],
            [
              -62.4649976,
              17.3798774
            ],
            [
              -62.4716854,
              17.3871642
            ],
            [
              -62.4780303,
              17.3934688
            ],
            [
              -62.484656,
              17.3995015
            ],
            [
              -62.4916684,
              17.4053461
            ],
            [
              -62.4986989,
              17.4107054
            ],
            [
              -62.5060893,
              17.4158553
            ],
            [
              -62.5136815,
              17.4206917
            ],
            [
              -62.5195263,
              17.4316094
            ],
            [
              -62.5259135,
              17.4420596
            ],
            [
              -62.5322479,
              17.451177
            ],
            [
              -62.5390905,
              17.4599481
            ],
            [
              -62.5435333,
              17.4651501
            ],
            [
              -62.5494719,
              17.4715833
            ],
            [
              -62.5559083,
              17.4799553
            ],
            [
              -62.5610915,
              17.4861236
            ],
            [
              -62.5694187,
              17.4954823
            ],
            [
              -62.5760871,
              17.502451
            ],
            [
              -62.5827346,
              17.5100283
            ],
            [
              -62.587365,
              17.5148849
            ],
            [
              -62.592154,
              17.5195885
            ],
            [
              -62.597101,
              17.5241391
            ],
            [
              -62.6038649,
              17.5299049
            ],
            [
              -62.6124629,
              17.5365494
            ],
            [
              -62.6217085,
              17.5429617
            ],
            [
              -62.6309835,
              17.5487017
            ],
            [
              -62.6408593,
              17.5541404
            ],
            [
              -62.6500873,
              17.5612941
            ],
            [
              -62.6568958,
              17.5661853
            ],
            [
              -62.6622557,
              17.5697855
            ],
            [
              -62.6670593,
              17.5728142
            ],
            [
              -62.67439,
              17.5771137
            ],
            [
              -62.6803614,
              17.5803403
            ],
            [
              -62.6864399,
              17.5833789
            ],
            [
              -62.6947011,
              17.587131
            ],
            [
              -62.7018058,
              17.5900353
            ],
            [
              -62.7129403,
              17.5957524
            ],
            [
              -62.7217102,
              17.5998395
            ],
            [
              -62.7310615,
              17.6037235
            ],
            [
              -62.7389933,
              17.6066359
            ],
            [
              -62.7497476,
              17.6100296
            ],
            [
              -62.7619206,
              17.6131479
            ],
            [
              -62.7738551,
              17.615505
            ],
            [
              -62.7847057,
              17.6170552
            ],
            [
              -62.8045748,
              17.5818143
            ],
            [
              -62.8184123,
              17.5582652
            ],
            [
              -62.8338018,
              17.5309588
            ],
            [
              -62.8511821,
              17.5010365
            ],
            [
              -62.8524867,
              17.4988767
            ],
            [
              -62.8665023,
              17.4795988
            ],
            [
              -62.8851625,
              17.4559836
            ],
            [
              -62.8889978,
              17.4516575
            ],
            [
              -62.8966481,
              17.4412614
            ],
            [
              -62.9045164,
              17.4327258
            ],
            [
              -62.9153585,
              17.4201258
            ],
            [
              -62.9365191,
              17.3982148
            ],
            [
              -62.941684,
              17.3925109
            ],
            [
              -62.9527012,
              17.3792508
            ],
            [
              -62.9916681,
              17.3396923
            ],
            [
              -63,
              17.330560349499578
            ],
            [
              -63,
              17.21039523336376
            ]
          ]
        ]
      }
    },
    {
      "type": "Feature",
      "properties": {
        "osm_id": -2323309,
        "boundary": "administrative",
        "admin_level": 2,
        "parents": null,
        "name": "Netherlands",
        "local_name": "Nederland",
        "name_en": "Netherlands",
        "all_tags": {
          "flag": "http://upload.wikimedia.org/wikipedia/commons/2/20/Flag_of_the_Netherlands.svg",
          "name": "Nederland",
          "name:af": "Nederland",
          "name:am": "ሆላንድ",
          "name:an": "Países Baixos",
          "name:ar": "هولندا",
          "name:ay": "Aynacha Jach'a Markanaka",
          "name:az": "Niderland",
          "name:ba": "Нидерландтар",
          "name:be": "Нідэрланды",
          "name:bg": "Нидерландия",
          "name:bh": "एम्सटर्डम",
          "name:bi": "Netherlands",
          "name:bn": "নেদারল্যান্ডস",
          "name:bo": "ཧོ་ལན།",
          "name:br": "Izelvroioù",
          "name:bs": "Nizozemska",
          "name:ca": "Països Baixos",
          "name:ce": "Нидерландаш",
          "name:co": "Paesi Bassi",
          "name:cs": "Nizozemsko",
          "name:cu": "Нидєрландꙑ",
          "name:cv": "Нидерландсем",
          "name:cy": "Yr Iseldiroedd",
          "name:da": "Holland",
          "name:de": "Niederlande",
          "name:dv": "ނެދަލޭންޑު",
          "name:dz": "ནེ་དར་ལེནཌསི་",
          "name:ee": "Netherlands",
          "name:el": "Κάτω Χώρες",
          "name:en": "Netherlands",
          "name:eo": "Nederlando",
          "name:es": "Países Bajos",
          "name:et": "Holland",
          "name:eu": "Herbehereak",
          "name:fa": "هلند",
          "name:ff": "Holannda",
          "name:fi": "Alankomaat",
          "name:fo": "Niðurlond",
          "name:fr": "Pays-Bas",
          "name:fy": "Nederlân",
          "name:ga": "An Ísiltír",
          "name:gd": "Na Tìrean Ìsle",
          "name:gl": "Países Baixos",
          "name:gn": "Tetãnguéra Yvýi",
          "name:gu": "નેધરલેંડ",
          "name:gv": "Yn Çheer Injil",
          "name:he": "הולנד",
          "name:hi": "नीदरलैण्ड",
          "name:hr": "Nizozemska",
          "name:ht": "Peyiba",
          "name:hu": "Hollandia",
          "name:hy": "Նիդերլանդներ",
          "name:ia": "Pais Basse",
          "name:id": "Belanda",
          "name:ie": "Nederland",
          "name:io": "Nederlando",
          "name:is": "Holland",
          "name:it": "Paesi Bassi",
          "name:ja": "オランダ",
          "name:jv": "Walanda",
          "name:ka": "ნიდერლანდი",
          "name:kg": "Pays-Bas",
          "name:kk": "Нидерланд",
          "name:kl": "Hollandi",
          "name:kn": "ನೆದರ್‍ಲ್ಯಾಂಡ್ಸ್",
          "name:ko": "네덜란드",
          "name:ku": "Holenda",
          "name:kv": "Нидерландъяс",
          "name:kw": "Iseldiryow",
          "name:ky": "Нидерландтар",
          "name:la": "Nederlandia",
          "name:lb": "Holland",
          "name:li": "Nederland",
          "name:ln": "Holanda",
          "name:lt": "Nyderlandai",
          "name:lv": "Nīderlande",
          "name:mi": "Hōrana",
          "name:mk": "Холандија",
          "name:ml": "നെതർലന്റ്സ്",
          "name:mn": "Нидерланд",
          "name:mr": "नेदरलँड्स",
          "name:ms": "Belanda",
          "name:mt": "Pajjiżi l-Baxxi",
          "name:my": "နယ်သာလန်နိုင်ငံ",
          "name:na": "Eben Eyong",
          "name:ne": "नेदरल्याण्ड्स",
          "name:nl": "Nederland",
          "name:nn": "Nederland",
          "name:no": "Nederland",
          "name:nv": "Tsin Bikeeʼ Dineʼé Bikéyah",
          "name:oc": "Païses Basses",
          "name:os": "Нидерландтæ",
          "name:pa": "ਨੀਦਰਲੈਂਡ",
          "name:pl": "Holandia",
          "name:ps": "هالنډ",
          "name:pt": "Países Baixos",
          "name:qu": "Urasuyu",
          "name:rm": "Pajais Bass",
          "name:ro": "Țările de Jos",
          "name:ru": "Нидерланды",
          "name:rw": "Ubuholandi",
          "name:sa": "नेदरलैंड्स",
          "name:sc": "Logos Bascios",
          "name:se": "Vuolleeatnamat",
          "name:sh": "Holandija",
          "name:si": "නෙදර්ලන්තය",
          "name:sk": "Holandsko",
          "name:sl": "Nizozemska",
          "name:so": "Holland",
          "name:sq": "Holanda",
          "name:sr": "Холандија",
          "name:ss": "IDashi",
          "name:st": "Hôlanê",
          "name:su": "Walanda",
          "name:sv": "Nederländerna",
          "name:sw": "Uholanzi",
          "name:ta": "நெதர்லாந்து",
          "name:te": "నెదర్లాండ్",
          "name:tg": "Нидерланд",
          "name:th": "ประเทศเนเธอร์แลนด์",
          "name:tk": "Niderlandlar",
          "name:tl": "Olanda",
          "name:to": "Holani",
          "name:tr": "Hollanda",
          "name:tt": "Нидерландлар",
          "name:ug": "گوللاندىيە",
          "name:uk": "Нідерланди",
          "name:ur": "ہالینڈ",
          "name:uz": "Niderlandlar",
          "name:vi": "Hà Lan",
          "name:vo": "Nedän",
          "name:wa": "Bas Payis",
          "name:wo": "Olaand",
          "name:xh": "ENetherlands",
          "name:yi": "האלאנד",
          "name:yo": "Nẹ́dálándì",
          "name:zh": "荷兰 / 荷蘭",
          "name:zu": "Netherlands",
          "boundary": "administrative",
          "int_name": "Nederland",
          "name:ace": "Blanda",
          "name:als": "Niederlande",
          "name:ang": "Niðerland",
          "name:arc": "ܗܘܠܢܕܐ",
          "name:arz": "نيديرلاند",
          "name:ast": "Países Baxos",
          "name:azb": "هولند",
          "name:bar": "Holland",
          "name:bcl": "Nederlands",
          "name:bpy": "নেদারল্যান্ড",
          "name:bug": "Belanda",
          "name:bxr": "Нидерланд",
          "name:cdo": "Hò̤-làng",
          "name:ceb": "Olanda",
          "name:chr": "ᏁᏛᎳᏂ",
          "name:ckb": "ھۆلەند",
          "name:crh": "Felemenk",
          "name:csb": "Néderlandzkô",
          "name:diq": "Hollanda",
          "name:dsb": "Nižozemska",
          "name:ext": "Paisis Baxus",
          "name:frp": "Payis-Bâs",
          "name:frr": "Nederlönje",
          "name:fur": "Paîs Bas",
          "name:gag": "Niderland",
          "name:gan": "荷蘭",
          "name:grc": "Βαταυία",
          "name:hak": "Hò-làn",
          "name:haw": "Hōlani",
          "name:hif": "The Netherlands",
          "name:hsb": "Nižozemska",
          "name:ilo": "Olánda",
          "name:jbo": "nederland",
          "name:kaa": "Niderlandiya",
          "name:kbd": "Нидерлэндхэр",
          "name:koi": "Недерланд",
          "name:krc": "Нидерландла",
          "name:ksh": "Niederlande",
          "name:lad": "Payises Bashos",
          "name:lez": "Нидерландар",
          "name:lij": "Paixi Basci",
          "name:lmo": "Paes Bass",
          "name:ltg": "Nīderlandeja",
          "name:lzh": "荷蘭",
          "name:mdf": "Недерлантт",
          "name:mhr": "Нидерланде",
          "name:min": "Balando",
          "name:mzn": "هلند",
          "name:nah": "Tlanitlālpan",
          "name:nan": "Hô-lân-kok",
          "name:nap": "Ulanna",
          "name:nds": "Nedderlannen",
          "name:new": "नेदरल्यान्द्स्",
          "name:nov": "Nederlande",
          "name:nrm": "Pays Bas",
          "name:pam": "Paises Bahes",
          "name:pap": "Hulanda",
          "name:pcd": "Bas-Païs",
          "name:pdc": "Holland",
          "name:pih": "Dem Nethiland",
          "name:pms": "Pais Bass",
          "name:pnb": "نیدرلینڈز",
          "name:pnt": "Ολλανδία",
          "name:rmy": "Olanda",
          "name:rue": "Нідерланды",
          "name:sah": "Недерланд",
          "name:scn": "Paisi Vasci",
          "name:sco": "Netherlands",
          "name:smn": "Vuáládâhenâmeh",
          "name:srn": "Bakrakondre",
          "name:stq": "Niederlounde",
          "name:syc": "ܗܘܠܢܕܐ",
          "name:szl": "Niderlandy",
          "name:tet": "Olanda",
          "name:tok": "ma Netelan",
          "name:tpi": "Ol Nitelan",
          "name:tzl": "Päts-Bäts",
          "name:udm": "Нидерланд",
          "name:vec": "Paéxi Basi",
          "name:vep": "Alamad",
          "name:vls": "Holland",
          "name:vro": "Holland",
          "name:war": "Nederlandes",
          "name:wuu": "尼德兰",
          "name:xal": "Недерлендин Нутг",
          "name:xmf": "ნიდერლანდი",
          "name:yue": "荷蘭",
          "name:zea": "Nederland",
          "nat_name": "Koninkrijk",
          "operator": "Koninkrijk der Nederlanden",
          "way_area": "7.82235",
          "wikidata": "Q29999",
          "ISO3166-1": "NL",
          "wikipedia": "nl:Koninkrijk der Nederlanden",
          "start_date": "1813",
          "admin_level": "2",
          "alt_name:cs": "Nizozemí",
          "name:nds-nl": "Nederlaand",
          "name:simple": "Netherlands",
          "old_name:bs": "Holandija",
          "old_name:cs": "Holandsko",
          "operator:de": "Königreich der Niederlande",
          "operator:fr": "Royaume des Pays-Bas",
          "operator:nl": "Koninkrijk der Nederlanden",
          "related_law": "Statuut voor het Koninkrijk der Nederlanden",
          "alt_name:pcd": "Bos-Païs",
          "alt_name:vls": "Olland;Nederlandn;Nederland'n",
          "name:bat-smg": "Nīderlandā",
          "name:map-bms": "Landa",
          "name:zh-Hans": "荷兰",
          "name:zh-Hant": "荷蘭",
          "operator:grc": "Βασιλεία Βαταυίας",
          "name:roa-tara": "Pajèsere Vasce",
          "official_name": "Koninkrijk der Nederlanden",
          "name:be-tarask": "Нідэрлянды",
          "old_name:-1815": "Verëenigde Nederlanden",
          "related_law:url": "https://wetten.overheid.nl/BWBR0002154/2017-11-17",
          "ISO3166-1:alpha2": "NL",
          "ISO3166-1:alpha3": "NLD",
          "default_language": "nl",
          "official_name:ca": "Regne dels Països Baixos",
          "official_name:cs": "Nizozemské království",
          "official_name:de": "Königreich der Niederlande",
          "official_name:el": "Βασίλειο των Κάτω Χωρών",
          "official_name:en": "Kingdom of the Netherlands",
          "official_name:eo": "Reĝlando Nederlando",
          "official_name:es": "Reino de Los Paises Bajos",
          "official_name:fi": "Alankomaiden kuningaskunta",
          "official_name:fr": "Royaume des Pays-Bas",
          "official_name:it": "Regno dei Paesi Bassi",
          "official_name:nl": "Koninkrijk der Nederlanden",
          "official_name:pl": "Królestwo Niderlandów",
          "official_name:pt": "Reino dos Países Baixos",
          "ISO3166-1:numeric": "528",
          "official_name:grc": "Βασιλεία Βαταυίας",
          "official_name:nds": "Königriek vun de Nedderlannen",
          "official_name:pcd": "Roéyôme chés Bas-Paÿs",
          "official_name:vls": "Keunienkryk van de Nederlandn",
          "official_name:-1815": "Staat der Verëenigde Nederlanden",
          "official_name:1815--1922-12-13": "Koningrijk der Nederlanden"
        }
      },
      "geometry": {
        "type": "MultiPolygon",
        "coordinates": [
          [
            [
              [
                -63,
                17.330560349499578
              ],
              [
                -62.9916681,
                17.3396923
              ],
              [
                -62.9527012,
                17.3792508
              ],
              [
                -62.941684,
                17.3925109
              ],
              [
                -62.9365191,
                17.3982148
              ],
              [
                -62.9153585,
                17.4201258
              ],
              [
                -62.9045164,
                17.4327258
              ],
              [
                -62.8966481,
                17.4412614
              ],
              [
                -62.8889978,
                17.4516575
              ],
              [
                -62.8851625,
                17.4559836
              ],
              [
                -62.8665023,
                17.4795988
              ],
              [
                -62.8524867,
                17.4988767
              ],
              [
                -62.8511821,
                17.5010365
              ],
              [
                -62.8338018,
                17.5309588
              ],
              [
                -62.8184123,
                17.5582652
              ],
              [
                -62.8045748,
                17.5818143
              ],
              [
                -62.7847057,
                17.6170552
              ],
              [
                -62.7900531,
                17.62
              ],
              [
                -62.7957619,
                17.626
              ],
              [
                -62.8061637,
                17.636
              ],
              [
                -62.81189,
                17.641
              ],
              [
                -62.8167952,
                17.645
              ],
              [
                -62.8247725,
                17.651
              ],
              [
                -62.8309834,
                17.6573893
              ],
              [
                -62.8371292,
                17.664119
              ],
              [
                -62.8427409,
                17.6693271
              ],
              [
                -62.8472259,
                17.6739756
              ],
              [
                -62.94639,
                17.714165
              ],
              [
                -62.9892567,
                17.726833
              ],
              [
                -62.998735,
                17.7269929
              ],
              [
                -63,
                17.726960448699927
              ],
              [
                -63,
                17.330560349499578
              ]
            ]
          ],
          [
            [
              [
                -63,
                17.92179637552941
              ],
              [
                -62.969445,
                17.986665
              ],
              [
                -62.960716477663226,
                18
              ],
              [
                -63,
                18
              ],
              [
                -63,
                17.92179637552941
              ]
            ]
          ]
        ]
      }
    }
  ]
}