{
  "type": "FeatureCollection",
  "features": [
    {
      "type": "Feature",
      "properties": {
        "osm_id": -2103120,
        "boundary": "administrative",
        "admin_level": 2,
        "parents": null,
        "name": "Brunei",
        "local_name": "Brunei",
        "name_en": "Brunei",
        "all_tags": {
          "flag": "http://upload.wikimedia.org/wikipedia/commons/9/9c/Flag_of_Brunei.svg",
          "name": "Brunei",
          "name:af": "Broenei",
          "name:ak": "Brunae",
          "name:am": "ብሩናይ",
          "name:an": "Brunei",
          "name:ar": "بروناي",
          "name:as": "ব্ৰুণেই",
          "name:az": "Bruney",
          "name:ba": "Бруней",
          "name:be": "Бруне́й",
          "name:bg": "Бруней",
          "name:bh": "ब्रूनेई",
          "name:bm": "Burinɛyi",
          "name:bn": "ব্রুনাই",
          "name:bo": "བྷི་རུ་ནི།",
          "name:br": "Brunei",
          "name:bs": "Brunej",
          "name:ca": "Brunei",
          "name:ce": "Бруней",
          "name:cs": "Brunej",
          "name:cv": "Бруней",
          "name:cy": "Brwnei",
          "name:da": "Brunei",
          "name:de": "Brunei",
          "name:dv": "ބުރުނައީ",
          "name:dz": "བྷྲུ་ནའི",
          "name:el": "Μπρουνέι",
          "name:en": "Brunei",
          "name:eo": "Brunejo",
          "name:es": "Brunéi",
          "name:et": "Brunei",
          "name:eu": "Brunei",
          "name:fa": "برونئی",
          "name:ff": "Burnaay",
          "name:fi": "Brunei",
          "name:fo": "Brunei",
          "name:fr": "Brunei",
          "name:fy": "Brûnei",
          "name:ga": "Brúiné",
          "name:gd": "Brùnaigh",
          "name:gl": "Brunei",
          "name:gn": "Mburunéi",
          "name:gu": "બ્રુનેઈ",
          "name:gv": "Brunei",
          "name:ha": "Brunei",
          "name:he": "ברוניי",
          "name:hi": "ब्रुनेई",
          "name:hr": "Brunej",
          "name:ht": "Brouney",
          "name:hu": "Brunei",
          "name:hy": "Բրունեյ",
          "name:ia": "Brunei",
          "name:id": "Brunei",
          "name:ie": "Brunei",
          "name:ik": "Brunei",
          "name:io": "Brunei",
          "name:is": "Brúnei",
          "name:it": "Brunei",
          "name:ja": "ブルネイ",
          "name:jv": "Brunéi",
          "name:ka": "ბრუნეი",
          "name:kg": "Brunei",
          "name:ki": "Brunei",
          "name:kk": "Бруней",
          "name:kl": "Brunei",
          "name:km": "ប្រទេសប៊្រុយណេ",
          "name:kn": "ಬ್ರುನೈ",
          "name:ko": "브루나이",
          "name:ks": "بُرنٔے",
          "name:ku": "Brûney",
          "name:kv": "Бруней",
          "name:kw": "Bruney",
          "name:ky": "Бруней",
          "name:la": "Bruneium",
          "name:lb": "Brunei",
          "name:li": "Brunei",
          "name:ln": "Brunei",
          "name:lo": "ບູໄນ",
          "name:lt": "Brunėjus",
          "name:lv": "Bruneja",
          "name:mg": "Boroney",
          "name:mi": "Poronai",
          "name:mk": "Брунеј",
          "name:ml": "ബ്രൂണൈ",
          "name:mn": "Бруней",
          "name:mr": "ब्रुनेई",
          "name:ms": "Brunei",
          "name:mt": "Brunej",
          "name:my": "ဘရူနိုင်းနိုင်ငံ",
          "name:na": "Brunei",
          "name:ne": "ब्रुनेई",
          "name:nl": "Brunei",
          "name:nn": "Brunei",
          "name:no": "Brunei",
          "name:ny": "Brunei",
          "name:oc": "Brunei",
          "name:om": "Birunaay",
          "name:or": "ବ୍ରୁନେଇ",
          "name:os": "Бруней",
          "name:pa": "ਬਰੂਨਾਈ",
          "name:pi": "ब्रूनै",
          "name:pl": "Brunei",
          "name:ps": "برونای",
          "name:pt": "Brunei",
          "name:qu": "Bruniy",
          "name:rm": "Brunei",
          "name:ro": "Brunei",
          "name:ru": "Бруней",
          "name:rw": "Buruneyi",
          "name:sa": "ब्रूनै",
          "name:sd": "برونئي",
          "name:se": "Brunei",
          "name:sg": "Brunêi",
          "name:sh": "Brunej",
          "name:si": "බෲනායි",
          "name:sk": "Brunej",
          "name:sl": "Brunej",
          "name:sn": "Brunei",
          "name:so": "Barunay",
          "name:sq": "Brunei",
          "name:sr": "Брунеј",
          "name:ss": "iBhruneyi",
          "name:su": "Brunéi",
          "name:sv": "Brunei",
          "name:sw": "Brunei",
          "name:ta": "புரூணை",
          "name:te": "బ్రూనై",
          "name:tg": "Бруней",
          "name:th": "บรูไน",
          "name:ti": "ብሩኒ",
          "name:tk": "Bruneý",
          "name:tl": "Brunei",
          "name:to": "Pulunei",
          "name:tr": "Brunei",
          "name:tt": "Бруне́й",
          "name:ug": "برۇنېي",
          "name:uk": "Бруне́й",
          "name:ur": "برونائی",
          "name:uz": "Bruney",
          "name:vi": "Brunei",
          "name:vo": "Brunän",
          "name:yi": "ברוניי",
          "name:yo": "Brunei",
          "name:za": "Vwnzlaiz",
          "name:zh": "文莱 / 汶萊",
          "name:zu": "i-Brunei",
          "boundary": "administrative",
          "currency": "BND",
          "int_name": "Brunei",
          "name:ace": "Brunai",
          "name:ady": "Бруней",
          "name:als": "Brunei",
          "name:ang": "Brunei",
          "name:arz": "بروناى",
          "name:ast": "Brunéi",
          "name:azb": "برونئی",
          "name:bar": "Brunei",
          "name:bcl": "Brunei",
          "name:bjn": "Brunai",
          "name:bpy": "ব্রুনাই",
          "name:bug": "Brunei",
          "name:bxr": "Брүнэй",
          "name:cdo": "Ùng-lài",
          "name:ceb": "Brunei",
          "name:chr": "ᏊᎾᎢ",
          "name:ckb": "بروونای",
          "name:crh": "Bruney",
          "name:csb": "Brunei",
          "name:diq": "Bruney",
          "name:dsb": "Brunei",
          "name:dty": "ब्रुनाई",
          "name:frp": "Bruneyi",
          "name:frr": "Bruunei",
          "name:fur": "Brunei",
          "name:gag": "Bruney",
          "name:gom": "ब्रुनेई",
          "name:hak": "Vùn-lòi",
          "name:haw": "Brunei",
          "name:hif": "Brunei",
          "name:hsb": "Brunei",
          "name:ilo": "Brunei",
          "name:jam": "Brunai",
          "name:kaa": "Bruney",
          "name:kab": "Brunei",
          "name:ksh": "Brunei",
          "name:lij": "Brunei",
          "name:lmo": "Brunei",
          "name:lrc": "برونئی",
          "name:lzh": "汶萊",
          "name:mai": "ब्रुनाई",
          "name:min": "Brunei",
          "name:mwl": "Brunei",
          "name:mzn": "بورونئی",
          "name:nah": "Brunei",
          "name:nan": "Brunei",
          "name:nap": "Brunei",
          "name:nds": "Brunei",
          "name:new": "ब्रुनाइ",
          "name:nov": "Brunei",
          "name:olo": "Brunei",
          "name:pam": "Brunei",
          "name:pap": "Brunei",
          "name:pcd": "Brunei",
          "name:pih": "Bruunii",
          "name:pms": "Brunei",
          "name:pnb": "برونائی",
          "name:rue": "Бруней",
          "name:sah": "Бруней",
          "name:scn": "Brunei",
          "name:sco": "Brunei",
          "name:smn": "Brunei",
          "name:sms": "Brunei",
          "name:stq": "Brunei",
          "name:szl": "Brunei",
          "name:tet": "Brunei",
          "name:tpi": "Brunai",
          "name:tum": "Brunei",
          "name:udm": "Бруней",
          "name:vec": "Brunei",
          "name:vep": "Brunei",
          "name:war": "Brunei",
          "name:wuu": "文莱",
          "name:xal": "Брунейгин",
          "name:xmf": "ბრუნეი",
          "name:yue": "汶萊",
          "name:zea": "Brunei",
          "timezone": "Asia/Brunei",
          "way_area": "0.85078",
          "wikidata": "Q921",
          "ISO3166-1": "BN",
          "wikipedia": "ms:Brunei",
          "admin_level": "2",
          "alt_name:cs": "Brunej Darussalam",
          "alt_name:gd": "Brunai",
          "alt_name:he": "אומת ברוניי, משכן השלום",
          "alt_name:ka": "ბრუნეის სახელმწიფო",
          "alt_name:la": "Natio Bruneii, Loci Pacis",
          "alt_name:lo": "ບຣູໄນ",
          "alt_name:qu": "Brunay",
          "alt_name:so": "Brunei",
          "alt_name:tr": "Brunei Darü's-Selam Devleti",
          "alt_name:vi": "Quốc gia Brunei Darussalam",
          "alt_name:yo": "Orile-ede ile Brunei Darussalam",
          "alt_name:zh": "文莱",
          "border_type": "nation",
          "alt_name:arz": "بروناى دار السلام",
          "alt_name:lzh": "文萊",
          "driving_side": "left",
          "name:bat-smg": "Bruniejus",
          "name:cbk-zam": "Brunei",
          "name:map-bms": "Brunei",
          "name:ms-jawi": "بروني دارالسلام",
          "name:zh-Hans": "文莱",
          "name:zh-Hant": "汶萊",
          "official_name": "Negara Brunei, Rumah Yang Aman",
          "name:be-tarask": "Брунэ́й",
          "name:zh_pinyin": "Wénlái",
          "ISO3166-1:alpha2": "BN",
          "ISO3166-1:alpha3": "BRN",
          "official_name:af": "Nasie van Broenei, woning van Vrede",
          "official_name:an": "Negara Brunei Darussalam",
          "official_name:ar": "اتحاد بروناي دار السلام",
          "official_name:as": "নেগাৰা ব্ৰুণেই দাৰুচেলাম",
          "official_name:az": "Bruney Sülh Dövləti",
          "official_name:ba": "Бруней-Даруссалам дәүләте",
          "official_name:be": "Дзяржа́ва Бруне́й Дарусала́м",
          "official_name:bg": "Султанство Бруней Даруссалам",
          "official_name:br": "Stad Brunei Darussalam",
          "official_name:bs": "Sultanat Brunej",
          "official_name:cs": "Stát Brunej Darussalam",
          "official_name:cv": "Бруней Даруссалам султаначĕ",
          "official_name:cy": "Teyrnas Brwnei",
          "official_name:da": "Sultanatet Brunei",
          "official_name:de": "Sultanat Brunei Darussalam",
          "official_name:el": "Σουλτανάτο του Μπρουνέι",
          "official_name:en": "Nation of Brunei, the Abode of Peace",
          "official_name:eo": "Sultanlando de Brunejo, la loĝejo de paco",
          "official_name:es": "Estado de Brunéi, Morada de la Paz",
          "official_name:et": "Brunei Darussalami Riik",
          "official_name:eu": "Bruneiko Estatua, Bakearen Egoitza",
          "official_name:fa": "کشور برونئی سرای صلح",
          "official_name:fi": "Brunei Darussalamin valtio",
          "official_name:fr": "Sultanat de Brunei Darussalam",
          "official_name:fy": "Naasje Brûnei, de Wente fan 'e Frede",
          "official_name:ga": "Stát Bhrúiné, Áitreabh Síochána",
          "official_name:gl": "Estado de Brunei Darussalam",
          "official_name:gn": "Tetã Mburunéi, Py'aguapy Rekoha",
          "official_name:gu": "નેગારા બ્રુનેઈ દારુસ્સલામ",
          "official_name:gv": "Steat Vrunei, Cummal Shee",
          "official_name:he": "אומת ברוניי, משכן השלום",
          "official_name:hi": "नेगारा ब्रुनेई दारुस्सलाम",
          "official_name:hr": "Brunej Darussalam",
          "official_name:hu": "Brunei Szultanátus",
          "official_name:ia": "Sultanato de Brunei",
          "official_name:id": "Negara Brunei Darussalam",
          "official_name:is": "Soldánsdæmið Brúnei Darussalam",
          "official_name:it": "Sultanato del Brunei",
          "official_name:ja": "ブルネイ・ダルサラーム国",
          "official_name:jv": "Brunei Darussalam",
          "official_name:ka": "ბრუნეი დარუსალამი",
          "official_name:km": "ប្រ៊ុយណេ ទ្វារនៃសន្តិភាព",
          "official_name:kn": "ಬ್ರುನೈ ರಾಜ್ಯ, ಶಾಂತಿಯ ನೆಲೆವೀಡು",
          "official_name:ko": "브루나이 다루살람",
          "official_name:kv": "Бруней-Даруссалам султанув",
          "official_name:ky": "Бруней Даруссалам мамлекети",
          "official_name:la": "Civitas Bruneii, Loci Pacis",
          "official_name:lb": "Sultanat Brunei Darussalam",
          "official_name:lt": "Brunėjaus Valstybė, Taikos Užuovėja",
          "official_name:lv": "Bruneja Darusalama",
          "official_name:mk": "Држава Брунеј, Дом на мирот",
          "official_name:ml": "സ്റ്റേറ്റ് ഓഫ് ബ്രൂണൈ, അബോഡ് ഓഫ് പീസ്",
          "official_name:mn": "Бруней Даруссалам Улс",
          "official_name:mr": "ब्रुनेई दारुस्सलाम",
          "official_name:ms": "Negara Brunei, Rumah Yang Aman",
          "official_name:mt": "Nazzjon tal-Brunej Darussalam",
          "official_name:ne": "नेगारा ब्रुनेई दारुस्सलाम",
          "official_name:nl": "Staat Brunei Darussalam",
          "official_name:nn": "Brunei Darussalam",
          "official_name:no": "Brunei Darussalam",
          "official_name:oc": "Sultanat de Brunei",
          "official_name:os": "Султанат Бруней-Даруссалам",
          "official_name:pa": "ਨੇਗਾਰਾ ਬਰੁਨੇਈ ਦਾਰੁੱਸਲਾਮ",
          "official_name:pl": "Państwo Brunei Darussalam",
          "official_name:ps": "نېگارا برونوي دارالسلام",
          "official_name:pt": "Estado de Brunei Darussalã",
          "official_name:qu": "Bruniy Mama llaqta, Wasi Thakmanta",
          "official_name:ro": "Statul Brunei, Domiciliul Păcii",
          "official_name:ru": "Государство Бруней-Даруссалам",
          "official_name:rw": "Buruneyi Darusalamu",
          "official_name:sd": "نگارا برونئي دارالسلام",
          "official_name:se": "Brunei Darussalam stáhta",
          "official_name:sg": "Etäa tî Brunêi",
          "official_name:sh": "Brunej Darussalam",
          "official_name:si": "නෙගාරා බෲනායි, සාමයේ මුලස්ථානය",
          "official_name:sk": "Brunejsko-darussalamský štát",
          "official_name:sl": "Sultanat Brunej",
          "official_name:sq": "Shteti i Bruneit Vend i Paqes",
          "official_name:sr": "Нација Брунеја, боравиште мира",
          "official_name:su": "Nagara Brunéi, Imah Kasajahtraan",
          "official_name:sv": "Brunei Darussalam",
          "official_name:sw": "Brunei Nyumba ya Amani",
          "official_name:ta": "புருனை நாடு, அமைதியின் இல்லம்",
          "official_name:te": "బ్రూనై రాజ్య శాంతిధామం",
          "official_name:tg": "Бруней Доруссалам",
          "official_name:th": "เนการาบรูไนดารุสซาลาม",
          "official_name:tk": "Bruneý-Darussalam döwleti",
          "official_name:tl": "Bansa ng Brunei, Tahanan ng Kapayapaan",
          "official_name:tr": "Brunei Barış Ülkesi Devleti",
          "official_name:tt": "Бруней Даруссалам Дәүләте",
          "official_name:ug": "برۇنېي دارۇسسالام دۆلىتى",
          "official_name:uk": "Держа́ва Бруне́й Даруссала́м",
          "official_name:ur": "ریاست برونائی دارالسلام",
          "official_name:uz": "Bruney Dorussalam",
          "official_name:vi": "Nhà nước Brunei Darussalam",
          "official_name:yo": "Orileabinibi ile Brunei, Ibi Alafia",
          "official_name:zh": "文莱达鲁萨兰国 / 汶萊伊斯蘭教君主國",
          "ISO3166-1:numeric": "096",
          "official_name:ace": "Brunai Darussalam",
          "official_name:ady": "Бруней Даруссалам",
          "official_name:als": "Sultanat Brunei Darussalam",
          "official_name:ang": "Bruneiþēod Friþeard",
          "official_name:arz": "برونى دارالسلام",
          "official_name:ast": "Estáu de Brunéi Darussalam",
          "official_name:azb": "نڬارا بروني دارالسلام",
          "official_name:bar": "Sultanat Brunei Darussalam",
          "official_name:bjn": "Brunai Darussalam",
          "official_name:bpy": "নেগারা ব্রুনাই দারুসসালাম",
          "official_name:ceb": "Negara Brunei Darussalam",
          "official_name:crh": "Bruney Darü's-Selâm Devleti",
          "official_name:dsb": "Sultanat Brunei Darussalam",
          "official_name:frr": "Sultanaat Bruunei Darussalam",
          "official_name:hif": "Sultanate of Brunei",
          "official_name:hsb": "Sultanat Brunei Darussalam",
          "official_name:ilo": "Pagilian ti Brunei, ti Pagtaengan ti Kappia",
          "official_name:ksh": "Brunei Darussallam",
          "official_name:lij": "Brunei Dar As-Salam",
          "official_name:lzh": "汶萊和平之國",
          "official_name:min": "Nagara Brunei Darussalam",
          "official_name:nah": "Tlahtohcāyōtl Brunei Yōcoxcānemiliztli Īchān",
          "official_name:nan": "Brunei Darussalam Kok",
          "official_name:nap": "Sultanato 'e Brunei, Casa d''a Pace",
          "official_name:new": "नेगारा ब्रुनाइ दारुसालेम",
          "official_name:pam": "State ning Brunei, Karinan ning Kapayapan",
          "official_name:pcd": "Sultanat d' Brunei",
          "official_name:rue": "Султанат Бруней",
          "official_name:sah": "Бруней илэ, Эйэ Сирэ",
          "official_name:scn": "Sultanatu di lu Brunei Darussalam",
          "official_name:sco": "Naition o Brunei, the Abode o Peace",
          "official_name:szl": "Państwo Brunei Darussalam",
          "official_name:tpi": "Kantri long Brunai, Hap long Gutpela taim",
          "official_name:udm": "Королевство Бруней",
          "official_name:vec": "Stato de el Brunei, Dimora de ƚa Paxe",
          "official_name:vep": "Brunein Darussalaman Valdkund",
          "official_name:xal": "Брунейгин Нутг",
          "official_name:xmf": "ბრუნეიშ კათა, შვიდობაშ ორენი",
          "official_name:yue": "汶萊伊斯蘭教君主國",
          "official_name:zea": "Sultanaot van Brunei",
          "official_name:map-bms": "Brunei Darussalam",
          "official_name:zh-Hans": "文莱达鲁萨兰国",
          "official_name:zh-Hant": "汶萊伊斯蘭教君主國",
          "official_name:be-tarask": "Брунэй Дарусалам"
        }
      },
      "geometry": {
        "type": "Polygon",
        "coordinates": [
          [
            [
              114.0025696,
              4.7739369
            ],
            [
              114.0511111,
              4.7272222
            ],
            [
              114.0536394,
              4.7245528
            ],
            [
              114.058061,
              4.7192065
            ],
            [
              114.0619802,
              4.7134842
            ],
            [
              114.065365,
              4.7074326
            ],
            [
              114.0681878,
              4.701101
            ],
            [
              114.0701785,
              4.6953719
            ],
            [
              114.0715186,
              4.6903493
            ],
            [
              114.0726464,
              4.6843914
            ],
            [
              114.0732982,
              4.6783632
            ],
            [
              114.073475,
              4.6731689
            ],
            [
              114.0732982,
              4.6679746
            ],
            [
              114.0727778,
              4.6627778
            ],
            [
              114.0716667,
              4.6555556
            ],
            [
              114.0736111,
              4.5958333
            ],
            [
              114.0759748,
              4.5871516
            ],
            [
              114.0758734,
              4.5857624
            ],
            [
              114.076166,
              4.584193
            ],
            [
              114.076425,
              4.58389
            ],
            [
              114.076944,
              4.583588
            ],
            [
              114.115465,
              4.579135
            ],
            [
              114.162633,
              4.573385
            ],
            [
              114.184941,
              4.552157
            ],
            [
              114.188227,
              4.548871
            ],
            [
              114.190518,
              4.54632
            ],
            [
              114.19882,
              4.531621
            ],
            [
              114.199079,
              4.531405
            ],
            [
              114.199857,
              4.531448
            ],
            [
              114.213346,
              4.536247
            ],
            [
              114.218793,
              4.533005
            ],
            [
              114.260148,
              4.507013
            ],
            [
              114.260631,
              4.506353
            ],
            [
              114.283572,
              4.463798
            ],
            [
              114.283725,
              4.462985
            ],
            [
              114.282988,
              4.454907
            ],
            [
              114.285503,
              4.451756
            ],
            [
              114.29498,
              4.440807
            ],
            [
              114.306869,
              4.418323
            ],
            [
              114.307962,
              4.415427
            ],
            [
              114.314949,
              4.393577
            ],
            [
              114.314949,
              4.393222
            ],
            [
              114.314847,
              4.392612
            ],
            [
              114.309055,
              4.376962
            ],
            [
              114.30687,
              4.3684
            ],
            [
              114.306489,
              4.366749
            ],
            [
              114.306565,
              4.366241
            ],
            [
              114.332961,
              4.348711
            ],
            [
              114.332961,
              4.34805
            ],
            [
              114.326558,
              4.325668
            ],
            [
              114.323459,
              4.318351
            ],
            [
              114.318454,
              4.280624
            ],
            [
              114.316447,
              4.263627
            ],
            [
              114.324069,
              4.256921
            ],
            [
              114.324552,
              4.256844
            ],
            [
              114.341447,
              4.258597
            ],
            [
              114.347874,
              4.259105
            ],
            [
              114.364565,
              4.255676
            ],
            [
              114.36487,
              4.255701
            ],
            [
              114.365277,
              4.256031
            ],
            [
              114.371501,
              4.263704
            ],
            [
              114.372035,
              4.263958
            ],
            [
              114.381867,
              4.264923
            ],
            [
              114.382553,
              4.264872
            ],
            [
              114.397593,
              4.261112
            ],
            [
              114.398304,
              4.261417
            ],
            [
              114.399371,
              4.262637
            ],
            [
              114.399829,
              4.262865
            ],
            [
              114.402445,
              4.263272
            ],
            [
              114.402674,
              4.263246
            ],
            [
              114.404173,
              4.262129
            ],
            [
              114.405265,
              4.261951
            ],
            [
              114.406663,
              4.258851
            ],
            [
              114.407247,
              4.258292
            ],
            [
              114.408619,
              4.258013
            ],
            [
              114.409762,
              4.257352
            ],
            [
              114.416419,
              4.255244
            ],
            [
              114.417918,
              4.254837
            ],
            [
              114.419289,
              4.254684
            ],
            [
              114.419747,
              4.253389
            ],
            [
              114.420763,
              4.25316
            ],
            [
              114.422414,
              4.253058
            ],
            [
              114.423329,
              4.253338
            ],
            [
              114.423557,
              4.253719
            ],
            [
              114.423608,
              4.255066
            ],
            [
              114.423812,
              4.255294
            ],
            [
              114.423862,
              4.255675
            ],
            [
              114.423685,
              4.256336
            ],
            [
              114.425107,
              4.25819
            ],
            [
              114.425844,
              4.258749
            ],
            [
              114.426174,
              4.259943
            ],
            [
              114.426657,
              4.260477
            ],
            [
              114.426759,
              4.261442
            ],
            [
              114.42747,
              4.262865
            ],
            [
              114.427648,
              4.263551
            ],
            [
              114.427521,
              4.264288
            ],
            [
              114.426073,
              4.2651
            ],
            [
              114.425539,
              4.265761
            ],
            [
              114.425615,
              4.266015
            ],
            [
              114.426936,
              4.266599
            ],
            [
              114.428537,
              4.266726
            ],
            [
              114.428867,
              4.266853
            ],
            [
              114.429197,
              4.267387
            ],
            [
              114.430239,
              4.267641
            ],
            [
              114.430518,
              4.26787
            ],
            [
              114.431052,
              4.271808
            ],
            [
              114.431306,
              4.272112
            ],
            [
              114.43278,
              4.272697
            ],
            [
              114.434024,
              4.274399
            ],
            [
              114.43499,
              4.274653
            ],
            [
              114.435854,
              4.274348
            ],
            [
              114.43654,
              4.272214
            ],
            [
              114.437454,
              4.271985
            ],
            [
              114.438013,
              4.272138
            ],
            [
              114.438445,
              4.273383
            ],
            [
              114.43997,
              4.275644
            ],
            [
              114.440275,
              4.277651
            ],
            [
              114.440554,
              4.278108
            ],
            [
              114.443654,
              4.279429
            ],
            [
              114.444289,
              4.279836
            ],
            [
              114.445178,
              4.279912
            ],
            [
              114.449218,
              4.27887
            ],
            [
              114.450666,
              4.27793
            ],
            [
              114.451708,
              4.276279
            ],
            [
              114.452165,
              4.275237
            ],
            [
              114.452953,
              4.27003
            ],
            [
              114.453334,
              4.269166
            ],
            [
              114.453918,
              4.268429
            ],
            [
              114.454909,
              4.267718
            ],
            [
              114.4559,
              4.267387
            ],
            [
              114.455315,
              4.264923
            ],
            [
              114.455798,
              4.264338
            ],
            [
              114.456509,
              4.263881
            ],
            [
              114.456636,
              4.263602
            ],
            [
              114.456535,
              4.262839
            ],
            [
              114.455646,
              4.261721
            ],
            [
              114.455518,
              4.261315
            ],
            [
              114.455798,
              4.260553
            ],
            [
              114.456331,
              4.25974
            ],
            [
              114.45656,
              4.2588
            ],
            [
              114.45623,
              4.256285
            ],
            [
              114.456179,
              4.250772
            ],
            [
              114.455874,
              4.249934
            ],
            [
              114.45461,
              4.249044
            ],
            [
              114.454051,
              4.248155
            ],
            [
              114.453797,
              4.245945
            ],
            [
              114.453898,
              4.243785
            ],
            [
              114.454178,
              4.241829
            ],
            [
              114.457023,
              4.236367
            ],
            [
              114.457684,
              4.234614
            ],
            [
              114.458344,
              4.231972
            ],
            [
              114.458954,
              4.231108
            ],
            [
              114.460377,
              4.23065
            ],
            [
              114.46091,
              4.230269
            ],
            [
              114.461393,
              4.229228
            ],
            [
              114.460072,
              4.221073
            ],
            [
              114.460224,
              4.219828
            ],
            [
              114.461139,
              4.217999
            ],
            [
              114.462638,
              4.216221
            ],
            [
              114.463045,
              4.214874
            ],
            [
              114.463832,
              4.213477
            ],
            [
              114.463603,
              4.211266
            ],
            [
              114.463806,
              4.210098
            ],
            [
              114.464772,
              4.209056
            ],
            [
              114.466347,
              4.208319
            ],
            [
              114.466626,
              4.208015
            ],
            [
              114.466982,
              4.207024
            ],
            [
              114.467007,
              4.206135
            ],
            [
              114.467211,
              4.205601
            ],
            [
              114.469396,
              4.204559
            ],
            [
              114.469726,
              4.204254
            ],
            [
              114.470564,
              4.202882
            ],
            [
              114.470793,
              4.201764
            ],
            [
              114.471149,
              4.201307
            ],
            [
              114.472419,
              4.200342
            ],
            [
              114.472775,
              4.199859
            ],
            [
              114.474223,
              4.194752
            ],
            [
              114.476153,
              4.191348
            ],
            [
              114.476712,
              4.188985
            ],
            [
              114.477322,
              4.187283
            ],
            [
              114.477856,
              4.186343
            ],
            [
              114.478796,
              4.185631
            ],
            [
              114.478846,
              4.184031
            ],
            [
              114.479456,
              4.182532
            ],
            [
              114.48032,
              4.179407
            ],
            [
              114.481489,
              4.173818
            ],
            [
              114.482251,
              4.171913
            ],
            [
              114.484385,
              4.167543
            ],
            [
              114.485249,
              4.166222
            ],
            [
              114.486773,
              4.164748
            ],
            [
              114.489314,
              4.161649
            ],
            [
              114.490737,
              4.158956
            ],
            [
              114.491956,
              4.155196
            ],
            [
              114.492363,
              4.154383
            ],
            [
              114.494649,
              4.151919
            ],
            [
              114.495894,
              4.150089
            ],
            [
              114.496072,
              4.149658
            ],
            [
              114.496097,
              4.148895
            ],
            [
              114.495005,
              4.147752
            ],
            [
              114.495056,
              4.147168
            ],
            [
              114.495792,
              4.146685
            ],
            [
              114.497977,
              4.146025
            ],
            [
              114.500213,
              4.143611
            ],
            [
              114.50095,
              4.143205
            ],
            [
              114.503211,
              4.142442
            ],
            [
              114.509016,
              4.143687
            ],
            [
              114.509956,
              4.144094
            ],
            [
              114.514199,
              4.146634
            ],
            [
              114.51552,
              4.146837
            ],
            [
              114.516689,
              4.14671
            ],
            [
              114.519357,
              4.145237
            ],
            [
              114.520525,
              4.144398
            ],
            [
              114.521923,
              4.142976
            ],
            [
              114.523447,
              4.140562
            ],
            [
              114.526597,
              4.137666
            ],
            [
              114.527816,
              4.135837
            ],
            [
              114.53056,
              4.134084
            ],
            [
              114.533532,
              4.13134
            ],
            [
              114.535387,
              4.129993
            ],
            [
              114.537343,
              4.128977
            ],
            [
              114.538588,
              4.128698
            ],
            [
              114.541459,
              4.128647
            ],
            [
              114.542069,
              4.128342
            ],
            [
              114.544863,
              4.126005
            ],
            [
              114.545422,
              4.125242
            ],
            [
              114.545676,
              4.124379
            ],
            [
              114.546438,
              4.120491
            ],
            [
              114.547074,
              4.118129
            ],
            [
              114.54781,
              4.113429
            ],
            [
              114.547785,
              4.111295
            ],
            [
              114.547277,
              4.109872
            ],
            [
              114.545371,
              4.108348
            ],
            [
              114.544635,
              4.106569
            ],
            [
              114.544203,
              4.104867
            ],
            [
              114.544533,
              4.10408
            ],
            [
              114.545244,
              4.103546
            ],
            [
              114.548725,
              4.103622
            ],
            [
              114.550097,
              4.103292
            ],
            [
              114.55063,
              4.102936
            ],
            [
              114.551113,
              4.102377
            ],
            [
              114.551418,
              4.101234
            ],
            [
              114.55157,
              4.099329
            ],
            [
              114.551951,
              4.098491
            ],
            [
              114.554035,
              4.095899
            ],
            [
              114.55528,
              4.095188
            ],
            [
              114.556016,
              4.094553
            ],
            [
              114.556067,
              4.094172
            ],
            [
              114.554975,
              4.091275
            ],
            [
              114.555127,
              4.089674
            ],
            [
              114.554086,
              4.088328
            ],
            [
              114.553527,
              4.086143
            ],
            [
              114.552764,
              4.084873
            ],
            [
              114.55279,
              4.083958
            ],
            [
              114.553755,
              4.082332
            ],
            [
              114.554441,
              4.081697
            ],
            [
              114.555635,
              4.081087
            ],
            [
              114.55843,
              4.081062
            ],
            [
              114.55998,
              4.080782
            ],
            [
              114.560793,
              4.080528
            ],
            [
              114.562774,
              4.078902
            ],
            [
              114.56595,
              4.078826
            ],
            [
              114.566509,
              4.078623
            ],
            [
              114.567423,
              4.077937
            ],
            [
              114.570904,
              4.073949
            ],
            [
              114.573318,
              4.069858
            ],
            [
              114.575452,
              4.067419
            ],
            [
              114.57812,
              4.064904
            ],
            [
              114.578907,
              4.063964
            ],
            [
              114.579238,
              4.062795
            ],
            [
              114.579314,
              4.06122
            ],
            [
              114.57972,
              4.05995
            ],
            [
              114.580356,
              4.058756
            ],
            [
              114.583023,
              4.054945
            ],
            [
              114.58343,
              4.050728
            ],
            [
              114.583938,
              4.049508
            ],
            [
              114.587647,
              4.047501
            ],
            [
              114.589679,
              4.046815
            ],
            [
              114.591026,
              4.046536
            ],
            [
              114.59692,
              4.046638
            ],
            [
              114.599842,
              4.047603
            ],
            [
              114.602052,
              4.047933
            ],
            [
              114.605405,
              4.047196
            ],
            [
              114.607996,
              4.046104
            ],
            [
              114.614449,
              4.044554
            ],
            [
              114.615212,
              4.044148
            ],
            [
              114.616914,
              4.042242
            ],
            [
              114.619505,
              4.038127
            ],
            [
              114.627305,
              4.030251
            ],
            [
              114.62761,
              4.02926
            ],
            [
              114.627559,
              4.028371
            ],
            [
              114.626543,
              4.026109
            ],
            [
              114.62634,
              4.022426
            ],
            [
              114.625196,
              4.02019
            ],
            [
              114.624993,
              4.018259
            ],
            [
              114.624764,
              4.017675
            ],
            [
              114.62446,
              4.017268
            ],
            [
              114.623621,
              4.01671
            ],
            [
              114.621716,
              4.016024
            ],
            [
              114.620674,
              4.014931
            ],
            [
              114.617727,
              4.013178
            ],
            [
              114.617117,
              4.012645
            ],
            [
              114.615669,
              4.010358
            ],
            [
              114.614627,
              4.008046
            ],
            [
              114.61384,
              4.007004
            ],
            [
              114.611502,
              4.006395
            ],
            [
              114.610334,
              4.00576
            ],
            [
              114.610029,
              4.005378
            ],
            [
              114.609902,
              4.004591
            ],
            [
              114.61008,
              4.004108
            ],
            [
              114.610283,
              4.003752
            ],
            [
              114.611452,
              4.003168
            ],
            [
              114.619073,
              4.002508
            ],
            [
              114.626085,
              4.002965
            ],
            [
              114.628778,
              4.003422
            ],
            [
              114.635104,
              4.005353
            ],
            [
              114.636298,
              4.005556
            ],
            [
              114.638687,
              4.005709
            ],
            [
              114.642116,
              4.005175
            ],
            [
              114.644809,
              4.005709
            ],
            [
              114.649205,
              4.006242
            ],
            [
              114.660129,
              4.010256
            ],
            [
              114.671079,
              4.015185
            ],
            [
              114.676567,
              4.017141
            ],
            [
              114.686957,
              4.022476
            ],
            [
              114.692496,
              4.025982
            ],
            [
              114.696612,
              4.028167
            ],
            [
              114.701464,
              4.031546
            ],
            [
              114.703344,
              4.033401
            ],
            [
              114.708959,
              4.036856
            ],
            [
              114.711474,
              4.038584
            ],
            [
              114.716123,
              4.04214
            ],
            [
              114.718511,
              4.043715
            ],
            [
              114.724151,
              4.049026
            ],
            [
              114.725116,
              4.050245
            ],
            [
              114.726158,
              4.052278
            ],
            [
              114.726844,
              4.053243
            ],
            [
              114.733348,
              4.06122
            ],
            [
              114.741808,
              4.075295
            ],
            [
              114.743205,
              4.077048
            ],
            [
              114.745924,
              4.079893
            ],
            [
              114.753063,
              4.088735
            ],
            [
              114.755718,
              4.09327
            ],
            [
              114.756937,
              4.09454
            ],
            [
              114.759478,
              4.096496
            ],
            [
              114.761815,
              4.09957
            ],
            [
              114.76494,
              4.102543
            ],
            [
              114.774239,
              4.110876
            ],
            [
              114.775103,
              4.112578
            ],
            [
              114.777008,
              4.117862
            ],
            [
              114.777897,
              4.119031
            ],
            [
              114.778583,
              4.11959
            ],
            [
              114.779345,
              4.119945
            ],
            [
              114.781048,
              4.120403
            ],
            [
              114.78341,
              4.121825
            ],
            [
              114.786129,
              4.122333
            ],
            [
              114.788593,
              4.1234
            ],
            [
              114.790219,
              4.123375
            ],
            [
              114.79126,
              4.123655
            ],
            [
              114.793267,
              4.125509
            ],
            [
              114.793496,
              4.125967
            ],
            [
              114.793598,
              4.128024
            ],
            [
              114.793877,
              4.129549
            ],
            [
              114.792861,
              4.131429
            ],
            [
              114.792785,
              4.132216
            ],
            [
              114.79309,
              4.132648
            ],
            [
              114.794055,
              4.133283
            ],
            [
              114.796265,
              4.134071
            ],
            [
              114.7969,
              4.135291
            ],
            [
              114.797383,
              4.135748
            ],
            [
              114.800559,
              4.13806
            ],
            [
              114.801016,
              4.139076
            ],
            [
              114.801423,
              4.143116
            ],
            [
              114.80249,
              4.145148
            ],
            [
              114.805285,
              4.147053
            ],
            [
              114.80653,
              4.147663
            ],
            [
              114.80686,
              4.147943
            ],
            [
              114.807622,
              4.149289
            ],
            [
              114.807876,
              4.150229
            ],
            [
              114.80846,
              4.155412
            ],
            [
              114.808841,
              4.157216
            ],
            [
              114.808562,
              4.158791
            ],
            [
              114.807495,
              4.160188
            ],
            [
              114.806784,
              4.160646
            ],
            [
              114.805107,
              4.161281
            ],
            [
              114.80343,
              4.160925
            ],
            [
              114.798171,
              4.158029
            ],
            [
              114.796596,
              4.157546
            ],
            [
              114.79563,
              4.157597
            ],
            [
              114.793903,
              4.158435
            ],
            [
              114.793115,
              4.159883
            ],
            [
              114.792988,
              4.160493
            ],
            [
              114.793166,
              4.161484
            ],
            [
              114.793827,
              4.163593
            ],
            [
              114.795097,
              4.165777
            ],
            [
              114.796723,
              4.166971
            ],
            [
              114.797663,
              4.16847
            ],
            [
              114.798603,
              4.170528
            ],
            [
              114.798984,
              4.172154
            ],
            [
              114.79934,
              4.175127
            ],
            [
              114.800051,
              4.178023
            ],
            [
              114.801245,
              4.180386
            ],
            [
              114.802719,
              4.182469
            ],
            [
              114.80498,
              4.184349
            ],
            [
              114.805285,
              4.184831
            ],
            [
              114.805539,
              4.188591
            ],
            [
              114.806275,
              4.190242
            ],
            [
              114.807165,
              4.191615
            ],
            [
              114.81034,
              4.195222
            ],
            [
              114.812626,
              4.197509
            ],
            [
              114.813744,
              4.19977
            ],
            [
              114.817758,
              4.203581
            ],
            [
              114.8204,
              4.207265
            ],
            [
              114.827184,
              4.215115
            ],
            [
              114.830995,
              4.218545
            ],
            [
              114.831961,
              4.220044
            ],
            [
              114.832621,
              4.224591
            ],
            [
              114.832951,
              4.225913
            ],
            [
              114.836737,
              4.229622
            ],
            [
              114.841538,
              4.239174
            ],
            [
              114.842834,
              4.242858
            ],
            [
              114.84385,
              4.245145
            ],
            [
              114.845552,
              4.247838
            ],
            [
              114.847612,
              4.250481
            ],
            [
              114.849056,
              4.254615
            ],
            [
              114.850811,
              4.258777
            ],
            [
              114.852114,
              4.261184
            ],
            [
              114.855163,
              4.265881
            ],
            [
              114.856528,
              4.267432
            ],
            [
              114.857749,
              4.269565
            ],
            [
              114.858032,
              4.27033
            ],
            [
              114.85806,
              4.270981
            ],
            [
              114.857831,
              4.272086
            ],
            [
              114.856815,
              4.273756
            ],
            [
              114.856475,
              4.27486
            ],
            [
              114.856956,
              4.277267
            ],
            [
              114.856871,
              4.27823
            ],
            [
              114.856342,
              4.278684
            ],
            [
              114.855887,
              4.278664
            ],
            [
              114.853502,
              4.277664
            ],
            [
              114.851859,
              4.277267
            ],
            [
              114.849679,
              4.276418
            ],
            [
              114.848172,
              4.275251
            ],
            [
              114.847406,
              4.274092
            ],
            [
              114.84444,
              4.270415
            ],
            [
              114.84209,
              4.267753
            ],
            [
              114.840674,
              4.266536
            ],
            [
              114.838367,
              4.263874
            ],
            [
              114.836172,
              4.2609
            ],
            [
              114.835691,
              4.260475
            ],
            [
              114.834813,
              4.259966
            ],
            [
              114.834162,
              4.259796
            ],
            [
              114.83167,
              4.259711
            ],
            [
              114.828915,
              4.260192
            ],
            [
              114.828017,
              4.259853
            ],
            [
              114.827451,
              4.259484
            ],
            [
              114.825295,
              4.257421
            ],
            [
              114.824426,
              4.256862
            ],
            [
              114.822496,
              4.254444
            ],
            [
              114.821055,
              4.252146
            ],
            [
              114.819689,
              4.251154
            ],
            [
              114.818163,
              4.250707
            ],
            [
              114.816776,
              4.25065
            ],
            [
              114.816068,
              4.250877
            ],
            [
              114.815219,
              4.251556
            ],
            [
              114.814624,
              4.252264
            ],
            [
              114.81398,
              4.253739
            ],
            [
              114.813831,
              4.254756
            ],
            [
              114.814042,
              4.25711
            ],
            [
              114.814311,
              4.257607
            ],
            [
              114.816096,
              4.259088
            ],
            [
              114.816578,
              4.259711
            ],
            [
              114.817059,
              4.260759
            ],
            [
              114.817965,
              4.262004
            ],
            [
              114.8182,
              4.262736
            ],
            [
              114.818882,
              4.26346
            ],
            [
              114.819275,
              4.26435
            ],
            [
              114.820825,
              4.266167
            ],
            [
              114.82213,
              4.268093
            ],
            [
              114.82445,
              4.271009
            ],
            [
              114.825157,
              4.272539
            ],
            [
              114.826433,
              4.273493
            ],
            [
              114.827549,
              4.275334
            ],
            [
              114.828074,
              4.27571
            ],
            [
              114.828499,
              4.276276
            ],
            [
              114.82864,
              4.276842
            ],
            [
              114.828527,
              4.277918
            ],
            [
              114.828669,
              4.278202
            ],
            [
              114.828935,
              4.278643
            ],
            [
              114.829866,
              4.279264
            ],
            [
              114.830934,
              4.280439
            ],
            [
              114.831981,
              4.283015
            ],
            [
              114.833423,
              4.284373
            ],
            [
              114.834726,
              4.285241
            ],
            [
              114.838636,
              4.291509
            ],
            [
              114.840901,
              4.293605
            ],
            [
              114.841553,
              4.29519
            ],
            [
              114.843,
              4.297176
            ],
            [
              114.843269,
              4.297817
            ],
            [
              114.843435,
              4.299844
            ],
            [
              114.843761,
              4.300599
            ],
            [
              114.847427,
              4.303629
            ],
            [
              114.847753,
              4.30445
            ],
            [
              114.847882,
              4.305843
            ],
            [
              114.848089,
              4.306153
            ],
            [
              114.848585,
              4.306546
            ],
            [
              114.8505,
              4.306913
            ],
            [
              114.851236,
              4.307395
            ],
            [
              114.851491,
              4.308357
            ],
            [
              114.851406,
              4.30898
            ],
            [
              114.85084,
              4.310113
            ],
            [
              114.850943,
              4.310538
            ],
            [
              114.851502,
              4.311241
            ],
            [
              114.851895,
              4.312793
            ],
            [
              114.85357,
              4.314116
            ],
            [
              114.855349,
              4.314696
            ],
            [
              114.855473,
              4.314965
            ],
            [
              114.854873,
              4.315709
            ],
            [
              114.854914,
              4.316268
            ],
            [
              114.85571,
              4.318154
            ],
            [
              114.858534,
              4.321067
            ],
            [
              114.860541,
              4.322639
            ],
            [
              114.863105,
              4.326734
            ],
            [
              114.86445,
              4.328078
            ],
            [
              114.865877,
              4.33087
            ],
            [
              114.867036,
              4.331661
            ],
            [
              114.867739,
              4.332463
            ],
            [
              114.868056,
              4.333502
            ],
            [
              114.870236,
              4.3369
            ],
            [
              114.870434,
              4.33908
            ],
            [
              114.870887,
              4.33959
            ],
            [
              114.871737,
              4.340071
            ],
            [
              114.872161,
              4.340581
            ],
            [
              114.872599,
              4.343943
            ],
            [
              114.871896,
              4.345329
            ],
            [
              114.872813,
              4.346895
            ],
            [
              114.873344,
              4.349672
            ],
            [
              114.873985,
              4.350189
            ],
            [
              114.875123,
              4.350644
            ],
            [
              114.875475,
              4.35141
            ],
            [
              114.875729,
              4.353266
            ],
            [
              114.877202,
              4.354626
            ],
            [
              114.877258,
              4.355447
            ],
            [
              114.876805,
              4.358307
            ],
            [
              114.87689,
              4.35893
            ],
            [
              114.877584,
              4.359891
            ],
            [
              114.877711,
              4.360346
            ],
            [
              114.877683,
              4.36179
            ],
            [
              114.878504,
              4.363347
            ],
            [
              114.878561,
              4.363715
            ],
            [
              114.878164,
              4.364979
            ],
            [
              114.878495,
              4.36682
            ],
            [
              114.878278,
              4.367509
            ],
            [
              114.878334,
              4.367821
            ],
            [
              114.878577,
              4.368392
            ],
            [
              114.879439,
              4.369208
            ],
            [
              114.880175,
              4.37068
            ],
            [
              114.880273,
              4.374431
            ],
            [
              114.879777,
              4.375259
            ],
            [
              114.879184,
              4.375806
            ],
            [
              114.879155,
              4.376174
            ],
            [
              114.879977,
              4.377674
            ],
            [
              114.87958,
              4.380534
            ],
            [
              114.880584,
              4.382436
            ],
            [
              114.880883,
              4.383366
            ],
            [
              114.880854,
              4.384414
            ],
            [
              114.880005,
              4.386396
            ],
            [
              114.880149,
              4.387566
            ],
            [
              114.879637,
              4.390105
            ],
            [
              114.87957,
              4.39222
            ],
            [
              114.877994,
              4.393504
            ],
            [
              114.877825,
              4.394098
            ],
            [
              114.878391,
              4.395486
            ],
            [
              114.879693,
              4.396901
            ],
            [
              114.880628,
              4.398232
            ],
            [
              114.881194,
              4.399761
            ],
            [
              114.88228,
              4.401693
            ],
            [
              114.882342,
              4.402479
            ],
            [
              114.88168,
              4.403865
            ],
            [
              114.881515,
              4.404817
            ],
            [
              114.882298,
              4.407435
            ],
            [
              114.88261,
              4.4097
            ],
            [
              114.883397,
              4.411022
            ],
            [
              114.883355,
              4.41156
            ],
            [
              114.882808,
              4.412871
            ],
            [
              114.882666,
              4.414428
            ],
            [
              114.883516,
              4.416609
            ],
            [
              114.883289,
              4.418676
            ],
            [
              114.883827,
              4.420318
            ],
            [
              114.883459,
              4.423263
            ],
            [
              114.882836,
              4.425415
            ],
            [
              114.881618,
              4.426101
            ],
            [
              114.879487,
              4.42606
            ],
            [
              114.877584,
              4.426556
            ],
            [
              114.87715,
              4.426494
            ],
            [
              114.875578,
              4.425563
            ],
            [
              114.873489,
              4.424674
            ],
            [
              114.872807,
              4.424529
            ],
            [
              114.871454,
              4.424792
            ],
            [
              114.868141,
              4.423829
            ],
            [
              114.866612,
              4.422923
            ],
            [
              114.865257,
              4.422792
            ],
            [
              114.864761,
              4.422605
            ],
            [
              114.863384,
              4.421508
            ],
            [
              114.862761,
              4.421281
            ],
            [
              114.860694,
              4.421224
            ],
            [
              114.85622,
              4.421932
            ],
            [
              114.854294,
              4.422669
            ],
            [
              114.850698,
              4.423008
            ],
            [
              114.84965,
              4.422753
            ],
            [
              114.847272,
              4.421224
            ],
            [
              114.846422,
              4.421054
            ],
            [
              114.845686,
              4.421168
            ],
            [
              114.844553,
              4.421677
            ],
            [
              114.842194,
              4.423164
            ],
            [
              114.840532,
              4.424764
            ],
            [
              114.839372,
              4.425557
            ],
            [
              114.83785,
              4.425998
            ],
            [
              114.835554,
              4.426204
            ],
            [
              114.834954,
              4.426434
            ],
            [
              114.832745,
              4.427879
            ],
            [
              114.831585,
              4.428332
            ],
            [
              114.829546,
              4.429663
            ],
            [
              114.829036,
              4.430257
            ],
            [
              114.828498,
              4.431277
            ],
            [
              114.828159,
              4.433145
            ],
            [
              114.82779,
              4.434249
            ],
            [
              114.827904,
              4.435835
            ],
            [
              114.827762,
              4.436656
            ],
            [
              114.827322,
              4.438512
            ],
            [
              114.826495,
              4.440311
            ],
            [
              114.826681,
              4.441242
            ],
            [
              114.827508,
              4.442255
            ],
            [
              114.827446,
              4.442772
            ],
            [
              114.827054,
              4.44365
            ],
            [
              114.825837,
              4.445406
            ],
            [
              114.82561,
              4.446057
            ],
            [
              114.82578,
              4.446708
            ],
            [
              114.826601,
              4.447671
            ],
            [
              114.826658,
              4.448605
            ],
            [
              114.82527,
              4.450418
            ],
            [
              114.82527,
              4.451522
            ],
            [
              114.825016,
              4.452966
            ],
            [
              114.824336,
              4.455429
            ],
            [
              114.822948,
              4.457865
            ],
            [
              114.822379,
              4.458575
            ],
            [
              114.821391,
              4.459394
            ],
            [
              114.82125,
              4.459705
            ],
            [
              114.821221,
              4.46013
            ],
            [
              114.822071,
              4.461942
            ],
            [
              114.822014,
              4.462905
            ],
            [
              114.821419,
              4.464349
            ],
            [
              114.821504,
              4.46585
            ],
            [
              114.820995,
              4.467039
            ],
            [
              114.821334,
              4.469135
            ],
            [
              114.821278,
              4.470041
            ],
            [
              114.820485,
              4.471881
            ],
            [
              114.820655,
              4.473467
            ],
            [
              114.820117,
              4.474429
            ],
            [
              114.818956,
              4.475392
            ],
            [
              114.818645,
              4.475873
            ],
            [
              114.818305,
              4.477006
            ],
            [
              114.818079,
              4.478847
            ],
            [
              114.81805,
              4.483434
            ],
            [
              114.818985,
              4.486633
            ],
            [
              114.818333,
              4.490286
            ],
            [
              114.818786,
              4.492325
            ],
            [
              114.81822,
              4.493684
            ],
            [
              114.818305,
              4.493995
            ],
            [
              114.819466,
              4.495298
            ],
            [
              114.819608,
              4.496034
            ],
            [
              114.819296,
              4.496799
            ],
            [
              114.81856,
              4.497847
            ],
            [
              114.818475,
              4.498328
            ],
            [
              114.819282,
              4.501056
            ],
            [
              114.819308,
              4.50164
            ],
            [
              114.818927,
              4.503673
            ],
            [
              114.819257,
              4.504994
            ],
            [
              114.819232,
              4.505553
            ],
            [
              114.81885,
              4.507026
            ],
            [
              114.819511,
              4.508551
            ],
            [
              114.818673,
              4.51099
            ],
            [
              114.818673,
              4.511345
            ],
            [
              114.81974,
              4.513124
            ],
            [
              114.819918,
              4.513937
            ],
            [
              114.819282,
              4.515435
            ],
            [
              114.819105,
              4.516579
            ],
            [
              114.818393,
              4.518408
            ],
            [
              114.818317,
              4.518967
            ],
            [
              114.818774,
              4.520898
            ],
            [
              114.818876,
              4.522498
            ],
            [
              114.8188,
              4.523057
            ],
            [
              114.818292,
              4.524226
            ],
            [
              114.818241,
              4.524988
            ],
            [
              114.819359,
              4.526589
            ],
            [
              114.819511,
              4.52697
            ],
            [
              114.819486,
              4.527554
            ],
            [
              114.819409,
              4.528138
            ],
            [
              114.81819,
              4.530018
            ],
            [
              114.818088,
              4.530704
            ],
            [
              114.819206,
              4.532839
            ],
            [
              114.819918,
              4.535659
            ],
            [
              114.819384,
              4.537412
            ],
            [
              114.819536,
              4.539063
            ],
            [
              114.819435,
              4.539444
            ],
            [
              114.819155,
              4.539952
            ],
            [
              114.817885,
              4.541273
            ],
            [
              114.817606,
              4.541883
            ],
            [
              114.817783,
              4.542874
            ],
            [
              114.818444,
              4.544627
            ],
            [
              114.818469,
              4.545312
            ],
            [
              114.818139,
              4.546049
            ],
            [
              114.817148,
              4.547269
            ],
            [
              114.816894,
              4.548056
            ],
            [
              114.81692,
              4.548386
            ],
            [
              114.818495,
              4.550495
            ],
            [
              114.818876,
              4.55141
            ],
            [
              114.8188,
              4.552274
            ],
            [
              114.817885,
              4.5539
            ],
            [
              114.817403,
              4.555526
            ],
            [
              114.817428,
              4.55583
            ],
            [
              114.818597,
              4.556821
            ],
            [
              114.818902,
              4.557304
            ],
            [
              114.819003,
              4.558066
            ],
            [
              114.818876,
              4.558498
            ],
            [
              114.817656,
              4.560328
            ],
            [
              114.816996,
              4.561776
            ],
            [
              114.814887,
              4.563986
            ],
            [
              114.81504,
              4.566603
            ],
            [
              114.814811,
              4.568686
            ],
            [
              114.81504,
              4.569601
            ],
            [
              114.816716,
              4.571709
            ],
            [
              114.817097,
              4.572471
            ],
            [
              114.817097,
              4.573386
            ],
            [
              114.816666,
              4.575037
            ],
            [
              114.816666,
              4.576104
            ],
            [
              114.817021,
              4.577171
            ],
            [
              114.816666,
              4.580271
            ],
            [
              114.816894,
              4.581262
            ],
            [
              114.818139,
              4.583116
            ],
            [
              114.818215,
              4.584056
            ],
            [
              114.817936,
              4.584514
            ],
            [
              114.817428,
              4.584895
            ],
            [
              114.814659,
              4.586317
            ],
            [
              114.813998,
              4.586978
            ],
            [
              114.813922,
              4.587765
            ],
            [
              114.814277,
              4.588832
            ],
            [
              114.814684,
              4.589366
            ],
            [
              114.816157,
              4.590636
            ],
            [
              114.816615,
              4.591475
            ],
            [
              114.816564,
              4.592415
            ],
            [
              114.816005,
              4.594092
            ],
            [
              114.815548,
              4.5946
            ],
            [
              114.814633,
              4.595209
            ],
            [
              114.809806,
              4.596505
            ],
            [
              114.809374,
              4.596734
            ],
            [
              114.808764,
              4.597445
            ],
            [
              114.808561,
              4.599223
            ],
            [
              114.809044,
              4.600417
            ],
            [
              114.810086,
              4.601535
            ],
            [
              114.811153,
              4.602247
            ],
            [
              114.811331,
              4.602602
            ],
            [
              114.811127,
              4.603339
            ],
            [
              114.809578,
              4.604762
            ],
            [
              114.808993,
              4.60654
            ],
            [
              114.808943,
              4.60776
            ],
            [
              114.809146,
              4.609157
            ],
            [
              114.808638,
              4.610656
            ],
            [
              114.808561,
              4.611571
            ],
            [
              114.80879,
              4.612536
            ],
            [
              114.809527,
              4.614086
            ],
            [
              114.809654,
              4.615356
            ],
            [
              114.80813,
              4.617719
            ],
            [
              114.80818,
              4.619827
            ],
            [
              114.807342,
              4.622825
            ],
            [
              114.807317,
              4.623511
            ],
            [
              114.807748,
              4.626001
            ],
            [
              114.806529,
              4.627805
            ],
            [
              114.803302,
              4.630371
            ],
            [
              114.801651,
              4.632378
            ],
            [
              114.800076,
              4.635427
            ],
            [
              114.799415,
              4.639288
            ],
            [
              114.799543,
              4.639872
            ],
            [
              114.800711,
              4.642337
            ],
            [
              114.800864,
              4.643759
            ],
            [
              114.800305,
              4.648815
            ],
            [
              114.800457,
              4.651051
            ],
            [
              114.800686,
              4.652169
            ],
            [
              114.800381,
              4.654328
            ],
            [
              114.800661,
              4.657656
            ],
            [
              114.800508,
              4.658139
            ],
            [
              114.800025,
              4.658495
            ],
            [
              114.798298,
              4.659282
            ],
            [
              114.797587,
              4.659791
            ],
            [
              114.797256,
              4.66068
            ],
            [
              114.797332,
              4.664262
            ],
            [
              114.797942,
              4.665583
            ],
            [
              114.799721,
              4.667819
            ],
            [
              114.799873,
              4.668784
            ],
            [
              114.799517,
              4.669673
            ],
            [
              114.799594,
              4.670385
            ],
            [
              114.800787,
              4.672773
            ],
            [
              114.801829,
              4.673713
            ],
            [
              114.802134,
              4.674272
            ],
            [
              114.802287,
              4.675364
            ],
            [
              114.801804,
              4.676152
            ],
            [
              114.801067,
              4.676736
            ],
            [
              114.797637,
              4.677981
            ],
            [
              114.795732,
              4.67821
            ],
            [
              114.790803,
              4.677854
            ],
            [
              114.790066,
              4.678006
            ],
            [
              114.789558,
              4.678311
            ],
            [
              114.788796,
              4.678896
            ],
            [
              114.788161,
              4.680064
            ],
            [
              114.786027,
              4.689972
            ],
            [
              114.785798,
              4.690861
            ],
            [
              114.785519,
              4.691293
            ],
            [
              114.784528,
              4.691827
            ],
            [
              114.781962,
              4.692539
            ],
            [
              114.77932,
              4.692691
            ],
            [
              114.778151,
              4.692919
            ],
            [
              114.776855,
              4.693402
            ],
            [
              114.775813,
              4.694419
            ],
            [
              114.775077,
              4.696096
            ],
            [
              114.775077,
              4.697823
            ],
            [
              114.775483,
              4.700237
            ],
            [
              114.777592,
              4.704581
            ],
            [
              114.780767,
              4.706741
            ],
            [
              114.781403,
              4.70735
            ],
            [
              114.781733,
              4.707909
            ],
            [
              114.783232,
              4.713346
            ],
            [
              114.783308,
              4.714921
            ],
            [
              114.783054,
              4.716801
            ],
            [
              114.782292,
              4.718478
            ],
            [
              114.781123,
              4.719189
            ],
            [
              114.771748,
              4.72112
            ],
            [
              114.7703,
              4.721628
            ],
            [
              114.769843,
              4.72206
            ],
            [
              114.76964,
              4.722746
            ],
            [
              114.769741,
              4.723991
            ],
            [
              114.770046,
              4.724727
            ],
            [
              114.7707733,
              4.7257073
            ],
            [
              114.771469,
              4.726226
            ],
            [
              114.775204,
              4.72775
            ],
            [
              114.776449,
              4.728564
            ],
            [
              114.7781,
              4.730824
            ],
            [
              114.780336,
              4.732654
            ],
            [
              114.782063,
              4.733518
            ],
            [
              114.783079,
              4.734331
            ],
            [
              114.787094,
              4.736643
            ],
            [
              114.788974,
              4.737456
            ],
            [
              114.7896652,
              4.7376805
            ],
            [
              114.7889118,
              4.7356155
            ],
            [
              114.7891822,
              4.7304964
            ],
            [
              114.7912885,
              4.7324307
            ],
            [
              114.8009813,
              4.7363771
            ],
            [
              114.8024832,
              4.7401282
            ],
            [
              114.807419,
              4.740886
            ],
            [
              114.8137573,
              4.7401104
            ],
            [
              114.820451,
              4.743807
            ],
            [
              114.8217228,
              4.7443802
            ],
            [
              114.822865,
              4.744569
            ],
            [
              114.8238539,
              4.7449935
            ],
            [
              114.8243676,
              4.7457929
            ],
            [
              114.8251641,
              4.7462188
            ],
            [
              114.8257198,
              4.747011
            ],
            [
              114.8272366,
              4.7504225
            ],
            [
              114.8289408,
              4.753157
            ],
            [
              114.8314377,
              4.7540167
            ],
            [
              114.8340049,
              4.7569723
            ],
            [
              114.8342962,
              4.758082
            ],
            [
              114.8354905,
              4.758956
            ],
            [
              114.8366351,
              4.7602938
            ],
            [
              114.837645,
              4.7620349
            ],
            [
              114.8414,
              4.769933
            ],
            [
              114.8424719,
              4.771598
            ],
            [
              114.846883,
              4.785606
            ],
            [
              114.848672,
              4.788794
            ],
            [
              114.85085,
              4.7914
            ],
            [
              114.853728,
              4.7942
            ],
            [
              114.856294,
              4.796144
            ],
            [
              114.858511,
              4.797505
            ],
            [
              114.861039,
              4.798555
            ],
            [
              114.870022,
              4.801472
            ],
            [
              114.874767,
              4.803261
            ],
            [
              114.8769225,
              4.8044494
            ],
            [
              114.882428,
              4.808045
            ],
            [
              114.896272,
              4.816056
            ],
            [
              114.896855,
              4.816173
            ],
            [
              114.8985331,
              4.815988
            ],
            [
              114.9138867,
              4.8101651
            ],
            [
              114.9140584,
              4.8091067
            ],
            [
              114.9187394,
              4.8088476
            ],
            [
              114.919489,
              4.80995
            ],
            [
              114.92505,
              4.812089
            ],
            [
              114.9324,
              4.814656
            ],
            [
              114.93415,
              4.814967
            ],
            [
              114.937495,
              4.814617
            ],
            [
              114.9387,
              4.8141528
            ],
            [
              114.9390467,
              4.8135175
            ],
            [
              114.938871,
              4.8120526
            ],
            [
              114.9392961,
              4.8115285
            ],
            [
              114.9389019,
              4.8104376
            ],
            [
              114.9392325,
              4.8094607
            ],
            [
              114.9426896,
              4.8077635
            ],
            [
              114.946682,
              4.812915
            ],
            [
              114.948781,
              4.813926
            ],
            [
              114.949365,
              4.813809
            ],
            [
              114.950765,
              4.81204
            ],
            [
              114.951699,
              4.812118
            ],
            [
              114.952262,
              4.812584
            ],
            [
              114.953312,
              4.812759
            ],
            [
              114.953974,
              4.812643
            ],
            [
              114.955101,
              4.811573
            ],
            [
              114.956171,
              4.811671
            ],
            [
              114.957454,
              4.812332
            ],
            [
              114.958738,
              4.811904
            ],
            [
              114.960663,
              4.812196
            ],
            [
              114.962743,
              4.810776
            ],
            [
              114.963346,
              4.810698
            ],
            [
              114.964493,
              4.811029
            ],
            [
              114.965232,
              4.810873
            ],
            [
              114.966263,
              4.810504
            ],
            [
              114.970015,
              4.808463
            ],
            [
              114.9711143,
              4.8081205
            ],
            [
              114.9728133,
              4.8112774
            ],
            [
              114.974594,
              4.8131937
            ],
            [
              114.9752482,
              4.8142783
            ],
            [
              114.9755309,
              4.8152553
            ],
            [
              114.9755669,
              4.8165157
            ],
            [
              114.9759691,
              4.817961
            ],
            [
              114.9763873,
              4.8193327
            ],
            [
              114.9772093,
              4.8211884
            ],
            [
              114.9775568,
              4.8217286
            ],
            [
              114.9804962,
              4.8246205
            ],
            [
              114.9807194,
              4.8250784
            ],
            [
              114.9811055,
              4.8271443
            ],
            [
              114.9816037,
              4.8281613
            ],
            [
              114.9834974,
              4.8307516
            ],
            [
              114.9846873,
              4.8334881
            ],
            [
              114.9869512,
              4.8368191
            ],
            [
              114.9875556,
              4.8378617
            ],
            [
              114.9877793,
              4.838606
            ],
            [
              114.9877628,
              4.8399003
            ],
            [
              114.9872065,
              4.8407125
            ],
            [
              114.9847929,
              4.8432454
            ],
            [
              114.9835378,
              4.8456934
            ],
            [
              114.9833069,
              4.8468047
            ],
            [
              114.983617,
              4.850045
            ],
            [
              114.98385,
              4.850511
            ],
            [
              114.984433,
              4.850978
            ],
            [
              114.986106,
              4.851795
            ],
            [
              114.988944,
              4.85265
            ],
            [
              114.990305,
              4.853389
            ],
            [
              114.992133,
              4.854867
            ],
            [
              114.992405,
              4.855489
            ],
            [
              114.99225,
              4.857161
            ],
            [
              114.988283,
              4.867272
            ],
            [
              114.987894,
              4.868711
            ],
            [
              114.987661,
              4.8705
            ],
            [
              114.988011,
              4.871861
            ],
            [
              114.988478,
              4.872678
            ],
            [
              114.992406,
              4.876839
            ],
            [
              115,
              4.883550320779219
            ],
            [
              115,
              5
            ],
            [
              114.54969714118543,
              5
            ],
            [
              114.5458918,
              4.9969733
            ],
            [
              114.5372707,
              4.9893428
            ],
            [
              114.5282741,
              4.9806249
            ],
            [
              114.5180316,
              4.9698178
            ],
            [
              114.5100776,
              4.9627175
            ],
            [
              114.4980486,
              4.952583
            ],
            [
              114.4851674,
              4.9423787
            ],
            [
              114.4793028,
              4.9384603
            ],
            [
              114.471697,
              4.9329055
            ],
            [
              114.4667747,
              4.9290058
            ],
            [
              114.4596258,
              4.9228712
            ],
            [
              114.4505559,
              4.9141809
            ],
            [
              114.4441194,
              4.9072986
            ],
            [
              114.4376655,
              4.8996861
            ],
            [
              114.4351109,
              4.8970851
            ],
            [
              114.4322922,
              4.8946407
            ],
            [
              114.4168494,
              4.8823858
            ],
            [
              114.397558,
              4.8678788
            ],
            [
              114.3751695,
              4.8548513
            ],
            [
              114.3681432,
              4.8511383
            ],
            [
              114.3619231,
              4.848772
            ],
            [
              114.3561273,
              4.8463533
            ],
            [
              114.3460611,
              4.8416379
            ],
            [
              114.3404992,
              4.8395615
            ],
            [
              114.3272985,
              4.8351915
            ],
            [
              114.3097703,
              4.8288997
            ],
            [
              114.2822947,
              4.8182812
            ],
            [
              114.2737108,
              4.814721
            ],
            [
              114.2654938,
              4.8116992
            ],
            [
              114.2456185,
              4.8049043
            ],
            [
              114.2316264,
              4.8006173
            ],
            [
              114.2219817,
              4.7979094
            ],
            [
              114.2122736,
              4.7954854
            ],
            [
              114.2036533,
              4.7937397
            ],
            [
              114.1927252,
              4.794922
            ],
            [
              114.183327,
              4.7954494
            ],
            [
              114.1739146,
              4.795533
            ],
            [
              114.1613786,
              4.7949536
            ],
            [
              114.1520139,
              4.7940024
            ],
            [
              114.1458,
              4.7931232
            ],
            [
              114.1334702,
              4.7907809
            ],
            [
              114.123073,
              4.7881636
            ],
            [
              114.1160034,
              4.7876875
            ],
            [
              114.1101205,
              4.7874023
            ],
            [
              114.1022296,
              4.7872928
            ],
            [
              114.0898516,
              4.7874598
            ],
            [
              114.0832914,
              4.7878103
            ],
            [
              114.0738609,
              4.7879325
            ],
            [
              114.0644353,
              4.7876088
            ],
            [
              114.0550354,
              4.7868399
            ],
            [
              114.0425784,
              4.7851253
            ],
            [
              114.0363964,
              4.7839744
            ],
            [
              114.0271986,
              4.7818842
            ],
            [
              114.0151072,
              4.7784256
            ],
            [
              114.0091488,
              4.7764122
            ],
            [
              114.0025696,
              4.7739369
            ]
          ]
        ]
      }
    },
    {
      "type": "Feature",
      "properties": {
        "osm_id": -2108121,
        "boundary": "administrative",
        "admin_level": 2,
        "parents": null,
        "name": "Malaysia",
        "local_name": "Malaysia",
        "name_en": "Malaysia",
        "all_tags": {
          "flag": "http://upload.wikimedia.org/wikipedia/commons/6/66/Flag_of_Malaysia.svg",
          "name": "Malaysia",
          "name:am": "ማሌዢያ",
          "name:an": "Malaisia",
          "name:ar": "ماليزيا",
          "name:az": "Malayziya",
          "name:ba": "Малайзия",
          "name:be": "Малайзія",
          "name:bg": "Малайзия",
          "name:bn": "মালয়েশিয়া",
          "name:bo": "མ་ལ་ཤི་ཡ།",
          "name:br": "Malaysia",
          "name:bs": "Malezija",
          "name:ca": "Malàisia",
          "name:ce": "Малайзи",
          "name:cs": "Malajsie",
          "name:cv": "Малайзи",
          "name:cy": "Malaysia",
          "name:da": "Malaysia",
          "name:de": "Malaysia",
          "name:dv": "މެލޭޝިޔާ",
          "name:dz": "མ་ལེ་ཤི་ཡ་",
          "name:el": "Μαλαισία",
          "name:en": "Malaysia",
          "name:eo": "Malajzio",
          "name:es": "Malasia",
          "name:et": "Malaisia",
          "name:eu": "Malaysia",
          "name:fa": "مالزی",
          "name:fi": "Malesia",
          "name:fo": "Maleisia",
          "name:fr": "Malaisie",
          "name:fy": "Maleizje",
          "name:ga": "An Mhalaeisia",
          "name:gd": "Malaidhsia",
          "name:gl": "Malaisia",
          "name:gn": "Malásia",
          "name:gu": "મલેશિયા",
          "name:gv": "Yn Valaysia",
          "name:he": "מלזיה",
          "name:hi": "मलेशिया",
          "name:hr": "Malezija",
          "name:ht": "Malezi",
          "name:hu": "Malajzia",
          "name:hy": "Մալազիա",
          "name:ia": "Malaysia",
          "name:id": "Malaysia",
          "name:ie": "Malaysia",
          "name:io": "Malaizia",
          "name:is": "Malasía",
          "name:it": "Malesia",
          "name:ja": "マレーシア",
          "name:jv": "Malaysia",
          "name:ka": "მალაიზია",
          "name:ki": "Malaysia",
          "name:kk": "Малайзия",
          "name:km": "ម៉ាឡេស៊ី",
          "name:kn": "ಮಲೇಶಿಯ",
          "name:ko": "말레이시아",
          "name:ku": "Malezya",
          "name:kv": "Малайзия",
          "name:kw": "Malaysi",
          "name:ky": "Малайзия",
          "name:la": "Malaesia",
          "name:lb": "Malaysia",
          "name:li": "Maleisië",
          "name:lo": "ປະເທດມາເລເຊຍ",
          "name:lt": "Malaizija",
          "name:lv": "Malaizija",
          "name:mi": "Marēhia",
          "name:mk": "Малезија",
          "name:ml": "മലേഷ്യ",
          "name:mn": "Малайз",
          "name:mr": "मलेशिया",
          "name:ms": "Maleisië",
          "name:mt": "Malażja",
          "name:my": "မလေးရှားနိုင်ငံ",
          "name:na": "Maraidja",
          "name:ne": "मलेशिया",
          "name:nl": "Maleisië",
          "name:nn": "Malaysia",
          "name:no": "Malaysia",
          "name:nv": "Maléízha",
          "name:oc": "Malàisia",
          "name:or": "ମାଲେସିଆ",
          "name:os": "Малайзи",
          "name:pa": "ਮਲੇਸ਼ੀਆ",
          "name:pl": "Malezja",
          "name:pt": "Malásia",
          "name:qu": "Malasya",
          "name:ro": "Malaezia",
          "name:ru": "Малайзия",
          "name:rw": "Malesiya",
          "name:sa": "मलयेशिया",
          "name:se": "Malesia",
          "name:sg": "Malezïi",
          "name:sh": "Malezija",
          "name:sk": "Malajzia",
          "name:sl": "Malezija",
          "name:so": "Malaysiya",
          "name:sq": "Malajzia",
          "name:sr": "Малезија",
          "name:ss": "IMaleshiya",
          "name:su": "Malaysia",
          "name:sv": "Malaysia",
          "name:sw": "Malaysia",
          "name:ta": "மலேசியா",
          "name:te": "మలేషియా",
          "name:tg": "Малайзия",
          "name:th": "ประเทศมาเลเซีย",
          "name:tk": "Malaýziýa",
          "name:tl": "Malasya",
          "name:tr": "Malezya",
          "name:tt": "Малайзия",
          "name:tw": "Malaysia",
          "name:ug": "مالايسىيا",
          "name:uk": "Малайзія",
          "name:ur": "ملائیشیا",
          "name:uz": "Malayziya",
          "name:vi": "Malaysia",
          "name:vo": "Malaysiyän",
          "name:wo": "Maleesi",
          "name:yi": "מאלייזיע",
          "name:yo": "Malaysia",
          "name:za": "Majlaizsihya",
          "name:zh": "马来西亚",
          "boundary": "administrative",
          "name:als": "Malaysia",
          "name:arz": "ماليزيا",
          "name:ast": "Malasia",
          "name:bar": "Malaysia",
          "name:bcl": "Malasya",
          "name:bjn": "Malaysia",
          "name:bpy": "মালয়েশিয়া",
          "name:bug": "Malaysia",
          "name:bxr": "Малайзи",
          "name:cdo": "Mā-lài-să̤-ā",
          "name:ceb": "Malasya",
          "name:ckb": "مالیزیا",
          "name:crh": "Malayziya",
          "name:csb": "Malezjô",
          "name:diq": "Malêzya",
          "name:dsb": "Malayzija",
          "name:ext": "Malásia",
          "name:frp": "Malèsie",
          "name:gag": "Malayziya",
          "name:gan": "馬來西亞",
          "name:hak": "Mâ-lòi-sî-â",
          "name:haw": "Malaisia",
          "name:hif": "Malaysia",
          "name:hsb": "Malajzija",
          "name:ilo": "Malaysia",
          "name:jbo": "mejgu'e",
          "name:kbd": "Мэлайзиэ",
          "name:lij": "Malaysia",
          "name:lmo": "Malaysia",
          "name:lzh": "馬來西亞",
          "name:mhr": "Малайзий",
          "name:min": "Malaysia",
          "name:nah": "Malasia",
          "name:nan": "Má-lâi-se-a",
          "name:nds": "Malaysia",
          "name:new": "मलेसिया",
          "name:nov": "Malaysia",
          "name:pag": "Malasia",
          "name:pam": "Malasya",
          "name:pap": "Malaysia",
          "name:pih": "Melasya",
          "name:pms": "Malaysia",
          "name:pnb": "ملائشیا",
          "name:sah": "Малайзия",
          "name:scn": "Malesia",
          "name:sco": "Malaysie",
          "name:smn": "Malesia",
          "name:sms": "Malesia",
          "name:szl": "Malezyjŏ",
          "name:tet": "Malázia",
          "name:tzl": "Malaiçía",
          "name:udm": "Малайзия",
          "name:vro": "Malaisia",
          "name:war": "Malaysia",
          "name:wuu": "马来西亚",
          "name:xal": "Малаймудин Орн",
          "name:yue": "馬來西亞",
          "way_area": "41.0891",
          "wikidata": "Q833",
          "ISO3166-1": "MY",
          "wikipedia": "en:Malaysia",
          "admin_level": "2",
          "border_type": "nation",
          "name:nan-HJ": "马来西亚",
          "name:nan-TL": "Má-lâi-se-a",
          "name:simple": "Malaysia",
          "driving_side": "left",
          "name:bat-smg": "Malaizėjė",
          "name:cbk-zam": "Malasia",
          "name:map-bms": "Malaysia",
          "name:nan-POJ": "Má-lâi-se-a",
          "name:zh-Hans": "马来西亚",
          "name:zh-Hant": "馬來西亞",
          "name:be-tarask": "Малайзія",
          "ISO3166-1:alpha2": "MY",
          "ISO3166-1:alpha3": "MYS",
          "official_name:ru": "Федерация Малайзия",
          "ISO3166-1:numeric": "458"
        }
      },
      "geometry": {
        "type": "Polygon",
        "coordinates": [
          [
            [
              114,
              4
            ],
            [
              115,
              4
            ],
            [
              115,
              4.883550320779219
            ],
            [
              114.992406,
              4.876839
            ],
            [
              114.988478,
              4.872678
            ],
            [
              114.988011,
              4.871861
            ],
            [
              114.987661,
              4.8705
            ],
            [
              114.987894,
              4.868711
            ],
            [
              114.988283,
              4.867272
            ],
            [
              114.99225,
              4.857161
            ],
            [
              114.992405,
              4.855489
            ],
            [
              114.992133,
              4.854867
            ],
            [
              114.990305,
              4.853389
            ],
            [
              114.988944,
              4.85265
            ],
            [
              114.986106,
              4.851795
            ],
            [
              114.984433,
              4.850978
            ],
            [
              114.98385,
              4.850511
            ],
            [
              114.983617,
              4.850045
            ],
            [
              114.9833069,
              4.8468047
            ],
            [
              114.9835378,
              4.8456934
            ],
            [
              114.9847929,
              4.8432454
            ],
            [
              114.9872065,
              4.8407125
            ],
            [
              114.9877628,
              4.8399003
            ],
            [
              114.9877793,
              4.838606
            ],
            [
              114.9875556,
              4.8378617
            ],
            [
              114.9869512,
              4.8368191
            ],
            [
              114.9846873,
              4.8334881
            ],
            [
              114.9834974,
              4.8307516
            ],
            [
              114.9816037,
              4.8281613
            ],
            [
              114.9811055,
              4.8271443
            ],
            [
              114.9807194,
              4.8250784
            ],
            [
              114.9804962,
              4.8246205
            ],
            [
              114.9775568,
              4.8217286
            ],
            [
              114.9772093,
              4.8211884
            ],
            [
              114.9763873,
              4.8193327
            ],
            [
              114.9759691,
              4.817961
            ],
            [
              114.9755669,
              4.8165157
            ],
            [
              114.9755309,
              4.8152553
            ],
            [
              114.9752482,
              4.8142783
            ],
            [
              114.974594,
              4.8131937
            ],
            [
              114.9728133,
              4.8112774
            ],
            [
              114.9711143,
              4.8081205
            ],
            [
              114.970015,
              4.808463
            ],
            [
              114.966263,
              4.810504
            ],
            [
              114.965232,
              4.810873
            ],
            [
              114.964493,
              4.811029
            ],
            [
              114.963346,
              4.810698
            ],
            [
              114.962743,
              4.810776
            ],
            [
              114.960663,
              4.812196
            ],
            [
              114.958738,
              4.811904
            ],
            [
              114.957454,
              4.812332
            ],
            [
              114.956171,
              4.811671
            ],
            [
              114.955101,
              4.811573
            ],
            [
              114.953974,
              4.812643
            ],
            [
              114.953312,
              4.812759
            ],
            [
              114.952262,
              4.812584
            ],
            [
              114.951699,
              4.812118
            ],
            [
              114.950765,
              4.81204
            ],
            [
              114.949365,
              4.813809
            ],
            [
              114.948781,
              4.813926
            ],
            [
              114.946682,
              4.812915
            ],
            [
              114.9426896,
              4.8077635
            ],
            [
              114.9392325,
              4.8094607
            ],
            [
              114.9389019,
              4.8104376
            ],
            [
              114.9392961,
              4.8115285
            ],
            [
              114.938871,
              4.8120526
            ],
            [
              114.9390467,
              4.8135175
            ],
            [
              114.9387,
              4.8141528
            ],
            [
              114.937495,
              4.814617
            ],
            [
              114.93415,
              4.814967
            ],
            [
              114.9324,
              4.814656
            ],
            [
              114.92505,
              4.812089
            ],
            [
              114.919489,
              4.80995
            ],
            [
              114.9187394,
              4.8088476
            ],
            [
              114.9140584,
              4.8091067
            ],
            [
              114.9138867,
              4.8101651
            ],
            [
              114.8985331,
              4.815988
            ],
            [
              114.896855,
              4.816173
            ],
            [
              114.896272,
              4.816056
            ],
            [
              114.882428,
              4.808045
            ],
            [
              114.8769225,
              4.8044494
            ],
            [
              114.874767,
              4.803261
            ],
            [
              114.870022,
              4.801472
            ],
            [
              114.861039,
              4.798555
            ],
            [
              114.858511,
              4.797505
            ],
            [
              114.856294,
              4.796144
            ],
            [
              114.853728,
              4.7942
            ],
            [
              114.85085,
              4.7914
            ],
            [
              114.848672,
              4.788794
            ],
            [
              114.846883,
              4.785606
            ],
            [
              114.8424719,
              4.771598
            ],
            [
              114.8414,
              4.769933
            ],
            [
              114.837645,
              4.7620349
            ],
            [
              114.8366351,
              4.7602938
            ],
            [
              114.8354905,
              4.758956
            ],
            [
              114.8342962,
              4.758082
            ],
            [
              114.8340049,
              4.7569723
            ],
            [
              114.8314377,
              4.7540167
            ],
            [
              114.8289408,
              4.753157
            ],
            [
              114.8272366,
              4.7504225
            ],
            [
              114.8257198,
              4.747011
            ],
            [
              114.8251641,
              4.7462188
            ],
            [
              114.8243676,
              4.7457929
            ],
            [
              114.8238539,
              4.7449935
            ],
            [
              114.822865,
              4.744569
            ],
            [
              114.8217228,
              4.7443802
            ],
            [
              114.820451,
              4.743807
            ],
            [
              114.8137573,
              4.7401104
            ],
            [
              114.807419,
              4.740886
            ],
            [
              114.8024832,
              4.7401282
            ],
            [
              114.8009813,
              4.7363771
            ],
            [
              114.7912885,
              4.7324307
            ],
            [
              114.7891822,
              4.7304964
            ],
            [
              114.7889118,
              4.7356155
            ],
            [
              114.7896652,
              4.7376805
            ],
            [
              114.788974,
              4.737456
            ],
            [
              114.787094,
              4.736643
            ],
            [
              114.783079,
              4.734331
            ],
            [
              114.782063,
              4.733518
            ],
            [
              114.780336,
              4.732654
            ],
            [
              114.7781,
              4.730824
            ],
            [
              114.776449,
              4.728564
            ],
            [
              114.775204,
              4.72775
            ],
            [
              114.771469,
              4.726226
            ],
            [
              114.7707733,
              4.7257073
            ],
            [
              114.770046,
              4.724727
            ],
            [
              114.769741,
              4.723991
            ],
            [
              114.76964,
              4.722746
            ],
            [
              114.769843,
              4.72206
            ],
            [
              114.7703,
              4.721628
            ],
            [
              114.771748,
              4.72112
            ],
            [
              114.781123,
              4.719189
            ],
            [
              114.782292,
              4.718478
            ],
            [
              114.783054,
              4.716801
            ],
            [
              114.783308,
              4.714921
            ],
            [
              114.783232,
              4.713346
            ],
            [
              114.781733,
              4.707909
            ],
            [
              114.781403,
              4.70735
            ],
            [
              114.780767,
              4.706741
            ],
            [
              114.777592,
              4.704581
            ],
            [
              114.775483,
              4.700237
            ],
            [
              114.775077,
              4.697823
            ],
            [
              114.775077,
              4.696096
            ],
            [
              114.775813,
              4.694419
            ],
            [
              114.776855,
              4.693402
            ],
            [
              114.778151,
              4.692919
            ],
            [
              114.77932,
              4.692691
            ],
            [
              114.781962,
              4.692539
            ],
            [
              114.784528,
              4.691827
            ],
            [
              114.785519,
              4.691293
            ],
            [
              114.785798,
              4.690861
            ],
            [
              114.786027,
              4.689972
            ],
            [
              114.788161,
              4.680064
            ],
            [
              114.788796,
              4.678896
            ],
            [
              114.789558,
              4.678311
            ],
            [
              114.790066,
              4.678006
            ],
            [
              114.790803,
              4.677854
            ],
            [
              114.795732,
              4.67821
            ],
            [
              114.797637,
              4.677981
            ],
            [
              114.801067,
              4.676736
            ],
            [
              114.801804,
              4.676152
            ],
            [
              114.802287,
              4.675364
            ],
            [
              114.802134,
              4.674272
            ],
            [
              114.801829,
              4.673713
            ],
            [
              114.800787,
              4.672773
            ],
            [
              114.799594,
              4.670385
            ],
            [
              114.799517,
              4.669673
            ],
            [
              114.799873,
              4.668784
            ],
            [
              114.799721,
              4.667819
            ],
            [
              114.797942,
              4.665583
            ],
            [
              114.797332,
              4.664262
            ],
            [
              114.797256,
              4.66068
            ],
            [
              114.797587,
              4.659791
            ],
            [
              114.798298,
              4.659282
            ],
            [
              114.800025,
              4.658495
            ],
            [
              114.800508,
              4.658139
            ],
            [
              114.800661,
              4.657656
            ],
            [
              114.800381,
              4.654328
            ],
            [
              114.800686,
              4.652169
            ],
            [
              114.800457,
              4.651051
            ],
            [
              114.800305,
              4.648815
            ],
            [
              114.800864,
              4.643759
            ],
            [
              114.800711,
              4.642337
            ],
            [
              114.799543,
              4.639872
            ],
            [
              114.799415,
              4.639288
            ],
            [
              114.800076,
              4.635427
            ],
            [
              114.801651,
              4.632378
            ],
            [
              114.803302,
              4.630371
            ],
            [
              114.806529,
              4.627805
            ],
            [
              114.807748,
              4.626001
            ],
            [
              114.807317,
              4.623511
            ],
            [
              114.807342,
              4.622825
            ],
            [
              114.80818,
              4.619827
            ],
            [
              114.80813,
              4.617719
            ],
            [
              114.809654,
              4.615356
            ],
            [
              114.809527,
              4.614086
            ],
            [
              114.80879,
              4.612536
            ],
            [
              114.808561,
              4.611571
            ],
            [
              114.808638,
              4.610656
            ],
            [
              114.809146,
              4.609157
            ],
            [
              114.808943,
              4.60776
            ],
            [
              114.808993,
              4.60654
            ],
            [
              114.809578,
              4.604762
            ],
            [
              114.811127,
              4.603339
            ],
            [
              114.811331,
              4.602602
            ],
            [
              114.811153,
              4.602247
            ],
            [
              114.810086,
              4.601535
            ],
            [
              114.809044,
              4.600417
            ],
            [
              114.808561,
              4.599223
            ],
            [
              114.808764,
              4.597445
            ],
            [
              114.809374,
              4.596734
            ],
            [
              114.809806,
              4.596505
            ],
            [
              114.814633,
              4.595209
            ],
            [
              114.815548,
              4.5946
            ],
            [
              114.816005,
              4.594092
            ],
            [
              114.816564,
              4.592415
            ],
            [
              114.816615,
              4.591475
            ],
            [
              114.816157,
              4.590636
            ],
            [
              114.814684,
              4.589366
            ],
            [
              114.814277,
              4.588832
            ],
            [
              114.813922,
              4.587765
            ],
            [
              114.813998,
              4.586978
            ],
            [
              114.814659,
              4.586317
            ],
            [
              114.817428,
              4.584895
            ],
            [
              114.817936,
              4.584514
            ],
            [
              114.818215,
              4.584056
            ],
            [
              114.818139,
              4.583116
            ],
            [
              114.816894,
              4.581262
            ],
            [
              114.816666,
              4.580271
            ],
            [
              114.817021,
              4.577171
            ],
            [
              114.816666,
              4.576104
            ],
            [
              114.816666,
              4.575037
            ],
            [
              114.817097,
              4.573386
            ],
            [
              114.817097,
              4.572471
            ],
            [
              114.816716,
              4.571709
            ],
            [
              114.81504,
              4.569601
            ],
            [
              114.814811,
              4.568686
            ],
            [
              114.81504,
              4.566603
            ],
            [
              114.814887,
              4.563986
            ],
            [
              114.816996,
              4.561776
            ],
            [
              114.817656,
              4.560328
            ],
            [
              114.818876,
              4.558498
            ],
            [
              114.819003,
              4.558066
            ],
            [
              114.818902,
              4.557304
            ],
            [
              114.818597,
              4.556821
            ],
            [
              114.817428,
              4.55583
            ],
            [
              114.817403,
              4.555526
            ],
            [
              114.817885,
              4.5539
            ],
            [
              114.8188,
              4.552274
            ],
            [
              114.818876,
              4.55141
            ],
            [
              114.818495,
              4.550495
            ],
            [
              114.81692,
              4.548386
            ],
            [
              114.816894,
              4.548056
            ],
            [
              114.817148,
              4.547269
            ],
            [
              114.818139,
              4.546049
            ],
            [
              114.818469,
              4.545312
            ],
            [
              114.818444,
              4.544627
            ],
            [
              114.817783,
              4.542874
            ],
            [
              114.817606,
              4.541883
            ],
            [
              114.817885,
              4.541273
            ],
            [
              114.819155,
              4.539952
            ],
            [
              114.819435,
              4.539444
            ],
            [
              114.819536,
              4.539063
            ],
            [
              114.819384,
              4.537412
            ],
            [
              114.819918,
              4.535659
            ],
            [
              114.819206,
              4.532839
            ],
            [
              114.818088,
              4.530704
            ],
            [
              114.81819,
              4.530018
            ],
            [
              114.819409,
              4.528138
            ],
            [
              114.819486,
              4.527554
            ],
            [
              114.819511,
              4.52697
            ],
            [
              114.819359,
              4.526589
            ],
            [
              114.818241,
              4.524988
            ],
            [
              114.818292,
              4.524226
            ],
            [
              114.8188,
              4.523057
            ],
            [
              114.818876,
              4.522498
            ],
            [
              114.818774,
              4.520898
            ],
            [
              114.818317,
              4.518967
            ],
            [
              114.818393,
              4.518408
            ],
            [
              114.819105,
              4.516579
            ],
            [
              114.819282,
              4.515435
            ],
            [
              114.819918,
              4.513937
            ],
            [
              114.81974,
              4.513124
            ],
            [
              114.818673,
              4.511345
            ],
            [
              114.818673,
              4.51099
            ],
            [
              114.819511,
              4.508551
            ],
            [
              114.81885,
              4.507026
            ],
            [
              114.819232,
              4.505553
            ],
            [
              114.819257,
              4.504994
            ],
            [
              114.818927,
              4.503673
            ],
            [
              114.819308,
              4.50164
            ],
            [
              114.819282,
              4.501056
            ],
            [
              114.818475,
              4.498328
            ],
            [
              114.81856,
              4.497847
            ],
            [
              114.819296,
              4.496799
            ],
            [
              114.819608,
              4.496034
            ],
            [
              114.819466,
              4.495298
            ],
            [
              114.818305,
              4.493995
            ],
            [
              114.81822,
              4.493684
            ],
            [
              114.818786,
              4.492325
            ],
            [
              114.818333,
              4.490286
            ],
            [
              114.818985,
              4.486633
            ],
            [
              114.81805,
              4.483434
            ],
            [
              114.818079,
              4.478847
            ],
            [
              114.818305,
              4.477006
            ],
            [
              114.818645,
              4.475873
            ],
            [
              114.818956,
              4.475392
            ],
            [
              114.820117,
              4.474429
            ],
            [
              114.820655,
              4.473467
            ],
            [
              114.820485,
              4.471881
            ],
            [
              114.821278,
              4.470041
            ],
            [
              114.821334,
              4.469135
            ],
            [
              114.820995,
              4.467039
            ],
            [
              114.821504,
              4.46585
            ],
            [
              114.821419,
              4.464349
            ],
            [
              114.822014,
              4.462905
            ],
            [
              114.822071,
              4.461942
            ],
            [
              114.821221,
              4.46013
            ],
            [
              114.82125,
              4.459705
            ],
            [
              114.821391,
              4.459394
            ],
            [
              114.822379,
              4.458575
            ],
            [
              114.822948,
              4.457865
            ],
            [
              114.824336,
              4.455429
            ],
            [
              114.825016,
              4.452966
            ],
            [
              114.82527,
              4.451522
            ],
            [
              114.82527,
              4.450418
            ],
            [
              114.826658,
              4.448605
            ],
            [
              114.826601,
              4.447671
            ],
            [
              114.82578,
              4.446708
            ],
            [
              114.82561,
              4.446057
            ],
            [
              114.825837,
              4.445406
            ],
            [
              114.827054,
              4.44365
            ],
            [
              114.827446,
              4.442772
            ],
            [
              114.827508,
              4.442255
            ],
            [
              114.826681,
              4.441242
            ],
            [
              114.826495,
              4.440311
            ],
            [
              114.827322,
              4.438512
            ],
            [
              114.827762,
              4.436656
            ],
            [
              114.827904,
              4.435835
            ],
            [
              114.82779,
              4.434249
            ],
            [
              114.828159,
              4.433145
            ],
            [
              114.828498,
              4.431277
            ],
            [
              114.829036,
              4.430257
            ],
            [
              114.829546,
              4.429663
            ],
            [
              114.831585,
              4.428332
            ],
            [
              114.832745,
              4.427879
            ],
            [
              114.834954,
              4.426434
            ],
            [
              114.835554,
              4.426204
            ],
            [
              114.83785,
              4.425998
            ],
            [
              114.839372,
              4.425557
            ],
            [
              114.840532,
              4.424764
            ],
            [
              114.842194,
              4.423164
            ],
            [
              114.844553,
              4.421677
            ],
            [
              114.845686,
              4.421168
            ],
            [
              114.846422,
              4.421054
            ],
            [
              114.847272,
              4.421224
            ],
            [
              114.84965,
              4.422753
            ],
            [
              114.850698,
              4.423008
            ],
            [
              114.854294,
              4.422669
            ],
            [
              114.85622,
              4.421932
            ],
            [
              114.860694,
              4.421224
            ],
            [
              114.862761,
              4.421281
            ],
            [
              114.863384,
              4.421508
            ],
            [
              114.864761,
              4.422605
            ],
            [
              114.865257,
              4.422792
            ],
            [
              114.866612,
              4.422923
            ],
            [
              114.868141,
              4.423829
            ],
            [
              114.871454,
              4.424792
            ],
            [
              114.872807,
              4.424529
            ],
            [
              114.873489,
              4.424674
            ],
            [
              114.875578,
              4.425563
            ],
            [
              114.87715,
              4.426494
            ],
            [
              114.877584,
              4.426556
            ],
            [
              114.879487,
              4.42606
            ],
            [
              114.881618,
              4.426101
            ],
            [
              114.882836,
              4.425415
            ],
            [
              114.883459,
              4.423263
            ],
            [
              114.883827,
              4.420318
            ],
            [
              114.883289,
              4.418676
            ],
            [
              114.883516,
              4.416609
            ],
            [
              114.882666,
              4.414428
            ],
            [
              114.882808,
              4.412871
            ],
            [
              114.883355,
              4.41156
            ],
            [
              114.883397,
              4.411022
            ],
            [
              114.88261,
              4.4097
            ],
            [
              114.882298,
              4.407435
            ],
            [
              114.881515,
              4.404817
            ],
            [
              114.88168,
              4.403865
            ],
            [
              114.882342,
              4.402479
            ],
            [
              114.88228,
              4.401693
            ],
            [
              114.881194,
              4.399761
            ],
            [
              114.880628,
              4.398232
            ],
            [
              114.879693,
              4.396901
            ],
            [
              114.878391,
              4.395486
            ],
            [
              114.877825,
              4.394098
            ],
            [
              114.877994,
              4.393504
            ],
            [
              114.87957,
              4.39222
            ],
            [
              114.879637,
              4.390105
            ],
            [
              114.880149,
              4.387566
            ],
            [
              114.880005,
              4.386396
            ],
            [
              114.880854,
              4.384414
            ],
            [
              114.880883,
              4.383366
            ],
            [
              114.880584,
              4.382436
            ],
            [
              114.87958,
              4.380534
            ],
            [
              114.879977,
              4.377674
            ],
            [
              114.879155,
              4.376174
            ],
            [
              114.879184,
              4.375806
            ],
            [
              114.879777,
              4.375259
            ],
            [
              114.880273,
              4.374431
            ],
            [
              114.880175,
              4.37068
            ],
            [
              114.879439,
              4.369208
            ],
            [
              114.878577,
              4.368392
            ],
            [
              114.878334,
              4.367821
            ],
            [
              114.878278,
              4.367509
            ],
            [
              114.878495,
              4.36682
            ],
            [
              114.878164,
              4.364979
            ],
            [
              114.878561,
              4.363715
            ],
            [
              114.878504,
              4.363347
            ],
            [
              114.877683,
              4.36179
            ],
            [
              114.877711,
              4.360346
            ],
            [
              114.877584,
              4.359891
            ],
            [
              114.87689,
              4.35893
            ],
            [
              114.876805,
              4.358307
            ],
            [
              114.877258,
              4.355447
            ],
            [
              114.877202,
              4.354626
            ],
            [
              114.875729,
              4.353266
            ],
            [
              114.875475,
              4.35141
            ],
            [
              114.875123,
              4.350644
            ],
            [
              114.873985,
              4.350189
            ],
            [
              114.873344,
              4.349672
            ],
            [
              114.872813,
              4.346895
            ],
            [
              114.871896,
              4.345329
            ],
            [
              114.872599,
              4.343943
            ],
            [
              114.872161,
              4.340581
            ],
            [
              114.871737,
              4.340071
            ],
            [
              114.870887,
              4.33959
            ],
            [
              114.870434,
              4.33908
            ],
            [
              114.870236,
              4.3369
            ],
            [
              114.868056,
              4.333502
            ],
            [
              114.867739,
              4.332463
            ],
            [
              114.867036,
              4.331661
            ],
            [
              114.865877,
              4.33087
            ],
            [
              114.86445,
              4.328078
            ],
            [
              114.863105,
              4.326734
            ],
            [
              114.860541,
              4.322639
            ],
            [
              114.858534,
              4.321067
            ],
            [
              114.85571,
              4.318154
            ],
            [
              114.854914,
              4.316268
            ],
            [
              114.854873,
              4.315709
            ],
            [
              114.855473,
              4.314965
            ],
            [
              114.855349,
              4.314696
            ],
            [
              114.85357,
              4.314116
            ],
            [
              114.851895,
              4.312793
            ],
            [
              114.851502,
              4.311241
            ],
            [
              114.850943,
              4.310538
            ],
            [
              114.85084,
              4.310113
            ],
            [
              114.851406,
              4.30898
            ],
            [
              114.851491,
              4.308357
            ],
            [
              114.851236,
              4.307395
            ],
            [
              114.8505,
              4.306913
            ],
            [
              114.848585,
              4.306546
            ],
            [
              114.848089,
              4.306153
            ],
            [
              114.847882,
              4.305843
            ],
            [
              114.847753,
              4.30445
            ],
            [
              114.847427,
              4.303629
            ],
            [
              114.843761,
              4.300599
            ],
            [
              114.843435,
              4.299844
            ],
            [
              114.843269,
              4.297817
            ],
            [
              114.843,
              4.297176
            ],
            [
              114.841553,
              4.29519
            ],
            [
              114.840901,
              4.293605
            ],
            [
              114.838636,
              4.291509
            ],
            [
              114.834726,
              4.285241
            ],
            [
              114.833423,
              4.284373
            ],
            [
              114.831981,
              4.283015
            ],
            [
              114.830934,
              4.280439
            ],
            [
              114.829866,
              4.279264
            ],
            [
              114.828935,
              4.278643
            ],
            [
              114.828669,
              4.278202
            ],
            [
              114.828527,
              4.277918
            ],
            [
              114.82864,
              4.276842
            ],
            [
              114.828499,
              4.276276
            ],
            [
              114.828074,
              4.27571
            ],
            [
              114.827549,
              4.275334
            ],
            [
              114.826433,
              4.273493
            ],
            [
              114.825157,
              4.272539
            ],
            [
              114.82445,
              4.271009
            ],
            [
              114.82213,
              4.268093
            ],
            [
              114.820825,
              4.266167
            ],
            [
              114.819275,
              4.26435
            ],
            [
              114.818882,
              4.26346
            ],
            [
              114.8182,
              4.262736
            ],
            [
              114.817965,
              4.262004
            ],
            [
              114.817059,
              4.260759
            ],
            [
              114.816578,
              4.259711
            ],
            [
              114.816096,
              4.259088
            ],
            [
              114.814311,
              4.257607
            ],
            [
              114.814042,
              4.25711
            ],
            [
              114.813831,
              4.254756
            ],
            [
              114.81398,
              4.253739
            ],
            [
              114.814624,
              4.252264
            ],
            [
              114.815219,
              4.251556
            ],
            [
              114.816068,
              4.250877
            ],
            [
              114.816776,
              4.25065
            ],
            [
              114.818163,
              4.250707
            ],
            [
              114.819689,
              4.251154
            ],
            [
              114.821055,
              4.252146
            ],
            [
              114.822496,
              4.254444
            ],
            [
              114.824426,
              4.256862
            ],
            [
              114.825295,
              4.257421
            ],
            [
              114.827451,
              4.259484
            ],
            [
              114.828017,
              4.259853
            ],
            [
              114.828915,
              4.260192
            ],
            [
              114.83167,
              4.259711
            ],
            [
              114.834162,
              4.259796
            ],
            [
              114.834813,
              4.259966
            ],
            [
              114.835691,
              4.260475
            ],
            [
              114.836172,
              4.2609
            ],
            [
              114.838367,
              4.263874
            ],
            [
              114.840674,
              4.266536
            ],
            [
              114.84209,
              4.267753
            ],
            [
              114.84444,
              4.270415
            ],
            [
              114.847406,
              4.274092
            ],
            [
              114.848172,
              4.275251
            ],
            [
              114.849679,
              4.276418
            ],
            [
              114.851859,
              4.277267
            ],
            [
              114.853502,
              4.277664
            ],
            [
              114.855887,
              4.278664
            ],
            [
              114.856342,
              4.278684
            ],
            [
              114.856871,
              4.27823
            ],
            [
              114.856956,
              4.277267
            ],
            [
              114.856475,
              4.27486
            ],
            [
              114.856815,
              4.273756
            ],
            [
              114.857831,
              4.272086
            ],
            [
              114.85806,
              4.270981
            ],
            [
              114.858032,
              4.27033
            ],
            [
              114.857749,
              4.269565
            ],
            [
              114.856528,
              4.267432
            ],
            [
              114.855163,
              4.265881
            ],
            [
              114.852114,
              4.261184
            ],
            [
              114.850811,
              4.258777
            ],
            [
              114.849056,
              4.254615
            ],
            [
              114.847612,
              4.250481
            ],
            [
              114.845552,
              4.247838
            ],
            [
              114.84385,
              4.245145
            ],
            [
              114.842834,
              4.242858
            ],
            [
              114.841538,
              4.239174
            ],
            [
              114.836737,
              4.229622
            ],
            [
              114.832951,
              4.225913
            ],
            [
              114.832621,
              4.224591
            ],
            [
              114.831961,
              4.220044
            ],
            [
              114.830995,
              4.218545
            ],
            [
              114.827184,
              4.215115
            ],
            [
              114.8204,
              4.207265
            ],
            [
              114.817758,
              4.203581
            ],
            [
              114.813744,
              4.19977
            ],
            [
              114.812626,
              4.197509
            ],
            [
              114.81034,
              4.195222
            ],
            [
              114.807165,
              4.191615
            ],
            [
              114.806275,
              4.190242
            ],
            [
              114.805539,
              4.188591
            ],
            [
              114.805285,
              4.184831
            ],
            [
              114.80498,
              4.184349
            ],
            [
              114.802719,
              4.182469
            ],
            [
              114.801245,
              4.180386
            ],
            [
              114.800051,
              4.178023
            ],
            [
              114.79934,
              4.175127
            ],
            [
              114.798984,
              4.172154
            ],
            [
              114.798603,
              4.170528
            ],
            [
              114.797663,
              4.16847
            ],
            [
              114.796723,
              4.166971
            ],
            [
              114.795097,
              4.165777
            ],
            [
              114.793827,
              4.163593
            ],
            [
              114.793166,
              4.161484
            ],
            [
              114.792988,
              4.160493
            ],
            [
              114.793115,
              4.159883
            ],
            [
              114.793903,
              4.158435
            ],
            [
              114.79563,
              4.157597
            ],
            [
              114.796596,
              4.157546
            ],
            [
              114.798171,
              4.158029
            ],
            [
              114.80343,
              4.160925
            ],
            [
              114.805107,
              4.161281
            ],
            [
              114.806784,
              4.160646
            ],
            [
              114.807495,
              4.160188
            ],
            [
              114.808562,
              4.158791
            ],
            [
              114.808841,
              4.157216
            ],
            [
              114.80846,
              4.155412
            ],
            [
              114.807876,
              4.150229
            ],
            [
              114.807622,
              4.149289
            ],
            [
              114.80686,
              4.147943
            ],
            [
              114.80653,
              4.147663
            ],
            [
              114.805285,
              4.147053
            ],
            [
              114.80249,
              4.145148
            ],
            [
              114.801423,
              4.143116
            ],
            [
              114.801016,
              4.139076
            ],
            [
              114.800559,
              4.13806
            ],
            [
              114.797383,
              4.135748
            ],
            [
              114.7969,
              4.135291
            ],
            [
              114.796265,
              4.134071
            ],
            [
              114.794055,
              4.133283
            ],
            [
              114.79309,
              4.132648
            ],
            [
              114.792785,
              4.132216
            ],
            [
              114.792861,
              4.131429
            ],
            [
              114.793877,
              4.129549
            ],
            [
              114.793598,
              4.128024
            ],
            [
              114.793496,
              4.125967
            ],
            [
              114.793267,
              4.125509
            ],
            [
              114.79126,
              4.123655
            ],
            [
              114.790219,
              4.123375
            ],
            [
              114.788593,
              4.1234
            ],
            [
              114.786129,
              4.122333
            ],
            [
              114.78341,
              4.121825
            ],
            [
              114.781048,
              4.120403
            ],
            [
              114.779345,
              4.119945
            ],
            [
              114.778583,
              4.11959
            ],
            [
              114.777897,
              4.119031
            ],
            [
              114.777008,
              4.117862
            ],
            [
              114.775103,
              4.112578
            ],
            [
              114.774239,
              4.110876
            ],
            [
              114.76494,
              4.102543
            ],
            [
              114.761815,
              4.09957
            ],
            [
              114.759478,
              4.096496
            ],
            [
              114.756937,
              4.09454
            ],
            [
              114.755718,
              4.09327
            ],
            [
              114.753063,
              4.088735
            ],
            [
              114.745924,
              4.079893
            ],
            [
              114.743205,
              4.077048
            ],
            [
              114.741808,
              4.075295
            ],
            [
              114.733348,
              4.06122
            ],
            [
              114.726844,
              4.053243
            ],
            [
              114.726158,
              4.052278
            ],
            [
              114.725116,
              4.050245
            ],
            [
              114.724151,
              4.049026
            ],
            [
              114.718511,
              4.043715
            ],
            [
              114.716123,
              4.04214
            ],
            [
              114.711474,
              4.038584
            ],
            [
              114.708959,
              4.036856
            ],
            [
              114.703344,
              4.033401
            ],
            [
              114.701464,
              4.031546
            ],
            [
              114.696612,
              4.028167
            ],
            [
              114.692496,
              4.025982
            ],
            [
              114.686957,
              4.022476
            ],
            [
              114.676567,
              4.017141
            ],
            [
              114.671079,
              4.015185
            ],
            [
              114.660129,
              4.010256
            ],
            [
              114.649205,
              4.006242
            ],
            [
              114.644809,
              4.005709
            ],
            [
              114.642116,
              4.005175
            ],
            [
              114.638687,
              4.005709
            ],
            [
              114.636298,
              4.005556
            ],
            [
              114.635104,
              4.005353
            ],
            [
              114.628778,
              4.003422
            ],
            [
              114.626085,
              4.002965
            ],
            [
              114.619073,
              4.002508
            ],
            [
              114.611452,
              4.003168
            ],
            [
              114.610283,
              4.003752
            ],
            [
              114.61008,
              4.004108
            ],
            [
              114.609902,
              4.004591
            ],
            [
              114.610029,
              4.005378
            ],
            [
              114.610334,
              4.00576
            ],
            [
              114.611502,
              4.006395
            ],
            [
              114.61384,
              4.007004
            ],
            [
              114.614627,
              4.008046
            ],
            [
              114.615669,
              4.010358
            ],
            [
              114.617117,
              4.012645
            ],
            [
              114.617727,
              4.013178
            ],
            [
              114.620674,
              4.014931
            ],
            [
              114.621716,
              4.016024
            ],
            [
              114.623621,
              4.01671
            ],
            [
              114.62446,
              4.017268
            ],
            [
              114.624764,
              4.017675
            ],
            [
              114.624993,
              4.018259
            ],
            [
              114.625196,
              4.02019
            ],
            [
              114.62634,
              4.022426
            ],
            [
              114.626543,
              4.026109
            ],
            [
              114.627559,
              4.028371
            ],
            [
              114.62761,
              4.02926
            ],
            [
              114.627305,
              4.030251
            ],
            [
              114.619505,
              4.038127
            ],
            [
              114.616914,
              4.042242
            ],
            [
              114.615212,
              4.044148
            ],
            [
              114.614449,
              4.044554
            ],
            [
              114.607996,
              4.046104
            ],
            [
              114.605405,
              4.047196
            ],
            [
              114.602052,
              4.047933
            ],
            [
              114.599842,
              4.047603
            ],
            [
              114.59692,
              4.046638
            ],
            [
              114.591026,
              4.046536
            ],
            [
              114.589679,
              4.046815
            ],
            [
              114.587647,
              4.047501
            ],
            [
              114.583938,
              4.049508
            ],
            [
              114.58343,
              4.050728
            ],
            [
              114.583023,
              4.054945
            ],
            [
              114.580356,
              4.058756
            ],
            [
              114.57972,
              4.05995
            ],
            [
              114.579314,
              4.06122
            ],
            [
              114.579238,
              4.062795
            ],
            [
              114.578907,
              4.063964
            ],
            [
              114.57812,
              4.064904
            ],
            [
              114.575452,
              4.067419
            ],
            [
              114.573318,
              4.069858
            ],
            [
              114.570904,
              4.073949
            ],
            [
              114.567423,
              4.077937
            ],
            [
              114.566509,
              4.078623
            ],
            [
              114.56595,
              4.078826
            ],
            [
              114.562774,
              4.078902
            ],
            [
              114.560793,
              4.080528
            ],
            [
              114.55998,
              4.080782
            ],
            [
              114.55843,
              4.081062
            ],
            [
              114.555635,
              4.081087
            ],
            [
              114.554441,
              4.081697
            ],
            [
              114.553755,
              4.082332
            ],
            [
              114.55279,
              4.083958
            ],
            [
              114.552764,
              4.084873
            ],
            [
              114.553527,
              4.086143
            ],
            [
              114.554086,
              4.088328
            ],
            [
              114.555127,
              4.089674
            ],
            [
              114.554975,
              4.091275
            ],
            [
              114.556067,
              4.094172
            ],
            [
              114.556016,
              4.094553
            ],
            [
              114.55528,
              4.095188
            ],
            [
              114.554035,
              4.095899
            ],
            [
              114.551951,
              4.098491
            ],
            [
              114.55157,
              4.099329
            ],
            [
              114.551418,
              4.101234
            ],
            [
              114.551113,
              4.102377
            ],
            [
              114.55063,
              4.102936
            ],
            [
              114.550097,
              4.103292
            ],
            [
              114.548725,
              4.103622
            ],
            [
              114.545244,
              4.103546
            ],
            [
              114.544533,
              4.10408
            ],
            [
              114.544203,
              4.104867
            ],
            [
              114.544635,
              4.106569
            ],
            [
              114.545371,
              4.108348
            ],
            [
              114.547277,
              4.109872
            ],
            [
              114.547785,
              4.111295
            ],
            [
              114.54781,
              4.113429
            ],
            [
              114.547074,
              4.118129
            ],
            [
              114.546438,
              4.120491
            ],
            [
              114.545676,
              4.124379
            ],
            [
              114.545422,
              4.125242
            ],
            [
              114.544863,
              4.126005
            ],
            [
              114.542069,
              4.128342
            ],
            [
              114.541459,
              4.128647
            ],
            [
              114.538588,
              4.128698
            ],
            [
              114.537343,
              4.128977
            ],
            [
              114.535387,
              4.129993
            ],
            [
              114.533532,
              4.13134
            ],
            [
              114.53056,
              4.134084
            ],
            [
              114.527816,
              4.135837
            ],
            [
              114.526597,
              4.137666
            ],
            [
              114.523447,
              4.140562
            ],
            [
              114.521923,
              4.142976
            ],
            [
              114.520525,
              4.144398
            ],
            [
              114.519357,
              4.145237
            ],
            [
              114.516689,
              4.14671
            ],
            [
              114.51552,
              4.146837
            ],
            [
              114.514199,
              4.146634
            ],
            [
              114.509956,
              4.144094
            ],
            [
              114.509016,
              4.143687
            ],
            [
              114.503211,
              4.142442
            ],
            [
              114.50095,
              4.143205
            ],
            [
              114.500213,
              4.143611
            ],
            [
              114.497977,
              4.146025
            ],
            [
              114.495792,
              4.146685
            ],
            [
              114.495056,
              4.147168
            ],
            [
              114.495005,
              4.147752
            ],
            [
              114.496097,
              4.148895
            ],
            [
              114.496072,
              4.149658
            ],
            [
              114.495894,
              4.150089
            ],
            [
              114.494649,
              4.151919
            ],
            [
              114.492363,
              4.154383
            ],
            [
              114.491956,
              4.155196
            ],
            [
              114.490737,
              4.158956
            ],
            [
              114.489314,
              4.161649
            ],
            [
              114.486773,
              4.164748
            ],
            [
              114.485249,
              4.166222
            ],
            [
              114.484385,
              4.167543
            ],
            [
              114.482251,
              4.171913
            ],
            [
              114.481489,
              4.173818
            ],
            [
              114.48032,
              4.179407
            ],
            [
              114.479456,
              4.182532
            ],
            [
              114.478846,
              4.184031
            ],
            [
              114.478796,
              4.185631
            ],
            [
              114.477856,
              4.186343
            ],
            [
              114.477322,
              4.187283
            ],
            [
              114.476712,
              4.188985
            ],
            [
              114.476153,
              4.191348
            ],
            [
              114.474223,
              4.194752
            ],
            [
              114.472775,
              4.199859
            ],
            [
              114.472419,
              4.200342
            ],
            [
              114.471149,
              4.201307
            ],
            [
              114.470793,
              4.201764
            ],
            [
              114.470564,
              4.202882
            ],
            [
              114.469726,
              4.204254
            ],
            [
              114.469396,
              4.204559
            ],
            [
              114.467211,
              4.205601
            ],
            [
              114.467007,
              4.206135
            ],
            [
              114.466982,
              4.207024
            ],
            [
              114.466626,
              4.208015
            ],
            [
              114.466347,
              4.208319
            ],
            [
              114.464772,
              4.209056
            ],
            [
              114.463806,
              4.210098
            ],
            [
              114.463603,
              4.211266
            ],
            [
              114.463832,
              4.213477
            ],
            [
              114.463045,
              4.214874
            ],
            [
              114.462638,
              4.216221
            ],
            [
              114.461139,
              4.217999
            ],
            [
              114.460224,
              4.219828
            ],
            [
              114.460072,
              4.221073
            ],
            [
              114.461393,
              4.229228
            ],
            [
              114.46091,
              4.230269
            ],
            [
              114.460377,
              4.23065
            ],
            [
              114.458954,
              4.231108
            ],
            [
              114.458344,
              4.231972
            ],
            [
              114.457684,
              4.234614
            ],
            [
              114.457023,
              4.236367
            ],
            [
              114.454178,
              4.241829
            ],
            [
              114.453898,
              4.243785
            ],
            [
              114.453797,
              4.245945
            ],
            [
              114.454051,
              4.248155
            ],
            [
              114.45461,
              4.249044
            ],
            [
              114.455874,
              4.249934
            ],
            [
              114.456179,
              4.250772
            ],
            [
              114.45623,
              4.256285
            ],
            [
              114.45656,
              4.2588
            ],
            [
              114.456331,
              4.25974
            ],
            [
              114.455798,
              4.260553
            ],
            [
              114.455518,
              4.261315
            ],
            [
              114.455646,
              4.261721
            ],
            [
              114.456535,
              4.262839
            ],
            [
              114.456636,
              4.263602
            ],
            [
              114.456509,
              4.263881
            ],
            [
              114.455798,
              4.264338
            ],
            [
              114.455315,
              4.264923
            ],
            [
              114.4559,
              4.267387
            ],
            [
              114.454909,
              4.267718
            ],
            [
              114.453918,
              4.268429
            ],
            [
              114.453334,
              4.269166
            ],
            [
              114.452953,
              4.27003
            ],
            [
              114.452165,
              4.275237
            ],
            [
              114.451708,
              4.276279
            ],
            [
              114.450666,
              4.27793
            ],
            [
              114.449218,
              4.27887
            ],
            [
              114.445178,
              4.279912
            ],
            [
              114.444289,
              4.279836
            ],
            [
              114.443654,
              4.279429
            ],
            [
              114.440554,
              4.278108
            ],
            [
              114.440275,
              4.277651
            ],
            [
              114.43997,
              4.275644
            ],
            [
              114.438445,
              4.273383
            ],
            [
              114.438013,
              4.272138
            ],
            [
              114.437454,
              4.271985
            ],
            [
              114.43654,
              4.272214
            ],
            [
              114.435854,
              4.274348
            ],
            [
              114.43499,
              4.274653
            ],
            [
              114.434024,
              4.274399
            ],
            [
              114.43278,
              4.272697
            ],
            [
              114.431306,
              4.272112
            ],
            [
              114.431052,
              4.271808
            ],
            [
              114.430518,
              4.26787
            ],
            [
              114.430239,
              4.267641
            ],
            [
              114.429197,
              4.267387
            ],
            [
              114.428867,
              4.266853
            ],
            [
              114.428537,
              4.266726
            ],
            [
              114.426936,
              4.266599
            ],
            [
              114.425615,
              4.266015
            ],
            [
              114.425539,
              4.265761
            ],
            [
              114.426073,
              4.2651
            ],
            [
              114.427521,
              4.264288
            ],
            [
              114.427648,
              4.263551
            ],
            [
              114.42747,
              4.262865
            ],
            [
              114.426759,
              4.261442
            ],
            [
              114.426657,
              4.260477
            ],
            [
              114.426174,
              4.259943
            ],
            [
              114.425844,
              4.258749
            ],
            [
              114.425107,
              4.25819
            ],
            [
              114.423685,
              4.256336
            ],
            [
              114.423862,
              4.255675
            ],
            [
              114.423812,
              4.255294
            ],
            [
              114.423608,
              4.255066
            ],
            [
              114.423557,
              4.253719
            ],
            [
              114.423329,
              4.253338
            ],
            [
              114.422414,
              4.253058
            ],
            [
              114.420763,
              4.25316
            ],
            [
              114.419747,
              4.253389
            ],
            [
              114.419289,
              4.254684
            ],
            [
              114.417918,
              4.254837
            ],
            [
              114.416419,
              4.255244
            ],
            [
              114.409762,
              4.257352
            ],
            [
              114.408619,
              4.258013
            ],
            [
              114.407247,
              4.258292
            ],
            [
              114.406663,
              4.258851
            ],
            [
              114.405265,
              4.261951
            ],
            [
              114.404173,
              4.262129
            ],
            [
              114.402674,
              4.263246
            ],
            [
              114.402445,
              4.263272
            ],
            [
              114.399829,
              4.262865
            ],
            [
              114.399371,
              4.262637
            ],
            [
              114.398304,
              4.261417
            ],
            [
              114.397593,
              4.261112
            ],
            [
              114.382553,
              4.264872
            ],
            [
              114.381867,
              4.264923
            ],
            [
              114.372035,
              4.263958
            ],
            [
              114.371501,
              4.263704
            ],
            [
              114.365277,
              4.256031
            ],
            [
              114.36487,
              4.255701
            ],
            [
              114.364565,
              4.255676
            ],
            [
              114.347874,
              4.259105
            ],
            [
              114.341447,
              4.258597
            ],
            [
              114.324552,
              4.256844
            ],
            [
              114.324069,
              4.256921
            ],
            [
              114.316447,
              4.263627
            ],
            [
              114.318454,
              4.280624
            ],
            [
              114.323459,
              4.318351
            ],
            [
              114.326558,
              4.325668
            ],
            [
              114.332961,
              4.34805
            ],
            [
              114.332961,
              4.348711
            ],
            [
              114.306565,
              4.366241
            ],
            [
              114.306489,
              4.366749
            ],
            [
              114.30687,
              4.3684
            ],
            [
              114.309055,
              4.376962
            ],
            [
              114.314847,
              4.392612
            ],
            [
              114.314949,
              4.393222
            ],
            [
              114.314949,
              4.393577
            ],
            [
              114.307962,
              4.415427
            ],
            [
              114.306869,
              4.418323
            ],
            [
              114.29498,
              4.440807
            ],
            [
              114.285503,
              4.451756
            ],
            [
              114.282988,
              4.454907
            ],
            [
              114.283725,
              4.462985
            ],
            [
              114.283572,
              4.463798
            ],
            [
              114.260631,
              4.506353
            ],
            [
              114.260148,
              4.507013
            ],
            [
              114.218793,
              4.533005
            ],
            [
              114.213346,
              4.536247
            ],
            [
              114.199857,
              4.531448
            ],
            [
              114.199079,
              4.531405
            ],
            [
              114.19882,
              4.531621
            ],
            [
              114.190518,
              4.54632
            ],
            [
              114.188227,
              4.548871
            ],
            [
              114.184941,
              4.552157
            ],
            [
              114.162633,
              4.573385
            ],
            [
              114.115465,
              4.579135
            ],
            [
              114.076944,
              4.583588
            ],
            [
              114.076425,
              4.58389
            ],
            [
              114.076166,
              4.584193
            ],
            [
              114.0758734,
              4.5857624
            ],
            [
              114.0759748,
              4.5871516
            ],
            [
              114.0736111,
              4.5958333
            ],
            [
              114.0716667,
              4.6555556
            ],
            [
              114.0727778,
              4.6627778
            ],
            [
              114.0733522,
              4.6688393
            ],
            [
              114.0734553,
              4.6749015
            ],
            [
              114.0731608,
              4.6800905
            ],
            [
              114.072221,
              4.6869556
            ],
            [
              114.0704255,
              4.6945413
            ],
            [
              114.0681878,
              4.701101
            ],
            [
              114.0649721,
              4.7082054
            ],
            [
              114.0619802,
              4.7134842
            ],
            [
              114.0585791,
              4.7185109
            ],
            [
              114.05479,
              4.7232539
            ],
            [
              114.0511111,
              4.7272222
            ],
            [
              114,
              4.776408221741856
            ],
            [
              114,
              4
            ]
          ]
        ]
      }
    }
  ]
}