{
  "type": "FeatureCollection",
  "features": [
    {
      "type": "Feature",
      "properties": {
        "osm_id": -3630439,
        "boundary": "administrative",
        "admin_level": 2,
        "parents": null,
        "name": "Morocco",
        "local_name": "Maroc ⵍⵎⵖⵔⵉⴱ المغرب",
        "name_en": "Morocco",
        "all_tags": {
          "flag": "http://upload.wikimedia.org/wikipedia/commons/2/2c/Flag_of_Morocco.svg",
          "name": "Maroc ⵍⵎⵖⵔⵉⴱ المغرب",
          "name:ar": "المغرب",
          "name:az": "Mərakeş",
          "name:ba": "Марокко",
          "name:be": "Марока",
          "name:bg": "Мароко",
          "name:bm": "Maroko",
          "name:bn": "মরোক্কো",
          "name:bo": "མོ་རོ་ཁོ།",
          "name:br": "Maroko",
          "name:bs": "Maroko",
          "name:ca": "Marroc",
          "name:ce": "Марокко",
          "name:cs": "Maroko",
          "name:cv": "Марокко",
          "name:cy": "Moroco",
          "name:da": "Marokko",
          "name:de": "Marokko",
          "name:dv": "މައުރިބު",
          "name:el": "Μαρόκο",
          "name:en": "Morocco",
          "name:eo": "Maroko",
          "name:es": "Marruecos",
          "name:et": "Maroko",
          "name:eu": "Maroko",
          "name:fa": "مراکش",
          "name:fi": "Marokko",
          "name:fo": "Marokko",
          "name:fr": "Maroc",
          "name:fy": "Marokko",
          "name:ga": "Maracó",
          "name:gd": "Maroco",
          "name:gl": "Marrocos",
          "name:gn": "Marruéko",
          "name:gv": "Yn Varoc",
          "name:he": "מרוקו",
          "name:hi": "मोरक्को",
          "name:hr": "Maroko",
          "name:ht": "Mawòk",
          "name:hu": "Marokkó",
          "name:hy": "Մարոկկո",
          "name:ia": "Marocco",
          "name:id": "Maroko",
          "name:ie": "Morocco",
          "name:io": "Maroko",
          "name:is": "Marokkó",
          "name:it": "Marocco",
          "name:ja": "モロッコ",
          "name:jv": "Maroko",
          "name:ka": "მაროკო",
          "name:kg": "Maroko",
          "name:kk": "Мағрибия",
          "name:kn": "ಮೊರಾಕೊ",
          "name:ko": "모로코",
          "name:ku": "Maroko",
          "name:kw": "Marokk",
          "name:ky": "Марокко",
          "name:la": "Marocum",
          "name:lb": "Marokko",
          "name:li": "Marokko",
          "name:ln": "Marɔkɛ",
          "name:lt": "Marokas",
          "name:lv": "Maroka",
          "name:mg": "Marôka",
          "name:mi": "Marako",
          "name:mk": "Мароко",
          "name:ml": "മൊറോക്കൊ",
          "name:mn": "Марокко",
          "name:mr": "मोरोक्को",
          "name:ms": "Maghribi",
          "name:mt": "Marokk",
          "name:my": "မော်ရိုကိုနိုင်ငံ",
          "name:nl": "Marokko",
          "name:nn": "Marokko",
          "name:no": "Marokko",
          "name:nv": "Moroko",
          "name:oc": "Marròc",
          "name:or": "ମୋରୋକୋ",
          "name:os": "Марокко",
          "name:pa": "ਮੋਰਾਕੋ",
          "name:pl": "Maroko",
          "name:ps": "مراکش",
          "name:pt": "Marrocos",
          "name:qu": "Maruku",
          "name:ro": "Maroc",
          "name:ru": "Марокко",
          "name:rw": "Maroke",
          "name:sa": "मोराको",
          "name:sc": "Marocco",
          "name:se": "Marokko",
          "name:sg": "Marôko",
          "name:sh": "Maroko",
          "name:sk": "Maroko",
          "name:sl": "Maroko",
          "name:sn": "Morocco",
          "name:so": "Marooko",
          "name:sq": "Maroku",
          "name:sr": "Мароко",
          "name:ss": "IMorokho",
          "name:su": "Maroko",
          "name:sv": "Marocko",
          "name:sw": "Moroko",
          "name:ta": "மொரோக்கோ",
          "name:te": "మొరాకో",
          "name:tg": "Марокаш",
          "name:th": "ประเทศโมร็อกโก",
          "name:ti": "ሞሮኮ",
          "name:tk": "Marokko",
          "name:tl": "Maruekos",
          "name:tr": "Fas",
          "name:ts": "Morocco",
          "name:tt": "Марокко",
          "name:ug": "ماراكەش",
          "name:uk": "Марокко",
          "name:ur": "مراکش",
          "name:uz": "Marokash",
          "name:vi": "Maroc",
          "name:vo": "Marokän",
          "name:wa": "Marok",
          "name:wo": "Marok",
          "name:yi": "מאראקא",
          "name:yo": "Mòrókò",
          "name:zh": "摩洛哥",
          "name:zu": "IMorokho",
          "boundary": "administrative",
          "name:ast": "Marruecos",
          "name:bcl": "Moroko",
          "name:ber": "ⵍⵎⵖⵔⵉⴱ",
          "name:bjn": "Maroko",
          "name:bpy": "মরক্কো",
          "name:bxr": "Марокко",
          "name:ceb": "Maruwekos",
          "name:ckb": "مەغریب",
          "name:crh": "Mağrip",
          "name:diq": "Marok",
          "name:dsb": "Marokko",
          "name:ext": "Marruecus",
          "name:frp": "Maroc",
          "name:gag": "Marokko",
          "name:hif": "Morocco",
          "name:hsb": "Marokko",
          "name:ilo": "Morocco",
          "name:jbo": "morgu'e",
          "name:kab": "Merruk",
          "name:lad": "Marroko",
          "name:lij": "Maròcco",
          "name:lmo": "Maroch",
          "name:lzh": "摩洛哥",
          "name:min": "Maroko",
          "name:mrj": "Марокко",
          "name:mwl": "Marrocos",
          "name:mzn": "مراکش",
          "name:nah": "Marruecos",
          "name:nan": "Morocco",
          "name:nds": "Marokko",
          "name:new": "मोरक्को",
          "name:nov": "Moroko",
          "name:nso": "Morocco",
          "name:pam": "Morocco",
          "name:pap": "Morocco",
          "name:pms": "Maròch",
          "name:pnb": "مراکش",
          "name:sah": "Марокко",
          "name:scn": "Maroccu",
          "name:sco": "Morocco",
          "name:smn": "Marokko",
          "name:sms": "Marokko",
          "name:stq": "Marokko",
          "name:szl": "Maroko",
          "name:tok": "ma Malipe",
          "name:tzl": "Maroc",
          "name:vec": "Maroco",
          "name:vep": "Marok",
          "name:vro": "Maroko",
          "name:war": "Morocco",
          "name:xal": "Морокин Нутг",
          "name:yue": "摩洛哥",
          "name:zea": "Marokko",
          "name:zgh": "ⵍⵎⵖⵔⵉⴱ",
          "old_name": "مراكش",
          "way_area": "61.8833",
          "wikidata": "Q1028",
          "ISO3166-1": "MA",
          "wikipedia": "ar:المغرب",
          "population": "33848242",
          "admin_level": "2",
          "name:simple": "Morocco",
          "old_name:ar": "مراكش",
          "name:bat-smg": "Maruoks",
          "name:zh-Hans": "摩洛哥",
          "name:zh-Hant": "摩洛哥",
          "official_name": "ⵍⵎⵖⵔⵉⴱ المغرب",
          "name:be-tarask": "Марока",
          "population:date": "2014",
          "ISO3166-1:alpha2": "MA",
          "ISO3166-1:alpha3": "MAR",
          "default_language": "ar",
          "official_name:ar": "المغرب",
          "official_name:cs": "Marocké království",
          "official_name:en": "Morocco",
          "official_name:fr": "Maroc",
          "official_name:gn": "Mburuvi Marruéko",
          "official_name:pt": "Marrocos",
          "ISO3166-1:numeric": "504",
          "official_name:ber": "ⵍⵎⵖⵔⵉⴱ"
        }
      },
      "geometry": {
        "type": "Polygon",
        "coordinates": [
          [
            [
              -15,
              22
            ],
            [
              -14.504222902879578,
              22
            ],
            [
              -14.5042779,
              22.0085634
            ],
            [
              -14.5043904,
              22.0090607
            ],
            [
              -14.5037324,
              22.0096792
            ],
            [
              -14.5020722,
              22.0106541
            ],
            [
              -14.5015179,
              22.011442
            ],
            [
              -14.5012864,
              22.012254
            ],
            [
              -14.5013516,
              22.012891
            ],
            [
              -14.5011572,
              22.013301
            ],
            [
              -14.4997913,
              22.0153155
            ],
            [
              -14.4959442,
              22.0207713
            ],
            [
              -14.4945467,
              22.0215131
            ],
            [
              -14.4937805,
              22.022661
            ],
            [
              -14.494044,
              22.0240441
            ],
            [
              -14.4951985,
              22.0252202
            ],
            [
              -14.4939589,
              22.0394355
            ],
            [
              -14.4930433,
              22.0402645
            ],
            [
              -14.4924526,
              22.0414392
            ],
            [
              -14.4732246,
              22.047361
            ],
            [
              -14.4720742,
              22.0489018
            ],
            [
              -14.4719751,
              22.049243
            ],
            [
              -14.4716498,
              22.0495162
            ],
            [
              -14.4671095,
              22.0522816
            ],
            [
              -14.4668177,
              22.0536154
            ],
            [
              -14.447574,
              22.060734
            ],
            [
              -14.4466764,
              22.0609804
            ],
            [
              -14.4460804,
              22.0608879
            ],
            [
              -14.4458273,
              22.0609928
            ],
            [
              -14.4456723,
              22.0612909
            ],
            [
              -14.4458443,
              22.0614935
            ],
            [
              -14.4452414,
              22.0619653
            ],
            [
              -14.4451182,
              22.062258
            ],
            [
              -14.44442,
              22.0627289
            ],
            [
              -14.4346404,
              22.0716763
            ],
            [
              -14.4339913,
              22.0721889
            ],
            [
              -14.433416,
              22.0722591
            ],
            [
              -14.4331954,
              22.0725961
            ],
            [
              -14.4333539,
              22.072836
            ],
            [
              -14.4274521,
              22.0797196
            ],
            [
              -14.4217953,
              22.0867664
            ],
            [
              -14.4206033,
              22.0875176
            ],
            [
              -14.4204298,
              22.0884397
            ],
            [
              -14.4153285,
              22.0949797
            ],
            [
              -14.4106079,
              22.1014186
            ],
            [
              -14.4104227,
              22.1016425
            ],
            [
              -14.4096503,
              22.1018661
            ],
            [
              -14.409537,
              22.1020497
            ],
            [
              -14.4096291,
              22.1026656
            ],
            [
              -14.398896,
              22.1178475
            ],
            [
              -14.3987374,
              22.1177966
            ],
            [
              -14.3978173,
              22.1183353
            ],
            [
              -14.3975578,
              22.1189217
            ],
            [
              -14.3977353,
              22.1200869
            ],
            [
              -14.3949857,
              22.130754
            ],
            [
              -14.3940529,
              22.1321727
            ],
            [
              -14.3830065,
              22.1399467
            ],
            [
              -14.3824455,
              22.1402098
            ],
            [
              -14.3821827,
              22.1400257
            ],
            [
              -14.3818419,
              22.140223
            ],
            [
              -14.3814584,
              22.1406506
            ],
            [
              -14.3815365,
              22.1408084
            ],
            [
              -14.3714357,
              22.1521626
            ],
            [
              -14.3709512,
              22.1520957
            ],
            [
              -14.3703673,
              22.1527642
            ],
            [
              -14.3704281,
              22.1528881
            ],
            [
              -14.3608475,
              22.1586817
            ],
            [
              -14.3583436,
              22.1600443
            ],
            [
              -14.3580288,
              22.1597725
            ],
            [
              -14.3575291,
              22.1600456
            ],
            [
              -14.3569352,
              22.1608422
            ],
            [
              -14.3569136,
              22.1611256
            ],
            [
              -14.3497646,
              22.167043
            ],
            [
              -14.3427376,
              22.1732079
            ],
            [
              -14.3423967,
              22.1734508
            ],
            [
              -14.342226,
              22.1733514
            ],
            [
              -14.3417674,
              22.173496
            ],
            [
              -14.3415347,
              22.1739751
            ],
            [
              -14.34166,
              22.1741714
            ],
            [
              -14.3326935,
              22.1864576
            ],
            [
              -14.3323712,
              22.1864277
            ],
            [
              -14.3321157,
              22.1866028
            ],
            [
              -14.3319335,
              22.1870866
            ],
            [
              -14.3319601,
              22.1873851
            ],
            [
              -14.3321317,
              22.1873876
            ],
            [
              -14.3320533,
              22.1876437
            ],
            [
              -14.3231254,
              22.2008244
            ],
            [
              -14.322382,
              22.2012752
            ],
            [
              -14.3219552,
              22.2011986
            ],
            [
              -14.3213014,
              22.2017834
            ],
            [
              -14.3209794,
              22.2023523
            ],
            [
              -14.3212091,
              22.2024951
            ],
            [
              -14.3210802,
              22.2026277
            ],
            [
              -14.3091736,
              22.2143825
            ],
            [
              -14.3090487,
              22.2144935
            ],
            [
              -14.3086109,
              22.2143772
            ],
            [
              -14.3082535,
              22.2148736
            ],
            [
              -14.3084187,
              22.2151715
            ],
            [
              -14.3024913,
              22.2223497
            ],
            [
              -14.2962878,
              22.2285474
            ],
            [
              -14.295349,
              22.2291166
            ],
            [
              -14.2951729,
              22.2293229
            ],
            [
              -14.2952687,
              22.2295189
            ],
            [
              -14.2946234,
              22.2302042
            ],
            [
              -14.2939577,
              22.2306199
            ],
            [
              -14.2839811,
              22.2395788
            ],
            [
              -14.2799306,
              22.2427287
            ],
            [
              -14.2793005,
              22.2426151
            ],
            [
              -14.2786822,
              22.2427711
            ],
            [
              -14.2785098,
              22.2434919
            ],
            [
              -14.2787332,
              22.2439869
            ],
            [
              -14.2784012,
              22.247646
            ],
            [
              -14.278077,
              22.2490145
            ],
            [
              -14.2778306,
              22.2493747
            ],
            [
              -14.277636,
              22.2508512
            ],
            [
              -14.2773377,
              22.2514754
            ],
            [
              -14.277221,
              22.2528558
            ],
            [
              -14.2768972,
              22.2530451
            ],
            [
              -14.2767728,
              22.2535227
            ],
            [
              -14.2768308,
              22.2539524
            ],
            [
              -14.2769635,
              22.2539773
            ],
            [
              -14.276864,
              22.2545087
            ],
            [
              -14.2613668,
              22.269282
            ],
            [
              -14.2606963,
              22.2696091
            ],
            [
              -14.2602361,
              22.272027
            ],
            [
              -14.2589736,
              22.2766539
            ],
            [
              -14.2583093,
              22.2774315
            ],
            [
              -14.2580246,
              22.278041
            ],
            [
              -14.2515013,
              22.2841294
            ],
            [
              -14.2481501,
              22.2877384
            ],
            [
              -14.2450479,
              22.2914079
            ],
            [
              -14.2444701,
              22.2916788
            ],
            [
              -14.2443655,
              22.292261
            ],
            [
              -14.2426486,
              22.2941736
            ],
            [
              -14.2355561,
              22.3066317
            ],
            [
              -14.2350894,
              22.3067211
            ],
            [
              -14.2349285,
              22.3069047
            ],
            [
              -14.2347968,
              22.3075398
            ],
            [
              -14.2335095,
              22.3102591
            ],
            [
              -14.2322483,
              22.3136612
            ],
            [
              -14.2292741,
              22.3199199
            ],
            [
              -14.2282614,
              22.3211983
            ],
            [
              -14.2197099,
              22.3342824
            ],
            [
              -14.2192515,
              22.3346416
            ],
            [
              -14.218928,
              22.3352351
            ],
            [
              -14.2108848,
              22.3456086
            ],
            [
              -14.2104698,
              22.3459605
            ],
            [
              -14.2100306,
              22.3469723
            ],
            [
              -14.1993591,
              22.3621791
            ],
            [
              -14.1986243,
              22.36292
            ],
            [
              -14.1984842,
              22.3634927
            ],
            [
              -14.1887801,
              22.3763837
            ],
            [
              -14.1882589,
              22.3765674
            ],
            [
              -14.1880505,
              22.3770041
            ],
            [
              -14.1826224,
              22.3816857
            ],
            [
              -14.1823089,
              22.3816765
            ],
            [
              -14.1819792,
              22.3820292
            ],
            [
              -14.1818852,
              22.3826296
            ],
            [
              -14.1698629,
              22.3992433
            ],
            [
              -14.1692899,
              22.3992777
            ],
            [
              -14.1685725,
              22.4006097
            ],
            [
              -14.168659,
              22.4012044
            ],
            [
              -14.1684728,
              22.4016367
            ],
            [
              -14.1646101,
              22.4088764
            ],
            [
              -14.1601305,
              22.4178527
            ],
            [
              -14.1595383,
              22.4184002
            ],
            [
              -14.15963,
              22.4192562
            ],
            [
              -14.1581118,
              22.4239292
            ],
            [
              -14.1578949,
              22.4241991
            ],
            [
              -14.1578949,
              22.4247003
            ],
            [
              -14.1570774,
              22.4271138
            ],
            [
              -14.1567187,
              22.4272603
            ],
            [
              -14.1565269,
              22.4275996
            ],
            [
              -14.1566103,
              22.4283013
            ],
            [
              -14.1530278,
              22.4432787
            ],
            [
              -14.1524893,
              22.4440121
            ],
            [
              -14.1520943,
              22.445054
            ],
            [
              -14.152352,
              22.4453974
            ],
            [
              -14.1482645,
              22.4623089
            ],
            [
              -14.1477468,
              22.4631451
            ],
            [
              -14.1479024,
              22.4637769
            ],
            [
              -14.1461751,
              22.4748341
            ],
            [
              -14.145821,
              22.4749663
            ],
            [
              -14.1457425,
              22.4751865
            ],
            [
              -14.1457313,
              22.4758702
            ],
            [
              -14.1458528,
              22.4760131
            ],
            [
              -14.1403117,
              22.4917323
            ],
            [
              -14.1397616,
              22.4920618
            ],
            [
              -14.1398451,
              22.4933341
            ],
            [
              -14.1345203,
              22.5103085
            ],
            [
              -14.1340994,
              22.5106839
            ],
            [
              -14.134316,
              22.511455
            ],
            [
              -14.1288635,
              22.5275091
            ],
            [
              -14.1285444,
              22.5277394
            ],
            [
              -14.1284535,
              22.5280298
            ],
            [
              -14.1286352,
              22.5288001
            ],
            [
              -14.1255229,
              22.5378115
            ],
            [
              -14.1252818,
              22.53825
            ],
            [
              -14.1249509,
              22.5383448
            ],
            [
              -14.1245517,
              22.5388471
            ],
            [
              -14.1244604,
              22.5393493
            ],
            [
              -14.1249357,
              22.5398551
            ],
            [
              -14.1210325,
              22.5541665
            ],
            [
              -14.1206002,
              22.5549745
            ],
            [
              -14.1207211,
              22.5551765
            ],
            [
              -14.118968,
              22.5646375
            ],
            [
              -14.1186508,
              22.5650239
            ],
            [
              -14.1188172,
              22.56566
            ],
            [
              -14.1152772,
              22.5765829
            ],
            [
              -14.1147071,
              22.576623
            ],
            [
              -14.114685,
              22.5778101
            ],
            [
              -14.1149245,
              22.5781447
            ],
            [
              -14.1165501,
              22.5876355
            ],
            [
              -14.1162352,
              22.5881362
            ],
            [
              -14.1162887,
              22.5885332
            ],
            [
              -14.1165561,
              22.5887443
            ],
            [
              -14.1155507,
              22.6064073
            ],
            [
              -14.1152785,
              22.6065784
            ],
            [
              -14.1152394,
              22.6068048
            ],
            [
              -14.1153175,
              22.6072115
            ],
            [
              -14.1156279,
              22.6074008
            ],
            [
              -14.1158212,
              22.6203191
            ],
            [
              -14.1154646,
              22.620597
            ],
            [
              -14.1154675,
              22.6213686
            ],
            [
              -14.1156663,
              22.6220214
            ],
            [
              -14.1159205,
              22.6222399
            ],
            [
              -14.1146434,
              22.6364089
            ],
            [
              -14.1143899,
              22.6367133
            ],
            [
              -14.1143794,
              22.6369986
            ],
            [
              -14.1146572,
              22.6373447
            ],
            [
              -14.1139985,
              22.6512635
            ],
            [
              -14.1137788,
              22.6517753
            ],
            [
              -14.1140571,
              22.652264
            ],
            [
              -14.1143104,
              22.6691365
            ],
            [
              -14.1140398,
              22.6697407
            ],
            [
              -14.1141458,
              22.6701857
            ],
            [
              -14.1144981,
              22.6705613
            ],
            [
              -14.1142936,
              22.6839256
            ],
            [
              -14.114144,
              22.6843567
            ],
            [
              -14.1145114,
              22.6850639
            ],
            [
              -14.1176108,
              22.6954481
            ],
            [
              -14.1175132,
              22.6959217
            ],
            [
              -14.1177916,
              22.6963386
            ],
            [
              -14.1189681,
              22.7130955
            ],
            [
              -14.1187644,
              22.713806
            ],
            [
              -14.119393,
              22.714895
            ],
            [
              -14.12198,
              22.7296435
            ],
            [
              -14.1217237,
              22.7302025
            ],
            [
              -14.1220477,
              22.7303803
            ],
            [
              -14.1220497,
              22.7307741
            ],
            [
              -14.1201705,
              22.7518481
            ],
            [
              -14.1199222,
              22.7519692
            ],
            [
              -14.1198042,
              22.7522883
            ],
            [
              -14.1199749,
              22.7526142
            ],
            [
              -14.116666,
              22.7676676
            ],
            [
              -14.1162978,
              22.7679333
            ],
            [
              -14.1161831,
              22.7683097
            ],
            [
              -14.1161591,
              22.7690232
            ],
            [
              -14.1165433,
              22.769557
            ],
            [
              -14.116197,
              22.7845649
            ],
            [
              -14.1160179,
              22.7848594
            ],
            [
              -14.1161541,
              22.7854423
            ],
            [
              -14.1137115,
              22.7943
            ],
            [
              -14.1134147,
              22.7947216
            ],
            [
              -14.1135671,
              22.7950347
            ],
            [
              -14.1072223,
              22.8138429
            ],
            [
              -14.1068195,
              22.8140932
            ],
            [
              -14.1067034,
              22.8152706
            ],
            [
              -14.1021699,
              22.8294106
            ],
            [
              -14.1019612,
              22.8296164
            ],
            [
              -14.1020335,
              22.830186
            ],
            [
              -14.0995984,
              22.8381424
            ],
            [
              -14.0993855,
              22.8381842
            ],
            [
              -14.0991318,
              22.8391987
            ],
            [
              -14.0938584,
              22.850627
            ],
            [
              -14.0935832,
              22.8507028
            ],
            [
              -14.0932574,
              22.8511983
            ],
            [
              -14.0932289,
              22.8517259
            ],
            [
              -14.0934155,
              22.8519139
            ],
            [
              -14.0889583,
              22.8643456
            ],
            [
              -14.0886008,
              22.8644563
            ],
            [
              -14.0885063,
              22.864702
            ],
            [
              -14.0886342,
              22.8650666
            ],
            [
              -14.0861871,
              22.8744535
            ],
            [
              -14.0838925,
              22.8842722
            ],
            [
              -14.0835524,
              22.8846763
            ],
            [
              -14.0836496,
              22.8850429
            ],
            [
              -14.0819937,
              22.8919522
            ],
            [
              -14.0808476,
              22.8979061
            ],
            [
              -14.0802272,
              22.8983172
            ],
            [
              -14.0797819,
              22.8983992
            ],
            [
              -14.0788099,
              22.8996791
            ],
            [
              -14.0787208,
              22.9000776
            ],
            [
              -14.0790109,
              22.900816
            ],
            [
              -14.0789574,
              22.9010691
            ],
            [
              -14.0745276,
              22.91773
            ],
            [
              -14.0741262,
              22.9178704
            ],
            [
              -14.0740481,
              22.918134
            ],
            [
              -14.0741783,
              22.9184529
            ],
            [
              -14.0691217,
              22.9269704
            ],
            [
              -14.0663329,
              22.9319962
            ],
            [
              -14.065976,
              22.9322644
            ],
            [
              -14.0658773,
              22.9325066
            ],
            [
              -14.0660229,
              22.9329435
            ],
            [
              -14.0652347,
              22.9358394
            ],
            [
              -14.0631807,
              22.9453952
            ],
            [
              -14.062799,
              22.9455429
            ],
            [
              -14.0624976,
              22.945883
            ],
            [
              -14.0624678,
              22.9468176
            ],
            [
              -14.0541454,
              22.9592821
            ],
            [
              -14.0536288,
              22.9595248
            ],
            [
              -14.0535127,
              22.9597579
            ],
            [
              -14.0536374,
              22.9601614
            ],
            [
              -14.050982,
              22.9648224
            ],
            [
              -14.0504252,
              22.965384
            ],
            [
              -14.0503455,
              22.9662535
            ],
            [
              -14.0448856,
              22.9798563
            ],
            [
              -14.04478,
              22.9800252
            ],
            [
              -14.0444168,
              22.980094
            ],
            [
              -14.0441433,
              22.9806332
            ],
            [
              -14.0442464,
              22.9812971
            ],
            [
              -14.0424408,
              22.9860245
            ],
            [
              -14.0394717,
              22.9955774
            ],
            [
              -14.0388104,
              22.9958579
            ],
            [
              -14.0387023,
              22.9962144
            ],
            [
              -14.034007348726565,
              23
            ],
            [
              -15,
              23
            ],
            [
              -15,
              22
            ]
          ]
        ]
      }
    }
  ]
}