{
  "type": "FeatureCollection",
  "features": [
    {
      "type": "Feature",
      "properties": {
        "osm_id": -556706,
        "boundary": "administrative",
        "admin_level": 2,
        "parents": null,
        "name": "New Zealand",
        "local_name": "New Zealand / Aotearoa",
        "name_en": "New Zealand",
        "all_tags": {
          "flag": "http://upload.wikimedia.org/wikipedia/commons/3/3e/Flag_of_New_Zealand.svg",
          "name": "New Zealand / Aotearoa",
          "name:af": "Nieu-Seeland",
          "name:am": "ኒው ዚላንድ",
          "name:an": "Nueva Zelanda",
          "name:ar": "نيوزيلندا",
          "name:az": "Yeni Zelandiya",
          "name:ba": "Яңы Зеландия",
          "name:be": "Новая Зеландыя",
          "name:bg": "Нова Зеландия",
          "name:bh": "न्यूजीलैंड",
          "name:bi": "Niu Zilan",
          "name:bm": "New Zealand",
          "name:bn": "নিউজিল্যান্ড",
          "name:bo": "ནིའུ་ཛི་ལེན་ཌི།",
          "name:br": "Zeland-Nevez",
          "name:bs": "Novi Zeland",
          "name:ca": "Nova Zelanda",
          "name:ce": "Керла Зеланди",
          "name:ch": "Nuebu Silan",
          "name:co": "Nova Zilanda",
          "name:cr": "ᓂᐅ ᓯᐊᐧᐣ",
          "name:cs": "Nový Zéland",
          "name:cu": "Новъ Ꙁєландъ",
          "name:cv": "Çĕнĕ Зеланди",
          "name:cy": "Seland Newydd",
          "name:da": "New Zealand",
          "name:de": "Neuseeland",
          "name:dv": "ނިއުޒިލޭންޑު",
          "name:dz": "ནིའུ་ཛི་ལེནཌ་",
          "name:ee": "New Zealand",
          "name:el": "Νέα Ζηλανδία",
          "name:en": "New Zealand",
          "name:eo": "Nov-Zelando",
          "name:es": "Nueva Zelanda",
          "name:et": "Uus-Meremaa",
          "name:eu": "Zeelanda Berria",
          "name:fa": "نیوزیلند",
          "name:ff": "Niw-Zilannda",
          "name:fi": "Uusi-Seelanti",
          "name:fj": "Niusiladi",
          "name:fo": "Nýsæland",
          "name:fr": "Nouvelle-Zélande",
          "name:fy": "Nij-Seelân",
          "name:ga": "An Nua-Shéalainn",
          "name:gd": "Sealainn Nuadh",
          "name:gl": "Nova Zelandia",
          "name:gn": "Selánda Pyahu",
          "name:gu": "ન્યૂઝીલેન્ડ",
          "name:gv": "Yn Teelynn Noa",
          "name:ha": "Sabuwar Zelandiya",
          "name:he": "ניו זילנד",
          "name:hi": "न्यूज़ीलैण्ड",
          "name:hr": "Novi Zeland",
          "name:ht": "Nouvèl Zelann",
          "name:hu": "Új-Zéland",
          "name:hy": "Նոր Զելանդիա",
          "name:ia": "Nove Zelanda",
          "name:id": "Selandia Baru",
          "name:ie": "Nov-Zeland",
          "name:io": "Nova-Zelando",
          "name:is": "Nýja-Sjáland",
          "name:it": "Nuova Zelanda",
          "name:iu": "ᓂᐅ ᓰᓚᓐ",
          "name:ja": "ニュージーランド",
          "name:jv": "Sélandia Anyar",
          "name:ka": "ახალი ზელანდია",
          "name:kk": "Жаңа Зеландия",
          "name:kl": "New Zealand",
          "name:km": "នូវែលសេឡង់",
          "name:kn": "ನ್ಯೂ ಜೀಲ್ಯಾಂಡ್",
          "name:ko": "뉴질랜드",
          "name:ku": "Nû Zelenda",
          "name:kv": "Выль Зеландия",
          "name:kw": "Mordir Nowydh",
          "name:ky": "Жаңы Зеландия",
          "name:la": "Nova Zelandia",
          "name:lb": "Neiséiland",
          "name:li": "Nui-Zieland",
          "name:lo": "ປະເທດນູແວນ ເຊລັງ",
          "name:lt": "Naujoji Zelandija",
          "name:lv": "Jaunzēlande",
          "name:mg": "Zelandy Vaovao",
          "name:mi": "Aotearoa",
          "name:mk": "Нов Зеланд",
          "name:ml": "ന്യൂസീലൻഡ്",
          "name:mn": "Шинэ Зеланд",
          "name:mr": "न्यू झीलँड",
          "name:ms": "New Zealand",
          "name:mt": "New Zealand",
          "name:my": "နယူးဇီလန်နိုင်ငံ",
          "name:na": "Niu Djiran",
          "name:ne": "न्यू जील्याण्ड",
          "name:nl": "Nieuw-Zeeland",
          "name:nn": "New Zealand",
          "name:no": "New Zealand",
          "name:oc": "Nòva Zelanda",
          "name:or": "ନିଉଜିଲ୍ୟାଣ୍ଡ",
          "name:os": "Ног Зеланди",
          "name:pa": "ਨਿਊਜ਼ੀਲੈਂਡ",
          "name:pi": "न्यू-जीलैंड",
          "name:pl": "Nowa Zelandia",
          "name:ps": "نیوزیلنډ",
          "name:pt": "Nova Zelândia",
          "name:qu": "Musuq Silanda",
          "name:rm": "Nova Zelanda",
          "name:rn": "Nouvelle-Zélande",
          "name:ro": "Noua Zeelandă",
          "name:ru": "Новая Зеландия",
          "name:rw": "Nuveli Zelande",
          "name:sa": "न्यू-जीलैंड",
          "name:sc": "Noa Zelanda",
          "name:sd": "نيوزيلينڊ",
          "name:se": "Aotearoa",
          "name:sh": "Novi Zeland",
          "name:si": "නව සීලන්තය",
          "name:sk": "Nový Zéland",
          "name:sl": "Nova Zelandija",
          "name:sm": "Niu Sila",
          "name:sn": "New Zealand",
          "name:so": "New Zealand",
          "name:sq": "Zelanda e Re",
          "name:sr": "Нови Зеланд",
          "name:su": "Selandia Anyar",
          "name:sv": "Nya Zeeland",
          "name:sw": "New Zealand",
          "name:ta": "நியூசிலாந்து",
          "name:te": "న్యూజీలాండ్",
          "name:tg": "Зеландияи Нав",
          "name:th": "ประเทศนิวซีแลนด์",
          "name:ti": "ኒው ዘይላንድ",
          "name:tk": "Täze Zelandiýa",
          "name:tl": "New Zealand",
          "name:tr": "Yeni Zelanda",
          "name:tt": "Яңа Зеландия",
          "name:ty": "Aotearoa",
          "name:ug": "يېڭى زېلاندىيە",
          "name:uk": "Нова Зеландія",
          "name:ur": "نیوزی لینڈ",
          "name:uz": "Yangi Zelandiya",
          "name:vi": "New Zealand",
          "name:vo": "Nula-Seleäns",
          "name:wa": "Nouve Zelande",
          "name:wo": "Seland-Gu-Bees",
          "name:yi": "ניו זילאנד",
          "name:yo": "New Zealand",
          "name:za": "Saen Saelanz",
          "name:zh": "紐西蘭/新西兰",
          "name:zu": "INyuzilandi",
          "website": "https://www.govt.nz/",
          "boundary": "administrative",
          "name:ace": "Seulandia Barô",
          "name:als": "Neuseeland",
          "name:ang": "Nīwe Sǣland",
          "name:arc": "ܢܝܘ ܙܝܠܢܕ",
          "name:arz": "نيوزيلاندا",
          "name:ast": "Nueva Zelanda",
          "name:ban": "Selandia Anyar",
          "name:bar": "Neiseeland",
          "name:bcl": "Nueva Zelanda",
          "name:bpy": "নিউজিল্যান্ড",
          "name:bxr": "Шэнэ Зеланд",
          "name:cdo": "Sĭng-să̤-làng",
          "name:ceb": "New Zealand",
          "name:chr": "ᎢᏤᏏᎢᎴᏂᏗ",
          "name:chy": "New Zealand",
          "name:ckb": "نیوزیلاند",
          "name:crh": "Yañı Zelandiya",
          "name:csb": "Nowô Zelandzkô",
          "name:din": "New Zealand",
          "name:diq": "Zelandaya Newiye",
          "name:dsb": "Nowoseelandska",
          "name:ext": "Nueva Zelanda",
          "name:frp": "Novèla-Zèlande",
          "name:frr": "Nei-Sialun",
          "name:gag": "Eni Zelandiya",
          "name:gom": "न्यूझीलंड",
          "name:got": "𐌽𐌹𐌿𐌾𐌹𐍃 𐍃𐌰𐌹𐍅𐌰𐌻𐌰𐌽𐌳",
          "name:hak": "Néu Sî-làn",
          "name:haw": "Nūkilani",
          "name:hif": "New Zealand",
          "name:hsb": "Nowoseelandska",
          "name:ilo": "Baro a Selanda",
          "name:inh": "Керда Зеланди",
          "name:jam": "Nyuu Ziilant",
          "name:jbo": "zis. poi cnino",
          "name:kaa": "Jan'a Zelandiya",
          "name:kab": "Ziland Tamaynut",
          "name:kbd": "Зелэнд ЩӀэ",
          "name:krc": "Джангы Зеландия",
          "name:lad": "Mueva Zelanda",
          "name:lez": "ЦӀийи Зеландия",
          "name:lfn": "Zeland Nova",
          "name:lij": "Neuva Selanda",
          "name:lmo": "Növa Zelanda",
          "name:lzh": "紐西蘭",
          "name:mai": "न्युजिल्यान्ड",
          "name:mrj": "У Зеланди",
          "name:myv": "Од Зеландия",
          "name:mzn": "نیوزلند",
          "name:nah": "Yancuīc Zetlālpan",
          "name:nan": "Sin Jia̍t-lân-jia",
          "name:nap": "Nòva Zelanna",
          "name:nds": "Niegseeland",
          "name:new": "न्यु जिल्यान्द",
          "name:nov": "Novi Selande",
          "name:nrm": "Nouvelle Zélande",
          "name:nso": "New Zealand",
          "name:pam": "New Zealand",
          "name:pap": "Nueva Zelandia",
          "name:pcd": "Novèle-Zilinde",
          "name:pih": "Nyuu Ziilan",
          "name:pms": "Neuva Zelanda",
          "name:pnb": "نیوزی لینڈ",
          "name:pnt": "Νέα Ζηλανδία",
          "name:rue": "Новый Зеланд",
          "name:sah": "Саҥа Зеландия",
          "name:sat": "ᱱᱤᱭᱩᱡᱤᱞᱮᱱᱰ",
          "name:scn": "Nova Zilanna",
          "name:sco": "New Zealand",
          "name:shn": "မိူင်းၼိဝ်းၸီႇလႅၼ်ႇ",
          "name:smn": "Aotearoa",
          "name:sms": "Aotearoa",
          "name:stq": "Näi-Seelound",
          "name:szl": "Nowŏ Zelandyjŏ",
          "name:tcy": "ನ್ಯೂ ಝಿಲೆಂಡ್",
          "name:tok": "ma Nusilan",
          "name:tpi": "Niu Silan",
          "name:trv": "New Zealand",
          "name:tum": "New Zealand",
          "name:tzl": "Noveu Zaiphäts",
          "name:udm": "Выль Зеландия",
          "name:vec": "Nova Zełanda",
          "name:vep": "Uz' Zelandii",
          "name:vls": "Nieuw-Zêeland",
          "name:vro": "Vahtsõnõ Meremaa",
          "name:war": "New Zealand",
          "name:wuu": "新西兰",
          "name:xal": "Шинзелендин Орн",
          "name:xmf": "ახალი ზელანდია",
          "name:yue": "紐西蘭",
          "name:zea": "Nieuw-Zeêland",
          "way_area": "48.7509",
          "wikidata": "Q664",
          "ISO3166-1": "NZ",
          "wikipedia": "en:New Zealand",
          "population": "5158113",
          "admin_level": "2",
          "alt_name:ko": "아오테아로아",
          "name:nan-HJ": "新熱蘭遮",
          "name:nan-TL": "Sin Jia̍t-lân-jia",
          "name:nds-nl": "Ni'j-Zeelaand",
          "name:simple": "New Zealand",
          "driving_side": "left",
          "name:bat-smg": "Naujuojė Zelandėjė",
          "name:nan-POJ": "Sin Jia̍t-lân-jia",
          "name:roa-rup": "Naua Zeelanda",
          "name:zh-Hans": "新西兰",
          "name:zh-Hant": "紐西蘭",
          "name:roa-tara": "Nuève Zelanne",
          "name:be-tarask": "Новая Зэляндыя",
          "website:tourism": "http://www.newzealand.com",
          "ISO3166-1:alpha2": "NZ",
          "ISO3166-1:alpha3": "NZL",
          "ISO3166-1:numeric": "554"
        }
      },
      "geometry": {
        "type": "Polygon",
        "coordinates": [
          [
            [
              172,
              -41
            ],
            [
              173,
              -41
            ],
            [
              173,
              -40.321096013548406
            ],
            [
              172.9954844,
              -40.3202583
            ],
            [
              172.9859379,
              -40.3188422
            ],
            [
              172.9763296,
              -40.3176979
            ],
            [
              172.9666726,
              -40.316827
            ],
            [
              172.9570267,
              -40.3153371
            ],
            [
              172.9424381,
              -40.3136246
            ],
            [
              172.932846,
              -40.3121194
            ],
            [
              172.9231873,
              -40.3108895
            ],
            [
              172.9086041,
              -40.3095643
            ],
            [
              172.898838,
              -40.309029
            ],
            [
              172.8890527,
              -40.3087733
            ],
            [
              172.8797215,
              -40.3068629
            ],
            [
              172.870305,
              -40.305217
            ],
            [
              172.8608158,
              -40.3038377
            ],
            [
              172.8512669,
              -40.302727
            ],
            [
              172.8368599,
              -40.3015675
            ],
            [
              172.8272183,
              -40.3011339
            ],
            [
              172.8175625,
              -40.3009724
            ],
            [
              172.808258,
              -40.3003475
            ],
            [
              172.7989304,
              -40.2999766
            ],
            [
              172.7895915,
              -40.2998603
            ],
            [
              172.7755879,
              -40.3001636
            ],
            [
              172.7616252,
              -40.3010392
            ],
            [
              172.7477434,
              -40.3024846
            ],
            [
              172.7345539,
              -40.3007387
            ],
            [
              172.7257039,
              -40.2998621
            ],
            [
              172.7168202,
              -40.2992167
            ],
            [
              172.6936951,
              -40.2982494
            ],
            [
              172.679459,
              -40.2982878
            ],
            [
              172.6699788,
              -40.2986422
            ],
            [
              172.6605215,
              -40.299259
            ],
            [
              172.6369665,
              -40.3014599
            ],
            [
              172.6275706,
              -40.3025062
            ],
            [
              172.6135846,
              -40.3045624
            ],
            [
              172.5997646,
              -40.307197
            ],
            [
              172.5861513,
              -40.3104023
            ],
            [
              172.5727848,
              -40.3141688
            ],
            [
              172.5634535,
              -40.3163427
            ],
            [
              172.554234,
              -40.3187807
            ],
            [
              172.5451389,
              -40.3214795
            ],
            [
              172.536181,
              -40.3244353
            ],
            [
              172.5273724,
              -40.3276442
            ],
            [
              172.5187256,
              -40.3311017
            ],
            [
              172.4980079,
              -40.340318
            ],
            [
              172.4901027,
              -40.3441109
            ],
            [
              172.4823784,
              -40.3481165
            ],
            [
              172.4711525,
              -40.3545128
            ],
            [
              172.4639228,
              -40.3590277
            ],
            [
              172.4464248,
              -40.3706116
            ],
            [
              172.4364297,
              -40.3778995
            ],
            [
              172.4256499,
              -40.3852098
            ],
            [
              172.4187613,
              -40.39033
            ],
            [
              172.4063114,
              -40.3962941
            ],
            [
              172.3982616,
              -40.400562
            ],
            [
              172.3865906,
              -40.407387
            ],
            [
              172.3790949,
              -40.4122099
            ],
            [
              172.3718394,
              -40.4172433
            ],
            [
              172.3648343,
              -40.4224802
            ],
            [
              172.3580894,
              -40.4279134
            ],
            [
              172.3516141,
              -40.4335352
            ],
            [
              172.343292,
              -40.4374747
            ],
            [
              172.3351676,
              -40.4416486
            ],
            [
              172.323376,
              -40.4483361
            ],
            [
              172.3157942,
              -40.4530697
            ],
            [
              172.3037743,
              -40.4586573
            ],
            [
              172.2921628,
              -40.4647291
            ],
            [
              172.2809927,
              -40.4712671
            ],
            [
              172.273807,
              -40.4758757
            ],
            [
              172.2634432,
              -40.4831486
            ],
            [
              172.2568234,
              -40.4882282
            ],
            [
              172.2493403,
              -40.4930865
            ],
            [
              172.2420999,
              -40.4981549
            ],
            [
              172.2351122,
              -40.5034265
            ],
            [
              172.2251259,
              -40.5116985
            ],
            [
              172.2177907,
              -40.5167183
            ],
            [
              172.207262,
              -40.5246326
            ],
            [
              172.2005733,
              -40.5301544
            ],
            [
              172.1910596,
              -40.538786
            ],
            [
              172.1821959,
              -40.5478121
            ],
            [
              172.1766619,
              -40.5540346
            ],
            [
              172.1653629,
              -40.5603646
            ],
            [
              172.1545211,
              -40.5671448
            ],
            [
              172.1441674,
              -40.5743559
            ],
            [
              172.1343314,
              -40.5819776
            ],
            [
              172.1202196,
              -40.5856487
            ],
            [
              172.1064023,
              -40.5899229
            ],
            [
              172.0929237,
              -40.5947868
            ],
            [
              172.079827,
              -40.6002248
            ],
            [
              172.0671543,
              -40.6062193
            ],
            [
              172.0549463,
              -40.6127513
            ],
            [
              172.0432421,
              -40.6197998
            ],
            [
              172.035738,
              -40.6247746
            ],
            [
              172.0249565,
              -40.632633
            ],
            [
              172.0147756,
              -40.6409441
            ],
            [
              172.005228,
              -40.6496814
            ],
            [
              172,
              -40.65505770537855
            ],
            [
              172,
              -41
            ]
          ]
        ]
      }
    }
  ]
}