{
  "type": "FeatureCollection",
  "features": [
    {
      "type": "Feature",
      "properties": {
        "osm_id": -556706,
        "boundary": "administrative",
        "admin_level": 2,
        "parents": null,
        "name": "New Zealand",
        "local_name": "New Zealand / Aotearoa",
        "name_en": "New Zealand",
        "all_tags": {
          "flag": "http://upload.wikimedia.org/wikipedia/commons/3/3e/Flag_of_New_Zealand.svg",
          "name": "New Zealand / Aotearoa",
          "name:af": "Nieu-Seeland",
          "name:am": "áŠ’á‹ á‹šáˆ‹áŠ•á‹µ",
          "name:an": "Nueva Zelanda",
          "name:ar": "Ù†ÙŠÙˆØ²ÙŠÙ„Ù†Ø¯Ø§",
          "name:az": "Yeni Zelandiya",
          "name:ba": "Ğ¯Ò£Ñ‹ Ğ—ĞµĞ»Ğ°Ğ½Ğ´Ğ¸Ñ",
          "name:be": "ĞĞ¾Ğ²Ğ°Ñ Ğ—ĞµĞ»Ğ°Ğ½Ğ´Ñ‹Ñ",
          "name:bg": "ĞĞ¾Ğ²Ğ° Ğ—ĞµĞ»Ğ°Ğ½Ğ´Ğ¸Ñ",
          "name:bh": "à¤¨à¥à¤¯à¥‚à¤œà¥€à¤²à¥ˆà¤‚à¤¡",
          "name:bi": "Niu Zilan",
          "name:bm": "New Zealand",
          "name:bn": "à¦¨à¦¿à¦‰à¦œà¦¿à¦²à§à¦¯à¦¾à¦¨à§à¦¡",
          "name:bo": "à½“à½²à½ à½´à¼‹à½›à½²à¼‹à½£à½ºà½“à¼‹à½Œà½²à¼",
          "name:br": "Zeland-Nevez",
          "name:bs": "Novi Zeland",
          "name:ca": "Nova Zelanda",
          "name:ce": "ĞšĞµÑ€Ğ»Ğ° Ğ—ĞµĞ»Ğ°Ğ½Ğ´Ğ¸",
          "name:ch": "Nuebu Silan",
          "name:co": "Nova Zilanda",
          "name:cr": "á“‚á… á“¯áŠá§á£",
          "name:cs": "NovÃ½ ZÃ©land",
          "name:cu": "ĞĞ¾Ğ²ÑŠ ê™€Ñ”Ğ»Ğ°Ğ½Ğ´ÑŠ",
          "name:cv": "Ã‡Ä•Ğ½Ä• Ğ—ĞµĞ»Ğ°Ğ½Ğ´Ğ¸",
          "name:cy": "Seland Newydd",
          "name:da": "New Zealand",
          "name:de": "Neuseeland",
          "name:dv": "Ş‚Ş¨Ş‡ŞªŞ’Ş¨ŞŞ­Ş‚Ş°Ş‘Şª",
          "name:dz": "à½“à½²à½ à½´à¼‹à½›à½²à¼‹à½£à½ºà½“à½Œà¼‹",
          "name:ee": "New Zealand",
          "name:el": "ÎÎ­Î± Î–Î·Î»Î±Î½Î´Î¯Î±",
          "name:en": "New Zealand",
          "name:eo": "Nov-Zelando",
          "name:es": "Nueva Zelanda",
          "name:et": "Uus-Meremaa",
          "name:eu": "Zeelanda Berria",
          "name:fa": "Ù†ÛŒÙˆØ²ÛŒÙ„Ù†Ø¯",
          "name:ff": "Niw-Zilannda",
          "name:fi": "Uusi-Seelanti",
          "name:fj": "Niusiladi",
          "name:fo": "NÃ½sÃ¦land",
          "name:fr": "Nouvelle-ZÃ©lande",
          "name:fy": "Nij-SeelÃ¢n",
          "name:ga": "An Nua-ShÃ©alainn",
          "name:gd": "Sealainn Nuadh",
          "name:gl": "Nova Zelandia",
          "name:gn": "SelÃ¡nda Pyahu",
          "name:gu": "àª¨à«àª¯à«‚àªà«€àª²à«‡àª¨à«àª¡",
          "name:gv": "Yn Teelynn Noa",
          "name:ha": "Sabuwar Zelandiya",
          "name:he": "× ×™×• ×–×™×œ× ×“",
          "name:hi": "à¤¨à¥à¤¯à¥‚à¤œà¤¼à¥€à¤²à¥ˆà¤£à¥à¤¡",
          "name:hr": "Novi Zeland",
          "name:ht": "NouvÃ¨l Zelann",
          "name:hu": "Ãšj-ZÃ©land",
          "name:hy": "Õ†Õ¸Ö€ Ô¶Õ¥Õ¬Õ¡Õ¶Õ¤Õ«Õ¡",
          "name:ia": "Nove Zelanda",
          "name:id": "Selandia Baru",
          "name:ie": "Nov-Zeland",
          "name:io": "Nova-Zelando",
          "name:is": "NÃ½ja-SjÃ¡land",
          "name:it": "Nuova Zelanda",
          "name:iu": "á“‚á… á“°á“šá“",
          "name:ja": "ãƒ‹ãƒ¥ãƒ¼ã‚¸ãƒ¼ãƒ©ãƒ³ãƒ‰",
          "name:jv": "SÃ©landia Anyar",
          "name:ka": "áƒáƒ®áƒáƒšáƒ˜ áƒ–áƒ”áƒšáƒáƒœáƒ“áƒ˜áƒ",
          "name:kk": "Ğ–Ğ°Ò£Ğ° Ğ—ĞµĞ»Ğ°Ğ½Ğ´Ğ¸Ñ",
          "name:kl": "New Zealand",
          "name:km": "á“á¼áœáŸ‚á›áŸáŸá¡á„áŸ‹",
          "name:kn": "à²¨à³à²¯à³‚ à²œà³€à²²à³à²¯à²¾à²‚à²¡à³",
          "name:ko": "ë‰´ì§ˆëœë“œ",
          "name:ku": "NÃ» Zelenda",
          "name:kv": "Ğ’Ñ‹Ğ»ÑŒ Ğ—ĞµĞ»Ğ°Ğ½Ğ´Ğ¸Ñ",
          "name:kw": "Mordir Nowydh",
          "name:ky": "Ğ–Ğ°Ò£Ñ‹ Ğ—ĞµĞ»Ğ°Ğ½Ğ´Ğ¸Ñ",
          "name:la": "Nova Zelandia",
          "name:lb": "NeisÃ©iland",
          "name:li": "Nui-Zieland",
          "name:lo": "àº›àº°à»€àº—àº”àº™àº¹à»àº§àº™ à»€àºŠàº¥àº±àº‡",
          "name:lt": "Naujoji Zelandija",
          "name:lv": "JaunzÄ“lande",
          "name:mg": "Zelandy Vaovao",
          "name:mi": "Aotearoa",
          "name:mk": "ĞĞ¾Ğ² Ğ—ĞµĞ»Ğ°Ğ½Ğ´",
          "name:ml": "à´¨àµà´¯àµ‚à´¸àµ€à´²àµ»à´¡àµ",
          "name:mn": "Ğ¨Ğ¸Ğ½Ñ Ğ—ĞµĞ»Ğ°Ğ½Ğ´",
          "name:mr": "à¤¨à¥à¤¯à¥‚ à¤à¥€à¤²à¤à¤¡",
          "name:ms": "New Zealand",
          "name:mt": "New Zealand",
          "name:my": "á€”á€šá€°á€¸á€‡á€®á€œá€”á€ºá€”á€­á€¯á€„á€ºá€„á€¶",
          "name:na": "Niu Djiran",
          "name:ne": "à¤¨à¥à¤¯à¥‚ à¤œà¥€à¤²à¥à¤¯à¤¾à¤£à¥à¤¡",
          "name:nl": "Nieuw-Zeeland",
          "name:nn": "New Zealand",
          "name:no": "New Zealand",
          "name:oc": "NÃ²va Zelanda",
          "name:or": "à¬¨à¬¿à¬‰à¬œà¬¿à¬²à­à­Ÿà¬¾à¬£à­à¬¡",
          "name:os": "ĞĞ¾Ğ³ Ğ—ĞµĞ»Ğ°Ğ½Ğ´Ğ¸",
          "name:pa": "à¨¨à¨¿à¨Šà¨œà¨¼à©€à¨²à©ˆà¨‚à¨¡",
          "name:pi": "à¤¨à¥à¤¯à¥‚-à¤œà¥€à¤²à¥ˆà¤‚à¤¡",
          "name:pl": "Nowa Zelandia",
          "name:ps": "Ù†ÛŒÙˆØ²ÛŒÙ„Ù†Ú‰",
          "name:pt": "Nova ZelÃ¢ndia",
          "name:qu": "Musuq Silanda",
          "name:rm": "Nova Zelanda",
          "name:rn": "Nouvelle-ZÃ©lande",
          "name:ro": "Noua ZeelandÄƒ",
          "name:ru": "ĞĞ¾Ğ²Ğ°Ñ Ğ—ĞµĞ»Ğ°Ğ½Ğ´Ğ¸Ñ",
          "name:rw": "Nuveli Zelande",
          "name:sa": "à¤¨à¥à¤¯à¥‚-à¤œà¥€à¤²à¥ˆà¤‚à¤¡",
          "name:sc": "Noa Zelanda",
          "name:sd": "Ù†ÙŠÙˆØ²ÙŠÙ„ÙŠÙ†ÚŠ",
          "name:se": "Aotearoa",
          "name:sh": "Novi Zeland",
          "name:si": "à¶±à·€ à·ƒà·“à¶½à¶±à·Šà¶­à¶º",
          "name:sk": "NovÃ½ ZÃ©land",
          "name:sl": "Nova Zelandija",
          "name:sm": "Niu Sila",
          "name:sn": "New Zealand",
          "name:so": "New Zealand",
          "name:sq": "Zelanda e Re",
          "name:sr": "ĞĞ¾Ğ²Ğ¸ Ğ—ĞµĞ»Ğ°Ğ½Ğ´",
          "name:su": "Selandia Anyar",
          "name:sv": "Nya Zeeland",
          "name:sw": "New Zealand",
          "name:ta": "à®¨à®¿à®¯à¯‚à®šà®¿à®²à®¾à®¨à¯à®¤à¯",
          "name:te": "à°¨à±à°¯à±‚à°œà±€à°²à°¾à°‚à°¡à±",
          "name:tg": "Ğ—ĞµĞ»Ğ°Ğ½Ğ´Ğ¸ÑĞ¸ ĞĞ°Ğ²",
          "name:th": "à¸›à¸£à¸°à¹€à¸—à¸¨à¸™à¸´à¸§à¸‹à¸µà¹à¸¥à¸™à¸”à¹Œ",
          "name:ti": "áŠ’á‹ á‹˜á‹­áˆ‹áŠ•á‹µ",
          "name:tk": "TÃ¤ze ZelandiÃ½a",
          "name:tl": "New Zealand",
          "name:tr": "Yeni Zelanda",
          "name:tt": "Ğ¯Ò£Ğ° Ğ—ĞµĞ»Ğ°Ğ½Ğ´Ğ¸Ñ",
          "name:ty": "Aotearoa",
          "name:ug": "ÙŠÛÚ­Ù‰ Ø²ÛÙ„Ø§Ù†Ø¯Ù‰ÙŠÛ•",
          "name:uk": "ĞĞ¾Ğ²Ğ° Ğ—ĞµĞ»Ğ°Ğ½Ğ´Ñ–Ñ",
          "name:ur": "Ù†ÛŒÙˆØ²ÛŒ Ù„ÛŒÙ†Úˆ",
          "name:uz": "Yangi Zelandiya",
          "name:vi": "New Zealand",
          "name:vo": "Nula-SeleÃ¤ns",
          "name:wa": "Nouve Zelande",
          "name:wo": "Seland-Gu-Bees",
          "name:yi": "× ×™×• ×–×™×œ×× ×“",
          "name:yo": "New Zealand",
          "name:za": "Saen Saelanz",
          "name:zh": "ç´è¥¿è˜­/æ–°è¥¿å…°",
          "name:zu": "INyuzilandi",
          "website": "https://www.govt.nz/",
          "boundary": "administrative",
          "name:ace": "Seulandia BarÃ´",
          "name:als": "Neuseeland",
          "name:ang": "NÄ«we SÇ£land",
          "name:arc": "Ü¢ÜÜ˜ Ü™ÜÜ Ü¢Ü•",
          "name:arz": "Ù†ÙŠÙˆØ²ÙŠÙ„Ø§Ù†Ø¯Ø§",
          "name:ast": "Nueva Zelanda",
          "name:ban": "Selandia Anyar",
          "name:bar": "Neiseeland",
          "name:bcl": "Nueva Zelanda",
          "name:bpy": "à¦¨à¦¿à¦‰à¦œà¦¿à¦²à§à¦¯à¦¾à¦¨à§à¦¡",
          "name:bxr": "Ğ¨ÑĞ½Ñ Ğ—ĞµĞ»Ğ°Ğ½Ğ´",
          "name:cdo": "SÄ­ng-sÄƒÌ¤-lÃ ng",
          "name:ceb": "New Zealand",
          "name:chr": "á¢á¤áá¢á´á‚á—",
          "name:chy": "New Zealand",
          "name:ckb": "Ù†ÛŒÙˆØ²ÛŒÙ„Ø§Ù†Ø¯",
          "name:crh": "YaÃ±Ä± Zelandiya",
          "name:csb": "NowÃ´ ZelandzkÃ´",
          "name:din": "New Zealand",
          "name:diq": "Zelandaya Newiye",
          "name:dsb": "Nowoseelandska",
          "name:ext": "Nueva Zelanda",
          "name:frp": "NovÃ¨la-ZÃ¨lande",
          "name:frr": "Nei-Sialun",
          "name:gag": "Eni Zelandiya",
          "name:gom": "à¤¨à¥à¤¯à¥‚à¤à¥€à¤²à¤‚à¤¡",
          "name:got": "ğŒ½ğŒ¹ğŒ¿ğŒ¾ğŒ¹ğƒ ğƒğŒ°ğŒ¹ğ…ğŒ°ğŒ»ğŒ°ğŒ½ğŒ³",
          "name:hak": "NÃ©u SÃ®-lÃ n",
          "name:haw": "NÅ«kilani",
          "name:hif": "New Zealand",
          "name:hsb": "Nowoseelandska",
          "name:ilo": "Baro a Selanda",
          "name:inh": "ĞšĞµÑ€Ğ´Ğ° Ğ—ĞµĞ»Ğ°Ğ½Ğ´Ğ¸",
          "name:jam": "Nyuu Ziilant",
          "name:jbo": "zis. poi cnino",
          "name:kaa": "Jan'a Zelandiya",
          "name:kab": "Ziland Tamaynut",
          "name:kbd": "Ğ—ĞµĞ»ÑĞ½Ğ´ Ğ©Ó€Ñ",
          "name:krc": "Ğ”Ğ¶Ğ°Ğ½Ğ³Ñ‹ Ğ—ĞµĞ»Ğ°Ğ½Ğ´Ğ¸Ñ",
          "name:lad": "Mueva Zelanda",
          "name:lez": "Ğ¦Ó€Ğ¸Ğ¹Ğ¸ Ğ—ĞµĞ»Ğ°Ğ½Ğ´Ğ¸Ñ",
          "name:lfn": "Zeland Nova",
          "name:lij": "Neuva Selanda",
          "name:lmo": "NÃ¶va Zelanda",
          "name:lzh": "ç´è¥¿è˜­",
          "name:mai": "à¤¨à¥à¤¯à¥à¤œà¤¿à¤²à¥à¤¯à¤¾à¤¨à¥à¤¡",
          "name:mrj": "Ğ£ Ğ—ĞµĞ»Ğ°Ğ½Ğ´Ğ¸",
          "name:myv": "ĞĞ´ Ğ—ĞµĞ»Ğ°Ğ½Ğ´Ğ¸Ñ",
          "name:mzn": "Ù†ÛŒÙˆØ²Ù„Ù†Ø¯",
          "name:nah": "YancuÄ«c ZetlÄlpan",
          "name:nan": "Sin JiaÌt-lÃ¢n-jia",
          "name:nap": "NÃ²va Zelanna",
          "name:nds": "Niegseeland",
          "name:new": "à¤¨à¥à¤¯à¥ à¤œà¤¿à¤²à¥à¤¯à¤¾à¤¨à¥à¤¦",
          "name:nov": "Novi Selande",
          "name:nrm": "Nouvelle ZÃ©lande",
          "name:nso": "New Zealand",
          "name:pam": "New Zealand",
          "name:pap": "Nueva Zelandia",
          "name:pcd": "NovÃ¨le-Zilinde",
          "name:pih": "Nyuu Ziilan",
          "name:pms": "Neuva Zelanda",
          "name:pnb": "Ù†ÛŒÙˆØ²ÛŒ Ù„ÛŒÙ†Úˆ",
          "name:pnt": "ÎÎ­Î± Î–Î·Î»Î±Î½Î´Î¯Î±",
          "name:rue": "ĞĞ¾Ğ²Ñ‹Ğ¹ Ğ—ĞµĞ»Ğ°Ğ½Ğ´",
          "name:sah": "Ğ¡Ğ°Ò¥Ğ° Ğ—ĞµĞ»Ğ°Ğ½Ğ´Ğ¸Ñ",
          "name:sat": "á±±á±¤á±­á±©á±¡á±¤á±á±®á±±á±°",
          "name:scn": "Nova Zilanna",
          "name:sco": "New Zealand",
          "name:shn": "á€™á€­á€°á€„á€ºá€¸á¼á€­á€á€ºá€¸á¸á€®á‚‡á€œá‚…á¼á€ºá‚‡",
          "name:smn": "Aotearoa",
          "name:sms": "Aotearoa",
          "name:stq": "NÃ¤i-Seelound",
          "name:szl": "NowÅ ZelandyjÅ",
          "name:tcy": "à²¨à³à²¯à³‚ à²à²¿à²²à³†à²‚à²¡à³",
          "name:tok": "ma Nusilan",
          "name:tpi": "Niu Silan",
          "name:trv": "New Zealand",
          "name:tum": "New Zealand",
          "name:tzl": "Noveu ZaiphÃ¤ts",
          "name:udm": "Ğ’Ñ‹Ğ»ÑŒ Ğ—ĞµĞ»Ğ°Ğ½Ğ´Ğ¸Ñ",
          "name:vec": "Nova ZeÅ‚anda",
          "name:vep": "Uz' Zelandii",
          "name:vls": "Nieuw-ZÃªeland",
          "name:vro": "VahtsÃµnÃµ Meremaa",
          "name:war": "New Zealand",
          "name:wuu": "æ–°è¥¿å…°",
          "name:xal": "Ğ¨Ğ¸Ğ½Ğ·ĞµĞ»ĞµĞ½Ğ´Ğ¸Ğ½ ĞÑ€Ğ½",
          "name:xmf": "áƒáƒ®áƒáƒšáƒ˜ áƒ–áƒ”áƒšáƒáƒœáƒ“áƒ˜áƒ",
          "name:yue": "ç´è¥¿è˜­",
          "name:zea": "Nieuw-ZeÃªland",
          "way_area": "48.7509",
          "wikidata": "Q664",
          "ISO3166-1": "NZ",
          "wikipedia": "en:New Zealand",
          "population": "5158113",
          "admin_level": "2",
          "alt_name:ko": "ì•„ì˜¤í…Œì•„ë¡œì•„",
          "name:nan-HJ": "æ–°ç†±è˜­é®",
          "name:nan-TL": "Sin JiaÌt-lÃ¢n-jia",
          "name:nds-nl": "Ni'j-Zeelaand",
          "name:simple": "New Zealand",
          "driving_side": "left",
          "name:bat-smg": "NaujuojÄ— ZelandÄ—jÄ—",
          "name:nan-POJ": "Sin JiaÌt-lÃ¢n-jia",
          "name:roa-rup": "Naua Zeelanda",
          "name:zh-Hans": "æ–°è¥¿å…°",
          "name:zh-Hant": "ç´è¥¿è˜­",
          "name:roa-tara": "NuÃ¨ve Zelanne",
          "name:be-tarask": "ĞĞ¾Ğ²Ğ°Ñ Ğ—ÑĞ»ÑĞ½Ğ´Ñ‹Ñ",
          "website:tourism": "http://www.newzealand.com",
          "ISO3166-1:alpha2": "NZ",
          "ISO3166-1:alpha3": "NZL",
          "ISO3166-1:numeric": "554"
        }
      },
      "geometry": {
        "type": "Polygon",
        "coordinates": [
          [
            [
              172,
              -42
            ],
            [
              173,
              -42
            ],
            [
              173,
              -41
            ],
            [
              172,
              -41
            ],
            [
              172,
              -42
            ]
          ]
        ]
      }
    }
  ]
}