{
  "type": "FeatureCollection",
  "features": [
    {
      "type": "Feature",
      "properties": {
        "osm_id": -571771,
        "boundary": "administrative",
        "admin_level": 2,
        "parents": null,
        "name": "Marshall Islands",
        "local_name": "Ṃajeḷ",
        "name_en": "Marshall Islands",
        "all_tags": {
          "flag": "http://upload.wikimedia.org/wikipedia/commons/2/2e/Flag_of_the_Marshall_Islands.svg",
          "name": "Ṃajeḷ",
          "name:ar": "جزر مارشال",
          "name:az": "Marşall adaları",
          "name:bg": "Маршалови острови",
          "name:cs": "Marshallovy ostrovy",
          "name:da": "Marshalløerne",
          "name:de": "Marshallinseln",
          "name:el": "Νήσοι Μάρσαλ",
          "name:en": "Marshall Islands",
          "name:eo": "Marŝaloj",
          "name:es": "Islas Marshall",
          "name:et": "Marshalli Saared",
          "name:fi": "Marshallinsaaret",
          "name:fr": "Îles Marshall",
          "name:gn": "Ypa'ũnguéra Marshall",
          "name:he": "איי מרשל",
          "name:hr": "Maršalovi Otoci",
          "name:hu": "Marshall-szigetek",
          "name:ia": "Insulas Marshall",
          "name:io": "Insuli Marshall",
          "name:is": "Marshalleyjar",
          "name:it": "Isole Marshall",
          "name:ja": "マーシャル諸島",
          "name:mh": "Ṃajeḷ",
          "name:mk": "Маршалски Острови",
          "name:mt": "Gżejjer Marshall",
          "name:nl": "Marshalleilanden",
          "name:no": "Marshalløyene",
          "name:oc": "Illas Marshall",
          "name:pl": "Wyspy Marshalla",
          "name:pt": "Ilhas Marshall",
          "name:ro": "Insulele Marshall",
          "name:ru": "Маршалловы Острова",
          "name:se": "Marshallsullot",
          "name:sk": "Marshallove ostrovy",
          "name:sl": "Marshallovi otoki",
          "name:sv": "Marshallöarna",
          "name:ta": "மார்சல் தீவுகள்",
          "name:tr": "Marshall Adaları",
          "name:uk": "Маршаллові Острови",
          "name:uz": "Marshall orollari",
          "name:vi": "Quần đảo Marshall",
          "name:vo": "Marjaluäns",
          "name:zh": "马绍尔群岛 / 馬紹爾群島",
          "boundary": "administrative",
          "name:jbo": "marcal.dapl",
          "name:smn": "Marshallsuolluuh",
          "name:sms": "Marshall-suõllu",
          "name:szl": "Wyspy ôd Marshalla",
          "way_area": "18.6462",
          "wikidata": "Q709",
          "ISO3166-1": "MH",
          "wikipedia": "en:Marshall Islands",
          "admin_level": "2",
          "alt_name:eo": "Marŝala Insularo",
          "driving_side": "right",
          "name:zh-Hans": "马绍尔群岛",
          "name:zh-Hant": "馬紹爾群島",
          "ISO3166-1:alpha2": "MH",
          "ISO3166-1:alpha3": "MHL",
          "official_name:en": "Republic of the Marshall Islands",
          "official_name:es": "República de las Islas Marshall",
          "official_name:gn": "Tavakuairetã Ypa'ũnguéra Marshall",
          "official_name:pt": "República das Ilhas Marshall",
          "official_name:ru": "Республика Маршалловы Острова",
          "ISO3166-1:numeric": "584"
        }
      },
      "geometry": {
        "type": "Polygon",
        "coordinates": [
          [
            [
              165,
              11.543125114003127
            ],
            [
              165.003064,
              11.534544
            ],
            [
              165.007519,
              11.524015
            ],
            [
              165.016128,
              11.505698
            ],
            [
              165.022412,
              11.493408
            ],
            [
              165.026136,
              11.48673
            ],
            [
              165.032196,
              11.476987
            ],
            [
              165.038807,
              11.467599
            ],
            [
              165.2765207265778,
              11
            ],
            [
              166,
              11
            ],
            [
              166,
              11.831757167305003
            ],
            [
              165.442381,
              11.914368
            ],
            [
              165.431228,
              11.915697
            ],
            [
              165.420017,
              11.91642
            ],
            [
              165.408783,
              11.916533
            ],
            [
              165.276942,
              11.914309
            ],
            [
              165.269265,
              11.913854
            ],
            [
              165.261612,
              11.913114
            ],
            [
              165.250867,
              11.911653
            ],
            [
              165.244639,
              11.910636
            ],
            [
              165.231783,
              11.908055
            ],
            [
              165.225171,
              11.906463
            ],
            [
              165.218616,
              11.904655
            ],
            [
              165.205674,
              11.900598
            ],
            [
              165.198753,
              11.8981
            ],
            [
              165.191928,
              11.895357
            ],
            [
              165.178699,
              11.889369
            ],
            [
              165.169147,
              11.884442
            ],
            [
              165.162932,
              11.880884
            ],
            [
              165.156848,
              11.877113
            ],
            [
              165.150752,
              11.873154
            ],
            [
              165.144803,
              11.868984
            ],
            [
              165.13901,
              11.864606
            ],
            [
              165.133381,
              11.860026
            ],
            [
              165.127921,
              11.855251
            ],
            [
              165.122639,
              11.850287
            ],
            [
              165.11754,
              11.845139
            ],
            [
              165.112632,
              11.839815
            ],
            [
              165.100772,
              11.827907
            ],
            [
              165.090977,
              11.817654
            ],
            [
              165.083231,
              11.808961
            ],
            [
              165.075575,
              11.801505
            ],
            [
              165.070698,
              11.796318
            ],
            [
              165.063738,
              11.788228
            ],
            [
              165.05722,
              11.779788
            ],
            [
              165.053131,
              11.773977
            ],
            [
              165.04641,
              11.766125
            ],
            [
              165.041873,
              11.760409
            ],
            [
              165.035468,
              11.75154
            ],
            [
              165.029561,
              11.742343
            ],
            [
              165.025907,
              11.736042
            ],
            [
              165.022487,
              11.729615
            ],
            [
              165.017689,
              11.719734
            ],
            [
              165.014646,
              11.712976
            ],
            [
              165.007408,
              11.695343
            ],
            [
              165.003737,
              11.685997
            ],
            [
              165.001391,
              11.67932
            ],
            [
              165,
              11.674862597248582
            ],
            [
              165,
              11.543125114003127
            ]
          ]
        ]
      }
    }
  ]
}