{
  "type": "FeatureCollection",
  "features": [
    {
      "type": "Feature",
      "properties": {
        "osm_id": -223026,
        "boundary": "administrative",
        "admin_level": 2,
        "parents": null,
        "name": "Turkmenistan",
        "local_name": "Türkmenistan",
        "name_en": "Turkmenistan",
        "all_tags": {
          "flag": "http://upload.wikimedia.org/wikipedia/commons/1/1b/Flag_of_Turkmenistan.svg",
          "name": "Türkmenistan",
          "name:af": "Turkmenistan",
          "name:am": "ቱርክመኒስታን",
          "name:an": "Turkmenistán",
          "name:ar": "تركمانستان",
          "name:av": "Туркменистан",
          "name:az": "Türkmənistan",
          "name:ba": "Төрөкмәнстан",
          "name:be": "Туркменістан",
          "name:bg": "Туркменистан",
          "name:bn": "তুর্কমেনিস্তান",
          "name:bo": "ཏུརཀ་མེ་ནི་སུཏན།",
          "name:br": "Turkmenistan",
          "name:bs": "Turkmenistan",
          "name:ca": "Turkmenistan",
          "name:co": "Turkmenistan",
          "name:cs": "Turkmenistán",
          "name:cv": "Туркменистан",
          "name:cy": "Turkmenistan",
          "name:da": "Turkmenistan",
          "name:de": "Turkmenistan",
          "name:dv": "ތުރުކުމެނިސްތާން",
          "name:ee": "Turkmenistan",
          "name:el": "Τουρκμενιστάν",
          "name:en": "Turkmenistan",
          "name:eo": "Turkmenio",
          "name:es": "Turkmenistán",
          "name:et": "Türkmenistan",
          "name:eu": "Turkmenistan",
          "name:fa": "ترکمنستان",
          "name:fi": "Turkmenistan",
          "name:fo": "Turkmenistan",
          "name:fr": "Turkménistan",
          "name:fy": "Turkmenistan",
          "name:ga": "An Tuircméanastáin",
          "name:gd": "Turcmanastàn",
          "name:gl": "Turcomenistán",
          "name:gn": "Tuykomenitã",
          "name:gu": "તુર્કમેનિસ્તાન",
          "name:gv": "Yn Turkmenistaan",
          "name:he": "טורקמניסטן",
          "name:hi": "तुर्कमेनिस्तान",
          "name:hr": "Turkmenistan",
          "name:ht": "Tirkmenistan",
          "name:hu": "Türkmenisztán",
          "name:hy": "Թուրքմենստան",
          "name:ia": "Turkmenistan",
          "name:id": "Turkmenistan",
          "name:ie": "Turkmenistan",
          "name:io": "Turkmenistan",
          "name:is": "Túrkmenistan",
          "name:it": "Turkmenistan",
          "name:ja": "トルクメニスタン",
          "name:jv": "Turkmenistan",
          "name:ka": "თურქმენეთი",
          "name:kk": "Түрікменстан",
          "name:km": "តួរមិនីស្ថាន",
          "name:kn": "ತುರ್ಕಮೆನಿಸ್ತಾನ್",
          "name:ko": "투르크메니스탄",
          "name:ku": "Tirkmenistan",
          "name:kv": "Туркменистан",
          "name:kw": "Pow Turkmen",
          "name:ky": "Түркмөнстан",
          "name:la": "Turcomannia",
          "name:li": "Turkmenistan",
          "name:ln": "Turkmenistáni",
          "name:lt": "Turkmėnija",
          "name:lv": "Turkmenistāna",
          "name:mk": "Туркменистан",
          "name:ml": "തുർക്‌മെനിസ്ഥാൻ",
          "name:mn": "Туркменистан",
          "name:mr": "तुर्कमेनिस्तान",
          "name:ms": "Turkmenistan",
          "name:my": "တာ့ခ်မင်နစ္စတန်နိုင်ငံ",
          "name:na": "Turkmenistan",
          "name:ne": "तुर्कमेनिस्तान",
          "name:nl": "Turkmenistan",
          "name:nn": "Turkmenistan",
          "name:no": "Turkmenistan",
          "name:nv": "Tʼóokmen Bikéyah",
          "name:oc": "Turcmenistan",
          "name:or": "ତୁର୍କମେନିସ୍ଥାନ",
          "name:os": "Туркмени",
          "name:pa": "ਤੁਰਕਮੇਨਸਤਾਨ",
          "name:pl": "Turkmenistan",
          "name:ps": "ترکمنستان",
          "name:pt": "Turquemenistão",
          "name:qu": "Turkminsuyu",
          "name:ro": "Turkmenistan",
          "name:ru": "Туркменистан",
          "name:rw": "Turukimenisitani",
          "name:sa": "तुर्कमिनिस्थान",
          "name:se": "Turkmenistan",
          "name:sh": "Turkmenistan",
          "name:sk": "Turkménsko",
          "name:sl": "Turkmenistan",
          "name:so": "Turkmenistan",
          "name:sq": "Turkmenistani",
          "name:sr": "Туркменистан",
          "name:ss": "IThumekhi",
          "name:su": "Turkménistan",
          "name:sv": "Turkmenistan",
          "name:sw": "Turkmenistan",
          "name:ta": "துருக்மெனிஸ்தான்",
          "name:te": "తుర్కమేనిస్తాన్",
          "name:tg": "Туркманистон",
          "name:th": "ประเทศเติร์กเมนิสถาน",
          "name:tk": "Türkmenistan",
          "name:tl": "Turkmenistan",
          "name:tr": "Türkmenistan",
          "name:tt": "Төрекмәнстан",
          "name:ug": "تۈركمەنىستان",
          "name:uk": "Туркменістан",
          "name:ur": "ترکمانستان",
          "name:uz": "Turkmaniston",
          "name:vi": "Turkmenistan",
          "name:vo": "Turkmenän",
          "name:wo": "Turkumenistaan",
          "name:yi": "טורקמעניסטאן",
          "name:yo": "Turkmẹ́nìstán",
          "name:zh": "土库曼斯坦 / 土庫曼",
          "boundary": "administrative",
          "int_name": "Türkmenistan",
          "name:ace": "Turkmènistan",
          "name:als": "Turkmenistan",
          "name:ang": "Turcmenistan",
          "name:arc": "ܛܘܪܩܡܢܣܛܐܢ",
          "name:arz": "توركمينيستان",
          "name:ast": "Turkmenistán",
          "name:bar": "Tuakmenien",
          "name:bcl": "Turkmenistan",
          "name:bpy": "তুর্কমেনিস্তান",
          "name:bug": "Turkmenistan",
          "name:bxr": "Туркменистан",
          "name:ceb": "Turkmenistan",
          "name:ckb": "تورکمانستان",
          "name:crh": "Türkmenistan",
          "name:csb": "Turkmenistan",
          "name:diq": "Tırkmenıstan",
          "name:dsb": "Turkmeńska",
          "name:ext": "Turkmenistán",
          "name:frp": "Turcmènistan",
          "name:gag": "Türkmenistan",
          "name:hak": "Thú-khû-man-sṳ̂-thán",
          "name:hif": "Turkmenistan",
          "name:hsb": "Turkmenistan",
          "name:ilo": "Turkmenistan",
          "name:jbo": "turkmenistan",
          "name:kbd": "Туркменстэн",
          "name:lad": "Turkmenistan",
          "name:lez": "Туьркменистан",
          "name:lij": "Turkmenistan",
          "name:lmo": "Turkmenistan",
          "name:mhr": "Туркменистан",
          "name:min": "Turkmenistan",
          "name:mzn": "ترکمنون",
          "name:nah": "Turcmenistan",
          "name:nan": "Turkmenistan",
          "name:nds": "Turkmenistan",
          "name:nov": "Turkmenistan",
          "name:pam": "Turkmenistan",
          "name:pih": "Terkmenistaan",
          "name:pms": "Turkmenistan",
          "name:pnb": "ترکمانستان",
          "name:rue": "Туркменістан",
          "name:sah": "Түркменистаан",
          "name:scn": "Turkmenistan",
          "name:sco": "Turkmenistan",
          "name:smn": "Turkmenistan",
          "name:sms": "Turkmenistaan",
          "name:szl": "Turkmynistōn",
          "name:tzl": "Türkmenistan",
          "name:udm": "Туркмения",
          "name:vep": "Turkmenistan",
          "name:vro": "Türkmenistan",
          "name:war": "Turkmenistan",
          "name:wuu": "土库曼斯坦",
          "name:xal": "Йомудин Орн",
          "name:yue": "土庫曼",
          "name:zea": "Toerkmenistan",
          "timezone": "Asia/Ashgabat",
          "way_area": "52.837",
          "wikidata": "Q874",
          "ISO3166-1": "TM",
          "wikipedia": "en:Turkmenistan",
          "admin_level": "2",
          "alt_name:eo": "Turkmenujo;Turkmenistano",
          "name:bat-smg": "Torkmienėstans",
          "name:roa-rup": "Turcmenistan",
          "name:zh-Hans": "土库曼斯坦",
          "name:zh-Hant": "土庫曼",
          "name:be-tarask": "Туркмэністан",
          "ISO3166-1:alpha2": "TM",
          "ISO3166-1:alpha3": "TKM",
          "default_language": "tk",
          "official_name:es": "República de Turkmenistán",
          "official_name:gn": "Tavakuairetã Tuykomenitã",
          "official_name:pt": "República do Turquemenistão",
          "ISO3166-1:numeric": "795"
        }
      },
      "geometry": {
        "type": "MultiPolygon",
        "coordinates": [
          [
            [
              [
                57.18544385091168,
                42
              ],
              [
                58,
                42
              ],
              [
                58,
                42.485015743417385
              ],
              [
                57.9989331,
                42.4825157
              ],
              [
                57.9949554,
                42.4824593
              ],
              [
                57.9932725,
                42.4829483
              ],
              [
                57.992023,
                42.484227
              ],
              [
                57.9906206,
                42.4853364
              ],
              [
                57.9893202,
                42.4856373
              ],
              [
                57.9882492,
                42.4853364
              ],
              [
                57.9863368,
                42.4832303
              ],
              [
                57.9855719,
                42.4830235
              ],
              [
                57.9847304,
                42.483362
              ],
              [
                57.983736,
                42.4859193
              ],
              [
                57.98292,
                42.486051
              ],
              [
                57.9805996,
                42.4855621
              ],
              [
                57.9789932,
                42.4847535
              ],
              [
                57.9785852,
                42.4837945
              ],
              [
                57.9790187,
                42.482685
              ],
              [
                57.9789677,
                42.4789991
              ],
              [
                57.9796307,
                42.4782657
              ],
              [
                57.9807271,
                42.4781153
              ],
              [
                57.9835065,
                42.4788111
              ],
              [
                57.9844244,
                42.4786794
              ],
              [
                57.9848069,
                42.4784162
              ],
              [
                57.9851129,
                42.4776263
              ],
              [
                57.9847559,
                42.4770621
              ],
              [
                57.983022,
                42.4762346
              ],
              [
                57.982767,
                42.475614
              ],
              [
                57.982716,
                42.4745232
              ],
              [
                57.9829965,
                42.4734888
              ],
              [
                57.9836595,
                42.4686551
              ],
              [
                57.983685,
                42.4658336
              ],
              [
                57.9832515,
                42.4647803
              ],
              [
                57.982563,
                42.463915
              ],
              [
                57.9771063,
                42.4626359
              ],
              [
                57.9764179,
                42.4623349
              ],
              [
                57.9763159,
                42.4616389
              ],
              [
                57.9775653,
                42.4584974
              ],
              [
                57.9778968,
                42.4571617
              ],
              [
                57.9771318,
                42.4503512
              ],
              [
                57.9760354,
                42.4481123
              ],
              [
                57.9726951,
                42.4426556
              ],
              [
                57.9714201,
                42.4390804
              ],
              [
                57.9712161,
                42.4363329
              ],
              [
                57.9700687,
                42.4323997
              ],
              [
                57.9686663,
                42.4289743
              ],
              [
                57.9677228,
                42.4278263
              ],
              [
                57.9632351,
                42.4300283
              ],
              [
                57.9618326,
                42.4300283
              ],
              [
                57.9593593,
                42.4291814
              ],
              [
                57.9582373,
                42.4294637
              ],
              [
                57.9556875,
                42.4316469
              ],
              [
                57.954744,
                42.4335665
              ],
              [
                57.9521432,
                42.4346015
              ],
              [
                57.9509192,
                42.4359753
              ],
              [
                57.9505877,
                42.4371797
              ],
              [
                57.9505112,
                42.4387793
              ],
              [
                57.9497463,
                42.4401718
              ],
              [
                57.9440601,
                42.4444808
              ],
              [
                57.9426322,
                42.4445749
              ],
              [
                57.9408218,
                42.4440669
              ],
              [
                57.9281489,
                42.4392309
              ],
              [
                57.9281999,
                42.4384405
              ],
              [
                57.9287099,
                42.4368598
              ],
              [
                57.9281489,
                42.4357495
              ],
              [
                57.9227942,
                42.4349215
              ],
              [
                57.9197599,
                42.4339993
              ],
              [
                57.9157821,
                42.4319856
              ],
              [
                57.9133597,
                42.4314775
              ],
              [
                57.9128498,
                42.4306494
              ],
              [
                57.9124418,
                42.4290308
              ],
              [
                57.9112179,
                42.4277133
              ],
              [
                57.9099174,
                42.4267158
              ],
              [
                57.9072911,
                42.4254736
              ],
              [
                57.9065261,
                42.4239678
              ],
              [
                57.9070361,
                42.4233278
              ],
              [
                57.9077755,
                42.4228572
              ],
              [
                57.9112689,
                42.4227255
              ],
              [
                57.9126203,
                42.4222926
              ],
              [
                57.9136402,
                42.4206738
              ],
              [
                57.9144307,
                42.4197891
              ],
              [
                57.9159351,
                42.4192808
              ],
              [
                57.9180515,
                42.4195255
              ],
              [
                57.9211878,
                42.4190173
              ],
              [
                57.9226157,
                42.4182079
              ],
              [
                57.9237377,
                42.4171537
              ],
              [
                57.9244006,
                42.4156854
              ],
              [
                57.9246556,
                42.414217
              ],
              [
                57.9254461,
                42.4122027
              ],
              [
                57.9261346,
                42.4116567
              ],
              [
                57.9271545,
                42.4116567
              ],
              [
                57.9290414,
                42.412278
              ],
              [
                57.9298319,
                42.412278
              ],
              [
                57.9306733,
                42.4118826
              ],
              [
                57.9326622,
                42.4094352
              ],
              [
                57.9344471,
                42.4089645
              ],
              [
                57.9399548,
                42.4087198
              ],
              [
                57.9411787,
                42.4082303
              ],
              [
                57.9416377,
                42.407609
              ],
              [
                57.9411023,
                42.4072324
              ],
              [
                57.9374559,
                42.4076278
              ],
              [
                57.9318717,
                42.4078537
              ],
              [
                57.9282764,
                42.4074772
              ],
              [
                57.9248596,
                42.4064228
              ],
              [
                57.9244771,
                42.4057639
              ],
              [
                57.9246046,
                42.4050672
              ],
              [
                57.9260581,
                42.4045777
              ],
              [
                57.9300613,
                42.4050861
              ],
              [
                57.9333762,
                42.4037493
              ],
              [
                57.9353396,
                42.4035233
              ],
              [
                57.9381189,
                42.403448
              ],
              [
                57.9402098,
                42.4026384
              ],
              [
                57.9410258,
                42.40213
              ],
              [
                57.9412552,
                42.4008119
              ],
              [
                57.9401588,
                42.3994374
              ],
              [
                57.9401078,
                42.3982888
              ],
              [
                57.9414592,
                42.3968388
              ],
              [
                57.9438306,
                42.3958785
              ],
              [
                57.9469159,
                42.3939765
              ],
              [
                57.9478849,
                42.3921875
              ],
              [
                57.9492873,
                42.3908693
              ],
              [
                57.9507917,
                42.3879313
              ],
              [
                57.9527551,
                42.3861045
              ],
              [
                57.9577019,
                42.3833547
              ],
              [
                57.9602772,
                42.3809627
              ],
              [
                57.9594358,
                42.3761406
              ],
              [
                57.9587473,
                42.3756509
              ],
              [
                57.9511232,
                42.3774027
              ],
              [
                57.9500268,
                42.3770825
              ],
              [
                57.9500523,
                42.3763478
              ],
              [
                57.9508427,
                42.3754813
              ],
              [
                57.9526531,
                42.3748974
              ],
              [
                57.9536731,
                42.3742004
              ],
              [
                57.9536986,
                42.3738237
              ],
              [
                57.9532906,
                42.37356
              ],
              [
                57.9514037,
                42.3733339
              ],
              [
                57.9509192,
                42.3727876
              ],
              [
                57.9511997,
                42.3719964
              ],
              [
                57.9519902,
                42.3710733
              ],
              [
                57.9536986,
                42.3705459
              ],
              [
                57.955305,
                42.3706212
              ],
              [
                57.9571409,
                42.3712241
              ],
              [
                57.9578039,
                42.3710733
              ],
              [
                57.9601242,
                42.3675693
              ],
              [
                57.9618326,
                42.3646492
              ],
              [
                57.9621131,
                42.3627086
              ],
              [
                57.9619856,
                42.3588461
              ],
              [
                57.9621131,
                42.3535325
              ],
              [
                57.9609912,
                42.3475776
              ],
              [
                57.9586963,
                42.3430546
              ],
              [
                57.9569624,
                42.3419238
              ],
              [
                57.9532906,
                42.3399636
              ],
              [
                57.9448251,
                42.3341583
              ],
              [
                57.9437031,
                42.3336117
              ],
              [
                57.9356073,
                42.3151647
              ],
              [
                57.9341411,
                42.3127135
              ],
              [
                57.9319865,
                42.3096305
              ],
              [
                57.931298,
                42.3082068
              ],
              [
                57.9291817,
                42.3046804
              ],
              [
                57.9286207,
                42.302672
              ],
              [
                57.9288119,
                42.2979006
              ],
              [
                57.9310558,
                42.2937512
              ],
              [
                57.9353905,
                42.287753
              ],
              [
                57.9366655,
                42.2840934
              ],
              [
                57.9370224,
                42.2822447
              ],
              [
                57.9376854,
                42.275868
              ],
              [
                57.9383994,
                42.2730757
              ],
              [
                57.944417,
                42.264094
              ],
              [
                57.9436011,
                42.2617541
              ],
              [
                57.9431422,
                42.2503832
              ],
              [
                57.9426194,
                42.2460608
              ],
              [
                57.9423389,
                42.2400203
              ],
              [
                57.9439964,
                42.2367166
              ],
              [
                57.9458578,
                42.2342435
              ],
              [
                57.9486371,
                42.2289477
              ],
              [
                57.9482036,
                42.2283529
              ],
              [
                57.9474387,
                42.2280791
              ],
              [
                57.9457685,
                42.2282113
              ],
              [
                57.9423644,
                42.2290893
              ],
              [
                57.9346511,
                42.2317325
              ],
              [
                57.9326367,
                42.2321762
              ],
              [
                57.9251656,
                42.2331957
              ],
              [
                57.9216468,
                42.2334034
              ],
              [
                57.9169423,
                42.233073
              ],
              [
                57.9096242,
                42.232044
              ],
              [
                57.9069851,
                42.2314116
              ],
              [
                57.9053532,
                42.2312416
              ],
              [
                57.9014136,
                42.2320252
              ],
              [
                57.9002662,
                42.2320252
              ],
              [
                57.8990805,
                42.231808
              ],
              [
                57.8982901,
                42.2314776
              ],
              [
                57.8970406,
                42.2302599
              ],
              [
                57.8968749,
                42.2292309
              ],
              [
                57.8978566,
                42.2260588
              ],
              [
                57.8969004,
                42.2247182
              ],
              [
                57.8955745,
                42.2239063
              ],
              [
                57.8955617,
                42.2229055
              ],
              [
                57.8971426,
                42.219922
              ],
              [
                57.8997052,
                42.2180997
              ],
              [
                57.9042822,
                42.2162207
              ],
              [
                57.8999474,
                42.215352
              ],
              [
                57.889799,
                42.212557
              ],
              [
                57.8835263,
                42.2118015
              ],
              [
                57.8782226,
                42.2127836
              ],
              [
                57.8757237,
                42.2150121
              ],
              [
                57.8726639,
                42.2164473
              ],
              [
                57.86991,
                42.2188267
              ],
              [
                57.8679212,
                42.2225279
              ],
              [
                57.8655753,
                42.2258511
              ],
              [
                57.8635354,
                42.2267197
              ],
              [
                57.8600676,
                42.2273239
              ],
              [
                57.8564468,
                42.2276638
              ],
              [
                57.8548149,
                42.2288722
              ],
              [
                57.8547639,
                42.2321196
              ],
              [
                57.8538969,
                42.2327993
              ],
              [
                57.8498171,
                42.2314021
              ],
              [
                57.8477772,
                42.2317797
              ],
              [
                57.8457883,
                42.2335922
              ],
              [
                57.8442074,
                42.2363108
              ],
              [
                57.8425755,
                42.237519
              ],
              [
                57.8407906,
                42.2381986
              ],
              [
                57.8401786,
                42.2375945
              ],
              [
                57.8401786,
                42.2358199
              ],
              [
                57.8421675,
                42.2327615
              ],
              [
                57.8439014,
                42.2312133
              ],
              [
                57.8448194,
                42.2292498
              ],
              [
                57.8446664,
                42.2281547
              ],
              [
                57.8431365,
                42.2272484
              ],
              [
                57.8381897,
                42.228268
              ],
              [
                57.8373738,
                42.2279281
              ],
              [
                57.8378328,
                42.2267197
              ],
              [
                57.8482872,
                42.2206773
              ],
              [
                57.8493072,
                42.2192044
              ],
              [
                57.8493072,
                42.216334
              ],
              [
                57.8489502,
                42.2147099
              ],
              [
                57.8457373,
                42.2137657
              ],
              [
                57.8365068,
                42.2154275
              ],
              [
                57.8353849,
                42.2153898
              ],
              [
                57.8349769,
                42.2142944
              ],
              [
                57.8364558,
                42.213048
              ],
              [
                57.8431875,
                42.2082887
              ],
              [
                57.8472673,
                42.2071932
              ],
              [
                57.8502251,
                42.2056444
              ],
              [
                57.8544069,
                42.1999778
              ],
              [
                57.8588436,
                42.1915903
              ],
              [
                57.8597616,
                42.1853556
              ],
              [
                57.8607815,
                42.180443
              ],
              [
                57.8626684,
                42.175719
              ],
              [
                57.8624134,
                42.174434
              ],
              [
                57.8608325,
                42.173338
              ],
              [
                57.8602716,
                42.1722041
              ],
              [
                57.8593536,
                42.1717506
              ],
              [
                57.8567528,
                42.1716372
              ],
              [
                57.8535909,
                42.1731868
              ],
              [
                57.852571,
                42.1761726
              ],
              [
                57.8539989,
                42.1790826
              ],
              [
                57.8540499,
                42.1807076
              ],
              [
                57.851704,
                42.1825593
              ],
              [
                57.850888,
                42.1840331
              ],
              [
                57.8492561,
                42.1855446
              ],
              [
                57.8444624,
                42.1844866
              ],
              [
                57.8430344,
                42.1833529
              ],
              [
                57.8441564,
                42.179196
              ],
              [
                57.8436464,
                42.17519
              ],
              [
                57.8410965,
                42.1719396
              ],
              [
                57.832631,
                42.1708813
              ],
              [
                57.8160059,
                42.1708813
              ],
              [
                57.8018286,
                42.1693694
              ],
              [
                57.7922412,
                42.1708057
              ],
              [
                57.7809347,
                42.1714051
              ],
              [
                57.769471,
                42.1711836
              ],
              [
                57.750959,
                42.1695017
              ],
              [
                57.7447118,
                42.1687457
              ],
              [
                57.7384315,
                42.1676926
              ],
              [
                57.7292757,
                42.1647771
              ],
              [
                57.7035581,
                42.1573635
              ],
              [
                57.6939517,
                42.1542901
              ],
              [
                57.6803514,
                42.149476
              ],
              [
                57.6735706,
                42.1461387
              ],
              [
                57.6600818,
                42.1401642
              ],
              [
                57.6547393,
                42.1386405
              ],
              [
                57.6522907,
                42.1383691
              ],
              [
                57.6496274,
                42.1395214
              ],
              [
                57.6393259,
                42.1419037
              ],
              [
                57.6178306,
                42.1456282
              ],
              [
                57.597817,
                42.1484139
              ],
              [
                57.5507181,
                42.1525096
              ],
              [
                57.5045524,
                42.1544503
              ],
              [
                57.4869715,
                42.1553829
              ],
              [
                57.4674526,
                42.1560367
              ],
              [
                57.4538301,
                42.155986
              ],
              [
                57.4334931,
                42.1563149
              ],
              [
                57.3841921,
                42.1538222
              ],
              [
                57.3588211,
                42.1499571
              ],
              [
                57.3204324,
                42.1447819
              ],
              [
                57.2936215,
                42.1379877
              ],
              [
                57.2877762,
                42.1355696
              ],
              [
                57.2804519,
                42.1299147
              ],
              [
                57.2719245,
                42.1188757
              ],
              [
                57.2645925,
                42.1098461
              ],
              [
                57.2423888,
                42.0796575
              ],
              [
                57.2338211,
                42.0687487
              ],
              [
                57.2197257,
                42.0479822
              ],
              [
                57.2068893,
                42.0310723
              ],
              [
                57.1986479,
                42.0188889
              ],
              [
                57.1870437,
                42.0021991
              ],
              [
                57.18544385091168,
                42
              ]
            ]
          ],
          [
            [
              [
                57.9999531,
                42.4968058
              ],
              [
                58,
                42.49665018255954
              ],
              [
                58,
                42.49890752941177
              ],
              [
                57.9999531,
                42.4986482
              ],
              [
                57.9999531,
                42.4968058
              ]
            ]
          ]
        ]
      }
    },
    {
      "type": "Feature",
      "properties": {
        "osm_id": -196240,
        "boundary": "administrative",
        "admin_level": 2,
        "parents": null,
        "name": "Uzbekistan",
        "local_name": "Oʻzbekiston",
        "name_en": "Uzbekistan",
        "all_tags": {
          "flag": "http://upload.wikimedia.org/wikipedia/commons/8/84/Flag_of_Uzbekistan.svg",
          "name": "Oʻzbekiston",
          "name:af": "Oesbekistan",
          "name:am": "ኡዝቤኪስታን",
          "name:an": "Uzbekistán",
          "name:ar": "أوزبكستان",
          "name:az": "Özbəkistan",
          "name:ba": "Үзбәкстан",
          "name:be": "Узбекістан",
          "name:bg": "Узбекистан",
          "name:bn": "উজবেকিস্তান",
          "name:bo": "ཨུ་ཟ་བྷེ་ཁི་སི་ཐན།",
          "name:br": "Ouzbekistan",
          "name:bs": "Uzbekistan",
          "name:ca": "Uzbekistan",
          "name:ce": "Узбекистан",
          "name:cs": "Uzbekistán",
          "name:cv": "Ӳспекстан",
          "name:cy": "Uzbekistan",
          "name:da": "Usbekistan",
          "name:de": "Usbekistan",
          "name:dv": "އުޒްބެކިސްތާން",
          "name:dz": "ཨུཛ་བེ་ཀིསི་ཏཱན་",
          "name:ee": "Uzbekistan",
          "name:el": "Ουζμπεκιστάν",
          "name:en": "Uzbekistan",
          "name:eo": "Uzbekio",
          "name:es": "Uzbekistán",
          "name:et": "Usbekistan",
          "name:eu": "Uzbekistan",
          "name:fa": "ازبکستان",
          "name:fi": "Uzbekistan",
          "name:fo": "Usbekistan",
          "name:fr": "Ouzbékistan",
          "name:fy": "Oezbekistan",
          "name:ga": "An Úisbéiceastáin",
          "name:gd": "Usbagastàn",
          "name:gl": "Uzbequistán",
          "name:gn": "Uvekitã",
          "name:gu": "ઉઝબેકિસ્તાન",
          "name:gv": "Yn Oosbeckistaan",
          "name:he": "אוזבקיסטן",
          "name:hi": "उज़्बेकिस्तान",
          "name:hr": "Uzbekistan",
          "name:ht": "Ouzbekistan",
          "name:hu": "Üzbegisztán",
          "name:hy": "Ուզբեկստան",
          "name:ia": "Uzbekistan",
          "name:id": "Uzbekistan",
          "name:ie": "Uzbekistan",
          "name:io": "Uzbekistan",
          "name:is": "Úsbekistan",
          "name:it": "Uzbekistan",
          "name:ja": "ウズベキスタン",
          "name:jv": "Uzbekistan",
          "name:ka": "უზბეკეთი",
          "name:kk": "Өзбекстан",
          "name:kn": "ಉಜ್ಬೇಕಿಸ್ಥಾನ್",
          "name:ko": "우즈베키스탄",
          "name:ku": "Ûzbêkistan",
          "name:kv": "Узбекистан",
          "name:kw": "Pow Ousbek",
          "name:ky": "Өзбекстан",
          "name:la": "Uzbecia",
          "name:lb": "Usbekistan",
          "name:li": "Oesbekistan",
          "name:ln": "Uzbekistáni",
          "name:lt": "Uzbekija",
          "name:lv": "Uzbekistāna",
          "name:mk": "Узбекистан",
          "name:ml": "ഉസ്ബെക്കിസ്ഥാൻ",
          "name:mn": "Узбекистан",
          "name:mr": "उझबेकिस्तान",
          "name:ms": "Uzbekistan",
          "name:my": "ဥဇဘက်ကစ္စတန်နိုင်ငံ",
          "name:na": "Uzbekistan",
          "name:nl": "Oezbekistan",
          "name:nn": "Usbekistan",
          "name:no": "Usbekistan",
          "name:nv": "Ózbeʼ Bikéyah",
          "name:oc": "Ozbequistan",
          "name:or": "ଉଜବେକିସ୍ଥାନ",
          "name:os": "Узбекистан",
          "name:pa": "ਉਜ਼ਬੇਕਿਸਤਾਨ",
          "name:pl": "Uzbekistan",
          "name:ps": "اوزبکستان",
          "name:pt": "Uzbequistão",
          "name:qu": "Usbiksuyu",
          "name:ro": "Uzbekistan",
          "name:ru": "Узбекистан",
          "name:rw": "Uzubekisitani",
          "name:sa": "उजबेकिस्थान",
          "name:sd": "ازبڪستان",
          "name:se": "Uzbekistan",
          "name:sh": "Uzbekistan",
          "name:sk": "Uzbekistan",
          "name:sl": "Uzbekistan",
          "name:so": "Usbekistan",
          "name:sq": "Uzbekistani",
          "name:sr": "Узбекистан",
          "name:ss": "IZubekhi",
          "name:su": "Uzbékistan",
          "name:sv": "Uzbekistan",
          "name:sw": "Uzbekistan",
          "name:ta": "உசுபெக்கிசுத்தான்",
          "name:te": "ఉజ్బెకిస్తాన్",
          "name:tg": "Ӯзбакистон",
          "name:th": "ประเทศอุซเบกิสถาน",
          "name:tk": "Özbegistan",
          "name:tl": "Uzbekistan",
          "name:tr": "Özbekistan",
          "name:tt": "Үзбәкстан",
          "name:ug": "ئۆزبېكىستان",
          "name:uk": "Узбекистан",
          "name:ur": "ازبکستان",
          "name:uz": "Oʻzbekiston",
          "name:vi": "Uzbekistan",
          "name:vo": "Lusbekän",
          "name:wo": "Usbekistaan",
          "name:yi": "אוזבעקיסטאן",
          "name:yo": "Ùsbẹ̀kìstán",
          "name:zh": "乌兹别克斯坦 / 烏茲別克",
          "boundary": "administrative",
          "name:ace": "Uzbèkistan",
          "name:als": "Usbekistan",
          "name:ang": "Usbecastan",
          "name:arc": "ܐܘܙܒܩܣܛܐܢ",
          "name:arz": "اوزبيكيستان",
          "name:ast": "Uzbequistán",
          "name:bar": "Usbekistan",
          "name:bcl": "Usbekistan",
          "name:bpy": "উজবেকিস্তান",
          "name:bug": "Uzbekistan",
          "name:bxr": "Узбекистан",
          "name:ceb": "Uzbekistan",
          "name:chr": "ᎤᏍᏇᎩᏍᏔᏂ",
          "name:ckb": "ئۆزبەکستان",
          "name:crh": "Özbekistan",
          "name:csb": "Ùzbekistan",
          "name:diq": "Ozbekıstan",
          "name:dsb": "Usbekska",
          "name:ext": "Uzbequistán",
          "name:frp": "Ozbèquistan",
          "name:gag": "Özbekistan",
          "name:hak": "Vû-tsṳ̂-phe̍t-khiet-sṳ̂-thán",
          "name:hif": "Uzbekistan",
          "name:hsb": "Uzbekistan",
          "name:ilo": "Uzbekistan",
          "name:jbo": "uzbekistan",
          "name:kaa": "Ózbekstan",
          "name:kbd": "Узбэчыстэн",
          "name:lad": "Uzbekistan",
          "name:lez": "Узбекистан",
          "name:lij": "Uzbekistan",
          "name:lmo": "Uzbekistan",
          "name:lrc": "اوزبکستان",
          "name:mdf": "Узбекистан",
          "name:mhr": "Узбекистан",
          "name:min": "Uzbekistan",
          "name:mzn": "اوزبکستون",
          "name:nah": "Uzbequistan",
          "name:nan": "Uzbekistan",
          "name:nds": "Usbekistan",
          "name:new": "उज्बेकिस्तान",
          "name:nov": "Uzbekistan",
          "name:pam": "Uzbekistan",
          "name:pap": "Uzbekistan",
          "name:pms": "Uzbekistan",
          "name:pnb": "ازبکستان",
          "name:rue": "Узбекістан",
          "name:sah": "Узбекистаан",
          "name:scn": "Uzbekistan",
          "name:sco": "Uzbekistan",
          "name:smn": "Uzbekistan",
          "name:sms": "Uzbekistaan",
          "name:szl": "Uzbekistōn",
          "name:udm": "Узбекистан",
          "name:vec": "Uzbekistan",
          "name:vep": "Uzbekistan",
          "name:vro": "Usbekistan",
          "name:war": "Usbekistan",
          "name:wuu": "乌兹别克斯坦",
          "name:xal": "Сартин Орн",
          "name:yue": "月即別",
          "name:zea": "Oezbekistan",
          "way_area": "48.4889",
          "wikidata": "Q265",
          "ISO3166-1": "UZ",
          "wikipedia": "en:Uzbekistan",
          "population": "35727181",
          "admin_level": "2",
          "alt_name:eo": "Uzbekujo;Uzbekistano",
          "alt_name:vi": "U-dơ-bê-kít-xtan;Uzbekstan;Ozbekistan",
          "name:uz-cyr": "Ўзбекистон",
          "name:bat-smg": "Ozbėkistans",
          "name:zh-Hans": "乌兹别克斯坦",
          "name:zh-Hant": "烏茲別克",
          "official_name": "O‘zbekiston Respublikasi",
          "name:be-tarask": "Узбэкістан",
          "population:date": "2022-09-01",
          "ISO3166-1:alpha2": "UZ",
          "ISO3166-1:alpha3": "UZB",
          "default_language": "uz",
          "official_name:ar": "جمهورية أوزبكستان",
          "official_name:cs": "Republika Uzbekistán",
          "official_name:en": "Republic of Uzbekistan",
          "official_name:eo": "Uzbeka Respubliko",
          "official_name:fa": "جمهوری ازبکستان",
          "official_name:gn": "Tavakuairetã Uvekitã",
          "official_name:pt": "República do Uzbequistão",
          "official_name:ru": "Республика Узбекистан",
          "official_name:ur": "جمہوریہ ازبکستان",
          "ISO3166-1:numeric": "860"
        }
      },
      "geometry": {
        "type": "Polygon",
        "coordinates": [
          [
            [
              57,
              42
            ],
            [
              57.18544385091168,
              42
            ],
            [
              57.1870437,
              42.0021991
            ],
            [
              57.1986479,
              42.0188889
            ],
            [
              57.2068893,
              42.0310723
            ],
            [
              57.2197257,
              42.0479822
            ],
            [
              57.2338211,
              42.0687487
            ],
            [
              57.2423888,
              42.0796575
            ],
            [
              57.2645925,
              42.1098461
            ],
            [
              57.2719245,
              42.1188757
            ],
            [
              57.2804519,
              42.1299147
            ],
            [
              57.2877762,
              42.1355696
            ],
            [
              57.2936215,
              42.1379877
            ],
            [
              57.3204324,
              42.1447819
            ],
            [
              57.3588211,
              42.1499571
            ],
            [
              57.3841921,
              42.1538222
            ],
            [
              57.4334931,
              42.1563149
            ],
            [
              57.4538301,
              42.155986
            ],
            [
              57.4674526,
              42.1560367
            ],
            [
              57.4869715,
              42.1553829
            ],
            [
              57.5045524,
              42.1544503
            ],
            [
              57.5507181,
              42.1525096
            ],
            [
              57.597817,
              42.1484139
            ],
            [
              57.6178306,
              42.1456282
            ],
            [
              57.6393259,
              42.1419037
            ],
            [
              57.6496274,
              42.1395214
            ],
            [
              57.6522907,
              42.1383691
            ],
            [
              57.6547393,
              42.1386405
            ],
            [
              57.6600818,
              42.1401642
            ],
            [
              57.6735706,
              42.1461387
            ],
            [
              57.6803514,
              42.149476
            ],
            [
              57.6939517,
              42.1542901
            ],
            [
              57.7035581,
              42.1573635
            ],
            [
              57.7292757,
              42.1647771
            ],
            [
              57.7384315,
              42.1676926
            ],
            [
              57.7447118,
              42.1687457
            ],
            [
              57.750959,
              42.1695017
            ],
            [
              57.769471,
              42.1711836
            ],
            [
              57.7809347,
              42.1714051
            ],
            [
              57.7922412,
              42.1708057
            ],
            [
              57.8018286,
              42.1693694
            ],
            [
              57.8160059,
              42.1708813
            ],
            [
              57.832631,
              42.1708813
            ],
            [
              57.8410965,
              42.1719396
            ],
            [
              57.8436464,
              42.17519
            ],
            [
              57.8441564,
              42.179196
            ],
            [
              57.8430344,
              42.1833529
            ],
            [
              57.8444624,
              42.1844866
            ],
            [
              57.8492561,
              42.1855446
            ],
            [
              57.850888,
              42.1840331
            ],
            [
              57.851704,
              42.1825593
            ],
            [
              57.8540499,
              42.1807076
            ],
            [
              57.8539989,
              42.1790826
            ],
            [
              57.852571,
              42.1761726
            ],
            [
              57.8535909,
              42.1731868
            ],
            [
              57.8567528,
              42.1716372
            ],
            [
              57.8593536,
              42.1717506
            ],
            [
              57.8602716,
              42.1722041
            ],
            [
              57.8608325,
              42.173338
            ],
            [
              57.8624134,
              42.174434
            ],
            [
              57.8626684,
              42.175719
            ],
            [
              57.8607815,
              42.180443
            ],
            [
              57.8597616,
              42.1853556
            ],
            [
              57.8588436,
              42.1915903
            ],
            [
              57.8544069,
              42.1999778
            ],
            [
              57.8502251,
              42.2056444
            ],
            [
              57.8472673,
              42.2071932
            ],
            [
              57.8431875,
              42.2082887
            ],
            [
              57.8364558,
              42.213048
            ],
            [
              57.8349769,
              42.2142944
            ],
            [
              57.8353849,
              42.2153898
            ],
            [
              57.8365068,
              42.2154275
            ],
            [
              57.8457373,
              42.2137657
            ],
            [
              57.8489502,
              42.2147099
            ],
            [
              57.8493072,
              42.216334
            ],
            [
              57.8493072,
              42.2192044
            ],
            [
              57.8482872,
              42.2206773
            ],
            [
              57.8378328,
              42.2267197
            ],
            [
              57.8373738,
              42.2279281
            ],
            [
              57.8381897,
              42.228268
            ],
            [
              57.8431365,
              42.2272484
            ],
            [
              57.8446664,
              42.2281547
            ],
            [
              57.8448194,
              42.2292498
            ],
            [
              57.8439014,
              42.2312133
            ],
            [
              57.8421675,
              42.2327615
            ],
            [
              57.8401786,
              42.2358199
            ],
            [
              57.8401786,
              42.2375945
            ],
            [
              57.8407906,
              42.2381986
            ],
            [
              57.8425755,
              42.237519
            ],
            [
              57.8442074,
              42.2363108
            ],
            [
              57.8457883,
              42.2335922
            ],
            [
              57.8477772,
              42.2317797
            ],
            [
              57.8498171,
              42.2314021
            ],
            [
              57.8538969,
              42.2327993
            ],
            [
              57.8547639,
              42.2321196
            ],
            [
              57.8548149,
              42.2288722
            ],
            [
              57.8564468,
              42.2276638
            ],
            [
              57.8600676,
              42.2273239
            ],
            [
              57.8635354,
              42.2267197
            ],
            [
              57.8655753,
              42.2258511
            ],
            [
              57.8679212,
              42.2225279
            ],
            [
              57.86991,
              42.2188267
            ],
            [
              57.8726639,
              42.2164473
            ],
            [
              57.8757237,
              42.2150121
            ],
            [
              57.8782226,
              42.2127836
            ],
            [
              57.8835263,
              42.2118015
            ],
            [
              57.889799,
              42.212557
            ],
            [
              57.8999474,
              42.215352
            ],
            [
              57.9042822,
              42.2162207
            ],
            [
              57.8997052,
              42.2180997
            ],
            [
              57.8971426,
              42.219922
            ],
            [
              57.8955617,
              42.2229055
            ],
            [
              57.8955745,
              42.2239063
            ],
            [
              57.8969004,
              42.2247182
            ],
            [
              57.8978566,
              42.2260588
            ],
            [
              57.8968749,
              42.2292309
            ],
            [
              57.8970406,
              42.2302599
            ],
            [
              57.8982901,
              42.2314776
            ],
            [
              57.8990805,
              42.231808
            ],
            [
              57.9002662,
              42.2320252
            ],
            [
              57.9014136,
              42.2320252
            ],
            [
              57.9053532,
              42.2312416
            ],
            [
              57.9069851,
              42.2314116
            ],
            [
              57.9096242,
              42.232044
            ],
            [
              57.9169423,
              42.233073
            ],
            [
              57.9216468,
              42.2334034
            ],
            [
              57.9251656,
              42.2331957
            ],
            [
              57.9326367,
              42.2321762
            ],
            [
              57.9346511,
              42.2317325
            ],
            [
              57.9423644,
              42.2290893
            ],
            [
              57.9457685,
              42.2282113
            ],
            [
              57.9474387,
              42.2280791
            ],
            [
              57.9482036,
              42.2283529
            ],
            [
              57.9486371,
              42.2289477
            ],
            [
              57.9458578,
              42.2342435
            ],
            [
              57.9439964,
              42.2367166
            ],
            [
              57.9423389,
              42.2400203
            ],
            [
              57.9426194,
              42.2460608
            ],
            [
              57.9431422,
              42.2503832
            ],
            [
              57.9436011,
              42.2617541
            ],
            [
              57.944417,
              42.264094
            ],
            [
              57.9383994,
              42.2730757
            ],
            [
              57.9376854,
              42.275868
            ],
            [
              57.9370224,
              42.2822447
            ],
            [
              57.9366655,
              42.2840934
            ],
            [
              57.9353905,
              42.287753
            ],
            [
              57.9310558,
              42.2937512
            ],
            [
              57.9288119,
              42.2979006
            ],
            [
              57.9286207,
              42.302672
            ],
            [
              57.9291817,
              42.3046804
            ],
            [
              57.931298,
              42.3082068
            ],
            [
              57.9319865,
              42.3096305
            ],
            [
              57.9341411,
              42.3127135
            ],
            [
              57.9356073,
              42.3151647
            ],
            [
              57.9437031,
              42.3336117
            ],
            [
              57.9448251,
              42.3341583
            ],
            [
              57.9532906,
              42.3399636
            ],
            [
              57.9569624,
              42.3419238
            ],
            [
              57.9586963,
              42.3430546
            ],
            [
              57.9609912,
              42.3475776
            ],
            [
              57.9621131,
              42.3535325
            ],
            [
              57.9619856,
              42.3588461
            ],
            [
              57.9621131,
              42.3627086
            ],
            [
              57.9618326,
              42.3646492
            ],
            [
              57.9601242,
              42.3675693
            ],
            [
              57.9578039,
              42.3710733
            ],
            [
              57.9571409,
              42.3712241
            ],
            [
              57.955305,
              42.3706212
            ],
            [
              57.9536986,
              42.3705459
            ],
            [
              57.9519902,
              42.3710733
            ],
            [
              57.9511997,
              42.3719964
            ],
            [
              57.9509192,
              42.3727876
            ],
            [
              57.9514037,
              42.3733339
            ],
            [
              57.9532906,
              42.37356
            ],
            [
              57.9536986,
              42.3738237
            ],
            [
              57.9536731,
              42.3742004
            ],
            [
              57.9526531,
              42.3748974
            ],
            [
              57.9508427,
              42.3754813
            ],
            [
              57.9500523,
              42.3763478
            ],
            [
              57.9500268,
              42.3770825
            ],
            [
              57.9511232,
              42.3774027
            ],
            [
              57.9587473,
              42.3756509
            ],
            [
              57.9594358,
              42.3761406
            ],
            [
              57.9602772,
              42.3809627
            ],
            [
              57.9577019,
              42.3833547
            ],
            [
              57.9527551,
              42.3861045
            ],
            [
              57.9507917,
              42.3879313
            ],
            [
              57.9492873,
              42.3908693
            ],
            [
              57.9478849,
              42.3921875
            ],
            [
              57.9469159,
              42.3939765
            ],
            [
              57.9438306,
              42.3958785
            ],
            [
              57.9414592,
              42.3968388
            ],
            [
              57.9401078,
              42.3982888
            ],
            [
              57.9401588,
              42.3994374
            ],
            [
              57.9412552,
              42.4008119
            ],
            [
              57.9410258,
              42.40213
            ],
            [
              57.9402098,
              42.4026384
            ],
            [
              57.9381189,
              42.403448
            ],
            [
              57.9353396,
              42.4035233
            ],
            [
              57.9333762,
              42.4037493
            ],
            [
              57.9300613,
              42.4050861
            ],
            [
              57.9260581,
              42.4045777
            ],
            [
              57.9246046,
              42.4050672
            ],
            [
              57.9244771,
              42.4057639
            ],
            [
              57.9248596,
              42.4064228
            ],
            [
              57.9282764,
              42.4074772
            ],
            [
              57.9318717,
              42.4078537
            ],
            [
              57.9374559,
              42.4076278
            ],
            [
              57.9411023,
              42.4072324
            ],
            [
              57.9416377,
              42.407609
            ],
            [
              57.9411787,
              42.4082303
            ],
            [
              57.9399548,
              42.4087198
            ],
            [
              57.9344471,
              42.4089645
            ],
            [
              57.9326622,
              42.4094352
            ],
            [
              57.9306733,
              42.4118826
            ],
            [
              57.9298319,
              42.412278
            ],
            [
              57.9290414,
              42.412278
            ],
            [
              57.9271545,
              42.4116567
            ],
            [
              57.9261346,
              42.4116567
            ],
            [
              57.9254461,
              42.4122027
            ],
            [
              57.9246556,
              42.414217
            ],
            [
              57.9244006,
              42.4156854
            ],
            [
              57.9237377,
              42.4171537
            ],
            [
              57.9226157,
              42.4182079
            ],
            [
              57.9211878,
              42.4190173
            ],
            [
              57.9180515,
              42.4195255
            ],
            [
              57.9159351,
              42.4192808
            ],
            [
              57.9144307,
              42.4197891
            ],
            [
              57.9136402,
              42.4206738
            ],
            [
              57.9126203,
              42.4222926
            ],
            [
              57.9112689,
              42.4227255
            ],
            [
              57.9077755,
              42.4228572
            ],
            [
              57.9070361,
              42.4233278
            ],
            [
              57.9065261,
              42.4239678
            ],
            [
              57.9072911,
              42.4254736
            ],
            [
              57.9099174,
              42.4267158
            ],
            [
              57.9112179,
              42.4277133
            ],
            [
              57.9124418,
              42.4290308
            ],
            [
              57.9128498,
              42.4306494
            ],
            [
              57.9133597,
              42.4314775
            ],
            [
              57.9157821,
              42.4319856
            ],
            [
              57.9197599,
              42.4339993
            ],
            [
              57.9227942,
              42.4349215
            ],
            [
              57.9281489,
              42.4357495
            ],
            [
              57.9287099,
              42.4368598
            ],
            [
              57.9281999,
              42.4384405
            ],
            [
              57.9281489,
              42.4392309
            ],
            [
              57.9408218,
              42.4440669
            ],
            [
              57.9426322,
              42.4445749
            ],
            [
              57.9440601,
              42.4444808
            ],
            [
              57.9497463,
              42.4401718
            ],
            [
              57.9505112,
              42.4387793
            ],
            [
              57.9505877,
              42.4371797
            ],
            [
              57.9509192,
              42.4359753
            ],
            [
              57.9521432,
              42.4346015
            ],
            [
              57.954744,
              42.4335665
            ],
            [
              57.9556875,
              42.4316469
            ],
            [
              57.9582373,
              42.4294637
            ],
            [
              57.9593593,
              42.4291814
            ],
            [
              57.9618326,
              42.4300283
            ],
            [
              57.9632351,
              42.4300283
            ],
            [
              57.9677228,
              42.4278263
            ],
            [
              57.9686663,
              42.4289743
            ],
            [
              57.9700687,
              42.4323997
            ],
            [
              57.9712161,
              42.4363329
            ],
            [
              57.9714201,
              42.4390804
            ],
            [
              57.9726951,
              42.4426556
            ],
            [
              57.9760354,
              42.4481123
            ],
            [
              57.9771318,
              42.4503512
            ],
            [
              57.9778968,
              42.4571617
            ],
            [
              57.9775653,
              42.4584974
            ],
            [
              57.9763159,
              42.4616389
            ],
            [
              57.9764179,
              42.4623349
            ],
            [
              57.9771063,
              42.4626359
            ],
            [
              57.982563,
              42.463915
            ],
            [
              57.9832515,
              42.4647803
            ],
            [
              57.983685,
              42.4658336
            ],
            [
              57.9836595,
              42.4686551
            ],
            [
              57.9829965,
              42.4734888
            ],
            [
              57.982716,
              42.4745232
            ],
            [
              57.982767,
              42.475614
            ],
            [
              57.983022,
              42.4762346
            ],
            [
              57.9847559,
              42.4770621
            ],
            [
              57.9851129,
              42.4776263
            ],
            [
              57.9848069,
              42.4784162
            ],
            [
              57.9844244,
              42.4786794
            ],
            [
              57.9835065,
              42.4788111
            ],
            [
              57.9807271,
              42.4781153
            ],
            [
              57.9796307,
              42.4782657
            ],
            [
              57.9789677,
              42.4789991
            ],
            [
              57.9790187,
              42.482685
            ],
            [
              57.9785852,
              42.4837945
            ],
            [
              57.9789932,
              42.4847535
            ],
            [
              57.9805996,
              42.4855621
            ],
            [
              57.98292,
              42.486051
            ],
            [
              57.983736,
              42.4859193
            ],
            [
              57.9847304,
              42.483362
            ],
            [
              57.9855719,
              42.4830235
            ],
            [
              57.9863368,
              42.4832303
            ],
            [
              57.9882492,
              42.4853364
            ],
            [
              57.9893202,
              42.4856373
            ],
            [
              57.9906206,
              42.4853364
            ],
            [
              57.992023,
              42.484227
            ],
            [
              57.9932725,
              42.4829483
            ],
            [
              57.9949554,
              42.4824593
            ],
            [
              57.9989331,
              42.4825157
            ],
            [
              58,
              42.485015743417385
            ],
            [
              58,
              42.49665018255954
            ],
            [
              57.9999531,
              42.4968058
            ],
            [
              57.9999531,
              42.4986482
            ],
            [
              58,
              42.49890752941177
            ],
            [
              58,
              43
            ],
            [
              57,
              43
            ],
            [
              57,
              42
            ]
          ]
        ]
      }
    }
  ]
}