{
  "type": "FeatureCollection",
  "features": [
    {
      "type": "Feature",
      "properties": {
        "osm_id": -195272,
        "boundary": "administrative",
        "admin_level": 2,
        "parents": null,
        "name": "Zimbabwe",
        "local_name": "Zimbabwe",
        "name_en": "Zimbabwe",
        "all_tags": {
          "flag": "http://upload.wikimedia.org/wikipedia/commons/6/6a/Flag_of_Zimbabwe.svg",
          "name": "Zimbabwe",
          "name:af": "Zimbabwe",
          "name:am": "ዚምባብዌ",
          "name:an": "Zimbabwe",
          "name:ar": "زيمبابوي",
          "name:az": "Zimbabve",
          "name:ba": "Зимбабве",
          "name:be": "Зімбабвэ",
          "name:bg": "Зимбабве",
          "name:bm": "Zimbabwe",
          "name:bn": "জিম্বাবুয়ে",
          "name:bo": "ཛིམ་བབ་ཝི།",
          "name:br": "Zimbabwe",
          "name:bs": "Zimbabve",
          "name:ca": "Zimbabwe",
          "name:ce": "Зимбабве",
          "name:cs": "Zimbabwe",
          "name:cv": "Зимбабве",
          "name:cy": "Zimbabwe",
          "name:da": "Zimbabwe",
          "name:de": "Simbabwe",
          "name:dv": "ޒިމްބާބުވޭ",
          "name:dz": "ཛིམ་བབ་ཝེ་",
          "name:ee": "Zimbabwe",
          "name:el": "Ζιμπάμπουε",
          "name:en": "Zimbabwe",
          "name:eo": "Zimbabvo",
          "name:es": "Zimbabue",
          "name:et": "Zimbabwe",
          "name:eu": "Zimbabwe",
          "name:fa": "زیمبابوه",
          "name:fi": "Zimbabwe",
          "name:fo": "Simbabvi",
          "name:fr": "Zimbabwe",
          "name:fy": "Simbabwe",
          "name:ga": "An tSiombáib",
          "name:gd": "Siombabue",
          "name:gl": "Cimbabue",
          "name:gn": "Simbávue",
          "name:gv": "Yn Çhimbabwe",
          "name:he": "זימבבואה",
          "name:hi": "ज़िम्बाब्वे",
          "name:hr": "Zimbabve",
          "name:ht": "Zimbabwe",
          "name:hu": "Zimbabwe",
          "name:hy": "Զիմբաբվե",
          "name:id": "Zimbabwe",
          "name:ie": "Zimbabwe",
          "name:io": "Zimbabwe",
          "name:is": "Simbabve",
          "name:it": "Zimbabwe",
          "name:ja": "ジンバブエ",
          "name:jv": "Zimbabwe",
          "name:ka": "ზიმბაბვე",
          "name:kg": "Zimbabwe",
          "name:ki": "Zimbabwe",
          "name:kk": "Зимбабве",
          "name:kn": "ಜಿಂಬಾಬ್ವೆ",
          "name:ko": "짐바브웨",
          "name:ku": "Zîmbabwe",
          "name:kw": "Zimbabwe",
          "name:la": "Zimbabua",
          "name:lb": "Simbabwe",
          "name:li": "Zimbabwe",
          "name:ln": "Zimbabwe",
          "name:lt": "Zimbabvė",
          "name:lv": "Zimbabve",
          "name:mi": "Timuwawe",
          "name:mk": "Зимбабве",
          "name:ml": "സിംബാബ്വെ",
          "name:mn": "Зимбабве",
          "name:mr": "झिंबाब्वे",
          "name:ms": "Zimbabwe",
          "name:mt": "Żimbabwe",
          "name:my": "ဇင်ဘာဘွေနိုင်ငံ",
          "name:ne": "जिम्बाब्वे",
          "name:nl": "Zimbabwe",
          "name:nn": "Zimbabwe",
          "name:no": "Zimbabwe",
          "name:nv": "Hooghan Tsé Bee Ádaalyaaí Bikéyah",
          "name:ny": "Zimbabwe",
          "name:oc": "Zimbabwe",
          "name:or": "ଜିମ୍ବାୱେ",
          "name:os": "Зимбабве",
          "name:pa": "ਜ਼ਿੰਬਾਬਵੇ",
          "name:pl": "Zimbabwe",
          "name:ps": "زېمبابوې",
          "name:pt": "Zimbabué",
          "name:qu": "Simbabwi",
          "name:ro": "Zimbabwe",
          "name:ru": "Зимбабве",
          "name:rw": "Zimbabwe",
          "name:sa": "जिम्बाबवे",
          "name:sc": "Zimbabwe",
          "name:se": "Zimbabwe",
          "name:sg": "Zimbäbwe",
          "name:sh": "Zimbabve",
          "name:si": "සිම්බාබ්වේ",
          "name:sk": "Zimbabwe",
          "name:sl": "Zimbabve",
          "name:sn": "Zimbabwe",
          "name:so": "Simbaabwi",
          "name:sq": "Zimbabveja",
          "name:sr": "Зимбабве",
          "name:ss": "IZimbabhwe",
          "name:su": "Zimbabwé",
          "name:sv": "Zimbabwe",
          "name:sw": "Zimbabwe",
          "name:ta": "சிம்பாப்வே",
          "name:te": "జింబాబ్వే",
          "name:tg": "Зимбабве",
          "name:th": "ประเทศซิมบับเว",
          "name:ti": "ዚምባብዌ",
          "name:tk": "Zimbabwe",
          "name:tl": "Simbabwe",
          "name:tn": "Zimbabwe",
          "name:tr": "Zimbabve",
          "name:ts": "Zimbabwe",
          "name:tt": "Зимбабве",
          "name:ug": "زىمبابۋې",
          "name:uk": "Зімбабве",
          "name:ur": "زمبابوے",
          "name:uz": "Zimbabve",
          "name:ve": "Zimbagwe",
          "name:vi": "Zimbabwe",
          "name:vo": "Zimbabiyän",
          "name:wo": "Simbaawee",
          "name:yi": "זימבאבווע",
          "name:yo": "Sìmbábúè",
          "name:zh": "津巴布韦 / 辛巴威",
          "name:zu": "IZimbabwe",
          "boundary": "administrative",
          "name:als": "Simbabwe",
          "name:ang": "Simbabwe",
          "name:arz": "زيمبابوى",
          "name:ast": "Zimbabue",
          "name:bar": "Simbabwe",
          "name:bcl": "Simbabwe",
          "name:bjn": "Zimbabwe",
          "name:bpy": "জিম্বাবুয়ে",
          "name:bxr": "Зимбабве",
          "name:ceb": "Zimbabwe",
          "name:chy": "Zimbabwe",
          "name:ckb": "زیمبابۆی",
          "name:crh": "Zimbabve",
          "name:diq": "Zimbabwe",
          "name:ext": "Zimbagüi",
          "name:frp": "Zimbaboue",
          "name:gag": "Zimbabve",
          "name:hak": "Sîn-pâ-pu-vî",
          "name:hif": "Zimbabwe",
          "name:hsb": "Simbabwe",
          "name:ilo": "Zimbabwe",
          "name:jbo": "zimbabues",
          "name:kaa": "Zimbabve",
          "name:ksh": "Simbabwe",
          "name:lij": "Zimbabwe",
          "name:lmo": "Zimbabwe",
          "name:ltg": "Zimbabve",
          "name:lzh": "辛巴威",
          "name:mrj": "Зимбабве",
          "name:mzn": "زیمبابوه",
          "name:nah": "Zimbabhue",
          "name:nan": "Zimbabwe",
          "name:nds": "Simbabwe",
          "name:nov": "Zimbabwe",
          "name:nso": "Zimbabwe",
          "name:pam": "Zimbabwe",
          "name:pap": "Zimbabwe",
          "name:pms": "Zimbabwe",
          "name:pnb": "زمبابوے",
          "name:sah": "Зимбабве",
          "name:scn": "Zimbabbui",
          "name:sco": "Zimbabwe",
          "name:smn": "Zimbabwe",
          "name:sms": "Zimbabwe",
          "name:stq": "Simbabwe",
          "name:szl": "Zimbabwe",
          "name:tzl": "Zimbabwe",
          "name:vec": "Zinbàbue",
          "name:vro": "Zimbabwe",
          "name:war": "Zimbabwe",
          "name:wuu": "津巴布韦",
          "name:xal": "Зимбабвудин Орн",
          "name:yue": "津巴布韋",
          "timezone": "Africa/Harare",
          "way_area": "33.5333",
          "wikidata": "Q954",
          "ISO3166-1": "ZW",
          "wikipedia": "en:Zimbabwe",
          "admin_level": "2",
          "name:simple": "Zimbabwe",
          "driving_side": "left",
          "name:bat-smg": "Zėmbabvė",
          "name:zh-Hans": "津巴布韦",
          "name:zh-Hant": "辛巴威",
          "name:be-tarask": "Зымбабвэ",
          "ISO3166-1:alpha2": "ZW",
          "ISO3166-1:alpha3": "ZWE",
          "official_name:cs": "Zimbabwská republika",
          "official_name:de": "Republik Zimbabwe",
          "official_name:en": "Republic of Zimbabwe",
          "official_name:es": "República de Zimbabue",
          "official_name:gn": "Tavakuairetã Simbávue",
          "official_name:pt": "República do Zimbabwe",
          "official_name:ru": "Республика Зимбабве",
          "official_name:sk": "Zimbabwianska republika",
          "ISO3166-1:numeric": "716"
        }
      },
      "geometry": {
        "type": "Polygon",
        "coordinates": [
          [
            [
              28,
              -19
            ],
            [
              29,
              -19
            ],
            [
              29,
              -18
            ],
            [
              28,
              -18
            ],
            [
              28,
              -19
            ]
          ]
        ]
      }
    }
  ]
}