{
  "type": "FeatureCollection",
  "features": [
    {
      "type": "Feature",
      "properties": {
        "osm_id": -79510,
        "boundary": "administrative",
        "admin_level": 2,
        "parents": null,
        "name": "Estonia",
        "local_name": "Eesti",
        "name_en": "Estonia",
        "all_tags": {
          "flag": "https://upload.wikimedia.org/wikipedia/commons/8/8f/Flag_of_Estonia.svg",
          "name": "Eesti",
          "name:af": "Estland",
          "name:am": "ኤስቶኒያ",
          "name:an": "Estonia",
          "name:ar": "إستونيا",
          "name:az": "Estoniya",
          "name:ba": "Эстония",
          "name:be": "Эстонія",
          "name:bg": "Естония",
          "name:bi": "Estonia",
          "name:bm": "Estonia",
          "name:bn": "ইস্তোনিয়া",
          "name:bo": "ཨིསུ་ཊོ་ནིཡ།",
          "name:br": "Estonia",
          "name:bs": "Estonija",
          "name:ca": "Estònia",
          "name:ce": "Эстони",
          "name:co": "Estonia",
          "name:cs": "Estonsko",
          "name:cu": "Єсть",
          "name:cv": "Эстони",
          "name:cy": "Estonia",
          "name:da": "Estland",
          "name:de": "Estland",
          "name:dz": "ཨིསི་ཊོ་ནི་ཡ།",
          "name:ee": "Estonia",
          "name:el": "Εσθονία",
          "name:en": "Estonia",
          "name:eo": "Estonio",
          "name:es": "Estonia",
          "name:et": "Eesti",
          "name:eu": "Estonia",
          "name:fa": "استونی",
          "name:ff": "Estoniya",
          "name:fi": "Viro",
          "name:fo": "Estland",
          "name:fr": "Estonie",
          "name:fy": "Estlân",
          "name:ga": "An Eastóin",
          "name:gd": "Eastòinia",
          "name:gl": "Estonia",
          "name:gn": "Etoña",
          "name:gu": "ઈસ્ટોનિયા",
          "name:gv": "Yn Estaan",
          "name:he": "אסטוניה",
          "name:hi": "एस्टोनिया",
          "name:hr": "Estonija",
          "name:ht": "Estoni",
          "name:hu": "Észtország",
          "name:hy": "Էստոնիա",
          "name:ia": "Estonia",
          "name:id": "Estonia",
          "name:ie": "Estonia",
          "name:io": "Estonia",
          "name:is": "Eistland",
          "name:it": "Estonia",
          "name:ja": "エストニア",
          "name:jv": "Estonia",
          "name:ka": "ესტონეთი",
          "name:kg": "Estonia",
          "name:kk": "Эстония",
          "name:kl": "Estlandi",
          "name:kn": "ಎಸ್ಟೊನಿಯ",
          "name:ko": "에스토니아",
          "name:ku": "Estonya",
          "name:kv": "Эстония",
          "name:kw": "Estoni",
          "name:ky": "Эстония",
          "name:la": "Estonia",
          "name:lb": "Estland",
          "name:li": "Esland",
          "name:ln": "Estonia",
          "name:lt": "Estija",
          "name:lv": "Igaunija",
          "name:mg": "Estonia",
          "name:mi": "Etonia",
          "name:mk": "Естонија",
          "name:ml": "എസ്റ്റോണിയ",
          "name:mn": "Эстон",
          "name:mr": "एस्टोनिया",
          "name:ms": "Estonia",
          "name:mt": "Estonja",
          "name:my": "အက်စ်တိုးနီးယားနိုင်ငံ",
          "name:na": "Etoniya",
          "name:ne": "इस्टोनिया",
          "name:nl": "Estland",
          "name:nn": "Estland",
          "name:no": "Estland",
          "name:nv": "Ééstii Bikéyah",
          "name:oc": "Estònia",
          "name:or": "ଏଷ୍ଟୋନିଆ",
          "name:os": "Эстони",
          "name:pa": "ਇਸਤੋਨੀਆ",
          "name:pl": "Estonia",
          "name:ps": "اېسټونيا",
          "name:pt": "Estónia",
          "name:qu": "Istunya",
          "name:ro": "Estonia",
          "name:ru": "Эстония",
          "name:rw": "Esitoniya",
          "name:sa": "एस्टोनिया",
          "name:sc": "Estònia",
          "name:se": "Estteeana",
          "name:sh": "Estonija",
          "name:si": "එස්ටෝනියා",
          "name:sk": "Estónsko",
          "name:sl": "Estonija",
          "name:so": "Estoniya",
          "name:sq": "Estonia",
          "name:sr": "Естонија",
          "name:ss": "IWestoniya",
          "name:st": "Estonia",
          "name:su": "Éstonia",
          "name:sv": "Estland",
          "name:sw": "Estonia",
          "name:ta": "எசுத்தோனியா",
          "name:te": "ఎస్టోనియా",
          "name:tg": "Эстония",
          "name:th": "ประเทศเอสโตเนีย",
          "name:tk": "Estoniýa",
          "name:tl": "Estonia",
          "name:tr": "Estonya",
          "name:tt": "Эстония",
          "name:ug": "ئېستونىيە",
          "name:uk": "Естонія",
          "name:ur": "استونیا",
          "name:uz": "Estoniya",
          "name:ve": "Estonia",
          "name:vi": "Estonia",
          "name:vo": "Lestiyän",
          "name:wo": "Estooni",
          "name:yi": "עסטלאנד",
          "name:yo": "Estóníà",
          "name:zh": "爱沙尼亚 / 愛沙尼亞",
          "name:zu": "I-Estoniya",
          "boundary": "administrative",
          "int_name": "Estonia",
          "name:ace": "Èstonia",
          "name:als": "Estland",
          "name:ang": "Estland",
          "name:arc": "ܐܣܛܘܢܝܐ",
          "name:arz": "استونيا",
          "name:ast": "Estonia",
          "name:bar": "Estland",
          "name:bcl": "Estonya",
          "name:bpy": "এস্তোনিয়া",
          "name:bxr": "Эстон",
          "name:ceb": "Estonia",
          "name:chr": "ᎡᏍᏙᏂᏱ",
          "name:ckb": "ئەستۆنیا",
          "name:crh": "Estoniya",
          "name:csb": "Estóńskô",
          "name:diq": "Estonya",
          "name:dsb": "Estniska",
          "name:eml": "Estògna",
          "name:ext": "Estónia",
          "name:frp": "Èstonie",
          "name:frr": "Estlönj",
          "name:fur": "Estonie",
          "name:gag": "Estoniya",
          "name:hak": "Oi-sâ-nì-â",
          "name:haw": "ʻEsetonia",
          "name:hif": "Estonia",
          "name:hsb": "Estiska",
          "name:ilo": "Estonia",
          "name:jbo": "estis",
          "name:kaa": "Estoniya",
          "name:kab": "Isṭuni",
          "name:kbd": "Эстониэ",
          "name:koi": "Эстму",
          "name:krc": "Эстония",
          "name:lad": "Estonia",
          "name:lij": "Estònia",
          "name:lmo": "Estonia",
          "name:ltg": "Igauneja",
          "name:lzh": "愛沙尼亞",
          "name:mdf": "Эсти мастор",
          "name:mhr": "Эстоний",
          "name:mrj": "Эстони",
          "name:myv": "Эстэнь Мастор",
          "name:nah": "Estonia",
          "name:nan": "Eesti",
          "name:nds": "Eestland",
          "name:nov": "Estonia",
          "name:nrm": "Estonnie",
          "name:pam": "Estonia",
          "name:pap": "Estonia",
          "name:pcd": "Éstonie",
          "name:pdc": "Eschdooni",
          "name:pih": "Estonya",
          "name:pms": "Estònia",
          "name:pnb": "اسٹونیا",
          "name:pnt": "Εσθονία",
          "name:rmy": "Estoniya",
          "name:rue": "Естонія",
          "name:sah": "Эстония",
          "name:scn": "Estonia",
          "name:sco": "Estonie",
          "name:smn": "Eesti",
          "name:sms": "Eestijânnam",
          "name:stq": "Estlound",
          "name:szl": "Estōnijŏ",
          "name:tet": "Estónia",
          "name:tok": "ma Esi",
          "name:tpi": "Estonia",
          "name:tzl": "Estognh",
          "name:udm": "Эстония",
          "name:vec": "Estonia",
          "name:vep": "Estinma",
          "name:vls": "Estland",
          "name:vro": "Eesti",
          "name:war": "Estonya",
          "name:wuu": "爱沙尼亚",
          "name:xal": "Эстдин Орн",
          "name:xmf": "ესტონეთი",
          "name:yue": "愛沙尼亞",
          "name:zea": "Estland",
          "ref:nuts": "EE0;EE00",
          "timezone": "Europe/Tallinn",
          "way_area": "10.9141",
          "wikidata": "Q191",
          "ISO3166-1": "EE",
          "wikipedia": "et:Eesti",
          "ref:nuts:1": "EE0",
          "ref:nuts:2": "EE00",
          "admin_level": "2",
          "alt_name:eo": "Estonujo",
          "alt_name:pt": "Estônia",
          "name:nds-nl": "Estlaand",
          "name:bat-smg": "Estėjė",
          "name:roa-rup": "Estonia",
          "name:zh-Hans": "爱沙尼亚",
          "name:zh-Hant": "愛沙尼亞",
          "name:roa-tara": "Estonie",
          "official_name": "Eesti Vabariik",
          "name:be-tarask": "Эстонія",
          "ISO3166-1:alpha2": "EE",
          "ISO3166-1:alpha3": "EST",
          "default_language": "et",
          "official_name:be": "Эстонская Рэспубліка",
          "official_name:cs": "Estonská republika",
          "official_name:el": "Δημοκρατία της Εσθονίας",
          "official_name:eo": "Respubliko Estonio",
          "official_name:pt": "República da Estónia",
          "ISO3166-1:numeric": "233",
          "official_name:be-tarask": "Эстонская Рэспубліка"
        }
      },
      "geometry": {
        "type": "Polygon",
        "coordinates": [
          [
            [
              28,
              59.27699411983347
            ],
            [
              28.0048995,
              59.2778759
            ],
            [
              28.0097998,
              59.2803159
            ],
            [
              28.0195399,
              59.2856954
            ],
            [
              28.0264073,
              59.2874833
            ],
            [
              28.0329096,
              59.2885866
            ],
            [
              28.0474285,
              59.2905121
            ],
            [
              28.0537171,
              59.2908386
            ],
            [
              28.0653262,
              59.2906105
            ],
            [
              28.0699775,
              59.2911178
            ],
            [
              28.0786828,
              59.2915757
            ],
            [
              28.0845258,
              59.2916746
            ],
            [
              28.090214,
              59.2922244
            ],
            [
              28.1083952,
              59.2924796
            ],
            [
              28.114596,
              59.2910678
            ],
            [
              28.119963,
              59.2904544
            ],
            [
              28.1295321,
              59.2909405
            ],
            [
              28.1326772,
              59.2923775
            ],
            [
              28.1346999,
              59.2941499
            ],
            [
              28.1370036,
              59.2970456
            ],
            [
              28.141678,
              59.300566
            ],
            [
              28.1460605,
              59.3042638
            ],
            [
              28.1507288,
              59.3085768
            ],
            [
              28.1537626,
              59.312085
            ],
            [
              28.1643125,
              59.3272393
            ],
            [
              28.1678373,
              59.3337932
            ],
            [
              28.1699155,
              59.3352292
            ],
            [
              28.174273,
              59.337537
            ],
            [
              28.1852806,
              59.3423255
            ],
            [
              28.1892628,
              59.3446252
            ],
            [
              28.1919053,
              59.3471822
            ],
            [
              28.1907321,
              59.3523505
            ],
            [
              28.1910395,
              59.3528382
            ],
            [
              28.1949994,
              59.3539292
            ],
            [
              28.1987867,
              59.3559919
            ],
            [
              28.2003286,
              59.3575144
            ],
            [
              28.2004367,
              59.3583061
            ],
            [
              28.1991805,
              59.3607223
            ],
            [
              28.19914,
              59.3611559
            ],
            [
              28.2020669,
              59.3628055
            ],
            [
              28.2049368,
              59.363947
            ],
            [
              28.205799,
              59.3641364
            ],
            [
              28.2060321,
              59.3645855
            ],
            [
              28.2056171,
              59.3665464
            ],
            [
              28.2058961,
              59.3670493
            ],
            [
              28.2090157,
              59.3693363
            ],
            [
              28.2100175,
              59.3703677
            ],
            [
              28.209824,
              59.3713864
            ],
            [
              28.2085324,
              59.3722912
            ],
            [
              28.2033007,
              59.3743212
            ],
            [
              28.2029865,
              59.3748973
            ],
            [
              28.2040966,
              59.376843
            ],
            [
              28.2055624,
              59.3780417
            ],
            [
              28.2075705,
              59.379073
            ],
            [
              28.2085318,
              59.3800964
            ],
            [
              28.209175,
              59.3814178
            ],
            [
              28.2085688,
              59.3837441
            ],
            [
              28.2035991,
              59.3888328
            ],
            [
              28.199383,
              59.3923553
            ],
            [
              28.1977903,
              59.3943158
            ],
            [
              28.1955729,
              59.3976375
            ],
            [
              28.1912255,
              59.4006452
            ],
            [
              28.1827482,
              59.4032451
            ],
            [
              28.1756111,
              59.4052341
            ],
            [
              28.1710937,
              59.4073616
            ],
            [
              28.1650852,
              59.4115924
            ],
            [
              28.1479438,
              59.41601
            ],
            [
              28.1416211,
              59.4180868
            ],
            [
              28.1390521,
              59.4193866
            ],
            [
              28.1371253,
              59.4211424
            ],
            [
              28.1351557,
              59.4240466
            ],
            [
              28.1334371,
              59.4275344
            ],
            [
              28.129927,
              59.4317964
            ],
            [
              28.1236403,
              59.4375709
            ],
            [
              28.1190421,
              59.4407724
            ],
            [
              28.0918846,
              59.4557513
            ],
            [
              28.0840539,
              59.4590616
            ],
            [
              28.0770607,
              59.4607494
            ],
            [
              28.0706333,
              59.4615372
            ],
            [
              28.0652047,
              59.4618374
            ],
            [
              28.0584635,
              59.4616845
            ],
            [
              28.0530838,
              59.4623978
            ],
            [
              28.0481359,
              59.4646127
            ],
            [
              28.0460712,
              59.4668094
            ],
            [
              28.045037,
              59.468215
            ],
            [
              28.0407667,
              59.4746834
            ],
            [
              28,
              59.48038187699604
            ],
            [
              28,
              59.27699411983347
            ]
          ]
        ]
      }
    },
    {
      "type": "Feature",
      "properties": {
        "osm_id": -60189,
        "boundary": "administrative",
        "admin_level": 2,
        "parents": null,
        "name": "Russia",
        "local_name": "Россия",
        "name_en": "Russia",
        "all_tags": {
          "flag": "https://upload.wikimedia.org/wikipedia/commons/f/f3/Flag_of_Russia.svg",
          "name": "Россия",
          "int_ref": "RU",
          "name:ab": "Урыстәыла",
          "name:af": "Rusland",
          "name:ak": "Russia",
          "name:am": "ሩሲያ",
          "name:an": "Rusia",
          "name:ar": "روسيا",
          "name:as": "ৰুশিযা",
          "name:av": "Россиялъул Федерация",
          "name:ay": "Rusiya",
          "name:az": "Rusiya",
          "name:ba": "Рәсәй",
          "name:be": "Расія",
          "name:bg": "Русия",
          "name:bi": "Rusia",
          "name:bm": "Risila",
          "name:bn": "রাশিয়া",
          "name:bo": "ཨུ་རུ་སུ།",
          "name:br": "Rusia",
          "name:bs": "Rusija",
          "name:ca": "Rússia",
          "name:ce": "Росси",
          "name:ch": "Russia",
          "name:co": "Russia",
          "name:cs": "Rusko",
          "name:cu": "Рѡсїꙗ",
          "name:cv": "Раççей Патшалăхĕ",
          "name:cy": "Rwsia",
          "name:da": "Rusland",
          "name:de": "Russland",
          "name:dv": "ރޫސީވިލާތް",
          "name:dz": "ར་ཤི་ཡཱན་ཕེ་ཌི་རེ་ཤཱན",
          "name:ee": "Russia",
          "name:el": "Ρωσία",
          "name:en": "Russia",
          "name:eo": "Rusio",
          "name:es": "Rusia",
          "name:et": "Venemaa",
          "name:eu": "Errusia",
          "name:fa": "روسیه",
          "name:ff": "Roosiya",
          "name:fi": "Venäjä",
          "name:fo": "Russland",
          "name:fr": "Russie",
          "name:fy": "Ruslân",
          "name:ga": "An Rúis",
          "name:gd": "An Ruis",
          "name:gl": "Rusia",
          "name:gn": "Rrúsia",
          "name:gu": "રશિયા",
          "name:gv": "Yn Roosh",
          "name:ha": "Rasha",
          "name:he": "רוסיה",
          "name:hi": "रूस",
          "name:hr": "Ruska Federacija",
          "name:ht": "Risi",
          "name:hu": "Oroszország",
          "name:hy": "Ռուսաստան",
          "name:ia": "Russia",
          "name:id": "Rusia",
          "name:ie": "Russia",
          "name:ig": "Mpaghara Russia",
          "name:ik": "Russia",
          "name:io": "Rusia",
          "name:is": "Rússland",
          "name:it": "Russia",
          "name:iu": "ᐅᓛᓴ",
          "name:ja": "ロシア",
          "name:jv": "Rusia",
          "name:ka": "რუსეთი",
          "name:kg": "Rusia",
          "name:ki": "Russia",
          "name:kk": "Ресей",
          "name:kl": "Ruslandi",
          "name:km": "រុស្ស៊ី",
          "name:kn": "ರಷ್ಯಾ",
          "name:ko": "러시아",
          "name:ks": "روٗس",
          "name:ku": "Rûsya",
          "name:kv": "Рочму",
          "name:kw": "Russi",
          "name:ky": "Орусия",
          "name:la": "Russia",
          "name:lb": "Russland",
          "name:lg": "Rwasha",
          "name:li": "Rusland",
          "name:ln": "Rusí",
          "name:lo": "ລັດເຊັຽ",
          "name:lt": "Rusija",
          "name:lv": "Krievija",
          "name:mg": "Rosia",
          "name:mi": "Ruhia",
          "name:mk": "Русија",
          "name:ml": "റഷ്യ",
          "name:mn": "Оросын Холбооны Улс",
          "name:mo": "Русия",
          "name:mr": "रशिया",
          "name:ms": "Rusia",
          "name:mt": "Russja",
          "name:my": "ရုရှားနိုင်ငံ",
          "name:na": "Ratsiya",
          "name:ne": "रुस",
          "name:nl": "Rusland",
          "name:nn": "Russland",
          "name:no": "Russland",
          "name:nv": "Biʼééʼ Łichííʼí Bikéyah",
          "name:ny": "Russia",
          "name:oc": "Russia",
          "name:om": "Raashiyaa",
          "name:or": "ଋଷିଆ",
          "name:os": "Уæрæсе",
          "name:pa": "ਰੂਸ",
          "name:pl": "Rosja",
          "name:ps": "روسیه",
          "name:pt": "Rússia",
          "name:qu": "Rusiya",
          "name:rm": "Russia",
          "name:rn": "Uburusiya",
          "name:ro": "Rusia",
          "name:ru": "Россия",
          "name:rw": "Uburusiya",
          "name:sc": "Rùssia",
          "name:sd": "روس",
          "name:se": "Ruošša",
          "name:sg": "Rusïi",
          "name:sh": "Rusija",
          "name:si": "රුසියාව",
          "name:sk": "Rusko",
          "name:sl": "Rusija",
          "name:sm": "Lusia",
          "name:sn": "Russia",
          "name:so": "Ruushka",
          "name:sq": "Rusia",
          "name:sr": "Русија",
          "name:ss": "IRashiya",
          "name:st": "Russia",
          "name:su": "Rusia",
          "name:sv": "Ryssland",
          "name:sw": "Shirikisho la Urusi",
          "name:ta": "உருசியா",
          "name:te": "రష్యా",
          "name:tg": "Русия",
          "name:th": "ประเทศรัสเซีย",
          "name:ti": "ራሻ",
          "name:tk": "Russiýa",
          "name:tl": "Pederasyong Ruso",
          "name:to": "Lūsia",
          "name:tr": "Rusya Federasyonu",
          "name:ts": "Russia",
          "name:tt": "Русия",
          "name:tw": "Russia",
          "name:ty": "Rūtia",
          "name:ug": "روسىيە",
          "name:uk": "Росія",
          "name:ur": "روس",
          "name:uz": "Rossiya Federatsiyasi",
          "name:ve": "Rashia",
          "name:vi": "Liên bang Nga",
          "name:vo": "Rusän",
          "name:wa": "Federåcion d' Rûsseye",
          "name:wo": "Federaasioŋ bu Riisi",
          "name:xh": "IRashiya",
          "name:yi": "רוסלאנד",
          "name:yo": "Rọ́síà",
          "name:za": "Ezlozswh Lienzbangh",
          "name:zh": "俄罗斯",
          "name:zu": "IRashiya",
          "boundary": "administrative",
          "currency": "RUB",
          "int_name": "Russia",
          "name:ace": "Rusia",
          "name:als": "Russland",
          "name:ang": "Russland",
          "name:arc": "ܪܘܣܝܐ",
          "name:arz": "روسيا",
          "name:ast": "Rusia",
          "name:bar": "Russland",
          "name:bcl": "Rusya",
          "name:bjn": "Rusia",
          "name:bpy": "রাশিয়া",
          "name:bug": "Russia",
          "name:bxr": "Ородой Холбооной Улас",
          "name:cdo": "Ngò̤-lò̤-sṳ̆",
          "name:ceb": "Rusya",
          "name:chr": "ᏲᏂᏱ",
          "name:chy": "Russia",
          "name:ckb": "ڕووسیا",
          "name:crh": "Rusiye",
          "name:csb": "Ruskô",
          "name:diq": "Rusya",
          "name:dsb": "Rusojska",
          "name:eml": "Rossia",
          "name:ext": "Russia",
          "name:frp": "Russie",
          "name:frr": "Ruslönj",
          "name:fur": "Russie",
          "name:gag": "Rusiya",
          "name:gan": "俄羅斯",
          "name:hak": "Ngò-lò-sṳ̂",
          "name:haw": "Rūsia",
          "name:hif": "Russia",
          "name:hsb": "Ruska federacija",
          "name:ilo": "Rusia",
          "name:jbo": "rukygu'e",
          "name:kaa": "Rossiya",
          "name:kab": "Rrus",
          "name:kbd": "Урысей",
          "name:koi": "Рочму",
          "name:krc": "Россия Федерация",
          "name:lad": "Rusia",
          "name:lbe": "Аьрасат",
          "name:lez": "Урусат",
          "name:lij": "Ruscia",
          "name:lmo": "Rüssia",
          "name:ltg": "Krīveja",
          "name:lzh": "俄羅斯",
          "name:mdf": "Рузмастор",
          "name:mhr": "Россий",
          "name:min": "Rusia",
          "name:mrj": "Россий",
          "name:mwl": "Rússia",
          "name:myv": "Россия Мастор",
          "name:mzn": "ئوروسیا",
          "name:nah": "Rusia",
          "name:nan": "Lō͘-se-a",
          "name:nap": "Russia",
          "name:nds": "Russ'sche Föderatschoon",
          "name:new": "रुस",
          "name:nov": "Rusia",
          "name:nrm": "Russie",
          "name:nso": "Russia",
          "name:pag": "Rusia",
          "name:pam": "Rusia",
          "name:pap": "Rusia",
          "name:pcd": "Russie",
          "name:pdc": "Russland",
          "name:pfl": "Russlond",
          "name:pih": "Rusha",
          "name:pms": "Russia",
          "name:pnb": "روس",
          "name:pnt": "Ρουσία",
          "name:rmy": "Rusiya",
          "name:rue": "Росія",
          "name:sah": "Арассыыйа",
          "name:scn": "Russia",
          "name:sco": "Roushie",
          "name:smn": "Ruoššâ",
          "name:sms": "Ruõššjânnam",
          "name:srn": "Rusland",
          "name:stq": "Ruslound",
          "name:szl": "Rusyjŏ",
          "name:tet": "Rúsia",
          "name:tok": "ma Losi",
          "name:tpi": "Rasia",
          "name:tum": "Russia",
          "name:tzl": "Rußía",
          "name:udm": "Россия",
          "name:vec": "Rusia",
          "name:vep": "Venäma",
          "name:vls": "Rusland",
          "name:vro": "Vinnemaa",
          "name:war": "Rusya",
          "name:wuu": "俄罗斯",
          "name:xal": "Орсн Орн Нутг",
          "name:xmf": "რუსეთი",
          "name:yue": "俄羅斯",
          "name:zea": "Rusland",
          "old_name": "Московия;Русское Царство;Российская Империя;Российская Советская Федеративная Социалистическая Республика",
          "way_area": "3241.56",
          "wikidata": "Q159",
          "ISO3166-1": "RU",
          "wikipedia": "ru:Россия",
          "name:UN:ar": "الاتحاد الروسي",
          "name:UN:en": "Russian Federation (the)",
          "name:UN:es": "Federación de Rusia (la)",
          "name:UN:fr": "Fédération de Russie (la)",
          "name:UN:ru": "Российская Федерация",
          "name:UN:zh": "俄罗斯联邦",
          "population": "146447424",
          "short_name": "РФ",
          "admin_level": "2",
          "alt_name:eo": "Rusujo;Ruslando",
          "border_type": "nation",
          "name:nds-nl": "Ruslaand",
          "name:bat-smg": "Rosėjė",
          "name:cbk-zam": "Rusia",
          "name:map-bms": "Rusia",
          "name:roa-rup": "Arusia",
          "name:zh-Hans": "俄罗斯",
          "name:zh-Hant": "俄羅斯",
          "name:roa-tara": "Russie",
          "official_name": "Российская Федерация",
          "short_name:ru": "РФ",
          "name:be-tarask": "Расея",
          "old_short_name": "РСФСР",
          "according_to:RU": "yes",
          "according_to:UA": "no",
          "population:date": "2023-01-01",
          "ISO3166-1:alpha2": "RU",
          "ISO3166-1:alpha3": "RUS",
          "default_language": "ru",
          "official_name:ar": "الاتحاد الروسي",
          "official_name:be": "Расійская Федэрацыя",
          "official_name:cs": "Ruská federace",
          "official_name:de": "Russische Föderation",
          "official_name:en": "Russian Federation",
          "official_name:eo": "Rusa Federacio",
          "official_name:es": "Federación Rusa",
          "official_name:et": "Venemaa Föderatsioon",
          "official_name:fi": "Venäjän Federaatio",
          "official_name:fr": "Fédération de Russie",
          "official_name:nl": "Russische Federatie",
          "official_name:pl": "Federacja Rosyjska",
          "official_name:pt": "Federação Russa",
          "official_name:ru": "Российская Федерация",
          "official_name:sk": "Ruská federácia",
          "official_name:sl": "Ruska federacija",
          "official_name:sv": "Ryska Federationen",
          "official_name:uk": "Російська Федерація",
          "official_name:yi": "רוסישע פֿעדעראַציע",
          "official_name:zh": "俄罗斯联邦",
          "ISO3166-1:numeric": "643",
          "official_name:ast": "Federación Rusa",
          "old_short_name:en": "RSFSR",
          "old_short_name:ru": "РСФСР",
          "official_name:zh-Hans": "俄罗斯联邦",
          "official_name:zh-Hant": "俄羅斯聯邦"
        }
      },
      "geometry": {
        "type": "Polygon",
        "coordinates": [
          [
            [
              28,
              59
            ],
            [
              29,
              59
            ],
            [
              29,
              60
            ],
            [
              28,
              60
            ],
            [
              28,
              59.48038187699604
            ],
            [
              28.0407667,
              59.4746834
            ],
            [
              28.045037,
              59.468215
            ],
            [
              28.0460712,
              59.4668094
            ],
            [
              28.0481359,
              59.4646127
            ],
            [
              28.0530838,
              59.4623978
            ],
            [
              28.0584635,
              59.4616845
            ],
            [
              28.0652047,
              59.4618374
            ],
            [
              28.0706333,
              59.4615372
            ],
            [
              28.0770607,
              59.4607494
            ],
            [
              28.0840539,
              59.4590616
            ],
            [
              28.0918846,
              59.4557513
            ],
            [
              28.1190421,
              59.4407724
            ],
            [
              28.1236403,
              59.4375709
            ],
            [
              28.129927,
              59.4317964
            ],
            [
              28.1334371,
              59.4275344
            ],
            [
              28.1351557,
              59.4240466
            ],
            [
              28.1371253,
              59.4211424
            ],
            [
              28.1390521,
              59.4193866
            ],
            [
              28.1416211,
              59.4180868
            ],
            [
              28.1479438,
              59.41601
            ],
            [
              28.1650852,
              59.4115924
            ],
            [
              28.1710937,
              59.4073616
            ],
            [
              28.1756111,
              59.4052341
            ],
            [
              28.1827482,
              59.4032451
            ],
            [
              28.1912255,
              59.4006452
            ],
            [
              28.1955729,
              59.3976375
            ],
            [
              28.1977903,
              59.3943158
            ],
            [
              28.199383,
              59.3923553
            ],
            [
              28.2035991,
              59.3888328
            ],
            [
              28.2085688,
              59.3837441
            ],
            [
              28.209175,
              59.3814178
            ],
            [
              28.2085318,
              59.3800964
            ],
            [
              28.2075705,
              59.379073
            ],
            [
              28.2055624,
              59.3780417
            ],
            [
              28.2040966,
              59.376843
            ],
            [
              28.2029865,
              59.3748973
            ],
            [
              28.2033007,
              59.3743212
            ],
            [
              28.2085324,
              59.3722912
            ],
            [
              28.209824,
              59.3713864
            ],
            [
              28.2100175,
              59.3703677
            ],
            [
              28.2090157,
              59.3693363
            ],
            [
              28.2058961,
              59.3670493
            ],
            [
              28.2056171,
              59.3665464
            ],
            [
              28.2060321,
              59.3645855
            ],
            [
              28.205799,
              59.3641364
            ],
            [
              28.2049368,
              59.363947
            ],
            [
              28.2020669,
              59.3628055
            ],
            [
              28.19914,
              59.3611559
            ],
            [
              28.1991805,
              59.3607223
            ],
            [
              28.2004367,
              59.3583061
            ],
            [
              28.2003286,
              59.3575144
            ],
            [
              28.1987867,
              59.3559919
            ],
            [
              28.1949994,
              59.3539292
            ],
            [
              28.1910395,
              59.3528382
            ],
            [
              28.1907321,
              59.3523505
            ],
            [
              28.1919053,
              59.3471822
            ],
            [
              28.1892628,
              59.3446252
            ],
            [
              28.1852806,
              59.3423255
            ],
            [
              28.174273,
              59.337537
            ],
            [
              28.1699155,
              59.3352292
            ],
            [
              28.1678373,
              59.3337932
            ],
            [
              28.1643125,
              59.3272393
            ],
            [
              28.1537626,
              59.312085
            ],
            [
              28.1507288,
              59.3085768
            ],
            [
              28.1460605,
              59.3042638
            ],
            [
              28.141678,
              59.300566
            ],
            [
              28.1370036,
              59.2970456
            ],
            [
              28.1346999,
              59.2941499
            ],
            [
              28.1326772,
              59.2923775
            ],
            [
              28.1295321,
              59.2909405
            ],
            [
              28.119963,
              59.2904544
            ],
            [
              28.114596,
              59.2910678
            ],
            [
              28.1083952,
              59.2924796
            ],
            [
              28.090214,
              59.2922244
            ],
            [
              28.0845258,
              59.2916746
            ],
            [
              28.0786828,
              59.2915757
            ],
            [
              28.0699775,
              59.2911178
            ],
            [
              28.0653262,
              59.2906105
            ],
            [
              28.0537171,
              59.2908386
            ],
            [
              28.0474285,
              59.2905121
            ],
            [
              28.0329096,
              59.2885866
            ],
            [
              28.0264073,
              59.2874833
            ],
            [
              28.0195399,
              59.2856954
            ],
            [
              28.0097998,
              59.2803159
            ],
            [
              28.0048995,
              59.2778759
            ],
            [
              28,
              59.27699411983347
            ],
            [
              28,
              59
            ]
          ]
        ]
      }
    }
  ]
}