{
  "type": "FeatureCollection",
  "features": [
    {
      "type": "Feature",
      "properties": {
        "osm_id": -287667,
        "boundary": "administrative",
        "admin_level": 2,
        "parents": null,
        "name": "Costa Rica",
        "local_name": "Costa Rica",
        "name_en": "Costa Rica",
        "all_tags": {
          "flag": "http://upload.wikimedia.org/wikipedia/commons/f/f2/Flag_of_Costa_Rica.svg",
          "name": "Costa Rica",
          "name:ab": "Коста-Рика",
          "name:af": "Costa Rica",
          "name:am": "ኮስታ ሪካ",
          "name:an": "Costa Rica",
          "name:ar": "كوستاريكا",
          "name:ay": "Kustarika",
          "name:az": "Kosta-Rika",
          "name:ba": "Коста-Рика",
          "name:be": "Коста-Рыка",
          "name:bg": "Коста Рика",
          "name:bh": "कोस्टा रिका",
          "name:bm": "Kosta Rika",
          "name:bn": "কোস্টা রিকা",
          "name:bo": "ཁོ་ས་ཏ་རི་ཁ",
          "name:br": "Costa Rica",
          "name:bs": "Kostarika",
          "name:ca": "Costa Rica",
          "name:ce": "Коста-Рика",
          "name:cs": "Kostarika",
          "name:cy": "Costa Rica",
          "name:da": "Costa Rica",
          "name:de": "Costa Rica",
          "name:dv": "ކޮސްޓަރީކާ",
          "name:ee": "Costa Rica",
          "name:el": "Κόστα Ρίκα",
          "name:en": "Costa Rica",
          "name:eo": "Kostariko",
          "name:es": "Costa Rica",
          "name:et": "Costa Rica",
          "name:eu": "Costa Rica",
          "name:fa": "کاستاریکا",
          "name:fi": "Costa Rica",
          "name:fo": "Kosta Rika",
          "name:fr": "Costa Rica",
          "name:fy": "Kosta Rika",
          "name:ga": "Cósta Ríce",
          "name:gd": "Costa Rica",
          "name:gl": "Costa Rica",
          "name:gn": "Kosta Rrika",
          "name:gv": "Yn Coose Berçhagh",
          "name:he": "קוסטה ריקה",
          "name:hi": "कोस्टा रीका",
          "name:hr": "Kostarika",
          "name:ht": "Kostarika",
          "name:hu": "Costa Rica",
          "name:hy": "Կոստա Ռիկա",
          "name:ia": "Costa Rica",
          "name:id": "Kosta Rika",
          "name:ie": "Costa Rica",
          "name:io": "Kosta Rika",
          "name:is": "Kosta Ríka",
          "name:it": "Costa Rica",
          "name:ja": "コスタリカ",
          "name:jv": "Kosta Rika",
          "name:ka": "კოსტა-რიკა",
          "name:kk": "Коста-Рика",
          "name:kn": "ಕೋಸ್ಟಾ ರಿಕ",
          "name:ko": "코스타리카",
          "name:ku": "Kosta Rîka",
          "name:kv": "Коста-Рика",
          "name:kw": "Kosta Rika",
          "name:ky": "Коста-Рика",
          "name:la": "Ora Opulenta",
          "name:lb": "Costa Rica",
          "name:li": "Costa Rica",
          "name:ln": "Kosta Rika",
          "name:lo": "ປະເທດກົດສະຕາລິກາ",
          "name:lt": "Kosta Rika",
          "name:lv": "Kostarika",
          "name:mg": "Costa Rica",
          "name:mi": "Koto Rika",
          "name:mk": "Костарика",
          "name:ml": "കോസ്റ്റ റീക്ക",
          "name:mn": "Коста-Рика",
          "name:mr": "कोस्टा रिका",
          "name:ms": "Costa Rica",
          "name:mt": "Kosta Rika",
          "name:my": "ကော့စတာရီကာနိုင်ငံ",
          "name:na": "Kosta Rika",
          "name:ne": "कोस्टारिका",
          "name:nl": "Costa Rica",
          "name:nn": "Costa Rica",
          "name:no": "Costa Rica",
          "name:oc": "Còsta Rica",
          "name:om": "Kostaa Rikaa",
          "name:or": "କୋଷ୍ଟାରିକା",
          "name:os": "Коста-Рикæ",
          "name:pa": "ਕੋਸਤਾ ਰੀਕਾ",
          "name:pi": "कोस्टा रीका",
          "name:pl": "Kostaryka",
          "name:ps": "کوسټاریکا",
          "name:pt": "Costa Rica",
          "name:qu": "Kustarika",
          "name:ro": "Costa Rica",
          "name:ru": "Коста-Рика",
          "name:rw": "Kosita Rika",
          "name:sa": "कोस्टा रीका",
          "name:se": "Costa Rica",
          "name:sh": "Kostarika",
          "name:si": "කෝස්ට රිකා",
          "name:sk": "Kostarika",
          "name:sl": "Kostarika",
          "name:sm": "Kosta Rika",
          "name:so": "Kosta Rika",
          "name:sq": "Kosta Rika",
          "name:sr": "Костарика",
          "name:ss": "IKhosta-Likha",
          "name:su": "Kosta Rika",
          "name:sv": "Costa Rica",
          "name:sw": "Kosta Rika",
          "name:ta": "கோஸ்ட்டா ரிக்கா",
          "name:te": "కోస్టారీకా",
          "name:tg": "Коста Рика",
          "name:th": "ประเทศคอสตาริกา",
          "name:tk": "Kosta-Rika",
          "name:tl": "Costa Rica",
          "name:tr": "Kosta Rika",
          "name:tt": "Коста-Рика",
          "name:ug": "كوستارىكا",
          "name:uk": "Коста-Рика",
          "name:ur": "کوسٹاریکا",
          "name:uz": "Kosta Rika",
          "name:vi": "Costa Rica",
          "name:vo": "Kostarikän",
          "name:wa": "Costa Rica",
          "name:wo": "Kosta Riika",
          "name:yi": "קאסטא ריקא",
          "name:yo": "Kóstá Rikà",
          "name:zh": "哥斯达黎加 / 哥斯大黎加",
          "name:zu": "Costa Rica",
          "boundary": "administrative",
          "name:ace": "Kosta Rika",
          "name:als": "Costa Rica",
          "name:arz": "كوستا ريكا",
          "name:ast": "Costa Rica",
          "name:bcl": "Kosta Rika",
          "name:bpy": "কোস্টা রিকা",
          "name:bxr": "Коста-Рика",
          "name:ceb": "Costa Rica",
          "name:ckb": "کۆستاریکا",
          "name:crh": "Kosta Rika",
          "name:diq": "Kosta Rika",
          "name:dsb": "Kosta Rika",
          "name:ext": "Costa Rica",
          "name:frp": "Costa Rica",
          "name:frr": "Costa Rica",
          "name:gag": "Kosta Rika",
          "name:hak": "Kô-sṳ̂-tha̍t Lì-kâ",
          "name:hif": "Costa Rica",
          "name:hsb": "Kosta Rika",
          "name:ilo": "Costa Rica",
          "name:jbo": "kostarikas",
          "name:lij": "Còsta Rica",
          "name:lmo": "Costa Rica",
          "name:lzh": "哥斯大黎加",
          "name:mhr": "Коста-Рика",
          "name:mrj": "Коста-Рика",
          "name:nah": "Costa Rica",
          "name:nan": "Costa Rica",
          "name:nds": "Costa Rica",
          "name:new": "कोस्टा रिका",
          "name:nov": "Kosta Rika",
          "name:pam": "Costa Rica",
          "name:pap": "Costa Rica",
          "name:pms": "Còsta Rica",
          "name:pnb": "کوسٹا ریکا",
          "name:sah": "Коста Рика",
          "name:scn": "Costa Rica",
          "name:sco": "Costa Rica",
          "name:smn": "Costa Rica",
          "name:sms": "Costa Rica",
          "name:tok": "ma Kosalika",
          "name:tzl": "Costa Rica",
          "name:vec": "Costa Rica",
          "name:vro": "Costa Rica",
          "name:war": "Costa Rica",
          "name:xal": "Костарикмудин Орн",
          "name:yue": "哥斯達黎加",
          "name:zea": "Costa Rica",
          "timezone": "America/Costa_Rica",
          "way_area": "6.80511",
          "wikidata": "Q800",
          "ISO3166-1": "CR",
          "wikipedia": "es:Costa Rica",
          "name:zh-HK": "哥斯達黎加",
          "name:zh-TW": "哥斯大黎加",
          "admin_level": "2",
          "border_type": "nation",
          "name:simple": "Costa Rica",
          "name:bat-smg": "Kuosta Rėka",
          "name:roa-rup": "Costa Rica",
          "name:zh-Hans": "哥斯达黎加",
          "name:zh-Hant": "哥斯達黎加 / 哥斯大黎加",
          "name:be-tarask": "Коста-Рыка",
          "ISO3166-1:alpha2": "CR",
          "ISO3166-1:alpha3": "CRI",
          "default_language": "es",
          "official_name:cs": "Kostarická republika",
          "official_name:de": "Republik Costa Rica",
          "official_name:en": "Republic of Costa Rica",
          "official_name:es": "República de Costa Rica",
          "official_name:pl": "Republika Kostaryki",
          "official_name:ru": "Республика Коста-Рика",
          "ISO3166-1:numeric": "188"
        }
      },
      "geometry": {
        "type": "Polygon",
        "coordinates": [
          [
            [
              -83.68758039312947,
              11
            ],
            [
              -83.4560589596736,
              11
            ],
            [
              -83.4606799,
              11.0073512
            ],
            [
              -83.4656885,
              11.0145934
            ],
            [
              -83.4710123,
              11.0216128
            ],
            [
              -83.4752135,
              11.0267506
            ],
            [
              -83.4795667,
              11.031695
            ],
            [
              -83.485633,
              11.0380998
            ],
            [
              -83.4919766,
              11.0442369
            ],
            [
              -83.5002867,
              11.0515374
            ],
            [
              -83.5055711,
              11.0557576
            ],
            [
              -83.512847,
              11.0611391
            ],
            [
              -83.5193243,
              11.0655587
            ],
            [
              -83.5272679,
              11.0740793
            ],
            [
              -83.5368847,
              11.083181
            ],
            [
              -83.5461915,
              11.0909499
            ],
            [
              -83.555028,
              11.0975056
            ],
            [
              -83.5657702,
              11.1045484
            ],
            [
              -83.5736919,
              11.1092799
            ],
            [
              -83.5795043,
              11.1124586
            ],
            [
              -83.5874252,
              11.116426
            ],
            [
              -83.5955138,
              11.1200481
            ],
            [
              -83.603755,
              11.1233182
            ],
            [
              -83.6082175,
              11.1249164
            ],
            [
              -83.6188889,
              11.1129722
            ],
            [
              -83.6239722,
              11.1068889
            ],
            [
              -83.6285,
              11.1011389
            ],
            [
              -83.6521389,
              11.0696944
            ],
            [
              -83.6626667,
              11.0539722
            ],
            [
              -83.6682222,
              11.0451944
            ],
            [
              -83.6806667,
              11.0273889
            ],
            [
              -83.68758039312947,
              11
            ]
          ]
        ]
      }
    },
    {
      "type": "Feature",
      "properties": {
        "osm_id": -287666,
        "boundary": "administrative",
        "admin_level": 2,
        "parents": null,
        "name": "Nicaragua",
        "local_name": "Nicaragua",
        "name_en": "Nicaragua",
        "all_tags": {
          "flag": "http://upload.wikimedia.org/wikipedia/commons/1/19/Flag_of_Nicaragua.svg",
          "name": "Nicaragua",
          "name:af": "Nicaragua",
          "name:am": "ኒካራጓ",
          "name:an": "Nicaragua",
          "name:ar": "نيكاراجوا",
          "name:ay": "Nikarwa",
          "name:az": "Nikaraqua",
          "name:ba": "Никарагуа",
          "name:be": "Нікарагуа",
          "name:bg": "Никарагуа",
          "name:bm": "Nikaragwa",
          "name:bn": "নিকারাগুয়া",
          "name:bo": "ནི་ཀ་ར་གུ་ཝ།",
          "name:br": "Nicaragua",
          "name:bs": "Nikaragva",
          "name:ca": "Nicaragua",
          "name:ce": "Никарагуа",
          "name:cs": "Nikaragua",
          "name:cy": "Nicaragua",
          "name:da": "Nicaragua",
          "name:de": "Nicaragua",
          "name:dv": "ނިކަރާގުއާ",
          "name:ee": "Nicaragua",
          "name:el": "Νικαράγουα",
          "name:en": "Nicaragua",
          "name:eo": "Nikaragvo",
          "name:es": "Nicaragua",
          "name:et": "Nicaragua",
          "name:eu": "Nikaragua",
          "name:fa": "نیکاراگوئه",
          "name:fi": "Nicaragua",
          "name:fo": "Nikaragua",
          "name:fr": "Nicaragua",
          "name:fy": "Nikaragûa",
          "name:ga": "Nicearagua",
          "name:gd": "Niocaragua",
          "name:gl": "Nicaragua",
          "name:gn": "Nikaragua",
          "name:gv": "Yn Nickeraag",
          "name:he": "ניקרגואה",
          "name:hi": "निकारागुआ",
          "name:hr": "Nikaragva",
          "name:ht": "Nikaragwa",
          "name:hu": "Nicaragua",
          "name:hy": "Նիկարագուա",
          "name:ia": "Nicaragua",
          "name:id": "Nikaragua",
          "name:ie": "Nicaragua",
          "name:io": "Nikaragua",
          "name:is": "Níkaragva",
          "name:it": "Nicaragua",
          "name:ja": "ニカラグア",
          "name:jv": "Nikaragua",
          "name:ka": "ნიკარაგუა",
          "name:kk": "Никарагуа",
          "name:ko": "니카라과",
          "name:ku": "Nîkaragua",
          "name:kv": "Никарагуа",
          "name:kw": "Nikaragwa",
          "name:la": "Nicaragua",
          "name:lb": "Nicaragua",
          "name:li": "Nicaragua",
          "name:ln": "Nikalagwa",
          "name:lt": "Nikaragva",
          "name:lv": "Nikaragva",
          "name:mg": "Nicaragua",
          "name:mi": "Nikarāhua",
          "name:mk": "Никарагва",
          "name:ml": "നിക്കരാഗ്വ",
          "name:mn": "Никарагуа",
          "name:mr": "निकाराग्वा",
          "name:ms": "Nicaragua",
          "name:mt": "Nikaragwa",
          "name:my": "နီကာရာဂွါနိုင်ငံ",
          "name:ne": "निकाराग्वा",
          "name:nl": "Nicaragua",
          "name:nn": "Nicaragua",
          "name:no": "Nicaragua",
          "name:oc": "Nicaragua",
          "name:or": "ନିକାରାଗୁଆ",
          "name:os": "Никарагуæ",
          "name:pa": "ਨਿਕਾਰਾਗੁਆ",
          "name:pl": "Nikaragua",
          "name:ps": "نیکاراګوا",
          "name:pt": "Nicarágua",
          "name:qu": "Nikarawa",
          "name:ro": "Nicaragua",
          "name:ru": "Никарагуа",
          "name:rw": "Nikaragwa",
          "name:sa": "निकारगुवा",
          "name:se": "Nicaragua",
          "name:sh": "Nikaragva",
          "name:sk": "Nikaragua",
          "name:sl": "Nikaragva",
          "name:so": "Nikaragua",
          "name:sq": "Nikaraguaja",
          "name:sr": "Никарагва",
          "name:ss": "INikhalaga",
          "name:su": "Nikaragua",
          "name:sv": "Nicaragua",
          "name:sw": "Nikaragua",
          "name:ta": "நிக்கராகுவா",
          "name:tg": "Никарагуа",
          "name:th": "ประเทศนิการากัว",
          "name:tl": "Nicaragua",
          "name:tr": "Nikaragua",
          "name:tt": "Никарагуа",
          "name:ug": "نىكاراگۇئا",
          "name:uk": "Нікарагуа",
          "name:ur": "نکاراگوا",
          "name:uz": "Nikaragua",
          "name:vi": "Nicaragua",
          "name:vo": "Nikaraguvän",
          "name:wo": "Nikaraaguwa",
          "name:yi": "ניקאראגוא",
          "name:yo": "Nikarágúà",
          "name:zh": "尼加拉瓜",
          "name:zu": "Nicaragua",
          "boundary": "administrative",
          "name:ace": "Nikaragua",
          "name:als": "Nicaragua",
          "name:arz": "نيكاراجوا",
          "name:ast": "Nicaragua",
          "name:bcl": "Nikaragua",
          "name:bpy": "নিকারাগুয়া",
          "name:bxr": "Никарагуа",
          "name:ceb": "Nicaragua",
          "name:ckb": "نیکاراگوا",
          "name:crh": "Nikaragua",
          "name:diq": "Nikaragua",
          "name:dsb": "Nikaragua",
          "name:ext": "Nicarágua",
          "name:frp": "Nicaragoa",
          "name:frr": "Nikaraagua",
          "name:gag": "Nikaragua",
          "name:hak": "Nì-kâ-lâ-kûa",
          "name:hif": "Nicaragua",
          "name:hsb": "Nikaragua",
          "name:ilo": "Nicaragua",
          "name:jbo": "nikaraguas",
          "name:lij": "Nicaragua",
          "name:lmo": "Nicaragua",
          "name:mhr": "Никарагуа",
          "name:mrj": "Никарагуа",
          "name:nah": "Nicānāhuac",
          "name:nan": "Nicaragua",
          "name:nds": "Nicaragua",
          "name:nov": "Nikaragua",
          "name:pam": "Nicaragua",
          "name:pap": "Nicaragua",
          "name:pms": "Nicaragua",
          "name:sah": "Никарагуа",
          "name:scn": "Nicaragua",
          "name:sco": "Nicaragua",
          "name:smn": "Nicaragua",
          "name:sms": "Nicaragua",
          "name:szl": "Ńikaragua",
          "name:tzl": "Nicaral",
          "name:vec": "Nicaragua",
          "name:vep": "Nikaragua",
          "name:vro": "Nicaragua",
          "name:war": "Nicaragua",
          "name:xal": "Никарагудин Орн",
          "name:yue": "尼加拉瓜",
          "timezone": "America/Managua",
          "way_area": "13.995",
          "wikidata": "Q811",
          "ISO3166-1": "NI",
          "wikipedia": "es:Nicaragua",
          "population": "6393824",
          "admin_level": "2",
          "border_type": "nation",
          "name:simple": "Nicaragua",
          "capital_city": "Managua",
          "name:bat-smg": "Nėkaragva",
          "name:zh-Hans": "尼加拉瓜",
          "name:zh-Hant": "尼加拉瓜",
          "name:be-tarask": "Нікарагуа",
          "ISO3166-1:alpha2": "NI",
          "ISO3166-1:alpha3": "NIC",
          "default_language": "es",
          "official_name:cs": "Nikaragujská republika",
          "official_name:es": "República de Nicaragua",
          "official_name:ru": "Республика Никарагуа",
          "ISO3166-1:numeric": "558",
          "official_name:ckb": "کۆماری نیکاراگوا"
        }
      },
      "geometry": {
        "type": "Polygon",
        "coordinates": [
          [
            [
              -84,
              11
            ],
            [
              -83.68758039312947,
              11
            ],
            [
              -83.6806667,
              11.0273889
            ],
            [
              -83.6682222,
              11.0451944
            ],
            [
              -83.6626667,
              11.0539722
            ],
            [
              -83.6521389,
              11.0696944
            ],
            [
              -83.6285,
              11.1011389
            ],
            [
              -83.6239722,
              11.1068889
            ],
            [
              -83.6188889,
              11.1129722
            ],
            [
              -83.5984722,
              11.1356389
            ],
            [
              -83.49625,
              11.2343611
            ],
            [
              -83.3483889,
              11.2490278
            ],
            [
              -83.27517,
              11.2506194
            ],
            [
              -83,
              11.789555657798589
            ],
            [
              -83,
              12
            ],
            [
              -84,
              12
            ],
            [
              -84,
              11
            ]
          ]
        ]
      }
    }
  ]
}