{
  "type": "FeatureCollection",
  "features": [
    {
      "type": "Feature",
      "properties": {
        "osm_id": -192801,
        "boundary": "administrative",
        "admin_level": 2,
        "parents": null,
        "name": "Djibouti",
        "local_name": "Djibouti جيبوتي",
        "name_en": "Djibouti",
        "all_tags": {
          "flag": "http://upload.wikimedia.org/wikipedia/commons/3/34/Flag_of_Djibouti.svg",
          "name": "Djibouti جيبوتي",
          "name:af": "Djiboeti",
          "name:am": "ጅቡቲ",
          "name:an": "Chibuti",
          "name:ar": "جيبوتي",
          "name:az": "Cibuti",
          "name:ba": "Джибути",
          "name:be": "Джыбуці",
          "name:bg": "Джибути",
          "name:bn": "জিবুতি",
          "name:bo": "ཇི་བའོ་ཊི།",
          "name:br": "Djibouti",
          "name:bs": "Džibuti",
          "name:ca": "Djibouti",
          "name:ce": "Джибути",
          "name:cs": "Džibutsko",
          "name:cv": "Джибути",
          "name:cy": "Djibouti",
          "name:da": "Djibouti",
          "name:de": "Dschibuti",
          "name:dv": "ޖިބުތީ",
          "name:ee": "Djibouti",
          "name:el": "Τζιμπουτί",
          "name:en": "Djibouti",
          "name:eo": "Ĝibutio",
          "name:es": "Yibuti",
          "name:et": "Djibouti",
          "name:eu": "Djibuti",
          "name:fa": "جیبوتی",
          "name:fi": "Djibouti",
          "name:fr": "Djibouti",
          "name:fy": "Dzjibûty",
          "name:ga": "Diobúití",
          "name:gd": "Diobùtaidh",
          "name:gl": "Xibutí",
          "name:gn": "Jimbúti",
          "name:gv": "Djibouti",
          "name:he": "ג'יבוטי",
          "name:hi": "जिबूती",
          "name:hr": "Džibuti",
          "name:ht": "Djibouti",
          "name:hu": "Dzsibuti",
          "name:hy": "Ջիբութի",
          "name:ia": "Djibouti",
          "name:id": "Djibouti",
          "name:ie": "Djibouti",
          "name:io": "Djibuti",
          "name:is": "Djíbútí",
          "name:it": "Gibuti",
          "name:ja": "ジブチ",
          "name:jv": "Djibouti",
          "name:ka": "ჯიბუტი",
          "name:kg": "Djibuti",
          "name:ki": "Djibouti",
          "name:kk": "Джибути",
          "name:ko": "지부티",
          "name:ku": "Cîbûtî",
          "name:kw": "Jibouti",
          "name:la": "Gibutum",
          "name:lb": "Dschibuti",
          "name:li": "Djibouti",
          "name:ln": "Djibuti",
          "name:lt": "Džibutis",
          "name:lv": "Džibutija",
          "name:mg": "Jibotia",
          "name:mi": "Tipūti",
          "name:mk": "Џибути",
          "name:ml": "ജിബൂട്ടി",
          "name:mr": "जिबूती",
          "name:ms": "Djibouti",
          "name:mt": "Ġibuti",
          "name:my": "ဂျီဘူတီနိုင်ငံ",
          "name:na": "Djibuti",
          "name:ne": "जिबुटी",
          "name:nl": "Djibouti",
          "name:nn": "Djibouti",
          "name:no": "Djibouti",
          "name:nv": "Jibótii",
          "name:oc": "Jiboti",
          "name:om": "Jibuutii",
          "name:or": "ଡିଜିବୋଇଟି",
          "name:os": "Джибути",
          "name:pa": "ਜਿਬੂਤੀ",
          "name:pl": "Dżibuti",
          "name:ps": "جېبوتي",
          "name:pt": "Djibouti",
          "name:qu": "Yiwuti",
          "name:ro": "Djibouti",
          "name:ru": "Джибути",
          "name:rw": "Jibuti",
          "name:sa": "जिबूटी",
          "name:sc": "Gibuti",
          "name:se": "Djibouti",
          "name:sg": "Dibutùii",
          "name:sh": "Džibuti",
          "name:sk": "Džibutsko",
          "name:sl": "Džibuti",
          "name:sn": "Djibouti",
          "name:so": "Jabuuti",
          "name:sq": "Xhibuti",
          "name:sr": "Џибути",
          "name:ss": "IJibhuthi",
          "name:su": "Djibouti",
          "name:sv": "Djibouti",
          "name:sw": "Jibuti",
          "name:ta": "சீபூத்தீ",
          "name:te": "జిబౌటి",
          "name:tg": "Ҷибути",
          "name:th": "ประเทศจิบูตี",
          "name:ti": "ጂቡቲ",
          "name:tk": "Jibuti",
          "name:tl": "Hiboti",
          "name:tr": "Cibuti",
          "name:ts": "Djibouti",
          "name:tt": "Җибути",
          "name:ug": "جىبۇتى",
          "name:uk": "Джибуті",
          "name:ur": "جبوتی",
          "name:uz": "Jibuti",
          "name:vi": "Djibouti",
          "name:vo": "Cibutän",
          "name:wo": "Jibuti",
          "name:yi": "דזשיבוטי",
          "name:yo": "Djìbútì",
          "name:zh": "吉布提 / 吉布地",
          "name:zu": "IJibuthi",
          "boundary": "administrative",
          "name:ace": "Djibouti",
          "name:als": "Dschibuti",
          "name:arz": "جيبوتى",
          "name:ast": "Xibuti",
          "name:bcl": "Dibouti",
          "name:bjn": "Djibouti",
          "name:bpy": "ডিজিবোটি",
          "name:bxr": "Джибути",
          "name:ceb": "Yibuti",
          "name:ckb": "جیبووتی",
          "name:crh": "Cibuti",
          "name:din": "Djibouti",
          "name:diq": "Cibuti",
          "name:ext": "Yibuti",
          "name:frp": "Dj·iboti",
          "name:gag": "Cibuti",
          "name:hif": "Djibouti",
          "name:hsb": "Dźibuti",
          "name:ilo": "Djibouti",
          "name:jbo": "djibutis",
          "name:lij": "Gibuti",
          "name:lmo": "Djibouti",
          "name:lzh": "吉布地",
          "name:min": "Djibouti",
          "name:mrj": "Джибути",
          "name:mzn": "جیبوتی",
          "name:nah": "Yibuti",
          "name:nan": "Djibouti",
          "name:nds": "Dschibuti",
          "name:nov": "Djibuti",
          "name:nso": "Djibouti",
          "name:pam": "Djibouti",
          "name:pdc": "Tschibuti",
          "name:pih": "Jibuuti",
          "name:pms": "Djibouti",
          "name:pnb": "جبوتی",
          "name:rue": "Джібутьско",
          "name:sah": "Дьибути",
          "name:scn": "Gibbuti",
          "name:sco": "Djibouti",
          "name:smn": "Djibouti",
          "name:sms": "Djibouti",
          "name:stq": "Dschibuti",
          "name:tzl": "Xhibuti",
          "name:vec": "Gibuti",
          "name:vro": "Djibouti",
          "name:war": "Djibouti",
          "name:xal": "Җибудин Орн",
          "name:yue": "吉布提",
          "timezone": "Africa/Djibouti",
          "way_area": "2.20635",
          "wikidata": "Q977",
          "ISO3166-1": "DJ",
          "wikipedia": "ar:جيبوتي",
          "admin_level": "2",
          "name:bat-smg": "Džėbotis",
          "name:zh-Hans": "吉布提",
          "name:zh-Hant": "吉布地",
          "name:be-tarask": "Джыбуці",
          "ISO3166-1:alpha2": "DJ",
          "ISO3166-1:alpha3": "DJI",
          "official_name:cs": "Džibutská republika",
          "official_name:en": "Republic of Djibouti",
          "official_name:eo": "Ĝibutia Respubliko",
          "official_name:es": "República de Yibuti",
          "official_name:fr": "République de Djibouti",
          "official_name:gn": "Tavakuairetã Jimbúti",
          "official_name:pt": "República do Djibuti",
          "official_name:ru": "Республика Джибути",
          "ISO3166-1:numeric": "262",
          "official_name:din": "Paankɔc Djibouti"
        }
      },
      "geometry": {
        "type": "Polygon",
        "coordinates": [
          [
            [
              41.7938823,
              10.9900855
            ],
            [
              41.7942546,
              10.9793795
            ],
            [
              41.7967985,
              10.9769471
            ],
            [
              41.79772,
              10.9766602
            ],
            [
              41.7988038,
              10.9756965
            ],
            [
              41.799518,
              10.9740787
            ],
            [
              41.8006667,
              10.9730711
            ],
            [
              41.8086678,
              10.9712114
            ],
            [
              41.8111028,
              10.9698841
            ],
            [
              41.8134529,
              10.9679667
            ],
            [
              41.8176209,
              10.963203
            ],
            [
              41.8177449,
              10.962868
            ],
            [
              41.8226194,
              10.9624217
            ],
            [
              41.8309009,
              10.9630997
            ],
            [
              41.835129,
              10.962406
            ],
            [
              41.8499311,
              10.9580729
            ],
            [
              41.8608652,
              10.9558885
            ],
            [
              41.8640437,
              10.954141
            ],
            [
              41.8690022,
              10.9528303
            ],
            [
              41.8708458,
              10.9517693
            ],
            [
              41.8731343,
              10.9515197
            ],
            [
              41.8761221,
              10.9500842
            ],
            [
              41.8788557,
              10.9497721
            ],
            [
              41.8895355,
              10.9474004
            ],
            [
              41.8923962,
              10.9457776
            ],
            [
              41.8968461,
              10.9447166
            ],
            [
              41.9174227,
              10.939043
            ],
            [
              41.9331448,
              10.9397858
            ],
            [
              41.9415978,
              10.9389405
            ],
            [
              41.9429752,
              10.9373896
            ],
            [
              41.9406138,
              10.9255022
            ],
            [
              41.9414254,
              10.9233599
            ],
            [
              41.9427739,
              10.9212855
            ],
            [
              41.9425492,
              10.9205793
            ],
            [
              41.9458306,
              10.9157241
            ],
            [
              41.9468746,
              10.9149547
            ],
            [
              41.9490621,
              10.9150153
            ],
            [
              41.9510372,
              10.9166306
            ],
            [
              41.9552181,
              10.9171984
            ],
            [
              41.9574253,
              10.9159912
            ],
            [
              41.9605909,
              10.9152408
            ],
            [
              41.9650261,
              10.9153045
            ],
            [
              41.967431,
              10.9175373
            ],
            [
              41.9682495,
              10.9190921
            ],
            [
              41.968441,
              10.9207117
            ],
            [
              41.9698156,
              10.9229572
            ],
            [
              41.9700593,
              10.9261846
            ],
            [
              41.9718675,
              10.9282789
            ],
            [
              41.9750039,
              10.9281266
            ],
            [
              41.9780156,
              10.9268025
            ],
            [
              41.9913421,
              10.9237939
            ],
            [
              42,
              10.92415766785305
            ],
            [
              42,
              11
            ],
            [
              41.800371953455674,
              11
            ],
            [
              41.7979583,
              10.9976895
            ],
            [
              41.7965947,
              10.9945919
            ],
            [
              41.7943541,
              10.992649
            ],
            [
              41.7938823,
              10.9900855
            ]
          ]
        ]
      }
    },
    {
      "type": "Feature",
      "properties": {
        "osm_id": -192800,
        "boundary": "administrative",
        "admin_level": 2,
        "parents": null,
        "name": "Ethiopia",
        "local_name": "ኢትዮጵያ",
        "name_en": "Ethiopia",
        "all_tags": {
          "flag": "http://upload.wikimedia.org/wikipedia/commons/7/71/Flag_of_Ethiopia.svg",
          "name": "ኢትዮጵያ",
          "name:aa": "Otobbia",
          "name:af": "Ethiopië",
          "name:ak": "Ithiopia",
          "name:am": "ኢትዮጵያ",
          "name:an": "Etiopia",
          "name:ar": "إثيوبيا",
          "name:av": "Хабашистан",
          "name:az": "Efiopiya",
          "name:ba": "Эфио́пия",
          "name:be": "Эфіопія",
          "name:bg": "Етиопия",
          "name:bh": "इथियोपिया",
          "name:bm": "Etiopia",
          "name:bn": "ইথিওপিয়া",
          "name:bo": "ཨི་ཐི་ཨོ་པི་ཡ།",
          "name:br": "Etiopia",
          "name:bs": "Etiopija",
          "name:ca": "Etiòpia",
          "name:ce": "Эфио́пи",
          "name:cs": "Etiopie",
          "name:cu": "Єѳїопі́ꙗ",
          "name:cv": "Эфиопи",
          "name:cy": "Ethiopia",
          "name:da": "Etiopien",
          "name:de": "Äthiopien",
          "name:dv": "ޙަބުޝްކަރަ",
          "name:dz": "ཨི་ཐི་ཡོ་པི་ཡ",
          "name:ee": "Etiopia",
          "name:el": "Αιθιοπία",
          "name:en": "Ethiopia",
          "name:eo": "Etiopio",
          "name:es": "Etiopía",
          "name:et": "Etioopia",
          "name:eu": "Etiopia",
          "name:fa": "اتیوپی",
          "name:fi": "Etiopia",
          "name:fo": "Etiopia",
          "name:fr": "Éthiopie",
          "name:fy": "Etioopje",
          "name:ga": "an Aetóip",
          "name:gd": "An Aetiòp",
          "name:gl": "Etiopía - Ityop'iya",
          "name:gn": "Etiopia",
          "name:gu": "ઇથિયોપિયા",
          "name:gv": "yn Eetoip",
          "name:ha": "Ethiopia",
          "name:he": "אתיופיה",
          "name:hi": "इथियोपिया",
          "name:hr": "Etiopija",
          "name:ht": "Etyopi",
          "name:hu": "Etiópia",
          "name:hy": "Եթովպիա",
          "name:ia": "Ethiopia",
          "name:id": "Ethiopia",
          "name:ie": "Etiopia",
          "name:ig": "Ethiopia",
          "name:io": "Etiopia",
          "name:is": "Eþíópía",
          "name:it": "Etiopia",
          "name:ja": "エチオピア",
          "name:jv": "Étiopia",
          "name:ka": "ეთიოპია",
          "name:kg": "Itiopia",
          "name:ki": "Ethiopia",
          "name:kk": "Ефиопия",
          "name:km": "អេត្យូពី",
          "name:kn": "ಇತಿಯೋಪಿಯ",
          "name:ko": "에티오피아",
          "name:ks": "اِتھوپِیا",
          "name:ku": "Etiyopya",
          "name:kv": "Эфиопия",
          "name:kw": "Ethiopi",
          "name:ky": "Эфиопия",
          "name:la": "Aethiopia",
          "name:lb": "Ethiopien",
          "name:lg": "Ethiopia",
          "name:li": "Ethiopië",
          "name:ln": "Etiopi",
          "name:lo": "ເອທີໂອເປຍ",
          "name:lt": "Etiopija",
          "name:lv": "Etiopija",
          "name:mg": "Etiopia",
          "name:mi": "Etiopia",
          "name:mk": "Етиопија",
          "name:ml": "എത്യോപ്യ",
          "name:mn": "Этиоп",
          "name:mr": "इथियोपिया",
          "name:ms": "Habsyah",
          "name:mt": "Etjopja",
          "name:my": "အီသီယိုးပီးယားနိုင်ငံ",
          "name:na": "Itiyopiya",
          "name:ne": "इथियोपिया",
          "name:nl": "Ethiopië",
          "name:nn": "Etiopia",
          "name:no": "Etiopia",
          "name:nv": "Iithiyópya",
          "name:oc": "Etiopia",
          "name:om": "Itoophiyaa",
          "name:or": "ଇଥିଓପିଆ",
          "name:os": "Эфио́пи",
          "name:pa": "ਇਥੋਪੀਆ",
          "name:pi": "ईथ्योपिया",
          "name:pl": "Etiopia",
          "name:ps": "اېتوپیا",
          "name:pt": "Etiópia",
          "name:qu": "Ithiyupya",
          "name:rm": "Etiopia",
          "name:ro": "Etiopia",
          "name:ru": "Эфиопия",
          "name:rw": "Etiyopiya",
          "name:sa": "ईथ्योपिया",
          "name:sc": "Etiòpia",
          "name:se": "Etiopia",
          "name:sg": "Etiopïi",
          "name:sh": "Etiopija",
          "name:si": "ඉතියෝපියාව",
          "name:sk": "Etiópia",
          "name:sl": "Etiópija",
          "name:sm": "Ethiopia",
          "name:sn": "Ethiopia",
          "name:so": "Itoobiya",
          "name:sq": "Etiopia",
          "name:sr": "Етиопија",
          "name:ss": "iTopiya",
          "name:st": "Ethiopia",
          "name:su": "Étiopia",
          "name:sv": "Etiopien",
          "name:sw": "Ethiopia",
          "name:ta": "எத்தியோப்பியா",
          "name:te": "ఇథియోపియా",
          "name:tg": "Эфиопия",
          "name:th": "เอธิโอเปีย",
          "name:ti": "ኢትዮጵያ",
          "name:tk": "Efiopiýa",
          "name:tl": "Etiyopiya",
          "name:to": "ʻItiōpea",
          "name:tr": "Etiyopya",
          "name:ts": "Topiya",
          "name:tt": "Хәбәшстан",
          "name:ug": "ئېفىئوپىيە",
          "name:uk": "Ефіо́пія",
          "name:ur": "ایتھوپیا",
          "name:uz": "Efiopiya",
          "name:vi": "Ethiopia",
          "name:vo": "Lätiopän",
          "name:wa": "Etiopeye",
          "name:wo": "Ecoopi",
          "name:xh": "iTopiya",
          "name:yi": "עטיאָפּיע",
          "name:yo": "Ethiópíà",
          "name:za": "Ethiopia",
          "name:zh": "埃塞俄比亚 / 衣索比亞",
          "name:zu": "i-Ithiopia",
          "boundary": "administrative",
          "int_name": "Ethiopia",
          "name:ace": "Ethiopia",
          "name:ady": "Эфиопие",
          "name:als": "Ethiopie",
          "name:ang": "Sigelhearwenaland",
          "name:arc": "ܟܘܫ",
          "name:arz": "اثيوبيا",
          "name:ast": "Etiopía",
          "name:azb": "اتیوپی",
          "name:bar": "Ethiopien",
          "name:bcl": "Etyopya",
          "name:bjn": "Ethiopia",
          "name:bpy": "ইথিওপিয়া",
          "name:bxr": "Этиопи",
          "name:cdo": "Ethiopia",
          "name:ceb": "Etiopia",
          "name:chr": "ᎢᏗᎣᏈᎠ",
          "name:ckb": "ئیتیۆپیا",
          "name:crh": "Abeşistan",
          "name:din": "Ethiopia",
          "name:diq": "Etyopya",
          "name:dsb": "Etiopiska",
          "name:dty": "इथियोपिया",
          "name:ext": "Etiopia",
          "name:frp": "Ètiopie",
          "name:frr": "Etioopien",
          "name:fur": "Etiopie",
          "name:gag": "Efiopiya",
          "name:gan": "埃塞俄比亞",
          "name:gom": "इथिओपिया",
          "name:hak": "Âi-set-ngò-pí-â",
          "name:haw": "ʻAikiopia",
          "name:hif": "Ethiopia",
          "name:hsb": "Etiopiska",
          "name:ilo": "Etiopia",
          "name:jam": "Iityuopia",
          "name:jbo": "itiopias",
          "name:kaa": "Efiopiya",
          "name:kab": "Ityupya",
          "name:kbp": "Etiyoopii",
          "name:koi": "Итьоппья",
          "name:ksh": "Ättijoopije",
          "name:lad": "Etiopia",
          "name:lez": "Эфиопия",
          "name:lij": "Etiòpia",
          "name:lmo": "Etiopia",
          "name:lrc": "ئتیوٙپی",
          "name:lzh": "衣索比亞",
          "name:mai": "इथियोपिया",
          "name:mhr": "Эфиопий",
          "name:min": "Ethiopia",
          "name:mrj": "Эфиопи",
          "name:mzn": "اتیوپی",
          "name:nah": "Etiopia",
          "name:nan": "Ityop'iya",
          "name:nds": "Äthiopien",
          "name:new": "इथियोपिया",
          "name:nov": "Etiopia",
          "name:nso": "Ethiopia",
          "name:olo": "Efiopii",
          "name:pam": "Ethiopia",
          "name:pap": "Ethiopia",
          "name:pih": "Ethiopia",
          "name:pms": "Etiòpia",
          "name:pnb": "ایتھوپیا",
          "name:rue": "Етіопія",
          "name:sah": "Этиопия",
          "name:scn": "Etiòpia",
          "name:sco": "Ethiopie",
          "name:smn": "Etiopia",
          "name:sms": "Etiopia",
          "name:srn": "Ethiopikondre",
          "name:stq": "Äthiopien",
          "name:szl": "Etjopijo",
          "name:tok": "ma Isijopija",
          "name:tzl": "Itiopia",
          "name:vec": "Etiopia",
          "name:vep": "Efiopii",
          "name:vro": "Etioopia",
          "name:war": "Etiyopya",
          "name:wuu": "埃塞俄比亞",
          "name:xal": "Эпигопин Ниицән",
          "name:xmf": "ეთიოპია",
          "name:yue": "埃塞俄比亞",
          "name:zea": "Ethiopië",
          "old_name": "Abyssinia",
          "timezone": "Africa/Addis_Ababa",
          "way_area": "92.6939",
          "wikidata": "Q115",
          "ISO3166-1": "ET",
          "wikipedia": "am:ኢትዮጵያ",
          "short_name": "ኢ.ፌ.ዲ.ሪ.",
          "admin_level": "2",
          "alt_name:ar": "الحبشة",
          "alt_name:bo": "ཨི་ཐོ་པི་ཡ་",
          "alt_name:eo": "Etiopujo",
          "alt_name:gd": "An Itiop",
          "alt_name:tr": "Etyopya",
          "alt_name:vi": "Ê-ti-ô-pi-a",
          "old_name:az": "Həbəşistan",
          "old_name:ce": "Абиссини",
          "old_name:cs": "Habeš",
          "old_name:de": "Abessinien",
          "old_name:eo": "Abisenio",
          "old_name:es": "Abisinia",
          "old_name:fi": "Abessinia",
          "old_name:fr": "Abessinien",
          "old_name:ig": "Oromo",
          "old_name:io": "Abisinia",
          "old_name:it": "Abissinia",
          "old_name:kn": "ಅಬಿಸಿನಿಯಾ",
          "old_name:ku": "Hebeşîstan",
          "old_name:la": "Abyssinia",
          "old_name:rm": "Abessinia",
          "old_name:ru": "Абиссиния",
          "old_name:sk": "Abesínia;Abesínsko",
          "old_name:sl": "Abesinija",
          "old_name:sq": "Absinia",
          "old_name:uz": "Habashiston",
          "alt_name:ang": "Æthiopia",
          "alt_name:arc": "ܐܬܝܘܦܝܐ",
          "alt_name:ceb": "Etyopiya",
          "alt_name:hak": "Abyssinia",
          "alt_name:koi": "Эфиопия",
          "alt_name:scn": "Itiòpia",
          "alt_name:war": "Ethiopia",
          "name:bat-smg": "Etiuopėjė",
          "name:cbk-zam": "Etiopía",
          "name:zh-Hans": "埃塞俄比亚",
          "name:zh-Hant": "衣索比亞",
          "old_name:bar": "Abessinien",
          "old_name:ext": "Abisinia",
          "old_name:lez": "Абиссиния",
          "old_name:pam": "Abyssinia",
          "old_name:stq": "Abessinien",
          "old_name:vep": "Abissinii",
          "name:roa-tara": "Etiopie",
          "official_name": "የኢትዮጵያ ፌዴራላዊ ዴሞክራሲያዊ ሪፐብሊክ",
          "short_name:am": "ኢ.ፌ.ዲ.ሪ.",
          "short_name:be": "ФДРЭ",
          "short_name:es": "RDFE",
          "name:be-tarask": "Этыёпія",
          "name:zh_pinyin": "Āisàiébǐyà",
          "ISO3166-1:alpha2": "ET",
          "ISO3166-1:alpha3": "ETH",
          "default_language": "am",
          "official_name:af": "Federale Demokratiese Republiek van Ethiopië",
          "official_name:am": "የኢትዮጵያ ፌዴራላዊ ዴሞክራሲያዊ ሪፐብሊክ",
          "official_name:an": "Republica Democratica Federal d'Etiopia",
          "official_name:ar": "جمهورية إثيوبيا الفيدرالية الديمقراطية",
          "official_name:az": "Efiopiya Federal Demokratik Respublikası",
          "official_name:ba": "Эфиопия Федератив Демократик Республикаһы",
          "official_name:be": "Федэраты́ўная Дэмакраты́чная Рэспу́бліка Эфіопія",
          "official_name:bg": "Федерална демократична република Етиопия",
          "official_name:bm": "Kurufa Bɛjɛfanga Fasojamana",
          "official_name:bn": "কেন্দ্রীয় গণপ্রজাতন্ত্রী ইথিওপিয়া",
          "official_name:br": "Republik demokratel gevreadel Etiopia",
          "official_name:bs": "Savezna Demokratska Republika Etiopija",
          "official_name:ca": "Ityop'iya Federalawi Demokrasiyawi Ripeblik",
          "official_name:ce": "Федерати́вни Демократи́н Респу́блика Эфио́пи",
          "official_name:cs": "Etiopská federativní demokratická republika",
          "official_name:cu": "Єѳїопїꙗ Съвѫꙁьна Димократїꙗ",
          "official_name:cv": "Федерати́вла Демократиллĕ Респу́блика Эфио́пи",
          "official_name:cy": "Gweriniaeth Ddemocrataidd Ffederal Ethiopia",
          "official_name:da": "Den Føderale Demokratiske Republik Etiopien",
          "official_name:de": "Demokratische Bundesrepublik Äthiopien",
          "official_name:el": "Ομοσπονδιακή Δημοκρατία της Αιθιοπίας",
          "official_name:en": "Federal Democratic Republic of Ethiopia",
          "official_name:eo": "Federacia Demokratia Respubliko Etiopio",
          "official_name:es": "República Democrática Federal de Etiopía",
          "official_name:et": "Etioopia Demokraatlik Liitvabariik",
          "official_name:eu": "Etiopiako Errepublika Federal Demokratikoa",
          "official_name:fa": "جمهوری دموکراتیک فدرال اتیوپی",
          "official_name:fi": "Etiopian demokraattinen liittotasavalta",
          "official_name:fr": "République fédérale démocratique d'Éthiopie",
          "official_name:fy": "Federale Demokratyske Republyk Etioopje",
          "official_name:ga": "Poblacht Dhaonlathach Fheidearálach na hAetóipe",
          "official_name:gd": "Poblachd Fheadarail Dheamocratach na h-Aetiòp",
          "official_name:gl": "República Democrática Federal de Etiopía",
          "official_name:gn": "Tetã Etiopia",
          "official_name:gu": "સંઘીય અને લોકતાંત્રિક ઇથિયોપિયાનું ગણરાજ્ય",
          "official_name:gv": "Pobblaght ny h-Eetoip",
          "official_name:ha": "Jamhuriyar Ethiopia",
          "official_name:he": "הרפובליקה הדמוקרטית הפדרלית של אתיופיה",
          "official_name:hi": "इथियोपिया संघीय लोकतांत्रिक गणराज्य",
          "official_name:hr": "Savezna Demokratska Republika Etiopija",
          "official_name:hu": "Etióp Szövetségi Demokratikus Köztársaság",
          "official_name:hy": "Եթովպիայի Դաշնային Ժողովրդավարական Հանրապետություն",
          "official_name:ia": "Republica Democratic Federal de Ethiopia",
          "official_name:id": "Republik Demokratik Federal Etiopia",
          "official_name:ig": "Obodo Ochíchìíwú Ethiopia",
          "official_name:it": "Repubblica federale democratica dell'Etiopia",
          "official_name:ja": "エチオピア連邦民主共和国",
          "official_name:jv": "Républik Dhémokratik Federal Éteopiah",
          "official_name:ka": "ეთიოპიის ფედერაციული დემოკრატიული რესპუბლიკა",
          "official_name:kg": "Demokrasiyawi Ripeblik Itiopia",
          "official_name:kk": "Эфиопия Федеративтік Демократиялық Республикасы",
          "official_name:kn": "ಇತಿಯೋಪಿಯ ಸಂಯುಕ್ತ ಪ್ರಜಾಸತ್ತಾತ್ಮಕ ಗಣರಾಜ್ಯ",
          "official_name:ko": "에티오피아 연방 민주 공화국",
          "official_name:ku": "Komara Federal a Demokratîk a Etiyopya",
          "official_name:kv": "Эфиопия Федерация Демократия Республика",
          "official_name:lb": "Demokratesch Bundesrepublik Ethiopien",
          "official_name:lt": "Etiopijos Federacinė Demokratinė Respublika",
          "official_name:lv": "Etiopijas Federatīvā Demokrātiskā Republika",
          "official_name:mk": "Сојузна Демократска Република Етиопија",
          "official_name:ml": "ഫെഡറൽ ഡെമോക്രാറ്റിക് റിപ്പബ്ലിക്ക് ഓഫ് എത്യോപ്യ",
          "official_name:mn": "Холбооны Бүгд Найрамдах Ардчилсан Этиоп Улс",
          "official_name:mr": "इथियोपियाचे संघीय लोकशाही प्रजासत्ताक",
          "official_name:ms": "Republik Demokratik Persekutuan Habsyah",
          "official_name:my": "ဖက်ဒရယ် အီသီယိုးပီးယား ဒီမိုကရက်တစ် သမ္မတနိုင်ငံ",
          "official_name:ne": "सङ्घीय लोकतान्त्रिक गणतन्त्र इथियोपिया",
          "official_name:nl": "Federale Democratische Republiek Ethiopië",
          "official_name:nn": "Den føderale demokratiske republikken Etiopia",
          "official_name:no": "Den føderale demokratiske republikken Etiopia",
          "official_name:oc": "Republica Federala Democratica d'Etiopia",
          "official_name:om": "Rippabliikii Federaalawaa Dimokraatawaa Itiyoophiyaa",
          "official_name:os": "Федеративон Демократион Республикæ Эфиопи",
          "official_name:pa": "ਇਥੋਪੀਆ ਦਾ ਸੰਘੀ ਲੋਕਤੰਤਰੀ ਗਣਰਾਜ",
          "official_name:pl": "Federalna Demokratyczna Republika Etiopii",
          "official_name:ps": "ایتوپیا فدرالي دموکراتیک جمهوریت",
          "official_name:pt": "República Democrática Federal da Etiópia",
          "official_name:qu": "Runakamaq Tantasqa Republika Ithiwpiya",
          "official_name:rm": "Republica federala democrata da l'Etiopia",
          "official_name:ro": "Republica Federală Democratică a Etiopiei",
          "official_name:ru": "Федеративная Демократическая Республика Эфиопия",
          "official_name:sc": "Republica Federali de Etiòpia",
          "official_name:sg": "Gbêko Kùodùorùosêse tî Ngunuhalëzo tî Etiopïi",
          "official_name:sh": "Savezna Demokratska Republika Etiopija",
          "official_name:si": "ඉතියෝපියානු ෆෙඩරල් ප්‍රජාතන්ත්‍රවාදී ජනරජය",
          "official_name:sk": "Etiópska federatívna demokratická republika",
          "official_name:sl": "Federatívna demokrátična repúblika Etiópija",
          "official_name:sm": "Feterale Faatemokalasi Ripapelika o Aitiope",
          "official_name:so": "Jamhuuriyadda Dimuqraadiga Federaalka Itoobiya",
          "official_name:sr": "Савезна Демократска Република Етиопија",
          "official_name:su": "Républik Démokratik Féderal Étiopia",
          "official_name:sv": "Demokratiska förbundsrepubliken Etiopien",
          "official_name:sw": "Shirikisho la Jamhuri ya Kidemokrasia ya Ethiopia",
          "official_name:ta": "எத்தியோப்பியக் கூட்டாட்சி சனநாயகக் குடியரசு",
          "official_name:te": "ఫెడరల్ ప్రజాతంత్ర గణతంత్ర ఇథియోపియా",
          "official_name:th": "สหพันธ์สาธารณรัฐประชาธิปไตยเอธิโอเปีย",
          "official_name:tk": "Efiopiýa Federatiw Demokratik Respublikasy",
          "official_name:tl": "Demokratikong Republikang Pederal ng Ethiopia",
          "official_name:tr": "Etiyopya Federal Demokratik Cumhuriyeti",
          "official_name:tt": "Хәбәшстан Федератив Демократик Җөмһүрияте",
          "official_name:uk": "Федерати́вна Демократи́чна Респу́бліка Ефіо́пія",
          "official_name:ur": "وفاقی جمہوری جمہوریہ ایتھوپیا",
          "official_name:uz": "Efiopiya Federativ Demokratik Respublikasi",
          "official_name:vi": "Cộng hòa Dân chủ Liên bang Ethiopia",
          "official_name:wo": "Réewum Ecoopi",
          "official_name:yi": "פעדעראלע דעמאקראטישע רעפובליק פון עטיאפיע",
          "official_name:zh": "埃塞俄比亚联邦民主共和国",
          "ISO3166-1:numeric": "231",
          "official_name:ady": "Федератив Демократик Республикэу Эфиопие",
          "official_name:als": "Demokratischi Bundesrepublik Ethiopie",
          "official_name:arc": "ܩܘܛܢܝܘܬܐ ܕܝܡܘܩܪܛܝܬܐ ܦܕܪܠܝܬܐ ܕܟܘܫ",
          "official_name:arz": "جمهورية اثيوبيا الديموقراطيه الفيدراليه",
          "official_name:ast": "República Democrática Federal d'Etiopía",
          "official_name:bcl": "Repúblika Demokrátikan Pederal nin Etiopia",
          "official_name:bjn": "Republik Demokratik Federal Ethiopia",
          "official_name:bpy": "কেন্দ্রীয় গনতান্ত্রিক প্রজাতন্ত্রি ইথিওপিয়া",
          "official_name:bxr": "Холбооной Бүгэдэ Найрамдаха Арадшалһан Этиопи Улас",
          "official_name:chr": "ᎠᏰᏟᏥ ᏈᏍᏗᎤᎾᏓᏅᏖᏗ ᏍᎦᏚᎩ ᎾᎿ ᎢᏗᎣᏈᎠ",
          "official_name:ckb": "کۆماری دیموکراتیکی فیدراڵی ئیتیۆپیا",
          "official_name:crh": "Abeşistan Federal Demokratik Cumhuriyeti",
          "official_name:diq": "Cumhuriyeto Federal Etyopya",
          "official_name:dsb": "Etiopiska zwězkowa demokratiska republika",
          "official_name:ext": "Repúbrica Democrática Federal d'Etiopia",
          "official_name:frr": "Demokratisk Bundesrepubliik Etioopien",
          "official_name:gan": "埃塞俄比亞聯邦民主共和國",
          "official_name:hsb": "Etiopiska federalna demokratiska republika",
          "official_name:ilo": "Pederal Demokratiko a Republika ti Etiopia",
          "official_name:jam": "Fedaral Dimokratik Ripoblik a Iityuopia",
          "official_name:lad": "Repuvlika Demokratika Federala de Etiopia",
          "official_name:lez": "Федератив Демократиядин Республика Эфиопия",
          "official_name:lij": "Ityop'iya Federalawi Demokrasiyawi Ripeblik",
          "official_name:lmo": "Repüblica Demucratiga Federala d'Etiopia",
          "official_name:mai": "इथियोपिया संघीय लोकतांत्रिक गणराज्य",
          "official_name:min": "Republik Demokratik Pasarikatan Ethiopia",
          "official_name:mzn": "اتیوپی ِفدرال ِدموکراتیک جمهوری",
          "official_name:nah": "Nenāhuatīliztli Tlācatēpacholiztli Tlācatlahtohcāyōtl Etiopia",
          "official_name:nan": "Ethiopia Liân-pang Jîn-bîn Kiōng-hô-kok",
          "official_name:nds": "Demokraatsche Bundsrepublik Äthiopien",
          "official_name:new": "संघीय गणतन्त्र इथियोपिया",
          "official_name:nso": "Federal repabliki Ethiopia",
          "official_name:pap": "Republika Federal Demokratiko di Ethiopia",
          "official_name:pms": "Repùblica Democràtica Federal d'Etiòpia",
          "official_name:sah": "Этиопия Федерал Демократ Республиката",
          "official_name:scn": "Ripùbbrica Fidirali Dimucràtica d'Etiopia",
          "official_name:sco": "Federal Democratic Republic o Ethiopie",
          "official_name:stq": "Demokratiske Buundesrepublik Äthiopien",
          "official_name:szl": "Federalno Dymokratyčno Republika Etjopije",
          "official_name:vec": "Republica Democratica Federale de l'Etiopia",
          "official_name:vep": "Efiopijan Federativine Demokratine Tazovaldkund",
          "official_name:vro": "Etioopia Demokraatlinõ Liitvabariik",
          "official_name:wuu": "埃塞俄比亞聯邦民主共和國",
          "official_name:xmf": "ეთიოპიაშ ფედერაციული დემოკრატიული რესპუბლიკა",
          "official_name:yue": "埃塞俄比亞聯邦民主共和國",
          "official_name:zea": "Federale Democratische Republiek Ethiopië",
          "old_name:roa-tara": "Abissinie",
          "short_name:be-tarask": "ФДРЭ",
          "official_name:roa-tara": "Repubbleche Federale Democrateche d'Etiopie",
          "official_name:be-tarask": "Фэдэраты́ўная Дэмакраты́чная Рэспу́бліка Этыёпія"
        }
      },
      "geometry": {
        "type": "Polygon",
        "coordinates": [
          [
            [
              41,
              10
            ],
            [
              42,
              10
            ],
            [
              42,
              10.92415766785305
            ],
            [
              41.9913421,
              10.9237939
            ],
            [
              41.9780156,
              10.9268025
            ],
            [
              41.9750039,
              10.9281266
            ],
            [
              41.9718675,
              10.9282789
            ],
            [
              41.9700593,
              10.9261846
            ],
            [
              41.9698156,
              10.9229572
            ],
            [
              41.968441,
              10.9207117
            ],
            [
              41.9682495,
              10.9190921
            ],
            [
              41.967431,
              10.9175373
            ],
            [
              41.9650261,
              10.9153045
            ],
            [
              41.9605909,
              10.9152408
            ],
            [
              41.9574253,
              10.9159912
            ],
            [
              41.9552181,
              10.9171984
            ],
            [
              41.9510372,
              10.9166306
            ],
            [
              41.9490621,
              10.9150153
            ],
            [
              41.9468746,
              10.9149547
            ],
            [
              41.9458306,
              10.9157241
            ],
            [
              41.9425492,
              10.9205793
            ],
            [
              41.9427739,
              10.9212855
            ],
            [
              41.9414254,
              10.9233599
            ],
            [
              41.9406138,
              10.9255022
            ],
            [
              41.9429752,
              10.9373896
            ],
            [
              41.9415978,
              10.9389405
            ],
            [
              41.9331448,
              10.9397858
            ],
            [
              41.9174227,
              10.939043
            ],
            [
              41.8968461,
              10.9447166
            ],
            [
              41.8923962,
              10.9457776
            ],
            [
              41.8895355,
              10.9474004
            ],
            [
              41.8788557,
              10.9497721
            ],
            [
              41.8761221,
              10.9500842
            ],
            [
              41.8731343,
              10.9515197
            ],
            [
              41.8708458,
              10.9517693
            ],
            [
              41.8690022,
              10.9528303
            ],
            [
              41.8640437,
              10.954141
            ],
            [
              41.8608652,
              10.9558885
            ],
            [
              41.8499311,
              10.9580729
            ],
            [
              41.835129,
              10.962406
            ],
            [
              41.8309009,
              10.9630997
            ],
            [
              41.8226194,
              10.9624217
            ],
            [
              41.8177449,
              10.962868
            ],
            [
              41.8176209,
              10.963203
            ],
            [
              41.8134529,
              10.9679667
            ],
            [
              41.8111028,
              10.9698841
            ],
            [
              41.8086678,
              10.9712114
            ],
            [
              41.8006667,
              10.9730711
            ],
            [
              41.799518,
              10.9740787
            ],
            [
              41.7988038,
              10.9756965
            ],
            [
              41.79772,
              10.9766602
            ],
            [
              41.7967985,
              10.9769471
            ],
            [
              41.7942546,
              10.9793795
            ],
            [
              41.7938823,
              10.9900855
            ],
            [
              41.7943541,
              10.992649
            ],
            [
              41.7965947,
              10.9945919
            ],
            [
              41.7979583,
              10.9976895
            ],
            [
              41.800371953455674,
              11
            ],
            [
              41,
              11
            ],
            [
              41,
              10
            ]
          ]
        ]
      }
    }
  ]
}