{
  "type": "FeatureCollection",
  "features": [
    {
      "type": "Feature",
      "properties": {
        "osm_id": -296961,
        "boundary": "administrative",
        "admin_level": 2,
        "parents": null,
        "name": "Eritrea",
        "local_name": "ኤርትራ Eritrea إرتريا",
        "name_en": "Eritrea",
        "all_tags": {
          "flag": "http://upload.wikimedia.org/wikipedia/commons/2/29/Flag_of_Eritrea.svg",
          "name": "ኤርትራ Eritrea إرتريا",
          "name:af": "Eritrea",
          "name:am": "ኤርትራ",
          "name:an": "Eritrea",
          "name:ar": "إرتريا",
          "name:az": "Eritreya",
          "name:ba": "Эритрея",
          "name:be": "Эрытрэя",
          "name:bg": "Еритрея",
          "name:bm": "Eritrea",
          "name:bn": "ইরিত্রিয়া",
          "name:bo": "ཨི་རི་ཏྲའ།",
          "name:br": "Eritrea",
          "name:bs": "Eritreja",
          "name:ca": "Eritrea",
          "name:ce": "Эритре",
          "name:cs": "Eritrea",
          "name:cu": "Єрѷѳрїꙗ",
          "name:cy": "Eritrea",
          "name:da": "Eritrea",
          "name:de": "Eritrea",
          "name:dv": "އެރިތުރިއާ",
          "name:ee": "Eritrea",
          "name:el": "Ερυθραία",
          "name:en": "Eritrea",
          "name:eo": "Eritreo",
          "name:es": "Eritrea",
          "name:et": "Eritrea",
          "name:eu": "Eritrea",
          "name:fa": "اریتره",
          "name:fi": "Eritrea",
          "name:fo": "Eritrea",
          "name:fr": "Érythrée",
          "name:fy": "Eritreä",
          "name:ga": "An Eiritré",
          "name:gd": "Eartra",
          "name:gl": "Eritrea",
          "name:gn": "Erityrea",
          "name:gr": "Ἐρυθραία",
          "name:gv": "Eritrea",
          "name:he": "אריתריאה",
          "name:hi": "इरित्रिया",
          "name:hr": "Eritreja",
          "name:ht": "Eritre",
          "name:hu": "Eritrea",
          "name:hy": "Էրիթրեա",
          "name:ia": "Eritrea",
          "name:id": "Eritrea",
          "name:ie": "Eritréa",
          "name:io": "Eritrea",
          "name:is": "Erítrea",
          "name:it": "Eritrea",
          "name:ja": "エリトリア",
          "name:jv": "Eritrea",
          "name:ka": "ერიტრეა",
          "name:kg": "Eritrea",
          "name:kk": "Эритрея",
          "name:kn": "ಎರಿಟ್ರಿಯ",
          "name:ko": "에리트레아",
          "name:ks": "ارتریا",
          "name:ku": "Erîtrea",
          "name:kw": "Eritrea",
          "name:ky": "Эритрея",
          "name:la": "Erythraea",
          "name:lb": "Eritrea",
          "name:li": "Eritrea",
          "name:ln": "Elitré",
          "name:lt": "Eritrėja",
          "name:lv": "Eritreja",
          "name:mi": "Eritēria",
          "name:mk": "Еритреја",
          "name:ml": "എരിട്രിയ",
          "name:mn": "Эритрей",
          "name:mr": "इरिट्रिया",
          "name:ms": "Eritrea",
          "name:mt": "Eritrea",
          "name:my": "အီရီထရီးယားနိုင်ငံ",
          "name:na": "Eritrea",
          "name:ne": "एरिट्रिया",
          "name:nl": "Eritrea",
          "name:nn": "Eritrea",
          "name:no": "Eritrea",
          "name:oc": "Eritrèa",
          "name:om": "Eritrea",
          "name:or": "ଇରିଟ୍ରିଆ",
          "name:os": "Эритрей",
          "name:pa": "ਇਰੀਤਰੀਆ",
          "name:pl": "Erytrea",
          "name:ps": "اریتریا",
          "name:pt": "Eritreia",
          "name:qu": "Iritriya",
          "name:ro": "Eritreea",
          "name:ru": "Эритрея",
          "name:rw": "Eritereya",
          "name:sa": "इरीट्रिया",
          "name:sc": "Eritrea",
          "name:se": "Eritrea",
          "name:sg": "Eritrëe",
          "name:sh": "Eritreja",
          "name:sk": "Eritrea",
          "name:sl": "Eritreja",
          "name:sn": "Eritrea",
          "name:so": "Eratareya",
          "name:sq": "Eritrea",
          "name:sr": "Еритреја",
          "name:ss": "IRitheya",
          "name:st": "Eritrea",
          "name:su": "Éritréa",
          "name:sv": "Eritrea",
          "name:sw": "Eritrea",
          "name:ta": "எரித்திரியா",
          "name:te": "ఎరిత్రియా",
          "name:tg": "Эритрея",
          "name:th": "ประเทศเอริเทรีย",
          "name:ti": "ኤርትራ",
          "name:tk": "Eritreýa",
          "name:tl": "Eritrea",
          "name:tr": "Eritre",
          "name:ts": "Eritreya",
          "name:tt": "Эритрея",
          "name:ug": "ئېرىترېيە",
          "name:uk": "Еритрея",
          "name:ur": "ارتریا",
          "name:uz": "Eritriya",
          "name:vi": "Eritrea",
          "name:vo": "Lerüträn",
          "name:wo": "Eritere",
          "name:yi": "עריטרעא",
          "name:yo": "Ẹritrẹ́à",
          "name:zh": "厄立特里亚 / 厄利垂亞",
          "name:zu": "I-Eritrea",
          "boundary": "administrative",
          "name:ace": "Eritrea",
          "name:als": "Eritrea",
          "name:ang": "Æriþrea",
          "name:ast": "Eritrea",
          "name:azb": "اریتره",
          "name:bcl": "Eritreya",
          "name:bjn": "Eritrea",
          "name:bpy": "ইরিত্রিয়া",
          "name:bxr": "Эритрей",
          "name:ceb": "Eritrea",
          "name:ckb": "ئێریتریا",
          "name:crh": "Eritreya",
          "name:din": "Eriteria",
          "name:diq": "Eritreya",
          "name:dsb": "Eritreja",
          "name:ext": "Eritrea",
          "name:frp": "Èritrê",
          "name:gag": "Eritreya",
          "name:grc": "Ἐρυθραία",
          "name:hif": "Eritrea",
          "name:hsb": "Eritreja",
          "name:ilo": "Eritrea",
          "name:jbo": "eritreas",
          "name:kab": "Iritirya",
          "name:lad": "Eritrea",
          "name:lij": "Eritrea",
          "name:lmo": "Eritrea",
          "name:mhr": "Эритрей",
          "name:min": "Eritrea",
          "name:mrj": "Эритрей",
          "name:nah": "Eritrea",
          "name:nan": "Eritrea",
          "name:nds": "Eritrea",
          "name:nov": "Eritrea",
          "name:nso": "Eritrea",
          "name:pam": "Eritrea",
          "name:pap": "Eritrea",
          "name:pih": "Eritreya",
          "name:pms": "Eritrea",
          "name:pnb": "اریٹریا",
          "name:sah": "Эритрея",
          "name:scn": "Eritria",
          "name:sco": "Eritrea",
          "name:smn": "Eritrea",
          "name:sms": "Eritrea",
          "name:stq": "Eritrea",
          "name:szl": "Erytryja",
          "name:tok": "ma Eliteja",
          "name:tzl": "Eriþraia",
          "name:vec": "Eritrea",
          "name:vro": "Eritrea",
          "name:war": "Eritrea",
          "name:xal": "Эритреймудин Орн",
          "name:yue": "厄立特里亞",
          "timezone": "Africa/Asmara",
          "way_area": "13.4765",
          "wikidata": "Q986",
          "ISO3166-1": "ER",
          "wikipedia": "ar:إريتريا",
          "population": "3497000",
          "admin_level": "2",
          "alt_name:ar": "إريتريا",
          "alt_name:ps": "اریتره;اریتریه",
          "alt_name:pt": "Eritréia",
          "name:az-Arab": "اریتره",
          "name:bat-smg": "Eritrėjė",
          "name:kk-Arab": "ەرىيترەيا",
          "name:roa-rup": "Eritrea",
          "name:zh-Hans": "厄立特里亚",
          "name:zh-Hant": "厄利垂亞",
          "name:be-tarask": "Эрытрэя",
          "population:date": "2019-08",
          "ISO3166-1:alpha2": "ER",
          "ISO3166-1:alpha3": "ERI",
          "official_name:af": "Staat Eritrea",
          "official_name:ar": "دولة إرتريا",
          "official_name:cs": "Stát Eritrea",
          "official_name:de": "Staat Eritrea",
          "official_name:el": "Κράτος της Ερυθραίας",
          "official_name:en": "State of Eritrea",
          "official_name:es": "Estado de Eritrea",
          "official_name:nl": "Staat Eritrea",
          "official_name:pa": "ਇਰੀਤਰੀਆ ਦਾ ਮੁਲਕ",
          "official_name:ps": "د اریتریا هیواد ولسمشریزه",
          "official_name:pt": "Estado da Eritreia",
          "official_name:ru": "Государство Эритрея",
          "ISO3166-1:numeric": "232",
          "official_name:nds": "Staat Eritrea",
          "official_name:kk-Arab": "ەرىيترەيا مەملەكەتى"
        }
      },
      "geometry": {
        "type": "Polygon",
        "coordinates": [
          [
            [
              41,
              14.00881116428112
            ],
            [
              41.00539869466923,
              14
            ],
            [
              42,
              14
            ],
            [
              42,
              14.095684304748566
            ],
            [
              41.9958403,
              14.0960637
            ],
            [
              41.9874579,
              14.0952982
            ],
            [
              41.9576655,
              14.1111777
            ],
            [
              41.9218001,
              14.1229998
            ],
            [
              41.9155492,
              14.1238675
            ],
            [
              41.9067854,
              14.1281346
            ],
            [
              41.8927663,
              14.1329575
            ],
            [
              41.875773,
              14.1366946
            ],
            [
              41.8713023,
              14.1608764
            ],
            [
              41.8577651,
              14.1957274
            ],
            [
              41.8381601,
              14.2273945
            ],
            [
              41.8129247,
              14.2550122
            ],
            [
              41.7829152,
              14.2776409
            ],
            [
              41.7491512,
              14.2945099
            ],
            [
              41.7127813,
              14.3050445
            ],
            [
              41.6908745,
              14.3072749
            ],
            [
              41.6638537,
              14.3501353
            ],
            [
              41.6503962,
              14.3682196
            ],
            [
              41.6052094,
              14.4162003
            ],
            [
              41.5944927,
              14.4253303
            ],
            [
              41.5860487,
              14.4436671
            ],
            [
              41.5761244,
              14.4605314
            ],
            [
              41.5669731,
              14.4747349
            ],
            [
              41.5433253,
              14.5047664
            ],
            [
              41.5227917,
              14.5256933
            ],
            [
              41.5174201,
              14.5433258
            ],
            [
              41.5052478,
              14.5674118
            ],
            [
              41.4979049,
              14.578323
            ],
            [
              41.4871204,
              14.5994984
            ],
            [
              41.4656912,
              14.6277747
            ],
            [
              41.4521162,
              14.6442495
            ],
            [
              41.4272916,
              14.6670702
            ],
            [
              41.3963359,
              14.693424
            ],
            [
              41.3768981,
              14.7065253
            ],
            [
              41.3717865,
              14.7175568
            ],
            [
              41.3556527,
              14.7424776
            ],
            [
              41.3256814,
              14.7743906
            ],
            [
              41.2862175,
              14.801021
            ],
            [
              41.2533436,
              14.8152712
            ],
            [
              41.2443106,
              14.817613
            ],
            [
              41.2295692,
              14.8233723
            ],
            [
              41.2131749,
              14.8276586
            ],
            [
              41.1891227,
              14.838931
            ],
            [
              41.1631266,
              14.8478169
            ],
            [
              41.1276622,
              14.8543934
            ],
            [
              41.1027071,
              14.8623279
            ],
            [
              41.0814338,
              14.8670485
            ],
            [
              41.070093,
              14.8684461
            ],
            [
              41.0671537,
              14.8732086
            ],
            [
              41.0424599,
              14.9004999
            ],
            [
              41.0376915,
              14.9162791
            ],
            [
              41.0189375,
              14.9511307
            ],
            [
              41,
              14.973976092015914
            ],
            [
              41,
              14.00881116428112
            ]
          ]
        ]
      }
    },
    {
      "type": "Feature",
      "properties": {
        "osm_id": -192800,
        "boundary": "administrative",
        "admin_level": 2,
        "parents": null,
        "name": "Ethiopia",
        "local_name": "ኢትዮጵያ",
        "name_en": "Ethiopia",
        "all_tags": {
          "flag": "http://upload.wikimedia.org/wikipedia/commons/7/71/Flag_of_Ethiopia.svg",
          "name": "ኢትዮጵያ",
          "name:aa": "Otobbia",
          "name:af": "Ethiopië",
          "name:ak": "Ithiopia",
          "name:am": "ኢትዮጵያ",
          "name:an": "Etiopia",
          "name:ar": "إثيوبيا",
          "name:av": "Хабашистан",
          "name:az": "Efiopiya",
          "name:ba": "Эфио́пия",
          "name:be": "Эфіопія",
          "name:bg": "Етиопия",
          "name:bh": "इथियोपिया",
          "name:bm": "Etiopia",
          "name:bn": "ইথিওপিয়া",
          "name:bo": "ཨི་ཐི་ཨོ་པི་ཡ།",
          "name:br": "Etiopia",
          "name:bs": "Etiopija",
          "name:ca": "Etiòpia",
          "name:ce": "Эфио́пи",
          "name:cs": "Etiopie",
          "name:cu": "Єѳїопі́ꙗ",
          "name:cv": "Эфиопи",
          "name:cy": "Ethiopia",
          "name:da": "Etiopien",
          "name:de": "Äthiopien",
          "name:dv": "ޙަބުޝްކަރަ",
          "name:dz": "ཨི་ཐི་ཡོ་པི་ཡ",
          "name:ee": "Etiopia",
          "name:el": "Αιθιοπία",
          "name:en": "Ethiopia",
          "name:eo": "Etiopio",
          "name:es": "Etiopía",
          "name:et": "Etioopia",
          "name:eu": "Etiopia",
          "name:fa": "اتیوپی",
          "name:fi": "Etiopia",
          "name:fo": "Etiopia",
          "name:fr": "Éthiopie",
          "name:fy": "Etioopje",
          "name:ga": "an Aetóip",
          "name:gd": "An Aetiòp",
          "name:gl": "Etiopía - Ityop'iya",
          "name:gn": "Etiopia",
          "name:gu": "ઇથિયોપિયા",
          "name:gv": "yn Eetoip",
          "name:ha": "Ethiopia",
          "name:he": "אתיופיה",
          "name:hi": "इथियोपिया",
          "name:hr": "Etiopija",
          "name:ht": "Etyopi",
          "name:hu": "Etiópia",
          "name:hy": "Եթովպիա",
          "name:ia": "Ethiopia",
          "name:id": "Ethiopia",
          "name:ie": "Etiopia",
          "name:ig": "Ethiopia",
          "name:io": "Etiopia",
          "name:is": "Eþíópía",
          "name:it": "Etiopia",
          "name:ja": "エチオピア",
          "name:jv": "Étiopia",
          "name:ka": "ეთიოპია",
          "name:kg": "Itiopia",
          "name:ki": "Ethiopia",
          "name:kk": "Ефиопия",
          "name:km": "អេត្យូពី",
          "name:kn": "ಇತಿಯೋಪಿಯ",
          "name:ko": "에티오피아",
          "name:ks": "اِتھوپِیا",
          "name:ku": "Etiyopya",
          "name:kv": "Эфиопия",
          "name:kw": "Ethiopi",
          "name:ky": "Эфиопия",
          "name:la": "Aethiopia",
          "name:lb": "Ethiopien",
          "name:lg": "Ethiopia",
          "name:li": "Ethiopië",
          "name:ln": "Etiopi",
          "name:lo": "ເອທີໂອເປຍ",
          "name:lt": "Etiopija",
          "name:lv": "Etiopija",
          "name:mg": "Etiopia",
          "name:mi": "Etiopia",
          "name:mk": "Етиопија",
          "name:ml": "എത്യോപ്യ",
          "name:mn": "Этиоп",
          "name:mr": "इथियोपिया",
          "name:ms": "Habsyah",
          "name:mt": "Etjopja",
          "name:my": "အီသီယိုးပီးယားနိုင်ငံ",
          "name:na": "Itiyopiya",
          "name:ne": "इथियोपिया",
          "name:nl": "Ethiopië",
          "name:nn": "Etiopia",
          "name:no": "Etiopia",
          "name:nv": "Iithiyópya",
          "name:oc": "Etiopia",
          "name:om": "Itoophiyaa",
          "name:or": "ଇଥିଓପିଆ",
          "name:os": "Эфио́пи",
          "name:pa": "ਇਥੋਪੀਆ",
          "name:pi": "ईथ्योपिया",
          "name:pl": "Etiopia",
          "name:ps": "اېتوپیا",
          "name:pt": "Etiópia",
          "name:qu": "Ithiyupya",
          "name:rm": "Etiopia",
          "name:ro": "Etiopia",
          "name:ru": "Эфиопия",
          "name:rw": "Etiyopiya",
          "name:sa": "ईथ्योपिया",
          "name:sc": "Etiòpia",
          "name:se": "Etiopia",
          "name:sg": "Etiopïi",
          "name:sh": "Etiopija",
          "name:si": "ඉතියෝපියාව",
          "name:sk": "Etiópia",
          "name:sl": "Etiópija",
          "name:sm": "Ethiopia",
          "name:sn": "Ethiopia",
          "name:so": "Itoobiya",
          "name:sq": "Etiopia",
          "name:sr": "Етиопија",
          "name:ss": "iTopiya",
          "name:st": "Ethiopia",
          "name:su": "Étiopia",
          "name:sv": "Etiopien",
          "name:sw": "Ethiopia",
          "name:ta": "எத்தியோப்பியா",
          "name:te": "ఇథియోపియా",
          "name:tg": "Эфиопия",
          "name:th": "เอธิโอเปีย",
          "name:ti": "ኢትዮጵያ",
          "name:tk": "Efiopiýa",
          "name:tl": "Etiyopiya",
          "name:to": "ʻItiōpea",
          "name:tr": "Etiyopya",
          "name:ts": "Topiya",
          "name:tt": "Хәбәшстан",
          "name:ug": "ئېفىئوپىيە",
          "name:uk": "Ефіо́пія",
          "name:ur": "ایتھوپیا",
          "name:uz": "Efiopiya",
          "name:vi": "Ethiopia",
          "name:vo": "Lätiopän",
          "name:wa": "Etiopeye",
          "name:wo": "Ecoopi",
          "name:xh": "iTopiya",
          "name:yi": "עטיאָפּיע",
          "name:yo": "Ethiópíà",
          "name:za": "Ethiopia",
          "name:zh": "埃塞俄比亚 / 衣索比亞",
          "name:zu": "i-Ithiopia",
          "boundary": "administrative",
          "int_name": "Ethiopia",
          "name:ace": "Ethiopia",
          "name:ady": "Эфиопие",
          "name:als": "Ethiopie",
          "name:ang": "Sigelhearwenaland",
          "name:arc": "ܟܘܫ",
          "name:arz": "اثيوبيا",
          "name:ast": "Etiopía",
          "name:azb": "اتیوپی",
          "name:bar": "Ethiopien",
          "name:bcl": "Etyopya",
          "name:bjn": "Ethiopia",
          "name:bpy": "ইথিওপিয়া",
          "name:bxr": "Этиопи",
          "name:cdo": "Ethiopia",
          "name:ceb": "Etiopia",
          "name:chr": "ᎢᏗᎣᏈᎠ",
          "name:ckb": "ئیتیۆپیا",
          "name:crh": "Abeşistan",
          "name:din": "Ethiopia",
          "name:diq": "Etyopya",
          "name:dsb": "Etiopiska",
          "name:dty": "इथियोपिया",
          "name:ext": "Etiopia",
          "name:frp": "Ètiopie",
          "name:frr": "Etioopien",
          "name:fur": "Etiopie",
          "name:gag": "Efiopiya",
          "name:gan": "埃塞俄比亞",
          "name:gom": "इथिओपिया",
          "name:hak": "Âi-set-ngò-pí-â",
          "name:haw": "ʻAikiopia",
          "name:hif": "Ethiopia",
          "name:hsb": "Etiopiska",
          "name:ilo": "Etiopia",
          "name:jam": "Iityuopia",
          "name:jbo": "itiopias",
          "name:kaa": "Efiopiya",
          "name:kab": "Ityupya",
          "name:kbp": "Etiyoopii",
          "name:koi": "Итьоппья",
          "name:ksh": "Ättijoopije",
          "name:lad": "Etiopia",
          "name:lez": "Эфиопия",
          "name:lij": "Etiòpia",
          "name:lmo": "Etiopia",
          "name:lrc": "ئتیوٙپی",
          "name:lzh": "衣索比亞",
          "name:mai": "इथियोपिया",
          "name:mhr": "Эфиопий",
          "name:min": "Ethiopia",
          "name:mrj": "Эфиопи",
          "name:mzn": "اتیوپی",
          "name:nah": "Etiopia",
          "name:nan": "Ityop'iya",
          "name:nds": "Äthiopien",
          "name:new": "इथियोपिया",
          "name:nov": "Etiopia",
          "name:nso": "Ethiopia",
          "name:olo": "Efiopii",
          "name:pam": "Ethiopia",
          "name:pap": "Ethiopia",
          "name:pih": "Ethiopia",
          "name:pms": "Etiòpia",
          "name:pnb": "ایتھوپیا",
          "name:rue": "Етіопія",
          "name:sah": "Этиопия",
          "name:scn": "Etiòpia",
          "name:sco": "Ethiopie",
          "name:smn": "Etiopia",
          "name:sms": "Etiopia",
          "name:srn": "Ethiopikondre",
          "name:stq": "Äthiopien",
          "name:szl": "Etjopijo",
          "name:tok": "ma Isijopija",
          "name:tzl": "Itiopia",
          "name:vec": "Etiopia",
          "name:vep": "Efiopii",
          "name:vro": "Etioopia",
          "name:war": "Etiyopya",
          "name:wuu": "埃塞俄比亞",
          "name:xal": "Эпигопин Ниицән",
          "name:xmf": "ეთიოპია",
          "name:yue": "埃塞俄比亞",
          "name:zea": "Ethiopië",
          "old_name": "Abyssinia",
          "timezone": "Africa/Addis_Ababa",
          "way_area": "92.6939",
          "wikidata": "Q115",
          "ISO3166-1": "ET",
          "wikipedia": "am:ኢትዮጵያ",
          "short_name": "ኢ.ፌ.ዲ.ሪ.",
          "admin_level": "2",
          "alt_name:ar": "الحبشة",
          "alt_name:bo": "ཨི་ཐོ་པི་ཡ་",
          "alt_name:eo": "Etiopujo",
          "alt_name:gd": "An Itiop",
          "alt_name:tr": "Etyopya",
          "alt_name:vi": "Ê-ti-ô-pi-a",
          "old_name:az": "Həbəşistan",
          "old_name:ce": "Абиссини",
          "old_name:cs": "Habeš",
          "old_name:de": "Abessinien",
          "old_name:eo": "Abisenio",
          "old_name:es": "Abisinia",
          "old_name:fi": "Abessinia",
          "old_name:fr": "Abessinien",
          "old_name:ig": "Oromo",
          "old_name:io": "Abisinia",
          "old_name:it": "Abissinia",
          "old_name:kn": "ಅಬಿಸಿನಿಯಾ",
          "old_name:ku": "Hebeşîstan",
          "old_name:la": "Abyssinia",
          "old_name:rm": "Abessinia",
          "old_name:ru": "Абиссиния",
          "old_name:sk": "Abesínia;Abesínsko",
          "old_name:sl": "Abesinija",
          "old_name:sq": "Absinia",
          "old_name:uz": "Habashiston",
          "alt_name:ang": "Æthiopia",
          "alt_name:arc": "ܐܬܝܘܦܝܐ",
          "alt_name:ceb": "Etyopiya",
          "alt_name:hak": "Abyssinia",
          "alt_name:koi": "Эфиопия",
          "alt_name:scn": "Itiòpia",
          "alt_name:war": "Ethiopia",
          "name:bat-smg": "Etiuopėjė",
          "name:cbk-zam": "Etiopía",
          "name:zh-Hans": "埃塞俄比亚",
          "name:zh-Hant": "衣索比亞",
          "old_name:bar": "Abessinien",
          "old_name:ext": "Abisinia",
          "old_name:lez": "Абиссиния",
          "old_name:pam": "Abyssinia",
          "old_name:stq": "Abessinien",
          "old_name:vep": "Abissinii",
          "name:roa-tara": "Etiopie",
          "official_name": "የኢትዮጵያ ፌዴራላዊ ዴሞክራሲያዊ ሪፐብሊክ",
          "short_name:am": "ኢ.ፌ.ዲ.ሪ.",
          "short_name:be": "ФДРЭ",
          "short_name:es": "RDFE",
          "name:be-tarask": "Этыёпія",
          "name:zh_pinyin": "Āisàiébǐyà",
          "ISO3166-1:alpha2": "ET",
          "ISO3166-1:alpha3": "ETH",
          "default_language": "am",
          "official_name:af": "Federale Demokratiese Republiek van Ethiopië",
          "official_name:am": "የኢትዮጵያ ፌዴራላዊ ዴሞክራሲያዊ ሪፐብሊክ",
          "official_name:an": "Republica Democratica Federal d'Etiopia",
          "official_name:ar": "جمهورية إثيوبيا الفيدرالية الديمقراطية",
          "official_name:az": "Efiopiya Federal Demokratik Respublikası",
          "official_name:ba": "Эфиопия Федератив Демократик Республикаһы",
          "official_name:be": "Федэраты́ўная Дэмакраты́чная Рэспу́бліка Эфіопія",
          "official_name:bg": "Федерална демократична република Етиопия",
          "official_name:bm": "Kurufa Bɛjɛfanga Fasojamana",
          "official_name:bn": "কেন্দ্রীয় গণপ্রজাতন্ত্রী ইথিওপিয়া",
          "official_name:br": "Republik demokratel gevreadel Etiopia",
          "official_name:bs": "Savezna Demokratska Republika Etiopija",
          "official_name:ca": "Ityop'iya Federalawi Demokrasiyawi Ripeblik",
          "official_name:ce": "Федерати́вни Демократи́н Респу́блика Эфио́пи",
          "official_name:cs": "Etiopská federativní demokratická republika",
          "official_name:cu": "Єѳїопїꙗ Съвѫꙁьна Димократїꙗ",
          "official_name:cv": "Федерати́вла Демократиллĕ Респу́блика Эфио́пи",
          "official_name:cy": "Gweriniaeth Ddemocrataidd Ffederal Ethiopia",
          "official_name:da": "Den Føderale Demokratiske Republik Etiopien",
          "official_name:de": "Demokratische Bundesrepublik Äthiopien",
          "official_name:el": "Ομοσπονδιακή Δημοκρατία της Αιθιοπίας",
          "official_name:en": "Federal Democratic Republic of Ethiopia",
          "official_name:eo": "Federacia Demokratia Respubliko Etiopio",
          "official_name:es": "República Democrática Federal de Etiopía",
          "official_name:et": "Etioopia Demokraatlik Liitvabariik",
          "official_name:eu": "Etiopiako Errepublika Federal Demokratikoa",
          "official_name:fa": "جمهوری دموکراتیک فدرال اتیوپی",
          "official_name:fi": "Etiopian demokraattinen liittotasavalta",
          "official_name:fr": "République fédérale démocratique d'Éthiopie",
          "official_name:fy": "Federale Demokratyske Republyk Etioopje",
          "official_name:ga": "Poblacht Dhaonlathach Fheidearálach na hAetóipe",
          "official_name:gd": "Poblachd Fheadarail Dheamocratach na h-Aetiòp",
          "official_name:gl": "República Democrática Federal de Etiopía",
          "official_name:gn": "Tetã Etiopia",
          "official_name:gu": "સંઘીય અને લોકતાંત્રિક ઇથિયોપિયાનું ગણરાજ્ય",
          "official_name:gv": "Pobblaght ny h-Eetoip",
          "official_name:ha": "Jamhuriyar Ethiopia",
          "official_name:he": "הרפובליקה הדמוקרטית הפדרלית של אתיופיה",
          "official_name:hi": "इथियोपिया संघीय लोकतांत्रिक गणराज्य",
          "official_name:hr": "Savezna Demokratska Republika Etiopija",
          "official_name:hu": "Etióp Szövetségi Demokratikus Köztársaság",
          "official_name:hy": "Եթովպիայի Դաշնային Ժողովրդավարական Հանրապետություն",
          "official_name:ia": "Republica Democratic Federal de Ethiopia",
          "official_name:id": "Republik Demokratik Federal Etiopia",
          "official_name:ig": "Obodo Ochíchìíwú Ethiopia",
          "official_name:it": "Repubblica federale democratica dell'Etiopia",
          "official_name:ja": "エチオピア連邦民主共和国",
          "official_name:jv": "Républik Dhémokratik Federal Éteopiah",
          "official_name:ka": "ეთიოპიის ფედერაციული დემოკრატიული რესპუბლიკა",
          "official_name:kg": "Demokrasiyawi Ripeblik Itiopia",
          "official_name:kk": "Эфиопия Федеративтік Демократиялық Республикасы",
          "official_name:kn": "ಇತಿಯೋಪಿಯ ಸಂಯುಕ್ತ ಪ್ರಜಾಸತ್ತಾತ್ಮಕ ಗಣರಾಜ್ಯ",
          "official_name:ko": "에티오피아 연방 민주 공화국",
          "official_name:ku": "Komara Federal a Demokratîk a Etiyopya",
          "official_name:kv": "Эфиопия Федерация Демократия Республика",
          "official_name:lb": "Demokratesch Bundesrepublik Ethiopien",
          "official_name:lt": "Etiopijos Federacinė Demokratinė Respublika",
          "official_name:lv": "Etiopijas Federatīvā Demokrātiskā Republika",
          "official_name:mk": "Сојузна Демократска Република Етиопија",
          "official_name:ml": "ഫെഡറൽ ഡെമോക്രാറ്റിക് റിപ്പബ്ലിക്ക് ഓഫ് എത്യോപ്യ",
          "official_name:mn": "Холбооны Бүгд Найрамдах Ардчилсан Этиоп Улс",
          "official_name:mr": "इथियोपियाचे संघीय लोकशाही प्रजासत्ताक",
          "official_name:ms": "Republik Demokratik Persekutuan Habsyah",
          "official_name:my": "ဖက်ဒရယ် အီသီယိုးပီးယား ဒီမိုကရက်တစ် သမ္မတနိုင်ငံ",
          "official_name:ne": "सङ्घीय लोकतान्त्रिक गणतन्त्र इथियोपिया",
          "official_name:nl": "Federale Democratische Republiek Ethiopië",
          "official_name:nn": "Den føderale demokratiske republikken Etiopia",
          "official_name:no": "Den føderale demokratiske republikken Etiopia",
          "official_name:oc": "Republica Federala Democratica d'Etiopia",
          "official_name:om": "Rippabliikii Federaalawaa Dimokraatawaa Itiyoophiyaa",
          "official_name:os": "Федеративон Демократион Республикæ Эфиопи",
          "official_name:pa": "ਇਥੋਪੀਆ ਦਾ ਸੰਘੀ ਲੋਕਤੰਤਰੀ ਗਣਰਾਜ",
          "official_name:pl": "Federalna Demokratyczna Republika Etiopii",
          "official_name:ps": "ایتوپیا فدرالي دموکراتیک جمهوریت",
          "official_name:pt": "República Democrática Federal da Etiópia",
          "official_name:qu": "Runakamaq Tantasqa Republika Ithiwpiya",
          "official_name:rm": "Republica federala democrata da l'Etiopia",
          "official_name:ro": "Republica Federală Democratică a Etiopiei",
          "official_name:ru": "Федеративная Демократическая Республика Эфиопия",
          "official_name:sc": "Republica Federali de Etiòpia",
          "official_name:sg": "Gbêko Kùodùorùosêse tî Ngunuhalëzo tî Etiopïi",
          "official_name:sh": "Savezna Demokratska Republika Etiopija",
          "official_name:si": "ඉතියෝපියානු ෆෙඩරල් ප්‍රජාතන්ත්‍රවාදී ජනරජය",
          "official_name:sk": "Etiópska federatívna demokratická republika",
          "official_name:sl": "Federatívna demokrátična repúblika Etiópija",
          "official_name:sm": "Feterale Faatemokalasi Ripapelika o Aitiope",
          "official_name:so": "Jamhuuriyadda Dimuqraadiga Federaalka Itoobiya",
          "official_name:sr": "Савезна Демократска Република Етиопија",
          "official_name:su": "Républik Démokratik Féderal Étiopia",
          "official_name:sv": "Demokratiska förbundsrepubliken Etiopien",
          "official_name:sw": "Shirikisho la Jamhuri ya Kidemokrasia ya Ethiopia",
          "official_name:ta": "எத்தியோப்பியக் கூட்டாட்சி சனநாயகக் குடியரசு",
          "official_name:te": "ఫెడరల్ ప్రజాతంత్ర గణతంత్ర ఇథియోపియా",
          "official_name:th": "สหพันธ์สาธารณรัฐประชาธิปไตยเอธิโอเปีย",
          "official_name:tk": "Efiopiýa Federatiw Demokratik Respublikasy",
          "official_name:tl": "Demokratikong Republikang Pederal ng Ethiopia",
          "official_name:tr": "Etiyopya Federal Demokratik Cumhuriyeti",
          "official_name:tt": "Хәбәшстан Федератив Демократик Җөмһүрияте",
          "official_name:uk": "Федерати́вна Демократи́чна Респу́бліка Ефіо́пія",
          "official_name:ur": "وفاقی جمہوری جمہوریہ ایتھوپیا",
          "official_name:uz": "Efiopiya Federativ Demokratik Respublikasi",
          "official_name:vi": "Cộng hòa Dân chủ Liên bang Ethiopia",
          "official_name:wo": "Réewum Ecoopi",
          "official_name:yi": "פעדעראלע דעמאקראטישע רעפובליק פון עטיאפיע",
          "official_name:zh": "埃塞俄比亚联邦民主共和国",
          "ISO3166-1:numeric": "231",
          "official_name:ady": "Федератив Демократик Республикэу Эфиопие",
          "official_name:als": "Demokratischi Bundesrepublik Ethiopie",
          "official_name:arc": "ܩܘܛܢܝܘܬܐ ܕܝܡܘܩܪܛܝܬܐ ܦܕܪܠܝܬܐ ܕܟܘܫ",
          "official_name:arz": "جمهورية اثيوبيا الديموقراطيه الفيدراليه",
          "official_name:ast": "República Democrática Federal d'Etiopía",
          "official_name:bcl": "Repúblika Demokrátikan Pederal nin Etiopia",
          "official_name:bjn": "Republik Demokratik Federal Ethiopia",
          "official_name:bpy": "কেন্দ্রীয় গনতান্ত্রিক প্রজাতন্ত্রি ইথিওপিয়া",
          "official_name:bxr": "Холбооной Бүгэдэ Найрамдаха Арадшалһан Этиопи Улас",
          "official_name:chr": "ᎠᏰᏟᏥ ᏈᏍᏗᎤᎾᏓᏅᏖᏗ ᏍᎦᏚᎩ ᎾᎿ ᎢᏗᎣᏈᎠ",
          "official_name:ckb": "کۆماری دیموکراتیکی فیدراڵی ئیتیۆپیا",
          "official_name:crh": "Abeşistan Federal Demokratik Cumhuriyeti",
          "official_name:diq": "Cumhuriyeto Federal Etyopya",
          "official_name:dsb": "Etiopiska zwězkowa demokratiska republika",
          "official_name:ext": "Repúbrica Democrática Federal d'Etiopia",
          "official_name:frr": "Demokratisk Bundesrepubliik Etioopien",
          "official_name:gan": "埃塞俄比亞聯邦民主共和國",
          "official_name:hsb": "Etiopiska federalna demokratiska republika",
          "official_name:ilo": "Pederal Demokratiko a Republika ti Etiopia",
          "official_name:jam": "Fedaral Dimokratik Ripoblik a Iityuopia",
          "official_name:lad": "Repuvlika Demokratika Federala de Etiopia",
          "official_name:lez": "Федератив Демократиядин Республика Эфиопия",
          "official_name:lij": "Ityop'iya Federalawi Demokrasiyawi Ripeblik",
          "official_name:lmo": "Repüblica Demucratiga Federala d'Etiopia",
          "official_name:mai": "इथियोपिया संघीय लोकतांत्रिक गणराज्य",
          "official_name:min": "Republik Demokratik Pasarikatan Ethiopia",
          "official_name:mzn": "اتیوپی ِفدرال ِدموکراتیک جمهوری",
          "official_name:nah": "Nenāhuatīliztli Tlācatēpacholiztli Tlācatlahtohcāyōtl Etiopia",
          "official_name:nan": "Ethiopia Liân-pang Jîn-bîn Kiōng-hô-kok",
          "official_name:nds": "Demokraatsche Bundsrepublik Äthiopien",
          "official_name:new": "संघीय गणतन्त्र इथियोपिया",
          "official_name:nso": "Federal repabliki Ethiopia",
          "official_name:pap": "Republika Federal Demokratiko di Ethiopia",
          "official_name:pms": "Repùblica Democràtica Federal d'Etiòpia",
          "official_name:sah": "Этиопия Федерал Демократ Республиката",
          "official_name:scn": "Ripùbbrica Fidirali Dimucràtica d'Etiopia",
          "official_name:sco": "Federal Democratic Republic o Ethiopie",
          "official_name:stq": "Demokratiske Buundesrepublik Äthiopien",
          "official_name:szl": "Federalno Dymokratyčno Republika Etjopije",
          "official_name:vec": "Republica Democratica Federale de l'Etiopia",
          "official_name:vep": "Efiopijan Federativine Demokratine Tazovaldkund",
          "official_name:vro": "Etioopia Demokraatlinõ Liitvabariik",
          "official_name:wuu": "埃塞俄比亞聯邦民主共和國",
          "official_name:xmf": "ეთიოპიაშ ფედერაციული დემოკრატიული რესპუბლიკა",
          "official_name:yue": "埃塞俄比亞聯邦民主共和國",
          "official_name:zea": "Federale Democratische Republiek Ethiopië",
          "old_name:roa-tara": "Abissinie",
          "short_name:be-tarask": "ФДРЭ",
          "official_name:roa-tara": "Repubbleche Federale Democrateche d'Etiopie",
          "official_name:be-tarask": "Фэдэраты́ўная Дэмакраты́чная Рэспу́бліка Этыёпія"
        }
      },
      "geometry": {
        "type": "Polygon",
        "coordinates": [
          [
            [
              41,
              14
            ],
            [
              41.00539869466923,
              14
            ],
            [
              41,
              14.00881116428112
            ],
            [
              41,
              14
            ]
          ]
        ]
      }
    },
    {
      "type": "Feature",
      "properties": {
        "osm_id": -305092,
        "boundary": "administrative",
        "admin_level": 2,
        "parents": null,
        "name": "Yemen",
        "local_name": "اليمن",
        "name_en": "Yemen",
        "all_tags": {
          "flag": "http://upload.wikimedia.org/wikipedia/commons/8/89/Flag_of_Yemen.svg",
          "name": "اليمن",
          "name:af": "Jemen",
          "name:am": "የመን (አገር)",
          "name:an": "Yemen",
          "name:ar": "اليمن",
          "name:az": "Yəmən",
          "name:ba": "Йемен",
          "name:be": "Емен",
          "name:bg": "Йемен",
          "name:bn": "ইয়েমেন",
          "name:bo": "ཡེ་མེན།",
          "name:br": "Yemen",
          "name:bs": "Jemen",
          "name:ca": "Iemen",
          "name:ce": "Йемен",
          "name:co": "Yemen",
          "name:cs": "Jemen",
          "name:cv": "Йемен",
          "name:cy": "Yemen",
          "name:da": "Yemen",
          "name:de": "Jemen",
          "name:dv": "ޔަމަން",
          "name:el": "Υεμένη",
          "name:en": "Yemen",
          "name:eo": "Jemeno",
          "name:es": "Yemen",
          "name:et": "Jeemen",
          "name:eu": "Yemen",
          "name:fa": "یمن",
          "name:fi": "Jemen",
          "name:fo": "Jemen",
          "name:fr": "Yémen",
          "name:fy": "Jemen",
          "name:ga": "Poblacht Éimin",
          "name:gd": "Iemen",
          "name:gl": "Iemen - اليمن",
          "name:gn": "Jemẽ",
          "name:gu": "યેમેન",
          "name:gv": "Yn Yeaman",
          "name:he": "תימן",
          "name:hi": "यमन",
          "name:hr": "Jemen",
          "name:ht": "Yemèn",
          "name:hu": "Jemen",
          "name:hy": "Եմեն",
          "name:ia": "Yemen",
          "name:id": "Yaman",
          "name:ie": "Yemen",
          "name:io": "Yemen",
          "name:is": "Jemen",
          "name:it": "Yemen",
          "name:ja": "イエメン",
          "name:jv": "Yaman",
          "name:ka": "იემენი",
          "name:ki": "Yemen",
          "name:kk": "Йемен",
          "name:kl": "Yemen",
          "name:kn": "ಯೆಮೆನ್",
          "name:ko": "예멘",
          "name:ks": "یَمَن",
          "name:ku": "Yemen",
          "name:kv": "Йемен",
          "name:kw": "Yemen",
          "name:ky": "Йемен",
          "name:la": "Iemenia",
          "name:lb": "Jemen",
          "name:li": "Jeme",
          "name:ln": "Yeméni",
          "name:lt": "Jemenas",
          "name:lv": "Jemena",
          "name:mk": "Јемен",
          "name:ml": "യെമൻ",
          "name:mn": "Йемен",
          "name:mr": "येमेनचे प्रजासत्ताक",
          "name:ms": "Yaman",
          "name:mt": "Jemen",
          "name:my": "ယီမင်နိုင်ငံ",
          "name:na": "Yemen",
          "name:ne": "गणतन्त्र यमन",
          "name:nl": "Jemen",
          "name:nn": "Jemen",
          "name:no": "Jemen",
          "name:nv": "Shádiʼááhjí Ásáí Bikéyah",
          "name:oc": "Iemèn",
          "name:or": "ୟେମେନ",
          "name:os": "Йемен",
          "name:pa": "ਯਮਨ",
          "name:pl": "Jemen",
          "name:ps": "یمن",
          "name:pt": "Iémen",
          "name:qu": "Yaman",
          "name:ro": "Yemen",
          "name:ru": "Йемен",
          "name:rw": "Yemeni",
          "name:sa": "यमन",
          "name:sd": "يمن",
          "name:se": "Jemen",
          "name:sh": "Jemen",
          "name:sk": "Jemen",
          "name:sl": "Jemen",
          "name:so": "Yemen",
          "name:sq": "Jemeni",
          "name:sr": "Јемен",
          "name:ss": "IYemeni",
          "name:su": "Yaman",
          "name:sv": "Jemen",
          "name:sw": "Yemen",
          "name:ta": "யெமன்",
          "name:te": "యెమన్",
          "name:tg": "Яман",
          "name:th": "ประเทศเยเมน",
          "name:tk": "Ýemen",
          "name:tl": "Yemen",
          "name:tr": "Yemen",
          "name:tt": "Йәмән",
          "name:ug": "يەمەن",
          "name:uk": "Ємен",
          "name:ur": "یمن",
          "name:uz": "Yaman",
          "name:vi": "Yemen",
          "name:vo": "Yämän",
          "name:wo": "Yaman",
          "name:yi": "תימן",
          "name:yo": "Yemen",
          "name:zh": "也门 / 葉門",
          "name:zu": "IYemen",
          "boundary": "administrative",
          "name:ace": "Yaman",
          "name:als": "Jemen",
          "name:ang": "Gemen",
          "name:arc": "ܝܡܢ",
          "name:arz": "اليمن",
          "name:ast": "Yeme",
          "name:azb": "یمن",
          "name:bar": "Jemen",
          "name:bcl": "Yemen",
          "name:ber": "ⵢⴰⵎⴰⵏ",
          "name:bpy": "ইয়েমেন",
          "name:bug": "Yaman",
          "name:bxr": "Йемен",
          "name:ceb": "Yemen",
          "name:ckb": "یەمەن",
          "name:crh": "Yemen",
          "name:csb": "Jemen",
          "name:diq": "Yemen",
          "name:dsb": "Jemen",
          "name:ext": "Yemen",
          "name:frp": "Yèmen",
          "name:gag": "Yemen",
          "name:hak": "Ya̍p-mùn",
          "name:haw": "Iemene",
          "name:hif": "Yemen",
          "name:hsb": "Jemen",
          "name:ilo": "Yemen",
          "name:jbo": "djemen",
          "name:kaa": "Yemen",
          "name:kab": "Yamen",
          "name:kbd": "Йемен",
          "name:kmr": "یەمەن",
          "name:lad": "Teman",
          "name:lez": "Йемен",
          "name:lij": "Yemen",
          "name:lmo": "Yemen",
          "name:mzn": "یمن",
          "name:nah": "Yemen",
          "name:nan": "Yemen",
          "name:nap": "Yemen",
          "name:nds": "Jemen",
          "name:new": "गणतन्त्र यमन",
          "name:nov": "Yemen",
          "name:pam": "Yemen",
          "name:pap": "Yemen",
          "name:pih": "Yemen",
          "name:pms": "Yemen",
          "name:pnb": "یمن",
          "name:sah": "Йиэмэн",
          "name:scn": "Yemen",
          "name:sco": "Yemen",
          "name:smn": "Jemen",
          "name:sms": "Jemeeʹn",
          "name:stq": "Jemen",
          "name:szl": "Jymyn",
          "name:tpi": "Yemen",
          "name:tzl": "Iemén",
          "name:udm": "Йемен",
          "name:vec": "Jemen",
          "name:vro": "Jeemen",
          "name:war": "Yemen",
          "name:wuu": "也门",
          "name:xal": "Йеменмудин Орн",
          "name:yue": "也門",
          "name:zea": "Jeem’n",
          "timezone": "Asia/Aden",
          "way_area": "44.0982",
          "wikidata": "Q805",
          "ISO3166-1": "YE",
          "wikipedia": "ar:اليمن",
          "population": "30491000",
          "admin_level": "2",
          "border_type": "nation",
          "name:bat-smg": "Jemens",
          "name:zh-Hans": "也门",
          "name:zh-Hant": "葉門",
          "official_name": "الجمهورية اليمنية",
          "name:be-tarask": "Емэн",
          "population:date": "2021-07-01",
          "ISO3166-1:alpha2": "YE",
          "ISO3166-1:alpha3": "YEM",
          "default_language": "ar",
          "official_name:ar": "الجمهورية اليمنية",
          "official_name:cs": "Jemenská republika",
          "official_name:eo": "Jemena Respubliko",
          "official_name:fa": "جمهوری یمن",
          "official_name:ru": "Йеменская Республика",
          "official_name:ur": "جمہوریہ یمن",
          "ISO3166-1:numeric": "887",
          "official_name:azb": "یمن جومهوریتی"
        }
      },
      "geometry": {
        "type": "Polygon",
        "coordinates": [
          [
            [
              41.93256515938653,
              15
            ],
            [
              41.9334981,
              14.9982957
            ],
            [
              41.9482678,
              14.9798694
            ],
            [
              41.9533758,
              14.960562
            ],
            [
              41.9584596,
              14.9468061
            ],
            [
              41.9623466,
              14.9374414
            ],
            [
              41.9711062,
              14.9212083
            ],
            [
              41.9861488,
              14.8984776
            ],
            [
              42,
              14.882897199771403
            ],
            [
              42,
              15
            ],
            [
              41.93256515938653,
              15
            ]
          ]
        ]
      }
    }
  ]
}