{
  "type": "FeatureCollection",
  "features": [
    {
      "type": "Feature",
      "properties": {
        "osm_id": -28699,
        "boundary": "administrative",
        "admin_level": 2,
        "parents": null,
        "name": "Georgia",
        "local_name": "·É°·Éê·É•·Éê·É†·Éó·Éï·Éî·Éö·Éù",
        "name_en": "Georgia",
        "all_tags": {
          "flag": "http://upload.wikimedia.org/wikipedia/commons/0/0f/Flag_of_Georgia.svg",
          "name": "·É°·Éê·É•·Éê·É†·Éó·Éï·Éî·Éö·Éù",
          "int_ref": "GE",
          "name:ab": "“ö—ã—Ä“≠—Ç”ô—ã–ª–∞",
          "name:af": "Georgi√´",
          "name:am": "·åÇ·ãÆ·à≠·åÇ·ã´",
          "name:an": "Cheorchia",
          "name:ar": "ÿ¨Ÿàÿ±ÿ¨Ÿäÿß",
          "name:av": "–ì—É—Ä–∂–∏",
          "name:az": "G√ºrc√ºstan",
          "name:be": "–ì—Ä—É–∑—ñ—è",
          "name:bg": "–ì—Ä—É–∑–∏—è",
          "name:bn": "‡¶ú‡¶∞‡ßç‡¶ú‡¶ø‡¶Ø‡¶º‡¶æ (‡¶∞‡¶æ‡¶∑‡ßç‡¶ü‡ßç‡¶∞)",
          "name:bo": "‡Ω†‡Ωá‡Ωº‡Ω¢‡ºã‡Ωá‡Ω≤‡ºã‡Ω°‡ºç (‡Ω¢‡æí‡æ±‡Ω£‡ºã‡ΩÅ‡Ωñ‡ºç)",
          "name:br": "Jorjia (bro)",
          "name:bs": "Gruzija",
          "name:ca": "Ge√≤rgia",
          "name:ce": "–ì—É—å—Ä–∂–∏–π—á–æ—å",
          "name:cs": "Gruzie",
          "name:cu": "–ì—î—°—Ä–≥—óÍôó",
          "name:cv": "–ì—Ä—É–∑–∏",
          "name:cy": "Georgia",
          "name:da": "Georgien",
          "name:de": "Georgien",
          "name:dv": "ﬁñﬁØﬁñﬁ®ﬁîﬁß (ﬁ§ﬁ¶ﬁáﬁ™ﬁâﬁ™)",
          "name:dz": "‡Ωá‡ΩΩ‡ºã‡Ωá‡Ω±",
          "name:ee": "Georgia",
          "name:el": "ŒìŒµœâœÅŒ≥ŒØŒ±",
          "name:en": "Georgia",
          "name:eo": "Kartvelio",
          "name:es": "Georgia",
          "name:et": "Gruusia",
          "name:eu": "Georgia",
          "name:fa": "⁄Øÿ±ÿ¨ÿ≥ÿ™ÿßŸÜ",
          "name:fi": "Georgia",
          "name:fo": "Georgia (land)",
          "name:fr": "G√©orgie",
          "name:fy": "Ge√∂rgje",
          "name:ga": "An tSeoirsia",
          "name:gd": "A' Chairtbheil",
          "name:gl": "Xeorxia - ·É°·Éê·É•·Éê·É†·Éó·Éï·Éî·Éö·Éù",
          "name:gn": "Ge√≥rgia",
          "name:gu": "‡™ú‡´ç‡™Ø‡´ã‡™∞‡´ç‡™ú‡´Ä‡™Ø‡™æ (‡™¶‡´á‡™∂)",
          "name:gv": "Yn √áhorshey",
          "name:he": "◊í◊ê◊ï◊®◊í◊ô◊î",
          "name:hi": "‡§ú‡•â‡§∞‡•ç‡§ú‡§ø‡§Ø‡§æ",
          "name:hr": "Gruzija",
          "name:ht": "Jeoji",
          "name:hu": "Gr√∫zia",
          "name:hy": "’é÷Ä’°’Ω’ø’°’∂",
          "name:ia": "Georgia",
          "name:id": "Georgia",
          "name:ie": "Georgia",
          "name:io": "Gruzia",
          "name:is": "Georg√≠a",
          "name:it": "Georgia",
          "name:ja": "„Ç∏„Éß„Éº„Ç∏„Ç¢",
          "name:jv": "Georgia",
          "name:ka": "·É°·Éê·É•·Éê·É†·Éó·Éï·Éî·Éö·Éù",
          "name:kk": "–ì—Ä—É–∑–∏—è",
          "name:kn": "‡≤ú‡≤æ‡≤∞‡≥ç‡≤ú‡≤ø‡≤Ø",
          "name:ko": "Ï°∞ÏßÄÏïÑ",
          "name:ku": "Gurcistan",
          "name:kv": "–ì—Ä—É–∑–∏—è",
          "name:kw": "Pow Grouzi",
          "name:ky": "–ì—Ä—É–∑–∏—è",
          "name:la": "Georgia",
          "name:lb": "Georgien",
          "name:li": "Georgi√´",
          "name:lt": "Gruzija",
          "name:lv": "Gruzija",
          "name:mi": "H≈çria",
          "name:mk": "–ì—Ä—É–∑–∏—ò–∞",
          "name:ml": "‡¥ú‡µã‡µº‡¥ú‡µç‡¥ú‡¥ø‡¥Ø",
          "name:mn": "–ì“Ø—Ä–∂",
          "name:mr": "‡§ú‡•â‡§∞‡•ç‡§ú‡§ø‡§Ø‡§æ",
          "name:ms": "Georgia",
          "name:mt": "ƒ†eorƒ°ja",
          "name:my": "·ÄÇ·Äª·Ä±·Ä¨·Ä∫·ÄÇ·Äª·ÄÆ·Äö·Ä¨·Äî·Ä≠·ÄØ·ÄÑ·Ä∫·ÄÑ·Ä∂",
          "name:na": "Djiordjiya",
          "name:ne": "‡§ú‡§∞‡•ç‡§ú‡§ø‡§Ø‡§æ (‡§¶‡•á‡§∂)",
          "name:nl": "Georgi√´",
          "name:nn": "Georgia",
          "name:no": "Georgia",
          "name:nv": "J√≥ojah (K√©yah)",
          "name:oc": "Georgia (Cauc√†s)",
          "name:or": "‡¨ú‡¨∞‡≠ç‡¨ú‡¨ø‡¨Ü",
          "name:os": "–ì—É—ã—Ä–¥–∑—ã—Å—Ç–æ–Ω",
          "name:pl": "Gruzja",
          "name:ps": "⁄´ÿ±ÿ¨ÿ≥ÿ™ÿßŸÜ",
          "name:pt": "Ge√≥rgia",
          "name:qu": "Kartulsuyu",
          "name:ro": "Georgia",
          "name:ru": "–ì—Ä—É–∑–∏—è",
          "name:rw": "Geworugiya",
          "name:sc": "Georgia",
          "name:se": "Georgia",
          "name:sh": "Gruzija",
          "name:si": "‡∂¢‡∑ù‡∂ª‡∑ä‡∂¢‡∑í‡∂∫‡∑è (‡∂ª‡∂ß)",
          "name:sk": "Gruz√≠nsko",
          "name:sl": "Gruzija",
          "name:so": "Joorjiya",
          "name:sq": "Gjeorgjia",
          "name:sr": "–ì—Ä—É–∑–∏—ò–∞",
          "name:ss": "IJojiya",
          "name:su": "G√©orgia",
          "name:sv": "Georgien",
          "name:sw": "Georgia (nchi)",
          "name:ta": "‡Æö‡Æø‡ÆØ‡Ææ‡Æ∞‡Øç‡Æö‡Æø‡ÆØ‡Ææ (‡Æ®‡Ææ‡Æü‡ØÅ)",
          "name:te": "‡∞ú‡∞æ‡∞∞‡±ç‡∞ú‡∞ø‡∞Ø‡∞æ (‡∞¶‡±á‡∞∂‡∞Ç)",
          "name:tg": "–ì—É—Ä“∑–∏—Å—Ç–æ–Ω",
          "name:th": "‡∏õ‡∏£‡∏∞‡πÄ‡∏ó‡∏®‡∏à‡∏≠‡∏£‡πå‡πÄ‡∏à‡∏µ‡∏¢",
          "name:tk": "Gruzi√Ωa",
          "name:tl": "Heorhiya",
          "name:tr": "G√ºrcistan",
          "name:tt": "–ì”©—Ä“ó–∏—Å—Ç–∞–Ω",
          "name:ug": "⁄Øÿ±€áÿ≤ŸâŸä€ï",
          "name:uk": "–ì—Ä—É–∑—ñ—è",
          "name:ur": "ÿ¨ÿßÿ±ÿ¨€åÿß",
          "name:uz": "Gurjiston",
          "name:vi": "Gruzia",
          "name:vo": "Grusiy√§n",
          "name:wo": "Jeoorji",
          "name:yi": "◊í◊®◊ï◊ñ◊ô◊¢",
          "name:yo": "Georgia",
          "name:zh": "Ê†ºÈ≤ÅÂêâ‰∫ö / Âñ¨Ê≤ª‰∫û",
          "boundary": "administrative",
          "int_name": "Georgia",
          "name:ace": "Georgia",
          "name:als": "Georgien",
          "name:ang": "Georgia",
          "name:arc": "‹ì‹ò‹™‹ì‹ù‹ê",
          "name:arz": "ÿ¨ŸäŸàÿ±ÿ¨Ÿäÿß",
          "name:ast": "Xeorxa",
          "name:bar": "Georgien",
          "name:bcl": "Georgya",
          "name:bjn": "Jorjiya",
          "name:bxr": "–ì“Ø—Ä–∂",
          "name:cdo": "G√°h-l≈´-g√©k-ƒÅ",
          "name:ceb": "Georgia",
          "name:ckb": "⁄ØŸàÿ±ÿ¨ÿ≥ÿ™ÿßŸÜ",
          "name:crh": "G√ºrcistan",
          "name:csb": "Gr√´z√≥≈Ñsk√¥",
          "name:diq": "Gurcƒ±stan",
          "name:dsb": "Georgiska",
          "name:ext": "Ge√≥lgia",
          "name:frp": "J√¥rg¬∑ie",
          "name:frr": "Georgien",
          "name:gag": "Gruziya",
          "name:hak": "Kak-l√ª-kit-√¢",
          "name:haw": "Keokia",
          "name:hif": "Georgia",
          "name:hsb": "Georgiska",
          "name:ilo": "Georgia",
          "name:kaa": "Gruziya",
          "name:kbd": "–•—ä—ã—Ä—Ü–µ–π",
          "name:krc": "–ì—é—Ä–¥–∂—é",
          "name:lbe": "–ì—É—Ä–∂–∏—Å—Ç—Ç–∞–Ω",
          "name:lez": "–ì—É—Ä–∂–∏—Å—Ç–∞–Ω",
          "name:lij": "Ge√≤rgia",
          "name:lmo": "Georgia",
          "name:ltg": "Gruzeja",
          "name:mdf": "–ì—Ä—É–∑–∏–µ",
          "name:mhr": "–ì—Ä—É–∑–∏–π",
          "name:min": "Georgia",
          "name:mzn": "⁄Øÿ±ÿ¨ÿ≥ÿ™ŸàŸÜ",
          "name:nah": "Georgia",
          "name:nan": "Sakartvelo",
          "name:nds": "Georgien",
          "name:new": "‡§ú‡•ç‡§Ø‡•ã‡§∞‡•ç‡§ú‡§ø‡§Ø‡§æ",
          "name:nov": "Georgia",
          "name:pam": "Georgya",
          "name:pih": "Jorja",
          "name:pms": "Ge√≤rgia",
          "name:pnb": "⁄Øÿ±ÿ¨ÿ≥ÿ™ÿßŸÜ",
          "name:pnt": "ŒìœÅŒøœÖŒ∂ŒØŒ±",
          "name:sah": "–ì—Ä—É–∑–∏—è",
          "name:scn": "Giorgia",
          "name:sco": "Georgie",
          "name:smn": "Georgia",
          "name:sms": "Georgia",
          "name:stq": "Georgien",
          "name:szl": "Gruzyj≈è",
          "name:tok": "ma Katelo",
          "name:tzl": "Cartavia",
          "name:udm": "–ì—Ä—É–∑–∏—è",
          "name:vec": "Zorzania",
          "name:vep": "Gruzii",
          "name:vro": "Gruusia",
          "name:war": "Georgia",
          "name:wuu": "Ê†ºÈ≤ÅÂêâ‰∫ö",
          "name:xal": "–ì“Ø—Ä“ó–º“Ø–¥–∏–Ω –û—Ä–Ω",
          "name:xmf": "·É°·Éê·É•·Éù·É†·Éó·É£·Éù",
          "name:yue": "Ê†ºÈ≠ØÂêâ‰∫û",
          "name:zea": "Georhi√´",
          "timezone": "Asia/Tbilisi",
          "way_area": "8.26176",
          "wikidata": "Q230",
          "ISO3166-1": "GE",
          "wikipedia": "en:Georgia (country)",
          "population": "3729500",
          "admin_level": "2",
          "alt_name:eo": "Kartvelujo",
          "border_type": "International",
          "old_name:fi": "Gruusia",
          "old_name:ja": "„Ç∞„É´„Ç∏„Ç¢",
          "addr:country": "GE",
          "alt_name:ckb": "ÿ¨€Üÿ±ÿ¨€åÿß",
          "name:bat-smg": "Grozƒójƒó",
          "name:zh-Hans": "Ê†ºÈ≤ÅÂêâ‰∫ö",
          "name:zh-Hant": "Âñ¨Ê≤ª‰∫û",
          "name:be-tarask": "–ì—Ä—É–∑—ñ—è",
          "population:date": "2015",
          "ISO3166-1:alpha2": "GE",
          "ISO3166-1:alpha3": "GEO",
          "default_language": "ka",
          "ISO3166-1:numeric": "268"
        }
      },
      "geometry": {
        "type": "Polygon",
        "coordinates": [
          [
            [
              41.2994398,
              41.612
            ],
            [
              41.5470851,
              41.5206665
            ],
            [
              41.55489,
              41.518226
            ],
            [
              41.557194,
              41.518386
            ],
            [
              41.56218,
              41.519588
            ],
            [
              41.564141,
              41.519326
            ],
            [
              41.566512,
              41.519351
            ],
            [
              41.570442,
              41.519834
            ],
            [
              41.571783,
              41.519783
            ],
            [
              41.573338,
              41.519144
            ],
            [
              41.576302,
              41.518317
            ],
            [
              41.581022,
              41.515348
            ],
            [
              41.581954,
              41.513821
            ],
            [
              41.5818,
              41.512125
            ],
            [
              41.5823,
              41.510722
            ],
            [
              41.585204,
              41.508705
            ],
            [
              41.592789,
              41.507918
            ],
            [
              41.596304,
              41.507017
            ],
            [
              41.60038,
              41.505262
            ],
            [
              41.602207,
              41.504065
            ],
            [
              41.60495,
              41.503963
            ],
            [
              41.607959,
              41.503411
            ],
            [
              41.610376,
              41.502568
            ],
            [
              41.612836,
              41.502046
            ],
            [
              41.615509,
              41.502125
            ],
            [
              41.618025,
              41.501696
            ],
            [
              41.620516,
              41.500581
            ],
            [
              41.621737,
              41.499336
            ],
            [
              41.622602,
              41.497898
            ],
            [
              41.62264,
              41.497168
            ],
            [
              41.623506,
              41.49573
            ],
            [
              41.625624,
              41.493586
            ],
            [
              41.628188,
              41.492243
            ],
            [
              41.628643,
              41.491662
            ],
            [
              41.628957,
              41.490299
            ],
            [
              41.630299,
              41.489058
            ],
            [
              41.633678,
              41.487231
            ],
            [
              41.635406,
              41.486733
            ],
            [
              41.639725,
              41.486722
            ],
            [
              41.641689,
              41.486368
            ],
            [
              41.643871,
              41.486523
            ],
            [
              41.645524,
              41.486297
            ],
            [
              41.647886,
              41.485314
            ],
            [
              41.649822,
              41.485508
            ],
            [
              41.651478,
              41.485236
            ],
            [
              41.655724,
              41.485451
            ],
            [
              41.661844,
              41.484092
            ],
            [
              41.665694,
              41.482557
            ],
            [
              41.666903,
              41.482684
            ],
            [
              41.670852,
              41.483941
            ],
            [
              41.672662,
              41.484223
            ],
            [
              41.674265,
              41.483812
            ],
            [
              41.675103,
              41.484065
            ],
            [
              41.678681,
              41.486637
            ],
            [
              41.682577,
              41.487756
            ],
            [
              41.686209,
              41.486901
            ],
            [
              41.691548,
              41.488335
            ],
            [
              41.692667,
              41.489053
            ],
            [
              41.693816,
              41.489178
            ],
            [
              41.694534,
              41.490616
            ],
            [
              41.697958,
              41.491446
            ],
            [
              41.699418,
              41.492631
            ],
            [
              41.699926,
              41.493423
            ],
            [
              41.70104,
              41.494232
            ],
            [
              41.703427,
              41.495136
            ],
            [
              41.705768,
              41.495751
            ],
            [
              41.707093,
              41.496018
            ],
            [
              41.708492,
              41.4959271
            ],
            [
              41.709758,
              41.496232
            ],
            [
              41.711404,
              41.494953
            ],
            [
              41.7133807,
              41.4931125
            ],
            [
              41.7144289,
              41.4928796
            ],
            [
              41.7152824,
              41.490631
            ],
            [
              41.7153,
              41.485272
            ],
            [
              41.714925,
              41.484255
            ],
            [
              41.714995,
              41.482886
            ],
            [
              41.714385,
              41.481725
            ],
            [
              41.714164,
              41.480072
            ],
            [
              41.713253,
              41.478857
            ],
            [
              41.711655,
              41.477988
            ],
            [
              41.709244,
              41.476365
            ],
            [
              41.708029,
              41.475141
            ],
            [
              41.707818,
              41.474495
            ],
            [
              41.708939,
              41.473978
            ],
            [
              41.710354,
              41.473653
            ],
            [
              41.711811,
              41.473694
            ],
            [
              41.714287,
              41.47404
            ],
            [
              41.716077,
              41.473496
            ],
            [
              41.717056,
              41.473387
            ],
            [
              41.718006,
              41.473826
            ],
            [
              41.719851,
              41.473421
            ],
            [
              41.722608,
              41.472997
            ],
            [
              41.724255,
              41.472906
            ],
            [
              41.727386,
              41.47231
            ],
            [
              41.728964,
              41.472355
            ],
            [
              41.730891,
              41.47273
            ],
            [
              41.732533,
              41.472731
            ],
            [
              41.73455,
              41.472514
            ],
            [
              41.736519,
              41.472049
            ],
            [
              41.738193,
              41.471411
            ],
            [
              41.739879,
              41.471733
            ],
            [
              41.741107,
              41.471494
            ],
            [
              41.742356,
              41.470843
            ],
            [
              41.743936,
              41.470842
            ],
            [
              41.746889,
              41.471383
            ],
            [
              41.751313,
              41.470456
            ],
            [
              41.752828,
              41.470545
            ],
            [
              41.753995,
              41.470304
            ],
            [
              41.755302,
              41.4697
            ],
            [
              41.756612,
              41.467817
            ],
            [
              41.760341,
              41.466184
            ],
            [
              41.766886,
              41.464173
            ],
            [
              41.768296,
              41.463939
            ],
            [
              41.769605,
              41.46329
            ],
            [
              41.771168,
              41.461813
            ],
            [
              41.773277,
              41.460958
            ],
            [
              41.774381,
              41.46076
            ],
            [
              41.775062,
              41.461739
            ],
            [
              41.775531,
              41.463307
            ],
            [
              41.775875,
              41.463729
            ],
            [
              41.777179,
              41.463171
            ],
            [
              41.782639,
              41.46218
            ],
            [
              41.783397,
              41.461607
            ],
            [
              41.784978,
              41.461606
            ],
            [
              41.78688,
              41.461247
            ],
            [
              41.787294,
              41.460253
            ],
            [
              41.787427,
              41.456324
            ],
            [
              41.788896,
              41.454278
            ],
            [
              41.789026,
              41.452864
            ],
            [
              41.788743,
              41.45121
            ],
            [
              41.788788,
              41.450297
            ],
            [
              41.789443,
              41.449355
            ],
            [
              41.792487,
              41.448022
            ],
            [
              41.796176,
              41.447165
            ],
            [
              41.800152,
              41.44787
            ],
            [
              41.80218,
              41.447423
            ],
            [
              41.805968,
              41.445791
            ],
            [
              41.808049,
              41.443014
            ],
            [
              41.812076,
              41.440199
            ],
            [
              41.812657,
              41.437036
            ],
            [
              41.813324,
              41.43582
            ],
            [
              41.814921,
              41.434218
            ],
            [
              41.81856,
              41.43313
            ],
            [
              41.822239,
              41.432454
            ],
            [
              41.82296,
              41.431377
            ],
            [
              41.823115,
              41.430695
            ],
            [
              41.823607,
              41.430572
            ],
            [
              41.823994,
              41.43136
            ],
            [
              41.825336,
              41.432494
            ],
            [
              41.827867,
              41.434165
            ],
            [
              41.829529,
              41.434988
            ],
            [
              41.831709,
              41.43514
            ],
            [
              41.834175,
              41.435665
            ],
            [
              41.836983,
              41.436657
            ],
            [
              41.840726,
              41.438406
            ],
            [
              41.842732,
              41.43965
            ],
            [
              41.84494,
              41.440488
            ],
            [
              41.845748,
              41.441379
            ],
            [
              41.84666,
              41.443874
            ],
            [
              41.846771,
              41.447855
            ],
            [
              41.847343,
              41.448603
            ],
            [
              41.852062,
              41.449052
            ],
            [
              41.853791,
              41.44974
            ],
            [
              41.856632,
              41.45195
            ],
            [
              41.858141,
              41.452174
            ],
            [
              41.861496,
              41.45318
            ],
            [
              41.864535,
              41.454452
            ],
            [
              41.868795,
              41.45562
            ],
            [
              41.870554,
              41.456948
            ],
            [
              41.874652,
              41.4577
            ],
            [
              41.878658,
              41.459089
            ],
            [
              41.881394,
              41.460353
            ],
            [
              41.883778,
              41.463253
            ],
            [
              41.883673,
              41.465445
            ],
            [
              41.884483,
              41.46757
            ],
            [
              41.886757,
              41.469598
            ],
            [
              41.887694,
              41.470967
            ],
            [
              41.887779,
              41.471747
            ],
            [
              41.891365,
              41.473033
            ],
            [
              41.892883,
              41.474354
            ],
            [
              41.894624,
              41.474813
            ],
            [
              41.894832,
              41.47555
            ],
            [
              41.894158,
              41.475669
            ],
            [
              41.894511,
              41.477188
            ],
            [
              41.894443,
              41.478604
            ],
            [
              41.89307,
              41.479344
            ],
            [
              41.892625,
              41.479744
            ],
            [
              41.8936195,
              41.4806803
            ],
            [
              41.8950465,
              41.4814051
            ],
            [
              41.8955921,
              41.4823642
            ],
            [
              41.8962995,
              41.4829763
            ],
            [
              41.897349,
              41.483335
            ],
            [
              41.898156,
              41.484272
            ],
            [
              41.899281,
              41.486177
            ],
            [
              41.899567,
              41.487831
            ],
            [
              41.901027,
              41.489105
            ],
            [
              41.906615,
              41.491817
            ],
            [
              41.910075,
              41.494516
            ],
            [
              41.910916,
              41.498563
            ],
            [
              41.911428,
              41.499309
            ],
            [
              41.91347,
              41.499867
            ],
            [
              41.914411,
              41.500532
            ],
            [
              41.915787,
              41.501026
            ],
            [
              41.917612,
              41.50103
            ],
            [
              41.91833,
              41.501278
            ],
            [
              41.92368,
              41.506474
            ],
            [
              41.925104,
              41.507244
            ],
            [
              41.927734,
              41.508229
            ],
            [
              41.929429,
              41.508411
            ],
            [
              41.932415,
              41.508308
            ],
            [
              41.933565,
              41.50843
            ],
            [
              41.936783,
              41.509842
            ],
            [
              41.938973,
              41.511136
            ],
            [
              41.939827,
              41.512393
            ],
            [
              41.940411,
              41.512912
            ],
            [
              41.940711,
              41.514291
            ],
            [
              41.941879,
              41.515329
            ],
            [
              41.945271,
              41.516928
            ],
            [
              41.948647,
              41.517612
            ],
            [
              41.953177,
              41.520911
            ],
            [
              41.954367,
              41.522771
            ],
            [
              41.955316,
              41.5233
            ],
            [
              41.958336,
              41.523791
            ],
            [
              41.961345,
              41.524511
            ],
            [
              41.962682,
              41.524546
            ],
            [
              41.96556,
              41.524165
            ],
            [
              41.968841,
              41.522971
            ],
            [
              41.97183,
              41.521495
            ],
            [
              41.973304,
              41.521214
            ],
            [
              41.976158,
              41.521335
            ],
            [
              41.978212,
              41.521663
            ],
            [
              41.979997,
              41.522533
            ],
            [
              41.982612,
              41.522556
            ],
            [
              41.984769,
              41.521973
            ],
            [
              41.986901,
              41.520611
            ],
            [
              41.987327,
              41.519296
            ],
            [
              41.987977,
              41.518398
            ],
            [
              41.990212,
              41.517451
            ],
            [
              41.991097,
              41.516742
            ],
            [
              41.99155,
              41.514834
            ],
            [
              41.991586,
              41.514057
            ],
            [
              41.990728,
              41.512891
            ],
            [
              41.990659,
              41.511746
            ],
            [
              41.992362,
              41.509138
            ],
            [
              41.99266,
              41.507288
            ],
            [
              41.992638,
              41.506465
            ],
            [
              41.993851,
              41.505216
            ],
            [
              41.99448,
              41.504775
            ],
            [
              41.9966,
              41.504968
            ],
            [
              42,
              41.50444004476568
            ],
            [
              42,
              42
            ],
            [
              41.457195201462056,
              42
            ],
            [
              41.4605859,
              41.9944107
            ],
            [
              41.4691675,
              41.9825044
            ],
            [
              41.4788223,
              41.9710591
            ],
            [
              41.4805433,
              41.9692983
            ],
            [
              41.4828813,
              41.9614746
            ],
            [
              41.4880244,
              41.9485128
            ],
            [
              41.4943449,
              41.9358397
            ],
            [
              41.5010289,
              41.9248093
            ],
            [
              41.5019849,
              41.9161589
            ],
            [
              41.5047068,
              41.9027874
            ],
            [
              41.5076815,
              41.8928224
            ],
            [
              41.5073279,
              41.8914622
            ],
            [
              41.5051013,
              41.8780349
            ],
            [
              41.5041107,
              41.864523
            ],
            [
              41.5043291,
              41.8526957
            ],
            [
              41.4960923,
              41.8404665
            ],
            [
              41.4890823,
              41.8279745
            ],
            [
              41.4872494,
              41.8239572
            ],
            [
              41.4794624,
              41.820318
            ],
            [
              41.4647616,
              41.8123562
            ],
            [
              41.4508241,
              41.8036641
            ],
            [
              41.4377149,
              41.794282
            ],
            [
              41.425495,
              41.7842533
            ],
            [
              41.4142216,
              41.7736246
            ],
            [
              41.4039471,
              41.762445
            ],
            [
              41.3947194,
              41.7507664
            ],
            [
              41.3877242,
              41.7403454
            ],
            [
              41.3771619,
              41.7327787
            ],
            [
              41.3649421,
              41.7227404
            ],
            [
              41.3536686,
              41.7121015
            ],
            [
              41.3433941,
              41.7009112
            ],
            [
              41.3341664,
              41.6892214
            ],
            [
              41.3260286,
              41.6770864
            ],
            [
              41.3190186,
              41.6645626
            ],
            [
              41.3131692,
              41.6517081
            ],
            [
              41.3085074,
              41.6385827
            ],
            [
              41.3050552,
              41.6252474
            ],
            [
              41.3041535,
              41.6197879
            ],
            [
              41.2994398,
              41.612
            ]
          ]
        ]
      }
    },
    {
      "type": "Feature",
      "properties": {
        "osm_id": -174737,
        "boundary": "administrative",
        "admin_level": 2,
        "parents": null,
        "name": "Turkey",
        "local_name": "T√ºrkiye",
        "name_en": "Turkey",
        "all_tags": {
          "flag": "http://upload.wikimedia.org/wikipedia/commons/b/b4/Flag_of_Turkey.svg",
          "name": "T√ºrkiye",
          "name:aa": "Torusko",
          "name:ab": "“¨—ã—Ä“õ”ô—Ç”ô—ã–ª–∞",
          "name:af": "Turkye",
          "name:ak": "Turki",
          "name:am": "·â±·à≠·ä≠",
          "name:an": "Turqu√≠a",
          "name:ar": "ÿ™ÿ±ŸÉŸäÿß",
          "name:av": "–¢—É—Ä–∫–∏—è",
          "name:ay": "Turkiya",
          "name:az": "T√ºrkiy…ô",
          "name:ba": "–¢”©—Ä–∫–∏”ô",
          "name:be": "–¢—É—Ä—Ü—ã—è",
          "name:bg": "–¢—É—Ä—Ü–∏—è",
          "name:bi": "Turkey",
          "name:bn": "‡¶§‡ßÅ‡¶∞‡¶∏‡ßç‡¶ï",
          "name:bo": "‡Ωè‡Ω¥‡Ω¢‡ºã‡ΩÄ‡Ω≤‡ºç",
          "name:br": "Turkia",
          "name:bs": "Turska",
          "name:ca": "Turquia",
          "name:ce": "–¢—É—Ä–∫–æ–π—á–æ—å",
          "name:co": "Turchia",
          "name:cr": "·ëê·ïí·ë≠",
          "name:cs": "Turecko",
          "name:cu": "–¢—∑—Ä—Ü–∏",
          "name:cv": "–¢—É—Ä—Ü–∏",
          "name:cy": "Twrci",
          "name:da": "Tyrkiet",
          "name:de": "T√ºrkei",
          "name:dv": "ﬁåﬁ™ﬁÉﬁ™ﬁÜﬁ©ﬁàﬁ®ﬁçﬁßﬁåﬁ∞",
          "name:dz": "‡Ωñ‡æ±‡Ω†‡Ω≤‡ºã‡Ω¢‡Ω≤‡ΩÇ‡Ω¶‡ºã‡ΩÖ‡Ω≤‡ΩÇ",
          "name:ee": "Turkey",
          "name:el": "Œ§ŒøœÖœÅŒ∫ŒØŒ±",
          "name:en": "Turkey",
          "name:eo": "Turkio",
          "name:es": "Turqu√≠a",
          "name:et": "T√ºrgi",
          "name:eu": "Turkia",
          "name:fa": "ÿ™ÿ±⁄©€åŸá",
          "name:fi": "Turkki",
          "name:fo": "Turkaland",
          "name:fr": "Turquie",
          "name:fy": "Turkije",
          "name:ga": "An Tuirc",
          "name:gd": "An Tuirc",
          "name:gl": "Turqu√≠a",
          "name:gn": "Tuykia",
          "name:gu": "‡™§‡´Å‡™∞‡´ç‡™ï‡™∏‡´ç‡™§‡™æ‡™®",
          "name:gv": "Yn Turkee",
          "name:ha": "Turkiyya",
          "name:he": "◊ò◊ï◊®◊ß◊ô◊î",
          "name:hi": "‡§§‡•Å‡§∞‡•ç‡§ï‡•Ä",
          "name:hr": "Turska",
          "name:ht": "Tiki",
          "name:hu": "T√∂r√∂korsz√°g",
          "name:hy": "‘π’∏÷Ç÷Ä÷Ñ’´’°",
          "name:ia": "Turchia",
          "name:id": "Turki",
          "name:ie": "Turcia",
          "name:ik": "Turkey",
          "name:io": "Turkia",
          "name:is": "Tyrkland",
          "name:it": "Turchia",
          "name:ja": "„Éà„É´„Ç≥",
          "name:jv": "Turki",
          "name:ka": "·Éó·É£·É†·É•·Éî·Éó·Éò",
          "name:kg": "Turki",
          "name:ki": "Turkey",
          "name:kk": "–¢“Ø—Ä–∫–∏—è",
          "name:kl": "Tyrkia",
          "name:km": "·ûè·ûΩ·ûÄ·ûÇ·û∏",
          "name:kn": "‡≤ü‡≤∞‡≥ç‡≤ï‡≤ø",
          "name:ko": "ÌäÄÎ•¥ÌÇ§Ïòà",
          "name:ku": "Tirkiye",
          "name:kv": "–¢—É—Ä—Ü–∏—è",
          "name:kw": "Turki",
          "name:ky": "–¢“Ø—Ä–∫–∏—è",
          "name:la": "Turcia",
          "name:lb": "Tierkei",
          "name:lg": "Buturuki",
          "name:li": "Turkije",
          "name:ln": "Turk√≠",
          "name:lt": "Turkija",
          "name:lv": "Turcija",
          "name:mg": "Torkia",
          "name:mi": "TƒÅkei",
          "name:mk": "–¢—É—Ä—Ü–∏—ò–∞",
          "name:ml": "‡¥§‡µÅ‡µº‡¥ï‡µç‡¥ï‡¥ø",
          "name:mn": "–¢—É—Ä–∫",
          "name:mr": "‡§§‡•Å‡§∞‡•ç‡§ï‡§∏‡•ç‡§§‡§æ‡§®",
          "name:ms": "Turki",
          "name:mt": "Turkija",
          "name:my": "·Äê·Ä∞·Äõ·ÄÄ·ÄÆ·Äî·Ä≠·ÄØ·ÄÑ·Ä∫·ÄÑ·Ä∂",
          "name:na": "Terki",
          "name:ne": "‡§ü‡§∞‡•ç‡§ï‡•Ä",
          "name:nl": "Turkije",
          "name:nn": "Tyrkia",
          "name:no": "Tyrkia",
          "name:nv": "T º√≥ok Bik√©yah",
          "name:oc": "Turquia",
          "name:or": "‡¨§‡≠Å‡¨∞‡≠ç‡¨ï‡≠Ä",
          "name:os": "–¢—É—Ä–∫",
          "name:pa": "‡®§‡©Å‡®∞‡®ï‡©Ä",
          "name:pl": "Turcja",
          "name:ps": "ÿ™Ÿàÿ±⁄©ŸäŸá",
          "name:pt": "Turquia",
          "name:qu": "Turkiya",
          "name:rm": "Tirchia",
          "name:rn": "Turukiya",
          "name:ro": "Turcia",
          "name:ru": "–¢—É—Ä—Ü–∏—è",
          "name:rw": "Turukiya",
          "name:sa": "‡§§‡•Å‡§∞‡•ç‡§ï‡•Ä",
          "name:sc": "Turkia",
          "name:se": "Durka",
          "name:sh": "Turska",
          "name:si": "‡∂≠‡∑î‡∂ª‡∑ä‡∂ö‡∑í‡∂∫",
          "name:sk": "Turecko",
          "name:sl": "Turƒçija",
          "name:sm": "Take",
          "name:so": "Turkiga",
          "name:sq": "Turqia",
          "name:sr": "–¢—É—Ä—Å–∫–∞",
          "name:ss": "IThekhi",
          "name:su": "Turki",
          "name:sv": "Turkiet",
          "name:sw": "Uturuki",
          "name:ta": "‡Æ§‡ØÅ‡Æ∞‡ØÅ‡Æï‡Øç‡Æï‡Æø",
          "name:te": "‡∞ü‡∞∞‡±ç‡∞ï‡±Ä",
          "name:tg": "–¢—É—Ä–∫–∏—è",
          "name:th": "‡∏õ‡∏£‡∏∞‡πÄ‡∏ó‡∏®‡∏ï‡∏∏‡∏£‡∏Å‡∏µ",
          "name:ti": "·â±·à≠·ä™",
          "name:tk": "T√ºrki√Ωe",
          "name:tl": "Turkiya",
          "name:tr": "T√ºrkiye",
          "name:tt": "–¢”©—Ä–∫–∏—è",
          "name:tw": "Turkey",
          "name:ty": "Turiti",
          "name:ug": "ÿ™€àÿ±ŸÉŸâŸä€ï",
          "name:uk": "–¢—É—Ä–µ—á—á–∏–Ω–∞",
          "name:ur": "ÿ™ÿ±⁄©€å",
          "name:uz": "Turkiya",
          "name:vi": "Th·ªï Nhƒ© K·ª≥",
          "name:vo": "T√ºrk√§n",
          "name:wa": "Tourkeye",
          "name:wo": "Tirki",
          "name:xh": "ITurkiya",
          "name:yi": "◊ò◊¢◊®◊ß◊ô◊ô",
          "name:yo": "T√∫rk√¨",
          "name:za": "Dujwjgiz",
          "name:zh": "ÂúüËÄ≥ÂÖ∂",
          "name:zu": "ITheki",
          "boundary": "administrative",
          "int_name": "T√ºrkiye",
          "name:ace": "Turuki",
          "name:ady": "–¢—ã—Ä–∫—É–µ",
          "name:als": "T√ºrkei",
          "name:ang": "Turcland",
          "name:apc": "ÿ™ÿ±ŸÉŸäÿß",
          "name:arc": "‹õ‹ò‹™‹©‹ù‹ê",
          "name:ary": "ÿ£ŸÜŸÇÿßÿ±ÿß",
          "name:arz": "ÿ™Ÿàÿ±ŸÉŸäÿß",
          "name:ast": "Turqu√≠a",
          "name:azb": "ÿ™Ÿàÿ±⁄©€åŸá",
          "name:bar": "Tiakei",
          "name:bcl": "Turkiya",
          "name:bjn": "Turki",
          "name:bpy": "‡¶§‡ßÅ‡¶∞‡¶∏‡ßç‡¶ï",
          "name:bug": "Turki",
          "name:bxr": "–¢—é—Ä–∫ –£–ª–∞—Å",
          "name:cdo": "T≈´-ƒ´-g√¨",
          "name:ceb": "Turkiya",
          "name:chr": "·é¨·èÇ·è±",
          "name:chy": "Turkey",
          "name:ckb": "ÿ™Ÿàÿ±⁄©€åÿß",
          "name:cnr": "–¢—É—Ä—Å–∫–∞",
          "name:crh": "T√ºrkiye",
          "name:csb": "T√´reck√¥",
          "name:din": "Turkia",
          "name:diq": "Tƒ±rkiya",
          "name:dsb": "Turkojska",
          "name:eml": "Turch√Æ",
          "name:ext": "Turquia",
          "name:frp": "Turquie",
          "name:frr": "T√ºrkei",
          "name:fur": "Turchie",
          "name:gag": "T√ºrkiye",
          "name:gan": "ÂúüËÄ≥ÂÖ∂",
          "name:glk": "ÿ™€äÿ±⁄©ŸäŸá",
          "name:got": "êçÑêçÖêçÇêå∫êåæêå∞",
          "name:hak": "Th√∫-ng√≠-kh√¨",
          "name:haw": "Tureke",
          "name:hif": "Turkey",
          "name:hsb": "Turkowska",
          "name:hyw": "‘π’∏÷Ç÷Ä÷Ñ’´’°",
          "name:ilo": "Turkia",
          "name:inh": "–¢—É—Ä–∫–∏–π",
          "name:jbo": "turk",
          "name:kaa": "T√∫rkiya",
          "name:kab": "Tturk",
          "name:kbd": "–¢—ã—Ä–∫—É",
          "name:kiu": "Tƒ±rkiya",
          "name:koi": "–¢—é—Ä–∫–∏—è",
          "name:krc": "–¢—é—Ä–∫",
          "name:ksh": "T√ºrkei",
          "name:lad": "Turkia",
          "name:lbe": "–¢—É—Ä–∫–∏—è",
          "name:lez": "–¢—É—Ä—Ü–∏—è",
          "name:lij": "Turchia",
          "name:lmo": "T√ºrchia",
          "name:ltg": "Turceja",
          "name:lzh": "ÂúüËÄ≥ÂÖ∂",
          "name:mdf": "–¢—É—Ä–∫–∞–º–∞—Å—Ç–æ—Ä",
          "name:mhr": "–¢—É—Ä—Ü–∏–π",
          "name:mrj": "–¢—É—Ä—Ü–∏",
          "name:mwl": "Turquie",
          "name:mzn": "ÿ™ÿ±⁄©€åŸá",
          "name:nah": "Turquia",
          "name:nan": "T√ºrkiye",
          "name:nap": "Turchia",
          "name:nds": "T√∂rkie",
          "name:new": "‡§ü‡§∞‡•ç‡§ï‡•Ä",
          "name:nov": "Turkia",
          "name:nrm": "Turtchie",
          "name:nso": "Turkey",
          "name:pam": "Turkia",
          "name:pap": "Turkia",
          "name:pcd": "Turkie",
          "name:pdc": "Turkie",
          "name:pes": "ÿ™ÿ±⁄©€åŸá",
          "name:pfl": "Tirkei",
          "name:pih": "Turkii",
          "name:pms": "Turch√¨a",
          "name:pnb": "ÿ™ÿ±⁄©€å",
          "name:pnt": "Œ§ŒøœÖœÅŒ∫ŒØŒ±",
          "name:prs": "ÿ™ÿ±⁄©€åŸá",
          "name:rmy": "Turkiya",
          "name:rue": "–¢—É—Ä—Ü—ñ—è",
          "name:sah": "–¢“Ø—Ä–∫–∏–π—ç",
          "name:scn": "Turch√¨a",
          "name:sco": "Turkey",
          "name:smn": "Turkki",
          "name:sms": "Turkk",
          "name:srn": "Turkiyakondre",
          "name:stq": "Turk√§i",
          "name:szl": "Turcyj≈è",
          "name:tet": "Turkia",
          "name:tpi": "Teki",
          "name:tsd": "Œ§ŒøœÖœÅŒ∫ŒØŒ±",
          "name:tum": "Turkey",
          "name:tzl": "T√ºrchia",
          "name:udm": "–¢—É—Ä—Ü–∏—è",
          "name:vec": "Turchia",
          "name:vep": "Turcii",
          "name:vls": "Turkeye",
          "name:vro": "T√ºrg√º",
          "name:war": "Turkeya",
          "name:wuu": "ÂúüËÄ≥ÂÖ∂",
          "name:xal": "–¢“Ø—Ä–≥“Ø–¥–∏–Ω –û—Ä–Ω",
          "name:xmf": "·Éó·É£·É†·É•·Éî·Éó·Éò",
          "name:yue": "ÂúüËÄ≥ÂÖ∂",
          "name:zea": "Turkije",
          "name:zza": "Tƒ±rkiya",
          "timezone": "Europe/Istanbul",
          "way_area": "89.1987",
          "wikidata": "Q43",
          "ISO3166-1": "TR",
          "name:vlca": "Turquia",
          "wikipedia": "tr:T√ºrkiye",
          "population": "85279553",
          "admin_level": "2",
          "alt_name:ar": "ÿ™ÿ±ŸÉŸäÿß",
          "alt_name:eo": "Turkujo",
          "alt_name:vi": "Th·ªï Nhƒ© K√¨",
          "name:nds-nl": "Turkije",
          "old_name:ko": "ÌÑ∞ÌÇ§",
          "alt_name:haw": "Kuleke",
          "alt_name:lad": "Turkiya",
          "alt_name:tzl": "ma Tuki",
          "name:bat-smg": "Torkƒójƒó",
          "name:cbk-zam": "Turqu√≠a",
          "name:ks-Arab": "ÿ™Ÿèÿ±⁄©€å",
          "name:mn-Mong": "·†≤·†¶·†∑·†ª",
          "name:roa-rup": "Turchia",
          "name:zh-Hans": "ÂúüËÄ≥ÂÖ∂",
          "name:zh-Hant": "ÂúüËÄ≥ÂÖ∂",
          "name:cnr-Latn": "Turska",
          "name:lad-Hebr": "◊ò◊ï◊®◊ß◊≤◊î",
          "name:roa-tara": "Turchie",
          "official_name": "T√ºrkiye Cumhuriyeti",
          "name:be-tarask": "–¢—É—Ä—ç—á—á—ã–Ω–∞",
          "population:date": "2022",
          "ISO3166-1:alpha2": "TR",
          "ISO3166-1:alpha3": "TUR",
          "default_language": "tr",
          "official_name:ar": "ÿßŸÑÿ¨ŸÖŸáŸàÿ±Ÿäÿ© ÿßŸÑÿ™ÿ±ŸÉŸäÿ©",
          "official_name:cs": "Tureck√° republika",
          "official_name:de": "Republik Turkei",
          "official_name:el": "ŒîŒ∑ŒºŒøŒ∫œÅŒ±œÑŒØŒ± œÑŒ∑œÇ Œ§ŒøœÖœÅŒ∫ŒØŒ±œÇ",
          "official_name:en": "Republic of T√ºrkiye",
          "official_name:eo": "Turka Respubliko",
          "official_name:es": "Rep√∫blica de Turqu√≠a",
          "official_name:fi": "Turkin tasavalta",
          "official_name:fr": "R√©publique de Turquie",
          "official_name:he": "◊î◊®◊§◊ï◊ë◊ú◊ô◊ß◊î ◊î◊ò◊ï◊®◊ß◊ô◊™",
          "official_name:ko": "ÌäÄÎ•¥ÌÇ§Ïòà Í≥µÌôîÍµ≠",
          "official_name:ku": "Komara Tirkiyey√™",
          "official_name:ky": "–¢“Ø—Ä–∫–∏—è –†–µ—Å–ø—É–±–ª–∏–∫–∞—Å—ã",
          "official_name:ru": "–¢—É—Ä–µ—Ü–∫–∞—è –†–µ—Å–ø—É–±–ª–∏–∫–∞",
          "official_name:zh": "ÂúüËÄ≥ÂÖ∂ÂÖ±ÂíåÂúã / ÂúüËÄ≥ÂÖ∂ÂÖ±ÂíåÂõΩ",
          "ISO3166-1:numeric": "792",
          "official_name:xal": "–¢“Ø—Ä–≥“Ø–¥–∏–Ω –û—Ä–Ω",
          "official_name:zh-Hans": "ÂúüËÄ≥ÂÖ∂ÂÖ±ÂíåÂõΩ",
          "official_name:zh-Hant": "ÂúüËÄ≥ÂÖ∂ÂÖ±ÂíåÂúã"
        }
      },
      "geometry": {
        "type": "Polygon",
        "coordinates": [
          [
            [
              41,
              41
            ],
            [
              42,
              41
            ],
            [
              42,
              41.50444004476568
            ],
            [
              41.9966,
              41.504968
            ],
            [
              41.99448,
              41.504775
            ],
            [
              41.993851,
              41.505216
            ],
            [
              41.992638,
              41.506465
            ],
            [
              41.99266,
              41.507288
            ],
            [
              41.992362,
              41.509138
            ],
            [
              41.990659,
              41.511746
            ],
            [
              41.990728,
              41.512891
            ],
            [
              41.991586,
              41.514057
            ],
            [
              41.99155,
              41.514834
            ],
            [
              41.991097,
              41.516742
            ],
            [
              41.990212,
              41.517451
            ],
            [
              41.987977,
              41.518398
            ],
            [
              41.987327,
              41.519296
            ],
            [
              41.986901,
              41.520611
            ],
            [
              41.984769,
              41.521973
            ],
            [
              41.982612,
              41.522556
            ],
            [
              41.979997,
              41.522533
            ],
            [
              41.978212,
              41.521663
            ],
            [
              41.976158,
              41.521335
            ],
            [
              41.973304,
              41.521214
            ],
            [
              41.97183,
              41.521495
            ],
            [
              41.968841,
              41.522971
            ],
            [
              41.96556,
              41.524165
            ],
            [
              41.962682,
              41.524546
            ],
            [
              41.961345,
              41.524511
            ],
            [
              41.958336,
              41.523791
            ],
            [
              41.955316,
              41.5233
            ],
            [
              41.954367,
              41.522771
            ],
            [
              41.953177,
              41.520911
            ],
            [
              41.948647,
              41.517612
            ],
            [
              41.945271,
              41.516928
            ],
            [
              41.941879,
              41.515329
            ],
            [
              41.940711,
              41.514291
            ],
            [
              41.940411,
              41.512912
            ],
            [
              41.939827,
              41.512393
            ],
            [
              41.938973,
              41.511136
            ],
            [
              41.936783,
              41.509842
            ],
            [
              41.933565,
              41.50843
            ],
            [
              41.932415,
              41.508308
            ],
            [
              41.929429,
              41.508411
            ],
            [
              41.927734,
              41.508229
            ],
            [
              41.925104,
              41.507244
            ],
            [
              41.92368,
              41.506474
            ],
            [
              41.91833,
              41.501278
            ],
            [
              41.917612,
              41.50103
            ],
            [
              41.915787,
              41.501026
            ],
            [
              41.914411,
              41.500532
            ],
            [
              41.91347,
              41.499867
            ],
            [
              41.911428,
              41.499309
            ],
            [
              41.910916,
              41.498563
            ],
            [
              41.910075,
              41.494516
            ],
            [
              41.906615,
              41.491817
            ],
            [
              41.901027,
              41.489105
            ],
            [
              41.899567,
              41.487831
            ],
            [
              41.899281,
              41.486177
            ],
            [
              41.898156,
              41.484272
            ],
            [
              41.897349,
              41.483335
            ],
            [
              41.8962995,
              41.4829763
            ],
            [
              41.8955921,
              41.4823642
            ],
            [
              41.8950465,
              41.4814051
            ],
            [
              41.8936195,
              41.4806803
            ],
            [
              41.892625,
              41.479744
            ],
            [
              41.89307,
              41.479344
            ],
            [
              41.894443,
              41.478604
            ],
            [
              41.894511,
              41.477188
            ],
            [
              41.894158,
              41.475669
            ],
            [
              41.894832,
              41.47555
            ],
            [
              41.894624,
              41.474813
            ],
            [
              41.892883,
              41.474354
            ],
            [
              41.891365,
              41.473033
            ],
            [
              41.887779,
              41.471747
            ],
            [
              41.887694,
              41.470967
            ],
            [
              41.886757,
              41.469598
            ],
            [
              41.884483,
              41.46757
            ],
            [
              41.883673,
              41.465445
            ],
            [
              41.883778,
              41.463253
            ],
            [
              41.881394,
              41.460353
            ],
            [
              41.878658,
              41.459089
            ],
            [
              41.874652,
              41.4577
            ],
            [
              41.870554,
              41.456948
            ],
            [
              41.868795,
              41.45562
            ],
            [
              41.864535,
              41.454452
            ],
            [
              41.861496,
              41.45318
            ],
            [
              41.858141,
              41.452174
            ],
            [
              41.856632,
              41.45195
            ],
            [
              41.853791,
              41.44974
            ],
            [
              41.852062,
              41.449052
            ],
            [
              41.847343,
              41.448603
            ],
            [
              41.846771,
              41.447855
            ],
            [
              41.84666,
              41.443874
            ],
            [
              41.845748,
              41.441379
            ],
            [
              41.84494,
              41.440488
            ],
            [
              41.842732,
              41.43965
            ],
            [
              41.840726,
              41.438406
            ],
            [
              41.836983,
              41.436657
            ],
            [
              41.834175,
              41.435665
            ],
            [
              41.831709,
              41.43514
            ],
            [
              41.829529,
              41.434988
            ],
            [
              41.827867,
              41.434165
            ],
            [
              41.825336,
              41.432494
            ],
            [
              41.823994,
              41.43136
            ],
            [
              41.823607,
              41.430572
            ],
            [
              41.823115,
              41.430695
            ],
            [
              41.82296,
              41.431377
            ],
            [
              41.822239,
              41.432454
            ],
            [
              41.81856,
              41.43313
            ],
            [
              41.814921,
              41.434218
            ],
            [
              41.813324,
              41.43582
            ],
            [
              41.812657,
              41.437036
            ],
            [
              41.812076,
              41.440199
            ],
            [
              41.808049,
              41.443014
            ],
            [
              41.805968,
              41.445791
            ],
            [
              41.80218,
              41.447423
            ],
            [
              41.800152,
              41.44787
            ],
            [
              41.796176,
              41.447165
            ],
            [
              41.792487,
              41.448022
            ],
            [
              41.789443,
              41.449355
            ],
            [
              41.788788,
              41.450297
            ],
            [
              41.788743,
              41.45121
            ],
            [
              41.789026,
              41.452864
            ],
            [
              41.788896,
              41.454278
            ],
            [
              41.787427,
              41.456324
            ],
            [
              41.787294,
              41.460253
            ],
            [
              41.78688,
              41.461247
            ],
            [
              41.784978,
              41.461606
            ],
            [
              41.783397,
              41.461607
            ],
            [
              41.782639,
              41.46218
            ],
            [
              41.777179,
              41.463171
            ],
            [
              41.775875,
              41.463729
            ],
            [
              41.775531,
              41.463307
            ],
            [
              41.775062,
              41.461739
            ],
            [
              41.774381,
              41.46076
            ],
            [
              41.773277,
              41.460958
            ],
            [
              41.771168,
              41.461813
            ],
            [
              41.769605,
              41.46329
            ],
            [
              41.768296,
              41.463939
            ],
            [
              41.766886,
              41.464173
            ],
            [
              41.760341,
              41.466184
            ],
            [
              41.756612,
              41.467817
            ],
            [
              41.755302,
              41.4697
            ],
            [
              41.753995,
              41.470304
            ],
            [
              41.752828,
              41.470545
            ],
            [
              41.751313,
              41.470456
            ],
            [
              41.746889,
              41.471383
            ],
            [
              41.743936,
              41.470842
            ],
            [
              41.742356,
              41.470843
            ],
            [
              41.741107,
              41.471494
            ],
            [
              41.739879,
              41.471733
            ],
            [
              41.738193,
              41.471411
            ],
            [
              41.736519,
              41.472049
            ],
            [
              41.73455,
              41.472514
            ],
            [
              41.732533,
              41.472731
            ],
            [
              41.730891,
              41.47273
            ],
            [
              41.728964,
              41.472355
            ],
            [
              41.727386,
              41.47231
            ],
            [
              41.724255,
              41.472906
            ],
            [
              41.722608,
              41.472997
            ],
            [
              41.719851,
              41.473421
            ],
            [
              41.718006,
              41.473826
            ],
            [
              41.717056,
              41.473387
            ],
            [
              41.716077,
              41.473496
            ],
            [
              41.714287,
              41.47404
            ],
            [
              41.711811,
              41.473694
            ],
            [
              41.710354,
              41.473653
            ],
            [
              41.708939,
              41.473978
            ],
            [
              41.707818,
              41.474495
            ],
            [
              41.708029,
              41.475141
            ],
            [
              41.709244,
              41.476365
            ],
            [
              41.711655,
              41.477988
            ],
            [
              41.713253,
              41.478857
            ],
            [
              41.714164,
              41.480072
            ],
            [
              41.714385,
              41.481725
            ],
            [
              41.714995,
              41.482886
            ],
            [
              41.714925,
              41.484255
            ],
            [
              41.7153,
              41.485272
            ],
            [
              41.7152824,
              41.490631
            ],
            [
              41.7144289,
              41.4928796
            ],
            [
              41.7133807,
              41.4931125
            ],
            [
              41.711404,
              41.494953
            ],
            [
              41.709758,
              41.496232
            ],
            [
              41.708492,
              41.4959271
            ],
            [
              41.707093,
              41.496018
            ],
            [
              41.705768,
              41.495751
            ],
            [
              41.703427,
              41.495136
            ],
            [
              41.70104,
              41.494232
            ],
            [
              41.699926,
              41.493423
            ],
            [
              41.699418,
              41.492631
            ],
            [
              41.697958,
              41.491446
            ],
            [
              41.694534,
              41.490616
            ],
            [
              41.693816,
              41.489178
            ],
            [
              41.692667,
              41.489053
            ],
            [
              41.691548,
              41.488335
            ],
            [
              41.686209,
              41.486901
            ],
            [
              41.682577,
              41.487756
            ],
            [
              41.678681,
              41.486637
            ],
            [
              41.675103,
              41.484065
            ],
            [
              41.674265,
              41.483812
            ],
            [
              41.672662,
              41.484223
            ],
            [
              41.670852,
              41.483941
            ],
            [
              41.666903,
              41.482684
            ],
            [
              41.665694,
              41.482557
            ],
            [
              41.661844,
              41.484092
            ],
            [
              41.655724,
              41.485451
            ],
            [
              41.651478,
              41.485236
            ],
            [
              41.649822,
              41.485508
            ],
            [
              41.647886,
              41.485314
            ],
            [
              41.645524,
              41.486297
            ],
            [
              41.643871,
              41.486523
            ],
            [
              41.641689,
              41.486368
            ],
            [
              41.639725,
              41.486722
            ],
            [
              41.635406,
              41.486733
            ],
            [
              41.633678,
              41.487231
            ],
            [
              41.630299,
              41.489058
            ],
            [
              41.628957,
              41.490299
            ],
            [
              41.628643,
              41.491662
            ],
            [
              41.628188,
              41.492243
            ],
            [
              41.625624,
              41.493586
            ],
            [
              41.623506,
              41.49573
            ],
            [
              41.62264,
              41.497168
            ],
            [
              41.622602,
              41.497898
            ],
            [
              41.621737,
              41.499336
            ],
            [
              41.620516,
              41.500581
            ],
            [
              41.618025,
              41.501696
            ],
            [
              41.615509,
              41.502125
            ],
            [
              41.612836,
              41.502046
            ],
            [
              41.610376,
              41.502568
            ],
            [
              41.607959,
              41.503411
            ],
            [
              41.60495,
              41.503963
            ],
            [
              41.602207,
              41.504065
            ],
            [
              41.60038,
              41.505262
            ],
            [
              41.596304,
              41.507017
            ],
            [
              41.592789,
              41.507918
            ],
            [
              41.585204,
              41.508705
            ],
            [
              41.5823,
              41.510722
            ],
            [
              41.5818,
              41.512125
            ],
            [
              41.581954,
              41.513821
            ],
            [
              41.581022,
              41.515348
            ],
            [
              41.576302,
              41.518317
            ],
            [
              41.573338,
              41.519144
            ],
            [
              41.571783,
              41.519783
            ],
            [
              41.570442,
              41.519834
            ],
            [
              41.566512,
              41.519351
            ],
            [
              41.564141,
              41.519326
            ],
            [
              41.56218,
              41.519588
            ],
            [
              41.557194,
              41.518386
            ],
            [
              41.55489,
              41.518226
            ],
            [
              41.5470851,
              41.5206665
            ],
            [
              41.2994398,
              41.612
            ],
            [
              41.2919967,
              41.607
            ],
            [
              41.2850226,
              41.602
            ],
            [
              41.2785279,
              41.597
            ],
            [
              41.2724661,
              41.592
            ],
            [
              41.26571,
              41.586
            ],
            [
              41.2574779,
              41.578
            ],
            [
              41.2498534,
              41.571
            ],
            [
              41.244821,
              41.566
            ],
            [
              41.2401062,
              41.561
            ],
            [
              41.2325372,
              41.555
            ],
            [
              41.2310538,
              41.554
            ],
            [
              41.2229068,
              41.551
            ],
            [
              41.2130154,
              41.547
            ],
            [
              41.2015178,
              41.542
            ],
            [
              41.1910432,
              41.537
            ],
            [
              41.1847817,
              41.535
            ],
            [
              41.1734212,
              41.531
            ],
            [
              41.1522746,
              41.523
            ],
            [
              41.1423997,
              41.519
            ],
            [
              41.1305391,
              41.514
            ],
            [
              41.1219323,
              41.51
            ],
            [
              41.1159235,
              41.507
            ],
            [
              41.1084239,
              41.503
            ],
            [
              41.1013937,
              41.499
            ],
            [
              41.0947494,
              41.495
            ],
            [
              41.0885168,
              41.491
            ],
            [
              41.0826537,
              41.487
            ],
            [
              41.0743351,
              41.481
            ],
            [
              41.0678525,
              41.476
            ],
            [
              41.061802,
              41.471
            ],
            [
              41.0598503,
              41.47
            ],
            [
              41.0473203,
              41.466
            ],
            [
              41.0363073,
              41.462
            ],
            [
              41.0264294,
              41.458
            ],
            [
              41.017256,
              41.454
            ],
            [
              41.0086571,
              41.45
            ],
            [
              41.0026539,
              41.447
            ],
            [
              41,
              41.445547002463734
            ],
            [
              41,
              41
            ]
          ]
        ]
      }
    }
  ]
}