{
  "type": "FeatureCollection",
  "features": [
    {
      "type": "Feature",
      "properties": {
        "osm_id": -307763,
        "boundary": "administrative",
        "admin_level": 2,
        "parents": null,
        "name": "United Arab Emirates",
        "local_name": "الإمارات العربية المتحدة",
        "name_en": "United Arab Emirates",
        "all_tags": {
          "ref": "AE",
          "flag": "http://upload.wikimedia.org/wikipedia/commons/c/cb/Flag_of_the_United_Arab_Emirates.svg",
          "name": "الإمارات العربية المتحدة",
          "name:af": "Verenigde Arabiese Emirate",
          "name:am": "የተባበሩት የዓረብ ግዛቶች",
          "name:an": "Emiratos Arabes Unitos",
          "name:ar": "الإمارات العربية المتحدة",
          "name:as": "সংযুক্ত আৰৱ আমিৰাত",
          "name:av": "ГIарабазул Цолъарал Имаратал",
          "name:az": "Birləşmiş Ərəb Əmirlikləri",
          "name:ba": "Берләшкән Ғәрәп Әмирлектәре",
          "name:be": "Аб'яднаныя Арабскія Эміраты",
          "name:bg": "Обединени арабски емирства",
          "name:bh": "यूनाइटेड अरब अमीरात",
          "name:bi": "Yunaeted Arab Emirets",
          "name:bn": "সংযুক্ত আরব আমিরাত",
          "name:bo": "ཡི་ནེ་ཁྲེ་ཀྲི་ཨ་རབ་ཨེ་མེ་རེ་ཁྲི།",
          "name:br": "Emirelezhioù Arab Unanet",
          "name:bs": "Ujedinjeni Arapski Emirati",
          "name:ca": "Emirats Àrabs Units",
          "name:ce": "Ӏарбийн Цхьаьнакхетта Эмираташ",
          "name:cs": "Spojené arabské emiráty",
          "name:cy": "Yr Emiradau Arabaidd Unedig",
          "name:da": "Forenede Arabiske Emirater",
          "name:de": "Vereinigte Arabische Emirate",
          "name:dv": "އެކުވެރި ޢަރަބި އިމާރާތު",
          "name:dz": "ཡུ་ནའི་ཊེཊ་ཨ་རབ་ཨེ་མི་རེཊསི་",
          "name:el": "Ηνωμένα Αραβικά Εμιράτα",
          "name:en": "United Arab Emirates",
          "name:eo": "Unuiĝintaj Arabaj Emirlandoj",
          "name:es": "Emiratos Árabes Unidos",
          "name:et": "Araabia Ühendemiraadid",
          "name:eu": "Arabiar Emirerri Batuak",
          "name:fa": "امارات متحده عربی",
          "name:ff": "Imaaraatuuji Aarabe Dentuɗi",
          "name:fi": "Yhdistyneet arabiemiirikunnat",
          "name:fo": "Sameindu Emirríkini",
          "name:fr": "Émirats arabes unis",
          "name:fy": "Feriene Arabyske Emiraten",
          "name:ga": "Aontas na nÉimíríochtaí Arabacha",
          "name:gd": "Na h-Iomaratan Arabach Aonaichte",
          "name:gl": "Emiratos Árabes Unidos",
          "name:gn": "Aravia Emiryvy Joaju",
          "name:gu": "સંયુક્ત આરબ અમીરાત",
          "name:gv": "Ny h-Emmiraidyn Arabagh Unnaneysit",
          "name:ha": "Haɗaɗɗiyar Daular Larabawa",
          "name:he": "איחוד האמירויות",
          "name:hi": "संयुक्त अरब अमीरात",
          "name:hr": "Ujedinjeni Arapski Emirati",
          "name:ht": "Emira Arab Ini",
          "name:hu": "Egyesült Arab Emírségek",
          "name:hy": "Արաբական Միացյալ Էմիրություններ",
          "name:ia": "Emiratos Arabe Unite",
          "name:id": "Uni Emirat Arab",
          "name:ie": "Unit Arabic Emiratus",
          "name:io": "Unionita Araba Emirati",
          "name:is": "Sameinuðu arabísku furstadæmin",
          "name:it": "Emirati Arabi Uniti",
          "name:ja": "アラブ首長国連邦",
          "name:jv": "Uni Emirat Arab",
          "name:ka": "არაბთა გაერთიანებული საამიროები",
          "name:kg": "United Arab Emirates",
          "name:ki": "United Arab Emirates",
          "name:kk": "Біріккен Араб Әмірліктері",
          "name:kl": "United Arab Emirates",
          "name:km": "អេមីរ៉ាតអារ៉ាប់រួម",
          "name:kn": "ಸಂಯುಕ್ತ ಅರಬ ಅಮೀರಾತ",
          "name:ko": "아랍에미리트",
          "name:ku": "Mîrnişînên Erebî yên Yekbûyî",
          "name:kv": "Ӧтувтчӧм Араб Эмиратъяс",
          "name:kw": "Pennternasedh Unys Arabek",
          "name:ky": "Бириккен Араб Эмирликтери",
          "name:la": "Emiratus Arabici Coniuncti",
          "name:lb": "Vereenegt Arabesch Emiraten",
          "name:li": "Vereinegde Arabische Emiraote",
          "name:lt": "Jungtiniai Arabų Emyratai",
          "name:lv": "Apvienotie Arābu Emirāti",
          "name:mg": "Emirata Arabo Mitambatra",
          "name:mi": "Te Kotahitanga o ngā Whenua Ārapi",
          "name:mk": "Обединети Арапски Емирати",
          "name:ml": "ഐക്യ അറബ് എമിറേറ്റുകൾ",
          "name:mn": "Арабын Нэгдсэн Эмирт Улс",
          "name:mr": "संयुक्त अरब अमिराती",
          "name:ms": "Emiriah Arab Bersatu",
          "name:mt": "Emirati Għarab Magħquda",
          "name:my": "အာရပ်စော်ဘွားများပြည်ထောင်စုနိုင်ငံ",
          "name:na": "Emireitit Arabiya",
          "name:ne": "संयुक्त अरब इमिरेट्स",
          "name:nl": "Verenigde Arabische Emiraten",
          "name:nn": "Dei sameinte arabiske emirata",
          "name:no": "De forente arabiske emirater",
          "name:nv": "Ásáí Bikéyah Yázhí Ałhidadiidzooígíí",
          "name:ny": "United Arab Emirates",
          "name:oc": "Emirats Arabis Units",
          "name:om": "Yunaayitid Arab Imireetis",
          "name:or": "ୟୁନାଇଟେଡ଼ ଆରବ ଏମିରଟ",
          "name:os": "Араббы Иугонд Эмираттæ",
          "name:pa": "ਸੰਯੁਕਤ ਅਰਬ ਇਮਰਾਤ",
          "name:pl": "Emiraty Arabskie",
          "name:ps": "عربي متحده امارات",
          "name:pt": "Emirados Árabes Unidos",
          "name:qu": "Hukllachasqa Arab Imiratukuna",
          "name:ro": "Emiratele Arabe Unite",
          "name:ru": "Объединённые Арабские Эмираты",
          "name:rw": "Nyarabu Zunze Ubumwe",
          "name:sc": "Emirados Àrabos Unidos",
          "name:sd": "گڏيل عرب امارات",
          "name:se": "Ovttastuvvan arábaemiráhtat",
          "name:sh": "Ujedinjeni Arapski Emirati",
          "name:si": "එක්සත් අරාබි එමීර් රාජ්‍යය",
          "name:sk": "Spojené arabské emiráty",
          "name:sl": "Združeni arabski emirati",
          "name:sm": "Malo Alapi Lotogatasi",
          "name:so": "Imaaraatka Carabta",
          "name:sq": "Emiratet e Bashkuara Arabe",
          "name:sr": "Уједињени Арапски Емирати",
          "name:ss": "Bunye bema-Arabhu",
          "name:su": "Uni Émirat Arab",
          "name:sv": "Förenade Arabemiraten",
          "name:sw": "Falme za Kiarabu",
          "name:ta": "ஐக்கிய அரபு அமீரகம்",
          "name:te": "యునైటెడ్ అరబ్ ఎమిరేట్స్",
          "name:tg": "Аморати Муттаҳидаи Араб",
          "name:th": "สหรัฐอาหรับเอมิเรตส์",
          "name:tk": "Birleşen Arap Emirlikleri",
          "name:tl": "United Arab Emirates",
          "name:tr": "Birleşik Arap Emirlikleri",
          "name:tt": "Берләшкән Гарәп Әмирлекләре",
          "name:ug": "ئەرەب بىرلەشمە خەلىپىلىكى",
          "name:uk": "Об'єднані Арабські Емірати",
          "name:ur": "متحدہ عرب امارات",
          "name:uz": "Birlashgan Arab Amirliklari",
          "name:vi": "Các Tiểu vương quốc Ả Rập Thống nhất",
          "name:vo": "Lemiräns Larabik Pebalöl",
          "name:wo": "Imaaraat yu Araab yu Bennoo yi",
          "name:yi": "פאראייניגטע אראבישע עמיראטן",
          "name:yo": "Àwọn Ẹ́mírétì Árábù Aṣọ̀kan",
          "name:za": "Bouxdaeuzgoz Ahlazbwz Lienzhab",
          "name:zh": "阿拉伯联合酋长国 / 阿拉伯聯合大公國",
          "boundary": "administrative",
          "name:ace": "Uni Emirat Arab",
          "name:ady": "Араб Эмират Зэхэтхэр",
          "name:als": "Vereinigte Arabische Emirate",
          "name:ang": "Geānedan Arabiscan Bregorīce",
          "name:arc": "ܐܡܝܪܘܬܐ ܥܪܒܝܬܐ ܡܚܝܕܬܐ",
          "name:arz": "الامارات",
          "name:ast": "Emiratos Árabes Xuníos",
          "name:awa": "संयुक्त अरब इमिरेट्स",
          "name:azb": "ایمارات",
          "name:ban": "Uni Émirat Arab",
          "name:bar": "Vaeinigte Arabische Emirate",
          "name:bjn": "Syarikat Amiriah Arab",
          "name:bpy": "তিলপা আরব আমিরাত",
          "name:bug": "Emiriyah Arab Bersatu",
          "name:bxr": "Арабын Нэгэдэһэн Эмир Улас",
          "name:ceb": "Hiniusang Emiratong Arabo",
          "name:ckb": "میرنشینە یەکگرتووە عەرەبییەکان",
          "name:crh": "Birleşken Arap Emirlikleri",
          "name:diq": "Yewiya Emiranê Erebi",
          "name:dsb": "Zjadnośone Arabske Emiraty",
          "name:ext": "Emiratus Árabis Unius",
          "name:frp": "Èmirats arabos unis",
          "name:frr": "Ferianagt Araabisk Emiraaten",
          "name:gag": "Birleşik Arab Emirlikleri",
          "name:gom": "संयुक्त अरब अमीरात",
          "name:hak": "Â-lâ-pak Lièn-ha̍p Thai-kûng-koet",
          "name:hif": "United Arab Emirates",
          "name:hsb": "Zjednoćene arabske emiraty",
          "name:ilo": "Dagiti Nagkaykaysa nga Emirato nga Arabo",
          "name:jam": "Yunaitid Arab Emiret",
          "name:jbo": "gunma xrabo nolseltru",
          "name:kaa": "Birlesken Arab A'mirlikleri",
          "name:kab": "Limarat Taɛrabin Yeddukklen",
          "name:kbd": "Хьарып Ӏэмирэт Зэгуэт",
          "name:kmr": "ئەمیرتیێن یەکبوویی یێنئە رەبی",
          "name:lbe": "ЦачIунхьу Аьрабнал Эмиратру",
          "name:lez": "Садхьанвай Араб Эмиратар",
          "name:lfn": "Amirias Arabi Unida",
          "name:lij": "Emirati Àrabi Unïi",
          "name:lmo": "Emiraa Arab Ünii",
          "name:lrc": "اْمارٱتؽا یٱکاگیر کرداٛ عرۉیی",
          "name:mad": "Uni Emirat Arab",
          "name:mai": "संयुक्त अरब इमिरेट्स",
          "name:mzn": "متحده عربی امارات",
          "name:nah": "Tlacetilīlli Arabiaemiryōtl",
          "name:nan": "A-la-pek Liân-ha̍p Thâu-lâng-kok",
          "name:nds": "Vereenigte Araabsche Emiraten",
          "name:nov": "Unionati Arabi Emirates",
          "name:pag": "Emiratos diad Unido ya Arabo",
          "name:pam": "Emiratos Arabes Unidos",
          "name:pms": "Emirà Àrabo Unì",
          "name:pnb": "متحدہ عرب امارات",
          "name:rue": "Споєны Арабскы Еміраты",
          "name:sah": "Холбоhуктаах Араб Эмираттара",
          "name:sat": "ᱥᱮᱞᱮᱫ ᱟᱨᱚᱵᱽ ᱟᱢᱤᱨᱟᱛ",
          "name:scn": "Emirati Àrabbi Uniti",
          "name:sco": "Unitit Arab Emirates",
          "name:shn": "မိူင်းႁူမ်ႈတုမ် ၸဝ်ႈၾႃႉ ဢႃႇရၢပ်ႈ",
          "name:smn": "Ovtâstum arabiemiirikodeh",
          "name:sms": "Õhttõõvvâm araabemiirkååʹdd",
          "name:stq": "Fereende Arabiske Emiroate",
          "name:szl": "Zjednoczōne Arabske Ymiraty",
          "name:tet": "Emiratu Arabi Naklibur Sira",
          "name:tpi": "United Arab Emirates",
          "name:trv": "United Arab Emirates",
          "name:udm": "Огазеяськем Араб Эмиратъёс",
          "name:vec": "Emirai Àrabi Unii",
          "name:vep": "Araban Ühtenzoittud Valdkundad",
          "name:vro": "Araabia Ütisemiraadiq",
          "name:war": "Emiratos Arabes Unidos",
          "name:wuu": "阿拉伯联合酋长国",
          "name:xal": "Ниицәтә Араб Нутгуд",
          "name:yue": "阿拉伯聯合酋長國",
          "name:zea": "Vereênigde Araobische Emiraoten",
          "timezone": "Asia/Dubai",
          "way_area": "9.34506",
          "wikidata": "Q878",
          "ISO3166-1": "AE",
          "wikipedia": "ar:الإمارات العربية المتحدة",
          "short_name": "الإمارات",
          "state_code": "AE",
          "admin_level": "2",
          "alt_name:ar": "الإمارات العربيّة المتّحدة",
          "alt_name:la": "Emiratus Arabici Uniti",
          "alt_name:pa": "ਸੰਯੁਕਤ ਅਰਬ ਅਮੀਰਾਤ",
          "alt_name:pl": "Zjednoczone Emiraty Arabskie",
          "alt_name:vi": "Các quốc gia ngừng bắn;Oman ngừng bắn",
          "border_type": "nation",
          "name:bat-smg": "Jongtėnē Arabu Emīratā",
          "name:cbk-zam": "Emiratos Unidos del Arabo",
          "name:zh-Hans": "阿拉伯联合酋长国",
          "name:zh-Hant": "阿拉伯聯合大公國",
          "name:roa-tara": "Emirate Arabe Aunìte",
          "official_name": "دولة الإمارات العربية المتحدة",
          "short_name:ar": "الإمارات",
          "short_name:bg": "ОАЕ",
          "short_name:eo": "UAE",
          "short_name:pl": "ZEA",
          "short_name:ru": "ОАЭ",
          "name:be-tarask": "Аб’яднаныя Арабскія Эміраты",
          "ISO3166-1:alpha2": "AE",
          "ISO3166-1:alpha3": "ARE",
          "default_language": "ar",
          "official_name:ar": "دولة الإمارات العربية المتحدة",
          "official_name:cs": "Stát Spojené arabské emiráty",
          "official_name:pl": "Państwo Zjednoczonych Emiratów Arabskich",
          "ISO3166-1:numeric": "784"
        }
      },
      "geometry": {
        "type": "Polygon",
        "coordinates": [
          [
            [
              55,
              23
            ],
            [
              55.21949213367254,
              23
            ],
            [
              55.2193234,
              23.001283
            ],
            [
              55.2170644,
              23.0096644
            ],
            [
              55.2170736,
              23.017872
            ],
            [
              55.2162834,
              23.0262103
            ],
            [
              55.2182473,
              23.0333965
            ],
            [
              55.2277107,
              23.0446444
            ],
            [
              55.2298645,
              23.0481447
            ],
            [
              55.2300404,
              23.0555853
            ],
            [
              55.2270482,
              23.0635068
            ],
            [
              55.2253932,
              23.0724311
            ],
            [
              55.2280942,
              23.0780745
            ],
            [
              55.2312351,
              23.0853734
            ],
            [
              55.2302089,
              23.0946205
            ],
            [
              55.23077,
              23.1032047
            ],
            [
              55.232271,
              23.1103478
            ],
            [
              55.236467,
              23.1193312
            ],
            [
              55.2422659,
              23.1285133
            ],
            [
              55.2506559,
              23.1405114
            ],
            [
              55.2641914,
              23.1578274
            ],
            [
              55.2806966,
              23.1777105
            ],
            [
              55.2868528,
              23.1880839
            ],
            [
              55.2968307,
              23.2039837
            ],
            [
              55.3157831,
              23.2369685
            ],
            [
              55.3182608,
              23.2417343
            ],
            [
              55.3247766,
              23.2535054
            ],
            [
              55.3315305,
              23.2645215
            ],
            [
              55.342502,
              23.2839365
            ],
            [
              55.3477551,
              23.2928782
            ],
            [
              55.3545679,
              23.3069407
            ],
            [
              55.3863478,
              23.3652568
            ],
            [
              55.4015366,
              23.3925249
            ],
            [
              55.4165065,
              23.3821507
            ],
            [
              55.4306911,
              23.3995929
            ],
            [
              55.4330332,
              23.4034448
            ],
            [
              55.4368109,
              23.4120195
            ],
            [
              55.4472296,
              23.4570985
            ],
            [
              55.4525876,
              23.4652171
            ],
            [
              55.4608434,
              23.4758958
            ],
            [
              55.4653163,
              23.4830223
            ],
            [
              55.4706829,
              23.4900087
            ],
            [
              55.4763048,
              23.4993128
            ],
            [
              55.4832195,
              23.5126175
            ],
            [
              55.4911063,
              23.5229549
            ],
            [
              55.4981219,
              23.5334626
            ],
            [
              55.5099762,
              23.5427125
            ],
            [
              55.522796,
              23.5542248
            ],
            [
              55.524091,
              23.5560915
            ],
            [
              55.5347233,
              23.5793123
            ],
            [
              55.5442623,
              23.5926679
            ],
            [
              55.5501814,
              23.5986604
            ],
            [
              55.5657511,
              23.6151194
            ],
            [
              55.5709739,
              23.6251618
            ],
            [
              55.5723085,
              23.6296459
            ],
            [
              55.5712142,
              23.6620727
            ],
            [
              55.5698152,
              23.6899936
            ],
            [
              55.5718837,
              23.7028968
            ],
            [
              55.5692283,
              23.7207336
            ],
            [
              55.56288,
              23.7310468
            ],
            [
              55.5591657,
              23.7350147
            ],
            [
              55.5451453,
              23.746073
            ],
            [
              55.5330882,
              23.75585
            ],
            [
              55.5318694,
              23.7572856
            ],
            [
              55.5315476,
              23.7598996
            ],
            [
              55.5351331,
              23.7687388
            ],
            [
              55.5357468,
              23.7714409
            ],
            [
              55.5315454,
              23.8073505
            ],
            [
              55.5327063,
              23.8240874
            ],
            [
              55.5345731,
              23.8359292
            ],
            [
              55.534852,
              23.843466
            ],
            [
              55.5337255,
              23.8493518
            ],
            [
              55.5245802,
              23.877058
            ],
            [
              55.5198274,
              23.8851181
            ],
            [
              55.5139029,
              23.893321
            ],
            [
              55.505852,
              23.898616
            ],
            [
              55.500567,
              23.9056822
            ],
            [
              55.4997602,
              23.9079146
            ],
            [
              55.5000455,
              23.91581
            ],
            [
              55.4998825,
              23.9199586
            ],
            [
              55.4990263,
              23.9237599
            ],
            [
              55.4970436,
              23.9276179
            ],
            [
              55.4851153,
              23.9399229
            ],
            [
              55.4845316,
              23.9421096
            ],
            [
              55.4852741,
              23.9443845
            ],
            [
              55.4907029,
              23.9500539
            ],
            [
              55.4952262,
              23.9535993
            ],
            [
              55.5032359,
              23.9580426
            ],
            [
              55.5214014,
              23.9646824
            ],
            [
              55.5450957,
              23.9754103
            ],
            [
              55.5739506,
              23.9876448
            ],
            [
              55.5763375,
              23.9888083
            ],
            [
              55.5786445,
              23.9901713
            ],
            [
              55.5799617,
              23.9912617
            ],
            [
              55.5851038,
              23.9966284
            ],
            [
              55.59162902491456,
              24
            ],
            [
              55,
              24
            ],
            [
              55,
              23
            ]
          ]
        ]
      }
    },
    {
      "type": "Feature",
      "properties": {
        "osm_id": -305138,
        "boundary": "administrative",
        "admin_level": 2,
        "parents": null,
        "name": "Oman",
        "local_name": "عمان",
        "name_en": "Oman",
        "all_tags": {
          "ref": "OM",
          "flag": "http://upload.wikimedia.org/wikipedia/commons/d/dd/Flag_of_Oman.svg",
          "name": "عمان",
          "name:af": "Oman",
          "name:am": "ኦማን",
          "name:an": "Omán",
          "name:ar": "عمان",
          "name:az": "Oman",
          "name:ba": "Оман",
          "name:be": "Аман",
          "name:bg": "Оман",
          "name:bn": "ওমান",
          "name:bo": "ཨོ་མན།",
          "name:br": "Oman",
          "name:bs": "Oman",
          "name:ca": "Oman",
          "name:ce": "Оман",
          "name:cs": "Omán",
          "name:cv": "Оман",
          "name:cy": "Oman",
          "name:da": "Oman",
          "name:de": "Oman",
          "name:dv": "ޢުމާން",
          "name:el": "Ομάν",
          "name:en": "Oman",
          "name:eo": "Omano",
          "name:es": "Omán",
          "name:et": "Omaan",
          "name:eu": "Oman",
          "name:fa": "عمان",
          "name:fi": "Oman",
          "name:fr": "Oman",
          "name:fy": "Oman",
          "name:ga": "Óman",
          "name:gd": "Omàn",
          "name:gl": "Omán",
          "name:gn": "Omã",
          "name:gu": "ઓમાન",
          "name:gv": "Yn Omaan",
          "name:he": "עומאן",
          "name:hi": "ओमान",
          "name:hr": "Oman",
          "name:ht": "Omàn",
          "name:hu": "Omán",
          "name:hy": "Օման",
          "name:ia": "Oman",
          "name:id": "Oman",
          "name:ie": "Oman",
          "name:io": "Oman",
          "name:is": "Óman",
          "name:it": "Oman",
          "name:ja": "オマーン",
          "name:jv": "Oman",
          "name:ka": "ომანი",
          "name:kk": "Оман",
          "name:kl": "Oman",
          "name:kn": "ಒಮಾನ್",
          "name:ko": "오만",
          "name:ku": "Oman",
          "name:kv": "Оман",
          "name:kw": "Oman",
          "name:la": "Omania",
          "name:lb": "Oman",
          "name:li": "Omaan",
          "name:ln": "Oman",
          "name:lt": "Omanas",
          "name:lv": "Omāna",
          "name:mi": "Omāna",
          "name:mk": "Оман",
          "name:ml": "ഒമാൻ",
          "name:mn": "Оман",
          "name:mr": "ओमान",
          "name:ms": "Oman",
          "name:my": "အိုမန်နိုင်ငံ",
          "name:na": "Oman",
          "name:nl": "Oman",
          "name:nn": "Oman",
          "name:no": "Oman",
          "name:nv": "Omą́ą́",
          "name:oc": "Oman",
          "name:or": "ଓମାନ",
          "name:os": "Оман",
          "name:pa": "ਓਮਾਨ",
          "name:pl": "Oman",
          "name:ps": "عمان",
          "name:pt": "Omã",
          "name:qu": "Uman",
          "name:ro": "Oman",
          "name:ru": "Оман",
          "name:rw": "Omani",
          "name:sa": "ओमान",
          "name:se": "Oman",
          "name:sh": "Oman",
          "name:si": "ඕමානය",
          "name:sk": "Omán",
          "name:sl": "Oman",
          "name:so": "Cumaan",
          "name:sq": "Omani",
          "name:sr": "Оман",
          "name:ss": "IMani",
          "name:su": "Oman",
          "name:sv": "Oman",
          "name:sw": "Omani",
          "name:ta": "ஓமான்",
          "name:te": "ఒమన్",
          "name:tg": "Оман",
          "name:th": "ประเทศโอมาน",
          "name:tk": "Oman",
          "name:tl": "Oman",
          "name:tr": "Umman",
          "name:tt": "Оман",
          "name:ug": "ئومان",
          "name:uk": "Оман",
          "name:ur": "سلطنت عمان",
          "name:uz": "Oman",
          "name:vi": "Oman",
          "name:vo": "Lomän",
          "name:wo": "Omaan",
          "name:yi": "אמאן",
          "name:yo": "Oman",
          "name:zh": "阿曼",
          "boundary": "administrative",
          "name:ace": "Oman",
          "name:als": "Oman",
          "name:ang": "Oman",
          "name:arc": "ܥܘܡܐܢ",
          "name:arz": "سلطنة عمان",
          "name:ast": "Omán",
          "name:bar": "Oman",
          "name:bcl": "Oman",
          "name:bpy": "ওমান",
          "name:bug": "Oman",
          "name:bxr": "Оман",
          "name:ceb": "Oman",
          "name:ckb": "عومان",
          "name:crh": "Oman",
          "name:csb": "Òman",
          "name:diq": "Uman",
          "name:dsb": "Oman",
          "name:ext": "Omán",
          "name:frp": "Oman",
          "name:gag": "Oman",
          "name:hak": "Â-man",
          "name:hif": "Oman",
          "name:hsb": "Oman",
          "name:ilo": "Oman",
          "name:jbo": "oman",
          "name:kbd": "Оман",
          "name:lez": "Оман",
          "name:lij": "Òman",
          "name:lmo": "Oman",
          "name:nah": "Omān",
          "name:nan": "Oman",
          "name:nds": "Oman",
          "name:new": "ओमान",
          "name:nov": "Oman",
          "name:pam": "Oman",
          "name:pih": "Omaan",
          "name:pms": "Oman",
          "name:pnb": "عمان",
          "name:sah": "Оман",
          "name:scn": "Uman",
          "name:sco": "Oman",
          "name:smn": "Oman",
          "name:sms": "Omaan",
          "name:szl": "Ōman",
          "name:tzl": "Oman",
          "name:udm": "Оман",
          "name:vro": "Omaan",
          "name:war": "Oman",
          "name:wuu": "阿曼",
          "name:xal": "Оманин Нутг",
          "name:yue": "阿曼",
          "name:zea": "Omaan",
          "timezone": "Asia/Muscat",
          "way_area": "31.3118",
          "wikidata": "Q842",
          "ISO3166-1": "OM",
          "wikipedia": "ar:سلطنة عمان",
          "state_code": "OM",
          "admin_level": "2",
          "border_type": "nation",
          "name:bat-smg": "Omans",
          "name:zh-Hans": "阿曼",
          "name:zh-Hant": "阿曼",
          "official_name": "سلطنة عمان",
          "name:be-tarask": "Аман",
          "ISO3166-1:alpha2": "OM",
          "ISO3166-1:alpha3": "OMN",
          "default_language": "ar",
          "official_name:ar": "سلطنة عمان",
          "official_name:cs": "Sultanát Omán",
          "official_name:eo": "Omana Sultanlando",
          "official_name:pl": "Sułtanat Omanu",
          "ISO3166-1:numeric": "512",
          "official_name:ckb": "سەڵتەنەتی عومان"
        }
      },
      "geometry": {
        "type": "Polygon",
        "coordinates": [
          [
            [
              55.2162834,
              23.0262103
            ],
            [
              55.2170736,
              23.017872
            ],
            [
              55.2170644,
              23.0096644
            ],
            [
              55.2193234,
              23.001283
            ],
            [
              55.21949213367254,
              23
            ],
            [
              56,
              23
            ],
            [
              56,
              24
            ],
            [
              55.59162902491456,
              24
            ],
            [
              55.5851038,
              23.9966284
            ],
            [
              55.5799617,
              23.9912617
            ],
            [
              55.5786445,
              23.9901713
            ],
            [
              55.5763375,
              23.9888083
            ],
            [
              55.5739506,
              23.9876448
            ],
            [
              55.5450957,
              23.9754103
            ],
            [
              55.5214014,
              23.9646824
            ],
            [
              55.5032359,
              23.9580426
            ],
            [
              55.4952262,
              23.9535993
            ],
            [
              55.4907029,
              23.9500539
            ],
            [
              55.4852741,
              23.9443845
            ],
            [
              55.4845316,
              23.9421096
            ],
            [
              55.4851153,
              23.9399229
            ],
            [
              55.4970436,
              23.9276179
            ],
            [
              55.4990263,
              23.9237599
            ],
            [
              55.4998825,
              23.9199586
            ],
            [
              55.5000455,
              23.91581
            ],
            [
              55.4997602,
              23.9079146
            ],
            [
              55.500567,
              23.9056822
            ],
            [
              55.505852,
              23.898616
            ],
            [
              55.5139029,
              23.893321
            ],
            [
              55.5198274,
              23.8851181
            ],
            [
              55.5245802,
              23.877058
            ],
            [
              55.5337255,
              23.8493518
            ],
            [
              55.534852,
              23.843466
            ],
            [
              55.5345731,
              23.8359292
            ],
            [
              55.5327063,
              23.8240874
            ],
            [
              55.5315454,
              23.8073505
            ],
            [
              55.5357468,
              23.7714409
            ],
            [
              55.5351331,
              23.7687388
            ],
            [
              55.5315476,
              23.7598996
            ],
            [
              55.5318694,
              23.7572856
            ],
            [
              55.5330882,
              23.75585
            ],
            [
              55.5451453,
              23.746073
            ],
            [
              55.5591657,
              23.7350147
            ],
            [
              55.56288,
              23.7310468
            ],
            [
              55.5692283,
              23.7207336
            ],
            [
              55.5718837,
              23.7028968
            ],
            [
              55.5698152,
              23.6899936
            ],
            [
              55.5712142,
              23.6620727
            ],
            [
              55.5723085,
              23.6296459
            ],
            [
              55.5709739,
              23.6251618
            ],
            [
              55.5657511,
              23.6151194
            ],
            [
              55.5501814,
              23.5986604
            ],
            [
              55.5442623,
              23.5926679
            ],
            [
              55.5347233,
              23.5793123
            ],
            [
              55.524091,
              23.5560915
            ],
            [
              55.522796,
              23.5542248
            ],
            [
              55.5099762,
              23.5427125
            ],
            [
              55.4981219,
              23.5334626
            ],
            [
              55.4911063,
              23.5229549
            ],
            [
              55.4832195,
              23.5126175
            ],
            [
              55.4763048,
              23.4993128
            ],
            [
              55.4706829,
              23.4900087
            ],
            [
              55.4653163,
              23.4830223
            ],
            [
              55.4608434,
              23.4758958
            ],
            [
              55.4525876,
              23.4652171
            ],
            [
              55.4472296,
              23.4570985
            ],
            [
              55.4368109,
              23.4120195
            ],
            [
              55.4330332,
              23.4034448
            ],
            [
              55.4306911,
              23.3995929
            ],
            [
              55.4165065,
              23.3821507
            ],
            [
              55.4015366,
              23.3925249
            ],
            [
              55.3863478,
              23.3652568
            ],
            [
              55.3545679,
              23.3069407
            ],
            [
              55.3477551,
              23.2928782
            ],
            [
              55.342502,
              23.2839365
            ],
            [
              55.3315305,
              23.2645215
            ],
            [
              55.3247766,
              23.2535054
            ],
            [
              55.3182608,
              23.2417343
            ],
            [
              55.3157831,
              23.2369685
            ],
            [
              55.2968307,
              23.2039837
            ],
            [
              55.2868528,
              23.1880839
            ],
            [
              55.2806966,
              23.1777105
            ],
            [
              55.2641914,
              23.1578274
            ],
            [
              55.2506559,
              23.1405114
            ],
            [
              55.2406148,
              23.1260742
            ],
            [
              55.236467,
              23.1193312
            ],
            [
              55.232271,
              23.1103478
            ],
            [
              55.23077,
              23.1032047
            ],
            [
              55.2302089,
              23.0946205
            ],
            [
              55.2312351,
              23.0853734
            ],
            [
              55.2280942,
              23.0780745
            ],
            [
              55.2253932,
              23.0724311
            ],
            [
              55.2270482,
              23.0635068
            ],
            [
              55.2300404,
              23.0555853
            ],
            [
              55.2298645,
              23.0481447
            ],
            [
              55.2277107,
              23.0446444
            ],
            [
              55.2182473,
              23.0333965
            ],
            [
              55.2162834,
              23.0262103
            ]
          ]
        ]
      }
    }
  ]
}