{
  "type": "FeatureCollection",
  "features": [
    {
      "type": "Feature",
      "properties": {
        "osm_id": -304938,
        "boundary": "administrative",
        "admin_level": 2,
        "parents": null,
        "name": "Iran",
        "local_name": "ایران",
        "name_en": "Iran",
        "all_tags": {
          "flag": "http://upload.wikimedia.org/wikipedia/commons/c/ca/Flag_of_Iran.svg",
          "name": "ایران",
          "sqkm": "1628762",
          "name:af": "Iran",
          "name:am": "ፋርስ",
          "name:an": "Irán",
          "name:ar": "إیران",
          "name:az": "İran",
          "name:ba": "Иран",
          "name:be": "Іран",
          "name:bg": "Иран",
          "name:bn": "ইরান",
          "name:bo": "ཡི་ལང་།",
          "name:br": "Iran",
          "name:bs": "Iran",
          "name:ca": "Iran",
          "name:ce": "Иран",
          "name:co": "Iranu",
          "name:cs": "Írán",
          "name:cy": "Iran",
          "name:da": "Iran",
          "name:de": "Iran",
          "name:dv": "އީރާން",
          "name:dz": "ཨི་རཱན་",
          "name:el": "Ιράν",
          "name:en": "Iran",
          "name:eo": "Irano",
          "name:es": "Irán",
          "name:et": "Iraan",
          "name:eu": "Iran",
          "name:fa": "ایران",
          "name:fi": "Iran",
          "name:fo": "Iran",
          "name:fr": "Iran",
          "name:fy": "Iran",
          "name:ga": "An Iaráin",
          "name:gd": "Ioràn",
          "name:gl": "Irán - ایران",
          "name:gn": "Irán",
          "name:gu": "ઈરાન",
          "name:gv": "Yn Eeraan",
          "name:ha": "Iran",
          "name:he": "איראן",
          "name:hi": "ईरान",
          "name:hr": "Iran",
          "name:ht": "Iran",
          "name:hu": "Irán",
          "name:hy": "Իրան",
          "name:ia": "Iran",
          "name:id": "Iran",
          "name:ie": "Iran",
          "name:io": "Iran",
          "name:is": "Íran",
          "name:it": "Iran",
          "name:ja": "イラン",
          "name:jv": "Iran",
          "name:ka": "ირანი",
          "name:kk": "Иран",
          "name:kl": "Iran",
          "name:km": "អ៊ីរ៉ង់",
          "name:kn": "ಇರಾನ್",
          "name:ko": "이란",
          "name:ks": "ایٖران",
          "name:ku": "Îran",
          "name:kv": "Иран",
          "name:kw": "Iran",
          "name:ky": "Иран",
          "name:la": "Irania",
          "name:lb": "Iran",
          "name:li": "Iran",
          "name:ln": "Iran",
          "name:lt": "Iranas",
          "name:lv": "Irāna",
          "name:mg": "Iran",
          "name:mi": "Irāna",
          "name:mk": "Иран",
          "name:ml": "ഇറാൻ",
          "name:mn": "Иран",
          "name:mr": "इराण",
          "name:ms": "Iran",
          "name:mt": "Iran",
          "name:my": "အီရန်နိုင်ငံ",
          "name:na": "Iran",
          "name:ne": "इरान",
          "name:nl": "Iran",
          "name:nn": "Iran",
          "name:no": "Iran",
          "name:nv": "Iiwą́ą́",
          "name:oc": "Iran",
          "name:or": "ଇରାନ",
          "name:os": "Иран",
          "name:pa": "ਇਰਾਨ",
          "name:pl": "Iran",
          "name:ps": "ایران",
          "name:pt": "Irão",
          "name:qu": "Iran",
          "name:rm": "Iran",
          "name:ro": "Iran",
          "name:ru": "Иран",
          "name:rw": "Irani",
          "name:sa": "ईरान",
          "name:sc": "Iran",
          "name:se": "Iran",
          "name:sh": "Iran",
          "name:si": "ඉරානය",
          "name:sk": "Irán",
          "name:sl": "Iran",
          "name:so": "Iiraan",
          "name:sq": "Irani",
          "name:sr": "Иран",
          "name:ss": "I-Irani",
          "name:su": "Iran",
          "name:sv": "Iran",
          "name:sw": "Uajemi",
          "name:ta": "ஈரான்",
          "name:te": "ఇరాన్",
          "name:tg": "Эрон",
          "name:th": "ประเทศอิหร่าน",
          "name:tk": "Eýran",
          "name:tl": "Iran",
          "name:tr": "İran",
          "name:tt": "Иран",
          "name:tw": "Iran",
          "name:ug": "ئىران",
          "name:uk": "Іран",
          "name:ur": "ایران",
          "name:uz": "Eron",
          "name:vi": "Iran",
          "name:vo": "Lirän",
          "name:wa": "Iran",
          "name:wo": "Iraan",
          "name:yi": "איראן",
          "name:yo": "Ìránì",
          "name:za": "Iran",
          "name:zh": "伊朗",
          "name:zu": "I-Irani",
          "boundary": "administrative",
          "int_name": "Iran",
          "name:ace": "Iran",
          "name:als": "Iran",
          "name:ang": "Persealand",
          "name:arc": "ܐܝܪܐܢ",
          "name:arz": "ایران",
          "name:ast": "Irán",
          "name:azb": "ایران",
          "name:bar": "Iran",
          "name:bcl": "Iran",
          "name:bpy": "ইরান",
          "name:bug": "Iran",
          "name:bxr": "Иран",
          "name:cdo": "Ĭ-lāng",
          "name:ceb": "Iran",
          "name:ckb": "ئێران",
          "name:crh": "İran",
          "name:csb": "Iran",
          "name:diq": "İran",
          "name:dsb": "Iran",
          "name:ext": "Irán",
          "name:frp": "Éran",
          "name:gag": "İran",
          "name:gan": "伊朗",
          "name:grc": "Περσίς",
          "name:hak": "Yî-lóng",
          "name:haw": "‘Ilana",
          "name:hif": "Iran",
          "name:hsb": "Iran",
          "name:ilo": "Iran",
          "name:jbo": "iran",
          "name:kaa": "İran",
          "name:kab": "Iran",
          "name:kbd": "Къажэр",
          "name:lad": "Iran",
          "name:lbe": "Иран",
          "name:lez": "Иран",
          "name:lij": "Iran",
          "name:lmo": "Iran",
          "name:lzh": "伊朗",
          "name:mdf": "Иран",
          "name:mhr": "Иран",
          "name:mzn": "ایران",
          "name:nah": "Iran",
          "name:nan": "Iran",
          "name:nap": "Iran",
          "name:nds": "Iran",
          "name:new": "इरान",
          "name:nov": "Iran",
          "name:pam": "Iran",
          "name:pap": "Iran",
          "name:pcd": "Iran",
          "name:pdc": "Iraen",
          "name:pih": "Eraan",
          "name:pms": "Iran",
          "name:pnb": "ایران",
          "name:rue": "Іран",
          "name:sah": "Ираан",
          "name:scn": "Iran",
          "name:sco": "Iran",
          "name:smn": "Iran",
          "name:sms": "Iraan",
          "name:stq": "Iran",
          "name:syc": "ܐܝܪܐܢ",
          "name:szl": "Iran",
          "name:tok": "ma Ilan",
          "name:udm": "Иран",
          "name:vec": "Iran",
          "name:vep": "Iran",
          "name:vro": "Iraan",
          "name:war": "Iran",
          "name:wuu": "伊朗",
          "name:xmf": "ირანი",
          "name:yue": "伊朗",
          "name:zea": "Iran",
          "timezone": "Asia/Tehran",
          "way_area": "163.814",
          "wikidata": "Q794",
          "ISO3166-1": "IR",
          "wikipedia": "fa:ایران",
          "name:pt-BR": "Irã",
          "population": "79926270",
          "admin_level": "2",
          "border_type": "nation",
          "name:nds-nl": "Iran",
          "name:simple": "Iran",
          "old_name:ar": "فارس",
          "old_name:cs": "Persie",
          "old_name:de": "Persien",
          "old_name:en": "Persia",
          "old_name:es": "Persia",
          "old_name:fr": "Perse",
          "old_name:pa": "ਪਾਰਸ",
          "old_name:ur": "پارس‎",
          "name:bat-smg": "Irans",
          "name:roa-rup": "Iran",
          "name:zh-Hans": "伊朗",
          "name:zh-Hant": "伊朗",
          "old_name:grc": "Περσίς",
          "name:roa-tara": "Iran",
          "official_name": "جمهوری اسلامی ایران",
          "name:be-tarask": "Іран",
          "population:date": "2016",
          "ISO3166-1:alpha2": "IR",
          "ISO3166-1:alpha3": "IRN",
          "default_language": "fa",
          "official_name:ar": "الجمهورية الإسلامية الإيرانية",
          "official_name:cs": "Íránská islámská republika",
          "official_name:cv": "Ислам Республики Иран",
          "official_name:de": "Islamische Republik Iran",
          "official_name:en": "Islamic Republic of Iran",
          "official_name:es": "República Islámica de Irán",
          "official_name:fr": "République islamique d'Iran",
          "official_name:pa": "ਈਰਾਨ ਦਾ ਇਸਲਾਮੀ ਗਣਤੰਤਰ",
          "official_name:ru": "Исламская Республика Иран",
          "official_name:sr": "Исламска Република Иран",
          "official_name:ur": "اسلامی جمہوریۂ ایران",
          "ISO3166-1:numeric": "364",
          "official_name:azb": "ایران ایسلام جۇمهۇریَّتی",
          "official_name:xal": "Сарта Иранмудин Орн"
        }
      },
      "geometry": {
        "type": "Polygon",
        "coordinates": [
          [
            [
              55.28755015502063,
              38
            ],
            [
              56,
              38
            ],
            [
              56,
              38.07817686672175
            ],
            [
              55.9980044,
              38.0771301
            ],
            [
              55.9933502,
              38.078591
            ],
            [
              55.9858853,
              38.0765806
            ],
            [
              55.985971,
              38.0777721
            ],
            [
              55.9837119,
              38.0792086
            ],
            [
              55.979345,
              38.0788649
            ],
            [
              55.976618,
              38.0790564
            ],
            [
              55.9711545,
              38.0839578
            ],
            [
              55.9625,
              38.078333
            ],
            [
              55.956944,
              38.080833
            ],
            [
              55.951944,
              38.083889
            ],
            [
              55.940556,
              38.088889
            ],
            [
              55.934722,
              38.091667
            ],
            [
              55.927222,
              38.092778
            ],
            [
              55.911389,
              38.092778
            ],
            [
              55.906111,
              38.091944
            ],
            [
              55.891944,
              38.090278
            ],
            [
              55.883333,
              38.091111
            ],
            [
              55.875556,
              38.092222
            ],
            [
              55.868056,
              38.093611
            ],
            [
              55.861111,
              38.095556
            ],
            [
              55.854444,
              38.0975
            ],
            [
              55.848611,
              38.1
            ],
            [
              55.841944,
              38.101944
            ],
            [
              55.8275,
              38.111389
            ],
            [
              55.821944,
              38.113889
            ],
            [
              55.812222,
              38.12
            ],
            [
              55.806389,
              38.1225
            ],
            [
              55.798611,
              38.1225
            ],
            [
              55.792222,
              38.121111
            ],
            [
              55.785278,
              38.120278
            ],
            [
              55.777222,
              38.120278
            ],
            [
              55.763889,
              38.124167
            ],
            [
              55.756111,
              38.125278
            ],
            [
              55.748333,
              38.125278
            ],
            [
              55.742778,
              38.123056
            ],
            [
              55.723889,
              38.118333
            ],
            [
              55.709722,
              38.116667
            ],
            [
              55.703333,
              38.115278
            ],
            [
              55.698056,
              38.113056
            ],
            [
              55.691667,
              38.111389
            ],
            [
              55.670278,
              38.108889
            ],
            [
              55.638889,
              38.108889
            ],
            [
              55.631111,
              38.108611
            ],
            [
              55.624167,
              38.107778
            ],
            [
              55.616111,
              38.107778
            ],
            [
              55.61,
              38.106389
            ],
            [
              55.603611,
              38.104722
            ],
            [
              55.597222,
              38.103333
            ],
            [
              55.592778,
              38.101389
            ],
            [
              55.586389,
              38.1
            ],
            [
              55.579444,
              38.099167
            ],
            [
              55.571667,
              38.099167
            ],
            [
              55.564444,
              38.098333
            ],
            [
              55.556667,
              38.098333
            ],
            [
              55.5425,
              38.096667
            ],
            [
              55.523611,
              38.091944
            ],
            [
              55.516389,
              38.091111
            ],
            [
              55.507778,
              38.091944
            ],
            [
              55.5,
              38.091667
            ],
            [
              55.484444,
              38.091667
            ],
            [
              55.477222,
              38.090833
            ],
            [
              55.469444,
              38.090833
            ],
            [
              55.463056,
              38.089167
            ],
            [
              55.448889,
              38.0875
            ],
            [
              55.442778,
              38.086111
            ],
            [
              55.438056,
              38.083056
            ],
            [
              55.4325,
              38.080556
            ],
            [
              55.423056,
              38.074444
            ],
            [
              55.418889,
              38.070833
            ],
            [
              55.414167,
              38.067778
            ],
            [
              55.406389,
              38.06
            ],
            [
              55.402222,
              38.056389
            ],
            [
              55.394444,
              38.048611
            ],
            [
              55.389444,
              38.045
            ],
            [
              55.384722,
              38.041944
            ],
            [
              55.379444,
              38.039444
            ],
            [
              55.373889,
              38.037222
            ],
            [
              55.3675595,
              38.0361742
            ],
            [
              55.361944,
              38.033333
            ],
            [
              55.350833,
              38.028889
            ],
            [
              55.344722,
              38.027222
            ],
            [
              55.339167,
              38.025
            ],
            [
              55.332778,
              38.023333
            ],
            [
              55.321944,
              38.018611
            ],
            [
              55.316389,
              38.016389
            ],
            [
              55.3139263,
              38.0088697
            ],
            [
              55.3031359,
              38.0054301
            ],
            [
              55.2957659,
              38.0028555
            ],
            [
              55.289167,
              38.000833
            ],
            [
              55.28755015502063,
              38
            ]
          ]
        ]
      }
    },
    {
      "type": "Feature",
      "properties": {
        "osm_id": -223026,
        "boundary": "administrative",
        "admin_level": 2,
        "parents": null,
        "name": "Turkmenistan",
        "local_name": "Türkmenistan",
        "name_en": "Turkmenistan",
        "all_tags": {
          "flag": "http://upload.wikimedia.org/wikipedia/commons/1/1b/Flag_of_Turkmenistan.svg",
          "name": "Türkmenistan",
          "name:af": "Turkmenistan",
          "name:am": "ቱርክመኒስታን",
          "name:an": "Turkmenistán",
          "name:ar": "تركمانستان",
          "name:av": "Туркменистан",
          "name:az": "Türkmənistan",
          "name:ba": "Төрөкмәнстан",
          "name:be": "Туркменістан",
          "name:bg": "Туркменистан",
          "name:bn": "তুর্কমেনিস্তান",
          "name:bo": "ཏུརཀ་མེ་ནི་སུཏན།",
          "name:br": "Turkmenistan",
          "name:bs": "Turkmenistan",
          "name:ca": "Turkmenistan",
          "name:co": "Turkmenistan",
          "name:cs": "Turkmenistán",
          "name:cv": "Туркменистан",
          "name:cy": "Turkmenistan",
          "name:da": "Turkmenistan",
          "name:de": "Turkmenistan",
          "name:dv": "ތުރުކުމެނިސްތާން",
          "name:ee": "Turkmenistan",
          "name:el": "Τουρκμενιστάν",
          "name:en": "Turkmenistan",
          "name:eo": "Turkmenio",
          "name:es": "Turkmenistán",
          "name:et": "Türkmenistan",
          "name:eu": "Turkmenistan",
          "name:fa": "ترکمنستان",
          "name:fi": "Turkmenistan",
          "name:fo": "Turkmenistan",
          "name:fr": "Turkménistan",
          "name:fy": "Turkmenistan",
          "name:ga": "An Tuircméanastáin",
          "name:gd": "Turcmanastàn",
          "name:gl": "Turcomenistán",
          "name:gn": "Tuykomenitã",
          "name:gu": "તુર્કમેનિસ્તાન",
          "name:gv": "Yn Turkmenistaan",
          "name:he": "טורקמניסטן",
          "name:hi": "तुर्कमेनिस्तान",
          "name:hr": "Turkmenistan",
          "name:ht": "Tirkmenistan",
          "name:hu": "Türkmenisztán",
          "name:hy": "Թուրքմենստան",
          "name:ia": "Turkmenistan",
          "name:id": "Turkmenistan",
          "name:ie": "Turkmenistan",
          "name:io": "Turkmenistan",
          "name:is": "Túrkmenistan",
          "name:it": "Turkmenistan",
          "name:ja": "トルクメニスタン",
          "name:jv": "Turkmenistan",
          "name:ka": "თურქმენეთი",
          "name:kk": "Түрікменстан",
          "name:km": "តួរមិនីស្ថាន",
          "name:kn": "ತುರ್ಕಮೆನಿಸ್ತಾನ್",
          "name:ko": "투르크메니스탄",
          "name:ku": "Tirkmenistan",
          "name:kv": "Туркменистан",
          "name:kw": "Pow Turkmen",
          "name:ky": "Түркмөнстан",
          "name:la": "Turcomannia",
          "name:li": "Turkmenistan",
          "name:ln": "Turkmenistáni",
          "name:lt": "Turkmėnija",
          "name:lv": "Turkmenistāna",
          "name:mk": "Туркменистан",
          "name:ml": "തുർക്‌മെനിസ്ഥാൻ",
          "name:mn": "Туркменистан",
          "name:mr": "तुर्कमेनिस्तान",
          "name:ms": "Turkmenistan",
          "name:my": "တာ့ခ်မင်နစ္စတန်နိုင်ငံ",
          "name:na": "Turkmenistan",
          "name:ne": "तुर्कमेनिस्तान",
          "name:nl": "Turkmenistan",
          "name:nn": "Turkmenistan",
          "name:no": "Turkmenistan",
          "name:nv": "Tʼóokmen Bikéyah",
          "name:oc": "Turcmenistan",
          "name:or": "ତୁର୍କମେନିସ୍ଥାନ",
          "name:os": "Туркмени",
          "name:pa": "ਤੁਰਕਮੇਨਸਤਾਨ",
          "name:pl": "Turkmenistan",
          "name:ps": "ترکمنستان",
          "name:pt": "Turquemenistão",
          "name:qu": "Turkminsuyu",
          "name:ro": "Turkmenistan",
          "name:ru": "Туркменистан",
          "name:rw": "Turukimenisitani",
          "name:sa": "तुर्कमिनिस्थान",
          "name:se": "Turkmenistan",
          "name:sh": "Turkmenistan",
          "name:sk": "Turkménsko",
          "name:sl": "Turkmenistan",
          "name:so": "Turkmenistan",
          "name:sq": "Turkmenistani",
          "name:sr": "Туркменистан",
          "name:ss": "IThumekhi",
          "name:su": "Turkménistan",
          "name:sv": "Turkmenistan",
          "name:sw": "Turkmenistan",
          "name:ta": "துருக்மெனிஸ்தான்",
          "name:te": "తుర్కమేనిస్తాన్",
          "name:tg": "Туркманистон",
          "name:th": "ประเทศเติร์กเมนิสถาน",
          "name:tk": "Türkmenistan",
          "name:tl": "Turkmenistan",
          "name:tr": "Türkmenistan",
          "name:tt": "Төрекмәнстан",
          "name:ug": "تۈركمەنىستان",
          "name:uk": "Туркменістан",
          "name:ur": "ترکمانستان",
          "name:uz": "Turkmaniston",
          "name:vi": "Turkmenistan",
          "name:vo": "Turkmenän",
          "name:wo": "Turkumenistaan",
          "name:yi": "טורקמעניסטאן",
          "name:yo": "Turkmẹ́nìstán",
          "name:zh": "土库曼斯坦 / 土庫曼",
          "boundary": "administrative",
          "int_name": "Türkmenistan",
          "name:ace": "Turkmènistan",
          "name:als": "Turkmenistan",
          "name:ang": "Turcmenistan",
          "name:arc": "ܛܘܪܩܡܢܣܛܐܢ",
          "name:arz": "توركمينيستان",
          "name:ast": "Turkmenistán",
          "name:bar": "Tuakmenien",
          "name:bcl": "Turkmenistan",
          "name:bpy": "তুর্কমেনিস্তান",
          "name:bug": "Turkmenistan",
          "name:bxr": "Туркменистан",
          "name:ceb": "Turkmenistan",
          "name:ckb": "تورکمانستان",
          "name:crh": "Türkmenistan",
          "name:csb": "Turkmenistan",
          "name:diq": "Tırkmenıstan",
          "name:dsb": "Turkmeńska",
          "name:ext": "Turkmenistán",
          "name:frp": "Turcmènistan",
          "name:gag": "Türkmenistan",
          "name:hak": "Thú-khû-man-sṳ̂-thán",
          "name:hif": "Turkmenistan",
          "name:hsb": "Turkmenistan",
          "name:ilo": "Turkmenistan",
          "name:jbo": "turkmenistan",
          "name:kbd": "Туркменстэн",
          "name:lad": "Turkmenistan",
          "name:lez": "Туьркменистан",
          "name:lij": "Turkmenistan",
          "name:lmo": "Turkmenistan",
          "name:mhr": "Туркменистан",
          "name:min": "Turkmenistan",
          "name:mzn": "ترکمنون",
          "name:nah": "Turcmenistan",
          "name:nan": "Turkmenistan",
          "name:nds": "Turkmenistan",
          "name:nov": "Turkmenistan",
          "name:pam": "Turkmenistan",
          "name:pih": "Terkmenistaan",
          "name:pms": "Turkmenistan",
          "name:pnb": "ترکمانستان",
          "name:rue": "Туркменістан",
          "name:sah": "Түркменистаан",
          "name:scn": "Turkmenistan",
          "name:sco": "Turkmenistan",
          "name:smn": "Turkmenistan",
          "name:sms": "Turkmenistaan",
          "name:szl": "Turkmynistōn",
          "name:tzl": "Türkmenistan",
          "name:udm": "Туркмения",
          "name:vep": "Turkmenistan",
          "name:vro": "Türkmenistan",
          "name:war": "Turkmenistan",
          "name:wuu": "土库曼斯坦",
          "name:xal": "Йомудин Орн",
          "name:yue": "土庫曼",
          "name:zea": "Toerkmenistan",
          "timezone": "Asia/Ashgabat",
          "way_area": "52.837",
          "wikidata": "Q874",
          "ISO3166-1": "TM",
          "wikipedia": "en:Turkmenistan",
          "admin_level": "2",
          "alt_name:eo": "Turkmenujo;Turkmenistano",
          "name:bat-smg": "Torkmienėstans",
          "name:roa-rup": "Turcmenistan",
          "name:zh-Hans": "土库曼斯坦",
          "name:zh-Hant": "土庫曼",
          "name:be-tarask": "Туркмэністан",
          "ISO3166-1:alpha2": "TM",
          "ISO3166-1:alpha3": "TKM",
          "default_language": "tk",
          "official_name:es": "República de Turkmenistán",
          "official_name:gn": "Tavakuairetã Tuykomenitã",
          "official_name:pt": "República do Turquemenistão",
          "ISO3166-1:numeric": "795"
        }
      },
      "geometry": {
        "type": "Polygon",
        "coordinates": [
          [
            [
              55,
              38
            ],
            [
              55.28755015502063,
              38
            ],
            [
              55.289167,
              38.000833
            ],
            [
              55.2957659,
              38.0028555
            ],
            [
              55.3031359,
              38.0054301
            ],
            [
              55.3139263,
              38.0088697
            ],
            [
              55.316389,
              38.016389
            ],
            [
              55.321944,
              38.018611
            ],
            [
              55.332778,
              38.023333
            ],
            [
              55.339167,
              38.025
            ],
            [
              55.344722,
              38.027222
            ],
            [
              55.350833,
              38.028889
            ],
            [
              55.361944,
              38.033333
            ],
            [
              55.3675595,
              38.0361742
            ],
            [
              55.373889,
              38.037222
            ],
            [
              55.379444,
              38.039444
            ],
            [
              55.384722,
              38.041944
            ],
            [
              55.389444,
              38.045
            ],
            [
              55.394444,
              38.048611
            ],
            [
              55.402222,
              38.056389
            ],
            [
              55.406389,
              38.06
            ],
            [
              55.414167,
              38.067778
            ],
            [
              55.418889,
              38.070833
            ],
            [
              55.423056,
              38.074444
            ],
            [
              55.4325,
              38.080556
            ],
            [
              55.438056,
              38.083056
            ],
            [
              55.442778,
              38.086111
            ],
            [
              55.448889,
              38.0875
            ],
            [
              55.463056,
              38.089167
            ],
            [
              55.469444,
              38.090833
            ],
            [
              55.477222,
              38.090833
            ],
            [
              55.484444,
              38.091667
            ],
            [
              55.5,
              38.091667
            ],
            [
              55.507778,
              38.091944
            ],
            [
              55.516389,
              38.091111
            ],
            [
              55.523611,
              38.091944
            ],
            [
              55.5425,
              38.096667
            ],
            [
              55.556667,
              38.098333
            ],
            [
              55.564444,
              38.098333
            ],
            [
              55.571667,
              38.099167
            ],
            [
              55.579444,
              38.099167
            ],
            [
              55.586389,
              38.1
            ],
            [
              55.592778,
              38.101389
            ],
            [
              55.597222,
              38.103333
            ],
            [
              55.603611,
              38.104722
            ],
            [
              55.61,
              38.106389
            ],
            [
              55.616111,
              38.107778
            ],
            [
              55.624167,
              38.107778
            ],
            [
              55.631111,
              38.108611
            ],
            [
              55.638889,
              38.108889
            ],
            [
              55.670278,
              38.108889
            ],
            [
              55.691667,
              38.111389
            ],
            [
              55.698056,
              38.113056
            ],
            [
              55.703333,
              38.115278
            ],
            [
              55.709722,
              38.116667
            ],
            [
              55.723889,
              38.118333
            ],
            [
              55.742778,
              38.123056
            ],
            [
              55.748333,
              38.125278
            ],
            [
              55.756111,
              38.125278
            ],
            [
              55.763889,
              38.124167
            ],
            [
              55.777222,
              38.120278
            ],
            [
              55.785278,
              38.120278
            ],
            [
              55.792222,
              38.121111
            ],
            [
              55.798611,
              38.1225
            ],
            [
              55.806389,
              38.1225
            ],
            [
              55.812222,
              38.12
            ],
            [
              55.821944,
              38.113889
            ],
            [
              55.8275,
              38.111389
            ],
            [
              55.841944,
              38.101944
            ],
            [
              55.848611,
              38.1
            ],
            [
              55.854444,
              38.0975
            ],
            [
              55.861111,
              38.095556
            ],
            [
              55.868056,
              38.093611
            ],
            [
              55.875556,
              38.092222
            ],
            [
              55.883333,
              38.091111
            ],
            [
              55.891944,
              38.090278
            ],
            [
              55.906111,
              38.091944
            ],
            [
              55.911389,
              38.092778
            ],
            [
              55.927222,
              38.092778
            ],
            [
              55.934722,
              38.091667
            ],
            [
              55.940556,
              38.088889
            ],
            [
              55.951944,
              38.083889
            ],
            [
              55.956944,
              38.080833
            ],
            [
              55.9625,
              38.078333
            ],
            [
              55.9711545,
              38.0839578
            ],
            [
              55.976618,
              38.0790564
            ],
            [
              55.979345,
              38.0788649
            ],
            [
              55.9837119,
              38.0792086
            ],
            [
              55.985971,
              38.0777721
            ],
            [
              55.9858853,
              38.0765806
            ],
            [
              55.9933502,
              38.078591
            ],
            [
              55.9980044,
              38.0771301
            ],
            [
              56,
              38.07817686672175
            ],
            [
              56,
              39
            ],
            [
              55,
              39
            ],
            [
              55,
              38
            ]
          ]
        ]
      }
    }
  ]
}