{
  "type": "FeatureCollection",
  "features": [
    {
      "type": "Feature",
      "properties": {
        "osm_id": -1473947,
        "boundary": "administrative",
        "admin_level": 2,
        "parents": null,
        "name": "Egypt",
        "local_name": "ŸÖÿµÿ±",
        "name_en": "Egypt",
        "all_tags": {
          "flag": "http://upload.wikimedia.org/wikipedia/commons/f/fe/Flag_of_Egypt.svg",
          "name": "ŸÖÿµÿ±",
          "name:ab": "–ú—ãÃÅ—Å—Ä—ã",
          "name:af": "Egipte",
          "name:ak": "Igyipt",
          "name:am": "·åç·â•·çÖ",
          "name:an": "Echipto",
          "name:ar": "ŸÖÿµÿ±",
          "name:as": "‡¶á‡¶ú‡¶ø‡¶™‡ßç‡¶§",
          "name:av": "–ï–≥–∏ÃÅ–ø–µ—Ç",
          "name:ay": "Iqiqtu",
          "name:az": "Misir",
          "name:ba": "–ú—ã—Å—ã—Ä",
          "name:be": "–ï–≥—ñÃÅ–ø–µ—Ç",
          "name:bg": "–ï–≥–∏–ø–µ—Ç",
          "name:bh": "‡§Æ‡§ø‡§∏‡•ç‡§∞",
          "name:bm": "Misra",
          "name:bn": "‡¶Æ‡¶ø‡¶∂‡¶∞",
          "name:bo": "‡Ω®‡Ω†‡Ω≤‡ºã‡ΩÖ‡Ω≤‡ºç",
          "name:br": "Egipt",
          "name:bs": "Egipat",
          "name:ca": "Egipte",
          "name:ce": "–ú–∏—Å–∞—Ä",
          "name:ch": "Ehiptu",
          "name:cs": "Egypt",
          "name:cu": "–Ñ–≥—∑–ø—Ç—ä",
          "name:cy": "Yr Aifft",
          "name:da": "Egypten",
          "name:de": "√Ñgypten",
          "name:dv": "ﬁâﬁ®ﬁûﬁ∞ﬁÉﬁ™",
          "name:ee": "Edzipti",
          "name:el": "ŒëŒØŒ≥œÖœÄœÑŒøœÇ",
          "name:en": "Egypt",
          "name:eo": "Egiptio",
          "name:es": "Egipto",
          "name:et": "Egiptus",
          "name:eu": "Egipto",
          "name:fa": "ŸÖÿµÿ±",
          "name:ff": "Ejipt",
          "name:fi": "Egypti",
          "name:fj": "Ijipta",
          "name:fo": "Egyptaland",
          "name:fr": "√âgypte",
          "name:fy": "Egypte",
          "name:ga": "An √âigipt",
          "name:gd": "An √àipheit",
          "name:gl": "Exipto",
          "name:gn": "Ehipto",
          "name:gu": "‡™á‡™ú‡™ø‡™™‡´ç‡™§",
          "name:gv": "Yn Egypt",
          "name:ha": "Misra",
          "name:he": "◊û◊¶◊®◊ô◊ù",
          "name:hi": "‡§Æ‡§ø‡§∏‡•ç‡§∞",
          "name:hr": "Egipat",
          "name:ht": "Ejip",
          "name:hu": "Egyiptom",
          "name:hy": "‘µ’£’´’∫’ø’∏’Ω",
          "name:ia": "Egypto",
          "name:id": "Mesir",
          "name:ie": "Egiptia",
          "name:ig": "Egypt",
          "name:io": "Egiptia",
          "name:is": "Egyptaland",
          "name:it": "Egitto",
          "name:ja": "„Ç®„Ç∏„Éó„Éà",
          "name:jv": "Mesir",
          "name:ka": "·Éî·Éí·Éï·Éò·Éû·É¢·Éî",
          "name:kg": "Misiri",
          "name:ki": "Egypt",
          "name:kk": "–ú—ã—Å—ã—Ä",
          "name:kl": "Egypt",
          "name:km": "·û¢·üÅ·û†·üä·üí·ûü·û∏·ûî",
          "name:kn": "‡≤à‡≤ú‡≤ø‡≤™‡≥ç‡≤ü‡≥ç",
          "name:ko": "Ïù¥ÏßëÌä∏",
          "name:ks": "ŸÖŸêÿ≥ÿ±",
          "name:ku": "Misir",
          "name:kv": "–ï–≥–∏–ø–µ—Ç",
          "name:kw": "Ejyp",
          "name:ky": "–ï–≥–∏–ø–µ—Ç",
          "name:la": "Aegyptus",
          "name:lb": "Egypten",
          "name:lg": "Egypt",
          "name:li": "Egypte",
          "name:ln": "Ejipte",
          "name:lo": "‡∫≠‡∫µ‡∫¢‡∫¥‡∫ö",
          "name:lt": "Egiptas",
          "name:lv": "ƒíƒ£ipte",
          "name:mg": "Ejipta",
          "name:mi": "ƒ™hipa",
          "name:mk": "–ï–≥–∏–ø–µ—Ç",
          "name:ml": "‡¥à‡¥ú‡¥ø‡¥™‡µç‡¥§‡µç",
          "name:mn": "–ï–≥–∏–ø–µ—Ç",
          "name:mr": "‡§á‡§ú‡§ø‡§™‡•ç‡§§",
          "name:ms": "Mesir",
          "name:mt": "Eƒ°ittu",
          "name:my": "·Ä°·ÄÆ·ÄÇ·Äª·ÄÖ·Ä∫·Äî·Ä≠·ÄØ·ÄÑ·Ä∫·ÄÑ·Ä∂",
          "name:na": "Idjipt",
          "name:ne": "‡§Æ‡§ø‡§∂‡•ç‡§∞",
          "name:nl": "Egypte",
          "name:nn": "Egypt",
          "name:no": "Egypt",
          "name:nv": "√ç√≠jip",
          "name:oc": "Egipte",
          "name:om": "Ijiipti",
          "name:or": "‡¨á‡¨ú‡¨ø‡¨™‡≠ç‡¨ü",
          "name:os": "–ú—ã—Å—ã—Ä",
          "name:pa": "‡®Æ‡®ø‡®∏‡®∞",
          "name:pi": "‡§à‡§ú‡§ø‡§™‡•ç‡§ü",
          "name:pl": "Egipt",
          "name:ps": "ŸÖÿµÿ±",
          "name:pt": "Egito",
          "name:qu": "Ihiptu",
          "name:rm": "Egipta",
          "name:rn": "Egipto",
          "name:ro": "Egipt",
          "name:ru": "–ï–≥–∏–ø–µ—Ç",
          "name:sa": "‡§à‡§ú‡§ø‡§™‡•ç‡§§‡§¶‡•á‡§∂‡§É",
          "name:sc": "Egittu",
          "name:sd": "ŸÖÿµÿ±",
          "name:se": "Egypta",
          "name:sg": "K√¢mit√¢",
          "name:sh": "Egipat",
          "name:si": "‡∂ä‡∂¢‡∑ì‡∂¥‡∑ä‡∂≠‡∑î‡∑Ä",
          "name:sk": "Egypt",
          "name:sl": "Egipt",
          "name:sm": "Aikupito",
          "name:sn": "Egypt",
          "name:so": "Masar",
          "name:sq": "Egjipti",
          "name:sr": "–ï–≥–∏–ø–∞—Ç",
          "name:ss": "iGibhithe",
          "name:st": "Egepeta",
          "name:su": "Mesir",
          "name:sv": "Egypten",
          "name:sw": "Misri",
          "name:ta": "‡Æé‡Æï‡Æø‡Æ™‡Øç‡Æ§‡ØÅ",
          "name:te": "‡∞à‡∞ú‡∞ø‡∞™‡±ç‡∞ü‡±Å",
          "name:tg": "–ú–∏—Å—Ä",
          "name:th": "‡∏õ‡∏£‡∏∞‡πÄ‡∏ó‡∏®‡∏≠‡∏µ‡∏¢‡∏¥‡∏õ‡∏ï‡πå",
          "name:ti": "·åç·â•·åΩ",
          "name:tk": "M√ºs√ºr",
          "name:tl": "Ehipto",
          "name:to": " ªIsipite",
          "name:tr": "Mƒ±sƒ±r",
          "name:ts": "Gibita",
          "name:tt": "–ú–∏—Å—ãÃÅ—Ä",
          "name:tw": "Egypt",
          "name:ty": "‚ÄôAifiti",
          "name:ug": "ŸÖŸâÿ≥Ÿâÿ±",
          "name:uk": "–Ñ–≥–∏ÃÅ–ø–µ—Ç",
          "name:ur": "ŸÖÿµÿ±",
          "name:uz": "Misr",
          "name:vi": "Ai C·∫≠p",
          "name:vo": "L√§g√ºpt√§n",
          "name:wa": "Edjipe",
          "name:wo": "Isipt",
          "name:yi": "◊¢◊í◊ô◊§◊ò◊ü",
          "name:yo": "·∫∏ÃÅg√≠pt√¨",
          "name:za": "Aehciz",
          "name:zh": "ÂüÉÂèä",
          "name:zu": "iGibhithe",
          "boundary": "administrative",
          "int_name": "Egypt ŸÖÿµÿ±",
          "name:ace": "Meus√©",
          "name:ady": "–ú—ã—Å—ã—Ä",
          "name:als": "√Ñgypte",
          "name:ang": "«¢gypte",
          "name:arc": "‹°‹®‹™‹ù‹¢",
          "name:ary": "ŸÖÿµÿ±",
          "name:arz": "ŸÖÿµÿ±",
          "name:ast": "Exiptu",
          "name:avk": "Misra",
          "name:azb": "ŸÖ€åÿµÿ±",
          "name:ban": "Mesir",
          "name:bar": "Egyptn",
          "name:bcl": "Ehipto",
          "name:ber": "‚µé‚µâ‚µô‚µî",
          "name:bjn": "Mesir",
          "name:bpy": "‡¶Æ‡¶ø‡¶∂‡¶∞",
          "name:bug": "Mesir",
          "name:bxr": "–ï–≥–∏–ø–µ—Ç",
          "name:cdo": "ƒÇi-gƒ≠k",
          "name:ceb": "Ehipto",
          "name:chr": "·é¢·è•·èà·é¢",
          "name:chy": "Egypt",
          "name:ckb": "ŸÖ€åÿ≥ÿ±",
          "name:cop": "‚≤≠‚≤è‚≤ô‚≤ì",
          "name:crh": "Mƒ±sƒ±r",
          "name:csb": "Egipt",
          "name:din": "Ijip",
          "name:diq": "Mƒ±sƒ±r",
          "name:dsb": "Egyptojska",
          "name:dty": "‡§á‡§ú‡§ø‡§™‡•ç‡§ü",
          "name:ext": "Egitu",
          "name:frp": "√àg¬∑ipte",
          "name:frr": "√Ñgypten",
          "name:fur": "Egjit",
          "name:gag": "Egipet",
          "name:gan": "ÂüÉÂèä",
          "name:gcr": "L√©jip",
          "name:gom": "‡§à‡§ú‡§ø‡§™‡•ç‡§§",
          "name:gor": "Mesir",
          "name:got": "êå∞êåπêå≤êçÖêçÄêçÑêå∞êåø",
          "name:hak": "√Çi-khiÃçp",
          "name:haw": "‚ÄòAikupika",
          "name:hif": "Egypt",
          "name:hsb": "Egyptowska",
          "name:hyw": "‘µ’£’´’∫’ø’∏’Ω",
          "name:ilo": "Eh√≠pto",
          "name:inh": "–ú–∏—Å–∞—Ä–µ",
          "name:jam": "Iijip",
          "name:jbo": "misrygu'e",
          "name:kaa": "Mƒ±sƒ±r",
          "name:kab": "Ma·π£er",
          "name:kbp": "Egipiti",
          "name:ksh": "√Ñj√ºpte",
          "name:lad": "Ayifto",
          "name:lbe": "–ú–∏—Å—Ä–∏",
          "name:lez": "–ú–∏—Å—Ä–∏",
          "name:lfn": "Misre",
          "name:lij": "Egitto",
          "name:lld": "Egit",
          "name:lmo": "Egit",
          "name:lzh": "ÂüÉÂèä",
          "name:mai": "‡§Æ‡§ø‡§∏‡•ç‡§∞",
          "name:mdf": "–ï–≥–∏–ø–µ—Ç",
          "name:min": "Masia",
          "name:mrj": "–ï–≥–∏–ø–µ—Ç",
          "name:myv": "–ï–≥–∏–ø–µ—Ç –ú–∞—Å—Ç–æ—Ä",
          "name:mzn": "ŸÖÿµÿ±",
          "name:nah": "Egipto",
          "name:nan": "Ai-kiÃçp",
          "name:nap": "Naggitto",
          "name:nds": "√Ñgypten",
          "name:new": "‡§Æ‡§ø‡§∏‡•ç‡§∞",
          "name:nov": "Egiptia",
          "name:nrm": "√ägypte",
          "name:nso": "Egypt",
          "name:olo": "Jegiptu",
          "name:pam": "Ejiptu",
          "name:pap": "Egipto",
          "name:pcd": "√âdjipe",
          "name:pih": "Ejiipt",
          "name:pms": "Egit",
          "name:pnb": "ŸÖÿµÿ±",
          "name:pnt": "ŒëŒØŒ≥œÖœÄœÑŒøœÇ",
          "name:rmy": "M√™sire",
          "name:rue": "–ï“ë—ñ–ø–µ—Ç",
          "name:sah": "–≠–≥–∏–∏–ø—ç—Ç",
          "name:sat": "·±¢·±§·±•·±ö·±®",
          "name:scn": "Eggittu",
          "name:sco": "Egyp",
          "name:shn": "·Äô·Ä≠·Ä∞·ÄÑ·Ä∫·Ä∏·Ä¢·ÄÆ·Ä∏·Åµ·Äª·Ä≠·Äï·Ä∫·Çà",
          "name:smn": "Egypti",
          "name:sms": "Egyptt",
          "name:srn": "Egiptakondre",
          "name:stq": "√Ñgypten",
          "name:szl": "Egipt",
          "name:szy": "Egypt",
          "name:tet": "Ejitu",
          "name:tok": "ma Masu",
          "name:tpi": "Ijip",
          "name:tum": "Egypt",
          "name:tyv": "–ï–≥–∏–ø–µ—Ç",
          "name:tzl": "Misiria",
          "name:udm": "–ï–≥–∏–ø–µ—Ç",
          "name:vec": "Egito",
          "name:vep": "Egipt",
          "name:vls": "Egypte",
          "name:vro": "Eg√ºpt√ºs",
          "name:war": "Ehipto",
          "name:wuu": "ÂüÉÂèä",
          "name:xal": "–ò“ó–∏–±–¥–∏–Ω –ê—Ä–∞–± –û—Ä–Ω",
          "name:xmf": "·Éî·Éí·Éï·Éò·Éû·É¢·Éî",
          "name:yue": "ÂüÉÂèä",
          "name:zea": "Ehypte",
          "name:zgh": "‚µé‚µâ‚µô‚µî",
          "timezone": "Africa/Cairo",
          "way_area": "97.1237",
          "wikidata": "Q79",
          "ISO3166-1": "EG",
          "wikipedia": "ar:ŸÖÿµÿ±",
          "name:pt-BR": "Egito",
          "admin_level": "2",
          "alt_name:as": "‡¶Æ‡¶ø‡¶õ‡ß∞",
          "alt_name:ba": "–ï–≥–∏–ø–µ—Ç",
          "alt_name:bh": "‡§á‡§ú‡§ø‡§™‡•ç‡§ü",
          "alt_name:br": "Ejipt",
          "alt_name:ce": "–ï–≥–∏ÃÅ–ø–µ—Ç",
          "alt_name:da": "√Ügypten",
          "alt_name:ee": "Egipte",
          "alt_name:eo": "Egiptujo;Egipto",
          "alt_name:gd": "√àiphit",
          "alt_name:gu": "‡™Æ‡™ø‡™∏‡™∞",
          "alt_name:gv": "Eajipt",
          "alt_name:is": "Egiptaland",
          "alt_name:kg": "Ngipiti",
          "alt_name:ky": "–ú–∏—Å–∏—Ä",
          "alt_name:ln": "Ejipiti;Misiri",
          "alt_name:qu": "Misir",
          "alt_name:rn": "Misiri",
          "alt_name:sl": "Misr",
          "alt_name:sq": "Misiri",
          "alt_name:th": "‡∏≠‡∏µ‡∏¢‡∏¥‡∏õ‡∏ï‡πå",
          "alt_name:ts": "Egypt",
          "alt_name:ty": "Egipt",
          "alt_name:wo": "Ejipt",
          "name:nds-nl": "Egypte",
          "old_name:fi": "Yhdistynyt arabitasavalta",
          "alt_name:ace": "Mesir",
          "alt_name:ady": "–ï–≥–∏–ø–µ—Ç",
          "alt_name:bar": "√Ñgypten",
          "alt_name:hif": "Misr",
          "alt_name:kab": "Igibt",
          "alt_name:lfn": "Egipte",
          "alt_name:scn": "Agittu",
          "long_name:ar": "ÿ¨ŸÖŸáŸàÿ±Ÿäÿ© ŸÖÿµÿ± ÿßŸÑÿπÿ±ÿ®Ÿäÿ©",
          "long_name:fr": "R√©publique Arabe d'√âgypte",
          "name:bat-smg": "Egƒópts",
          "name:cbk-zam": "Egipto",
          "name:map-bms": "Mesir",
          "name:zh-Hans": "ÂüÉÂèä",
          "name:zh-Hant": "ÂüÉÂèä",
          "name:roa-tara": "Egitte",
          "official_name": "ÿ¨ŸÖŸáŸàÿ±Ÿäÿ© ŸÖÿµÿ± ÿßŸÑÿπÿ±ÿ®Ÿäÿ©",
          "short_name:cs": "EAR",
          "name:be-tarask": "–≠–≥—ñ–ø–µ—Ç",
          "name:zh_pinyin": "ƒÄij√≠",
          "ISO3166-1:alpha2": "EG",
          "ISO3166-1:alpha3": "EGY",
          "alt_name:bat-smg": "Egipts",
          "default_language": "ar",
          "official_name:ab": "–ê—Ä–∞ÃÅ“ß –†–µ—Å–ø—ÉÃÅ–±–ª–∏–∫–∞ –ú—ãÃÅ—Å—Ä",
          "official_name:af": "Arabiese Republiek van Egipte",
          "official_name:am": "·ã®·åç·â•·çÖ ·ãê·à®·â• ·à™·çê·â•·àä·ä≠",
          "official_name:an": "Republica Arabe d'Echipto",
          "official_name:ar": "ÿ¨ŸèŸÖŸáŸàÿ±ŸêŸäÿ©Ÿè ŸÖŸêÿµÿ±Ÿé ÿßŸÑÿπŸéÿ±Ÿéÿ®Ÿäÿ©Ÿê",
          "official_name:as": "‡¶Æ‡¶ø‡¶ö‡ß∞ ‡¶Ü‡ß∞‡¶¨ ‡¶™‡ßç‡¶∞‡¶ú‡¶æ‡¶§‡¶®‡ßç‡¶§‡ßç‡¶∞",
          "official_name:av": "–ï–≥–∏ÃÅ–ø–µ—Ç–∞–ª—ä—É–ª –ìIa—Ä–∞ÃÅ–± –ñ—É–º–≥—å—É—Ä–∏—è—Ç",
          "official_name:ay": "Iqiqtu Ripublika Arabi",
          "official_name:az": "Misir ∆èr…ôb Respublikasƒ±",
          "official_name:ba": "–ú—ã—Å—ã—Ä “ì”ô—Ä”ô–ø —Ä–µ—Å–ø—É–±–ª–∏–∫–∞“ª—ã",
          "official_name:be": "–ê—Ä–∞ÃÅ–±—Å–∫–∞—è –†—ç—Å–ø—ÉÃÅ–±–ª—ñ–∫–∞ –ï–≥—ñÃÅ–ø–µ—Ç",
          "official_name:bg": "–ê—Ä–∞–±—Å–∫–∞ —Ä–µ–ø—É–±–ª–∏–∫–∞ –ï–≥–∏–ø–µ—Ç",
          "official_name:bh": "‡§ú‡§º‡§Æ‡•ç‡§π‡•Ç‡§∞‡§ø‡§Ø‡§§ ‡§Æ‡§ø‡§∏‡•ç‡§∞ ‡§Ö‡§≤ ‡§Ö‡§∞‡§¨‡§ø‡§Ø‡§æ",
          "official_name:bm": "Misra ka Arabu Fasojamana",
          "official_name:bn": "‡¶Æ‡¶ø‡¶∂‡¶∞ ‡¶Ü‡¶∞‡¶¨ ‡¶™‡ßç‡¶∞‡¶ú‡¶æ‡¶§‡¶®‡ßç‡¶§‡ßç‡¶∞",
          "official_name:br": "Republik arab Egipt",
          "official_name:bs": "Arapska Republika Egipat",
          "official_name:ca": "Rep√∫blica √Ärab d'Egipte",
          "official_name:ce": "”Ä–∞—å—Ä–±–∏–π–Ω –†–µ—Å–ø—É–±–ª–∏–∫–∞ –ú–∏—Å–∞—Ä",
          "official_name:cs": "Egyptsk√° arabsk√° republika",
          "official_name:cu": "–Ñ–≥—∑–ø—Ç—å—Å–∫–∞ –ê—Ä–∞ÃÅ–≤—å—Å–∫–∞ –î–∏–º–æ–∫—Ä–∞—Ç—ñÃÅÍôó",
          "official_name:cy": "Gweriniaeth Arabaidd yr Aifft",
          "official_name:da": "Den Arabiske Republik Egypten",
          "official_name:de": "Arabische Republik √Ñgypten",
          "official_name:el": "ŒëœÅŒ±Œ≤ŒπŒ∫ŒÆ ŒîŒ∑ŒºŒøŒ∫œÅŒ±œÑŒØŒ± œÑŒ∑œÇ ŒëŒπŒ≥œçœÄœÑŒøœÖ",
          "official_name:en": "Arab Republic of Egypt",
          "official_name:eo": "Araba Respubliko Egiptio",
          "official_name:es": "Rep√∫blica √Årabe de Egipto",
          "official_name:et": "Egiptuse Araabia Vabariik",
          "official_name:eu": "Egiptoko Arabiar Errepublika",
          "official_name:fa": "ÿ¨ŸÖŸáŸàÿ±€å ÿπÿ±ÿ®€å ŸÖÿµÿ±",
          "official_name:fi": "Egyptin arabitasavalta",
          "official_name:fr": "R√©publique arabe d'√âgypte",
          "official_name:fy": "Arabysk Republyk Egypte",
          "official_name:ga": "Poblacht Arabach na h√âigipte",
          "official_name:gl": "Rep√∫blica √Årabe de Exipto",
          "official_name:gn": "Eh√≠to Tavakuairet√£ √Årave",
          "official_name:gu": "‡™Æ‡™ø‡™∏‡™∞‡™®‡´Å‡™Ç ‡™Ü‡™∞‡™¨ ‡™ó‡™£‡™∞‡™æ‡™ú‡´ç‡™Ø",
          "official_name:gv": "Pobblaght Arabagh ny h-Egypt",
          "official_name:he": "◊®◊§◊ï◊ë◊ú◊ô◊ß◊™ ◊û◊¶◊®◊ô◊ù ◊î◊¢◊®◊ë◊ô◊™",
          "official_name:hi": "‡§Æ‡§ø‡§∏‡•ç‡§∞ ‡§Ö‡§∞‡§¨ ‡§ó‡§£‡§∞‡§æ‡§ú‡•ç‡§Ø",
          "official_name:hr": "Arapska Republika Egipat",
          "official_name:hu": "Egyiptomi Arab K√∂zt√°rsas√°g",
          "official_name:hy": "‘µ’£’´’∫’ø’∏’Ω’´ ‘±÷Ä’°’¢’°’Ø’°’∂ ’Ä’°’∂÷Ä’°’∫’•’ø’∏÷Ç’©’µ’∏÷Ç’∂",
          "official_name:ia": "Republica Arabe de Egypto",
          "official_name:id": "Republik Arab Mesir",
          "official_name:is": "Arab√≠ska feministaf√©lagi√∞ Egyptaland",
          "official_name:it": "Repubblica araba d'Egitto",
          "official_name:ja": "„Ç®„Ç∏„Éó„Éà„Éª„Ç¢„É©„ÉñÂÖ±ÂíåÂõΩ",
          "official_name:jv": "R√©publik Arab Mesir",
          "official_name:ka": "·Éî·Éí·Éï·Éò·Éû·É¢·Éò·É° ·Éê·É†·Éê·Éë·É£·Éö·Éò ·É†·Éî·É°·Éû·É£·Éë·Éö·Éò·Éô·Éê",
          "official_name:kg": "Repubilika Arabi ya Misiri",
          "official_name:kk": "–ú—ã—Å—ã—Ä –ê—Ä–∞–± –†–µ—Å–ø—É–±–ª–∏–∫–∞—Å—ã",
          "official_name:kl": "Den arabiske republikken Egypt",
          "official_name:km": "·ûü·û∂·ûí·û∂·ûö·ûé·üá·ûö·ûä·üí·ûã·û¢·û∂·ûö·üâ·û∂·ûî·üã·û¢·üÅ·ûü·üä·û∏·ûî",
          "official_name:kn": "‡≤à‡≤ú‡≤ø‡≤™‡≥ç‡≤ü‡≥ç ‡≤Ö‡≤∞‡≤¨‡≥ç ‡≤ó‡≤£‡≤∞‡≤æ‡≤ú‡≥ç‡≤Ø",
          "official_name:ko": "Ïù¥ÏßëÌä∏ ÏïÑÎûç Í≥µÌôîÍµ≠",
          "official_name:ku": "Komara Ereb√Æ ya Misr√™",
          "official_name:kv": "–ï–≥–∏–ø–µ—Ç –ê—Ä–∞–± –†–µ—Å–ø—É–±–ª–∏–∫–∞",
          "official_name:ky": "–ú–∏—Å–∏—Ä –ê—Ä–∞–± –†–µ—Å–ø—É–±–ª–∏–∫–∞—Å—ã",
          "official_name:la": "Res publica Arabica Aegypti",
          "official_name:lb": "Arabesch Republik vun Egypten",
          "official_name:li": "Arabische Rippebliek Egypte",
          "official_name:ln": "Rebubliki Arabe ya Ejipte",
          "official_name:lt": "Egipto Arab≈≥ Respublika",
          "official_name:lv": "ƒíƒ£iptes ArƒÅbu Republika",
          "official_name:mk": "–ê—Ä–∞–ø—Å–∫–∞ –†–µ–ø—É–±–ª–∏–∫–∞ –ï–≥–∏–ø–µ—Ç",
          "official_name:ml": "‡¥Ö‡¥±‡¥¨‡µç ‡¥±‡¥ø‡¥™‡µç‡¥™‡¥¨‡µç‡¥≤‡¥ø‡¥ï‡µç‡¥ï‡µç ‡¥ì‡¥´‡µç ‡¥à‡¥ú‡¥ø‡¥™‡µç‡¥§‡µç",
          "official_name:mn": "–ê—Ä–∞–±—ã–Ω –ë“Ø–≥–¥ –ù–∞–π—Ä–∞–º–¥–∞—Ö –ï–≥–∏–ø–µ—Ç –£–ª—Å",
          "official_name:mr": "‡§á‡§ú‡§ø‡§™‡•ç‡§§‡§ö‡•á ‡§Ö‡§∞‡§¨ ‡§ó‡§£‡§∞‡§æ‡§ú‡•ç‡§Ø",
          "official_name:ms": "Republik Arab Mesir",
          "official_name:mt": "Repubblika Gƒßarbija tal-Eƒ°ittu",
          "official_name:my": "·Ä°·ÄÆ·ÄÇ·Äª·ÄÖ·Ä∫·Ä°·Ä¨·Äõ·Äï·Ä∫·Äû·Äô·Äπ·Äô·Äê·Äî·Ä≠·ÄØ·ÄÑ·Ä∫·ÄÑ·Ä∂",
          "official_name:ne": "‡§Ö‡§∞‡§¨ ‡§ó‡§£‡§§‡§®‡•ç‡§§‡•ç‡§∞ ‡§Æ‡§ø‡§∂‡•ç‡§∞",
          "official_name:nl": "Arabische Republiek Egypte",
          "official_name:nn": "Den Arabiske Republikken Egypt",
          "official_name:no": "Den arabiske republikken Egypt",
          "official_name:oc": "Republica Ar√†bia d'Egipte",
          "official_name:om": "Rippabiliika Arabaa Ijiipti",
          "official_name:os": "–ú—ã—Å—ã—Ä—ã –ê—Ä–∞–±–±–∞–≥ –†–µ—Å–ø—É–±–ª–∏–∫√¶",
          "official_name:pa": "‡®Ö‡®∞‡®¨ ‡®ó‡®£‡®∞‡®æ‡®ú ‡®Æ‡®ø‡®∏‡®∞",
          "official_name:pl": "Arabska Republika Egiptu",
          "official_name:ps": "ÿØ ŸÖÿµÿ± ÿ¨ŸÖŸáŸàÿ±€å ÿØŸàŸÑÿ™",
          "official_name:pt": "Rep√∫blica √Årabe do Egito",
          "official_name:qu": "Arabya Ripuwlika Ihiptu",
          "official_name:rm": "Republica araba da l'Egipta",
          "official_name:ro": "Republica ArabƒÉ a Egiptului",
          "official_name:ru": "–ê—Ä–∞–±—Å–∫–∞—è –†–µ—Å–ø—É–±–ª–∏–∫–∞ –ï–≥–∏–ø–µ—Ç",
          "official_name:sd": "ÿπÿ±ÿ® ÿ¨ŸÖ⁄æŸàÿ±Ÿä€Å ŸÖÿµÿ±",
          "official_name:se": "Egyptta ar√°bad√°ssev√°ldi",
          "official_name:sg": "Ar√¢bo K√∂d√∂r√∂s√™se t√Æ K√¢mit√¢",
          "official_name:sh": "Arapska Republika Egipat",
          "official_name:si": "‡∂Ö‡∂ª‡∑è‡∂∂‡∑í‡∂∫‡∑ö ‡∂∏‡∑í‡∑É‡∑ä‡∂ª‡∑ä ‡∂¢‡∂±‡∂ª‡∂¢‡∂∫",
          "official_name:sk": "Egyptsk√° arabsk√° republika",
          "official_name:sl": "Arabska republika Egipt",
          "official_name:so": "Jamhuuriyada Masar ee Carabta",
          "official_name:sq": "Republika Arabe e Egjiptit",
          "official_name:sr": "–ê—Ä–∞–ø—Å–∫–∞ –†–µ–ø—É–±–ª–∏–∫–∞ –ï–≥–∏–ø–∞—Ç",
          "official_name:su": "R√©publik Arab Mesir",
          "official_name:sv": "Arabrepubliken Egypten",
          "official_name:sw": "Jamhuri ya Kiarabu ya Misri",
          "official_name:ta": "‡Æé‡Æï‡Æø‡Æ™‡Øç‡Æ§‡ØÅ ‡ÆÖ‡Æ∞‡Æ™‡ØÅ‡Æï‡Øç ‡Æï‡ØÅ‡Æü‡Æø‡ÆØ‡Æ∞‡Æö‡ØÅ",
          "official_name:te": "‡∞Ö‡∞∞‡∞¨‡±ç ‡∞∞‡∞ø‡∞™‡∞¨‡±ç‡∞≤‡∞ø‡∞ï‡±ç ‡∞Ü‡∞´‡±ç ‡∞à‡∞ú‡∞ø‡∞™‡±ç‡∞ü‡±ç",
          "official_name:tg": "–ú–∏—Å—Ä–∏ –ê—Ä–∞–±",
          "official_name:th": "‡∏™‡∏≤‡∏ò‡∏≤‡∏£‡∏ì‡∏£‡∏±‡∏ê‡∏≠‡∏≤‡∏´‡∏£‡∏±‡∏ö‡∏≠‡∏µ‡∏¢‡∏¥‡∏õ‡∏ï‡πå",
          "official_name:tk": "M√ºs√ºr Arap Respublikasy",
          "official_name:tl": "Republikang Arabo ng Ehipto",
          "official_name:tr": "Mƒ±sƒ±r Arap Cumhuriyeti",
          "official_name:tt": "–ì–∞—Ä”ôÃÅ–± –ú–∏—Å—ãÃÅ—Ä “ñ”©–º“ª“Ø—Ä–∏—è—Ç–µÃÅ",
          "official_name:ug": "ŸÖŸâÿ≥Ÿâÿ± ÿ¶€ïÿ±€ïÿ® ÿ¨€áŸÖ⁄æ€áÿ±ŸâŸäŸâÿ™Ÿâ",
          "official_name:uk": "–ê—Ä–∞ÃÅ–±—Å—å–∫–∞ –†–µ—Å–ø—ÉÃÅ–±–ª—ñ–∫–∞ –Ñ–≥–∏ÃÅ–ø–µ—Ç",
          "official_name:ur": "ÿπÿ±ÿ® ÿ¨ŸÖ€ÅŸàÿ±€å€Å ŸÖÿµÿ±",
          "official_name:uz": "Misr Arab Respublikasi",
          "official_name:vi": "C·ªông h√≤a ·∫¢ R·∫≠p Ai C·∫≠p",
          "official_name:wo": "Gawu Araab bu Ejipt",
          "official_name:yi": "◊ê◊®◊ê◊ë◊ô◊©◊¢ ◊®◊¢◊§◊ï◊ë◊ú◊ô◊ß ◊§◊ï◊ü ◊¢◊í◊ô◊§◊ò◊ü",
          "official_name:yo": "Orile-ede Olominira Arabu ile Egipti",
          "official_name:zh": "ÈòøÊãâ‰ºØÂüÉÂèäÂÖ±ÂíåÂõΩ / ÈòøÊãâ‰ºØÂüÉÂèäÂÖ±ÂíåÂúã",
          "official_name:zu": "iRiphabliki Arabhu weGibhithe",
          "ISO3166-1:numeric": "818",
          "official_name:als": "Arabischi Republik √Ñgypte",
          "official_name:arc": "‹©‹ò‹õ‹¢‹ù‹ò‹¨‹ê ‹•‹™‹í‹ù‹¨‹ê ‹ï‹°‹®‹™‹ù‹¢",
          "official_name:arz": "ÿ¨ŸÖŸáŸàÿ±Ÿäÿ© ŸÖÿµÿ± ÿßŸÑÿπÿ±ÿ®Ÿäÿ©",
          "official_name:ast": "Rep√∫blica √Årabe d'Exiptu",
          "official_name:azb": "ŸÖ€åÿµÿ± ÿπÿ±ÿ® ÿ¨ŸÖŸáŸàÿ±€å‚Äåÿ≥€å",
          "official_name:bcl": "Republikang Arabo nin Ehipto",
          "official_name:bjn": "Republik Arab Mesir",
          "official_name:bpy": "‡¶Ü‡¶∞‡¶¨ ‡¶™‡ßç‡¶∞‡¶ú‡¶æ‡¶§‡¶®‡ßç‡¶§‡ßç‡¶∞‡¶ø ‡¶Æ‡¶ø‡¶∂‡¶∞",
          "official_name:bxr": "–ê—Ä–∞–± –ë“Ø–≥—ç–¥—ç –ù–∞–π—Ä–∞–º–¥–∞—Ö–∞ –ï–≥–∏–ø–µ—Ç –£–ª–∞—Å",
          "official_name:cdo": "ƒÇi-gƒ≠k ƒÄ-l√°-b√°ik G√™Ã§·π≥ng-hu√≤-gu√≥k",
          "official_name:chr": "·èÉ·è¥ ·é†·èÅ·éØ ·èç·é¶·èö·é© ·éæ·éø ·é¢·è•·èà·é¢",
          "official_name:ckb": "⁄©€ÜŸÖÿßÿ±€å ŸÖ€åÿ≥⁄ï€å ÿπ€ïÿ±€ïÿ®€å",
          "official_name:crh": "Mƒ±sƒ±r Arap Cumhuriyeti",
          "official_name:dsb": "Egyptojska arabska republika",
          "official_name:ext": "Rep√∫brica √Årabi de Egitu",
          "official_name:frr": "Araabisk Republiik faan Egypten",
          "official_name:fur": "Republiche Arabe dal Egjit",
          "official_name:gan": "ÂüÉÂèäÈòøÊãâ‰ºØÂÖ±ÂíåÂúã",
          "official_name:gcr": "R√©piblik arab di L√©jip",
          "official_name:hak": "√Çi-khiÃçp √Ç-l√¢-pak Khiung-f√≤-koet",
          "official_name:hsb": "Egyptowska arabska republika",
          "official_name:hyw": "‘µ’£’´’∫’ø’∏’Ω’´ ‘±÷Ä’°’¢’°’Ø’°’∂ ’Ä’°’∂÷Ä’°’∫’•’ø’∏÷Ç’©’´÷Ç’∂",
          "official_name:ilo": "Arabo a Republika iti Ehipto",
          "official_name:inh": "I–∞—Ä–±–∏–π –†–µ—Å–ø—ÉÃÅ–±–ª–∏–∫–∞ –ú–∏—Å–∞—Ä–µ",
          "official_name:jam": "Arabik Ripoblik a Iijip",
          "official_name:jbo": "misrygu'e xrabo gubyseltru",
          "official_name:kab": "Tagduda Ta…õrabt n Ma·π£er",
          "official_name:lad": "Repuvlika Araba de Ayifto",
          "official_name:lez": "–ê—Ä–∞ÃÅ–± –†–µ—Å–ø—ÉÃÅ–±–ª–∏–∫–∞ –ï–≥–∏ÃÅ–ø–µ—Ç",
          "official_name:lfn": "Republica Arabi de Misre",
          "official_name:lzh": "ÈòøÊãâ‰ºØÂØÜÊÄùÂÖíÂÖ±ÂíåÂúã",
          "official_name:mai": "‡§Æ‡§ø‡§∏‡•ç‡§∞ ‡§Ö‡§∞‡§¨ ‡§ó‡§£‡§§‡§®‡•ç‡§§‡•ç‡§∞",
          "official_name:min": "Republik Arab Masia",
          "official_name:myv": "–ê—Ä–∞ÃÅ–±—Å–∫–∞—è –†–µ—Å–ø—ÉÃÅ–±–ª–∏–∫–∞ –ï–≥–∏ÃÅ–ø–µ—Ç",
          "official_name:mzn": "ÿ¨ŸÖŸáŸàÿ±€åÿ© ŸÖÿµÿ± ÿßŸÑÿπÿ±ÿ®€åÿ©",
          "official_name:nah": "ArabiatlƒÅcatlahtohcƒÅy≈çtl Egipto",
          "official_name:nan": "Ai-kiÃçp A-la-pek Ki≈çng-h√¥-kok",
          "official_name:nap": "Repubbreca Araba 'e Naggitto",
          "official_name:nds": "Araabsch Republiek √Ñgypten",
          "official_name:new": "‡§Ö‡§∞‡§¨ ‡§ó‡§£‡§§‡§®‡•ç‡§§‡•ç‡§∞ ‡§Æ‡§ø‡§∂‡•ç‡§∞",
          "official_name:olo": "Jegiptan islamilaine tazavaldu",
          "official_name:pam": "Arab Republica ning Ejiptu",
          "official_name:pcd": "R√©publike arabe √âdjipe",
          "official_name:pnb": "ÿ¨ŸÖŸáŸàÿ±Ÿäÿ© ŸÖÿµÿ± ÿßŸÑÿπÿ±ÿ®Ÿäÿ©",
          "official_name:rmy": "Arabikane Republika M√™sire",
          "official_name:sah": "–≠–≥–∏–∏–ø—ç—Ç –ê—Ä–∞–± ”®—Ä”©—Å–ø“Ø“Ø–±“Ø–ª“Ø–∫—ç—Ç—ç",
          "official_name:scn": "rip√πbbirca √†rabba d'Eggittu",
          "official_name:sco": "Arab Republic o Egyp",
          "official_name:shn": "·Äô·Ä≠·Ä∞·ÄÑ·Ä∫·Ä∏·Å∏·ÄΩ·Äô·Ä∫·Äï·ÄΩ·ÄÑ·Ä∫·Å∏·Ä≠·ÄØ·ÄÑ·Ä∫·Çà·Ä¢·ÇÉ·Çá·Äõ·Å¢·Äï·Ä∫·Çà ·Ä¢·ÄÆ·Ä∏·Åµ·Äª·Ä≠·Äï·Ä∫·Çà",
          "official_name:smn": "Egypti arabit√§siv√§ldi",
          "official_name:stq": "Arabiske Republik √Ñgypten",
          "official_name:szl": "Arabsk≈è Republika Egiptu",
          "official_name:tet": "Rep√∫blika Arabi Ejitu niam",
          "official_name:tpi": "Arabik Ripablik bilong Ijip",
          "official_name:udm": "–ï–≥–∏–ø–µ—Ç –ê—Ä–∞–± –†–µ—Å–ø—É–±–ª–∏–∫–∞",
          "official_name:vec": "Republica Araba d'Egito",
          "official_name:vep": "Egiptan Arabine Tazovaldkund",
          "official_name:vro": "Eg√ºpt√ºse Araabia Vabariik",
          "official_name:war": "Arabo nga Republka han Ehipto",
          "official_name:xal": "–ò“ó–∏–±–¥–∏–Ω –ê—Ä–∞–± –û—Ä–Ω",
          "official_name:xmf": "·Éî·Éí·Éï·Éò·Éû·É¢·Éî·É® ·Éê·É†·Éê·Éë·É£·Éö·Éò ·É†·Éî·É°·Éû·É£·Éë·Éö·Éò·Éô·Éê",
          "official_name:yue": "ÂüÉÂèäÈòøÊãâ‰ºØÂÖ±ÂíåÂúã",
          "official_name:zea": "Araobische Republiek Ehypte",
          "alt_name:be-tarask": "–≠“ë—ñÃÅ–ø–µ—Ç",
          "official_name:nds-nl": "Arabische Rippebliek Egypte",
          "official_name:bat-smg": "Egƒópta Arabu Respoblƒóka",
          "official_name:zh-Hans": "ÈòøÊãâ‰ºØÂüÉÂèäÂÖ±ÂíåÂõΩ",
          "official_name:zh-Hant": "ÈòøÊãâ‰ºØÂüÉÂèäÂÖ±ÂíåÂúã",
          "official_name:roa-tara": "Repubbleche Arabe d'Egitte",
          "official_name:be-tarask": "–ê—Ä–∞ÃÅ–±—Å–∫–∞—è –†—ç—Å–ø—ÉÃÅ–±–ª—ñ–∫–∞ –≠“ë—ñÃÅ–ø–µ—Ç"
        }
      },
      "geometry": {
        "type": "Polygon",
        "coordinates": [
          [
            [
              34,
              31
            ],
            [
              34.348905107179704,
              31
            ],
            [
              34.3375557,
              31.0286244
            ],
            [
              34.3320064,
              31.0407787
            ],
            [
              34.3255354,
              31.0583657
            ],
            [
              34.3098895,
              31.1025226
            ],
            [
              34.2698339,
              31.213273
            ],
            [
              34.2620852,
              31.2352601
            ],
            [
              34.2571136,
              31.2483191
            ],
            [
              34.2400632,
              31.29573
            ],
            [
              34.2399828,
              31.2959112
            ],
            [
              34.2392275,
              31.2961679
            ],
            [
              34.2358372,
              31.2964026
            ],
            [
              34.2355196,
              31.2966153
            ],
            [
              34.2188902,
              31.3234716
            ],
            [
              34.0546906,
              31.466843
            ],
            [
              34,
              31.434830284463583
            ],
            [
              34,
              31
            ]
          ]
        ]
      }
    },
    {
      "type": "Feature",
      "properties": {
        "osm_id": -1473946,
        "boundary": "administrative",
        "admin_level": 2,
        "parents": null,
        "name": "Israel",
        "local_name": "◊ô◊©◊®◊ê◊ú",
        "name_en": "Israel",
        "all_tags": {
          "flag": "http://upload.wikimedia.org/wikipedia/commons/d/d4/Flag_of_Israel.svg",
          "name": "◊ô◊©◊®◊ê◊ú",
          "sqkm": "20770",
          "name:af": "Israel",
          "name:am": "·ä•·àµ·à´·ä§·àç",
          "name:an": "Israel",
          "name:ar": "ÿ•ÿ≥ÿ±ÿßÿ¶ŸäŸÑ",
          "name:av": "–ìl–∏–∑—Ä–∞–∏–ª",
          "name:az": "ƒ∞srail",
          "name:ba": "–ò–∑—Ä–∞–∏–ª—å",
          "name:be": "–Ü–∑—Ä–∞—ñ–ª—å",
          "name:bg": "–ò–∑—Ä–∞–µ–ª",
          "name:bm": "Israil",
          "name:bn": "‡¶á‡¶∏‡¶∞‡¶æ‡¶Ø‡¶º‡ßá‡¶≤",
          "name:bo": "‡Ω®‡Ω≤‡ºã‡Ω¶‡Ω≤‡ºã‡Ω¢‡ºã‡Ω®‡Ω∫‡Ω£‡ºç",
          "name:br": "Israel",
          "name:bs": "Izrael",
          "name:ca": "Israel",
          "name:ce": "–ò–∑—Ä–∞–∏–ª—å",
          "name:co": "Israele",
          "name:cs": "Izrael",
          "name:cu": "–áÍôÅ–¥—Ä–∞–∏–ª“Ñ—å",
          "name:cv": "–ò–∑—Ä–∞–∏–ª—å",
          "name:cy": "Israel",
          "name:da": "Israel",
          "name:de": "Israel",
          "name:dv": "ﬁáﬁ®ﬁêﬁ∞ﬁÉﬁßﬁáﬁ©ﬁçﬁ™",
          "name:dz": "‡Ω®‡Ω≤‡Ωõ‡ºã‡Ω¢‡Ω±‡Ω∫‡Ω£‡ºã",
          "name:el": "ŒôœÉœÅŒ±ŒÆŒª",
          "name:en": "Israel",
          "name:eo": "Israelo",
          "name:es": "Israel",
          "name:et": "Iisrael",
          "name:eu": "Israel",
          "name:fa": "ÿßÿ≥ÿ±ÿßÿ¶€åŸÑ",
          "name:fi": "Israel",
          "name:fj": "Isireli",
          "name:fo": "√çsrael",
          "name:fr": "Isra√´l",
          "name:fy": "Israel",
          "name:ga": "Iosrael",
          "name:gd": "Iosrael",
          "name:gl": "Israel",
          "name:gn": "Israel",
          "name:gu": "‡™à‡™ù‡™∞‡™æ‡™Ø‡™≤",
          "name:gv": "Israel",
          "name:ha": "Isra'ila",
          "name:he": "◊ô◊©◊®◊ê◊ú",
          "name:hi": "‡§á‡§ú‡§º‡§∞‡§æ‡§á‡§≤",
          "name:hr": "Izrael",
          "name:ht": "Izray√®l",
          "name:hu": "Izrael",
          "name:hy": "‘ª’Ω÷Ä’°’µ’•’¨",
          "name:ia": "Israel",
          "name:id": "Israel",
          "name:ie": "Israel",
          "name:ig": "Israel",
          "name:io": "Israel",
          "name:is": "√çsrael",
          "name:it": "Israele",
          "name:ja": "„Ç§„Çπ„É©„Ç®„É´",
          "name:jv": "Isra√®l",
          "name:ka": "·Éò·É°·É†·Éê·Éî·Éö·Éò",
          "name:kg": "Israel",
          "name:kk": "–ò–∑—Ä–∞–∏–ª—å",
          "name:kl": "Israel",
          "name:kn": "‡≤á‡≤∏‡≥ç‡≤∞‡≥á‡≤≤‡≥ç",
          "name:ko": "Ïù¥Ïä§ÎùºÏóò",
          "name:ku": "√ésra√™l",
          "name:kv": "–ò–∑—Ä–∞–∏–ª—å",
          "name:kw": "Ysrael",
          "name:ky": "–ò–∑—Ä–∞–∏–ª—å",
          "name:la": "Israel",
          "name:lb": "Israel",
          "name:li": "Isra√´l",
          "name:ln": "Israel",
          "name:lt": "Izraelis",
          "name:lv": "Izraƒìla",
          "name:mi": "Iharaira",
          "name:mk": "–ò–∑—Ä–∞–µ–ª",
          "name:ml": "‡¥á‡¥∏‡µç‡¥∞‡¥Ø‡µá‡µΩ",
          "name:mn": "–ò–∑—Ä–∞–π–ª—å",
          "name:mr": "‡§á‡§∏‡•ç‡§∞‡§æ‡§Ø‡§≤",
          "name:ms": "Israel",
          "name:mt": "I≈ºrael",
          "name:my": "·Ä°·ÄÖ·Äπ·ÄÖ·Äõ·Ä±·Ä∏·Äî·Ä≠·ÄØ·ÄÑ·Ä∫·ÄÑ·Ä∂",
          "name:na": "Iteraer",
          "name:ne": "‡§á‡§ú‡§∞‡§æ‡§Ø‡§≤",
          "name:nl": "Isra√´l",
          "name:nn": "Israel",
          "name:no": "Israel",
          "name:nv": "√çzrel Bik√©yah",
          "name:oc": "Isra√®l",
          "name:or": "‡¨á‡¨∏‡≠ç‡¨∞‡¨æ‡¨è‡¨≤",
          "name:os": "–ò–∑—Ä–∞–∏–ª—å",
          "name:pa": "‡®á‡®ú‡®º‡®∞‡®æ‡®á‡®≤",
          "name:pl": "Izrael",
          "name:ps": "ÿßÿ≥ÿ±ÿßÿ¶ŸäŸÑ",
          "name:pt": "Israel",
          "name:qu": "Israyil",
          "name:ro": "Israel",
          "name:ru": "–ò–∑—Ä–∞–∏–ª—å",
          "name:rw": "Isirayeli",
          "name:sa": "‡§á‡§∏‡•ç‡§∞‡•á‡§≤",
          "name:sc": "Israele",
          "name:se": "Israel",
          "name:sh": "Izrael",
          "name:si": "‡∂ä‡∑Å‡∑ä‚Äç‡∂ª‡∑è‡∂∫‡∂Ω‡∂∫",
          "name:sk": "Izrael",
          "name:sl": "Izrael",
          "name:sm": "Israel",
          "name:so": "Israaiil",
          "name:sq": "Izraeli",
          "name:sr": "–ò–∑—Ä–∞–µ–ª",
          "name:ss": "Ka-Israyeli",
          "name:sv": "Israel",
          "name:sw": "Israel",
          "name:ta": "‡Æá‡Æö‡ØÅ‡Æ∞‡Øá‡Æ≤‡Øç",
          "name:te": "‡∞á‡∞ú‡±ç‡∞∞‡∞æ‡∞Ø‡∞ø‡∞≤‡±ç",
          "name:tg": "–ò—Å—Ä–æ–∏–ª",
          "name:th": "‡∏õ‡∏£‡∏∞‡πÄ‡∏ó‡∏®‡∏≠‡∏¥‡∏™‡∏£‡∏≤‡πÄ‡∏≠‡∏•",
          "name:tk": "Ysra√Ωyl",
          "name:tl": "Israel",
          "name:tr": "ƒ∞srail",
          "name:tt": "–ò—Å—Ä–∞–∏–ª",
          "name:ug": "ÿ¶Ÿâÿ≥ÿ±ÿßÿ¶ŸâŸÑŸâŸä€ï",
          "name:uk": "–Ü–∑—Ä–∞—ó–ª—å",
          "name:ur": "ÿßÿ≥ÿ±ÿßÿ¶€åŸÑ",
          "name:uz": "Isroil",
          "name:vi": "Israel",
          "name:vo": "Yisrael√§n",
          "name:wa": "Israyel",
          "name:wo": "Israayil",
          "name:yi": "◊ô◊©◊®◊ê◊ú",
          "name:yo": "√çsr√°·∫πÃÅl√¨",
          "name:zh": "‰ª•Ëâ≤Âàó",
          "name:zu": "Isreyili",
          "boundary": "administrative",
          "int_name": "◊ô◊©◊®◊ê◊ú",
          "name:als": "Israel",
          "name:ang": "Israhƒìl",
          "name:arc": "‹ê‹ù‹£‹™‹ê‹ù‹†",
          "name:arz": "ÿßÿ≥ÿ±ÿßÿ¶ŸäŸÑ",
          "name:ast": "Israel",
          "name:bar": "Israel",
          "name:bcl": "Israel",
          "name:bpy": "‡¶á‡¶∏‡¶∞‡¶æ‡¶á‡¶≤",
          "name:bxr": "–ò–∑—Ä–∞–∏–ª—å",
          "name:cdo": "ƒ™-s√°ik-liƒïk",
          "name:ceb": "Israel",
          "name:ckb": "ÿ¶€åÿ≥ÿ±ÿßÿ¶€åŸÑ",
          "name:crh": "ƒ∞srail",
          "name:csb": "Izrael",
          "name:diq": "ƒ∞srail",
          "name:dsb": "Israel",
          "name:ext": "Israel",
          "name:frp": "Isray√®l",
          "name:frr": "Israel",
          "name:gag": "ƒ∞srail",
          "name:gan": "‰ª•Ëâ≤Âàó",
          "name:hak": "Y√Æ-set-lieÃçt",
          "name:haw": " ªIsera ªela",
          "name:hif": "Israel",
          "name:hsb": "Israel",
          "name:ilo": "Israel",
          "name:jbo": "brogu'e",
          "name:kab": "Israyil",
          "name:kbd": "–ò—Å—Ä–∞—ç–ª",
          "name:koi": "–ò—Å—Ä–∞—ç–ª—å",
          "name:ksh": "Israel",
          "name:lad": "Medinat Yisrael",
          "name:lez": "–ò–∑—Ä–∞–∏–ª—å",
          "name:lij": "Isr√¶",
          "name:lmo": "Israel",
          "name:mdf": "–ò–∑—Ä–∞–∏–ª—å",
          "name:mwl": "Eisrael",
          "name:mzn": "ÿßÿ≥ÿ±ÿßÿ¶€åŸÑ",
          "name:nah": "Israel",
          "name:nan": "√ç-sek-liaÃçt",
          "name:nap": "Israele",
          "name:nds": "Israel",
          "name:nov": "Israel",
          "name:pam": "Israel",
          "name:pap": "Israel",
          "name:pih": "Esrail",
          "name:pms": "Israel",
          "name:pnb": "ÿßÿ≥ÿ±ÿßÿ¶€åŸÑ",
          "name:pnt": "ŒôœÉœÅŒ±ŒÆŒª",
          "name:rmy": "Israel",
          "name:rue": "–Ü–∑—Ä–∞—ñ–ª—å",
          "name:sah": "–ò—Å—Ä–∞–∏–ª",
          "name:scn": "Israeli",
          "name:sco": "Israel",
          "name:smn": "Israel",
          "name:sms": "Israel",
          "name:srn": "Israel",
          "name:stq": "Israel",
          "name:szl": "Izrael",
          "name:tet": "Izra√©l",
          "name:tok": "ma Isale",
          "name:tpi": "Israel",
          "name:tzl": "Israidia",
          "name:udm": "–ò–∑—Ä–∞–∏–ª—å",
          "name:vec": "Israe≈Çe",
          "name:vep": "Izrail'",
          "name:vro": "Iisrael",
          "name:war": "Israel",
          "name:wuu": "‰ª•Ëâ≤Âàó",
          "name:xal": "–ò–∑—Ä–∞–ª–º—É–¥–∏–Ω –û—Ä–Ω",
          "name:xmf": "·Éò·É°·É†·Éê·Éî·Éö·Éò",
          "name:yue": "‰ª•Ëâ≤Âàó",
          "name:zea": "Isra√´l",
          "way_area": "2.48254",
          "wikidata": "Q801",
          "ISO3166-1": "IL",
          "wikipedia": "en:Israel",
          "admin_level": "2",
          "alt_name:vi": "Ixraen;Do Th√°i",
          "name:nds-nl": "Isra√´l",
          "name:simple": "Israel",
          "name:bat-smg": "Izraelis",
          "name:zh-Hans": "‰ª•Ëâ≤Âàó",
          "name:zh-Hant": "‰ª•Ëâ≤Âàó",
          "name:roa-tara": "Israele",
          "official_name": "◊û◊ì◊ô◊†◊™ ◊ô◊©◊®◊ê◊ú",
          "name:be-tarask": "–Ü–∑—Ä–∞—ñ–ª—å",
          "ISO3166-1:alpha2": "IL",
          "ISO3166-1:alpha3": "ISR",
          "default_language": "he",
          "official_name:ar": "ÿØŸàŸÑÿ© ÿ•ÿ≥ÿ±ÿßÿ¶ŸäŸÑ",
          "official_name:cs": "St√°t Izrael",
          "official_name:en": "State of Israel",
          "official_name:eo": "≈útato Israelo",
          "official_name:fr": "√âtat d‚ÄôIsra√´l",
          "official_name:pl": "Pa≈Ñstwo Izrael",
          "official_name:ru": "–ì–æ—Å—É–¥–∞—Ä—Å—Ç–≤–æ –ò–∑—Ä–∞–∏–ª—å",
          "ISO3166-1:numeric": "376"
        }
      },
      "geometry": {
        "type": "Polygon",
        "coordinates": [
          [
            [
              34.2674994,
              31.2201289
            ],
            [
              34.2698339,
              31.213273
            ],
            [
              34.3098895,
              31.1025226
            ],
            [
              34.3255354,
              31.0583657
            ],
            [
              34.3320064,
              31.0407787
            ],
            [
              34.3375557,
              31.0286244
            ],
            [
              34.348905107179704,
              31
            ],
            [
              35,
              31
            ],
            [
              35,
              31.356776110498394
            ],
            [
              34.9998418,
              31.3567536
            ],
            [
              34.9878966,
              31.3524511
            ],
            [
              34.9862522,
              31.3520318
            ],
            [
              34.9803646,
              31.3515826
            ],
            [
              34.9674343,
              31.3498141
            ],
            [
              34.9559759,
              31.3490876
            ],
            [
              34.947307,
              31.3474894
            ],
            [
              34.9330707,
              31.3442951
            ],
            [
              34.9329895,
              31.3433952
            ],
            [
              34.928358,
              31.3422744
            ],
            [
              34.9246515,
              31.3421068
            ],
            [
              34.922672,
              31.3432077
            ],
            [
              34.9202614,
              31.3434563
            ],
            [
              34.9186471,
              31.3439326
            ],
            [
              34.9169884,
              31.3456185
            ],
            [
              34.9127647,
              31.3492346
            ],
            [
              34.9121432,
              31.3496208
            ],
            [
              34.9108805,
              31.349964
            ],
            [
              34.9099183,
              31.3505986
            ],
            [
              34.910066,
              31.3512889
            ],
            [
              34.910939,
              31.3525355
            ],
            [
              34.9107553,
              31.3533237
            ],
            [
              34.9108702,
              31.3540596
            ],
            [
              34.9097161,
              31.3564986
            ],
            [
              34.9059176,
              31.3585409
            ],
            [
              34.8981359,
              31.3632109
            ],
            [
              34.8931856,
              31.3675005
            ],
            [
              34.8927864,
              31.3679923
            ],
            [
              34.8895983,
              31.3726992
            ],
            [
              34.8886193,
              31.3753337
            ],
            [
              34.8863539,
              31.3825263
            ],
            [
              34.883228,
              31.3871796
            ],
            [
              34.8800552,
              31.3923293
            ],
            [
              34.8833531,
              31.4025017
            ],
            [
              34.8866362,
              31.4111663
            ],
            [
              34.8900662,
              31.418019
            ],
            [
              34.8928017,
              31.4220575
            ],
            [
              34.8936224,
              31.4235217
            ],
            [
              34.8950016,
              31.4277572
            ],
            [
              34.8963586,
              31.4310883
            ],
            [
              34.8974012,
              31.4329681
            ],
            [
              34.898642,
              31.4347715
            ],
            [
              34.8993793,
              31.4364073
            ],
            [
              34.9003885,
              31.4377251
            ],
            [
              34.9046786,
              31.4412688
            ],
            [
              34.9072861,
              31.4438969
            ],
            [
              34.9087708,
              31.445602
            ],
            [
              34.9115242,
              31.4492805
            ],
            [
              34.9196128,
              31.4575969
            ],
            [
              34.9216396,
              31.4598862
            ],
            [
              34.9250264,
              31.4643869
            ],
            [
              34.9284935,
              31.4706196
            ],
            [
              34.9307933,
              31.4742534
            ],
            [
              34.9318858,
              31.4765294
            ],
            [
              34.9371197,
              31.4861449
            ],
            [
              34.9386821,
              31.4899777
            ],
            [
              34.9417891,
              31.4986897
            ],
            [
              34.9422694,
              31.499577
            ],
            [
              34.9437257,
              31.5049647
            ],
            [
              34.9441509,
              31.5098123
            ],
            [
              34.9440213,
              31.5108961
            ],
            [
              34.9423078,
              31.5175886
            ],
            [
              34.9405185,
              31.5225246
            ],
            [
              34.9403675,
              31.5232807
            ],
            [
              34.9404341,
              31.5237682
            ],
            [
              34.9419069,
              31.5275716
            ],
            [
              34.9420257,
              31.5285412
            ],
            [
              34.9418263,
              31.5304271
            ],
            [
              34.9416609,
              31.5387128
            ],
            [
              34.941169,
              31.5484209
            ],
            [
              34.9412745,
              31.5502355
            ],
            [
              34.9415689,
              31.5513746
            ],
            [
              34.9427107,
              31.5542764
            ],
            [
              34.9432879,
              31.5566184
            ],
            [
              34.9432692,
              31.5620096
            ],
            [
              34.9434872,
              31.5625262
            ],
            [
              34.9446927,
              31.5638021
            ],
            [
              34.9452481,
              31.5653148
            ],
            [
              34.9458307,
              31.5703925
            ],
            [
              34.9461165,
              31.5751578
            ],
            [
              34.9469205,
              31.5806894
            ],
            [
              34.9474183,
              31.5822196
            ],
            [
              34.9477804,
              31.5820194
            ],
            [
              34.9509543,
              31.5907356
            ],
            [
              34.9518518,
              31.5936291
            ],
            [
              34.9523937,
              31.5946634
            ],
            [
              34.9566572,
              31.5986706
            ],
            [
              34.9647825,
              31.6069792
            ],
            [
              34.9683394,
              31.6108945
            ],
            [
              34.975463,
              31.6180002
            ],
            [
              34.9778587,
              31.6210604
            ],
            [
              34.9824504,
              31.6279289
            ],
            [
              34.9879972,
              31.635318
            ],
            [
              34.9964979,
              31.6448793
            ],
            [
              34.9978754,
              31.6458336
            ],
            [
              34.999381,
              31.6465676
            ],
            [
              34.9991167,
              31.6469666
            ],
            [
              35,
              31.64759106666401
            ],
            [
              35,
              31.829937477862476
            ],
            [
              34.9979949,
              31.8301208
            ],
            [
              34.9924476,
              31.8304228
            ],
            [
              34.9901252,
              31.8303744
            ],
            [
              34.9863494,
              31.8306492
            ],
            [
              34.9836966,
              31.8309403
            ],
            [
              34.9818575,
              31.8313278
            ],
            [
              34.978415,
              31.8321917
            ],
            [
              34.977775,
              31.8326068
            ],
            [
              34.9775764,
              31.8334919
            ],
            [
              34.9775868,
              31.8358164
            ],
            [
              34.97774,
              31.8368464
            ],
            [
              34.978058,
              31.8373299
            ],
            [
              34.9921942,
              31.8468066
            ],
            [
              34.9941075,
              31.8512107
            ],
            [
              34.9947926,
              31.8522231
            ],
            [
              34.9956073,
              31.8528938
            ],
            [
              35,
              31.854259146117272
            ],
            [
              35,
              31.950765235247797
            ],
            [
              34.9992106,
              31.951346
            ],
            [
              34.9946338,
              31.9555742
            ],
            [
              34.9949139,
              31.9558808
            ],
            [
              34.9949414,
              31.9562985
            ],
            [
              34.9917694,
              31.9593577
            ],
            [
              34.9903168,
              31.9610005
            ],
            [
              34.9883451,
              31.9677028
            ],
            [
              34.9875464,
              31.9678226
            ],
            [
              34.9868387,
              31.9706001
            ],
            [
              34.9878318,
              31.9708053
            ],
            [
              34.9892808,
              31.9708557
            ],
            [
              34.9940685,
              31.9727834
            ],
            [
              34.9949029,
              31.9754317
            ],
            [
              34.9962272,
              31.9811993
            ],
            [
              34.9964105,
              31.9813275
            ],
            [
              34.9969308,
              31.9831433
            ],
            [
              34.9991542,
              31.9935522
            ],
            [
              34.9994033,
              31.9969908
            ],
            [
              34.99929228066853,
              32
            ],
            [
              34.4770166567877,
              32
            ],
            [
              34.469456,
              31.9843562
            ],
            [
              34.4465174,
              31.9614256
            ],
            [
              34.4261367,
              31.932201
            ],
            [
              34.4130302,
              31.9039074
            ],
            [
              34.4051006,
              31.8742471
            ],
            [
              34.4011032,
              31.8526156
            ],
            [
              34.377679,
              31.8150293
            ],
            [
              34.3734853,
              31.811203
            ],
            [
              34.3539513,
              31.7871253
            ],
            [
              34.3462296,
              31.7743086
            ],
            [
              34.322266,
              31.7488668
            ],
            [
              34.304226,
              31.7214077
            ],
            [
              34.3001363,
              31.7119559
            ],
            [
              34.2956337,
              31.7054352
            ],
            [
              34.3448361,
              31.67749
            ],
            [
              34.4912485,
              31.5949873
            ],
            [
              34.5020714,
              31.5874368
            ],
            [
              34.5105711,
              31.5817755
            ],
            [
              34.5184863,
              31.5759761
            ],
            [
              34.5217479,
              31.5740246
            ],
            [
              34.5241458,
              31.5721759
            ],
            [
              34.529722,
              31.568333
            ],
            [
              34.537778,
              31.562222
            ],
            [
              34.5404443,
              31.5604137
            ],
            [
              34.54328,
              31.5582864
            ],
            [
              34.5440473,
              31.557445
            ],
            [
              34.5481784,
              31.5544685
            ],
            [
              34.5511196,
              31.5526833
            ],
            [
              34.5559139,
              31.5486537
            ],
            [
              34.5650408,
              31.542689
            ],
            [
              34.5666802,
              31.5414644
            ],
            [
              34.5673243,
              31.5401214
            ],
            [
              34.5654314,
              31.5332427
            ],
            [
              34.5645456,
              31.5319131
            ],
            [
              34.5590514,
              31.5284143
            ],
            [
              34.5584287,
              31.5276108
            ],
            [
              34.5581922,
              31.5251233
            ],
            [
              34.5548057,
              31.5228031
            ],
            [
              34.5537837,
              31.5212465
            ],
            [
              34.5539109,
              31.5199145
            ],
            [
              34.5542243,
              31.5187413
            ],
            [
              34.5500898,
              31.5167205
            ],
            [
              34.5467531,
              31.5130345
            ],
            [
              34.5422508,
              31.5112754
            ],
            [
              34.5385241,
              31.5101167
            ],
            [
              34.531372,
              31.5070776
            ],
            [
              34.529587,
              31.5062201
            ],
            [
              34.5281787,
              31.5050522
            ],
            [
              34.5247268,
              31.5029453
            ],
            [
              34.5167124,
              31.5015548
            ],
            [
              34.5127105,
              31.500695
            ],
            [
              34.5085156,
              31.4983257
            ],
            [
              34.5045695,
              31.495184
            ],
            [
              34.496389,
              31.489167
            ],
            [
              34.4924223,
              31.4860848
            ],
            [
              34.4890449,
              31.4827202
            ],
            [
              34.4865427,
              31.4808794
            ],
            [
              34.4851839,
              31.4800509
            ],
            [
              34.4803738,
              31.4778433
            ],
            [
              34.4779067,
              31.4762123
            ],
            [
              34.47443,
              31.4718384
            ],
            [
              34.467309,
              31.4647494
            ],
            [
              34.4647268,
              31.4611395
            ],
            [
              34.4570284,
              31.4548348
            ],
            [
              34.4531795,
              31.4520521
            ],
            [
              34.4512893,
              31.4494773
            ],
            [
              34.4493001,
              31.4472471
            ],
            [
              34.4470155,
              31.4450705
            ],
            [
              34.4455503,
              31.4437879
            ],
            [
              34.4419015,
              31.44299
            ],
            [
              34.4370599,
              31.4402701
            ],
            [
              34.4335493,
              31.4361167
            ],
            [
              34.4305129,
              31.431192
            ],
            [
              34.4280893,
              31.4288768
            ],
            [
              34.4236027,
              31.4233727
            ],
            [
              34.4206682,
              31.4217784
            ],
            [
              34.4183037,
              31.4209962
            ],
            [
              34.4163984,
              31.4197246
            ],
            [
              34.4148605,
              31.4176463
            ],
            [
              34.4123532,
              31.4156384
            ],
            [
              34.4102694,
              31.4142972
            ],
            [
              34.4075179,
              31.4115831
            ],
            [
              34.4048312,
              31.4120836
            ],
            [
              34.4041998,
              31.4116417
            ],
            [
              34.4027644,
              31.4104671
            ],
            [
              34.3999697,
              31.4071184
            ],
            [
              34.3974636,
              31.4046441
            ],
            [
              34.395842,
              31.4032795
            ],
            [
              34.3950243,
              31.4018527
            ],
            [
              34.3892934,
              31.3974089
            ],
            [
              34.388463,
              31.3961171
            ],
            [
              34.3866818,
              31.3951167
            ],
            [
              34.3846326,
              31.3931675
            ],
            [
              34.3823014,
              31.3914153
            ],
            [
              34.3802664,
              31.3895735
            ],
            [
              34.380287,
              31.3876271
            ],
            [
              34.3790529,
              31.3858067
            ],
            [
              34.3748373,
              31.3804042
            ],
            [
              34.3740162,
              31.3788011
            ],
            [
              34.3731623,
              31.3759741
            ],
            [
              34.3730199,
              31.3738022
            ],
            [
              34.3715405,
              31.3722712
            ],
            [
              34.371449,
              31.3719816
            ],
            [
              34.3718567,
              31.3709502
            ],
            [
              34.3718339,
              31.3702214
            ],
            [
              34.3713537,
              31.3696487
            ],
            [
              34.3704544,
              31.3693201
            ],
            [
              34.3700553,
              31.3693152
            ],
            [
              34.3688925,
              31.369862
            ],
            [
              34.3680704,
              31.3699318
            ],
            [
              34.3671664,
              31.3695828
            ],
            [
              34.3664896,
              31.3685395
            ],
            [
              34.3659219,
              31.3672751
            ],
            [
              34.3655686,
              31.3657267
            ],
            [
              34.3650551,
              31.3644112
            ],
            [
              34.3651042,
              31.3633423
            ],
            [
              34.3647238,
              31.3616671
            ],
            [
              34.3683019,
              31.3364855
            ],
            [
              34.373288,
              31.3061738
            ],
            [
              34.3692693,
              31.295541
            ],
            [
              34.3665475,
              31.2905287
            ],
            [
              34.3452102,
              31.2799934
            ],
            [
              34.3421974,
              31.2782519
            ],
            [
              34.3403198,
              31.2746071
            ],
            [
              34.3363609,
              31.2683994
            ],
            [
              34.3316161,
              31.2628508
            ],
            [
              34.3258087,
              31.2579736
            ],
            [
              34.3194337,
              31.2536064
            ],
            [
              34.316188,
              31.2517026
            ],
            [
              34.308634,
              31.2489901
            ],
            [
              34.3066983,
              31.2481564
            ],
            [
              34.2989114,
              31.2444233
            ],
            [
              34.293468,
              31.2421336
            ],
            [
              34.2919106,
              31.2412003
            ],
            [
              34.2906298,
              31.2400928
            ],
            [
              34.2851717,
              31.234418
            ],
            [
              34.2809072,
              31.2305723
            ],
            [
              34.26839,
              31.220551
            ],
            [
              34.2674994,
              31.2201289
            ]
          ]
        ]
      }
    }
  ]
}