{
  "type": "FeatureCollection",
  "features": [
    {
      "type": "Feature",
      "properties": {
        "osm_id": -304938,
        "boundary": "administrative",
        "admin_level": 2,
        "parents": null,
        "name": "Iran",
        "local_name": "ایران",
        "name_en": "Iran",
        "all_tags": {
          "flag": "http://upload.wikimedia.org/wikipedia/commons/c/ca/Flag_of_Iran.svg",
          "name": "ایران",
          "sqkm": "1628762",
          "name:af": "Iran",
          "name:am": "ፋርስ",
          "name:an": "Irán",
          "name:ar": "إیران",
          "name:az": "İran",
          "name:ba": "Иран",
          "name:be": "Іран",
          "name:bg": "Иран",
          "name:bn": "ইরান",
          "name:bo": "ཡི་ལང་།",
          "name:br": "Iran",
          "name:bs": "Iran",
          "name:ca": "Iran",
          "name:ce": "Иран",
          "name:co": "Iranu",
          "name:cs": "Írán",
          "name:cy": "Iran",
          "name:da": "Iran",
          "name:de": "Iran",
          "name:dv": "އީރާން",
          "name:dz": "ཨི་རཱན་",
          "name:el": "Ιράν",
          "name:en": "Iran",
          "name:eo": "Irano",
          "name:es": "Irán",
          "name:et": "Iraan",
          "name:eu": "Iran",
          "name:fa": "ایران",
          "name:fi": "Iran",
          "name:fo": "Iran",
          "name:fr": "Iran",
          "name:fy": "Iran",
          "name:ga": "An Iaráin",
          "name:gd": "Ioràn",
          "name:gl": "Irán - ایران",
          "name:gn": "Irán",
          "name:gu": "ઈરાન",
          "name:gv": "Yn Eeraan",
          "name:ha": "Iran",
          "name:he": "איראן",
          "name:hi": "ईरान",
          "name:hr": "Iran",
          "name:ht": "Iran",
          "name:hu": "Irán",
          "name:hy": "Իրան",
          "name:ia": "Iran",
          "name:id": "Iran",
          "name:ie": "Iran",
          "name:io": "Iran",
          "name:is": "Íran",
          "name:it": "Iran",
          "name:ja": "イラン",
          "name:jv": "Iran",
          "name:ka": "ირანი",
          "name:kk": "Иран",
          "name:kl": "Iran",
          "name:km": "អ៊ីរ៉ង់",
          "name:kn": "ಇರಾನ್",
          "name:ko": "이란",
          "name:ks": "ایٖران",
          "name:ku": "Îran",
          "name:kv": "Иран",
          "name:kw": "Iran",
          "name:ky": "Иран",
          "name:la": "Irania",
          "name:lb": "Iran",
          "name:li": "Iran",
          "name:ln": "Iran",
          "name:lt": "Iranas",
          "name:lv": "Irāna",
          "name:mg": "Iran",
          "name:mi": "Irāna",
          "name:mk": "Иран",
          "name:ml": "ഇറാൻ",
          "name:mn": "Иран",
          "name:mr": "इराण",
          "name:ms": "Iran",
          "name:mt": "Iran",
          "name:my": "အီရန်နိုင်ငံ",
          "name:na": "Iran",
          "name:ne": "इरान",
          "name:nl": "Iran",
          "name:nn": "Iran",
          "name:no": "Iran",
          "name:nv": "Iiwą́ą́",
          "name:oc": "Iran",
          "name:or": "ଇରାନ",
          "name:os": "Иран",
          "name:pa": "ਇਰਾਨ",
          "name:pl": "Iran",
          "name:ps": "ایران",
          "name:pt": "Irão",
          "name:qu": "Iran",
          "name:rm": "Iran",
          "name:ro": "Iran",
          "name:ru": "Иран",
          "name:rw": "Irani",
          "name:sa": "ईरान",
          "name:sc": "Iran",
          "name:se": "Iran",
          "name:sh": "Iran",
          "name:si": "ඉරානය",
          "name:sk": "Irán",
          "name:sl": "Iran",
          "name:so": "Iiraan",
          "name:sq": "Irani",
          "name:sr": "Иран",
          "name:ss": "I-Irani",
          "name:su": "Iran",
          "name:sv": "Iran",
          "name:sw": "Uajemi",
          "name:ta": "ஈரான்",
          "name:te": "ఇరాన్",
          "name:tg": "Эрон",
          "name:th": "ประเทศอิหร่าน",
          "name:tk": "Eýran",
          "name:tl": "Iran",
          "name:tr": "İran",
          "name:tt": "Иран",
          "name:tw": "Iran",
          "name:ug": "ئىران",
          "name:uk": "Іран",
          "name:ur": "ایران",
          "name:uz": "Eron",
          "name:vi": "Iran",
          "name:vo": "Lirän",
          "name:wa": "Iran",
          "name:wo": "Iraan",
          "name:yi": "איראן",
          "name:yo": "Ìránì",
          "name:za": "Iran",
          "name:zh": "伊朗",
          "name:zu": "I-Irani",
          "boundary": "administrative",
          "int_name": "Iran",
          "name:ace": "Iran",
          "name:als": "Iran",
          "name:ang": "Persealand",
          "name:arc": "ܐܝܪܐܢ",
          "name:arz": "ایران",
          "name:ast": "Irán",
          "name:azb": "ایران",
          "name:bar": "Iran",
          "name:bcl": "Iran",
          "name:bpy": "ইরান",
          "name:bug": "Iran",
          "name:bxr": "Иран",
          "name:cdo": "Ĭ-lāng",
          "name:ceb": "Iran",
          "name:ckb": "ئێران",
          "name:crh": "İran",
          "name:csb": "Iran",
          "name:diq": "İran",
          "name:dsb": "Iran",
          "name:ext": "Irán",
          "name:frp": "Éran",
          "name:gag": "İran",
          "name:gan": "伊朗",
          "name:grc": "Περσίς",
          "name:hak": "Yî-lóng",
          "name:haw": "‘Ilana",
          "name:hif": "Iran",
          "name:hsb": "Iran",
          "name:ilo": "Iran",
          "name:jbo": "iran",
          "name:kaa": "İran",
          "name:kab": "Iran",
          "name:kbd": "Къажэр",
          "name:lad": "Iran",
          "name:lbe": "Иран",
          "name:lez": "Иран",
          "name:lij": "Iran",
          "name:lmo": "Iran",
          "name:lzh": "伊朗",
          "name:mdf": "Иран",
          "name:mhr": "Иран",
          "name:mzn": "ایران",
          "name:nah": "Iran",
          "name:nan": "Iran",
          "name:nap": "Iran",
          "name:nds": "Iran",
          "name:new": "इरान",
          "name:nov": "Iran",
          "name:pam": "Iran",
          "name:pap": "Iran",
          "name:pcd": "Iran",
          "name:pdc": "Iraen",
          "name:pih": "Eraan",
          "name:pms": "Iran",
          "name:pnb": "ایران",
          "name:rue": "Іран",
          "name:sah": "Ираан",
          "name:scn": "Iran",
          "name:sco": "Iran",
          "name:smn": "Iran",
          "name:sms": "Iraan",
          "name:stq": "Iran",
          "name:syc": "ܐܝܪܐܢ",
          "name:szl": "Iran",
          "name:tok": "ma Ilan",
          "name:udm": "Иран",
          "name:vec": "Iran",
          "name:vep": "Iran",
          "name:vro": "Iraan",
          "name:war": "Iran",
          "name:wuu": "伊朗",
          "name:xmf": "ირანი",
          "name:yue": "伊朗",
          "name:zea": "Iran",
          "timezone": "Asia/Tehran",
          "way_area": "163.814",
          "wikidata": "Q794",
          "ISO3166-1": "IR",
          "wikipedia": "fa:ایران",
          "name:pt-BR": "Irã",
          "population": "79926270",
          "admin_level": "2",
          "border_type": "nation",
          "name:nds-nl": "Iran",
          "name:simple": "Iran",
          "old_name:ar": "فارس",
          "old_name:cs": "Persie",
          "old_name:de": "Persien",
          "old_name:en": "Persia",
          "old_name:es": "Persia",
          "old_name:fr": "Perse",
          "old_name:pa": "ਪਾਰਸ",
          "old_name:ur": "پارس‎",
          "name:bat-smg": "Irans",
          "name:roa-rup": "Iran",
          "name:zh-Hans": "伊朗",
          "name:zh-Hant": "伊朗",
          "old_name:grc": "Περσίς",
          "name:roa-tara": "Iran",
          "official_name": "جمهوری اسلامی ایران",
          "name:be-tarask": "Іран",
          "population:date": "2016",
          "ISO3166-1:alpha2": "IR",
          "ISO3166-1:alpha3": "IRN",
          "default_language": "fa",
          "official_name:ar": "الجمهورية الإسلامية الإيرانية",
          "official_name:cs": "Íránská islámská republika",
          "official_name:cv": "Ислам Республики Иран",
          "official_name:de": "Islamische Republik Iran",
          "official_name:en": "Islamic Republic of Iran",
          "official_name:es": "República Islámica de Irán",
          "official_name:fr": "République islamique d'Iran",
          "official_name:pa": "ਈਰਾਨ ਦਾ ਇਸਲਾਮੀ ਗਣਤੰਤਰ",
          "official_name:ru": "Исламская Республика Иран",
          "official_name:sr": "Исламска Република Иран",
          "official_name:ur": "اسلامی جمہوریۂ ایران",
          "ISO3166-1:numeric": "364",
          "official_name:azb": "ایران ایسلام جۇمهۇریَّتی",
          "official_name:xal": "Сарта Иранмудин Орн"
        }
      },
      "geometry": {
        "type": "Polygon",
        "coordinates": [
          [
            [
              49.94626448106912,
              28
            ],
            [
              50,
              28
            ],
            [
              50,
              28.125522026291446
            ],
            [
              49.9786381,
              28.0998339
            ],
            [
              49.9613111,
              28.0689904
            ],
            [
              49.950235,
              28.0359623
            ],
            [
              49.94626448106912,
              28
            ]
          ]
        ]
      }
    },
    {
      "type": "Feature",
      "properties": {
        "osm_id": -305099,
        "boundary": "administrative",
        "admin_level": 2,
        "parents": null,
        "name": "Kuwait",
        "local_name": "الكويت",
        "name_en": "Kuwait",
        "all_tags": {
          "flag": "http://upload.wikimedia.org/wikipedia/commons/a/aa/Flag_of_Kuwait.svg",
          "name": "الكويت",
          "name:af": "Koeweit",
          "name:am": "ኩዌት",
          "name:an": "Kuwait",
          "name:ar": "الكويت",
          "name:az": "Küveyt",
          "name:ba": "Күвейт",
          "name:be": "Кувейт",
          "name:bg": "Кувейт",
          "name:bn": "কুয়েত",
          "name:bo": "ཁུ་ཝི་ཐི།",
          "name:br": "Koweit",
          "name:bs": "Kuvajt",
          "name:ca": "Kuwait",
          "name:ce": "Кувейт",
          "name:cs": "Kuvajt",
          "name:cv": "Кувейт",
          "name:cy": "Kuwait",
          "name:da": "Kuwait",
          "name:de": "Kuwait",
          "name:dv": "ކުވެއިތު",
          "name:dz": "ཀུ་ཝེཊ་",
          "name:el": "Κουβέιτ",
          "name:en": "Kuwait",
          "name:eo": "Kuvajto",
          "name:es": "Kuwait",
          "name:et": "Kuveit",
          "name:eu": "Kuwait",
          "name:fa": "کویت",
          "name:fi": "Kuwait",
          "name:fo": "Kuveit",
          "name:fr": "Koweït",
          "name:fy": "Koeweit",
          "name:ga": "Cuáit",
          "name:gd": "Cubhait",
          "name:gl": "Kuwait",
          "name:gn": "Kuáite",
          "name:gu": "કુવૈત",
          "name:gv": "Yn Choowait",
          "name:he": "כווית",
          "name:hi": "कुवैत",
          "name:hr": "Kuvajt",
          "name:ht": "Kowet",
          "name:hu": "Kuvait",
          "name:hy": "Քուվեյթ",
          "name:ia": "Kuwait",
          "name:id": "Kuwait",
          "name:ie": "Kuwait",
          "name:io": "Kuwait",
          "name:is": "Kúveit",
          "name:it": "Kuwait",
          "name:ja": "クウェート",
          "name:jv": "Kuwait",
          "name:ka": "ქუვეითი",
          "name:kk": "Кувейт",
          "name:kl": "Kuwait",
          "name:km": "គុយវ៉ែត",
          "name:kn": "ಕುವೈತ್",
          "name:ko": "쿠웨이트",
          "name:ku": "Kuweyt",
          "name:kv": "Кувейт",
          "name:kw": "Koweyt",
          "name:la": "Cuvaitum",
          "name:lb": "Kuwait",
          "name:li": "Koeweit",
          "name:ln": "Koweit",
          "name:lt": "Kuveitas",
          "name:lv": "Kuveita",
          "name:mk": "Кувајт",
          "name:ml": "കുവൈറ്റ്",
          "name:mn": "Кувейт",
          "name:mr": "कुवेत",
          "name:ms": "Kuwait",
          "name:my": "ကူဝိတ်နိုင်ငံ",
          "name:na": "Kuwait",
          "name:ne": "कुवेत",
          "name:nl": "Koeweit",
          "name:nn": "Kuwait",
          "name:no": "Kuwait",
          "name:nv": "Kóóweiʼ",
          "name:oc": "Kowait",
          "name:or": "କୁଏତ",
          "name:os": "Кувейт",
          "name:pl": "Kuwejt",
          "name:ps": "کوېټ",
          "name:pt": "Kuwait",
          "name:qu": "Kuwait",
          "name:ro": "Kuweit",
          "name:ru": "Кувейт",
          "name:rw": "Koweti",
          "name:sa": "कुवैत",
          "name:se": "Kuwait",
          "name:sh": "Kuvajt",
          "name:sk": "Kuvajt",
          "name:sl": "Kuvajt",
          "name:so": "Kuwayt",
          "name:sq": "Kuvajti",
          "name:sr": "Кувајт",
          "name:ss": "IKhuwathi",
          "name:su": "Kuwait",
          "name:sv": "Kuwait",
          "name:sw": "Kuwait",
          "name:ta": "குவைத்",
          "name:te": "కువైట్",
          "name:tg": "Кувайт",
          "name:th": "ประเทศคูเวต",
          "name:tk": "Kuweýt",
          "name:tl": "Kuwait",
          "name:tr": "Kuveyt",
          "name:tt": "Күвәйт",
          "name:ug": "كۇۋەيت",
          "name:uk": "Кувейт",
          "name:ur": "کویت",
          "name:uz": "Quvayt",
          "name:vi": "Kuwait",
          "name:vo": "Kovätän",
          "name:wo": "Kowet",
          "name:yi": "קואווייט",
          "name:yo": "Kuwaiti",
          "name:zh": "科威特",
          "boundary": "administrative",
          "name:ace": "Kuwait",
          "name:als": "Kuwait",
          "name:ang": "Cuwait",
          "name:arc": "ܟܘܘܝܬ",
          "name:arz": "الكويت",
          "name:ast": "Kuwait",
          "name:bar": "Kuwait",
          "name:bcl": "Kuwait",
          "name:bpy": "কুয়েত",
          "name:bug": "Kuwait",
          "name:bxr": "Кувейт",
          "name:ceb": "Kuwait",
          "name:ckb": "کووەیت",
          "name:crh": "Küveyt",
          "name:csb": "Kùwejt",
          "name:dsb": "Kuwait",
          "name:ext": "Kuwait",
          "name:frp": "Koveyit",
          "name:gag": "Kuveyt",
          "name:hak": "Khô-vî-thi̍t",
          "name:haw": "Kuete",
          "name:hif": "Kuwait",
          "name:hsb": "Kuwait",
          "name:ilo": "Kuwait",
          "name:jbo": "ku,uait",
          "name:kbd": "Кувейт",
          "name:lez": "Кувейт",
          "name:lij": "Kuwait",
          "name:lmo": "Kuwait",
          "name:lzh": "科威特",
          "name:nah": "Cuhuait",
          "name:nan": "Kuwait",
          "name:nds": "Kuwait",
          "name:new": "कुवेत",
          "name:nov": "Kuwayt",
          "name:pam": "Kuwait",
          "name:pih": "Kyuuwait",
          "name:pms": "Kuwait",
          "name:pnb": "کویت",
          "name:sah": "Кувейт",
          "name:scn": "Kuwait",
          "name:sco": "Kuwait",
          "name:smn": "Kuwait",
          "name:sms": "Kuwaitt",
          "name:szl": "Kuwejt",
          "name:tzl": "Cuviet",
          "name:udm": "Кувейт",
          "name:vro": "Kuveit",
          "name:war": "Kuwait",
          "name:wuu": "科威特",
          "name:xal": "Кувейтин Нутг",
          "name:yue": "科威特",
          "name:zea": "Koeweit",
          "timezone": "Asia/Kuwait",
          "way_area": "2.27465",
          "wikidata": "Q817",
          "ISO3166-1": "KW",
          "wikipedia": "ar:الكويت",
          "admin_level": "2",
          "border_type": "nation",
          "name:simple": "Kuwait",
          "name:bat-smg": "Kovėits",
          "name:zh-Hans": "科威特",
          "name:zh-Hant": "科威特",
          "name:be-tarask": "Кувэйт",
          "ISO3166-1:alpha2": "KW",
          "ISO3166-1:alpha3": "KWT",
          "default_language": "ar",
          "official_name:cs": "Stát Kuvajt",
          "official_name:en": "State of Kuwait",
          "official_name:es": "Estado de Kuwait",
          "official_name:gn": "Tetã Kuáite",
          "official_name:pt": "Estado do Kuwait",
          "official_name:ru": "Государство Кувейт",
          "ISO3166-1:numeric": "414"
        }
      },
      "geometry": {
        "type": "Polygon",
        "coordinates": [
          [
            [
              49,
              28.79763823830515
            ],
            [
              49.0035024,
              28.7987698
            ],
            [
              49.0046809,
              28.8060706
            ],
            [
              49.0033595,
              28.8410015
            ],
            [
              49,
              28.854720370042784
            ],
            [
              49,
              28.79763823830515
            ]
          ]
        ]
      }
    },
    {
      "type": "Feature",
      "properties": {
        "osm_id": -307584,
        "boundary": "administrative",
        "admin_level": 2,
        "parents": null,
        "name": "Saudi Arabia",
        "local_name": "السعودية",
        "name_en": "Saudi Arabia",
        "all_tags": {
          "flag": "http://upload.wikimedia.org/wikipedia/commons/0/0d/Flag_of_Saudi_Arabia.svg",
          "name": "السعودية",
          "name:af": "Saoedi-Arabië",
          "name:am": "ሳዑዲ አረቢያ",
          "name:an": "Arabia Saudí",
          "name:ar": "السعودية",
          "name:av": "СагIудиязул ГIарабия",
          "name:az": "Səudiyyə Ərəbistanı",
          "name:ba": "Сәғүд Ғәрәбстаны",
          "name:be": "Саудаўская Аравія",
          "name:bg": "Саудитска Арабия",
          "name:bm": "Saudia Arabu ka Faamamara",
          "name:bn": "সৌদি আরব",
          "name:bo": "སའུ་དི་ཨ་ར་པི་ཡ།",
          "name:br": "Arabia Saoudat",
          "name:bs": "Saudijska Arabija",
          "name:ca": "Aràbia Saudita",
          "name:ce": "СаӀудийн Ӏаьрбийчоь",
          "name:cs": "Saúdská Arábie",
          "name:cv": "Сауд Аравийĕ",
          "name:cy": "Saudi Arabia",
          "name:da": "Saudi-Arabien",
          "name:de": "Saudi-Arabien",
          "name:dv": "ސައޫދީ އަރަބިއްޔާ",
          "name:dz": "སའུ་དི་ཨེ་ར་སྦི་ཡ་",
          "name:el": "Σαουδική Αραβία",
          "name:en": "Saudi Arabia",
          "name:eo": "Sauda Arabio",
          "name:es": "Arabia Saudita",
          "name:et": "Saudi Araabia",
          "name:eu": "Saudi Arabia",
          "name:fa": "عربستان سعودی",
          "name:fi": "Saudi-Arabia",
          "name:fo": "Saudi-Arabia",
          "name:fr": "Arabie saoudite",
          "name:fy": "Saûdy-Araabje",
          "name:ga": "An Araib Shádach",
          "name:gd": "Aràibia nan Sabhd",
          "name:gl": "Arabia Saudí",
          "name:gn": "Aravia Saudíta",
          "name:gu": "સાઉદી અરેબિયા",
          "name:gv": "Yn Araab Saudi",
          "name:he": "ערב הסעודית",
          "name:hi": "सउदी अरब",
          "name:hr": "Saudijska Arabija",
          "name:ht": "Arabi Sawoudit",
          "name:hu": "Szaúd-Arábia",
          "name:hy": "Սաուդյան Արաբիա",
          "name:ia": "Arabia Saudita",
          "name:id": "Arab Saudi",
          "name:ie": "Saudi Arabia",
          "name:io": "Saudia Arabia",
          "name:is": "Sádí-Arabía",
          "name:it": "Arabia Saudita",
          "name:ja": "サウジアラビア",
          "name:jv": "Arab Saudi",
          "name:ka": "საუდის არაბეთი",
          "name:kk": "Сауд Арабиясы",
          "name:kl": "Saudi Arabia",
          "name:km": "អារ៉ាប៊ីសាអូឌីត",
          "name:kn": "ಸೌದಿ ಅರೆಬಿಯ",
          "name:ko": "사우디아라비아",
          "name:ku": "Erebistana Siyûdî",
          "name:kv": "Саудса Аравия",
          "name:kw": "Arabi Saoudek",
          "name:ky": "Сауд Арабия Падышалыгы",
          "name:la": "Arabia Saudiana",
          "name:lb": "Saudi-Arabien",
          "name:li": "Saoedi-Arabië",
          "name:ln": "Saudi Arabia",
          "name:lt": "Saudo Arabija",
          "name:lv": "Saūda Arābija",
          "name:mk": "Саудиска Арабија",
          "name:ml": "സൗദി അറേബ്യ",
          "name:mn": "Саудын Араб",
          "name:mr": "सौदी अरेबिया",
          "name:ms": "Arab Saudi",
          "name:mt": "Arabja Sawdija",
          "name:my": "ဆော်ဒီအာရေဗျနိုင်ငံ",
          "name:na": "Taudiarabiya",
          "name:ne": "साउदी अरब",
          "name:nl": "Saoedi-Arabië",
          "name:nn": "Saudi-Arabia",
          "name:no": "Saudi-Arabia",
          "name:nv": "Ásáí Bikéyah Saʼoodí",
          "name:oc": "Arabia Saudita",
          "name:or": "ସାଉଦି ଆରବ",
          "name:os": "Сауды Арави",
          "name:pa": "ਸਉਦੀ ਅਰਬ",
          "name:pl": "Arabia Saudyjska",
          "name:ps": "سعودي عربستان",
          "name:pt": "Arábia Saudita",
          "name:qu": "Sawud Arabya",
          "name:rm": "Arabia Saudita",
          "name:ro": "Arabia Saudită",
          "name:ru": "Саудовская Аравия",
          "name:rw": "Arabiya Sawudite",
          "name:sa": "सऊदी अरब",
          "name:se": "Saudi-Arábia",
          "name:sh": "Saudijska Arabija",
          "name:si": "සවුදි අරාබියාව",
          "name:sk": "Saudská Arábia",
          "name:sl": "Saudova Arabija",
          "name:so": "Sacuudi Carabiya",
          "name:sq": "Arabia Saudite",
          "name:sr": "Саудијска Арабија",
          "name:ss": "I-Arabhiya",
          "name:su": "Saudi Arabia",
          "name:sv": "Saudiarabien",
          "name:sw": "Saudia",
          "name:ta": "சவூதி அரேபியா",
          "name:te": "సౌదీ అరేబియా",
          "name:tg": "Арабистони Саудӣ",
          "name:th": "ประเทศซาอุดีอาระเบีย",
          "name:tk": "Saud Arabystany",
          "name:tl": "Arabyang Saudi",
          "name:tr": "Suudi Arabistan",
          "name:tt": "Согуд Гарәбстаны",
          "name:ug": "سەئۇدى ئەرەبىستان",
          "name:uk": "Саудівська Аравія",
          "name:ur": "سعودی عرب",
          "name:uz": "Saudiya Arabistoni",
          "name:vi": "Ả Rập Saudi",
          "name:vo": "Sauda-Larabän",
          "name:wo": "Araabi Sawdit",
          "name:yi": "סאודי אראביע",
          "name:yo": "Sáúdí Arábíà",
          "name:zh": "沙特阿拉伯 / 沙烏地阿拉伯",
          "boundary": "administrative",
          "name:ace": "Arab Saudi",
          "name:als": "Saudi-Arabien",
          "name:ang": "Saudisc Arabea",
          "name:arc": "ܣܥܘܕܝܐ",
          "name:arz": "المملكه العربيه السعوديه",
          "name:ast": "Arabia Saudita",
          "name:bar": "Saudi Arabien",
          "name:bcl": "Arabya Saudita",
          "name:bpy": "সৌদি আরব",
          "name:bug": "Arab Saudi",
          "name:bxr": "Саудын Араб",
          "name:ceb": "Arabyang Saudita",
          "name:ckb": "عەرەبستانی سعوودی",
          "name:crh": "Saudiy Arabistan",
          "name:csb": "Saudëjskô Arabijô",
          "name:diq": "Erebıstanê Seudi",
          "name:dsb": "Saudiska-Arabska",
          "name:ext": "Arabia Saudita",
          "name:frp": "Arabie saoudita",
          "name:gag": "Saudi Arabiya",
          "name:gan": "沙特阿拉伯",
          "name:hak": "Sâ-vû-thi Â-lâ-pak",
          "name:haw": "Saudi ʻAlapia",
          "name:hif": "Saudi Arabia",
          "name:hsb": "Sawdi-Arabska",
          "name:ilo": "Saudi Arabia",
          "name:jbo": "djogu'e",
          "name:kbd": "Сауд Хьэрыпей",
          "name:lbe": "Саоьдуллал Аьрабусттан",
          "name:lez": "Сауди Арабистан",
          "name:lij": "Arabia Saudïa",
          "name:lmo": "Arabia Saudita",
          "name:lzh": "沙特阿拉伯",
          "name:nah": "Saudarabia",
          "name:nan": "Saud ê A-la-pek",
          "name:nds": "Saudi-Arabien",
          "name:nov": "Saudi Arabia",
          "name:nrm": "Arabie Saudi",
          "name:pam": "Saudita Arabia",
          "name:pap": "Saudi Arabia",
          "name:pdc": "Saudi Arabia",
          "name:pms": "Arabia Saodita",
          "name:pnb": "سعودی عرب",
          "name:rue": "Саудьска Арабія",
          "name:sah": "Сауд Арабията",
          "name:scn": "Arabbia Saudita",
          "name:sco": "Saudi Arabie",
          "name:smn": "Saudi-Arabia",
          "name:sms": "Saudi-Arabia",
          "name:szl": "Saudyjskŏ Arabijŏ",
          "name:tok": "ma Sawusi",
          "name:tzl": "Arabxha Saudì",
          "name:udm": "Сауд Аравия",
          "name:vec": "Arabia Saudìa",
          "name:vro": "Saudi Araabia",
          "name:war": "Arabya Saudita",
          "name:wuu": "沙特阿拉伯",
          "name:xal": "Саудин Араб Нутг",
          "name:yue": "沙地阿拉伯",
          "name:zea": "Saoedi-Araobië",
          "timezone": "Asia/Riyadh",
          "way_area": "182.048",
          "wikidata": "Q851",
          "ISO3166-1": "SA",
          "wikipedia": "ar:السعودية",
          "population": "32175224",
          "admin_level": "2",
          "alt_name:eo": "Sauda Arabujo;Saud-Arabio;Saud-Arabujo",
          "alt_name:vi": "Ả Rập Xê Út;A-rập Xê-út",
          "border_type": "nation",
          "name:bat-smg": "Sauda Arabėjė",
          "name:roa-rup": "Arabia Saudescã",
          "name:zh-Hans": "沙特阿拉伯",
          "name:zh-Hant": "沙烏地阿拉伯",
          "name:roa-tara": "Arabie Saudite",
          "official_name": "المملكة العربية السعودية",
          "name:be-tarask": "Саудаўская Арабія",
          "population:date": "2022",
          "ISO3166-1:alpha2": "SA",
          "ISO3166-1:alpha3": "SAU",
          "default_language": "ar",
          "official_name:ar": "المملكة العربية السعودية",
          "official_name:cs": "Království Saúdská Arábie",
          "official_name:en": "Kingdom of Saudi Arabia",
          "official_name:eo": "Reĝlando Sauda Arabio",
          "official_name:es": "Reino de Arabia Saudita",
          "official_name:fr": "Royaume d’Arabie saoudite",
          "official_name:pt": "Reino da Arábia Saudita",
          "official_name:ru": "Королевство Саудовская Аравия",
          "ISO3166-1:numeric": "682"
        }
      },
      "geometry": {
        "type": "Polygon",
        "coordinates": [
          [
            [
              49,
              28
            ],
            [
              49.390390401794555,
              28
            ],
            [
              49.2812535,
              28.1265888
            ],
            [
              49.1587541,
              28.3036256
            ],
            [
              49.1325419,
              28.3343502
            ],
            [
              49.1001624,
              28.3600683
            ],
            [
              49,
              28.42507360531452
            ],
            [
              49,
              28
            ]
          ]
        ]
      }
    }
  ]
}