{
  "type": "FeatureCollection",
  "features": [
    {
      "type": "Feature",
      "properties": {
        "osm_id": -192800,
        "boundary": "administrative",
        "admin_level": 2,
        "parents": null,
        "name": "Ethiopia",
        "local_name": "ኢትዮጵያ",
        "name_en": "Ethiopia",
        "all_tags": {
          "flag": "http://upload.wikimedia.org/wikipedia/commons/7/71/Flag_of_Ethiopia.svg",
          "name": "ኢትዮጵያ",
          "name:aa": "Otobbia",
          "name:af": "Ethiopië",
          "name:ak": "Ithiopia",
          "name:am": "ኢትዮጵያ",
          "name:an": "Etiopia",
          "name:ar": "إثيوبيا",
          "name:av": "Хабашистан",
          "name:az": "Efiopiya",
          "name:ba": "Эфио́пия",
          "name:be": "Эфіопія",
          "name:bg": "Етиопия",
          "name:bh": "इथियोपिया",
          "name:bm": "Etiopia",
          "name:bn": "ইথিওপিয়া",
          "name:bo": "ཨི་ཐི་ཨོ་པི་ཡ།",
          "name:br": "Etiopia",
          "name:bs": "Etiopija",
          "name:ca": "Etiòpia",
          "name:ce": "Эфио́пи",
          "name:cs": "Etiopie",
          "name:cu": "Єѳїопі́ꙗ",
          "name:cv": "Эфиопи",
          "name:cy": "Ethiopia",
          "name:da": "Etiopien",
          "name:de": "Äthiopien",
          "name:dv": "ޙަބުޝްކަރަ",
          "name:dz": "ཨི་ཐི་ཡོ་པི་ཡ",
          "name:ee": "Etiopia",
          "name:el": "Αιθιοπία",
          "name:en": "Ethiopia",
          "name:eo": "Etiopio",
          "name:es": "Etiopía",
          "name:et": "Etioopia",
          "name:eu": "Etiopia",
          "name:fa": "اتیوپی",
          "name:fi": "Etiopia",
          "name:fo": "Etiopia",
          "name:fr": "Éthiopie",
          "name:fy": "Etioopje",
          "name:ga": "an Aetóip",
          "name:gd": "An Aetiòp",
          "name:gl": "Etiopía - Ityop'iya",
          "name:gn": "Etiopia",
          "name:gu": "ઇથિયોપિયા",
          "name:gv": "yn Eetoip",
          "name:ha": "Ethiopia",
          "name:he": "אתיופיה",
          "name:hi": "इथियोपिया",
          "name:hr": "Etiopija",
          "name:ht": "Etyopi",
          "name:hu": "Etiópia",
          "name:hy": "Եթովպիա",
          "name:ia": "Ethiopia",
          "name:id": "Ethiopia",
          "name:ie": "Etiopia",
          "name:ig": "Ethiopia",
          "name:io": "Etiopia",
          "name:is": "Eþíópía",
          "name:it": "Etiopia",
          "name:ja": "エチオピア",
          "name:jv": "Étiopia",
          "name:ka": "ეთიოპია",
          "name:kg": "Itiopia",
          "name:ki": "Ethiopia",
          "name:kk": "Ефиопия",
          "name:km": "អេត្យូពី",
          "name:kn": "ಇತಿಯೋಪಿಯ",
          "name:ko": "에티오피아",
          "name:ks": "اِتھوپِیا",
          "name:ku": "Etiyopya",
          "name:kv": "Эфиопия",
          "name:kw": "Ethiopi",
          "name:ky": "Эфиопия",
          "name:la": "Aethiopia",
          "name:lb": "Ethiopien",
          "name:lg": "Ethiopia",
          "name:li": "Ethiopië",
          "name:ln": "Etiopi",
          "name:lo": "ເອທີໂອເປຍ",
          "name:lt": "Etiopija",
          "name:lv": "Etiopija",
          "name:mg": "Etiopia",
          "name:mi": "Etiopia",
          "name:mk": "Етиопија",
          "name:ml": "എത്യോപ്യ",
          "name:mn": "Этиоп",
          "name:mr": "इथियोपिया",
          "name:ms": "Habsyah",
          "name:mt": "Etjopja",
          "name:my": "အီသီယိုးပီးယားနိုင်ငံ",
          "name:na": "Itiyopiya",
          "name:ne": "इथियोपिया",
          "name:nl": "Ethiopië",
          "name:nn": "Etiopia",
          "name:no": "Etiopia",
          "name:nv": "Iithiyópya",
          "name:oc": "Etiopia",
          "name:om": "Itoophiyaa",
          "name:or": "ଇଥିଓପିଆ",
          "name:os": "Эфио́пи",
          "name:pa": "ਇਥੋਪੀਆ",
          "name:pi": "ईथ्योपिया",
          "name:pl": "Etiopia",
          "name:ps": "اېتوپیا",
          "name:pt": "Etiópia",
          "name:qu": "Ithiyupya",
          "name:rm": "Etiopia",
          "name:ro": "Etiopia",
          "name:ru": "Эфиопия",
          "name:rw": "Etiyopiya",
          "name:sa": "ईथ्योपिया",
          "name:sc": "Etiòpia",
          "name:se": "Etiopia",
          "name:sg": "Etiopïi",
          "name:sh": "Etiopija",
          "name:si": "ඉතියෝපියාව",
          "name:sk": "Etiópia",
          "name:sl": "Etiópija",
          "name:sm": "Ethiopia",
          "name:sn": "Ethiopia",
          "name:so": "Itoobiya",
          "name:sq": "Etiopia",
          "name:sr": "Етиопија",
          "name:ss": "iTopiya",
          "name:st": "Ethiopia",
          "name:su": "Étiopia",
          "name:sv": "Etiopien",
          "name:sw": "Ethiopia",
          "name:ta": "எத்தியோப்பியா",
          "name:te": "ఇథియోపియా",
          "name:tg": "Эфиопия",
          "name:th": "เอธิโอเปีย",
          "name:ti": "ኢትዮጵያ",
          "name:tk": "Efiopiýa",
          "name:tl": "Etiyopiya",
          "name:to": "ʻItiōpea",
          "name:tr": "Etiyopya",
          "name:ts": "Topiya",
          "name:tt": "Хәбәшстан",
          "name:ug": "ئېفىئوپىيە",
          "name:uk": "Ефіо́пія",
          "name:ur": "ایتھوپیا",
          "name:uz": "Efiopiya",
          "name:vi": "Ethiopia",
          "name:vo": "Lätiopän",
          "name:wa": "Etiopeye",
          "name:wo": "Ecoopi",
          "name:xh": "iTopiya",
          "name:yi": "עטיאָפּיע",
          "name:yo": "Ethiópíà",
          "name:za": "Ethiopia",
          "name:zh": "埃塞俄比亚 / 衣索比亞",
          "name:zu": "i-Ithiopia",
          "boundary": "administrative",
          "int_name": "Ethiopia",
          "name:ace": "Ethiopia",
          "name:ady": "Эфиопие",
          "name:als": "Ethiopie",
          "name:ang": "Sigelhearwenaland",
          "name:arc": "ܟܘܫ",
          "name:arz": "اثيوبيا",
          "name:ast": "Etiopía",
          "name:azb": "اتیوپی",
          "name:bar": "Ethiopien",
          "name:bcl": "Etyopya",
          "name:bjn": "Ethiopia",
          "name:bpy": "ইথিওপিয়া",
          "name:bxr": "Этиопи",
          "name:cdo": "Ethiopia",
          "name:ceb": "Etiopia",
          "name:chr": "ᎢᏗᎣᏈᎠ",
          "name:ckb": "ئیتیۆپیا",
          "name:crh": "Abeşistan",
          "name:din": "Ethiopia",
          "name:diq": "Etyopya",
          "name:dsb": "Etiopiska",
          "name:dty": "इथियोपिया",
          "name:ext": "Etiopia",
          "name:frp": "Ètiopie",
          "name:frr": "Etioopien",
          "name:fur": "Etiopie",
          "name:gag": "Efiopiya",
          "name:gan": "埃塞俄比亞",
          "name:gom": "इथिओपिया",
          "name:hak": "Âi-set-ngò-pí-â",
          "name:haw": "ʻAikiopia",
          "name:hif": "Ethiopia",
          "name:hsb": "Etiopiska",
          "name:ilo": "Etiopia",
          "name:jam": "Iityuopia",
          "name:jbo": "itiopias",
          "name:kaa": "Efiopiya",
          "name:kab": "Ityupya",
          "name:kbp": "Etiyoopii",
          "name:koi": "Итьоппья",
          "name:ksh": "Ättijoopije",
          "name:lad": "Etiopia",
          "name:lez": "Эфиопия",
          "name:lij": "Etiòpia",
          "name:lmo": "Etiopia",
          "name:lrc": "ئتیوٙپی",
          "name:lzh": "衣索比亞",
          "name:mai": "इथियोपिया",
          "name:mhr": "Эфиопий",
          "name:min": "Ethiopia",
          "name:mrj": "Эфиопи",
          "name:mzn": "اتیوپی",
          "name:nah": "Etiopia",
          "name:nan": "Ityop'iya",
          "name:nds": "Äthiopien",
          "name:new": "इथियोपिया",
          "name:nov": "Etiopia",
          "name:nso": "Ethiopia",
          "name:olo": "Efiopii",
          "name:pam": "Ethiopia",
          "name:pap": "Ethiopia",
          "name:pih": "Ethiopia",
          "name:pms": "Etiòpia",
          "name:pnb": "ایتھوپیا",
          "name:rue": "Етіопія",
          "name:sah": "Этиопия",
          "name:scn": "Etiòpia",
          "name:sco": "Ethiopie",
          "name:smn": "Etiopia",
          "name:sms": "Etiopia",
          "name:srn": "Ethiopikondre",
          "name:stq": "Äthiopien",
          "name:szl": "Etjopijo",
          "name:tok": "ma Isijopija",
          "name:tzl": "Itiopia",
          "name:vec": "Etiopia",
          "name:vep": "Efiopii",
          "name:vro": "Etioopia",
          "name:war": "Etiyopya",
          "name:wuu": "埃塞俄比亞",
          "name:xal": "Эпигопин Ниицән",
          "name:xmf": "ეთიოპია",
          "name:yue": "埃塞俄比亞",
          "name:zea": "Ethiopië",
          "old_name": "Abyssinia",
          "timezone": "Africa/Addis_Ababa",
          "way_area": "92.6939",
          "wikidata": "Q115",
          "ISO3166-1": "ET",
          "wikipedia": "am:ኢትዮጵያ",
          "short_name": "ኢ.ፌ.ዲ.ሪ.",
          "admin_level": "2",
          "alt_name:ar": "الحبشة",
          "alt_name:bo": "ཨི་ཐོ་པི་ཡ་",
          "alt_name:eo": "Etiopujo",
          "alt_name:gd": "An Itiop",
          "alt_name:tr": "Etyopya",
          "alt_name:vi": "Ê-ti-ô-pi-a",
          "old_name:az": "Həbəşistan",
          "old_name:ce": "Абиссини",
          "old_name:cs": "Habeš",
          "old_name:de": "Abessinien",
          "old_name:eo": "Abisenio",
          "old_name:es": "Abisinia",
          "old_name:fi": "Abessinia",
          "old_name:fr": "Abessinien",
          "old_name:ig": "Oromo",
          "old_name:io": "Abisinia",
          "old_name:it": "Abissinia",
          "old_name:kn": "ಅಬಿಸಿನಿಯಾ",
          "old_name:ku": "Hebeşîstan",
          "old_name:la": "Abyssinia",
          "old_name:rm": "Abessinia",
          "old_name:ru": "Абиссиния",
          "old_name:sk": "Abesínia;Abesínsko",
          "old_name:sl": "Abesinija",
          "old_name:sq": "Absinia",
          "old_name:uz": "Habashiston",
          "alt_name:ang": "Æthiopia",
          "alt_name:arc": "ܐܬܝܘܦܝܐ",
          "alt_name:ceb": "Etyopiya",
          "alt_name:hak": "Abyssinia",
          "alt_name:koi": "Эфиопия",
          "alt_name:scn": "Itiòpia",
          "alt_name:war": "Ethiopia",
          "name:bat-smg": "Etiuopėjė",
          "name:cbk-zam": "Etiopía",
          "name:zh-Hans": "埃塞俄比亚",
          "name:zh-Hant": "衣索比亞",
          "old_name:bar": "Abessinien",
          "old_name:ext": "Abisinia",
          "old_name:lez": "Абиссиния",
          "old_name:pam": "Abyssinia",
          "old_name:stq": "Abessinien",
          "old_name:vep": "Abissinii",
          "name:roa-tara": "Etiopie",
          "official_name": "የኢትዮጵያ ፌዴራላዊ ዴሞክራሲያዊ ሪፐብሊክ",
          "short_name:am": "ኢ.ፌ.ዲ.ሪ.",
          "short_name:be": "ФДРЭ",
          "short_name:es": "RDFE",
          "name:be-tarask": "Этыёпія",
          "name:zh_pinyin": "Āisàiébǐyà",
          "ISO3166-1:alpha2": "ET",
          "ISO3166-1:alpha3": "ETH",
          "default_language": "am",
          "official_name:af": "Federale Demokratiese Republiek van Ethiopië",
          "official_name:am": "የኢትዮጵያ ፌዴራላዊ ዴሞክራሲያዊ ሪፐብሊክ",
          "official_name:an": "Republica Democratica Federal d'Etiopia",
          "official_name:ar": "جمهورية إثيوبيا الفيدرالية الديمقراطية",
          "official_name:az": "Efiopiya Federal Demokratik Respublikası",
          "official_name:ba": "Эфиопия Федератив Демократик Республикаһы",
          "official_name:be": "Федэраты́ўная Дэмакраты́чная Рэспу́бліка Эфіопія",
          "official_name:bg": "Федерална демократична република Етиопия",
          "official_name:bm": "Kurufa Bɛjɛfanga Fasojamana",
          "official_name:bn": "কেন্দ্রীয় গণপ্রজাতন্ত্রী ইথিওপিয়া",
          "official_name:br": "Republik demokratel gevreadel Etiopia",
          "official_name:bs": "Savezna Demokratska Republika Etiopija",
          "official_name:ca": "Ityop'iya Federalawi Demokrasiyawi Ripeblik",
          "official_name:ce": "Федерати́вни Демократи́н Респу́блика Эфио́пи",
          "official_name:cs": "Etiopská federativní demokratická republika",
          "official_name:cu": "Єѳїопїꙗ Съвѫꙁьна Димократїꙗ",
          "official_name:cv": "Федерати́вла Демократиллĕ Респу́блика Эфио́пи",
          "official_name:cy": "Gweriniaeth Ddemocrataidd Ffederal Ethiopia",
          "official_name:da": "Den Føderale Demokratiske Republik Etiopien",
          "official_name:de": "Demokratische Bundesrepublik Äthiopien",
          "official_name:el": "Ομοσπονδιακή Δημοκρατία της Αιθιοπίας",
          "official_name:en": "Federal Democratic Republic of Ethiopia",
          "official_name:eo": "Federacia Demokratia Respubliko Etiopio",
          "official_name:es": "República Democrática Federal de Etiopía",
          "official_name:et": "Etioopia Demokraatlik Liitvabariik",
          "official_name:eu": "Etiopiako Errepublika Federal Demokratikoa",
          "official_name:fa": "جمهوری دموکراتیک فدرال اتیوپی",
          "official_name:fi": "Etiopian demokraattinen liittotasavalta",
          "official_name:fr": "République fédérale démocratique d'Éthiopie",
          "official_name:fy": "Federale Demokratyske Republyk Etioopje",
          "official_name:ga": "Poblacht Dhaonlathach Fheidearálach na hAetóipe",
          "official_name:gd": "Poblachd Fheadarail Dheamocratach na h-Aetiòp",
          "official_name:gl": "República Democrática Federal de Etiopía",
          "official_name:gn": "Tetã Etiopia",
          "official_name:gu": "સંઘીય અને લોકતાંત્રિક ઇથિયોપિયાનું ગણરાજ્ય",
          "official_name:gv": "Pobblaght ny h-Eetoip",
          "official_name:ha": "Jamhuriyar Ethiopia",
          "official_name:he": "הרפובליקה הדמוקרטית הפדרלית של אתיופיה",
          "official_name:hi": "इथियोपिया संघीय लोकतांत्रिक गणराज्य",
          "official_name:hr": "Savezna Demokratska Republika Etiopija",
          "official_name:hu": "Etióp Szövetségi Demokratikus Köztársaság",
          "official_name:hy": "Եթովպիայի Դաշնային Ժողովրդավարական Հանրապետություն",
          "official_name:ia": "Republica Democratic Federal de Ethiopia",
          "official_name:id": "Republik Demokratik Federal Etiopia",
          "official_name:ig": "Obodo Ochíchìíwú Ethiopia",
          "official_name:it": "Repubblica federale democratica dell'Etiopia",
          "official_name:ja": "エチオピア連邦民主共和国",
          "official_name:jv": "Républik Dhémokratik Federal Éteopiah",
          "official_name:ka": "ეთიოპიის ფედერაციული დემოკრატიული რესპუბლიკა",
          "official_name:kg": "Demokrasiyawi Ripeblik Itiopia",
          "official_name:kk": "Эфиопия Федеративтік Демократиялық Республикасы",
          "official_name:kn": "ಇತಿಯೋಪಿಯ ಸಂಯುಕ್ತ ಪ್ರಜಾಸತ್ತಾತ್ಮಕ ಗಣರಾಜ್ಯ",
          "official_name:ko": "에티오피아 연방 민주 공화국",
          "official_name:ku": "Komara Federal a Demokratîk a Etiyopya",
          "official_name:kv": "Эфиопия Федерация Демократия Республика",
          "official_name:lb": "Demokratesch Bundesrepublik Ethiopien",
          "official_name:lt": "Etiopijos Federacinė Demokratinė Respublika",
          "official_name:lv": "Etiopijas Federatīvā Demokrātiskā Republika",
          "official_name:mk": "Сојузна Демократска Република Етиопија",
          "official_name:ml": "ഫെഡറൽ ഡെമോക്രാറ്റിക് റിപ്പബ്ലിക്ക് ഓഫ് എത്യോപ്യ",
          "official_name:mn": "Холбооны Бүгд Найрамдах Ардчилсан Этиоп Улс",
          "official_name:mr": "इथियोपियाचे संघीय लोकशाही प्रजासत्ताक",
          "official_name:ms": "Republik Demokratik Persekutuan Habsyah",
          "official_name:my": "ဖက်ဒရယ် အီသီယိုးပီးယား ဒီမိုကရက်တစ် သမ္မတနိုင်ငံ",
          "official_name:ne": "सङ्घीय लोकतान्त्रिक गणतन्त्र इथियोपिया",
          "official_name:nl": "Federale Democratische Republiek Ethiopië",
          "official_name:nn": "Den føderale demokratiske republikken Etiopia",
          "official_name:no": "Den føderale demokratiske republikken Etiopia",
          "official_name:oc": "Republica Federala Democratica d'Etiopia",
          "official_name:om": "Rippabliikii Federaalawaa Dimokraatawaa Itiyoophiyaa",
          "official_name:os": "Федеративон Демократион Республикæ Эфиопи",
          "official_name:pa": "ਇਥੋਪੀਆ ਦਾ ਸੰਘੀ ਲੋਕਤੰਤਰੀ ਗਣਰਾਜ",
          "official_name:pl": "Federalna Demokratyczna Republika Etiopii",
          "official_name:ps": "ایتوپیا فدرالي دموکراتیک جمهوریت",
          "official_name:pt": "República Democrática Federal da Etiópia",
          "official_name:qu": "Runakamaq Tantasqa Republika Ithiwpiya",
          "official_name:rm": "Republica federala democrata da l'Etiopia",
          "official_name:ro": "Republica Federală Democratică a Etiopiei",
          "official_name:ru": "Федеративная Демократическая Республика Эфиопия",
          "official_name:sc": "Republica Federali de Etiòpia",
          "official_name:sg": "Gbêko Kùodùorùosêse tî Ngunuhalëzo tî Etiopïi",
          "official_name:sh": "Savezna Demokratska Republika Etiopija",
          "official_name:si": "ඉතියෝපියානු ෆෙඩරල් ප්‍රජාතන්ත්‍රවාදී ජනරජය",
          "official_name:sk": "Etiópska federatívna demokratická republika",
          "official_name:sl": "Federatívna demokrátična repúblika Etiópija",
          "official_name:sm": "Feterale Faatemokalasi Ripapelika o Aitiope",
          "official_name:so": "Jamhuuriyadda Dimuqraadiga Federaalka Itoobiya",
          "official_name:sr": "Савезна Демократска Република Етиопија",
          "official_name:su": "Républik Démokratik Féderal Étiopia",
          "official_name:sv": "Demokratiska förbundsrepubliken Etiopien",
          "official_name:sw": "Shirikisho la Jamhuri ya Kidemokrasia ya Ethiopia",
          "official_name:ta": "எத்தியோப்பியக் கூட்டாட்சி சனநாயகக் குடியரசு",
          "official_name:te": "ఫెడరల్ ప్రజాతంత్ర గణతంత్ర ఇథియోపియా",
          "official_name:th": "สหพันธ์สาธารณรัฐประชาธิปไตยเอธิโอเปีย",
          "official_name:tk": "Efiopiýa Federatiw Demokratik Respublikasy",
          "official_name:tl": "Demokratikong Republikang Pederal ng Ethiopia",
          "official_name:tr": "Etiyopya Federal Demokratik Cumhuriyeti",
          "official_name:tt": "Хәбәшстан Федератив Демократик Җөмһүрияте",
          "official_name:uk": "Федерати́вна Демократи́чна Респу́бліка Ефіо́пія",
          "official_name:ur": "وفاقی جمہوری جمہوریہ ایتھوپیا",
          "official_name:uz": "Efiopiya Federativ Demokratik Respublikasi",
          "official_name:vi": "Cộng hòa Dân chủ Liên bang Ethiopia",
          "official_name:wo": "Réewum Ecoopi",
          "official_name:yi": "פעדעראלע דעמאקראטישע רעפובליק פון עטיאפיע",
          "official_name:zh": "埃塞俄比亚联邦民主共和国",
          "ISO3166-1:numeric": "231",
          "official_name:ady": "Федератив Демократик Республикэу Эфиопие",
          "official_name:als": "Demokratischi Bundesrepublik Ethiopie",
          "official_name:arc": "ܩܘܛܢܝܘܬܐ ܕܝܡܘܩܪܛܝܬܐ ܦܕܪܠܝܬܐ ܕܟܘܫ",
          "official_name:arz": "جمهورية اثيوبيا الديموقراطيه الفيدراليه",
          "official_name:ast": "República Democrática Federal d'Etiopía",
          "official_name:bcl": "Repúblika Demokrátikan Pederal nin Etiopia",
          "official_name:bjn": "Republik Demokratik Federal Ethiopia",
          "official_name:bpy": "কেন্দ্রীয় গনতান্ত্রিক প্রজাতন্ত্রি ইথিওপিয়া",
          "official_name:bxr": "Холбооной Бүгэдэ Найрамдаха Арадшалһан Этиопи Улас",
          "official_name:chr": "ᎠᏰᏟᏥ ᏈᏍᏗᎤᎾᏓᏅᏖᏗ ᏍᎦᏚᎩ ᎾᎿ ᎢᏗᎣᏈᎠ",
          "official_name:ckb": "کۆماری دیموکراتیکی فیدراڵی ئیتیۆپیا",
          "official_name:crh": "Abeşistan Federal Demokratik Cumhuriyeti",
          "official_name:diq": "Cumhuriyeto Federal Etyopya",
          "official_name:dsb": "Etiopiska zwězkowa demokratiska republika",
          "official_name:ext": "Repúbrica Democrática Federal d'Etiopia",
          "official_name:frr": "Demokratisk Bundesrepubliik Etioopien",
          "official_name:gan": "埃塞俄比亞聯邦民主共和國",
          "official_name:hsb": "Etiopiska federalna demokratiska republika",
          "official_name:ilo": "Pederal Demokratiko a Republika ti Etiopia",
          "official_name:jam": "Fedaral Dimokratik Ripoblik a Iityuopia",
          "official_name:lad": "Repuvlika Demokratika Federala de Etiopia",
          "official_name:lez": "Федератив Демократиядин Республика Эфиопия",
          "official_name:lij": "Ityop'iya Federalawi Demokrasiyawi Ripeblik",
          "official_name:lmo": "Repüblica Demucratiga Federala d'Etiopia",
          "official_name:mai": "इथियोपिया संघीय लोकतांत्रिक गणराज्य",
          "official_name:min": "Republik Demokratik Pasarikatan Ethiopia",
          "official_name:mzn": "اتیوپی ِفدرال ِدموکراتیک جمهوری",
          "official_name:nah": "Nenāhuatīliztli Tlācatēpacholiztli Tlācatlahtohcāyōtl Etiopia",
          "official_name:nan": "Ethiopia Liân-pang Jîn-bîn Kiōng-hô-kok",
          "official_name:nds": "Demokraatsche Bundsrepublik Äthiopien",
          "official_name:new": "संघीय गणतन्त्र इथियोपिया",
          "official_name:nso": "Federal repabliki Ethiopia",
          "official_name:pap": "Republika Federal Demokratiko di Ethiopia",
          "official_name:pms": "Repùblica Democràtica Federal d'Etiòpia",
          "official_name:sah": "Этиопия Федерал Демократ Республиката",
          "official_name:scn": "Ripùbbrica Fidirali Dimucràtica d'Etiopia",
          "official_name:sco": "Federal Democratic Republic o Ethiopie",
          "official_name:stq": "Demokratiske Buundesrepublik Äthiopien",
          "official_name:szl": "Federalno Dymokratyčno Republika Etjopije",
          "official_name:vec": "Republica Democratica Federale de l'Etiopia",
          "official_name:vep": "Efiopijan Federativine Demokratine Tazovaldkund",
          "official_name:vro": "Etioopia Demokraatlinõ Liitvabariik",
          "official_name:wuu": "埃塞俄比亞聯邦民主共和國",
          "official_name:xmf": "ეთიოპიაშ ფედერაციული დემოკრატიული რესპუბლიკა",
          "official_name:yue": "埃塞俄比亞聯邦民主共和國",
          "official_name:zea": "Federale Democratische Republiek Ethiopië",
          "old_name:roa-tara": "Abissinie",
          "short_name:be-tarask": "ФДРЭ",
          "official_name:roa-tara": "Repubbleche Federale Democrateche d'Etiopie",
          "official_name:be-tarask": "Фэдэраты́ўная Дэмакраты́чная Рэспу́бліка Этыёпія"
        }
      },
      "geometry": {
        "type": "Polygon",
        "coordinates": [
          [
            [
              37,
              4.379303779824576
            ],
            [
              37.0043388,
              4.3758415
            ],
            [
              37.0105033,
              4.3774285
            ],
            [
              37.013494,
              4.3758415
            ],
            [
              37.0165458,
              4.3738274
            ],
            [
              37.0214896,
              4.3694328
            ],
            [
              37.0281425,
              4.3760246
            ],
            [
              37.0313163,
              4.3794426
            ],
            [
              37.0321098,
              4.3832268
            ],
            [
              37.039495,
              4.3754753
            ],
            [
              37.0443168,
              4.3722405
            ],
            [
              37.048101,
              4.3734612
            ],
            [
              37.0487113,
              4.368029
            ],
            [
              37.0554862,
              4.3636345
            ],
            [
              37.0553031,
              4.3606438
            ],
            [
              37.0596976,
              4.3548454
            ],
            [
              37.0647025,
              4.3494744
            ],
            [
              37.065496,
              4.3458733
            ],
            [
              37.072515,
              4.3464226
            ],
            [
              37.0784965,
              4.3460564
            ],
            [
              37.0813041,
              4.3450188
            ],
            [
              37.0900931,
              4.3412346
            ],
            [
              37.0944877,
              4.3340325
            ],
            [
              37.0977225,
              4.3316521
            ],
            [
              37.0986991,
              4.3288445
            ],
            [
              37.1138969,
              4.3040642
            ],
            [
              37.1226859,
              4.2974724
            ],
            [
              37.1289115,
              4.2924675
            ],
            [
              37.1325126,
              4.2906365
            ],
            [
              37.1369071,
              4.2928337
            ],
            [
              37.159307,
              4.2778191
            ],
            [
              37.2257133,
              4.2350334
            ],
            [
              37.2490897,
              4.220446
            ],
            [
              37.2615409,
              4.2120232
            ],
            [
              37.2991386,
              4.187426
            ],
            [
              37.3161063,
              4.1766228
            ],
            [
              37.322515,
              4.1722283
            ],
            [
              37.3411307,
              4.1604485
            ],
            [
              37.4086967,
              4.1164421
            ],
            [
              37.4183402,
              4.1108269
            ],
            [
              37.4223075,
              4.10924
            ],
            [
              37.426702,
              4.1078362
            ],
            [
              37.4287162,
              4.1046623
            ],
            [
              37.4390922,
              4.0980705
            ],
            [
              37.4555106,
              4.0872673
            ],
            [
              37.5015311,
              4.0566277
            ],
            [
              37.5557304,
              4.0158562
            ],
            [
              37.57913064414612,
              4
            ],
            [
              38,
              4
            ],
            [
              38,
              5
            ],
            [
              37,
              5
            ],
            [
              37,
              4.379303779824576
            ]
          ]
        ]
      }
    },
    {
      "type": "Feature",
      "properties": {
        "osm_id": -192798,
        "boundary": "administrative",
        "admin_level": 2,
        "parents": null,
        "name": "Kenya",
        "local_name": "Kenya",
        "name_en": "Kenya",
        "all_tags": {
          "flag": "http://upload.wikimedia.org/wikipedia/commons/4/49/Flag_of_Kenya.svg",
          "name": "Kenya",
          "name:af": "Kenia",
          "name:am": "ኬንያ",
          "name:an": "Kenia",
          "name:ar": "كينيا",
          "name:az": "Keniya",
          "name:ba": "Кения",
          "name:be": "Кенія",
          "name:bg": "Кения",
          "name:bm": "Kenya",
          "name:bn": "কেনিয়া",
          "name:bo": "ཁེ་ནི་ཡ།",
          "name:br": "Kenya",
          "name:bs": "Kenija",
          "name:ca": "Kenya",
          "name:ce": "Кени",
          "name:cs": "Keňa",
          "name:cv": "Кени",
          "name:cy": "Kenya",
          "name:da": "Kenya",
          "name:de": "Kenia",
          "name:dv": "ކެންޔާ",
          "name:dz": "ཀེ་ནི་ཡ་",
          "name:el": "Κένυα",
          "name:en": "Kenya",
          "name:eo": "Kenjo",
          "name:es": "Kenia",
          "name:et": "Keenia",
          "name:eu": "Kenya",
          "name:fa": "کنیا",
          "name:ff": "Kenya",
          "name:fi": "Kenia",
          "name:fo": "Kenja",
          "name:fr": "Kenya",
          "name:fy": "Kenya",
          "name:ga": "An Chéinia",
          "name:gd": "A' Cheinia",
          "name:gl": "Quenia - Kenya",
          "name:gn": "Kéña",
          "name:gu": "કેન્યા",
          "name:gv": "Yn Cheinney",
          "name:ha": "Kenya",
          "name:he": "קניה",
          "name:hi": "कीनिया",
          "name:hr": "Kenija",
          "name:ht": "Kenya",
          "name:hu": "Kenya",
          "name:hy": "Քենիա",
          "name:ia": "Kenya",
          "name:id": "Kenya",
          "name:ie": "Kenia",
          "name:io": "Kenia",
          "name:is": "Kenía",
          "name:it": "Kenya",
          "name:ja": "ケニア",
          "name:jv": "Kénya",
          "name:ka": "კენია",
          "name:kg": "Kenya",
          "name:ki": "Kenya",
          "name:kk": "Кения",
          "name:kl": "Kenya",
          "name:kn": "ಕೀನ್ಯಾ",
          "name:ko": "케냐",
          "name:ku": "Kenya",
          "name:kw": "Kenya",
          "name:la": "Kenia",
          "name:lb": "Kenia",
          "name:lg": "Kenya",
          "name:li": "Kenia",
          "name:ln": "Kénya",
          "name:lt": "Kenija",
          "name:lv": "Kenija",
          "name:mg": "Kenia",
          "name:mi": "Kēnia",
          "name:mk": "Кенија",
          "name:ml": "കെനിയ",
          "name:mn": "Кени",
          "name:mr": "केनिया",
          "name:ms": "Kenya",
          "name:mt": "Kenja",
          "name:my": "ကင်ညာနိုင်ငံ",
          "name:na": "Keniya",
          "name:nl": "Kenia",
          "name:nn": "Kenya",
          "name:no": "Kenya",
          "name:nv": "Kénya",
          "name:oc": "Kenya",
          "name:om": "Keeniyaa",
          "name:or": "କେନିଆ",
          "name:os": "Кени",
          "name:pa": "ਕੀਨੀਆ",
          "name:pl": "Kenia",
          "name:ps": "کېنيا",
          "name:pt": "Quénia",
          "name:qu": "Kinya",
          "name:ro": "Kenya",
          "name:ru": "Кения",
          "name:rw": "Kenya",
          "name:sa": "केन्या",
          "name:sc": "Kènya",
          "name:se": "Kenia",
          "name:sg": "Kenyäa",
          "name:sh": "Kenija",
          "name:sk": "Keňa",
          "name:sl": "Kenija",
          "name:sn": "Kenya",
          "name:so": "Kiinya",
          "name:sq": "Kenia",
          "name:sr": "Кенија",
          "name:ss": "IKheniya",
          "name:su": "Kénya",
          "name:sv": "Kenya",
          "name:sw": "Kenya",
          "name:ta": "கென்யா",
          "name:te": "కెన్యా",
          "name:tg": "Кения",
          "name:th": "ประเทศเคนยา",
          "name:ti": "ኬንያ",
          "name:tk": "Keniýa",
          "name:tl": "Kenya",
          "name:tr": "Kenya",
          "name:ts": "Kenya",
          "name:tt": "Кения",
          "name:ug": "كېنىيە",
          "name:uk": "Кенія",
          "name:ur": "کینیا",
          "name:uz": "Keniya",
          "name:vi": "Kenya",
          "name:vo": "Kenyän",
          "name:wo": "Keeñaa",
          "name:yi": "קעניע",
          "name:yo": "Kẹ́nyà",
          "name:zh": "肯尼亚 / 肯亞",
          "name:zu": "IKenya",
          "boundary": "administrative",
          "name:ace": "Kenya",
          "name:als": "Kenia",
          "name:ang": "Cenia",
          "name:arz": "كينيا",
          "name:ast": "Kenia",
          "name:bcl": "Kenya",
          "name:bjn": "Kenya",
          "name:bpy": "কেনিয়া",
          "name:bxr": "Кени",
          "name:ceb": "Kenya",
          "name:ckb": "کینیا",
          "name:crh": "Keniya",
          "name:diq": "Kenya",
          "name:dsb": "Kenia",
          "name:ext": "Quénia",
          "name:frp": "Kenia",
          "name:frr": "Keenia",
          "name:gag": "Keniya",
          "name:haw": "Kenia",
          "name:hif": "Kenya",
          "name:hsb": "Kenija",
          "name:ilo": "Kenia",
          "name:jbo": "kenias",
          "name:kaa": "Keniya",
          "name:kab": "Kenya",
          "name:lij": "Kenya",
          "name:lmo": "Kenya",
          "name:ltg": "Keneja",
          "name:mrj": "Кени",
          "name:nah": "Quenia",
          "name:nan": "Kenya",
          "name:nap": "Kenya",
          "name:nds": "Kenia",
          "name:nov": "Kenya",
          "name:nso": "Kenya",
          "name:pag": "Kenia",
          "name:pam": "Kenya",
          "name:pap": "Kenia",
          "name:pih": "Keniia",
          "name:pms": "Kenya",
          "name:pnb": "کینیا",
          "name:sah": "Кения",
          "name:scn": "Kenya",
          "name:sco": "Kenyae",
          "name:smn": "Kenia",
          "name:sms": "Kenia",
          "name:stq": "Kenia",
          "name:szl": "Kyńijo",
          "name:tzl": "Kenia",
          "name:vec": "Kenya",
          "name:vro": "Kenya",
          "name:war": "Kenya",
          "name:wuu": "肯尼亚",
          "name:xal": "Кенимудин Орн",
          "name:yue": "肯雅",
          "timezone": "Africa/Nairobi",
          "way_area": "48.4027",
          "wikidata": "Q114",
          "ISO3166-1": "KE",
          "wikipedia": "en:Kenya",
          "admin_level": "2",
          "name:simple": "Kenya",
          "driving_side": "left",
          "name:bat-smg": "Kėnėjė",
          "name:zh-Hans": "肯尼亚",
          "name:zh-Hant": "肯亞",
          "name:be-tarask": "Кенія",
          "ISO3166-1:alpha2": "KE",
          "ISO3166-1:alpha3": "KEN",
          "official_name:cs": "Keňská republika",
          "official_name:en": "Republic of Kenya",
          "official_name:gn": "Tavakuairetã Kéña",
          "official_name:pt": "República do Quênia",
          "ISO3166-1:numeric": "404"
        }
      },
      "geometry": {
        "type": "Polygon",
        "coordinates": [
          [
            [
              37,
              4
            ],
            [
              37.57913064414612,
              4
            ],
            [
              37.5557304,
              4.0158562
            ],
            [
              37.5015311,
              4.0566277
            ],
            [
              37.4555106,
              4.0872673
            ],
            [
              37.4390922,
              4.0980705
            ],
            [
              37.4287162,
              4.1046623
            ],
            [
              37.426702,
              4.1078362
            ],
            [
              37.4223075,
              4.10924
            ],
            [
              37.4183402,
              4.1108269
            ],
            [
              37.4086967,
              4.1164421
            ],
            [
              37.3411307,
              4.1604485
            ],
            [
              37.322515,
              4.1722283
            ],
            [
              37.3161063,
              4.1766228
            ],
            [
              37.2991386,
              4.187426
            ],
            [
              37.2615409,
              4.2120232
            ],
            [
              37.2490897,
              4.220446
            ],
            [
              37.2257133,
              4.2350334
            ],
            [
              37.159307,
              4.2778191
            ],
            [
              37.1369071,
              4.2928337
            ],
            [
              37.1325126,
              4.2906365
            ],
            [
              37.1289115,
              4.2924675
            ],
            [
              37.1226859,
              4.2974724
            ],
            [
              37.1138969,
              4.3040642
            ],
            [
              37.0986991,
              4.3288445
            ],
            [
              37.0977225,
              4.3316521
            ],
            [
              37.0944877,
              4.3340325
            ],
            [
              37.0900931,
              4.3412346
            ],
            [
              37.0813041,
              4.3450188
            ],
            [
              37.0784965,
              4.3460564
            ],
            [
              37.072515,
              4.3464226
            ],
            [
              37.065496,
              4.3458733
            ],
            [
              37.0647025,
              4.3494744
            ],
            [
              37.0596976,
              4.3548454
            ],
            [
              37.0553031,
              4.3606438
            ],
            [
              37.0554862,
              4.3636345
            ],
            [
              37.0487113,
              4.368029
            ],
            [
              37.048101,
              4.3734612
            ],
            [
              37.0443168,
              4.3722405
            ],
            [
              37.039495,
              4.3754753
            ],
            [
              37.0321098,
              4.3832268
            ],
            [
              37.0313163,
              4.3794426
            ],
            [
              37.0281425,
              4.3760246
            ],
            [
              37.0214896,
              4.3694328
            ],
            [
              37.0165458,
              4.3738274
            ],
            [
              37.013494,
              4.3758415
            ],
            [
              37.0105033,
              4.3774285
            ],
            [
              37.0043388,
              4.3758415
            ],
            [
              37,
              4.379303779824576
            ],
            [
              37,
              4
            ]
          ]
        ]
      }
    }
  ]
}