{
  "type": "FeatureCollection",
  "features": [
    {
      "type": "Feature",
      "properties": {
        "osm_id": -535774,
        "boundary": "administrative",
        "admin_level": 2,
        "parents": null,
        "name": "Cape Verde",
        "local_name": "Cabo Verde",
        "name_en": "Cape Verde",
        "all_tags": {
          "flag": "https://upload.wikimedia.org/wikipedia/commons/3/38/Flag_of_Cape_Verde.svg",
          "name": "Cabo Verde",
          "name:ar": "الرأس الأخضر",
          "name:cs": "Kapverdy",
          "name:de": "Kap Verde",
          "name:en": "Cape Verde",
          "name:eo": "Kaboverdo",
          "name:es": "Cabo Verde",
          "name:fr": "Cap-Vert",
          "name:fy": "Kaapverdje",
          "name:gn": "Kávo Véyde",
          "name:hr": "Zelenortski Otoci",
          "name:hu": "Zöld-foki Köztársaság",
          "name:io": "Kabo Verda",
          "name:is": "Grænhöfðaeyjar",
          "name:it": "Capo Verde",
          "name:ja": "カーボベルデ",
          "name:ko": "카보베르데",
          "name:mi": "Te Kūrae Matomato",
          "name:mk": "Зелен ’Рт",
          "name:nl": "Kaapverdië",
          "name:no": "Kapp Verde",
          "name:pl": "Republika Zielonego Przylądka",
          "name:pt": "Cabo Verde",
          "name:ru": "Кабо-Верде",
          "name:se": "Kap Verde",
          "name:sk": "Zelený mys",
          "name:sl": "Zelenortski otoki",
          "name:sr": "Зеленортска Острва",
          "name:sv": "Kap Verde",
          "name:ta": "கேப் வர்டி",
          "name:tr": "Yeşil Burun Adaları",
          "name:uk": "Кабо-Верде",
          "name:uz": "Kabo-Verde",
          "name:vo": "Kabovärduäns",
          "name:zh": "佛得角 / 維德角",
          "boundary": "administrative",
          "name:ckb": "کابۆڤێردێ",
          "name:smn": "Kap Verde",
          "name:sms": "Kap Verde",
          "name:tzl": "Cap Virt",
          "name:vls": "Koapverdië",
          "timezone": "Atlantic/Cape_Verde",
          "way_area": "5.36859",
          "wikidata": "Q1011",
          "ISO3166-1": "CV",
          "long_name": "República de Cabo Verde",
          "wikipedia": "pt:Cabo Verde",
          "admin_level": "2",
          "alt_name:eo": "Kabo-Verdo",
          "alt_name:mk": "Зелено’ртски Острови",
          "alt_name:sk": "Kapverdy",
          "name:zh-Hans": "佛得角",
          "name:zh-Hant": "維德角",
          "ISO3166-1:alpha2": "CV",
          "ISO3166-1:alpha3": "CPV",
          "default_language": "pt",
          "official_name:cs": "Kapverdská republika",
          "official_name:eo": "Kabo-Verda Respubliko",
          "official_name:gn": "Tavakuairetã Kávo Véyde",
          "ISO3166-1:numeric": "132",
          "official_name:ckb": "کۆماری کابۆڤێردێ"
        }
      },
      "geometry": {
        "type": "Polygon",
        "coordinates": [
          [
            [
              -25.5731073,
              17.0455687
            ],
            [
              -25.5723222,
              17.0310176
            ],
            [
              -25.5682505,
              17.0006549
            ],
            [
              -25.568053894174827,
              17
            ],
            [
              -25,
              17
            ],
            [
              -25,
              17.38450850705734
            ],
            [
              -25.0184803,
              17.3919307
            ],
            [
              -25.0522794,
              17.4023516
            ],
            [
              -25.0874298,
              17.407117
            ],
            [
              -25.1229117,
              17.4060894
            ],
            [
              -25.1576958,
              17.3992991
            ],
            [
              -25.1907736,
              17.3869439
            ],
            [
              -25.4336107,
              17.2723194
            ],
            [
              -25.4668507,
              17.2526888
            ],
            [
              -25.4956941,
              17.227449
            ],
            [
              -25.5191317,
              17.1974859
            ],
            [
              -25.54258,
              17.1607927
            ],
            [
              -25.560768,
              17.1246243
            ],
            [
              -25.5710802,
              17.0856943
            ],
            [
              -25.5731073,
              17.0455687
            ]
          ]
        ]
      }
    }
  ]
}