{
  "type": "FeatureCollection",
  "features": [
    {
      "type": "Feature",
      "properties": {
        "osm_id": -365331,
        "boundary": "administrative",
        "admin_level": 2,
        "parents": null,
        "name": "Italy",
        "local_name": "Italia",
        "name_en": "Italy",
        "all_tags": {
          "flag": "http://upload.wikimedia.org/wikipedia/commons/0/03/Flag_of_Italy.svg",
          "name": "Italia",
          "name:ab": "Италиа",
          "name:af": "Italië",
          "name:ak": "Italy",
          "name:am": "ጣልያን",
          "name:an": "Italia",
          "name:ar": "إيطاليا",
          "name:as": "ইটালী",
          "name:ay": "Italiya",
          "name:az": "İtaliya",
          "name:ba": "Италия",
          "name:be": "Італія",
          "name:bg": "Италия",
          "name:bi": "Itali",
          "name:bn": "ইতালি",
          "name:bo": "ཨི་ཏ་ལི།",
          "name:br": "Italia",
          "name:bs": "Italija",
          "name:ca": "Itàlia",
          "name:ce": "Итали",
          "name:co": "Italia",
          "name:cr": "ᐃᑕᓖ",
          "name:cs": "Itálie",
          "name:cu": "Италїꙗ",
          "name:cv": "Итали",
          "name:cy": "Yr Eidal",
          "name:da": "Italien",
          "name:de": "Italien",
          "name:dv": "އިޓަލީވިލާތް",
          "name:dz": "ཨྀཊ་ལི་",
          "name:ee": "Italy",
          "name:el": "Ιταλία",
          "name:en": "Italy",
          "name:eo": "Italio",
          "name:es": "Italia",
          "name:et": "Itaalia",
          "name:eu": "Italia",
          "name:fa": "ایتالیا",
          "name:ff": "Italiya",
          "name:fi": "Italia",
          "name:fo": "Italia",
          "name:fr": "Italie",
          "name:fy": "Itaalje",
          "name:ga": "An Iodáil",
          "name:gd": "An Eadailt",
          "name:gl": "Italia",
          "name:gn": "Itália",
          "name:gu": "ઈટલી",
          "name:gv": "Yn Iddaal",
          "name:he": "איטליה",
          "name:hi": "इटली",
          "name:hr": "Italija",
          "name:ht": "Itali",
          "name:hu": "Olaszország",
          "name:hy": "Իտալիա",
          "name:ia": "Italia",
          "name:id": "Italia",
          "name:ie": "Italia",
          "name:io": "Italia",
          "name:is": "Ítalía",
          "name:it": "Italia",
          "name:ja": "イタリア",
          "name:jv": "Italia",
          "name:ka": "იტალია",
          "name:kg": "Italia",
          "name:ki": "Italia",
          "name:kk": "Италия",
          "name:kl": "Italia",
          "name:km": "អ៊ីតាលី",
          "name:kn": "ಇಟಲಿ",
          "name:ko": "이탈리아",
          "name:ku": "Îtalya",
          "name:kv": "Италия",
          "name:kw": "Itali",
          "name:ky": "Италия",
          "name:la": "Italia",
          "name:lb": "Italien",
          "name:lg": "Yitale",
          "name:li": "Italië",
          "name:ln": "Italya",
          "name:lo": "ອິຕາລີ",
          "name:lt": "Italija",
          "name:lv": "Itālija",
          "name:mg": "Italia",
          "name:mi": "Itari",
          "name:mk": "Италија",
          "name:ml": "ഇറ്റലി",
          "name:mn": "Итали",
          "name:mr": "इटली",
          "name:ms": "Itali",
          "name:mt": "Italja",
          "name:my": "အီတလီနိုင်ငံ",
          "name:na": "Itari",
          "name:ne": "इटाली",
          "name:nl": "Italië",
          "name:nn": "Italia",
          "name:no": "Italia",
          "name:nv": "Ídelii",
          "name:oc": "Itàlia",
          "name:or": "ଇଟାଲୀ",
          "name:os": "Итали",
          "name:pa": "ਇਟਲੀ",
          "name:pl": "Włochy",
          "name:ps": "اېټاليا",
          "name:pt": "Itália",
          "name:qu": "Italya",
          "name:rm": "Italia",
          "name:ro": "Italia",
          "name:ru": "Италия",
          "name:rw": "Ubutaliyani",
          "name:sa": "इटली",
          "name:sc": "Itàlia",
          "name:se": "Itália",
          "name:sg": "Italùii",
          "name:sh": "Italija",
          "name:sk": "Taliansko",
          "name:sl": "Italija",
          "name:sm": "Italia",
          "name:so": "Talyaaniga",
          "name:sq": "Italia",
          "name:sr": "Италија",
          "name:ss": "INtaliyane",
          "name:su": "Italia",
          "name:sv": "Italien",
          "name:sw": "Italia",
          "name:ta": "இத்தாலி",
          "name:te": "ఇటలీ",
          "name:tg": "Итолиё",
          "name:th": "ประเทศอิตาลี",
          "name:tk": "Italiýa",
          "name:tl": "Italya",
          "name:tr": "İtalya",
          "name:tt": "Италия",
          "name:tw": "Italy",
          "name:ty": "’Itāria",
          "name:ug": "ئىتالىيە",
          "name:uk": "Італія",
          "name:ur": "اطالیہ",
          "name:uz": "Italiya",
          "name:ve": "Italy",
          "name:vi": "Ý",
          "name:vo": "Litaliyän",
          "name:wa": "Itåleye",
          "name:wo": "Itaali",
          "name:yi": "איטאליע",
          "name:yo": "Itálíà",
          "name:zh": "意大利 / 義大利",
          "name:zu": "ITaliya",
          "boundary": "administrative",
          "currency": "EUR",
          "int_name": "Italia",
          "name:ace": "Itali",
          "name:als": "Italien",
          "name:ang": "Italia",
          "name:arc": "ܐܝܛܠܝܐ",
          "name:arz": "ايطاليا",
          "name:ast": "Italia",
          "name:bar": "Italien",
          "name:bcl": "Italya",
          "name:bpy": "ইতালি",
          "name:bug": "Italia",
          "name:bxr": "Итаали",
          "name:cdo": "É-dâi-lé",
          "name:ceb": "Italya",
          "name:chr": "ᎢᏔᎵᏱ",
          "name:chy": "Italy",
          "name:ckb": "ئیتالیا",
          "name:crh": "İtaliya",
          "name:csb": "Italskô",
          "name:din": "Italia",
          "name:diq": "İtalya",
          "name:dsb": "Italska",
          "name:eml": "Itâglia",
          "name:ext": "Itália",
          "name:frp": "Étalie",
          "name:frr": "Itaalien",
          "name:fur": "Italie",
          "name:gag": "İtaliya",
          "name:gan": "意大利",
          "name:grc": "Ἰταλία",
          "name:hak": "Yi-thai-li",
          "name:haw": "ʻĪkālia",
          "name:hif": "Italy",
          "name:hsb": "Italska",
          "name:ilo": "Italia",
          "name:jbo": "italias",
          "name:kaa": "İtaliya",
          "name:kab": "Ṭelyan",
          "name:kbd": "Урым",
          "name:koi": "Италья",
          "name:krc": "Италия",
          "name:lad": "Italia",
          "name:lez": "Италия",
          "name:lij": "Italia",
          "name:lld": "Talia",
          "name:lmo": "Itàlia",
          "name:ltg": "Italeja",
          "name:lzh": "義大利",
          "name:mdf": "Италие",
          "name:mhr": "Италий",
          "name:min": "Italia",
          "name:mwl": "Eitália",
          "name:mzn": "ایتالیا",
          "name:nah": "Italia",
          "name:nan": "Italia",
          "name:nap": "Italia",
          "name:nds": "Italien",
          "name:new": "इटाली",
          "name:nov": "Italia",
          "name:nrm": "Italie",
          "name:nso": "Italia",
          "name:pag": "Italia",
          "name:pam": "Italia",
          "name:pap": "Italia",
          "name:pcd": "Italie",
          "name:pdc": "Idali",
          "name:pfl": "Idalje",
          "name:pih": "Italii",
          "name:pms": "Italia",
          "name:pnb": "اٹلی",
          "name:pnt": "Ιταλία",
          "name:rmy": "Italiya",
          "name:rue": "Італія",
          "name:sah": "Италия",
          "name:scn": "Italia",
          "name:sco": "Italy",
          "name:smn": "Italia",
          "name:sms": "Italia",
          "name:srn": "Italiyanikondre",
          "name:stq": "Italien",
          "name:szl": "Italijŏ",
          "name:tet": "Itália",
          "name:tok": "ma Italija",
          "name:tpi": "Itali",
          "name:tzl": "Talia",
          "name:udm": "Италия",
          "name:vec": "Itałia",
          "name:vep": "Italii",
          "name:vls": "Itoalië",
          "name:vro": "Itaalia",
          "name:war": "Italya",
          "name:wuu": "意大利",
          "name:xal": "Италмудин Орн",
          "name:xmf": "იტალია",
          "name:yue": "意大利",
          "name:zea": "Itâlië",
          "timezone": "Europe/Rome",
          "way_area": "49.7321",
          "wikidata": "Q38",
          "ISO3166-1": "IT",
          "wikipedia": "it:Italia",
          "population": "58983000",
          "start_date": "1946-06-10",
          "admin_level": "2",
          "alt_name:eo": "Italujo",
          "alt_name:vi": "I-ta-li-a",
          "name:nds-nl": "Italiën",
          "old_name:vi": "Ý Đại Lợi",
          "name:bat-smg": "Italėjė",
          "name:cbk-zam": "Italia",
          "name:map-bms": "Italia",
          "name:zh-Hans": "意大利",
          "name:zh-Hant": "義大利",
          "name:roa-tara": "Itaglie",
          "official_name": "Repubblica Italiana",
          "name:be-tarask": "Італія",
          "population:date": "2022-04-08",
          "ISO3166-1:alpha2": "IT",
          "ISO3166-1:alpha3": "ITA",
          "default_language": "it",
          "official_name:cs": "Italská republika",
          "official_name:de": "Republik Italien",
          "official_name:el": "Ιταλική Δημοκρατία",
          "official_name:eo": "Itala Respubliko",
          "official_name:zh": "意大利共和国",
          "ISO3166-1:numeric": "380",
          "official_language": "it",
          "official_name:zh-Hans": "意大利共和国",
          "official_name:zh-Hant": "義大利共和國",
          "TMC:cid_58:tabcd_1:Class": "Area",
          "TMC:cid_58:tabcd_1:LCLversion": "8.00",
          "TMC:cid_58:tabcd_1:LocationCode": "11"
        }
      },
      "geometry": {
        "type": "Polygon",
        "coordinates": [
          [
            [
              12.0719603,
              35.5581507
            ],
            [
              12.0729362,
              35.5217855
            ],
            [
              12.0840476,
              35.485644
            ],
            [
              12.0951309,
              35.4620045
            ],
            [
              12.1162472,
              35.4311111
            ],
            [
              12.1425082,
              35.4047879
            ],
            [
              12.1780938,
              35.3810009
            ],
            [
              12.2155975,
              35.367411
            ],
            [
              12.2938384,
              35.3505606
            ],
            [
              12.3307582,
              35.3499104
            ],
            [
              12.3793693,
              35.3554718
            ],
            [
              12.404994,
              35.3419174
            ],
            [
              12.4460533,
              35.3248005
            ],
            [
              12.4711259,
              35.3182542
            ],
            [
              12.4887516,
              35.3113976
            ],
            [
              12.5035946,
              35.3061866
            ],
            [
              12.5188196,
              35.3017796
            ],
            [
              12.5211626,
              35.3012396
            ],
            [
              12.5309666,
              35.2984006
            ],
            [
              12.5465086,
              35.2948156
            ],
            [
              12.5623016,
              35.2920696
            ],
            [
              12.5782786,
              35.2901736
            ],
            [
              12.5943726,
              35.2891356
            ],
            [
              12.6105146,
              35.2889616
            ],
            [
              12.6272606,
              35.2896946
            ],
            [
              12.6368386,
              35.2896926
            ],
            [
              12.6529606,
              35.2903776
            ],
            [
              12.6689956,
              35.2919236
            ],
            [
              12.6848736,
              35.2943236
            ],
            [
              12.7005276,
              35.2975676
            ],
            [
              12.7158906,
              35.3016416
            ],
            [
              12.7308986,
              35.3065296
            ],
            [
              12.7454866,
              35.3122086
            ],
            [
              12.7595926,
              35.3186566
            ],
            [
              12.7665206,
              35.3221986
            ],
            [
              12.7738276,
              35.3261986
            ],
            [
              12.7867926,
              35.3340976
            ],
            [
              12.7991016,
              35.3426736
            ],
            [
              12.8107026,
              35.3518896
            ],
            [
              12.8215466,
              35.3617066
            ],
            [
              12.8315856,
              35.3720826
            ],
            [
              12.8407786,
              35.3829746
            ],
            [
              12.8490836,
              35.3943346
            ],
            [
              12.8564656,
              35.4061146
            ],
            [
              12.8628946,
              35.4182646
            ],
            [
              12.8683396,
              35.4307336
            ],
            [
              12.8727786,
              35.4434666
            ],
            [
              12.8761916,
              35.4564106
            ],
            [
              12.8785636,
              35.4695096
            ],
            [
              12.8798836,
              35.4827076
            ],
            [
              12.8801456,
              35.4959486
            ],
            [
              12.8800836,
              35.5037126
            ],
            [
              12.8793386,
              35.5160566
            ],
            [
              12.8793986,
              35.5190866
            ],
            [
              12.8786006,
              35.5323136
            ],
            [
              12.8767446,
              35.5454696
            ],
            [
              12.8738396,
              35.5584986
            ],
            [
              12.8698956,
              35.5713446
            ],
            [
              12.8661276,
              35.5811586
            ],
            [
              12.8645736,
              35.5848036
            ],
            [
              12.8586076,
              35.5971186
            ],
            [
              12.8516666,
              35.6090876
            ],
            [
              12.8437786,
              35.6206606
            ],
            [
              12.8349776,
              35.6317866
            ],
            [
              12.8253016,
              35.6424176
            ],
            [
              12.8147916,
              35.6525086
            ],
            [
              12.8099806,
              35.6566462
            ],
            [
              12.8280836,
              35.6521536
            ],
            [
              12.8442586,
              35.6510816
            ],
            [
              12.8656026,
              35.6505096
            ],
            [
              12.8818286,
              35.6502976
            ],
            [
              12.8980366,
              35.6509506
            ],
            [
              12.9141586,
              35.6524646
            ],
            [
              12.9301256,
              35.6548336
            ],
            [
              12.9458706,
              35.6580476
            ],
            [
              12.9613256,
              35.6620926
            ],
            [
              12.9764256,
              35.6669526
            ],
            [
              12.9911066,
              35.6726056
            ],
            [
              13,
              35.67662886441752
            ],
            [
              13,
              36
            ],
            [
              12.655106146534653,
              36
            ],
            [
              12.6457356,
              35.9903426
            ],
            [
              12.6365016,
              35.9794236
            ],
            [
              12.6281696,
              35.9680376
            ],
            [
              12.6207736,
              35.9562316
            ],
            [
              12.6143456,
              35.9440586
            ],
            [
              12.6089126,
              35.9315696
            ],
            [
              12.6044966,
              35.9188176
            ],
            [
              12.6011176,
              35.9058586
            ],
            [
              12.5987876,
              35.8927486
            ],
            [
              12.5975166,
              35.8795416
            ],
            [
              12.5972826,
              35.8676936
            ],
            [
              12.5973716,
              35.8625356
            ],
            [
              12.5982296,
              35.8493076
            ],
            [
              12.6001476,
              35.8361546
            ],
            [
              12.6031166,
              35.8231306
            ],
            [
              12.6071246,
              35.8102936
            ],
            [
              12.6121526,
              35.7976976
            ],
            [
              12.6181786,
              35.7853956
            ],
            [
              12.6281436,
              35.7680996
            ],
            [
              12.6338254,
              35.7618086
            ],
            [
              12.6497723,
              35.7460737
            ],
            [
              12.6580766,
              35.7361465
            ],
            [
              12.6834958,
              35.7128874
            ],
            [
              12.63158,
              35.720199
            ],
            [
              12.5978409,
              35.7224006
            ],
            [
              12.573428,
              35.7223599
            ],
            [
              12.5475515,
              35.7261758
            ],
            [
              12.534219,
              35.7263788
            ],
            [
              12.5236387,
              35.7269096
            ],
            [
              12.5085219,
              35.7270953
            ],
            [
              12.4921755,
              35.7246255
            ],
            [
              12.4753287,
              35.7234431
            ],
            [
              12.4600366,
              35.7221296
            ],
            [
              12.4587466,
              35.7218126
            ],
            [
              12.4547972,
              35.7237246
            ],
            [
              12.4434973,
              35.7301202
            ],
            [
              12.4207132,
              35.7379362
            ],
            [
              12.3920229,
              35.7467461
            ],
            [
              12.3685097,
              35.7509847
            ],
            [
              12.3173057,
              35.7519191
            ],
            [
              12.2787448,
              35.7474877
            ],
            [
              12.2341022,
              35.7360513
            ],
            [
              12.2019316,
              35.7244753
            ],
            [
              12.1749136,
              35.7116326
            ],
            [
              12.1412261,
              35.6892391
            ],
            [
              12.1196846,
              35.6682351
            ],
            [
              12.1022461,
              35.6472886
            ],
            [
              12.0866482,
              35.6170918
            ],
            [
              12.0775462,
              35.5881836
            ],
            [
              12.0719603,
              35.5581507
            ]
          ]
        ]
      }
    }
  ]
}