{
  "type": "FeatureCollection",
  "features": [
    {
      "type": "Feature",
      "properties": {
        "osm_id": -365331,
        "boundary": "administrative",
        "admin_level": 2,
        "parents": null,
        "name": "Italy",
        "local_name": "Italia",
        "name_en": "Italy",
        "all_tags": {
          "flag": "http://upload.wikimedia.org/wikipedia/commons/0/03/Flag_of_Italy.svg",
          "name": "Italia",
          "name:ab": "Италиа",
          "name:af": "Italië",
          "name:ak": "Italy",
          "name:am": "ጣልያን",
          "name:an": "Italia",
          "name:ar": "إيطاليا",
          "name:as": "ইটালী",
          "name:ay": "Italiya",
          "name:az": "İtaliya",
          "name:ba": "Италия",
          "name:be": "Італія",
          "name:bg": "Италия",
          "name:bi": "Itali",
          "name:bn": "ইতালি",
          "name:bo": "ཨི་ཏ་ལི།",
          "name:br": "Italia",
          "name:bs": "Italija",
          "name:ca": "Itàlia",
          "name:ce": "Итали",
          "name:co": "Italia",
          "name:cr": "ᐃᑕᓖ",
          "name:cs": "Itálie",
          "name:cu": "Италїꙗ",
          "name:cv": "Итали",
          "name:cy": "Yr Eidal",
          "name:da": "Italien",
          "name:de": "Italien",
          "name:dv": "އިޓަލީވިލާތް",
          "name:dz": "ཨྀཊ་ལི་",
          "name:ee": "Italy",
          "name:el": "Ιταλία",
          "name:en": "Italy",
          "name:eo": "Italio",
          "name:es": "Italia",
          "name:et": "Itaalia",
          "name:eu": "Italia",
          "name:fa": "ایتالیا",
          "name:ff": "Italiya",
          "name:fi": "Italia",
          "name:fo": "Italia",
          "name:fr": "Italie",
          "name:fy": "Itaalje",
          "name:ga": "An Iodáil",
          "name:gd": "An Eadailt",
          "name:gl": "Italia",
          "name:gn": "Itália",
          "name:gu": "ઈટલી",
          "name:gv": "Yn Iddaal",
          "name:he": "איטליה",
          "name:hi": "इटली",
          "name:hr": "Italija",
          "name:ht": "Itali",
          "name:hu": "Olaszország",
          "name:hy": "Իտալիա",
          "name:ia": "Italia",
          "name:id": "Italia",
          "name:ie": "Italia",
          "name:io": "Italia",
          "name:is": "Ítalía",
          "name:it": "Italia",
          "name:ja": "イタリア",
          "name:jv": "Italia",
          "name:ka": "იტალია",
          "name:kg": "Italia",
          "name:ki": "Italia",
          "name:kk": "Италия",
          "name:kl": "Italia",
          "name:km": "អ៊ីតាលី",
          "name:kn": "ಇಟಲಿ",
          "name:ko": "이탈리아",
          "name:ku": "Îtalya",
          "name:kv": "Италия",
          "name:kw": "Itali",
          "name:ky": "Италия",
          "name:la": "Italia",
          "name:lb": "Italien",
          "name:lg": "Yitale",
          "name:li": "Italië",
          "name:ln": "Italya",
          "name:lo": "ອິຕາລີ",
          "name:lt": "Italija",
          "name:lv": "Itālija",
          "name:mg": "Italia",
          "name:mi": "Itari",
          "name:mk": "Италија",
          "name:ml": "ഇറ്റലി",
          "name:mn": "Итали",
          "name:mr": "इटली",
          "name:ms": "Itali",
          "name:mt": "Italja",
          "name:my": "အီတလီနိုင်ငံ",
          "name:na": "Itari",
          "name:ne": "इटाली",
          "name:nl": "Italië",
          "name:nn": "Italia",
          "name:no": "Italia",
          "name:nv": "Ídelii",
          "name:oc": "Itàlia",
          "name:or": "ଇଟାଲୀ",
          "name:os": "Итали",
          "name:pa": "ਇਟਲੀ",
          "name:pl": "Włochy",
          "name:ps": "اېټاليا",
          "name:pt": "Itália",
          "name:qu": "Italya",
          "name:rm": "Italia",
          "name:ro": "Italia",
          "name:ru": "Италия",
          "name:rw": "Ubutaliyani",
          "name:sa": "इटली",
          "name:sc": "Itàlia",
          "name:se": "Itália",
          "name:sg": "Italùii",
          "name:sh": "Italija",
          "name:sk": "Taliansko",
          "name:sl": "Italija",
          "name:sm": "Italia",
          "name:so": "Talyaaniga",
          "name:sq": "Italia",
          "name:sr": "Италија",
          "name:ss": "INtaliyane",
          "name:su": "Italia",
          "name:sv": "Italien",
          "name:sw": "Italia",
          "name:ta": "இத்தாலி",
          "name:te": "ఇటలీ",
          "name:tg": "Итолиё",
          "name:th": "ประเทศอิตาลี",
          "name:tk": "Italiýa",
          "name:tl": "Italya",
          "name:tr": "İtalya",
          "name:tt": "Италия",
          "name:tw": "Italy",
          "name:ty": "’Itāria",
          "name:ug": "ئىتالىيە",
          "name:uk": "Італія",
          "name:ur": "اطالیہ",
          "name:uz": "Italiya",
          "name:ve": "Italy",
          "name:vi": "Ý",
          "name:vo": "Litaliyän",
          "name:wa": "Itåleye",
          "name:wo": "Itaali",
          "name:yi": "איטאליע",
          "name:yo": "Itálíà",
          "name:zh": "意大利 / 義大利",
          "name:zu": "ITaliya",
          "boundary": "administrative",
          "currency": "EUR",
          "int_name": "Italia",
          "name:ace": "Itali",
          "name:als": "Italien",
          "name:ang": "Italia",
          "name:arc": "ܐܝܛܠܝܐ",
          "name:arz": "ايطاليا",
          "name:ast": "Italia",
          "name:bar": "Italien",
          "name:bcl": "Italya",
          "name:bpy": "ইতালি",
          "name:bug": "Italia",
          "name:bxr": "Итаали",
          "name:cdo": "É-dâi-lé",
          "name:ceb": "Italya",
          "name:chr": "ᎢᏔᎵᏱ",
          "name:chy": "Italy",
          "name:ckb": "ئیتالیا",
          "name:crh": "İtaliya",
          "name:csb": "Italskô",
          "name:din": "Italia",
          "name:diq": "İtalya",
          "name:dsb": "Italska",
          "name:eml": "Itâglia",
          "name:ext": "Itália",
          "name:frp": "Étalie",
          "name:frr": "Itaalien",
          "name:fur": "Italie",
          "name:gag": "İtaliya",
          "name:gan": "意大利",
          "name:grc": "Ἰταλία",
          "name:hak": "Yi-thai-li",
          "name:haw": "ʻĪkālia",
          "name:hif": "Italy",
          "name:hsb": "Italska",
          "name:ilo": "Italia",
          "name:jbo": "italias",
          "name:kaa": "İtaliya",
          "name:kab": "Ṭelyan",
          "name:kbd": "Урым",
          "name:koi": "Италья",
          "name:krc": "Италия",
          "name:lad": "Italia",
          "name:lez": "Италия",
          "name:lij": "Italia",
          "name:lld": "Talia",
          "name:lmo": "Itàlia",
          "name:ltg": "Italeja",
          "name:lzh": "義大利",
          "name:mdf": "Италие",
          "name:mhr": "Италий",
          "name:min": "Italia",
          "name:mwl": "Eitália",
          "name:mzn": "ایتالیا",
          "name:nah": "Italia",
          "name:nan": "Italia",
          "name:nap": "Italia",
          "name:nds": "Italien",
          "name:new": "इटाली",
          "name:nov": "Italia",
          "name:nrm": "Italie",
          "name:nso": "Italia",
          "name:pag": "Italia",
          "name:pam": "Italia",
          "name:pap": "Italia",
          "name:pcd": "Italie",
          "name:pdc": "Idali",
          "name:pfl": "Idalje",
          "name:pih": "Italii",
          "name:pms": "Italia",
          "name:pnb": "اٹلی",
          "name:pnt": "Ιταλία",
          "name:rmy": "Italiya",
          "name:rue": "Італія",
          "name:sah": "Италия",
          "name:scn": "Italia",
          "name:sco": "Italy",
          "name:smn": "Italia",
          "name:sms": "Italia",
          "name:srn": "Italiyanikondre",
          "name:stq": "Italien",
          "name:szl": "Italijŏ",
          "name:tet": "Itália",
          "name:tok": "ma Italija",
          "name:tpi": "Itali",
          "name:tzl": "Talia",
          "name:udm": "Италия",
          "name:vec": "Itałia",
          "name:vep": "Italii",
          "name:vls": "Itoalië",
          "name:vro": "Itaalia",
          "name:war": "Italya",
          "name:wuu": "意大利",
          "name:xal": "Италмудин Орн",
          "name:xmf": "იტალია",
          "name:yue": "意大利",
          "name:zea": "Itâlië",
          "timezone": "Europe/Rome",
          "way_area": "49.7321",
          "wikidata": "Q38",
          "ISO3166-1": "IT",
          "wikipedia": "it:Italia",
          "population": "58983000",
          "start_date": "1946-06-10",
          "admin_level": "2",
          "alt_name:eo": "Italujo",
          "alt_name:vi": "I-ta-li-a",
          "name:nds-nl": "Italiën",
          "old_name:vi": "Ý Đại Lợi",
          "name:bat-smg": "Italėjė",
          "name:cbk-zam": "Italia",
          "name:map-bms": "Italia",
          "name:zh-Hans": "意大利",
          "name:zh-Hant": "義大利",
          "name:roa-tara": "Itaglie",
          "official_name": "Repubblica Italiana",
          "name:be-tarask": "Італія",
          "population:date": "2022-04-08",
          "ISO3166-1:alpha2": "IT",
          "ISO3166-1:alpha3": "ITA",
          "default_language": "it",
          "official_name:cs": "Italská republika",
          "official_name:de": "Republik Italien",
          "official_name:el": "Ιταλική Δημοκρατία",
          "official_name:eo": "Itala Respubliko",
          "official_name:zh": "意大利共和国",
          "ISO3166-1:numeric": "380",
          "official_language": "it",
          "official_name:zh-Hans": "意大利共和国",
          "official_name:zh-Hant": "義大利共和國",
          "TMC:cid_58:tabcd_1:Class": "Area",
          "TMC:cid_58:tabcd_1:LCLversion": "8.00",
          "TMC:cid_58:tabcd_1:LocationCode": "11"
        }
      },
      "geometry": {
        "type": "Polygon",
        "coordinates": [
          [
            [
              12,
              41.62313030786026
            ],
            [
              12.0328316,
              41.5989836
            ],
            [
              12.0943973,
              41.5667172
            ],
            [
              12.1600176,
              41.546712
            ],
            [
              12.2171317,
              41.5221517
            ],
            [
              12.2766761,
              41.4743688
            ],
            [
              12.3769937,
              41.3683829
            ],
            [
              12.543956763148662,
              41
            ],
            [
              13,
              41
            ],
            [
              13,
              42
            ],
            [
              12,
              42
            ],
            [
              12,
              41.62313030786026
            ]
          ],
          [
            [
              12.4457878,
              41.9019669
            ],
            [
              12.4466245,
              41.9023518
            ],
            [
              12.4468736,
              41.9021876
            ],
            [
              12.4478558,
              41.9029913
            ],
            [
              12.4476422,
              41.9031239
            ],
            [
              12.4479072,
              41.9034179
            ],
            [
              12.4483873,
              41.9037046
            ],
            [
              12.4486477,
              41.9036102
            ],
            [
              12.4491049,
              41.9046784
            ],
            [
              12.4488888,
              41.9047274
            ],
            [
              12.4489405,
              41.9050442
            ],
            [
              12.4492722,
              41.9051795
            ],
            [
              12.4494506,
              41.9050402
            ],
            [
              12.4505185,
              41.9058394
            ],
            [
              12.4503233,
              41.9059883
            ],
            [
              12.4505145,
              41.9064855
            ],
            [
              12.4513711,
              41.9065751
            ],
            [
              12.4514347,
              41.9063716
            ],
            [
              12.453883,
              41.9068006
            ],
            [
              12.453829,
              41.9069806
            ],
            [
              12.4554001,
              41.9073829
            ],
            [
              12.4556582,
              41.9062965
            ],
            [
              12.4576569,
              41.9058208
            ],
            [
              12.4575579,
              41.9033324
            ],
            [
              12.457078,
              41.9033509
            ],
            [
              12.4566816,
              41.9032032
            ],
            [
              12.4563348,
              41.9030091
            ],
            [
              12.4561843,
              41.9027564
            ],
            [
              12.4567462,
              41.9031888
            ],
            [
              12.4575538,
              41.903253
            ],
            [
              12.4581939,
              41.9028709
            ],
            [
              12.4583653,
              41.9022574
            ],
            [
              12.4582759,
              41.9016569
            ],
            [
              12.4575859,
              41.9012011
            ],
            [
              12.456778,
              41.9012596
            ],
            [
              12.4562631,
              41.9016731
            ],
            [
              12.4543254,
              41.901403
            ],
            [
              12.4545153,
              41.9002044
            ],
            [
              12.4528313,
              41.9004914
            ],
            [
              12.452791,
              41.9002848
            ],
            [
              12.4518065,
              41.9003561
            ],
            [
              12.4508389,
              41.9005862
            ],
            [
              12.4508676,
              41.900827
            ],
            [
              12.4487752,
              41.9009986
            ],
            [
              12.448775,
              41.9008166
            ],
            [
              12.4479497,
              41.9006923
            ],
            [
              12.4477919,
              41.9008499
            ],
            [
              12.4479728,
              41.901002
            ],
            [
              12.4467233,
              41.9017975
            ],
            [
              12.4465468,
              41.9016406
            ],
            [
              12.4457878,
              41.9019669
            ]
          ]
        ]
      }
    },
    {
      "type": "Feature",
      "properties": {
        "osm_id": -36989,
        "boundary": "administrative",
        "admin_level": 2,
        "parents": null,
        "name": "Vatican City",
        "local_name": "Civitas Vaticana - Città del Vaticano",
        "name_en": "Vatican City",
        "all_tags": {
          "city": "yes",
          "flag": "https://upload.wikimedia.org/wikipedia/commons/0/00/Flag_of_the_Vatican_City.svg",
          "name": "Civitas Vaticana - Città del Vaticano",
          "landuse": "religious",
          "name:af": "Vatikaanstad",
          "name:am": "ቫቲካን ከተማ",
          "name:an": "Ciudat d'o Vaticano",
          "name:ar": "الفاتيكان",
          "name:az": "Vatikan",
          "name:ba": "Ватикан",
          "name:be": "Ватыкан",
          "name:bg": "Ватикан",
          "name:bi": "Vatican Siti",
          "name:bn": "ভ্যাটিকান সিটি",
          "name:bo": "ཝ་ཏི་ཀན་གྲོང་ཁྱོར།",
          "name:br": "Keoded ar Vatikan",
          "name:bs": "Vatikan",
          "name:ca": "Ciutat del Vaticà",
          "name:ce": "Ватикан",
          "name:co": "Cità di u Vaticanu",
          "name:cs": "Vatikán",
          "name:cu": "Ватиканъ",
          "name:cv": "Ватикан",
          "name:cy": "Y Fatican",
          "name:da": "Vatikanstaten",
          "name:de": "Staat Vatikanstadt",
          "name:dv": "ވެޓިކަން ސިޓީ",
          "name:dz": "བ་ཊི་ཀཱན།",
          "name:ee": "Vatican City",
          "name:el": "Βατικανό",
          "name:en": "Vatican City",
          "name:eo": "Vatikano",
          "name:es": "Ciudad del Vaticano",
          "name:et": "Vatikan",
          "name:eu": "Vatikano Hiria",
          "name:fa": "واتیکان",
          "name:fi": "Vatikaanivaltio",
          "name:fo": "Vatikanið",
          "name:fr": "Cité du Vatican",
          "name:fy": "Fatikaanstêd",
          "name:ga": "Cathair na Vatacáine",
          "name:gd": "Cathair na Bhatacain",
          "name:gl": "Cidade do Vaticano",
          "name:gn": "Táva Vatikano",
          "name:gv": "Ard-valley yn Phaab",
          "name:he": "קריית הוותיקן",
          "name:hi": "वैटिकन सिटी",
          "name:hr": "Vatikan",
          "name:ht": "Vatikan",
          "name:hu": "Vatikán",
          "name:hy": "Վատիկան",
          "name:ia": "Citate Vatican",
          "name:id": "Vatikan",
          "name:ie": "Vaticano",
          "name:io": "Vatikano",
          "name:is": "Vatíkanið",
          "name:it": "Città del Vaticano",
          "name:ja": "バチカン",
          "name:jv": "Vatikan",
          "name:ka": "ვატიკანი",
          "name:kg": "Vatican",
          "name:kk": "Ватикан",
          "name:kl": "Vatikani",
          "name:km": "បុរីវ៉ាទីកង់",
          "name:kn": "ವ್ಯಾಟಿಕನ್ ನಗರ",
          "name:ko": "바티칸 시국",
          "name:ku": "Vatîkan",
          "name:kv": "Ватикан",
          "name:kw": "Cita Vatikan",
          "name:ky": "Ватикан",
          "name:la": "Civitas Vaticana",
          "name:lb": "Vatikanstad",
          "name:li": "Vaticaanstad",
          "name:ln": "Vatikáni",
          "name:lt": "Vatikanas",
          "name:lv": "Vatikāns",
          "name:mi": "Poho o Pita",
          "name:mk": "Ватикан",
          "name:ml": "വത്തിക്കാൻ നഗരം",
          "name:mn": "Ватикан",
          "name:mr": "व्हॅटिकन सिटी",
          "name:ms": "Kota Vatican",
          "name:mt": "Belt tal-Vatikan",
          "name:my": "ဗာတီကန်စီးတီး",
          "name:na": "Batikan",
          "name:ne": "भ्याटिकन सिटी",
          "name:nl": "Vaticaanstad",
          "name:nn": "Vatikanstaten",
          "name:no": "Vatikanstaten",
          "name:nv": "Bádikin Sídii",
          "name:oc": "Vatican",
          "name:or": "ଭାଟିକାନ ସିଟି",
          "name:os": "Ватикан",
          "name:pa": "ਵੈਟੀਕਨ ਸ਼ਹਿਰ",
          "name:pl": "Watykan",
          "name:ps": "واټيکان ښار",
          "name:pt": "Vaticano",
          "name:qu": "Watikanu llaqta",
          "name:rm": "Citad dal Vatican",
          "name:ro": "Vatican",
          "name:ru": "Ватикан",
          "name:rw": "Vatikani",
          "name:sa": "वैटिकन",
          "name:sc": "Tzitade de su Vaticanu",
          "name:se": "Vatikána",
          "name:sh": "Vatikan",
          "name:si": "වතිකානුව",
          "name:sk": "Vatikán",
          "name:sl": "Vatikan",
          "name:so": "Faatikan",
          "name:sq": "Vatikani",
          "name:sr": "Ватикан",
          "name:ss": "IVathikhi",
          "name:su": "Vatikan",
          "name:sv": "Vatikanstaten",
          "name:sw": "Vatikani",
          "name:ta": "வத்திக்கான் நகர்",
          "name:te": "వాటికన్ నగరం",
          "name:tg": "Вотикон",
          "name:th": "นครรัฐวาติกัน",
          "name:tk": "Watikan",
          "name:tl": "Lungsod ng Vaticano",
          "name:tr": "Vatikan",
          "name:tt": "Ватикан",
          "name:ug": "Watikan Shehiri",
          "name:uk": "Ватикан",
          "name:ur": "ویٹیکن سٹی",
          "name:uz": "Vatikan shahri",
          "name:vi": "Thành Vatican",
          "name:vo": "Vatikän",
          "name:wo": "Watikaa",
          "name:yi": "וואטיקאן",
          "name:yo": "Ìlú Fatikan",
          "name:zh": "梵蒂冈",
          "name:zu": "Indolobha yaseVathikhani",
          "ref:whc": "286",
          "boundary": "administrative",
          "currency": "EUR",
          "heritage": "1",
          "int_name": "Vatican City",
          "name:ace": "Vatikan",
          "name:als": "Vatikan",
          "name:ang": "Faticanburg",
          "name:arc": "ܡܕܝܢܬܐ ܕܘܛܝܩܢ",
          "name:arz": "مدينة الڤاتيكان",
          "name:ast": "Vaticanu",
          "name:bar": "Vatikanstod",
          "name:bcl": "Ciudad nin Vaticano",
          "name:bpy": "ভ্যাটিকান সিটি",
          "name:bxr": "Ватикан",
          "name:cdo": "Huàng-dá̤-gŏng",
          "name:ceb": "Dakbayan sa Batikano",
          "name:ckb": "ڤاتیکان",
          "name:crh": "Vatikan",
          "name:csb": "Watikan",
          "name:diq": "Vatikan",
          "name:dsb": "Vatikańske město",
          "name:eml": "Sitê dal Vaticân",
          "name:ext": "Ciá del Vaticanu",
          "name:frp": "Vatican",
          "name:frr": "Watikaanstääd",
          "name:fur": "Citât dal Vatican",
          "name:gag": "Vatikan",
          "name:haw": "Wakikana",
          "name:hif": "Vatican City",
          "name:hsb": "Vatikanske město",
          "name:ilo": "Siudad ti Batikano",
          "name:jbo": "vatikanus.tcad",
          "name:kaa": "Vatikan",
          "name:kbd": "Ватикан",
          "name:koi": "Ватикан",
          "name:krc": "Ватикан",
          "name:ksh": "Vatikan",
          "name:lad": "Sivdad del Vatikano",
          "name:lez": "Ватикан",
          "name:lij": "Çittæ do Vatican",
          "name:lmo": "Cità del Vatican",
          "name:ltg": "Vatikans",
          "name:mhr": "Ватикан",
          "name:mwl": "Baticano",
          "name:nah": "Āltepētl in Vaticano",
          "name:nan": "Vaticano",
          "name:nap": "Cità d''o Vaticano",
          "name:nds": "Vatikaan",
          "name:nov": "Vatikan Urbe",
          "name:nrm": "Vatican",
          "name:pag": "Siyudad na Vatikano",
          "name:pam": "Lakanbalen ning Baticanu",
          "name:pap": "Siudad Vatikano",
          "name:pcd": "Vatican",
          "name:pfl": "Wadigaan",
          "name:pih": "Watikan Citii",
          "name:pms": "Sità dël Vatican",
          "name:pnb": "ویٹیکن",
          "name:pnt": "Βατικανό",
          "name:rmy": "Vatican",
          "name:rue": "Ватікан",
          "name:sah": "Ватикаан",
          "name:scn": "Citati dû Vaticanu",
          "name:sco": "Vatican Ceety",
          "name:smn": "Vatikaanistaatâ",
          "name:sms": "Vatikaan",
          "name:stq": "Vatikanstääd",
          "name:szl": "Watykōn",
          "name:tet": "Vatikanu",
          "name:tok": "ma Wasikano",
          "name:udm": "Ватикан",
          "name:vec": "Sità del Vatican",
          "name:vep": "Vatikan",
          "name:vls": "Vaticoanstad",
          "name:vro": "Vatikan",
          "name:war": "Syudad han Vaticano",
          "name:wuu": "梵蒂冈",
          "name:xal": "Ватикан Балһсн",
          "name:xmf": "ვატიკანი",
          "name:yue": "梵蒂岡",
          "name:zea": "Vaticaânstad",
          "timezone": "Europe/Vatican",
          "way_area": "5.33487e-05",
          "wikidata": "Q237",
          "ISO3166-1": "VA",
          "land_area": "administrative",
          "wikipedia": "it:Città del Vaticano",
          "population": "453",
          "admin_level": "2",
          "name:nds-nl": "Vaticaanstad",
          "name:bat-smg": "Vatikans",
          "name:cbk-zam": "Ciudad del Vaticano",
          "name:roa-rup": "Vatican",
          "whc:criteria": "(i)(ii)(iv)(vi)",
          "name:roa-tara": "Cetate d'u Vaticane",
          "official_name": "Status Civitatis Vaticanae - Stato della Città del Vaticano",
          "short_name:en": "Vatican",
          "short_name:it": "Vaticano",
          "name:be-tarask": "Ватыкан",
          "population:date": "2019-02",
          "ISO3166-1:alpha2": "VA",
          "ISO3166-1:alpha3": "VAT",
          "default_language": "it",
          "official_name:cs": "Vatikánský městský stát",
          "official_name:de": "Staat Vatikanstadt",
          "official_name:en": "Vatican City State",
          "official_name:eo": "Ŝtato Vatikano",
          "official_name:es": "Estado de la Ciudad del Vaticano",
          "official_name:fr": "État de la cité du Vatican",
          "official_name:it": "Stato della Città del Vaticano",
          "official_name:la": "Status Civitatis Vaticanæ",
          "official_name:pt": "Estado da Cidade do Vaticano",
          "ISO3166-1:numeric": "336",
          "heritage:operator": "whc",
          "whc:inscription_date": "1984"
        }
      },
      "geometry": {
        "type": "Polygon",
        "coordinates": [
          [
            [
              12.4457878,
              41.9019669
            ],
            [
              12.4465468,
              41.9016406
            ],
            [
              12.4467233,
              41.9017975
            ],
            [
              12.4479728,
              41.901002
            ],
            [
              12.4477919,
              41.9008499
            ],
            [
              12.4479497,
              41.9006923
            ],
            [
              12.448775,
              41.9008166
            ],
            [
              12.4487752,
              41.9009986
            ],
            [
              12.4508676,
              41.900827
            ],
            [
              12.4508389,
              41.9005862
            ],
            [
              12.4518065,
              41.9003561
            ],
            [
              12.452791,
              41.9002848
            ],
            [
              12.4528313,
              41.9004914
            ],
            [
              12.4545153,
              41.9002044
            ],
            [
              12.4543254,
              41.901403
            ],
            [
              12.4562631,
              41.9016731
            ],
            [
              12.456778,
              41.9012596
            ],
            [
              12.4575859,
              41.9012011
            ],
            [
              12.4582759,
              41.9016569
            ],
            [
              12.4583653,
              41.9022574
            ],
            [
              12.4581939,
              41.9028709
            ],
            [
              12.4575538,
              41.903253
            ],
            [
              12.4567462,
              41.9031888
            ],
            [
              12.4561843,
              41.9027564
            ],
            [
              12.4566816,
              41.9032032
            ],
            [
              12.4575579,
              41.9033324
            ],
            [
              12.4576569,
              41.9058208
            ],
            [
              12.4556582,
              41.9062965
            ],
            [
              12.4554001,
              41.9073829
            ],
            [
              12.453829,
              41.9069806
            ],
            [
              12.453883,
              41.9068006
            ],
            [
              12.4514347,
              41.9063716
            ],
            [
              12.4513711,
              41.9065751
            ],
            [
              12.4505145,
              41.9064855
            ],
            [
              12.4503233,
              41.9059883
            ],
            [
              12.4505185,
              41.9058394
            ],
            [
              12.4494506,
              41.9050402
            ],
            [
              12.4492722,
              41.9051795
            ],
            [
              12.4489405,
              41.9050442
            ],
            [
              12.4488888,
              41.9047274
            ],
            [
              12.4491049,
              41.9046784
            ],
            [
              12.4486477,
              41.9036102
            ],
            [
              12.4483873,
              41.9037046
            ],
            [
              12.4479072,
              41.9034179
            ],
            [
              12.4476422,
              41.9031239
            ],
            [
              12.4478558,
              41.9029913
            ],
            [
              12.4468736,
              41.9021876
            ],
            [
              12.4466245,
              41.9023518
            ],
            [
              12.4457878,
              41.9019669
            ]
          ]
        ]
      }
    }
  ]
}