{
  "type": "FeatureCollection",
  "features": [
    {
      "type": "Feature",
      "properties": {
        "osm_id": -214885,
        "boundary": "administrative",
        "admin_level": 2,
        "parents": null,
        "name": "Croatia",
        "local_name": "Hrvatska",
        "name_en": "Croatia",
        "all_tags": {
          "flag": "https://upload.wikimedia.org/wikipedia/commons/1/1b/Flag_of_Croatia.svg",
          "name": "Hrvatska",
          "name:ab": "Хорватиа",
          "name:af": "Kroasië",
          "name:am": "ክሮኤሽያ",
          "name:an": "Croacia",
          "name:ar": "كرواتيا",
          "name:az": "Xorvatiya",
          "name:ba": "Хорватия",
          "name:be": "Харватыя",
          "name:bg": "Хърватия",
          "name:bi": "Croatia",
          "name:bn": "ক্রোয়েশিয়া",
          "name:bo": "ཁུརོ་ཤི་ཡ།",
          "name:br": "Kroatia",
          "name:bs": "Hrvatska",
          "name:ca": "Cròacia",
          "name:ce": "Хорвати",
          "name:cs": "Chorvatsko",
          "name:cu": "Хръватьска",
          "name:cy": "Croatia",
          "name:da": "Kroatien",
          "name:de": "Kroatien",
          "name:dv": "ކުރޮއޭޝިއާ",
          "name:ee": "Croatia",
          "name:el": "Κροατία",
          "name:en": "Croatia",
          "name:eo": "Kroatio",
          "name:es": "Croacia",
          "name:et": "Horvaatia",
          "name:eu": "Kroazia",
          "name:fa": "کرواسی",
          "name:fi": "Kroatia",
          "name:fo": "Kroatia",
          "name:fr": "Croatie",
          "name:fy": "Kroaasje",
          "name:ga": "An Chróit",
          "name:gd": "Croàisia",
          "name:gl": "Croacia",
          "name:gn": "Kyoasia",
          "name:gu": "ક્રોએશિયા",
          "name:gv": "Yn Chroit",
          "name:he": "קרואטיה",
          "name:hi": "क्रोएशिया",
          "name:hr": "Hrvatska",
          "name:ht": "Kroasi",
          "name:hu": "Horvátország",
          "name:hy": "Խորվաթիա",
          "name:ia": "Croatia",
          "name:id": "Kroasia",
          "name:ie": "Croatia",
          "name:io": "Kroatia",
          "name:is": "Króatía",
          "name:it": "Croazia",
          "name:ja": "クロアチア",
          "name:jv": "Kroasia",
          "name:ka": "ხორვატია",
          "name:kg": "Kroatia",
          "name:kk": "Хорватия",
          "name:kl": "Kroatia",
          "name:kn": "ಕ್ರೊಯೆಶಿಯ",
          "name:ko": "크로아티아",
          "name:ku": "Kroatya",
          "name:kv": "Хорватия",
          "name:kw": "Kroati",
          "name:ky": "Хорватия",
          "name:la": "Croatia",
          "name:lb": "Kroatien",
          "name:li": "Kroatië",
          "name:ln": "Kroasia",
          "name:lt": "Kroatija",
          "name:lv": "Horvātija",
          "name:mi": "Koroātia",
          "name:mk": "Хрватска",
          "name:ml": "ക്രൊയേഷ്യ",
          "name:mn": "Хорват",
          "name:mr": "क्रोएशिया",
          "name:ms": "Croatia",
          "name:mt": "Kroazja",
          "name:my": "ခရိုအေးရှားနိုင်ငံ",
          "name:na": "Kroaitsiya",
          "name:ne": "क्रोएशिया",
          "name:nl": "Kroatië",
          "name:nn": "Kroatia",
          "name:no": "Kroatia",
          "name:nv": "Kwóóʼad Bikéyah",
          "name:oc": "Croàcia",
          "name:or": "କ୍ରୋଏସିଆ",
          "name:os": "Хорвати",
          "name:pa": "ਕ੍ਰੋਏਸ਼ੀਆ",
          "name:pl": "Chorwacja",
          "name:ps": "کروواسيا",
          "name:pt": "Croácia",
          "name:qu": "Hurwatsuyu",
          "name:rn": "Croacia",
          "name:ro": "Croația",
          "name:ru": "Хорватия",
          "name:rw": "Korowatiya",
          "name:sa": "क्रोएशिया",
          "name:sc": "Croatzia",
          "name:se": "Kroatia",
          "name:sg": "Kroasïi",
          "name:sh": "Hrvatska",
          "name:sk": "Chorvátsko",
          "name:sl": "Hrvaška",
          "name:sm": "Croatia",
          "name:so": "Kroatia",
          "name:sq": "Kroacia",
          "name:sr": "Хрватска",
          "name:ss": "IKhuroshiya",
          "name:st": "Kroatia",
          "name:su": "Kroasia",
          "name:sv": "Kroatien",
          "name:sw": "Kroatia",
          "name:ta": "குரோவாசியா",
          "name:te": "క్రొయేషియా",
          "name:tg": "Хорватия",
          "name:th": "ประเทศโครเอเชีย",
          "name:tk": "Horwatiýa",
          "name:tl": "Kroasya",
          "name:tr": "Hırvatistan",
          "name:tt": "Хорватия",
          "name:ug": "كرودىيە",
          "name:uk": "Хорватія",
          "name:ur": "کروشیا",
          "name:uz": "Xorvatiya",
          "name:vi": "Croatia",
          "name:vo": "Kroasän",
          "name:wa": "Crowaceye",
          "name:wo": "Korwaasi",
          "name:yi": "קראאטיע",
          "name:yo": "Kroatíà",
          "name:za": "Gwzlozdiya",
          "name:zh": "克羅地亞",
          "boundary": "administrative",
          "int_name": "Croatia",
          "name:ace": "Kroasia",
          "name:als": "Kroatien",
          "name:ang": "Croatia",
          "name:arc": "ܩܪܘܐܛܝܐ",
          "name:arz": "كرواتيا",
          "name:ast": "Croacia",
          "name:bar": "Krowozien",
          "name:bpy": "ক্রোয়েশিয়া",
          "name:bxr": "Хорват",
          "name:ceb": "Krowasya",
          "name:chy": "Croatia",
          "name:ckb": "کرواتیا",
          "name:crh": "Hırvatistan",
          "name:csb": "Chòrwackô",
          "name:diq": "Xırvatıstan",
          "name:dsb": "Chorwatska",
          "name:ext": "Croacia",
          "name:frp": "Croacie",
          "name:frr": "Kroatien",
          "name:fur": "Cravuazie",
          "name:gag": "Horvatiya",
          "name:hak": "Khiet-lò-thi-â",
          "name:haw": "Koloatia",
          "name:hif": "Croatia",
          "name:hsb": "Chorwatska",
          "name:ilo": "Kroásia",
          "name:jbo": "xrvatskas",
          "name:kaa": "Xorvatiya",
          "name:kbd": "Хоруатиэ",
          "name:koi": "Хӧрватска",
          "name:krc": "Хорватия",
          "name:lij": "Croaçia",
          "name:lmo": "Cruazia",
          "name:ltg": "Horvateja",
          "name:mdf": "Хорватие",
          "name:mhr": "Хорватий",
          "name:min": "Kroasia",
          "name:nah": "Croacia",
          "name:nan": "Hrvatska",
          "name:nap": "Croazia",
          "name:nds": "Kroatien",
          "name:new": "क्रोएसिया",
          "name:nov": "Kroatia",
          "name:pag": "Kroasiya",
          "name:pam": "Croasya",
          "name:pap": "Kroatia",
          "name:pcd": "Croachie",
          "name:pdc": "Kroaati",
          "name:pih": "Kroaysha",
          "name:pms": "Croassia",
          "name:pnb": "کروشیا",
          "name:pnt": "Κροατία",
          "name:rue": "Хорватія",
          "name:sah": "Хорватия",
          "name:scn": "Croazzia",
          "name:sco": "Croatie",
          "name:smn": "Kroatia",
          "name:sms": "Kroatia",
          "name:stq": "Kroatien",
          "name:szl": "Chorwacyjŏ",
          "name:tpi": "Krowesia",
          "name:tzl": "C'horvoiça",
          "name:udm": "Хорватия",
          "name:vec": "Croàsia",
          "name:vep": "Horvatii",
          "name:vls": "Kroatië",
          "name:vro": "Horvaatia",
          "name:war": "Kroasya",
          "name:wuu": "克罗地亚",
          "name:xal": "Хорватин Орн",
          "name:xmf": "ხორვატია",
          "name:yue": "克羅地亞",
          "name:zea": "Kroaotië",
          "timezone": "Europe/Zagreb",
          "way_area": "9.98241",
          "wikidata": "Q224",
          "ISO3166-1": "HR",
          "wikipedia": "hr:Hrvatska",
          "population": "3871833",
          "ref:nuts:1": "HR0",
          "admin_level": "2",
          "alt_name:eo": "Kroatujo",
          "name:nds-nl": "Kroasië",
          "driving_side": "right",
          "name:bat-smg": "Kruoatėjė",
          "name:roa-rup": "Croatia",
          "name:sr-Latn": "Hrvatska",
          "name:zh-Hans": "克罗地亚",
          "name:zh-Hant": "克羅地亞",
          "name:roa-tara": "Croazie",
          "official_name": "Republika Hrvatska",
          "name:be-tarask": "Харватыя",
          "population:date": "2021-08-31",
          "ISO3166-1:alpha2": "HR",
          "ISO3166-1:alpha3": "HRV",
          "default_language": "hr",
          "official_name:cs": "Chorvatská republika",
          "official_name:el": "Δημοκρατία της Κροατίας",
          "official_name:eo": "Respubliko Kroatio",
          "official_name:zh": "克罗地亚共和国",
          "ISO3166-1:numeric": "191",
          "official_name:zh-Hans": "克罗地亚共和国",
          "official_name:zh-Hant": "克羅地亞共和國"
        }
      },
      "geometry": {
        "type": "MultiPolygon",
        "coordinates": [
          [
            [
              [
                15.21660583465254,
                43
              ],
              [
                15.2225753,
                42.9912904
              ],
              [
                15.2427036,
                42.9689808
              ],
              [
                15.2681878,
                42.9483704
              ],
              [
                15.2926354,
                42.9326867
              ],
              [
                15.3253762,
                42.9168091
              ],
              [
                15.3545751,
                42.9064328
              ],
              [
                15.3897348,
                42.8980165
              ],
              [
                15.4240305,
                42.8931434
              ],
              [
                15.4598813,
                42.891308
              ],
              [
                15.4969846,
                42.8934282
              ],
              [
                15.5058825,
                42.8855799
              ],
              [
                15.518711,
                42.8756731
              ],
              [
                15.5399623,
                42.8618705
              ],
              [
                15.5589243,
                42.8517382
              ],
              [
                15.5778,
                42.8433145
              ],
              [
                15.5949911,
                42.8369168
              ],
              [
                15.6116638,
                42.8317538
              ],
              [
                15.6368889,
                42.8255766
              ],
              [
                15.6589609,
                42.8218067
              ],
              [
                15.6813784,
                42.8192404
              ],
              [
                15.7051565,
                42.8182741
              ],
              [
                15.7144323,
                42.8148126
              ],
              [
                15.7298525,
                42.8103449
              ],
              [
                15.7479182,
                42.8064235
              ],
              [
                15.7696014,
                42.8039834
              ],
              [
                15.791371,
                42.8034129
              ],
              [
                15.8122984,
                42.8050608
              ],
              [
                15.8277077,
                42.7955452
              ],
              [
                15.8538831,
                42.7819149
              ],
              [
                15.8854144,
                42.7699305
              ],
              [
                15.9215243,
                42.7602906
              ],
              [
                15.9608306,
                42.7544552
              ],
              [
                16,
                42.75293832373834
              ],
              [
                16,
                43
              ],
              [
                15.21660583465254,
                43
              ]
            ]
          ],
          [
            [
              [
                15.9832785,
                42.3779321
              ],
              [
                15.9856439,
                42.3591305
              ],
              [
                15.9906592,
                42.339289
              ],
              [
                16,
                42.31894126438152
              ],
              [
                16,
                42.456966682750455
              ],
              [
                15.9981333,
                42.4530995
              ],
              [
                15.9882207,
                42.4255068
              ],
              [
                15.98413,
                42.4034045
              ],
              [
                15.9832785,
                42.3779321
              ]
            ]
          ]
        ]
      }
    },
    {
      "type": "Feature",
      "properties": {
        "osm_id": -365331,
        "boundary": "administrative",
        "admin_level": 2,
        "parents": null,
        "name": "Italy",
        "local_name": "Italia",
        "name_en": "Italy",
        "all_tags": {
          "flag": "http://upload.wikimedia.org/wikipedia/commons/0/03/Flag_of_Italy.svg",
          "name": "Italia",
          "name:ab": "Италиа",
          "name:af": "Italië",
          "name:ak": "Italy",
          "name:am": "ጣልያን",
          "name:an": "Italia",
          "name:ar": "إيطاليا",
          "name:as": "ইটালী",
          "name:ay": "Italiya",
          "name:az": "İtaliya",
          "name:ba": "Италия",
          "name:be": "Італія",
          "name:bg": "Италия",
          "name:bi": "Itali",
          "name:bn": "ইতালি",
          "name:bo": "ཨི་ཏ་ལི།",
          "name:br": "Italia",
          "name:bs": "Italija",
          "name:ca": "Itàlia",
          "name:ce": "Итали",
          "name:co": "Italia",
          "name:cr": "ᐃᑕᓖ",
          "name:cs": "Itálie",
          "name:cu": "Италїꙗ",
          "name:cv": "Итали",
          "name:cy": "Yr Eidal",
          "name:da": "Italien",
          "name:de": "Italien",
          "name:dv": "އިޓަލީވިލާތް",
          "name:dz": "ཨྀཊ་ལི་",
          "name:ee": "Italy",
          "name:el": "Ιταλία",
          "name:en": "Italy",
          "name:eo": "Italio",
          "name:es": "Italia",
          "name:et": "Itaalia",
          "name:eu": "Italia",
          "name:fa": "ایتالیا",
          "name:ff": "Italiya",
          "name:fi": "Italia",
          "name:fo": "Italia",
          "name:fr": "Italie",
          "name:fy": "Itaalje",
          "name:ga": "An Iodáil",
          "name:gd": "An Eadailt",
          "name:gl": "Italia",
          "name:gn": "Itália",
          "name:gu": "ઈટલી",
          "name:gv": "Yn Iddaal",
          "name:he": "איטליה",
          "name:hi": "इटली",
          "name:hr": "Italija",
          "name:ht": "Itali",
          "name:hu": "Olaszország",
          "name:hy": "Իտալիա",
          "name:ia": "Italia",
          "name:id": "Italia",
          "name:ie": "Italia",
          "name:io": "Italia",
          "name:is": "Ítalía",
          "name:it": "Italia",
          "name:ja": "イタリア",
          "name:jv": "Italia",
          "name:ka": "იტალია",
          "name:kg": "Italia",
          "name:ki": "Italia",
          "name:kk": "Италия",
          "name:kl": "Italia",
          "name:km": "អ៊ីតាលី",
          "name:kn": "ಇಟಲಿ",
          "name:ko": "이탈리아",
          "name:ku": "Îtalya",
          "name:kv": "Италия",
          "name:kw": "Itali",
          "name:ky": "Италия",
          "name:la": "Italia",
          "name:lb": "Italien",
          "name:lg": "Yitale",
          "name:li": "Italië",
          "name:ln": "Italya",
          "name:lo": "ອິຕາລີ",
          "name:lt": "Italija",
          "name:lv": "Itālija",
          "name:mg": "Italia",
          "name:mi": "Itari",
          "name:mk": "Италија",
          "name:ml": "ഇറ്റലി",
          "name:mn": "Итали",
          "name:mr": "इटली",
          "name:ms": "Itali",
          "name:mt": "Italja",
          "name:my": "အီတလီနိုင်ငံ",
          "name:na": "Itari",
          "name:ne": "इटाली",
          "name:nl": "Italië",
          "name:nn": "Italia",
          "name:no": "Italia",
          "name:nv": "Ídelii",
          "name:oc": "Itàlia",
          "name:or": "ଇଟାଲୀ",
          "name:os": "Итали",
          "name:pa": "ਇਟਲੀ",
          "name:pl": "Włochy",
          "name:ps": "اېټاليا",
          "name:pt": "Itália",
          "name:qu": "Italya",
          "name:rm": "Italia",
          "name:ro": "Italia",
          "name:ru": "Италия",
          "name:rw": "Ubutaliyani",
          "name:sa": "इटली",
          "name:sc": "Itàlia",
          "name:se": "Itália",
          "name:sg": "Italùii",
          "name:sh": "Italija",
          "name:sk": "Taliansko",
          "name:sl": "Italija",
          "name:sm": "Italia",
          "name:so": "Talyaaniga",
          "name:sq": "Italia",
          "name:sr": "Италија",
          "name:ss": "INtaliyane",
          "name:su": "Italia",
          "name:sv": "Italien",
          "name:sw": "Italia",
          "name:ta": "இத்தாலி",
          "name:te": "ఇటలీ",
          "name:tg": "Итолиё",
          "name:th": "ประเทศอิตาลี",
          "name:tk": "Italiýa",
          "name:tl": "Italya",
          "name:tr": "İtalya",
          "name:tt": "Италия",
          "name:tw": "Italy",
          "name:ty": "’Itāria",
          "name:ug": "ئىتالىيە",
          "name:uk": "Італія",
          "name:ur": "اطالیہ",
          "name:uz": "Italiya",
          "name:ve": "Italy",
          "name:vi": "Ý",
          "name:vo": "Litaliyän",
          "name:wa": "Itåleye",
          "name:wo": "Itaali",
          "name:yi": "איטאליע",
          "name:yo": "Itálíà",
          "name:zh": "意大利 / 義大利",
          "name:zu": "ITaliya",
          "boundary": "administrative",
          "currency": "EUR",
          "int_name": "Italia",
          "name:ace": "Itali",
          "name:als": "Italien",
          "name:ang": "Italia",
          "name:arc": "ܐܝܛܠܝܐ",
          "name:arz": "ايطاليا",
          "name:ast": "Italia",
          "name:bar": "Italien",
          "name:bcl": "Italya",
          "name:bpy": "ইতালি",
          "name:bug": "Italia",
          "name:bxr": "Итаали",
          "name:cdo": "É-dâi-lé",
          "name:ceb": "Italya",
          "name:chr": "ᎢᏔᎵᏱ",
          "name:chy": "Italy",
          "name:ckb": "ئیتالیا",
          "name:crh": "İtaliya",
          "name:csb": "Italskô",
          "name:din": "Italia",
          "name:diq": "İtalya",
          "name:dsb": "Italska",
          "name:eml": "Itâglia",
          "name:ext": "Itália",
          "name:frp": "Étalie",
          "name:frr": "Itaalien",
          "name:fur": "Italie",
          "name:gag": "İtaliya",
          "name:gan": "意大利",
          "name:grc": "Ἰταλία",
          "name:hak": "Yi-thai-li",
          "name:haw": "ʻĪkālia",
          "name:hif": "Italy",
          "name:hsb": "Italska",
          "name:ilo": "Italia",
          "name:jbo": "italias",
          "name:kaa": "İtaliya",
          "name:kab": "Ṭelyan",
          "name:kbd": "Урым",
          "name:koi": "Италья",
          "name:krc": "Италия",
          "name:lad": "Italia",
          "name:lez": "Италия",
          "name:lij": "Italia",
          "name:lld": "Talia",
          "name:lmo": "Itàlia",
          "name:ltg": "Italeja",
          "name:lzh": "義大利",
          "name:mdf": "Италие",
          "name:mhr": "Италий",
          "name:min": "Italia",
          "name:mwl": "Eitália",
          "name:mzn": "ایتالیا",
          "name:nah": "Italia",
          "name:nan": "Italia",
          "name:nap": "Italia",
          "name:nds": "Italien",
          "name:new": "इटाली",
          "name:nov": "Italia",
          "name:nrm": "Italie",
          "name:nso": "Italia",
          "name:pag": "Italia",
          "name:pam": "Italia",
          "name:pap": "Italia",
          "name:pcd": "Italie",
          "name:pdc": "Idali",
          "name:pfl": "Idalje",
          "name:pih": "Italii",
          "name:pms": "Italia",
          "name:pnb": "اٹلی",
          "name:pnt": "Ιταλία",
          "name:rmy": "Italiya",
          "name:rue": "Італія",
          "name:sah": "Италия",
          "name:scn": "Italia",
          "name:sco": "Italy",
          "name:smn": "Italia",
          "name:sms": "Italia",
          "name:srn": "Italiyanikondre",
          "name:stq": "Italien",
          "name:szl": "Italijŏ",
          "name:tet": "Itália",
          "name:tok": "ma Italija",
          "name:tpi": "Itali",
          "name:tzl": "Talia",
          "name:udm": "Италия",
          "name:vec": "Itałia",
          "name:vep": "Italii",
          "name:vls": "Itoalië",
          "name:vro": "Itaalia",
          "name:war": "Italya",
          "name:wuu": "意大利",
          "name:xal": "Италмудин Орн",
          "name:xmf": "იტალია",
          "name:yue": "意大利",
          "name:zea": "Itâlië",
          "timezone": "Europe/Rome",
          "way_area": "49.7321",
          "wikidata": "Q38",
          "ISO3166-1": "IT",
          "wikipedia": "it:Italia",
          "population": "58983000",
          "start_date": "1946-06-10",
          "admin_level": "2",
          "alt_name:eo": "Italujo",
          "alt_name:vi": "I-ta-li-a",
          "name:nds-nl": "Italiën",
          "old_name:vi": "Ý Đại Lợi",
          "name:bat-smg": "Italėjė",
          "name:cbk-zam": "Italia",
          "name:map-bms": "Italia",
          "name:zh-Hans": "意大利",
          "name:zh-Hant": "義大利",
          "name:roa-tara": "Itaglie",
          "official_name": "Repubblica Italiana",
          "name:be-tarask": "Італія",
          "population:date": "2022-04-08",
          "ISO3166-1:alpha2": "IT",
          "ISO3166-1:alpha3": "ITA",
          "default_language": "it",
          "official_name:cs": "Italská republika",
          "official_name:de": "Republik Italien",
          "official_name:el": "Ιταλική Δημοκρατία",
          "official_name:eo": "Itala Respubliko",
          "official_name:zh": "意大利共和国",
          "ISO3166-1:numeric": "380",
          "official_language": "it",
          "official_name:zh-Hans": "意大利共和国",
          "official_name:zh-Hant": "義大利共和國",
          "TMC:cid_58:tabcd_1:Class": "Area",
          "TMC:cid_58:tabcd_1:LCLversion": "8.00",
          "TMC:cid_58:tabcd_1:LocationCode": "11"
        }
      },
      "geometry": {
        "type": "Polygon",
        "coordinates": [
          [
            [
              15,
              42
            ],
            [
              16,
              42
            ],
            [
              16,
              42.29784361998027
            ],
            [
              15.9989993,
              42.3003616
            ],
            [
              15.9666557,
              42.3458472
            ],
            [
              15.9122678,
              42.3843968
            ],
            [
              15.8707288,
              42.404333
            ],
            [
              15.8237179,
              42.4187661
            ],
            [
              15.7647764,
              42.4254785
            ],
            [
              15.6927817,
              42.4209403
            ],
            [
              15.652267,
              42.4125626
            ],
            [
              15.6089168,
              42.399445
            ],
            [
              15.5799953,
              42.3828753
            ],
            [
              15.558235,
              42.3671143
            ],
            [
              15.5446488,
              42.3569576
            ],
            [
              15.5284229,
              42.3402429
            ],
            [
              15.5164646,
              42.3421466
            ],
            [
              15.4985646,
              42.3418626
            ],
            [
              15.4807276,
              42.3407096
            ],
            [
              15.4630316,
              42.3386896
            ],
            [
              15.4455526,
              42.3358136
            ],
            [
              15.4283666,
              42.3320916
            ],
            [
              15.0563956,
              42.2340896
            ],
            [
              15,
              42.26716991745729
            ],
            [
              15,
              42
            ]
          ]
        ]
      }
    }
  ]
}