{
  "type": "FeatureCollection",
  "features": [
    {
      "type": "Feature",
      "properties": {
        "osm_id": -547479,
        "boundary": "administrative",
        "admin_level": 2,
        "parents": null,
        "name": "Turks and Caicos Islands",
        "local_name": "Turks and Caicos Islands",
        "name_en": "Turks and Caicos Islands",
        "all_tags": {
          "flag": "http://upload.wikimedia.org/wikipedia/commons/a/a0/Flag_of_the_Turks_and_Caicos_Islands.svg",
          "name": "Turks and Caicos Islands",
          "name:af": "Turks- en Caicoseilande",
          "name:am": "ተርክስና ከይከስ ደሴቶች",
          "name:an": "Islas Turcas y Caicos",
          "name:ar": "جزر تركس وكايكوس",
          "name:az": "Törks və Kaykos adaları",
          "name:be": "Цёркс і Кайкас",
          "name:bg": "Търкс и Кайкос",
          "name:bn": "টার্কস ও কেইকোস দ্বীপপুঞ্জ",
          "name:br": "Inizi Turks ha Caicos",
          "name:bs": "Turks i Caicos",
          "name:ca": "Illes Turks i Caicos",
          "name:ce": "Теркс а, Кайкос а",
          "name:cs": "Turks a Caicos",
          "name:cv": "Тĕркс тата Кайкос",
          "name:cy": "Ynysoedd Turks a Caicos",
          "name:da": "Turks- og Caicosøerne",
          "name:de": "Turks- und Caicosinseln",
          "name:dv": "ޓާކަސް އަދި ކައިކޯ ޖަޒީރާ",
          "name:el": "Τερκς και Κέικος",
          "name:en": "Turks and Caicos Islands",
          "name:eo": "Turkoj kaj Kajkoj",
          "name:es": "Islas Turcas y Caicos",
          "name:et": "Turks ja Caicos",
          "name:eu": "Turkak eta Caicoak",
          "name:fa": "جزایر تورکس و کایکوس",
          "name:fi": "Turks- ja Caicossaaret",
          "name:fo": "Turks- og Caicosoyggjar",
          "name:fr": "Îles Turques-et-Caïques",
          "name:fy": "Turks- en Kaikoseilannen",
          "name:ga": "Oileáin na dTurcach agus Caicos",
          "name:gl": "Turks e Caicos",
          "name:he": "איי טרקס וקייקוס",
          "name:hi": "तुर्क और केकोस द्वीपसमूह",
          "name:hr": "Otočje Turks i Caicos",
          "name:hu": "Turks- és Caicos-szigetek",
          "name:hy": "Թերքս և Քայքոս կղզիներ",
          "name:id": "Kepulauan Turks dan Caicos",
          "name:io": "Insuli Turks e Kaikos",
          "name:is": "Turks- og Caicoseyjar",
          "name:it": "Turks e Caicos",
          "name:ja": "タークス・カイコス諸島",
          "name:jv": "Kapuloan Turks lan Caicos",
          "name:ka": "ტერქსისა და კაიკოსის კუნძულები",
          "name:kk": "Туркс пен Кайкос",
          "name:ko": "터크스 케이커스 제도",
          "name:ku": "Giravên Turks û Kaykosê",
          "name:kw": "Turks ha Kaykos",
          "name:ky": "Теркс жана Кайкос аралдары",
          "name:la": "Insulae Turcenses et Caicenses",
          "name:li": "Turks- en Caicoseilen",
          "name:ln": "Turks mpé Caicos",
          "name:lt": "Terksas ir Kaikosas",
          "name:lv": "Tērksas un Kaikosas",
          "name:mk": "Туркс и Кајкос",
          "name:ml": "ടർക്സ്-കൈകോസ് ദ്വീപുകൾ",
          "name:mr": "टर्क्स आणि कैकास द्वीपसमूह",
          "name:ms": "Kepulauan Turks dan Caicos",
          "name:nl": "Turks- en Caicoseilanden",
          "name:nn": "Turks- og Caicosøyane",
          "name:no": "Turks- og Caicosøyene",
          "name:oc": "Illas Turcas e Caïcas",
          "name:os": "Теркс æмæ Кайкос",
          "name:pa": "ਤੁਰਕ ਅਤੇ ਕੇਕੋਸ ਟਾਪੂ",
          "name:pl": "Turks i Caicos",
          "name:pt": "Ilhas Turcas e Caicos",
          "name:ro": "Insulele Turks și Caicos",
          "name:ru": "Теркс и Кайкос",
          "name:rw": "Ibirwa bya Takisi na Kayikosi",
          "name:sh": "Turks i Caicos",
          "name:sk": "Turks a Caicos",
          "name:sl": "Otoki Turks in Caicos",
          "name:sq": "Turks dhe Kaikos",
          "name:sr": "Туркс и Кајкос",
          "name:su": "Kapuloan Turks jeung Kaikos",
          "name:sv": "Turks- och Caicosöarna",
          "name:sw": "Visiwa vya Turks na Caicos",
          "name:ta": "துர்கசு கைகோசு தீவுகள்",
          "name:th": "หมู่เกาะเติกส์และเคคอส",
          "name:tl": "Kapuluang Turks at Caicos",
          "name:tr": "Turks ve Caicos Adaları",
          "name:tt": "Төркс һәм Кайкос",
          "name:ug": "تۇركس ۋە كايكوس تاقىم ئاراللىرى",
          "name:uk": "Острови Теркс і Кайкос",
          "name:ur": "جزائر کیکس و ترکیہ",
          "name:uz": "Terks va Kaykos orollari",
          "name:vi": "Quần đảo Turks và Caicos",
          "name:wo": "Turks and Caicos Islands",
          "name:yo": "Àwọn Erékùṣù Turks àti Caicos",
          "name:zh": "特克斯和凯科斯群岛 / 土克凱可群島",
          "boundary": "administrative",
          "name:als": "Turks- und Caicosinseln",
          "name:ang": "Turcas and Caicos Īegland",
          "name:arz": "جزر تيركس و سايكوس",
          "name:ast": "Islles Turques y Caicos",
          "name:azb": "تورکس و کایکوس آدالاری",
          "name:bpy": "তার্কস বারো কাইকোস দ্বীপমালা",
          "name:cdo": "Turks gâe̤ng Caicos Gùng-dō̤",
          "name:ceb": "Kapupud-an Turks ug Kaikos",
          "name:ckb": "دوورگەکانی تورکس و کایکۆس",
          "name:dsb": "Turks a Caicos",
          "name:frp": "Iles Turques et Cayiques",
          "name:frr": "Turks an Caicos Eilunen",
          "name:gag": "Turks hem Caicos Adaları",
          "name:hak": "Turks lâu Caicos Khiùn-tó",
          "name:jam": "Toerx ah Kiekos",
          "name:lfn": "Turcs e Caicos",
          "name:lij": "Turks e Caicos",
          "name:lmo": "Turks e Caicos",
          "name:mrj": "Тӱркс дӓ Кайкос",
          "name:myv": "Тёркс ды Кайкос",
          "name:nan": "Turks kap Caicos Kûn-tó",
          "name:nds": "Turks- un Caicosinseln",
          "name:nov": "Turks e Kaikos Isles",
          "name:pih": "Dem Turks a' Caicos Ailen",
          "name:pms": "Turks e Caicos",
          "name:pnb": "ٹرکس تے کائیکس جزیرے",
          "name:sah": "Төркс уонна Кайкос",
          "name:scn": "Turks and Caicos Islands",
          "name:sco": "Turks an Caicos Islands",
          "name:shn": "မူႇၵုၼ် ထၢၵ်ႈ လႄႈ ၶေးၶတ်ႉ",
          "name:smn": "Turks- já Caicossuolluuh",
          "name:war": "Kapuropod-an Turks ngan Caicos",
          "name:wuu": "特克斯搭凯科斯群岛",
          "name:xmf": "ტერქსიშ დო კაიკოსიშ კოკეფი",
          "name:yue": "特克斯與凱科斯群島",
          "timezone": "America/Grand_Turk",
          "way_area": "1.50349",
          "wikidata": "Q18221",
          "ISO3166-1": "TC",
          "wikipedia": "en:Turks and Caicos Islands",
          "name:zh-HK": "特克斯和凱科斯群島",
          "name:zh-TW": "土克凱可群島",
          "admin_level": "2",
          "description": "British overseas territory",
          "name:simple": "Turks and Caicos Islands",
          "name:zh-Hans": "特克斯和凯科斯群岛",
          "name:zh-Hant": "土克凱可群島 / 特克斯和凱科斯群島",
          "name:be-tarask": "Тэркс і Кэйкас",
          "name:zh-Hant-CN": "特克斯和凱科斯群島",
          "ISO3166-1:alpha2": "TC",
          "ISO3166-1:alpha3": "TCA",
          "default_language": "en",
          "official_name:cs": "Ostrovy Turks a Caicos",
          "ISO3166-1:numeric": "796"
        }
      },
      "geometry": {
        "type": "Polygon",
        "coordinates": [
          [
            [
              -72,
              22
            ],
            [
              -71.55490172466953,
              22
            ],
            [
              -71.5800403,
              22.0141071
            ],
            [
              -71.6178605,
              22.0271284
            ],
            [
              -71.6591447,
              22.0339772
            ],
            [
              -71.697118,
              22.0377062
            ],
            [
              -71.7025591,
              22.0373352
            ],
            [
              -71.7201105,
              22.0584666
            ],
            [
              -71.7505534,
              22.0860855
            ],
            [
              -71.8070181,
              22.1204203
            ],
            [
              -71.8484353,
              22.1358395
            ],
            [
              -71.8618789,
              22.1390895
            ],
            [
              -71.8932291,
              22.1490299
            ],
            [
              -71.9271002,
              22.1554608
            ],
            [
              -71.935597,
              22.155779
            ],
            [
              -71.9543192,
              22.1602956
            ],
            [
              -71.9917535,
              22.1630989
            ],
            [
              -72,
              22.162441712798493
            ],
            [
              -72,
              22
            ]
          ]
        ]
      }
    }
  ]
}