{
  "type": "FeatureCollection",
  "features": [
    {
      "type": "Feature",
      "properties": {
        "osm_id": -192307,
        "boundary": "administrative",
        "admin_level": 2,
        "parents": null,
        "name": "Greece",
        "local_name": "Ελλάς",
        "name_en": "Greece",
        "all_tags": {
          "flag": "http://upload.wikimedia.org/wikipedia/commons/5/5c/Flag_of_Greece.svg",
          "name": "Ελλάς",
          "name:ab": "Барзентәыла",
          "name:af": "Griekeland",
          "name:am": "ግሪክ",
          "name:an": "Grecia",
          "name:ar": "اليونان",
          "name:ay": "Grisya",
          "name:az": "Yunanıstan",
          "name:ba": "Греция",
          "name:be": "Грэцыя",
          "name:bg": "Гърция",
          "name:bi": "Greece",
          "name:bn": "গ্রিস",
          "name:bo": "ཀེ་རི་སི།",
          "name:br": "Gres",
          "name:bs": "Grčka",
          "name:ca": "Grècia",
          "name:ce": "Греци",
          "name:co": "Grecia",
          "name:cs": "Řecko",
          "name:cu": "Грьци",
          "name:cv": "Греци",
          "name:cy": "Gwlad Groeg",
          "name:da": "Grækenland",
          "name:de": "Griechenland",
          "name:dv": "ޔޫނާން",
          "name:dz": "གྲྀས",
          "name:ee": "Greece",
          "name:el": "Ελλάδα",
          "name:en": "Greece",
          "name:eo": "Grekio",
          "name:es": "Grecia",
          "name:et": "Kreeka",
          "name:eu": "Grezia",
          "name:fa": "یونان",
          "name:fi": "Kreikka",
          "name:fo": "Grikkaland",
          "name:fr": "Grèce",
          "name:fy": "Grikelân",
          "name:ga": "An Ghréig",
          "name:gd": "A' Ghrèig",
          "name:gl": "Grecia",
          "name:gn": "Gyresia",
          "name:gu": "ગ્રીસ",
          "name:gv": "Yn Ghreag",
          "name:he": "יוון",
          "name:hi": "यूनान",
          "name:hr": "Grčka",
          "name:ht": "Grès",
          "name:hu": "Görögország",
          "name:hy": "Հունաստան",
          "name:ia": "Grecia",
          "name:id": "Yunani",
          "name:ie": "Grecia",
          "name:io": "Grekia",
          "name:is": "Grikkland",
          "name:it": "Grecia",
          "name:ja": "ギリシャ",
          "name:jv": "Yunani",
          "name:ka": "საბერძნეთი",
          "name:kg": "Gelesi",
          "name:ki": "Ngiriki",
          "name:kk": "Грекия",
          "name:kl": "Grækerit Nunaat",
          "name:kn": "ಗ್ರೀಸ್",
          "name:ko": "그리스",
          "name:ku": "Yewnanistan",
          "name:kv": "Эллада",
          "name:kw": "Pow Grek",
          "name:ky": "Греция",
          "name:la": "Graecia",
          "name:lb": "Griicheland",
          "name:lg": "Buyonaani",
          "name:li": "Griekeland",
          "name:ln": "Gresi",
          "name:lt": "Graikija",
          "name:lv": "Grieķija",
          "name:mg": "Grisy",
          "name:mi": "Kirihi",
          "name:mk": "Грција",
          "name:ml": "ഗ്രീസ്",
          "name:mn": "Грек",
          "name:mr": "ग्रीस",
          "name:ms": "Greece",
          "name:mt": "Greċja",
          "name:my": "ဂရိနိုင်ငံ",
          "name:na": "Grit",
          "name:ne": "ग्रीस",
          "name:nl": "Griekenland",
          "name:nn": "Hellas",
          "name:no": "Hellas",
          "name:nv": "Gwíík Dineʼé Bikéyah",
          "name:oc": "Grècia",
          "name:or": "ଗ୍ରୀସ",
          "name:os": "Грекъ",
          "name:pa": "ਯੂਨਾਨ",
          "name:pl": "Grecja",
          "name:ps": "يونان",
          "name:pt": "Grécia",
          "name:qu": "Grisya",
          "name:rm": "Grezia",
          "name:rn": "Grecia",
          "name:ro": "Grecia",
          "name:ru": "Греция",
          "name:rw": "Ubugereki",
          "name:sa": "यवनदेशः",
          "name:sc": "Grèghia",
          "name:se": "Greika",
          "name:sh": "Grčka",
          "name:si": "ග්‍රීසිය",
          "name:sk": "Grécko",
          "name:sl": "Grčija",
          "name:sm": "Kuliti",
          "name:so": "Giriig",
          "name:sq": "Greqia",
          "name:sr": "Грчка",
          "name:ss": "IGrikhi",
          "name:su": "Yunani",
          "name:sv": "Grekland",
          "name:sw": "Ugiriki",
          "name:ta": "கிரேக்க நாடு",
          "name:te": "గ్రీస్",
          "name:tg": "Юнон",
          "name:th": "ประเทศกรีซ",
          "name:tk": "Gresiýa",
          "name:tl": "Gresya",
          "name:tr": "Yunanistan",
          "name:tt": "Греция",
          "name:ug": "Grétsiye",
          "name:uk": "Греція",
          "name:ur": "یونان",
          "name:uz": "Yunoniston",
          "name:vi": "Hy Lạp",
          "name:vo": "Grikän",
          "name:wo": "Girees",
          "name:yi": "גריכנלאנד",
          "name:yo": "Gríìsì",
          "name:zh": "希腊",
          "name:zu": "IGreki",
          "alt_name": "Ελλάδα",
          "boundary": "administrative",
          "int_name": "Greece",
          "name:ace": "Yunani",
          "name:als": "Griechenland",
          "name:ang": "Crēcland",
          "name:arc": "ܝܘܢ",
          "name:arz": "اليونان",
          "name:ast": "Grecia",
          "name:bar": "Griachaland",
          "name:bcl": "Gresya",
          "name:bpy": "গ্রীস",
          "name:bxr": "Грек улас",
          "name:cdo": "Hĭ-lé-nà̤",
          "name:ceb": "Gresya",
          "name:chr": "ᎪᎢ",
          "name:ckb": "یۆنان",
          "name:crh": "Yunanistan",
          "name:csb": "Greckô",
          "name:diq": "Yunanıstan",
          "name:dsb": "Grichiska",
          "name:ext": "Grécia",
          "name:frp": "Grèce",
          "name:frr": "Griichenlönj",
          "name:fur": "Grecie",
          "name:gag": "Grețiya",
          "name:gan": "希臘",
          "name:hak": "Hî-lia̍p",
          "name:haw": "Helene",
          "name:hif": "Greece",
          "name:hsb": "Grjekska",
          "name:ilo": "Gresia",
          "name:jbo": "xesygu'e",
          "name:kaa": "Gretsiya",
          "name:kbd": "Алыджей",
          "name:koi": "Эллада",
          "name:krc": "Греция",
          "name:lad": "Gresia",
          "name:lez": "Греция",
          "name:lij": "Greçia",
          "name:lmo": "Grecia",
          "name:ltg": "Grekeja",
          "name:lzh": "希臘共和國",
          "name:mdf": "Грекмастор",
          "name:mhr": "Греций",
          "name:mwl": "Grécia",
          "name:mzn": "یونان",
          "name:nah": "Grecia",
          "name:nan": "Hi-lia̍p",
          "name:nap": "Grecia",
          "name:nds": "Grekenland",
          "name:nov": "Grekia",
          "name:nrm": "Grêce",
          "name:pag": "Gresia",
          "name:pam": "Grekya",
          "name:pcd": "Grèche",
          "name:pih": "Griese",
          "name:pms": "Grecia",
          "name:pnb": "یونان",
          "name:pnt": "Ελλάδα",
          "name:rue": "Ґреція",
          "name:sah": "Греция",
          "name:scn": "Grecia",
          "name:sco": "Greece",
          "name:smn": "Kreikka",
          "name:sms": "Kreikka",
          "name:srn": "Grikikondre",
          "name:stq": "Griechenlound",
          "name:szl": "Grecyjŏ",
          "name:tet": "Grésia",
          "name:tok": "ma Elena",
          "name:tpi": "Gris",
          "name:tzl": "Graicea",
          "name:udm": "Греция",
          "name:vec": "Gresia",
          "name:vep": "Grekanma",
          "name:vls": "Grieknland",
          "name:vro": "Kreeka",
          "name:war": "Gresya",
          "name:wuu": "希腊",
          "name:xal": "Грисин Орн",
          "name:xmf": "საბერძნეთი",
          "name:yue": "希臘",
          "name:zea": "Griek'nland",
          "ref:nuts": "EL",
          "timezone": "Europe/Athens",
          "way_area": "24.7793",
          "wikidata": "Q41",
          "ISO3166-1": "GR",
          "wikipedia": "el:Ελλάδα",
          "admin_level": "2",
          "alt_name:eo": "Grekujo;Helenio;Helenujo",
          "name:nds-nl": "Griekenlaand",
          "name:bat-smg": "Graikėjė",
          "name:roa-rup": "Gârția",
          "name:zh-Hans": "希腊",
          "name:zh-Hant": "希臘",
          "name:roa-tara": "Grecie",
          "official_name": "Ελληνική Δημοκρατία",
          "name:be-tarask": "Грэцыя",
          "ISO3166-1:alpha2": "GR",
          "ISO3166-1:alpha3": "GRC",
          "default_language": "el",
          "official_name:cs": "Řecká republika",
          "official_name:eo": "Helena Respubliko",
          "official_name:fi": "Helleenien tasavalta",
          "official_name:pl": "Republika Grecka",
          "ISO3166-1:numeric": "300",
          "TMC:cid_58:tabcd_1:Class": "Area",
          "TMC:cid_58:tabcd_1:LCLversion": "8.00",
          "TMC:cid_58:tabcd_1:LocationCode": "12"
        }
      },
      "geometry": {
        "type": "Polygon",
        "coordinates": [
          [
            [
              23.8888981,
              34.9393461
            ],
            [
              23.889023,
              34.9354671
            ],
            [
              23.8895382,
              34.9303106
            ],
            [
              23.8904498,
              34.9251908
            ],
            [
              23.8914305,
              34.9212088
            ],
            [
              23.8925923,
              34.9174432
            ],
            [
              23.8945896,
              34.9119398
            ],
            [
              23.8966914,
              34.9070451
            ],
            [
              23.8991161,
              34.9021931
            ],
            [
              23.9017763,
              34.8976821
            ],
            [
              23.9055665,
              34.8922445
            ],
            [
              23.9089567,
              34.8880753
            ],
            [
              23.9159197,
              34.880348
            ],
            [
              23.9209201,
              34.8754132
            ],
            [
              23.9268625,
              34.8704414
            ],
            [
              23.9310842,
              34.8662712
            ],
            [
              23.9366964,
              34.861397
            ],
            [
              23.9364954,
              34.8575129
            ],
            [
              23.9365188,
              34.8536435
            ],
            [
              23.9368962,
              34.8484936
            ],
            [
              23.9374382,
              34.8446493
            ],
            [
              23.9382008,
              34.8408302
            ],
            [
              23.9392158,
              34.8369087
            ],
            [
              23.9408524,
              34.8319493
            ],
            [
              23.9423267,
              34.8282901
            ],
            [
              23.944009,
              34.8246917
            ],
            [
              23.9458956,
              34.8211622
            ],
            [
              23.9479823,
              34.8177092
            ],
            [
              23.9502644,
              34.8143404
            ],
            [
              23.9536026,
              34.8099926
            ],
            [
              23.9581519,
              34.8048962
            ],
            [
              23.9611348,
              34.8007632
            ],
            [
              23.9667398,
              34.7939375
            ],
            [
              23.9711406,
              34.7890172
            ],
            [
              23.9740574,
              34.7860689
            ],
            [
              23.9783073,
              34.7822224
            ],
            [
              23.9828837,
              34.7785738
            ],
            [
              23.9879906,
              34.7749607
            ],
            [
              23.9916814,
              34.7725687
            ],
            [
              24,
              34.767817108162035
            ],
            [
              24,
              35
            ],
            [
              23.921379243267353,
              35
            ],
            [
              23.9200526,
              34.999014
            ],
            [
              23.9150231,
              34.9947406
            ],
            [
              23.9109159,
              34.9908155
            ],
            [
              23.906221,
              34.9856227
            ],
            [
              23.9028347,
              34.9812596
            ],
            [
              23.8997916,
              34.9767297
            ],
            [
              23.8964889,
              34.9708602
            ],
            [
              23.8942605,
              34.9660219
            ],
            [
              23.8924096,
              34.9610775
            ],
            [
              23.8909437,
              34.9560469
            ],
            [
              23.8896614,
              34.9496679
            ],
            [
              23.8890806,
              34.9445171
            ],
            [
              23.8888981,
              34.9393461
            ]
          ]
        ]
      }
    }
  ]
}