{
  "type": "FeatureCollection",
  "features": [
    {
      "type": "Feature",
      "properties": {
        "osm_id": -49715,
        "boundary": "administrative",
        "admin_level": 2,
        "parents": null,
        "name": "Poland",
        "local_name": "Polska",
        "name_en": "Poland",
        "all_tags": {
          "flag": "http://upload.wikimedia.org/wikipedia/commons/1/12/Flag_of_Poland.svg",
          "name": "Polska",
          "name:ab": "Полша",
          "name:af": "Pole",
          "name:ak": "Poland",
          "name:am": "ፖላንድ",
          "name:an": "Polonia",
          "name:ar": "بولندا",
          "name:ay": "Puluña",
          "name:az": "Polşa",
          "name:ba": "Польша",
          "name:be": "Польшча",
          "name:bg": "Полша",
          "name:bi": "Poland",
          "name:bn": "পোল্যান্ড",
          "name:bo": "ཕོ་ལན།",
          "name:br": "Polonia",
          "name:bs": "Poljska",
          "name:ca": "Polònia",
          "name:ce": "Польша",
          "name:co": "Polonia",
          "name:cs": "Polsko",
          "name:cu": "Пол҄ьска",
          "name:cv": "Польша",
          "name:cy": "Gwlad Pwyl",
          "name:da": "Polen",
          "name:de": "Polen",
          "name:dv": "ޕޮލެންޑު",
          "name:ee": "Poland",
          "name:el": "Πολωνία",
          "name:en": "Poland",
          "name:eo": "Pollando",
          "name:es": "Polonia",
          "name:et": "Poola",
          "name:eu": "Polonia",
          "name:fa": "لهستان",
          "name:ff": "Poloonya",
          "name:fi": "Puola",
          "name:fo": "Pólland",
          "name:fr": "Pologne",
          "name:fy": "Poalen",
          "name:ga": "An Pholainn",
          "name:gd": "A' Phòlainn",
          "name:gl": "Polonia",
          "name:gn": "Poloña",
          "name:gu": "પોલેંડ",
          "name:gv": "Yn Pholynn",
          "name:ha": "Poland",
          "name:he": "פולין",
          "name:hi": "पोलैंड",
          "name:hr": "Poljska",
          "name:ht": "Polòy",
          "name:hu": "Lengyelország",
          "name:hy": "Լեհաստան",
          "name:ia": "Polonia",
          "name:id": "Polandia",
          "name:ie": "Polonia",
          "name:ig": "Poland",
          "name:io": "Polonia",
          "name:is": "Pólland",
          "name:it": "Polonia",
          "name:iu": "ᐳᓚᓐᑦ",
          "name:ja": "ポーランド",
          "name:jv": "Polandia",
          "name:ka": "პოლონეთი",
          "name:kg": "Pologne",
          "name:kk": "Польша",
          "name:kl": "Poleni",
          "name:km": "ប្រទេសប៉ូឡូញ",
          "name:kn": "ಪೋಲೆಂಡ್",
          "name:ko": "폴란드",
          "name:ku": "Polonya",
          "name:kv": "Польша",
          "name:kw": "Poloni",
          "name:ky": "Польша",
          "name:la": "Polonia",
          "name:lb": "Polen",
          "name:lg": "Bupoolo",
          "name:li": "Pole",
          "name:ln": "Poloni",
          "name:lt": "Lenkija",
          "name:lv": "Polija",
          "name:mg": "Polonia",
          "name:mi": "Pōrana",
          "name:mk": "Полска",
          "name:ml": "പോളണ്ട്",
          "name:mn": "Польш",
          "name:mr": "पोलंड",
          "name:ms": "Poland",
          "name:mt": "Polonja",
          "name:my": "ပိုလန်နိုင်ငံ",
          "name:na": "Poran",
          "name:ne": "पोल्याण्ड",
          "name:nl": "Polen",
          "name:nn": "Polen",
          "name:no": "Polen",
          "name:nv": "Póolish Dineʼé Bikéyah",
          "name:oc": "Polonha",
          "name:or": "ପୋଲାଣ୍ଡ",
          "name:os": "Польшæ",
          "name:pa": "ਪੋਲੈਂਡ",
          "name:pl": "Polska",
          "name:ps": "پولنډ",
          "name:pt": "Polónia",
          "name:qu": "Pulunya",
          "name:rm": "Pologna",
          "name:rn": "Polonia",
          "name:ro": "Polonia",
          "name:ru": "Польша",
          "name:rw": "Polonye",
          "name:sa": "पोलैंड",
          "name:sc": "Polonia",
          "name:se": "Polska",
          "name:sg": "Pölôni",
          "name:sh": "Poljska",
          "name:si": "පෝලන්තය",
          "name:sk": "Poľsko",
          "name:sl": "Poljska",
          "name:sm": "Polagi",
          "name:so": "Boland",
          "name:sq": "Polonia",
          "name:sr": "Пољска",
          "name:ss": "IPholandi",
          "name:st": "Poland",
          "name:su": "Polandia",
          "name:sv": "Polen",
          "name:sw": "Poland",
          "name:ta": "போலந்து",
          "name:te": "పోలాండ్",
          "name:tg": "Лаҳистон",
          "name:th": "ประเทศโปแลนด์",
          "name:tk": "Polşa",
          "name:tl": "Polonya",
          "name:tr": "Polonya",
          "name:tt": "Польша",
          "name:ug": "پولشا",
          "name:uk": "Польща",
          "name:ur": "پولینڈ",
          "name:uz": "Polsha",
          "name:vi": "Ba Lan",
          "name:vo": "Polän",
          "name:wa": "Pologne",
          "name:wo": "Poloñ",
          "name:yi": "פוילן",
          "name:yo": "Polandi",
          "name:zh": "波兰",
          "name:zu": "IPolandi",
          "boundary": "administrative",
          "currency": "PLN",
          "int_name": "Polska",
          "name:ace": "Polandia",
          "name:als": "Polen",
          "name:ang": "Polaland",
          "name:arc": "ܦܘܠܢܕ",
          "name:arz": "بولاندا",
          "name:ast": "Polonia",
          "name:bar": "Poin",
          "name:bcl": "Polonya",
          "name:bpy": "পোল্যান্ড",
          "name:bxr": "Польш",
          "name:cdo": "Pŏ̤-làng",
          "name:ceb": "Polonya",
          "name:chr": "ᏉᎳᏂ",
          "name:chy": "Poland",
          "name:ckb": "پۆڵەندا",
          "name:crh": "Lehistan",
          "name:csb": "Pòlskô",
          "name:diq": "Polonya",
          "name:dsb": "Pólska",
          "name:eml": "Pulógna",
          "name:ext": "Poloña",
          "name:frp": "Pologne",
          "name:frr": "Poolen",
          "name:fur": "Polonie",
          "name:gag": "Polşa",
          "name:gan": "波蘭",
          "name:hak": "Pô-làn",
          "name:haw": "Pōlani",
          "name:hif": "Poland",
          "name:hsb": "Pólska",
          "name:ilo": "Polonia",
          "name:jbo": "polskas",
          "name:kaa": "Polsha",
          "name:kbd": "Лахь жылэ",
          "name:koi": "Польска",
          "name:krc": "Польша",
          "name:lad": "Polonia",
          "name:lez": "Польша",
          "name:lij": "Polonia",
          "name:lmo": "Pulònia",
          "name:ltg": "Puoleja",
          "name:lzh": "波蘭",
          "name:mdf": "Полень мастор",
          "name:mhr": "Польшо",
          "name:mrj": "Польша",
          "name:mwl": "Polónia",
          "name:mzn": "لهستون",
          "name:nah": "Polonia",
          "name:nan": "Polska",
          "name:nap": "Pulonnia",
          "name:nds": "Polen",
          "name:nov": "Polonia",
          "name:nrm": "Polongne",
          "name:pam": "Polonya",
          "name:pap": "Polonia",
          "name:pcd": "Polonne",
          "name:pdc": "Polen",
          "name:pfl": "Pole",
          "name:pih": "Poeland",
          "name:pms": "Polònia",
          "name:pnb": "پولینڈ",
          "name:pnt": "Πολωνία",
          "name:rmy": "Polska",
          "name:rue": "Польско",
          "name:sah": "Польша",
          "name:scn": "Pulonia",
          "name:sco": "Poland",
          "name:smn": "Puola",
          "name:sms": "Puola",
          "name:stq": "Polen",
          "name:szl": "Polska",
          "name:tet": "Polónia",
          "name:tok": "ma Posuka",
          "name:tpi": "Polan",
          "name:tzl": "Polognh",
          "name:udm": "Польша",
          "name:vec": "Połonia",
          "name:vep": "Pol'šanma",
          "name:vls": "Pooln",
          "name:vro": "Poola",
          "name:war": "Polonya",
          "name:wuu": "波兰",
          "name:xal": "Польшин Орн",
          "name:xmf": "პოლონეთი",
          "name:yue": "波蘭",
          "name:zea": "Poôl'n",
          "timezone": "Europe/Warsaw",
          "way_area": "42.4413",
          "wikidata": "Q36",
          "ISO3166-1": "PL",
          "wikipedia": "pl:Polska",
          "short_name": "RP",
          "teryt:terc": "1",
          "admin_level": "2",
          "alt_name:ar": "بولونيا",
          "alt_name:eo": "Polio;Polujo",
          "name:dative": "Polsce",
          "name:nds-nl": "Pooln",
          "long_name:ar": "Rzeczpospolita Polska",
          "name:bat-smg": "Lėnkėjė",
          "name:map-bms": "Polandia",
          "name:roa-tara": "Pulonie",
          "official_name": "Rzeczpospolita Polska",
          "short_name:be": "РП",
          "name:be-tarask": "Польшча",
          "ISO3166-1:alpha2": "PL",
          "ISO3166-1:alpha3": "POL",
          "default_language": "pl",
          "official_name:ar": "الجمهورية البولندية",
          "official_name:be": "Рэспубліка Польшча",
          "official_name:cs": "Polská republika",
          "official_name:de": "Republik Polen",
          "official_name:el": "Δημοκρατία της Πολωνίας",
          "official_name:en": "Republic of Poland",
          "official_name:eo": "Pola Respubliko",
          "official_name:es": "República de Polonia",
          "official_name:fi": "Puolan tasavalta",
          "official_name:fr": "République de Pologne",
          "official_name:pl": "Rzeczpospolita Polska",
          "official_name:ru": "Республика Польша",
          "official_name:sr": "Република Пољска",
          "ISO3166-1:numeric": "616",
          "daytime_headlight": "yes",
          "official_name:be-tarask": "Рэспубліка Польшча",
          "TMC:cid_58:tabcd_1:Class": "Area",
          "TMC:cid_58:tabcd_1:LCLversion": "8.00",
          "TMC:cid_58:tabcd_1:LocationCode": "8"
        }
      },
      "geometry": {
        "type": "Polygon",
        "coordinates": [
          [
            [
              23,
              49.847099749750875
            ],
            [
              23.007374,
              49.8551533
            ],
            [
              23.0332796,
              49.8813506
            ],
            [
              23.0652278,
              49.908373
            ],
            [
              23.0885044,
              49.9248503
            ],
            [
              23.107489,
              49.9419599
            ],
            [
              23.1149238,
              49.9565395
            ],
            [
              23.1426354,
              49.9712214
            ],
            [
              23.1730683,
              49.9971437
            ],
            [
              23.17651541977153,
              50
            ],
            [
              23,
              50
            ],
            [
              23,
              49.847099749750875
            ]
          ]
        ]
      }
    },
    {
      "type": "Feature",
      "properties": {
        "osm_id": -60199,
        "boundary": "administrative",
        "admin_level": 2,
        "parents": null,
        "name": "Ukraine",
        "local_name": "Україна",
        "name_en": "Ukraine",
        "all_tags": {
          "flag": "http://upload.wikimedia.org/wikipedia/commons/4/49/Flag_of_Ukraine.svg",
          "name": "Україна",
          "name:ab": "Украина",
          "name:af": "Oekraïne",
          "name:am": "ዩክሬን",
          "name:an": "Ucraína",
          "name:ar": "أوكرانيا",
          "name:az": "Ukrayna",
          "name:ba": "Украина",
          "name:be": "Украіна",
          "name:bg": "Украйна",
          "name:bi": "Ukraine",
          "name:bn": "ইউক্রেন",
          "name:bo": "ཨུཀ་རཡི་ནི།",
          "name:br": "Ukraina",
          "name:bs": "Ukrajina",
          "name:ca": "Ucraïna",
          "name:ce": "Украина",
          "name:cs": "Ukrajina",
          "name:cu": "Оукраина",
          "name:cv": "Украина",
          "name:cy": "Wcráin",
          "name:da": "Ukraine",
          "name:de": "Ukraine",
          "name:dv": "ޔުކްރެއިން",
          "name:ee": "Ukraine",
          "name:el": "Ουκρανία",
          "name:en": "Ukraine",
          "name:eo": "Ukrainio",
          "name:es": "Ucrania",
          "name:et": "Ukraina",
          "name:eu": "Ukraina",
          "name:fa": "اوکراین",
          "name:fi": "Ukraina",
          "name:fo": "Ukraina",
          "name:fr": "Ukraine",
          "name:fy": "Oekraïne",
          "name:ga": "An Úcráin",
          "name:gd": "An Ucràin",
          "name:gl": "Ucraína",
          "name:gn": "Ukyaña",
          "name:gu": "યુક્રેન",
          "name:gv": "Yn Ookraan",
          "name:he": "אוקראינה",
          "name:hi": "युक्रेन",
          "name:hr": "Ukrajina",
          "name:ht": "Ikrèn",
          "name:hu": "Ukrajna",
          "name:hy": "Ուկրաինա",
          "name:ia": "Ukraina",
          "name:id": "Ukraina",
          "name:ie": "Ucraina",
          "name:ig": "Yukrain",
          "name:io": "Ukrainia",
          "name:is": "Úkraína",
          "name:it": "Ucraina",
          "name:ja": "ウクライナ",
          "name:jv": "Ukraina",
          "name:ka": "უკრაინა",
          "name:kg": "Ukrayina",
          "name:kk": "Украина",
          "name:kl": "Ukraine",
          "name:km": "អ៊ុយក្រែន",
          "name:kn": "ಯುಕ್ರೇನ್",
          "name:ko": "우크라이나",
          "name:ku": "Ûkrayna",
          "name:kv": "Украина",
          "name:kw": "Ukrayn",
          "name:ky": "Украина",
          "name:la": "Ucraina",
          "name:lb": "Ukrain",
          "name:li": "Oekraïne",
          "name:ln": "Ukraine",
          "name:lt": "Ukraina",
          "name:lv": "Ukraina",
          "name:mg": "Okraina",
          "name:mi": "Ūkareinga",
          "name:mk": "Украина",
          "name:ml": "ഉക്രൈൻ",
          "name:mn": "Украйн",
          "name:mr": "युक्रेन",
          "name:ms": "Ukraine",
          "name:mt": "Ukrajna",
          "name:my": "ယူကရိန်းနိုင်ငံ",
          "name:na": "Ukraine",
          "name:ne": "युक्रेन",
          "name:nl": "Oekraïne",
          "name:nn": "Ukraina",
          "name:no": "Ukraina",
          "name:nv": "Yóókwein",
          "name:oc": "Ucraïna",
          "name:or": "ୟୁକ୍ରେନ",
          "name:os": "Украинæ",
          "name:pa": "ਯੂਕ੍ਰੇਨ",
          "name:pl": "Ukraina",
          "name:ps": "اوکراین",
          "name:pt": "Ucrânia",
          "name:qu": "Ukranya",
          "name:rm": "Ucraina",
          "name:ro": "Ucraina",
          "name:ru": "Украина",
          "name:rw": "Ikerene",
          "name:sc": "Ucraina",
          "name:se": "Ukraina",
          "name:sh": "Ukrajina",
          "name:sk": "Ukrajina",
          "name:sl": "Ukrajina",
          "name:sm": "Ukraine",
          "name:sn": "Ukraine",
          "name:so": "Ukrain",
          "name:sq": "Ukraina",
          "name:sr": "Украјина",
          "name:ss": "IYukhureni",
          "name:su": "Ukraina",
          "name:sv": "Ukraina",
          "name:sw": "Ukraine",
          "name:ta": "உக்ரைன்",
          "name:te": "ఉక్రెయిన్",
          "name:tg": "Украйина",
          "name:th": "ประเทศยูเครน",
          "name:tk": "Ukraina",
          "name:tl": "Ukranya",
          "name:tr": "Ukrayna",
          "name:ts": "Ukraine",
          "name:tt": "Украина",
          "name:tw": "Ukraine",
          "name:ug": "ئۇكرائىنا",
          "name:uk": "Україна",
          "name:ur": "یوکرین",
          "name:uz": "Ukraina",
          "name:vi": "Ukraina",
          "name:vo": "Lukrayän",
          "name:wa": "Oucrinne",
          "name:wo": "Ukreen",
          "name:yi": "אוקראינע",
          "name:yo": "Ukréìn",
          "name:zh": "乌克兰/烏克蘭",
          "boundary": "administrative",
          "int_name": "Ukraine",
          "name:ace": "Ukraina",
          "name:als": "Ukraine",
          "name:ang": "Ucrægna",
          "name:arc": "ܐܘܩܪܐܝܢܐ",
          "name:arz": "اوكرانيا",
          "name:ast": "Ucraína",
          "name:bar": "Ukraine",
          "name:bcl": "Ukranya",
          "name:bpy": "ইউক্রেন",
          "name:bxr": "Украина",
          "name:cdo": "Ŭ-káik-làng",
          "name:ceb": "Ukranya",
          "name:chr": "ᏳᎧᏪᏂ",
          "name:chy": "Ukraine",
          "name:ckb": "ئوکراینا",
          "name:crh": "Ukraina",
          "name:csb": "Ùkrajina",
          "name:diq": "Ukrayna",
          "name:dsb": "Ukraina",
          "name:ext": "Ucránia",
          "name:frp": "Ucrayena",
          "name:frr": "Ukraine",
          "name:gag": "Ukrayna",
          "name:gan": "烏克蘭",
          "name:hak": "Vû-khiet-làn",
          "name:haw": "ʻUkelena",
          "name:hif": "Ukraine",
          "name:hsb": "Ukraina",
          "name:ilo": "Ukrania",
          "name:jbo": "vurgu'e",
          "name:kaa": "Ukraina",
          "name:kab": "Ukrayin",
          "name:kbd": "Украинэ",
          "name:koi": "Украина",
          "name:krc": "Украина",
          "name:lad": "Ukraina",
          "name:lez": "Украина",
          "name:lij": "Ucrainn-a",
          "name:lmo": "Ücraina",
          "name:ltg": "Ukraina",
          "name:lzh": "烏克蘭",
          "name:mdf": "Украин",
          "name:mhr": "Украина",
          "name:mwl": "Oucránia",
          "name:myv": "Украина",
          "name:mzn": "اوکراین",
          "name:nah": "Ucrania",
          "name:nan": "Ukrayina",
          "name:nap": "Ucraina",
          "name:nds": "Ukraine",
          "name:new": "युक्रेन",
          "name:nov": "Ukraina",
          "name:nrm": "Ukraîne",
          "name:pam": "Ukranya",
          "name:pap": "Ukrania",
          "name:pcd": "Oucrinne",
          "name:pih": "Yukrayn",
          "name:pms": "Ucrain-a",
          "name:pnb": "یوکرین",
          "name:pnt": "Ουκρανία",
          "name:rmy": "Ukraina",
          "name:rue": "Україна",
          "name:sah": "Украина",
          "name:scn": "Ucraina",
          "name:sco": "Ukraine",
          "name:smn": "Ukraina",
          "name:sms": "Ukraina",
          "name:stq": "Ukraine",
          "name:szl": "Ukrajina",
          "name:tok": "ma Ukawina",
          "name:tpi": "Yukren",
          "name:tum": "Ukraine",
          "name:tzl": "Ucraína",
          "name:udm": "Украина",
          "name:vec": "Ucraina",
          "name:vep": "Ukrain",
          "name:vls": "Oekraïne",
          "name:vro": "Ukraina",
          "name:war": "Ukranya",
          "name:xal": "Украинмудин Орн",
          "name:xmf": "უკრაინა",
          "name:yue": "烏克蘭",
          "name:zea": "Oekraïne",
          "way_area": "78.4038",
          "wikidata": "Q212",
          "ISO3166-1": "UA",
          "wikipedia": "en:uk:Україна",
          "admin_level": "2",
          "alt_name:eo": "Ukrainujo",
          "alt_name:vi": "Uy Kiên",
          "name:nds-nl": "Oekraïne",
          "old_name:vi": "Ô Khắc Lan",
          "name:bat-smg": "Okraėna",
          "name:cbk-zam": "Ukrania",
          "name:zh-Hans": "乌克兰",
          "name:zh-Hant": "烏克蘭",
          "name:roa-tara": "Ucraine",
          "official_name": "Україна",
          "name:be-tarask": "Украіна",
          "according_to:RU": "no",
          "according_to:UA": "yes",
          "ISO3166-1:alpha2": "UA",
          "ISO3166-1:alpha3": "UKR",
          "default_language": "uk",
          "ISO3166-1:numeric": "804"
        }
      },
      "geometry": {
        "type": "Polygon",
        "coordinates": [
          [
            [
              23,
              49
            ],
            [
              24,
              49
            ],
            [
              24,
              50
            ],
            [
              23.17651541977153,
              50
            ],
            [
              23.1730683,
              49.9971437
            ],
            [
              23.1426354,
              49.9712214
            ],
            [
              23.1149238,
              49.9565395
            ],
            [
              23.107489,
              49.9419599
            ],
            [
              23.0885044,
              49.9248503
            ],
            [
              23.0652278,
              49.908373
            ],
            [
              23.0332796,
              49.8813506
            ],
            [
              23.007374,
              49.8551533
            ],
            [
              23,
              49.847099749750875
            ],
            [
              23,
              49
            ]
          ]
        ]
      }
    }
  ]
}