{
  "type": "FeatureCollection",
  "features": [
    {
      "type": "Feature",
      "properties": {
        "osm_id": -192790,
        "boundary": "administrative",
        "admin_level": 2,
        "parents": null,
        "name": "Central African Republic",
        "local_name": "Centrafrique",
        "name_en": "Central African Republic",
        "all_tags": {
          "flag": "http://upload.wikimedia.org/wikipedia/commons/6/6f/Flag_of_the_Central_African_Republic.svg",
          "name": "Centrafrique",
          "name:af": "Sentraal-Afrikaanse Republiek",
          "name:am": "የመካከለኛው አፍሪካ ሪፐብሊክ",
          "name:an": "Republica Centroafricana",
          "name:ar": "جمهورية أفريقيا الوسطى",
          "name:az": "Mərkəzi Afrika Respublikası",
          "name:be": "Цэнтральна-Афрыканская Рэспубліка",
          "name:bg": "Централноафриканска република",
          "name:bm": "Cema Afrika Fasojamana",
          "name:bn": "মধ্য আফ্রিকান প্রজাতন্ত্র",
          "name:bo": "དབུས་ཨ་ཧྥེ་རི་ཁན་རི་པཔ་ལིཀ།",
          "name:br": "Republik Kreizafrikan",
          "name:bs": "Centralnoafrička Republika",
          "name:ca": "República Centreafricana",
          "name:ce": "Юккъерчу Африкин Республика",
          "name:cs": "Středoafrická republika",
          "name:cy": "Gweriniaeth Canolbarth Affrica",
          "name:da": "Centralafrikanske Republik",
          "name:de": "Zentralafrikanische Republik",
          "name:dv": "މެދުތެރޭ އެފްރިކާގެ ޖުމްހޫރިއްޔާ",
          "name:ee": "Central African Republic",
          "name:el": "Κεντροαφρικανική Δημοκρατία",
          "name:en": "Central African Republic",
          "name:eo": "Centr-Afriko",
          "name:es": "República Centroafricana",
          "name:et": "Kesk-Aafrika Vabariik",
          "name:eu": "Afrika Erdiko Errepublika",
          "name:fa": "جمهوری آفریقای مرکزی",
          "name:fi": "Keski-Afrikan tasavalta",
          "name:fo": "Miðafrikalýðveldið",
          "name:fr": "Centrafrique",
          "name:fy": "Sintraal-Afrikaanske Republyk",
          "name:ga": "Poblacht na hAfraice Láir",
          "name:gd": "Poblachd Meadhan Afraga",
          "name:gl": "República Centroafricana",
          "name:gn": "Tavakuairetã Mbyteafrikagua",
          "name:gv": "Pobblaght yn Affrick Veanagh",
          "name:he": "הרפובליקה המרכז-אפריקאית",
          "name:hi": "मध्य अफ़्रीकी गणराज्य",
          "name:hr": "Srednjoafrička Republika",
          "name:ht": "Repiblik santafrik",
          "name:hu": "Közép-afrikai Köztársaság",
          "name:hy": "Կենտրոնաաֆրիկյան Հանրապետություն",
          "name:ia": "Republica Centroafrican",
          "name:id": "Republik Afrika Tengah",
          "name:ie": "Central African Republic",
          "name:io": "Centrafrika",
          "name:is": "Mið-Afríkulýðveldið",
          "name:it": "Repubblica Centrafricana",
          "name:ja": "中央アフリカ共和国",
          "name:jv": "Republik Afrika Tengah",
          "name:ka": "ცენტრალური აფრიკის რესპუბლიკა",
          "name:kg": "Repubilika ya Afelika ya Kati",
          "name:kk": "Орталық Африка Республикасы",
          "name:kn": "ಮಧ್ಯ ಆಫ್ರಿಕಾದ ಗಣರಾಜ್ಯ",
          "name:ko": "중앙아프리카 공화국",
          "name:ks": "مرکٔزی اَفریٖکی جموٗریَت",
          "name:ku": "Komara Afrîkaya Navend",
          "name:kw": "Centrafrika",
          "name:la": "Respublica Africae Mediae",
          "name:lb": "Zentralafrikanesch Republik",
          "name:li": "Centraal Afrika",
          "name:ln": "Santrafríka",
          "name:lt": "Centrinės Afrikos Respublika",
          "name:lv": "Centrālāfrikas Republika",
          "name:mi": "Te Puku o Āwherika",
          "name:mk": "Централноафриканска Република",
          "name:ml": "മദ്ധ്യ ആഫ്രിക്കൻ റിപ്പബ്ലിക്ക്",
          "name:mr": "मध्य आफ्रिकेचे प्रजासत्ताक",
          "name:ms": "Republik Afrika Tengah",
          "name:mt": "Repubblika Ċentru-Afrikana",
          "name:my": "ဗဟိုအာဖရိကသမ္မတနိုင်ငံ",
          "name:na": "Ripubrikin Aprika Yugaga",
          "name:ne": "मध्य अफ्रिकी गणतन्त्र",
          "name:nl": "Centraal-Afrikaanse Republiek",
          "name:nn": "Den sentralafrikanske republikken",
          "name:no": "Den sentralafrikanske republikk",
          "name:nv": "Naakaii Łizhinii Bikéyah Beʼałnííʼ",
          "name:oc": "Centreafrica",
          "name:or": "ସେଣ୍ଟରାଲ ଆଫ୍ରିକାନ ରିପବ୍ଲିକ",
          "name:os": "Централон Африкæйы Республикæ",
          "name:pa": "ਮੱਧ ਅਫ਼ਰੀਕੀ ਗਣਰਾਜ",
          "name:pl": "Republika Środkowoafrykańska",
          "name:ps": "د منځنی افريقا ولسمشريزه",
          "name:pt": "República Centro-Africana",
          "name:qu": "Chawpi Aphrika Republika",
          "name:ro": "Republica Centrafricană",
          "name:ru": "Центральноафриканская Республика",
          "name:rw": "Repubulika ya Santara Afurika",
          "name:sa": "केन्द्रीय अफ्रीका गणराज्यम्",
          "name:sc": "Tzentràfrica",
          "name:se": "Gaska-Afrihká dásseváldi",
          "name:sg": "Ködörösêse tî Bêafrîka",
          "name:sh": "Srednjoafrička Republika",
          "name:sk": "Stredoafrická republika",
          "name:sl": "Srednjeafriška republika",
          "name:sn": "Central African Republic",
          "name:so": "Jamhuuriyadda Bartamaha Afrika",
          "name:sq": "Republika e Afrikës Qendrore",
          "name:sr": "Централноафричка Република",
          "name:ss": "Umkhatsi we-Afrikha",
          "name:su": "Républik Afrika Tengah",
          "name:sv": "Centralafrikanska republiken",
          "name:sw": "Jamhuri ya Afrika ya Kati",
          "name:ta": "மத்திய ஆப்பிரிக்கக் குடியரசு",
          "name:te": "సెంట్రల్ ఆఫ్రికన్ రిపబ్లిక్",
          "name:tg": "Ҷумҳурии Африқои Марказӣ",
          "name:th": "สาธารณรัฐแอฟริกากลาง",
          "name:tk": "Merkezi Afrika Respublikasy",
          "name:tl": "Republika ng Gitnang Aprika",
          "name:tr": "Orta Afrika Cumhuriyeti",
          "name:ts": "Afrika Wale Xikarhi",
          "name:tt": "Үзәк Африка Җөмһүрияте",
          "name:ug": "ئوتتۇرا ئافرىقا جۇمھۇرىيىتى",
          "name:uk": "Центральноафриканська Республіка",
          "name:ur": "وسطی افریقی جمہوریہ",
          "name:uz": "Markaziy Afrika Respublikasi",
          "name:vi": "Cộng hòa Trung Phi",
          "name:vo": "Zänoda-Frikop",
          "name:wo": "Réewum Diggu Afrig",
          "name:yo": "Orílẹ̀-èdè Olómìnira Àrin Áfríkà",
          "name:zh": "中非共和國",
          "name:zu": "Central African Republic",
          "alt_name": "République centrafricaine",
          "boundary": "administrative",
          "currency": "XAF",
          "name:ace": "Republik Afrika Teungoh",
          "name:als": "Zentralafrikanische Republik",
          "name:ang": "Middel Affricanisc Cynewīse",
          "name:arc": "ܩܘܛܢܝܘܬܐ ܕܐܦܪܝܩܐ ܡܨܥܝܬܐ",
          "name:arz": "افريقيا الوسطى",
          "name:ast": "República Centroafricana",
          "name:azb": "اوْرتا آفریقا جومهوریتی",
          "name:bcl": "Sentral na Aprikanong Republika",
          "name:bjn": "Ripublik Aprika Tangah",
          "name:bpy": "মধ্য আফ্রিকা",
          "name:bxr": "Түб Африкын Улас",
          "name:ceb": "Republikang Sentral Aprikano",
          "name:ckb": "کۆماری ئەفریقای ناوەڕاست",
          "name:crh": "Merkeziy Afrika",
          "name:din": "Paankɔc Ciɛl de Apirïka",
          "name:diq": "Cumhuriyetê Afrikaya Miyanêne",
          "name:dsb": "Centralnoafriska republika",
          "name:ext": "Repúbrica Centroafricana",
          "name:frp": "Rèpublica centrafriquêna",
          "name:gag": "Merkez Afrika Respublikası",
          "name:grc": "Λιβύη Μεσημβρινή",
          "name:hif": "Central African Republic",
          "name:hsb": "Centralnoafriska republika",
          "name:ilo": "Republika ti Tengnga nga Aprika",
          "name:kaa": "Oraylıq Afrika Respublikası",
          "name:kmr": "کۆمارائا فریکایا ناڤەند",
          "name:lad": "Repuvlika Sentroafrikana",
          "name:lij": "Repubbrica Çentro-Africann-a",
          "name:lmo": "Repüblica Centrafricana",
          "name:lrc": "کومرٱ ڤلات آفریقا میٛنجایی",
          "name:lzh": "中非",
          "name:nah": "Tlācatlahtohcāyōtl Tlahco Africa",
          "name:nan": "Tiong-hui Kiōng-hô-kok",
          "name:nds": "Zentraalafrikaansche Republiek",
          "name:nov": "Sentral Afrikani Republike",
          "name:nso": "Central African Republic",
          "name:pam": "Republika ning Central Aprika",
          "name:pih": "Sentril Afrekan Repablik",
          "name:pms": "Repùblica Sentrafrican-a",
          "name:pnb": "مڈلا افریقی لوک راج",
          "name:rue": "Середнёафрицька републіка",
          "name:sah": "Киин Африка Республиката",
          "name:scn": "Ripubblica Centrafricana",
          "name:sco": "Central African Republic",
          "name:smn": "Koskâ-Afrik täsiväldi",
          "name:sms": "Kõskk-Afriikk tääʹssväʹldd",
          "name:stq": "Zentroalafrikoanske Republik",
          "name:syc": "ܩܘܛܢܝܘܬܐ ܕܐܦܪܝܩܐ ܡܨܥܝܬܐ",
          "name:szl": "Strzodkowoafrikańsko Republika",
          "name:vec": "Republica Sentrafricana",
          "name:vls": "Centraal-Afrikoansche Republiek",
          "name:vro": "Kesk-Afriga Vabariik",
          "name:war": "Republika han Butnga nga Aprika",
          "name:xal": "Өр Априкин Орн",
          "name:yue": "中非共和國",
          "timezone": "Africa/Bangui",
          "way_area": "50.6014",
          "wikidata": "Q929",
          "ISO3166-1": "CF",
          "wikipedia": "fr:République centrafricaine",
          "admin_level": "2",
          "alt_name:ar": "جمهورية إفريقيا الوسطى",
          "alt_name:fr": "République centrafricaine",
          "alt_name:pt": "República da África Central",
          "alt_name:sl": "Centralnoafriška republika",
          "alt_name:ckb": "کۆماری ئەفریقای ناوەندی",
          "name:bat-smg": "Cėntrėnės Afrėkas Respoblėka",
          "name:kk-Arab": "ورتالىق افرىيكا رەسپۋبلىيكاسى",
          "name:ku-Arab": "کۆمارائا فریکایا ناڤەند",
          "official_name": "République centrafricaine",
          "name:be-tarask": "Цэнтральна-Афрыканская Рэспубліка",
          "ISO3166-1:alpha2": "CF",
          "ISO3166-1:alpha3": "CAF",
          "official_name:af": "Sentraal-Afrikaanse Republiek",
          "official_name:ar": "جمهورية أفريقيا الوسطى",
          "official_name:be": "Цэнтральна-Афрыканская Рэспубліка",
          "official_name:de": "Zentralafrikanische Republik",
          "official_name:en": "Republic of Centroafricana",
          "official_name:eo": "Centr-Afrika Respubliko",
          "official_name:es": "Republica Centroafricana",
          "official_name:fa": "جمهوری آفریقای مرکزی",
          "official_name:fr": "République centrafricaine",
          "official_name:ks": "مرکٔزی اَفریٖکی جموٗریَت",
          "official_name:mk": "Централноафриканска Република",
          "official_name:nl": "Centraal-Afrikaanse Republiek",
          "official_name:pa": "ਮੱਧ ਅਫਰੀਕੀ ਗਣਰਾਜ",
          "official_name:ps": "د منځنۍ افریقا ولسمشریزه",
          "official_name:sr": "Централноафричка Република",
          "official_name:ug": "ئوتتۇرا ئافرىقا جۇمھۇرىيىتى",
          "official_name:ur": "وسطی افریقی جمہوریہ",
          "ISO3166-1:numeric": "140",
          "official_name:arc": "ܩܘܛܢܝܘܬܐ ܕܐܦܪܝܩܐ ܡܨܥܝܬܐ",
          "official_name:azb": "اوْرتا آفریقا جومهوریتی",
          "official_name:lrc": "کومرٱ ڤلات آفریقا میٛنجایی",
          "official_name:pnb": "وچکارلا افریقی لوک راج",
          "official_name:syc": "ܩܘܛܢܝܘܬܐ ܕܐܦܪܝܩܐ ܡܨܥܝܬܐ",
          "official_name:kk-Arab": "ورتالىق افرىيكا رەسپۋبلىيكاسى",
          "official_name:be-tarask": "Цэнтральна-Афрыканская Рэспубліка"
        }
      },
      "geometry": {
        "type": "MultiPolygon",
        "coordinates": [
          [
            [
              [
                23,
                9
              ],
              [
                23.4549442,
                9
              ],
              [
                23.454722,
                9.001111
              ],
              [
                23.454722,
                9.007222
              ],
              [
                23.448056,
                9.014722
              ],
              [
                23.447778,
                9.019444
              ],
              [
                23.448889,
                9.025556
              ],
              [
                23.450833,
                9.031111
              ],
              [
                23.453056,
                9.035833
              ],
              [
                23.460556,
                9.049722
              ],
              [
                23.461667,
                9.055833
              ],
              [
                23.462222,
                9.062778
              ],
              [
                23.461944,
                9.068889
              ],
              [
                23.462222,
                9.075833
              ],
              [
                23.463611,
                9.081944
              ],
              [
                23.465278,
                9.087222
              ],
              [
                23.467778,
                9.091944
              ],
              [
                23.468333,
                9.098889
              ],
              [
                23.468611,
                9.105556
              ],
              [
                23.469722,
                9.111667
              ],
              [
                23.470278,
                9.118611
              ],
              [
                23.471389,
                9.124722
              ],
              [
                23.475,
                9.135556
              ],
              [
                23.476944,
                9.140833
              ],
              [
                23.479167,
                9.145556
              ],
              [
                23.482222,
                9.149444
              ],
              [
                23.485556,
                9.153333
              ],
              [
                23.487778,
                9.158056
              ],
              [
                23.490278,
                9.162778
              ],
              [
                23.491389,
                9.168889
              ],
              [
                23.493333,
                9.174167
              ],
              [
                23.496944,
                9.1775
              ],
              [
                23.501389,
                9.179722
              ],
              [
                23.5125,
                9.181944
              ],
              [
                23.519444,
                9.181389
              ],
              [
                23.525833,
                9.180278
              ],
              [
                23.532778,
                9.179722
              ],
              [
                23.545278,
                9.180278
              ],
              [
                23.551667,
                9.180278
              ],
              [
                23.556667,
                9.182222
              ],
              [
                23.561111,
                9.184444
              ],
              [
                23.564722,
                9.187778
              ],
              [
                23.569167,
                9.190278
              ],
              [
                23.572778,
                9.193333
              ],
              [
                23.578889,
                9.201111
              ],
              [
                23.582778,
                9.205
              ],
              [
                23.585,
                9.208333
              ],
              [
                23.588056,
                9.212222
              ],
              [
                23.606944,
                9.228333
              ],
              [
                23.618889,
                9.251389
              ],
              [
                23.621944,
                9.255556
              ],
              [
                23.629444,
                9.261667
              ],
              [
                23.6425,
                9.269167
              ],
              [
                23.646389,
                9.272222
              ],
              [
                23.65,
                9.275556
              ],
              [
                23.6525,
                9.28
              ],
              [
                23.653056,
                9.286944
              ],
              [
                23.651389,
                9.291944
              ],
              [
                23.649444,
                9.296944
              ],
              [
                23.646944,
                9.301111
              ],
              [
                23.641944,
                9.316111
              ],
              [
                23.64,
                9.321111
              ],
              [
                23.639167,
                9.326667
              ],
              [
                23.638889,
                9.332778
              ],
              [
                23.639444,
                9.339722
              ],
              [
                23.640556,
                9.345833
              ],
              [
                23.645278,
                9.355
              ],
              [
                23.647222,
                9.360556
              ],
              [
                23.649722,
                9.365278
              ],
              [
                23.651389,
                9.370556
              ],
              [
                23.653889,
                9.375278
              ],
              [
                23.655556,
                9.380556
              ],
              [
                23.6575,
                9.385833
              ],
              [
                23.658611,
                9.392222
              ],
              [
                23.660278,
                9.3975
              ],
              [
                23.660833,
                9.404444
              ],
              [
                23.662778,
                9.409722
              ],
              [
                23.663889,
                9.415833
              ],
              [
                23.664444,
                9.422778
              ],
              [
                23.665556,
                9.428889
              ],
              [
                23.666111,
                9.435833
              ],
              [
                23.665,
                9.441389
              ],
              [
                23.661111,
                9.444444
              ],
              [
                23.655556,
                9.444722
              ],
              [
                23.651111,
                9.442222
              ],
              [
                23.646667,
                9.439167
              ],
              [
                23.641111,
                9.438333
              ],
              [
                23.636389,
                9.440556
              ],
              [
                23.633889,
                9.445
              ],
              [
                23.631944,
                9.449722
              ],
              [
                23.633611,
                9.470556
              ],
              [
                23.636944,
                9.488889
              ],
              [
                23.638056,
                9.5025
              ],
              [
                23.637778,
                9.508889
              ],
              [
                23.636667,
                9.514444
              ],
              [
                23.635,
                9.519444
              ],
              [
                23.631944,
                9.523056
              ],
              [
                23.627778,
                9.526111
              ],
              [
                23.624722,
                9.529722
              ],
              [
                23.623611,
                9.535278
              ],
              [
                23.624722,
                9.541389
              ],
              [
                23.626667,
                9.546944
              ],
              [
                23.629722,
                9.550833
              ],
              [
                23.632222,
                9.555278
              ],
              [
                23.635278,
                9.559444
              ],
              [
                23.6375,
                9.563889
              ],
              [
                23.65,
                9.579722
              ],
              [
                23.6525,
                9.584444
              ],
              [
                23.655556,
                9.588889
              ],
              [
                23.658056,
                9.593611
              ],
              [
                23.660278,
                9.598333
              ],
              [
                23.662778,
                9.602778
              ],
              [
                23.664722,
                9.608333
              ],
              [
                23.667222,
                9.613056
              ],
              [
                23.668889,
                9.618333
              ],
              [
                23.673889,
                9.627778
              ],
              [
                23.675556,
                9.633056
              ],
              [
                23.680556,
                9.642222
              ],
              [
                23.682222,
                9.647778
              ],
              [
                23.684722,
                9.6525
              ],
              [
                23.687778,
                9.656389
              ],
              [
                23.690278,
                9.661111
              ],
              [
                23.693333,
                9.664722
              ],
              [
                23.695833,
                9.669444
              ],
              [
                23.696254,
                9.671553
              ],
              [
                23.693611,
                9.686389
              ],
              [
                23.691667,
                9.700278
              ],
              [
                23.689167,
                9.714167
              ],
              [
                23.6875,
                9.728056
              ],
              [
                23.685556,
                9.741944
              ],
              [
                23.682222,
                9.77
              ],
              [
                23.676667,
                9.811667
              ],
              [
                23.673333,
                9.839444
              ],
              [
                23.671389,
                9.853333
              ],
              [
                23.669722,
                9.867222
              ],
              [
                23.660278,
                9.881944
              ],
              [
                23.651389,
                9.896389
              ],
              [
                23.598889,
                9.982778
              ],
              [
                23.589444,
                9.997222
              ],
              [
                23.58777010979831,
                10
              ],
              [
                23,
                10
              ],
              [
                23,
                9
              ]
            ]
          ],
          [
            [
              [
                23.556225979246083,
                9
              ],
              [
                23.579217768613976,
                9
              ],
              [
                23.5725,
                9.005278
              ],
              [
                23.565556,
                9.005833
              ],
              [
                23.559722,
                9.004722
              ],
              [
                23.556667,
                9.000833
              ],
              [
                23.556225979246083,
                9
              ]
            ]
          ]
        ]
      }
    },
    {
      "type": "Feature",
      "properties": {
        "osm_id": -192789,
        "boundary": "administrative",
        "admin_level": 2,
        "parents": null,
        "name": "Sudan",
        "local_name": "السودان",
        "name_en": "Sudan",
        "all_tags": {
          "flag": "http://upload.wikimedia.org/wikipedia/commons/0/01/Flag_of_Sudan.svg",
          "name": "السودان",
          "name:af": "Soedan",
          "name:ak": "Sudan",
          "name:am": "ሱዳን",
          "name:an": "Sudán",
          "name:ar": "السودان",
          "name:az": "Sudan",
          "name:ba": "Судан",
          "name:be": "Судан",
          "name:bg": "Судан",
          "name:bm": "Sudan",
          "name:bn": "সুদান",
          "name:bo": "སུའུ་ཏན།",
          "name:br": "Soudan",
          "name:bs": "Sudan",
          "name:ca": "Sudan",
          "name:ce": "Судан",
          "name:cs": "Súdán",
          "name:cv": "Судан",
          "name:cy": "Sudan",
          "name:da": "Sudan",
          "name:de": "Sudan",
          "name:dv": "ސޫދާން",
          "name:ee": "Sudan",
          "name:el": "Σουδάν",
          "name:en": "Sudan",
          "name:eo": "Sudano",
          "name:es": "Sudán",
          "name:et": "Sudaan",
          "name:eu": "Sudan",
          "name:fa": "سودان",
          "name:fi": "Sudan",
          "name:fo": "Sudan",
          "name:fr": "Soudan",
          "name:fy": "Sûdan",
          "name:ga": "An tSúdáin",
          "name:gd": "Sudan",
          "name:gl": "Sudán",
          "name:gn": "Sudano",
          "name:gu": "સુદાન",
          "name:gv": "Yn Toodaan",
          "name:ha": "Sudan",
          "name:he": "סודאן",
          "name:hi": "सूडान",
          "name:hr": "Sudan",
          "name:ht": "Soudan",
          "name:hu": "Szudán",
          "name:hy": "Սուդան",
          "name:ia": "Sudan",
          "name:id": "Sudan",
          "name:ie": "Sudan",
          "name:ig": "Sudan",
          "name:io": "Sudan",
          "name:is": "Súdan",
          "name:it": "Sudan",
          "name:ja": "スーダン",
          "name:jv": "Sudan",
          "name:ka": "სუდანი",
          "name:kg": "Sudan",
          "name:ki": "Sũdana",
          "name:kk": "Судан",
          "name:kn": "ಸುಡಾನ್",
          "name:ko": "수단",
          "name:ku": "Sûdan",
          "name:kw": "Soudan",
          "name:ky": "Судан",
          "name:la": "Sudania",
          "name:lb": "Sudan",
          "name:li": "Soedan",
          "name:ln": "Sudani",
          "name:lt": "Sudanas",
          "name:lv": "Sudāna",
          "name:mi": "Hūtāne",
          "name:mk": "Судан",
          "name:ml": "സുഡാൻ",
          "name:mn": "Судан",
          "name:mr": "सुदान",
          "name:ms": "Sudan",
          "name:mt": "Sudan",
          "name:my": "ဆူဒန်နိုင်ငံ",
          "name:na": "Tudan",
          "name:nl": "Soedan",
          "name:nn": "Sudan",
          "name:no": "Sudan",
          "name:nv": "Soodą́ą",
          "name:ny": "Sudan",
          "name:oc": "Sodan",
          "name:om": "Sudaan",
          "name:or": "ସୁଦାନ",
          "name:os": "Судан",
          "name:pa": "ਸੁਡਾਨ",
          "name:pl": "Sudan",
          "name:ps": "سوډان",
          "name:pt": "Sudão",
          "name:qu": "Sudan",
          "name:rm": "Sudan",
          "name:ro": "Sudan",
          "name:ru": "Судан",
          "name:rw": "Sudani",
          "name:sa": "सूडान",
          "name:sc": "Sudan",
          "name:sd": "سوڊان",
          "name:se": "Sudan",
          "name:sg": "Sudäan",
          "name:sh": "Sudan",
          "name:sk": "Sudán",
          "name:sl": "Sudan",
          "name:sm": "Sudan",
          "name:sn": "Sudan",
          "name:so": "Suudaan",
          "name:sq": "Sudani",
          "name:sr": "Судан",
          "name:ss": "ISudani",
          "name:su": "Sudan",
          "name:sv": "Sudan",
          "name:sw": "Sudan",
          "name:ta": "சூடான்",
          "name:te": "సూడాన్",
          "name:tg": "Судон",
          "name:th": "ประเทศซูดาน",
          "name:ti": "ሱዳን",
          "name:tk": "Sudan",
          "name:tl": "Sudan",
          "name:tr": "Sudan",
          "name:ts": "Sudan",
          "name:tt": "Судан",
          "name:ug": "سۇدان",
          "name:uk": "Судан",
          "name:ur": "سوڈان",
          "name:uz": "Sudan",
          "name:vi": "Sudan",
          "name:vo": "Sudän",
          "name:wo": "Sudaan",
          "name:yi": "סודאן",
          "name:yo": "Sudan",
          "name:zh": "苏丹 / 蘇丹",
          "boundary": "administrative",
          "name:ace": "Sudan",
          "name:als": "Sudan",
          "name:ang": "Sudan",
          "name:arc": "ܣܘܕܐܢ",
          "name:arz": "السودان",
          "name:ast": "Sudán",
          "name:azb": "سودان",
          "name:bar": "Sudan",
          "name:bcl": "Sudan",
          "name:ber": "ⵙⵓⴷⴰⵏ",
          "name:bjn": "Sudan",
          "name:bpy": "সুদান",
          "name:bxr": "Судан",
          "name:ceb": "Sudan",
          "name:ckb": "سوودان",
          "name:crh": "Sudan",
          "name:din": "Thudän",
          "name:diq": "Sudan",
          "name:dsb": "Sudan",
          "name:ext": "Sudán",
          "name:frp": "Sodan",
          "name:gag": "Sudan",
          "name:hif": "Sudan",
          "name:hsb": "Sudan",
          "name:ilo": "Sudan",
          "name:jbo": "sudan",
          "name:kaa": "Sudan",
          "name:kab": "Sudan",
          "name:kbd": "Судан",
          "name:kmr": "سوودان",
          "name:lez": "Судан",
          "name:lij": "Sudan",
          "name:lmo": "Sudan",
          "name:lzh": "蘇丹",
          "name:mrj": "Судан",
          "name:mzn": "سودان",
          "name:nah": "Sudan",
          "name:nan": "Sudan",
          "name:nds": "Sudan",
          "name:new": "सुदान",
          "name:nov": "Sudan",
          "name:nso": "Sudan",
          "name:ota": "سودان",
          "name:pam": "Sudan",
          "name:pap": "Sudan",
          "name:pih": "Sudan",
          "name:pms": "Sudan",
          "name:pnb": "سوڈان",
          "name:rue": "Судан",
          "name:sah": "Судан",
          "name:scn": "Sudan",
          "name:sco": "Sudan",
          "name:smn": "Sudan",
          "name:sms": "Sudaan",
          "name:stq": "Sudan",
          "name:szl": "Sudan",
          "name:tzl": "Sudan",
          "name:vec": "Sudan",
          "name:vro": "Sudaan",
          "name:war": "Sudan",
          "name:wuu": "苏丹",
          "name:xal": "Суданмудин Орн",
          "name:yue": "蘇丹",
          "name:zgh": "ⵙⵓⴷⴰⵏ",
          "timezone": "Africa/Khartoum",
          "way_area": "158.862",
          "wikidata": "Q1049",
          "ISO3166-1": "SD",
          "wikipedia": "ar:السودان",
          "admin_level": "2",
          "alt_name:vi": "Xu-đăng",
          "name:simple": "Sudan",
          "name:bat-smg": "Sudans",
          "name:kk-Arab": "سۋدان",
          "name:ku-Arab": "سوودان",
          "name:zh-Hans": "苏丹",
          "name:zh-Hant": "蘇丹",
          "name:kab-Arab": "سودان",
          "name:roa-tara": "Sudan",
          "official_name": "جمهورية السودان",
          "name:be-tarask": "Судан",
          "ISO3166-1:alpha2": "SD",
          "ISO3166-1:alpha3": "SDN",
          "default_language": "ar",
          "official_name:ar": "جمهورية السودان",
          "official_name:cs": "Súdánská republika",
          "official_name:fa": "جمهوری سودان",
          "official_name:ur": "جمہوریہ سوڈان",
          "official_name:vi": "Cộng hòa Sudan",
          "official_name:zh": "苏丹共和国 / 蘇丹共和國",
          "ISO3166-1:numeric": "729",
          "official_name:azb": "سودان جومهوریتی",
          "official_name:zh-Hans": "苏丹共和国",
          "official_name:zh-Hant": "蘇丹共和國"
        }
      },
      "geometry": {
        "type": "Polygon",
        "coordinates": [
          [
            [
              23.447778,
              9.019444
            ],
            [
              23.448056,
              9.014722
            ],
            [
              23.454722,
              9.007222
            ],
            [
              23.454722,
              9.001111
            ],
            [
              23.4549442,
              9
            ],
            [
              23.556225979246083,
              9
            ],
            [
              23.556667,
              9.000833
            ],
            [
              23.559722,
              9.004722
            ],
            [
              23.565556,
              9.005833
            ],
            [
              23.5725,
              9.005278
            ],
            [
              23.579217768613976,
              9
            ],
            [
              24,
              9
            ],
            [
              24,
              10
            ],
            [
              23.58777010979831,
              10
            ],
            [
              23.589444,
              9.997222
            ],
            [
              23.598889,
              9.982778
            ],
            [
              23.651389,
              9.896389
            ],
            [
              23.660278,
              9.881944
            ],
            [
              23.669722,
              9.867222
            ],
            [
              23.671389,
              9.853333
            ],
            [
              23.673333,
              9.839444
            ],
            [
              23.676667,
              9.811667
            ],
            [
              23.682222,
              9.77
            ],
            [
              23.685556,
              9.741944
            ],
            [
              23.6875,
              9.728056
            ],
            [
              23.689167,
              9.714167
            ],
            [
              23.691667,
              9.700278
            ],
            [
              23.693611,
              9.686389
            ],
            [
              23.696254,
              9.671553
            ],
            [
              23.695833,
              9.669444
            ],
            [
              23.693333,
              9.664722
            ],
            [
              23.690278,
              9.661111
            ],
            [
              23.687778,
              9.656389
            ],
            [
              23.684722,
              9.6525
            ],
            [
              23.682222,
              9.647778
            ],
            [
              23.680556,
              9.642222
            ],
            [
              23.675556,
              9.633056
            ],
            [
              23.673889,
              9.627778
            ],
            [
              23.668889,
              9.618333
            ],
            [
              23.667222,
              9.613056
            ],
            [
              23.664722,
              9.608333
            ],
            [
              23.662778,
              9.602778
            ],
            [
              23.660278,
              9.598333
            ],
            [
              23.658056,
              9.593611
            ],
            [
              23.655556,
              9.588889
            ],
            [
              23.6525,
              9.584444
            ],
            [
              23.65,
              9.579722
            ],
            [
              23.6375,
              9.563889
            ],
            [
              23.635278,
              9.559444
            ],
            [
              23.632222,
              9.555278
            ],
            [
              23.629722,
              9.550833
            ],
            [
              23.626667,
              9.546944
            ],
            [
              23.624722,
              9.541389
            ],
            [
              23.623611,
              9.535278
            ],
            [
              23.624722,
              9.529722
            ],
            [
              23.627778,
              9.526111
            ],
            [
              23.631944,
              9.523056
            ],
            [
              23.635,
              9.519444
            ],
            [
              23.636667,
              9.514444
            ],
            [
              23.637778,
              9.508889
            ],
            [
              23.638056,
              9.5025
            ],
            [
              23.636944,
              9.488889
            ],
            [
              23.633611,
              9.470556
            ],
            [
              23.631944,
              9.449722
            ],
            [
              23.633889,
              9.445
            ],
            [
              23.636389,
              9.440556
            ],
            [
              23.641111,
              9.438333
            ],
            [
              23.646667,
              9.439167
            ],
            [
              23.651111,
              9.442222
            ],
            [
              23.655556,
              9.444722
            ],
            [
              23.661111,
              9.444444
            ],
            [
              23.665,
              9.441389
            ],
            [
              23.666111,
              9.435833
            ],
            [
              23.665556,
              9.428889
            ],
            [
              23.664444,
              9.422778
            ],
            [
              23.663889,
              9.415833
            ],
            [
              23.662778,
              9.409722
            ],
            [
              23.660833,
              9.404444
            ],
            [
              23.660278,
              9.3975
            ],
            [
              23.658611,
              9.392222
            ],
            [
              23.6575,
              9.385833
            ],
            [
              23.655556,
              9.380556
            ],
            [
              23.653889,
              9.375278
            ],
            [
              23.651389,
              9.370556
            ],
            [
              23.649722,
              9.365278
            ],
            [
              23.647222,
              9.360556
            ],
            [
              23.645278,
              9.355
            ],
            [
              23.640556,
              9.345833
            ],
            [
              23.639444,
              9.339722
            ],
            [
              23.638889,
              9.332778
            ],
            [
              23.639167,
              9.326667
            ],
            [
              23.64,
              9.321111
            ],
            [
              23.641944,
              9.316111
            ],
            [
              23.646944,
              9.301111
            ],
            [
              23.649444,
              9.296944
            ],
            [
              23.651389,
              9.291944
            ],
            [
              23.653056,
              9.286944
            ],
            [
              23.6525,
              9.28
            ],
            [
              23.65,
              9.275556
            ],
            [
              23.646389,
              9.272222
            ],
            [
              23.6425,
              9.269167
            ],
            [
              23.629444,
              9.261667
            ],
            [
              23.621944,
              9.255556
            ],
            [
              23.618889,
              9.251389
            ],
            [
              23.606944,
              9.228333
            ],
            [
              23.588056,
              9.212222
            ],
            [
              23.585,
              9.208333
            ],
            [
              23.582778,
              9.205
            ],
            [
              23.578889,
              9.201111
            ],
            [
              23.572778,
              9.193333
            ],
            [
              23.569167,
              9.190278
            ],
            [
              23.564722,
              9.187778
            ],
            [
              23.561111,
              9.184444
            ],
            [
              23.556667,
              9.182222
            ],
            [
              23.551667,
              9.180278
            ],
            [
              23.545278,
              9.180278
            ],
            [
              23.532778,
              9.179722
            ],
            [
              23.525833,
              9.180278
            ],
            [
              23.519444,
              9.181389
            ],
            [
              23.5125,
              9.181944
            ],
            [
              23.501389,
              9.179722
            ],
            [
              23.496944,
              9.1775
            ],
            [
              23.493333,
              9.174167
            ],
            [
              23.491389,
              9.168889
            ],
            [
              23.490278,
              9.162778
            ],
            [
              23.487778,
              9.158056
            ],
            [
              23.485556,
              9.153333
            ],
            [
              23.482222,
              9.149444
            ],
            [
              23.479167,
              9.145556
            ],
            [
              23.476944,
              9.140833
            ],
            [
              23.475,
              9.135556
            ],
            [
              23.471389,
              9.124722
            ],
            [
              23.470278,
              9.118611
            ],
            [
              23.469722,
              9.111667
            ],
            [
              23.468611,
              9.105556
            ],
            [
              23.468333,
              9.098889
            ],
            [
              23.467778,
              9.091944
            ],
            [
              23.465278,
              9.087222
            ],
            [
              23.463611,
              9.081944
            ],
            [
              23.462222,
              9.075833
            ],
            [
              23.461944,
              9.068889
            ],
            [
              23.462222,
              9.062778
            ],
            [
              23.461667,
              9.055833
            ],
            [
              23.460556,
              9.049722
            ],
            [
              23.453056,
              9.035833
            ],
            [
              23.450833,
              9.031111
            ],
            [
              23.448889,
              9.025556
            ],
            [
              23.447778,
              9.019444
            ]
          ]
        ]
      }
    },
    {
      "type": "Feature",
      "properties": {
        "osm_id": -1656678,
        "boundary": "administrative",
        "admin_level": 2,
        "parents": null,
        "name": "South Sudan",
        "local_name": "South Sudan",
        "name_en": "South Sudan",
        "all_tags": {
          "flag": "http://upload.wikimedia.org/wikipedia/commons/7/7a/Flag_of_South_Sudan.svg",
          "name": "South Sudan",
          "name:af": "Suid-Soedan",
          "name:am": "ደቡብ ሱዳን",
          "name:an": "Sudán d'o Sud",
          "name:ar": "جنوب السودان",
          "name:av": "Югалъулаб Судан",
          "name:az": "Cənubi Sudan",
          "name:be": "Паўднёвы Судан",
          "name:bg": "Южен Судан",
          "name:bn": "দক্ষিণ সুদান",
          "name:br": "Soudan ar Su",
          "name:bs": "Južni Sudan",
          "name:ca": "Sudan del Sud",
          "name:cs": "Jižní Súdán",
          "name:cv": "Кăнтăр Судан",
          "name:cy": "De Sudan",
          "name:da": "Sydsudan",
          "name:de": "Südsudan",
          "name:el": "Νότιο Σουδάν",
          "name:en": "South Sudan",
          "name:eo": "Suda Sudano",
          "name:es": "Sudán del Sur",
          "name:et": "Lõuna-Sudaan",
          "name:eu": "Hego Sudan",
          "name:fa": "سودان جنوبی",
          "name:fi": "Etelä-Sudan",
          "name:fo": "Suðursudan",
          "name:fr": "Soudan du Sud",
          "name:fy": "Súd-Sûdan",
          "name:ga": "An tSúdáin Theas",
          "name:gd": "Sudàn a Deas",
          "name:gl": "Sudán do Sur",
          "name:gn": "Yvy Sudã",
          "name:gv": "Yn Toodaan Yiass",
          "name:he": "דרום סודאן",
          "name:hi": "दक्षिण सूडान",
          "name:hr": "Južni Sudan",
          "name:hu": "Dél-Szudán",
          "name:hy": "Հարավային Սուդան",
          "name:ia": "Sudan del Sud",
          "name:id": "Sudan Selatan",
          "name:ie": "Sud-Sudan",
          "name:io": "Sud-Sudan",
          "name:is": "Suður-Súdan",
          "name:it": "Sudan del Sud",
          "name:ja": "南部スーダン",
          "name:jv": "Sudan Kidul",
          "name:ka": "სამხრეთი სუდანი",
          "name:kk": "Оңтүстік Судан",
          "name:kn": "ದಕ್ಷಿಣ ಸುಡಾನ್",
          "name:ko": "남수단",
          "name:ku": "Sûdana Başûr",
          "name:kv": "Лунвыв Судан",
          "name:kw": "Soudan Soth",
          "name:ky": "Түштүк Судан",
          "name:la": "Sudania Australis",
          "name:lb": "Südsudan",
          "name:li": "Zuid-Soedan",
          "name:lt": "Pietų Sudanas",
          "name:lv": "Dienvidsudāna",
          "name:mk": "Јужен Судан",
          "name:ml": "ദക്ഷിണ സുഡാൻ",
          "name:mr": "दक्षिण सुदान",
          "name:ms": "Sudan Selatan",
          "name:my": "တောင်ဆူဒန်နိုင်ငံ",
          "name:na": "South Sudan",
          "name:nl": "Zuid-Soedan",
          "name:nn": "Sør-Sudan",
          "name:no": "Sør-Sudan",
          "name:nv": "Shádiʼááhjí Soodą́ą",
          "name:oc": "Sodan del Sud",
          "name:or": "ଦକ୍ଷିନ ସୁଦାନ",
          "name:pa": "ਦੱਖਣੀ ਸੁਡਾਨ",
          "name:pl": "Sudan Południowy",
          "name:ps": "سوېلي سوډان",
          "name:pt": "Sudão do Sul",
          "name:qu": "Urin Sudan",
          "name:rm": "Sudan dal Sid",
          "name:ro": "Sudanul de Sud",
          "name:ru": "Южный Судан",
          "name:sc": "Sudan Meridionali",
          "name:se": "Lulli-Sudan",
          "name:sg": "Sudäan-Mbongo",
          "name:sh": "Južni Sudan",
          "name:sk": "Južný Sudán",
          "name:sl": "Južni Sudan",
          "name:sn": "South Sudan",
          "name:so": "Koonfur Suudaan",
          "name:sq": "Sudani i Jugut",
          "name:sr": "Јужни Судан",
          "name:su": "Sudan Kidul",
          "name:sv": "Sydsudan",
          "name:sw": "Sudan Kusini",
          "name:ta": "தெற்கு சூடான்",
          "name:te": "దక్షిణ సూడాన్",
          "name:th": "ประเทศซูดานใต้",
          "name:tk": "Günorta Sudan",
          "name:tl": "Timog Sudan",
          "name:tr": "Güney Sudan",
          "name:tt": "Көньяк Судан",
          "name:uk": "Південний Судан",
          "name:ur": "جنوبی سوڈان",
          "name:uz": "Janubiy Sudan",
          "name:vi": "Nam Sudan",
          "name:vo": "Sulüda-Sudän",
          "name:yi": "דרום סודאן",
          "name:yo": "Gúúsù Sudan",
          "name:zh": "南苏丹 / 南蘇丹",
          "name:zu": "ISudan yaseNingizimu",
          "boundary": "administrative",
          "name:als": "Südsudan",
          "name:ang": "Sūþsudan",
          "name:arc": "ܬܝܡܢܐ ܕܣܘܕܐܢ",
          "name:arz": "جنوب السودان",
          "name:ast": "Sudán del Sur",
          "name:bcl": "Habagatan Sudan",
          "name:bxr": "Урда Судан",
          "name:ceb": "Habagatang Sudan",
          "name:ckb": "سوودانی باشوور",
          "name:crh": "Cenübiy Sudan",
          "name:din": "Paguot Thudän",
          "name:diq": "Sudanê Veroci",
          "name:dsb": "Pódpołdnjowy Sudan",
          "name:ext": "Sudán del Sul",
          "name:frr": "Süüdsudaan",
          "name:hsb": "Južny Sudan",
          "name:kaa": "Qubla Sudan",
          "name:kab": "Ssudan n Unẓul",
          "name:koi": "Лунвыв Судан",
          "name:ksh": "Südsudan",
          "name:lad": "Sudan del Sud",
          "name:lbe": "Кьилвалул Судан",
          "name:lij": "Sudan do Sud",
          "name:lmo": "Süd Sudan",
          "name:lzh": "南蘇丹",
          "name:mdf": "Лямбеширень Судан",
          "name:mrj": "Кечӹвӓлвел Судан",
          "name:mzn": "جنوبی سودان",
          "name:nah": "Sudan Huitztlāmpa",
          "name:nan": "Lâm Sudan",
          "name:nds": "Süüdsudan",
          "name:pam": "Mauling Sudan",
          "name:pnb": "دکھن سوڈان",
          "name:scn": "Sudan dû Sud",
          "name:sco": "Sooth Sudan",
          "name:smn": "Maadâ-Sudan",
          "name:sms": "Saujj-Sudaan",
          "name:stq": "Suud-Sudan",
          "name:szl": "Połedńowy Sudan",
          "name:udm": "Лымшор Судан",
          "name:vec": "Sud Sudan",
          "name:vls": "Zuud-Soedan",
          "name:war": "Salatan nga Sudan",
          "name:yue": "南蘇丹",
          "timezone": "Africa/Juba",
          "way_area": "53.5119",
          "wikidata": "Q958",
          "ISO3166-1": "SS",
          "wikipedia": "en:South Sudan",
          "admin_level": "2",
          "alt_name:vi": "Nam Xu-đăng",
          "name:nds-nl": "Zuudsoedan",
          "name:simple": "South Sudan",
          "name:bat-smg": "Pėitū Sudans",
          "name:zh-Hans": "南苏丹",
          "name:zh-Hant": "南蘇丹",
          "name:roa-tara": "Sudan d'u Sud",
          "name:be-tarask": "Паўднёвы Судан",
          "ISO3166-1:alpha2": "SS",
          "ISO3166-1:alpha3": "SSD",
          "default_language": "en",
          "official_name:ar": "جمهورية جنوب السودان",
          "official_name:cs": "Jihosúdánská republika",
          "official_name:en": "Republic of South Sudan",
          "official_name:es": "República de Sudán del Sur",
          "official_name:fa": "جمهوری سودان جنوبی",
          "official_name:fr": "République du Soudan du Sud",
          "official_name:gn": "Tavakuairetã Yvy Sudã",
          "official_name:pt": "República do Sudão do Sul",
          "official_name:ru": "Республика Южный Судан",
          "official_name:th": "สาธารณรัฐซูดานใต้",
          "official_name:ur": "جمہوریہ جنوبی سوڈان",
          "official_name:vi": "Cộng hòa Nam Sudan",
          "ISO3166-1:numeric": "728",
          "official_name:din": "Paankɔc Paguot Thudän"
        }
      },
      "geometry": {
        "type": "Polygon",
        "coordinates": [
          [
            [
              23.447778,
              9.019444
            ],
            [
              23.448056,
              9.014722
            ],
            [
              23.454722,
              9.007222
            ],
            [
              23.454722,
              9.001111
            ],
            [
              23.4549442,
              9
            ],
            [
              23.556225979246083,
              9
            ],
            [
              23.556667,
              9.000833
            ],
            [
              23.559722,
              9.004722
            ],
            [
              23.565556,
              9.005833
            ],
            [
              23.5725,
              9.005278
            ],
            [
              23.579217768613976,
              9
            ],
            [
              24,
              9
            ],
            [
              24,
              9.668099861058725
            ],
            [
              23.696254,
              9.671553
            ],
            [
              23.695833,
              9.669444
            ],
            [
              23.693333,
              9.664722
            ],
            [
              23.690278,
              9.661111
            ],
            [
              23.687778,
              9.656389
            ],
            [
              23.684722,
              9.6525
            ],
            [
              23.682222,
              9.647778
            ],
            [
              23.680556,
              9.642222
            ],
            [
              23.675556,
              9.633056
            ],
            [
              23.673889,
              9.627778
            ],
            [
              23.668889,
              9.618333
            ],
            [
              23.667222,
              9.613056
            ],
            [
              23.664722,
              9.608333
            ],
            [
              23.662778,
              9.602778
            ],
            [
              23.660278,
              9.598333
            ],
            [
              23.658056,
              9.593611
            ],
            [
              23.655556,
              9.588889
            ],
            [
              23.6525,
              9.584444
            ],
            [
              23.65,
              9.579722
            ],
            [
              23.6375,
              9.563889
            ],
            [
              23.635278,
              9.559444
            ],
            [
              23.632222,
              9.555278
            ],
            [
              23.629722,
              9.550833
            ],
            [
              23.626667,
              9.546944
            ],
            [
              23.624722,
              9.541389
            ],
            [
              23.623611,
              9.535278
            ],
            [
              23.624722,
              9.529722
            ],
            [
              23.627778,
              9.526111
            ],
            [
              23.631944,
              9.523056
            ],
            [
              23.635,
              9.519444
            ],
            [
              23.636667,
              9.514444
            ],
            [
              23.637778,
              9.508889
            ],
            [
              23.638056,
              9.5025
            ],
            [
              23.636944,
              9.488889
            ],
            [
              23.633611,
              9.470556
            ],
            [
              23.631944,
              9.449722
            ],
            [
              23.633889,
              9.445
            ],
            [
              23.636389,
              9.440556
            ],
            [
              23.641111,
              9.438333
            ],
            [
              23.646667,
              9.439167
            ],
            [
              23.651111,
              9.442222
            ],
            [
              23.655556,
              9.444722
            ],
            [
              23.661111,
              9.444444
            ],
            [
              23.665,
              9.441389
            ],
            [
              23.666111,
              9.435833
            ],
            [
              23.665556,
              9.428889
            ],
            [
              23.664444,
              9.422778
            ],
            [
              23.663889,
              9.415833
            ],
            [
              23.662778,
              9.409722
            ],
            [
              23.660833,
              9.404444
            ],
            [
              23.660278,
              9.3975
            ],
            [
              23.658611,
              9.392222
            ],
            [
              23.6575,
              9.385833
            ],
            [
              23.655556,
              9.380556
            ],
            [
              23.653889,
              9.375278
            ],
            [
              23.651389,
              9.370556
            ],
            [
              23.649722,
              9.365278
            ],
            [
              23.647222,
              9.360556
            ],
            [
              23.645278,
              9.355
            ],
            [
              23.640556,
              9.345833
            ],
            [
              23.639444,
              9.339722
            ],
            [
              23.638889,
              9.332778
            ],
            [
              23.639167,
              9.326667
            ],
            [
              23.64,
              9.321111
            ],
            [
              23.641944,
              9.316111
            ],
            [
              23.646944,
              9.301111
            ],
            [
              23.649444,
              9.296944
            ],
            [
              23.651389,
              9.291944
            ],
            [
              23.653056,
              9.286944
            ],
            [
              23.6525,
              9.28
            ],
            [
              23.65,
              9.275556
            ],
            [
              23.646389,
              9.272222
            ],
            [
              23.6425,
              9.269167
            ],
            [
              23.629444,
              9.261667
            ],
            [
              23.621944,
              9.255556
            ],
            [
              23.618889,
              9.251389
            ],
            [
              23.606944,
              9.228333
            ],
            [
              23.588056,
              9.212222
            ],
            [
              23.585,
              9.208333
            ],
            [
              23.582778,
              9.205
            ],
            [
              23.578889,
              9.201111
            ],
            [
              23.572778,
              9.193333
            ],
            [
              23.569167,
              9.190278
            ],
            [
              23.564722,
              9.187778
            ],
            [
              23.561111,
              9.184444
            ],
            [
              23.556667,
              9.182222
            ],
            [
              23.551667,
              9.180278
            ],
            [
              23.545278,
              9.180278
            ],
            [
              23.532778,
              9.179722
            ],
            [
              23.525833,
              9.180278
            ],
            [
              23.519444,
              9.181389
            ],
            [
              23.5125,
              9.181944
            ],
            [
              23.501389,
              9.179722
            ],
            [
              23.496944,
              9.1775
            ],
            [
              23.493333,
              9.174167
            ],
            [
              23.491389,
              9.168889
            ],
            [
              23.490278,
              9.162778
            ],
            [
              23.487778,
              9.158056
            ],
            [
              23.485556,
              9.153333
            ],
            [
              23.482222,
              9.149444
            ],
            [
              23.479167,
              9.145556
            ],
            [
              23.476944,
              9.140833
            ],
            [
              23.475,
              9.135556
            ],
            [
              23.471389,
              9.124722
            ],
            [
              23.470278,
              9.118611
            ],
            [
              23.469722,
              9.111667
            ],
            [
              23.468611,
              9.105556
            ],
            [
              23.468333,
              9.098889
            ],
            [
              23.467778,
              9.091944
            ],
            [
              23.465278,
              9.087222
            ],
            [
              23.463611,
              9.081944
            ],
            [
              23.462222,
              9.075833
            ],
            [
              23.461944,
              9.068889
            ],
            [
              23.462222,
              9.062778
            ],
            [
              23.461667,
              9.055833
            ],
            [
              23.460556,
              9.049722
            ],
            [
              23.453056,
              9.035833
            ],
            [
              23.450833,
              9.031111
            ],
            [
              23.448889,
              9.025556
            ],
            [
              23.447778,
              9.019444
            ]
          ]
        ]
      }
    }
  ]
}