{
  "type": "FeatureCollection",
  "features": [
    {
      "type": "Feature",
      "properties": {
        "osm_id": -571178,
        "boundary": "administrative",
        "admin_level": 2,
        "parents": null,
        "name": "Kiribati",
        "local_name": "Kiribati",
        "name_en": "Kiribati",
        "all_tags": {
          "flag": "http://upload.wikimedia.org/wikipedia/commons/d/d3/Flag_of_Kiribati.svg",
          "name": "Kiribati",
          "name:ar": "كيريباتي",
          "name:az": "Kiribati",
          "name:bg": "Кирибати",
          "name:cs": "Kiribati",
          "name:da": "Kiribati",
          "name:de": "Kiribati",
          "name:en": "Kiribati",
          "name:eo": "Kiribato",
          "name:es": "Kiribati",
          "name:fr": "Kiribati",
          "name:gn": "Kiriváti",
          "name:hr": "Kiribati",
          "name:hu": "Kiribati",
          "name:it": "Kiribati",
          "name:ja": "キリバス",
          "name:ko": "키리바시",
          "name:lt": "Kiribatis",
          "name:mk": "Кирибати",
          "name:nl": "Kiribati",
          "name:no": "Kiribati",
          "name:oc": "Kiribati",
          "name:pl": "Kiribati",
          "name:pt": "Kiribati",
          "name:ro": "Kiribati",
          "name:ru": "Кирибати",
          "name:se": "Kiribati",
          "name:sk": "Kiribati",
          "name:sr": "Кирибати",
          "name:sv": "Kiribati",
          "name:tr": "Kiribati",
          "name:uk": "Кірибаті",
          "name:vo": "Kiribatuäns",
          "name:zh": "基里巴斯 / 吉里巴斯",
          "boundary": "administrative",
          "name:jbo": "kiribas",
          "name:smn": "Kiribati",
          "name:sms": "Kiribaat",
          "way_area": "8.72782",
          "wikidata": "Q710",
          "ISO3166-1": "KI",
          "wikipedia": "en:Kiribati",
          "admin_level": "2",
          "driving_side": "left",
          "name:zh-Hans": "基里巴斯",
          "name:zh-Hant": "吉里巴斯",
          "ISO3166-1:alpha2": "KI",
          "ISO3166-1:alpha3": "KIR",
          "default_language": "en",
          "official_name:cs": "Republika Kiribati",
          "official_name:en": "Republic of Kiribati",
          "official_name:es": "República de Kiribati",
          "official_name:fr": "République de Kiribati",
          "official_name:gn": "Tavakuairetã Kiriváti",
          "official_name:pl": "Republika Kiribati",
          "official_name:pt": "República de Kiribati",
          "official_name:ru": "Республика Кирибати",
          "ISO3166-1:numeric": "296"
        }
      },
      "geometry": {
        "type": "Polygon",
        "coordinates": [
          [
            [
              -152.50980891856094,
              -10
            ],
            [
              -152.11602846274636,
              -10
            ],
            [
              -152.1161111,
              -9.9997083
            ],
            [
              -152.1193417,
              -9.9901611
            ],
            [
              -152.1233472,
              -9.9800333
            ],
            [
              -152.1277389,
              -9.9704306
            ],
            [
              -152.1323417,
              -9.9615917
            ],
            [
              -152.1372194,
              -9.9532417
            ],
            [
              -152.1423306,
              -9.9453194
            ],
            [
              -152.1464917,
              -9.9394111
            ],
            [
              -152.1531278,
              -9.9308333
            ],
            [
              -152.1602194,
              -9.9226222
            ],
            [
              -152.1677472,
              -9.9148028
            ],
            [
              -152.1759889,
              -9.9071167
            ],
            [
              -152.1848139,
              -9.8997694
            ],
            [
              -152.1940444,
              -9.8929306
            ],
            [
              -152.2004083,
              -9.8886639
            ],
            [
              -152.2069306,
              -9.8846417
            ],
            [
              -152.2169917,
              -9.8790722
            ],
            [
              -152.2273528,
              -9.8740806
            ],
            [
              -152.2344139,
              -9.8710806
            ],
            [
              -152.2415833,
              -9.8683472
            ],
            [
              -152.2525222,
              -9.8647583
            ],
            [
              -152.2599194,
              -9.8627083
            ],
            [
              -152.27115,
              -9.8601611
            ],
            [
              -152.2825083,
              -9.85825
            ],
            [
              -152.2939583,
              -9.8569806
            ],
            [
              -152.3054611,
              -9.8563583
            ],
            [
              -152.3131417,
              -9.8563056
            ],
            [
              -152.3208222,
              -9.8565389
            ],
            [
              -152.3323056,
              -9.8574333
            ],
            [
              -152.3399278,
              -9.8583861
            ],
            [
              -152.351275,
              -9.8603528
            ],
            [
              -152.3624944,
              -9.8629528
            ],
            [
              -152.3735444,
              -9.8661833
            ],
            [
              -152.3808028,
              -9.8686806
            ],
            [
              -152.3914944,
              -9.8729333
            ],
            [
              -152.3984833,
              -9.8760972
            ],
            [
              -152.4087222,
              -9.8813333
            ],
            [
              -152.4186472,
              -9.8871389
            ],
            [
              -152.428125,
              -9.8933806
            ],
            [
              -152.4341167,
              -9.897675
            ],
            [
              -152.4428,
              -9.9045194
            ],
            [
              -152.4512583,
              -9.9117583
            ],
            [
              -152.4593861,
              -9.9194194
            ],
            [
              -152.467075,
              -9.9275139
            ],
            [
              -152.4741,
              -9.9357028
            ],
            [
              -152.4803056,
              -9.9436083
            ],
            [
              -152.4861056,
              -9.9518111
            ],
            [
              -152.4918528,
              -9.9608722
            ],
            [
              -152.497275,
              -9.9705278
            ],
            [
              -152.50215,
              -9.9804639
            ],
            [
              -152.5050917,
              -9.9872306
            ],
            [
              -152.5090333,
              -9.9975667
            ],
            [
              -152.50980891856094,
              -10
            ]
          ]
        ]
      }
    }
  ]
}