{
  "type": "FeatureCollection",
  "features": [
    {
      "type": "Feature",
      "properties": {
        "osm_id": -195273,
        "boundary": "administrative",
        "admin_level": 2,
        "parents": null,
        "name": "Mozambique",
        "local_name": "Moçambique",
        "name_en": "Mozambique",
        "all_tags": {
          "flag": "http://upload.wikimedia.org/wikipedia/commons/d/d0/Flag_of_Mozambique.svg",
          "name": "Moçambique",
          "name:af": "Mosambiek",
          "name:am": "ሞዛምቢክ",
          "name:an": "Mozambique",
          "name:ar": "موزمبيق",
          "name:az": "Mozambik",
          "name:ba": "Мозамбик",
          "name:be": "Мазамбік",
          "name:bg": "Мозамбик",
          "name:bm": "Mozanbik",
          "name:bn": "মোজাম্বিক",
          "name:bo": "མོ་ཛམ་བིཀ།",
          "name:br": "Mozambik",
          "name:bs": "Mozambik",
          "name:ca": "Moçambic",
          "name:ce": "Мозамбик",
          "name:co": "Mozambicu",
          "name:cs": "Mosambik",
          "name:cv": "Мозамбик",
          "name:cy": "Mosambic",
          "name:da": "Mozambique",
          "name:de": "Mosambik",
          "name:dv": "މުސިންބީ",
          "name:el": "Μοζαμβίκη",
          "name:en": "Mozambique",
          "name:eo": "Mozambiko",
          "name:es": "Mozambique",
          "name:et": "Mosambiik",
          "name:eu": "Mozambike",
          "name:fa": "موزامبیک",
          "name:fi": "Mosambik",
          "name:fo": "Mosambik",
          "name:fr": "Mozambique",
          "name:fy": "Mozambyk",
          "name:ga": "Poblacht Mhósaimbíc",
          "name:gd": "Mòsaimbic",
          "name:gl": "Mozambique",
          "name:gn": "Mosambike",
          "name:gv": "Yn Vosambeeck",
          "name:he": "מוזמביק",
          "name:hi": "मोज़ाम्बीक",
          "name:hr": "Mozambik",
          "name:ht": "Mozanbik",
          "name:hu": "Mozambik",
          "name:hy": "Մոզամբիկ",
          "name:ia": "Mozambique",
          "name:id": "Mozambik",
          "name:ie": "Mozambique",
          "name:io": "Mozambik",
          "name:is": "Mósambík",
          "name:it": "Mozambico",
          "name:ja": "モザンビーク",
          "name:jv": "Mozambik",
          "name:ka": "მოზამბიკი",
          "name:kg": "Musambiki",
          "name:kk": "Мозамбик",
          "name:kn": "ಮೊಜಾಂಬಿಕ್",
          "name:ko": "모잠비크",
          "name:ku": "Mozambîk",
          "name:kw": "Mosambik",
          "name:la": "Mozambicum",
          "name:lb": "Mosambik",
          "name:li": "Mozambique",
          "name:ln": "Mozambíki",
          "name:lt": "Mozambikas",
          "name:lv": "Mozambika",
          "name:mg": "Mozambika",
          "name:mi": "Mohapiki",
          "name:mk": "Мозамбик",
          "name:ml": "മൊസാംബിക്ക്",
          "name:mn": "Мозамбик",
          "name:mr": "मोझांबिक",
          "name:ms": "Mozambique",
          "name:mt": "Możambik",
          "name:my": "မိုဇမ်ဘစ်နိုင်ငံ",
          "name:nl": "Mozambique",
          "name:nn": "Mosambik",
          "name:no": "Mosambik",
          "name:ny": "Mozambique",
          "name:oc": "Moçambic",
          "name:or": "ମୋଜାମ୍ବିକ",
          "name:os": "Мозамбик",
          "name:pa": "ਮੋਜ਼ੈਂਬੀਕ",
          "name:pl": "Mozambik",
          "name:ps": "موزمبيق",
          "name:pt": "Moçambique",
          "name:qu": "Musambik",
          "name:ro": "Mozambic",
          "name:ru": "Мозамбик",
          "name:rw": "Mozambike",
          "name:sa": "मोजम्बीक",
          "name:sc": "Mozambico",
          "name:se": "Mosambik",
          "name:sg": "Mözämbîka",
          "name:sh": "Mozambik",
          "name:sk": "Mozambik",
          "name:sl": "Mozambik",
          "name:sn": "Mozambique",
          "name:so": "Musanbiig",
          "name:sq": "Mozambiku",
          "name:sr": "Мозамбик",
          "name:ss": "IMozambikhi",
          "name:su": "Mosambik",
          "name:sv": "Moçambique",
          "name:sw": "Msumbiji",
          "name:ta": "மொசாம்பிக்",
          "name:tg": "Мозамбик",
          "name:th": "ประเทศโมซัมบิก",
          "name:ti": "ሞዛምቢክ",
          "name:tk": "Mozambik",
          "name:tl": "Musambik",
          "name:tr": "Mozambik",
          "name:ts": "Mozambique",
          "name:ug": "موزامبىك",
          "name:uk": "Мозамбік",
          "name:ur": "موزمبیق",
          "name:uz": "Mozambik",
          "name:ve": "Mozambikwi",
          "name:vi": "Mozambique",
          "name:vo": "Mozambikän",
          "name:wo": "Mosambik",
          "name:yi": "מאזאמביק",
          "name:yo": "Mòsámbìk",
          "name:zh": "莫桑比克 / 莫三比克",
          "name:zu": "IMozambiki",
          "boundary": "administrative",
          "name:ace": "Mozambik",
          "name:als": "Mosambik",
          "name:ang": "Mosambice",
          "name:arz": "موزامبيق",
          "name:ast": "Mozambique",
          "name:bcl": "Mosambik",
          "name:bjn": "Mozambik",
          "name:bpy": "মোজাম্বিক",
          "name:bxr": "Мозамбик",
          "name:ceb": "Mozambique",
          "name:ckb": "مۆزامبیک",
          "name:crh": "Mozambik",
          "name:diq": "Mozambik",
          "name:dsb": "Mosambik",
          "name:ext": "Mozambiqui",
          "name:frp": "Mozambique",
          "name:gag": "Mozambik",
          "name:hak": "Mo̍k-sông-pí-khiet",
          "name:hif": "Mozambique",
          "name:hsb": "Mosambik",
          "name:ilo": "Mosambike",
          "name:jbo": "mosambik",
          "name:lad": "Mosambiko",
          "name:lij": "Moçambico",
          "name:lmo": "Muzambich",
          "name:ltg": "Mozambika",
          "name:lzh": "莫三比克",
          "name:min": "Mozambik",
          "name:mwl": "Moçambique",
          "name:nah": "Mozambique",
          "name:nan": "Moçambique",
          "name:nds": "Mosambik",
          "name:nov": "Mozambik",
          "name:nso": "Mozambique",
          "name:pam": "Mozambique",
          "name:pap": "Mozambique",
          "name:pms": "Mosambich",
          "name:pnb": "موزمبیق",
          "name:sah": "Мозамбик",
          "name:scn": "Mozambicu",
          "name:sco": "Mozambique",
          "name:smn": "Mosambik",
          "name:sms": "Mosambikk",
          "name:stq": "Mosambik",
          "name:szl": "Mozambik",
          "name:tet": "Mosambike",
          "name:tzl": "Moçambica",
          "name:vec": "Mozanbico",
          "name:vro": "Mosambiik",
          "name:war": "Mozambique",
          "name:xal": "Мозамбикудин Орн",
          "name:yue": "莫三鼻給",
          "timezone": "Africa/Maputo",
          "way_area": "72.964",
          "wikidata": "Q1029",
          "ISO3166-1": "MZ",
          "wikipedia": "pt:Moçambique",
          "admin_level": "2",
          "name:simple": "Mozambique",
          "driving_side": "left",
          "name:bat-smg": "Mozambėks",
          "name:roa-rup": "Mozambic",
          "name:zh-Hans": "莫桑比克",
          "name:zh-Hant": "莫三比克",
          "name:be-tarask": "Мазамбік",
          "ISO3166-1:alpha2": "MZ",
          "ISO3166-1:alpha3": "MOZ",
          "default_language": "pt",
          "official_name:cs": "Mosambická republika",
          "ISO3166-1:numeric": "508"
        }
      },
      "geometry": {
        "type": "Polygon",
        "coordinates": [
          [
            [
              30.2121663,
              -15.0577644
            ],
            [
              30.2122521,
              -15.0602716
            ],
            [
              30.2139902,
              -15.0639806
            ],
            [
              30.2159858,
              -15.0671301
            ],
            [
              30.2169739,
              -15.0717422
            ],
            [
              30.2144634,
              -15.0800506
            ],
            [
              30.2128381,
              -15.0833279
            ],
            [
              30.2128958,
              -15.0899001
            ],
            [
              30.2188826,
              -15.0949345
            ],
            [
              30.2218233,
              -15.0985516
            ],
            [
              30.2275954,
              -15.1032751
            ],
            [
              30.2306628,
              -15.106888
            ],
            [
              30.2328203,
              -15.1104532
            ],
            [
              30.2330671,
              -15.1158496
            ],
            [
              30.2338611,
              -15.1236798
            ],
            [
              30.236833,
              -15.1287548
            ],
            [
              30.2468215,
              -15.1364188
            ],
            [
              30.2506614,
              -15.1383742
            ],
            [
              30.252217,
              -15.1429103
            ],
            [
              30.2525614,
              -15.1474795
            ],
            [
              30.2512407,
              -15.1578021
            ],
            [
              30.2571426,
              -15.1638414
            ],
            [
              30.2584086,
              -15.1703858
            ],
            [
              30.2539658,
              -15.1793821
            ],
            [
              30.256648,
              -15.1833581
            ],
            [
              30.2626099,
              -15.1885101
            ],
            [
              30.2624202,
              -15.1920349
            ],
            [
              30.2599954,
              -15.1961971
            ],
            [
              30.2602111,
              -15.2006616
            ],
            [
              30.2634287,
              -15.2072132
            ],
            [
              30.2623929,
              -15.2150844
            ],
            [
              30.2617335,
              -15.2183114
            ],
            [
              30.2619921,
              -15.2230446
            ],
            [
              30.2664124,
              -15.2277342
            ],
            [
              30.2746296,
              -15.2342953
            ],
            [
              30.2765726,
              -15.2395042
            ],
            [
              30.2736221,
              -15.250311
            ],
            [
              30.276711,
              -15.2537972
            ],
            [
              30.2807665,
              -15.2536109
            ],
            [
              30.2821397,
              -15.2547908
            ],
            [
              30.2859817,
              -15.262028
            ],
            [
              30.2897369,
              -15.270598
            ],
            [
              30.2951431,
              -15.27249
            ],
            [
              30.3035341,
              -15.2769943
            ],
            [
              30.3115368,
              -15.2786792
            ],
            [
              30.3158927,
              -15.2797762
            ],
            [
              30.3194761,
              -15.287145
            ],
            [
              30.3196059,
              -15.296099
            ],
            [
              30.3230177,
              -15.3007559
            ],
            [
              30.3225092,
              -15.3051119
            ],
            [
              30.338832,
              -15.3139809
            ],
            [
              30.3425228,
              -15.3191755
            ],
            [
              30.3476726,
              -15.3233973
            ],
            [
              30.3539167,
              -15.3260875
            ],
            [
              30.3609334,
              -15.3295229
            ],
            [
              30.3615128,
              -15.3334961
            ],
            [
              30.3627144,
              -15.3387729
            ],
            [
              30.3652679,
              -15.3464294
            ],
            [
              30.3690444,
              -15.3499677
            ],
            [
              30.3714477,
              -15.3576858
            ],
            [
              30.3716838,
              -15.3591756
            ],
            [
              30.3741514,
              -15.3690245
            ],
            [
              30.3776275,
              -15.3785418
            ],
            [
              30.3827559,
              -15.3868174
            ],
            [
              30.3821122,
              -15.3936651
            ],
            [
              30.3765975,
              -15.4116422
            ],
            [
              30.3779708,
              -15.4212403
            ],
            [
              30.3812957,
              -15.4266679
            ],
            [
              30.3774762,
              -15.431446
            ],
            [
              30.3769623,
              -15.4372293
            ],
            [
              30.3789579,
              -15.4390598
            ],
            [
              30.3813397,
              -15.4404352
            ],
            [
              30.3823268,
              -15.4429585
            ],
            [
              30.3859734,
              -15.4448902
            ],
            [
              30.3879487,
              -15.4477776
            ],
            [
              30.3901791,
              -15.4534527
            ],
            [
              30.3876911,
              -15.4618825
            ],
            [
              30.3923904,
              -15.4682316
            ],
            [
              30.3980981,
              -15.47183
            ],
            [
              30.4015957,
              -15.4763588
            ],
            [
              30.3973578,
              -15.4829658
            ],
            [
              30.395169,
              -15.4866649
            ],
            [
              30.3939058,
              -15.4878642
            ],
            [
              30.3921972,
              -15.4890248
            ],
            [
              30.3827773,
              -15.5079343
            ],
            [
              30.3789353,
              -15.5221673
            ],
            [
              30.3693382,
              -15.5352285
            ],
            [
              30.3664431,
              -15.5407175
            ],
            [
              30.3694414,
              -15.5611693
            ],
            [
              30.3693925,
              -15.561787
            ],
            [
              30.3722952,
              -15.5654689
            ],
            [
              30.3755398,
              -15.5679853
            ],
            [
              30.3774117,
              -15.570181
            ],
            [
              30.3797507,
              -15.5706239
            ],
            [
              30.3823364,
              -15.5721639
            ],
            [
              30.3842461,
              -15.5748716
            ],
            [
              30.3837913,
              -15.578417
            ],
            [
              30.3855991,
              -15.5799585
            ],
            [
              30.3903383,
              -15.5816401
            ],
            [
              30.3915739,
              -15.5833874
            ],
            [
              30.3940952,
              -15.5846482
            ],
            [
              30.3994928,
              -15.5848158
            ],
            [
              30.4023671,
              -15.5858779
            ],
            [
              30.4032683,
              -15.5872421
            ],
            [
              30.4050182,
              -15.5907683
            ],
            [
              30.4074966,
              -15.6002134
            ],
            [
              30.4077863,
              -15.6045121
            ],
            [
              30.4099631,
              -15.6056156
            ],
            [
              30.4104471,
              -15.6083045
            ],
            [
              30.4094492,
              -15.6152586
            ],
            [
              30.4108388,
              -15.6180483
            ],
            [
              30.4125504,
              -15.6194535
            ],
            [
              30.418939,
              -15.6202208
            ],
            [
              30.4208014,
              -15.6209204
            ],
            [
              30.4251253,
              -15.6280413
            ],
            [
              30.4258053,
              -15.6840514
            ],
            [
              30.4249753,
              -15.7175414
            ],
            [
              30.4233153,
              -15.7310514
            ],
            [
              30.4246953,
              -15.7469114
            ],
            [
              30.4238453,
              -15.9026916
            ],
            [
              30.4221753,
              -15.9168916
            ],
            [
              30.4236353,
              -15.9283916
            ],
            [
              30.4234153,
              -15.9811517
            ],
            [
              30.424070825245806,
              -16
            ],
            [
              31,
              -16
            ],
            [
              31,
              -15
            ],
            [
              30.216727781426698,
              -15
            ],
            [
              30.2167984,
              -15.0069847
            ],
            [
              30.2177678,
              -15.008963
            ],
            [
              30.2215229,
              -15.0122324
            ],
            [
              30.2234541,
              -15.0145304
            ],
            [
              30.2267908,
              -15.0166625
            ],
            [
              30.2289687,
              -15.0273563
            ],
            [
              30.2338932,
              -15.0353556
            ],
            [
              30.2337806,
              -15.0389095
            ],
            [
              30.2318333,
              -15.0435514
            ],
            [
              30.2278625,
              -15.0477042
            ],
            [
              30.2184331,
              -15.0522561
            ],
            [
              30.2136372,
              -15.0561397
            ],
            [
              30.2121663,
              -15.0577644
            ]
          ]
        ]
      }
    },
    {
      "type": "Feature",
      "properties": {
        "osm_id": -195271,
        "boundary": "administrative",
        "admin_level": 2,
        "parents": null,
        "name": "Zambia",
        "local_name": "Zambia",
        "name_en": "Zambia",
        "all_tags": {
          "flag": "http://upload.wikimedia.org/wikipedia/commons/0/06/Flag_of_Zambia.svg",
          "name": "Zambia",
          "name:af": "Zambië",
          "name:am": "ዛምቢያ",
          "name:an": "Zambia",
          "name:ar": "زامبيا",
          "name:az": "Zambiya",
          "name:ba": "Замбия",
          "name:be": "Замбія",
          "name:bg": "Замбия",
          "name:bm": "Zanbia",
          "name:bn": "জাম্বিয়া",
          "name:bo": "ཛམ་བི་ཡ།",
          "name:br": "Zambia",
          "name:bs": "Zambija",
          "name:ca": "Zàmbia",
          "name:ce": "Замби",
          "name:cs": "Zambie",
          "name:cv": "Замби",
          "name:cy": "Zambia",
          "name:da": "Zambia",
          "name:de": "Sambia",
          "name:dv": "ޒެމްބިއާ",
          "name:ee": "Zambia",
          "name:el": "Ζάμπια",
          "name:en": "Zambia",
          "name:eo": "Zambio",
          "name:es": "Zambia",
          "name:et": "Sambia",
          "name:eu": "Zambia",
          "name:fa": "زامبیا",
          "name:fi": "Sambia",
          "name:fo": "Sambia",
          "name:fr": "Zambie",
          "name:fy": "Sambia",
          "name:ga": "An tSaimbia",
          "name:gd": "Saimbia",
          "name:gl": "Zambia",
          "name:gn": "Sámbia",
          "name:gv": "Yn Tambia",
          "name:he": "זמביה",
          "name:hi": "ज़ाम्बिया",
          "name:hr": "Zambija",
          "name:ht": "Zanbi",
          "name:hu": "Zambia",
          "name:hy": "Զամբիա",
          "name:id": "Zambia",
          "name:ie": "Zambia",
          "name:io": "Zambia",
          "name:is": "Sambía",
          "name:it": "Zambia",
          "name:ja": "ザンビア",
          "name:jv": "Zambia",
          "name:ka": "ზამბია",
          "name:kg": "Zambia",
          "name:kk": "Замбия",
          "name:km": "ប្រទេសហ្សំប៊ី",
          "name:ko": "잠비아",
          "name:ku": "Zambiya",
          "name:kw": "Zambi",
          "name:la": "Zambia",
          "name:lb": "Sambia",
          "name:li": "Zambia",
          "name:ln": "Zambia",
          "name:lt": "Zambija",
          "name:lv": "Zambija",
          "name:mi": "Tāmipia",
          "name:mk": "Замбија",
          "name:ml": "സാംബിയ",
          "name:mn": "Замби",
          "name:mr": "झांबिया",
          "name:ms": "Zambia",
          "name:mt": "Żambja",
          "name:my": "ဇမ်ဘီယာနိုင်ငံ",
          "name:nl": "Zambia",
          "name:nn": "Zambia",
          "name:no": "Zambia",
          "name:ny": "Zambia",
          "name:oc": "Zambia",
          "name:or": "ଜାମ୍ବିଆ",
          "name:os": "Замби",
          "name:pa": "ਜ਼ਾਂਬੀਆ",
          "name:pl": "Zambia",
          "name:ps": "زېمبيا",
          "name:pt": "Zâmbia",
          "name:qu": "Sambya",
          "name:ro": "Zambia",
          "name:ru": "Замбия",
          "name:rw": "Zambiya",
          "name:sa": "जाम्बिया",
          "name:sc": "Zàmbia",
          "name:se": "Zambia",
          "name:sg": "Zambïi",
          "name:sh": "Zambija",
          "name:sk": "Zambia",
          "name:sl": "Zambija",
          "name:sn": "Zambia",
          "name:so": "Saambiya",
          "name:sq": "Zambia",
          "name:sr": "Замбија",
          "name:ss": "IZambiya",
          "name:su": "Zambia",
          "name:sv": "Zambia",
          "name:sw": "Zambia",
          "name:ta": "சாம்பியா",
          "name:te": "జాంబియా",
          "name:tg": "Замбия",
          "name:th": "ประเทศแซมเบีย",
          "name:ti": "ዛምቢያ",
          "name:tk": "Zambiýa",
          "name:tl": "Sambya",
          "name:tn": "Zambia",
          "name:tr": "Zambiya",
          "name:ts": "Zambia",
          "name:tt": "Замбия",
          "name:ug": "زامبىيە",
          "name:uk": "Замбія",
          "name:ur": "زیمبیا",
          "name:uz": "Zambiya",
          "name:vi": "Zambia",
          "name:vo": "Zambiyän",
          "name:wo": "Saambi",
          "name:yi": "זאמביע",
          "name:yo": "Sámbíà",
          "name:zh": "赞比亚 / 尚比亞",
          "name:zu": "IZambiya",
          "boundary": "administrative",
          "name:ace": "Zambia",
          "name:als": "Sambia",
          "name:arz": "زامبيا",
          "name:ast": "Zambia",
          "name:bcl": "Sambya",
          "name:bjn": "Zambia",
          "name:bpy": "জাম্বিয়া",
          "name:bxr": "Замби",
          "name:ceb": "Zambia",
          "name:chy": "Zambia",
          "name:ckb": "زامبیا",
          "name:crh": "Zambiya",
          "name:din": "Dhambia",
          "name:diq": "Zambiya",
          "name:dsb": "Sambija",
          "name:ext": "Zámbia",
          "name:frp": "Zambie",
          "name:gag": "Zambiya",
          "name:hak": "Tsan-pí-â",
          "name:hif": "Zambia",
          "name:hsb": "Sambija",
          "name:ilo": "Zambia",
          "name:jbo": "zambias",
          "name:kaa": "Zambiya",
          "name:lij": "Zambia",
          "name:lmo": "Zambia",
          "name:ltg": "Zambeja",
          "name:lzh": "尚比亞",
          "name:mrj": "Замби",
          "name:mzn": "زامبیا",
          "name:nah": "Zambia",
          "name:nan": "Zambia",
          "name:nds": "Sambia",
          "name:nov": "Zambia",
          "name:nso": "Zambia",
          "name:pam": "Zambia",
          "name:pap": "Zambia",
          "name:pms": "Zambia",
          "name:pnb": "زیمبیا",
          "name:rue": "Замбія",
          "name:sah": "Замбия",
          "name:scn": "Zambia",
          "name:sco": "Zambie",
          "name:smn": "Zambia",
          "name:sms": "Sambia",
          "name:stq": "Sambia",
          "name:szl": "Zambijo",
          "name:tum": "Zambia",
          "name:tzl": "Zambia",
          "name:vec": "Zanbia",
          "name:vro": "Sambia",
          "name:war": "Zambia",
          "name:wuu": "赞比亚",
          "name:xal": "Замбудин Орн",
          "name:yue": "贊比亞",
          "timezone": "Africa/Lusaka",
          "way_area": "62.7169",
          "wikidata": "Q953",
          "ISO3166-1": "ZM",
          "wikipedia": "en:Zambia",
          "admin_level": "2",
          "name:simple": "Zambia",
          "driving_side": "left",
          "name:bat-smg": "Zambėjė",
          "name:zh-Hans": "赞比亚",
          "name:zh-Hant": "尚比亞",
          "name:be-tarask": "Замбія",
          "ISO3166-1:alpha2": "ZM",
          "ISO3166-1:alpha3": "ZMB",
          "default_language": "en",
          "official_name:cs": "Zambijská republika",
          "official_name:en": "Republic of Zambia",
          "official_name:es": "República de Zambia",
          "official_name:gn": "Tavakuairetã Sámbia",
          "official_name:pt": "República da Zâmbia",
          "official_name:ru": "Республика Замбия",
          "ISO3166-1:numeric": "894"
        }
      },
      "geometry": {
        "type": "Polygon",
        "coordinates": [
          [
            [
              30,
              -15.63906057769564
            ],
            [
              30.0088019,
              -15.639463
            ],
            [
              30.0136968,
              -15.6381789
            ],
            [
              30.0162011,
              -15.637991
            ],
            [
              30.0192258,
              -15.6384138
            ],
            [
              30.0232425,
              -15.638586
            ],
            [
              30.0292269,
              -15.6381162
            ],
            [
              30.032528,
              -15.6373333
            ],
            [
              30.03526,
              -15.6369418
            ],
            [
              30.0375041,
              -15.6369261
            ],
            [
              30.0476353,
              -15.6353288
            ],
            [
              30.0510666,
              -15.6343109
            ],
            [
              30.0529204,
              -15.6342952
            ],
            [
              30.0542376,
              -15.6344988
            ],
            [
              30.0597992,
              -15.6323533
            ],
            [
              30.0658974,
              -15.6295188
            ],
            [
              30.0681415,
              -15.6278744
            ],
            [
              30.0797362,
              -15.6274046
            ],
            [
              30.0819153,
              -15.6278431
            ],
            [
              30.0855255,
              -15.6273733
            ],
            [
              30.0963071,
              -15.6278901
            ],
            [
              30.1000473,
              -15.6278431
            ],
            [
              30.1063569,
              -15.6282816
            ],
            [
              30.1101134,
              -15.6287984
            ],
            [
              30.1121299,
              -15.6287044
            ],
            [
              30.115675,
              -15.6276708
            ],
            [
              30.1180655,
              -15.6276552
            ],
            [
              30.1210902,
              -15.6265432
            ],
            [
              30.1245052,
              -15.6249145
            ],
            [
              30.128935,
              -15.6232034
            ],
            [
              30.1319922,
              -15.6223264
            ],
            [
              30.1345875,
              -15.6222208
            ],
            [
              30.1383278,
              -15.6215004
            ],
            [
              30.1440845,
              -15.620733
            ],
            [
              30.1467514,
              -15.6199343
            ],
            [
              30.1531098,
              -15.61865
            ],
            [
              30.1557768,
              -15.618932
            ],
            [
              30.1622002,
              -15.6187597
            ],
            [
              30.1661844,
              -15.6203258
            ],
            [
              30.1727867,
              -15.6220955
            ],
            [
              30.1760065,
              -15.6235363
            ],
            [
              30.1794215,
              -15.6274516
            ],
            [
              30.180381,
              -15.6302078
            ],
            [
              30.1831455,
              -15.6368321
            ],
            [
              30.1845278,
              -15.6391968
            ],
            [
              30.1870971,
              -15.6447403
            ],
            [
              30.1883493,
              -15.646682
            ],
            [
              30.1888859,
              -15.6487804
            ],
            [
              30.1917643,
              -15.6521001
            ],
            [
              30.1943987,
              -15.654261
            ],
            [
              30.1980327,
              -15.6554624
            ],
            [
              30.2019163,
              -15.6569685
            ],
            [
              30.2045978,
              -15.6583546
            ],
            [
              30.2083102,
              -15.6652018
            ],
            [
              30.20966,
              -15.6671277
            ],
            [
              30.2123463,
              -15.6682521
            ],
            [
              30.2151115,
              -15.6685723
            ],
            [
              30.2194965,
              -15.6669044
            ],
            [
              30.2224581,
              -15.6642154
            ],
            [
              30.2256312,
              -15.6603413
            ],
            [
              30.2326055,
              -15.6554781
            ],
            [
              30.2390452,
              -15.6523933
            ],
            [
              30.246298,
              -15.6452841
            ],
            [
              30.2501066,
              -15.6369538
            ],
            [
              30.2558416,
              -15.6300429
            ],
            [
              30.2583596,
              -15.6285676
            ],
            [
              30.2602176,
              -15.62795
            ],
            [
              30.2629806,
              -15.628054
            ],
            [
              30.2660297,
              -15.6290516
            ],
            [
              30.2680868,
              -15.6337701
            ],
            [
              30.2693583,
              -15.639318
            ],
            [
              30.2745915,
              -15.6443874
            ],
            [
              30.2803482,
              -15.6468773
            ],
            [
              30.2871238,
              -15.6480453
            ],
            [
              30.2994561,
              -15.6461389
            ],
            [
              30.3164506,
              -15.6477299
            ],
            [
              30.3230381,
              -15.6489283
            ],
            [
              30.3297954,
              -15.6480675
            ],
            [
              30.3361551,
              -15.6497733
            ],
            [
              30.3432119,
              -15.6536884
            ],
            [
              30.3499747,
              -15.6553173
            ],
            [
              30.3540645,
              -15.6556069
            ],
            [
              30.3589247,
              -15.6543259
            ],
            [
              30.3624545,
              -15.6516605
            ],
            [
              30.3689025,
              -15.6488494
            ],
            [
              30.3764771,
              -15.646359
            ],
            [
              30.3806218,
              -15.6459584
            ],
            [
              30.386614,
              -15.6446825
            ],
            [
              30.3901518,
              -15.6428931
            ],
            [
              30.3971622,
              -15.6398816
            ],
            [
              30.400971,
              -15.6375879
            ],
            [
              30.4031274,
              -15.6360175
            ],
            [
              30.4082263,
              -15.6306106
            ],
            [
              30.4167058,
              -15.624408
            ],
            [
              30.4208014,
              -15.6209204
            ],
            [
              30.418939,
              -15.6202208
            ],
            [
              30.4125504,
              -15.6194535
            ],
            [
              30.4108388,
              -15.6180483
            ],
            [
              30.4094492,
              -15.6152586
            ],
            [
              30.4104471,
              -15.6083045
            ],
            [
              30.4099631,
              -15.6056156
            ],
            [
              30.4077863,
              -15.6045121
            ],
            [
              30.4074966,
              -15.6002134
            ],
            [
              30.4050182,
              -15.5907683
            ],
            [
              30.4032683,
              -15.5872421
            ],
            [
              30.4023671,
              -15.5858779
            ],
            [
              30.3994928,
              -15.5848158
            ],
            [
              30.3940952,
              -15.5846482
            ],
            [
              30.3915739,
              -15.5833874
            ],
            [
              30.3903383,
              -15.5816401
            ],
            [
              30.3855991,
              -15.5799585
            ],
            [
              30.3837913,
              -15.578417
            ],
            [
              30.3842461,
              -15.5748716
            ],
            [
              30.3823364,
              -15.5721639
            ],
            [
              30.3797507,
              -15.5706239
            ],
            [
              30.3774117,
              -15.570181
            ],
            [
              30.3755398,
              -15.5679853
            ],
            [
              30.3722952,
              -15.5654689
            ],
            [
              30.3693925,
              -15.561787
            ],
            [
              30.3694414,
              -15.5611693
            ],
            [
              30.3664431,
              -15.5407175
            ],
            [
              30.3693382,
              -15.5352285
            ],
            [
              30.3789353,
              -15.5221673
            ],
            [
              30.3827773,
              -15.5079343
            ],
            [
              30.3921972,
              -15.4890248
            ],
            [
              30.3939058,
              -15.4878642
            ],
            [
              30.395169,
              -15.4866649
            ],
            [
              30.3973578,
              -15.4829658
            ],
            [
              30.4015957,
              -15.4763588
            ],
            [
              30.3980981,
              -15.47183
            ],
            [
              30.3923904,
              -15.4682316
            ],
            [
              30.3876911,
              -15.4618825
            ],
            [
              30.3901791,
              -15.4534527
            ],
            [
              30.3879487,
              -15.4477776
            ],
            [
              30.3859734,
              -15.4448902
            ],
            [
              30.3823268,
              -15.4429585
            ],
            [
              30.3813397,
              -15.4404352
            ],
            [
              30.3789579,
              -15.4390598
            ],
            [
              30.3769623,
              -15.4372293
            ],
            [
              30.3774762,
              -15.431446
            ],
            [
              30.3812957,
              -15.4266679
            ],
            [
              30.3779708,
              -15.4212403
            ],
            [
              30.3765975,
              -15.4116422
            ],
            [
              30.3821122,
              -15.3936651
            ],
            [
              30.3827559,
              -15.3868174
            ],
            [
              30.3776275,
              -15.3785418
            ],
            [
              30.3741514,
              -15.3690245
            ],
            [
              30.3716838,
              -15.3591756
            ],
            [
              30.3714477,
              -15.3576858
            ],
            [
              30.3690444,
              -15.3499677
            ],
            [
              30.3652679,
              -15.3464294
            ],
            [
              30.3627144,
              -15.3387729
            ],
            [
              30.3615128,
              -15.3334961
            ],
            [
              30.3609334,
              -15.3295229
            ],
            [
              30.3539167,
              -15.3260875
            ],
            [
              30.3476726,
              -15.3233973
            ],
            [
              30.3425228,
              -15.3191755
            ],
            [
              30.338832,
              -15.3139809
            ],
            [
              30.3225092,
              -15.3051119
            ],
            [
              30.3230177,
              -15.3007559
            ],
            [
              30.3196059,
              -15.296099
            ],
            [
              30.3194761,
              -15.287145
            ],
            [
              30.3158927,
              -15.2797762
            ],
            [
              30.3115368,
              -15.2786792
            ],
            [
              30.3035341,
              -15.2769943
            ],
            [
              30.2951431,
              -15.27249
            ],
            [
              30.2897369,
              -15.270598
            ],
            [
              30.2859817,
              -15.262028
            ],
            [
              30.2821397,
              -15.2547908
            ],
            [
              30.2807665,
              -15.2536109
            ],
            [
              30.276711,
              -15.2537972
            ],
            [
              30.2736221,
              -15.250311
            ],
            [
              30.2765726,
              -15.2395042
            ],
            [
              30.2746296,
              -15.2342953
            ],
            [
              30.2664124,
              -15.2277342
            ],
            [
              30.2619921,
              -15.2230446
            ],
            [
              30.2617335,
              -15.2183114
            ],
            [
              30.2623929,
              -15.2150844
            ],
            [
              30.2634287,
              -15.2072132
            ],
            [
              30.2602111,
              -15.2006616
            ],
            [
              30.2599954,
              -15.1961971
            ],
            [
              30.2624202,
              -15.1920349
            ],
            [
              30.2626099,
              -15.1885101
            ],
            [
              30.256648,
              -15.1833581
            ],
            [
              30.2539658,
              -15.1793821
            ],
            [
              30.2584086,
              -15.1703858
            ],
            [
              30.2571426,
              -15.1638414
            ],
            [
              30.2512407,
              -15.1578021
            ],
            [
              30.2525614,
              -15.1474795
            ],
            [
              30.252217,
              -15.1429103
            ],
            [
              30.2506614,
              -15.1383742
            ],
            [
              30.2468215,
              -15.1364188
            ],
            [
              30.236833,
              -15.1287548
            ],
            [
              30.2338611,
              -15.1236798
            ],
            [
              30.2330671,
              -15.1158496
            ],
            [
              30.2328203,
              -15.1104532
            ],
            [
              30.2306628,
              -15.106888
            ],
            [
              30.2275954,
              -15.1032751
            ],
            [
              30.2218233,
              -15.0985516
            ],
            [
              30.2188826,
              -15.0949345
            ],
            [
              30.2128958,
              -15.0899001
            ],
            [
              30.2128381,
              -15.0833279
            ],
            [
              30.2144634,
              -15.0800506
            ],
            [
              30.2169739,
              -15.0717422
            ],
            [
              30.2159858,
              -15.0671301
            ],
            [
              30.2139902,
              -15.0639806
            ],
            [
              30.2122521,
              -15.0602716
            ],
            [
              30.2121663,
              -15.0577644
            ],
            [
              30.2136372,
              -15.0561397
            ],
            [
              30.2184331,
              -15.0522561
            ],
            [
              30.2278625,
              -15.0477042
            ],
            [
              30.2318333,
              -15.0435514
            ],
            [
              30.2337806,
              -15.0389095
            ],
            [
              30.2338932,
              -15.0353556
            ],
            [
              30.2289687,
              -15.0273563
            ],
            [
              30.2267908,
              -15.0166625
            ],
            [
              30.2234541,
              -15.0145304
            ],
            [
              30.2215229,
              -15.0122324
            ],
            [
              30.2177678,
              -15.008963
            ],
            [
              30.2167984,
              -15.0069847
            ],
            [
              30.216727781426698,
              -15
            ],
            [
              30,
              -15
            ],
            [
              30,
              -15.63906057769564
            ]
          ]
        ]
      }
    },
    {
      "type": "Feature",
      "properties": {
        "osm_id": -195272,
        "boundary": "administrative",
        "admin_level": 2,
        "parents": null,
        "name": "Zimbabwe",
        "local_name": "Zimbabwe",
        "name_en": "Zimbabwe",
        "all_tags": {
          "flag": "http://upload.wikimedia.org/wikipedia/commons/6/6a/Flag_of_Zimbabwe.svg",
          "name": "Zimbabwe",
          "name:af": "Zimbabwe",
          "name:am": "ዚምባብዌ",
          "name:an": "Zimbabwe",
          "name:ar": "زيمبابوي",
          "name:az": "Zimbabve",
          "name:ba": "Зимбабве",
          "name:be": "Зімбабвэ",
          "name:bg": "Зимбабве",
          "name:bm": "Zimbabwe",
          "name:bn": "জিম্বাবুয়ে",
          "name:bo": "ཛིམ་བབ་ཝི།",
          "name:br": "Zimbabwe",
          "name:bs": "Zimbabve",
          "name:ca": "Zimbabwe",
          "name:ce": "Зимбабве",
          "name:cs": "Zimbabwe",
          "name:cv": "Зимбабве",
          "name:cy": "Zimbabwe",
          "name:da": "Zimbabwe",
          "name:de": "Simbabwe",
          "name:dv": "ޒިމްބާބުވޭ",
          "name:dz": "ཛིམ་བབ་ཝེ་",
          "name:ee": "Zimbabwe",
          "name:el": "Ζιμπάμπουε",
          "name:en": "Zimbabwe",
          "name:eo": "Zimbabvo",
          "name:es": "Zimbabue",
          "name:et": "Zimbabwe",
          "name:eu": "Zimbabwe",
          "name:fa": "زیمبابوه",
          "name:fi": "Zimbabwe",
          "name:fo": "Simbabvi",
          "name:fr": "Zimbabwe",
          "name:fy": "Simbabwe",
          "name:ga": "An tSiombáib",
          "name:gd": "Siombabue",
          "name:gl": "Cimbabue",
          "name:gn": "Simbávue",
          "name:gv": "Yn Çhimbabwe",
          "name:he": "זימבבואה",
          "name:hi": "ज़िम्बाब्वे",
          "name:hr": "Zimbabve",
          "name:ht": "Zimbabwe",
          "name:hu": "Zimbabwe",
          "name:hy": "Զիմբաբվե",
          "name:id": "Zimbabwe",
          "name:ie": "Zimbabwe",
          "name:io": "Zimbabwe",
          "name:is": "Simbabve",
          "name:it": "Zimbabwe",
          "name:ja": "ジンバブエ",
          "name:jv": "Zimbabwe",
          "name:ka": "ზიმბაბვე",
          "name:kg": "Zimbabwe",
          "name:ki": "Zimbabwe",
          "name:kk": "Зимбабве",
          "name:kn": "ಜಿಂಬಾಬ್ವೆ",
          "name:ko": "짐바브웨",
          "name:ku": "Zîmbabwe",
          "name:kw": "Zimbabwe",
          "name:la": "Zimbabua",
          "name:lb": "Simbabwe",
          "name:li": "Zimbabwe",
          "name:ln": "Zimbabwe",
          "name:lt": "Zimbabvė",
          "name:lv": "Zimbabve",
          "name:mi": "Timuwawe",
          "name:mk": "Зимбабве",
          "name:ml": "സിംബാബ്വെ",
          "name:mn": "Зимбабве",
          "name:mr": "झिंबाब्वे",
          "name:ms": "Zimbabwe",
          "name:mt": "Żimbabwe",
          "name:my": "ဇင်ဘာဘွေနိုင်ငံ",
          "name:ne": "जिम्बाब्वे",
          "name:nl": "Zimbabwe",
          "name:nn": "Zimbabwe",
          "name:no": "Zimbabwe",
          "name:nv": "Hooghan Tsé Bee Ádaalyaaí Bikéyah",
          "name:ny": "Zimbabwe",
          "name:oc": "Zimbabwe",
          "name:or": "ଜିମ୍ବାୱେ",
          "name:os": "Зимбабве",
          "name:pa": "ਜ਼ਿੰਬਾਬਵੇ",
          "name:pl": "Zimbabwe",
          "name:ps": "زېمبابوې",
          "name:pt": "Zimbabué",
          "name:qu": "Simbabwi",
          "name:ro": "Zimbabwe",
          "name:ru": "Зимбабве",
          "name:rw": "Zimbabwe",
          "name:sa": "जिम्बाबवे",
          "name:sc": "Zimbabwe",
          "name:se": "Zimbabwe",
          "name:sg": "Zimbäbwe",
          "name:sh": "Zimbabve",
          "name:si": "සිම්බාබ්වේ",
          "name:sk": "Zimbabwe",
          "name:sl": "Zimbabve",
          "name:sn": "Zimbabwe",
          "name:so": "Simbaabwi",
          "name:sq": "Zimbabveja",
          "name:sr": "Зимбабве",
          "name:ss": "IZimbabhwe",
          "name:su": "Zimbabwé",
          "name:sv": "Zimbabwe",
          "name:sw": "Zimbabwe",
          "name:ta": "சிம்பாப்வே",
          "name:te": "జింబాబ్వే",
          "name:tg": "Зимбабве",
          "name:th": "ประเทศซิมบับเว",
          "name:ti": "ዚምባብዌ",
          "name:tk": "Zimbabwe",
          "name:tl": "Simbabwe",
          "name:tn": "Zimbabwe",
          "name:tr": "Zimbabve",
          "name:ts": "Zimbabwe",
          "name:tt": "Зимбабве",
          "name:ug": "زىمبابۋې",
          "name:uk": "Зімбабве",
          "name:ur": "زمبابوے",
          "name:uz": "Zimbabve",
          "name:ve": "Zimbagwe",
          "name:vi": "Zimbabwe",
          "name:vo": "Zimbabiyän",
          "name:wo": "Simbaawee",
          "name:yi": "זימבאבווע",
          "name:yo": "Sìmbábúè",
          "name:zh": "津巴布韦 / 辛巴威",
          "name:zu": "IZimbabwe",
          "boundary": "administrative",
          "name:als": "Simbabwe",
          "name:ang": "Simbabwe",
          "name:arz": "زيمبابوى",
          "name:ast": "Zimbabue",
          "name:bar": "Simbabwe",
          "name:bcl": "Simbabwe",
          "name:bjn": "Zimbabwe",
          "name:bpy": "জিম্বাবুয়ে",
          "name:bxr": "Зимбабве",
          "name:ceb": "Zimbabwe",
          "name:chy": "Zimbabwe",
          "name:ckb": "زیمبابۆی",
          "name:crh": "Zimbabve",
          "name:diq": "Zimbabwe",
          "name:ext": "Zimbagüi",
          "name:frp": "Zimbaboue",
          "name:gag": "Zimbabve",
          "name:hak": "Sîn-pâ-pu-vî",
          "name:hif": "Zimbabwe",
          "name:hsb": "Simbabwe",
          "name:ilo": "Zimbabwe",
          "name:jbo": "zimbabues",
          "name:kaa": "Zimbabve",
          "name:ksh": "Simbabwe",
          "name:lij": "Zimbabwe",
          "name:lmo": "Zimbabwe",
          "name:ltg": "Zimbabve",
          "name:lzh": "辛巴威",
          "name:mrj": "Зимбабве",
          "name:mzn": "زیمبابوه",
          "name:nah": "Zimbabhue",
          "name:nan": "Zimbabwe",
          "name:nds": "Simbabwe",
          "name:nov": "Zimbabwe",
          "name:nso": "Zimbabwe",
          "name:pam": "Zimbabwe",
          "name:pap": "Zimbabwe",
          "name:pms": "Zimbabwe",
          "name:pnb": "زمبابوے",
          "name:sah": "Зимбабве",
          "name:scn": "Zimbabbui",
          "name:sco": "Zimbabwe",
          "name:smn": "Zimbabwe",
          "name:sms": "Zimbabwe",
          "name:stq": "Simbabwe",
          "name:szl": "Zimbabwe",
          "name:tzl": "Zimbabwe",
          "name:vec": "Zinbàbue",
          "name:vro": "Zimbabwe",
          "name:war": "Zimbabwe",
          "name:wuu": "津巴布韦",
          "name:xal": "Зимбабвудин Орн",
          "name:yue": "津巴布韋",
          "timezone": "Africa/Harare",
          "way_area": "33.5333",
          "wikidata": "Q954",
          "ISO3166-1": "ZW",
          "wikipedia": "en:Zimbabwe",
          "admin_level": "2",
          "name:simple": "Zimbabwe",
          "driving_side": "left",
          "name:bat-smg": "Zėmbabvė",
          "name:zh-Hans": "津巴布韦",
          "name:zh-Hant": "辛巴威",
          "name:be-tarask": "Зымбабвэ",
          "ISO3166-1:alpha2": "ZW",
          "ISO3166-1:alpha3": "ZWE",
          "official_name:cs": "Zimbabwská republika",
          "official_name:de": "Republik Zimbabwe",
          "official_name:en": "Republic of Zimbabwe",
          "official_name:es": "República de Zimbabue",
          "official_name:gn": "Tavakuairetã Simbávue",
          "official_name:pt": "República do Zimbabwe",
          "official_name:ru": "Республика Зимбабве",
          "official_name:sk": "Zimbabwianska republika",
          "ISO3166-1:numeric": "716"
        }
      },
      "geometry": {
        "type": "Polygon",
        "coordinates": [
          [
            [
              30,
              -16
            ],
            [
              30.424070825245806,
              -16
            ],
            [
              30.4234153,
              -15.9811517
            ],
            [
              30.4236353,
              -15.9283916
            ],
            [
              30.4221753,
              -15.9168916
            ],
            [
              30.4238453,
              -15.9026916
            ],
            [
              30.4246953,
              -15.7469114
            ],
            [
              30.4233153,
              -15.7310514
            ],
            [
              30.4249753,
              -15.7175414
            ],
            [
              30.4258053,
              -15.6840514
            ],
            [
              30.4251253,
              -15.6280413
            ],
            [
              30.4208014,
              -15.6209204
            ],
            [
              30.4167058,
              -15.624408
            ],
            [
              30.4082263,
              -15.6306106
            ],
            [
              30.4031274,
              -15.6360175
            ],
            [
              30.400971,
              -15.6375879
            ],
            [
              30.3971622,
              -15.6398816
            ],
            [
              30.3901518,
              -15.6428931
            ],
            [
              30.386614,
              -15.6446825
            ],
            [
              30.3806218,
              -15.6459584
            ],
            [
              30.3764771,
              -15.646359
            ],
            [
              30.3689025,
              -15.6488494
            ],
            [
              30.3624545,
              -15.6516605
            ],
            [
              30.3589247,
              -15.6543259
            ],
            [
              30.3540645,
              -15.6556069
            ],
            [
              30.3499747,
              -15.6553173
            ],
            [
              30.3432119,
              -15.6536884
            ],
            [
              30.3361551,
              -15.6497733
            ],
            [
              30.3297954,
              -15.6480675
            ],
            [
              30.3230381,
              -15.6489283
            ],
            [
              30.3164506,
              -15.6477299
            ],
            [
              30.2994561,
              -15.6461389
            ],
            [
              30.2871238,
              -15.6480453
            ],
            [
              30.2803482,
              -15.6468773
            ],
            [
              30.2745915,
              -15.6443874
            ],
            [
              30.2693583,
              -15.639318
            ],
            [
              30.2680868,
              -15.6337701
            ],
            [
              30.2660297,
              -15.6290516
            ],
            [
              30.2629806,
              -15.628054
            ],
            [
              30.2602176,
              -15.62795
            ],
            [
              30.2583596,
              -15.6285676
            ],
            [
              30.2558416,
              -15.6300429
            ],
            [
              30.2501066,
              -15.6369538
            ],
            [
              30.246298,
              -15.6452841
            ],
            [
              30.2390452,
              -15.6523933
            ],
            [
              30.2326055,
              -15.6554781
            ],
            [
              30.2256312,
              -15.6603413
            ],
            [
              30.2224581,
              -15.6642154
            ],
            [
              30.2194965,
              -15.6669044
            ],
            [
              30.2151115,
              -15.6685723
            ],
            [
              30.2123463,
              -15.6682521
            ],
            [
              30.20966,
              -15.6671277
            ],
            [
              30.2083102,
              -15.6652018
            ],
            [
              30.2045978,
              -15.6583546
            ],
            [
              30.2019163,
              -15.6569685
            ],
            [
              30.1980327,
              -15.6554624
            ],
            [
              30.1943987,
              -15.654261
            ],
            [
              30.1917643,
              -15.6521001
            ],
            [
              30.1888859,
              -15.6487804
            ],
            [
              30.1883493,
              -15.646682
            ],
            [
              30.1870971,
              -15.6447403
            ],
            [
              30.1845278,
              -15.6391968
            ],
            [
              30.1831455,
              -15.6368321
            ],
            [
              30.180381,
              -15.6302078
            ],
            [
              30.1794215,
              -15.6274516
            ],
            [
              30.1760065,
              -15.6235363
            ],
            [
              30.1727867,
              -15.6220955
            ],
            [
              30.1661844,
              -15.6203258
            ],
            [
              30.1622002,
              -15.6187597
            ],
            [
              30.1557768,
              -15.618932
            ],
            [
              30.1531098,
              -15.61865
            ],
            [
              30.1467514,
              -15.6199343
            ],
            [
              30.1440845,
              -15.620733
            ],
            [
              30.1383278,
              -15.6215004
            ],
            [
              30.1345875,
              -15.6222208
            ],
            [
              30.1319922,
              -15.6223264
            ],
            [
              30.128935,
              -15.6232034
            ],
            [
              30.1245052,
              -15.6249145
            ],
            [
              30.1210902,
              -15.6265432
            ],
            [
              30.1180655,
              -15.6276552
            ],
            [
              30.115675,
              -15.6276708
            ],
            [
              30.1121299,
              -15.6287044
            ],
            [
              30.1101134,
              -15.6287984
            ],
            [
              30.1063569,
              -15.6282816
            ],
            [
              30.1000473,
              -15.6278431
            ],
            [
              30.0963071,
              -15.6278901
            ],
            [
              30.0855255,
              -15.6273733
            ],
            [
              30.0819153,
              -15.6278431
            ],
            [
              30.0797362,
              -15.6274046
            ],
            [
              30.0681415,
              -15.6278744
            ],
            [
              30.0658974,
              -15.6295188
            ],
            [
              30.0597992,
              -15.6323533
            ],
            [
              30.0542376,
              -15.6344988
            ],
            [
              30.0529204,
              -15.6342952
            ],
            [
              30.0510666,
              -15.6343109
            ],
            [
              30.0476353,
              -15.6353288
            ],
            [
              30.0375041,
              -15.6369261
            ],
            [
              30.03526,
              -15.6369418
            ],
            [
              30.032528,
              -15.6373333
            ],
            [
              30.0292269,
              -15.6381162
            ],
            [
              30.0232425,
              -15.638586
            ],
            [
              30.0192258,
              -15.6384138
            ],
            [
              30.0162011,
              -15.637991
            ],
            [
              30.0136968,
              -15.6381789
            ],
            [
              30.0088019,
              -15.639463
            ],
            [
              30,
              -15.63906057769564
            ],
            [
              30,
              -16
            ]
          ]
        ]
      }
    }
  ]
}