{
  "type": "FeatureCollection",
  "features": [
    {
      "type": "Feature",
      "properties": {
        "osm_id": -54224,
        "boundary": "administrative",
        "admin_level": 2,
        "parents": null,
        "name": "Finland",
        "local_name": "Suomi / Finland",
        "name_en": "Finland",
        "all_tags": {
          "flag": "http://upload.wikimedia.org/wikipedia/commons/b/bc/Flag_of_Finland.svg",
          "name": "Suomi / Finland",
          "name:ab": "Суоми",
          "name:af": "Finland",
          "name:am": "ፊንላንድ",
          "name:an": "Finlandia",
          "name:ar": "فنلندا",
          "name:ay": "Phini suyu",
          "name:az": "Finlandiya",
          "name:ba": "Финляндия",
          "name:be": "Фінляндыя",
          "name:bg": "Финландия",
          "name:bi": "Finland",
          "name:bm": "Finland",
          "name:bn": "ফিনল্যান্ড",
          "name:bo": "ཧྥིན་ལན",
          "name:br": "Finland",
          "name:bs": "Finska",
          "name:ca": "Finlàndia",
          "name:ce": "Финлянди",
          "name:co": "Finlandia",
          "name:cs": "Finsko",
          "name:cu": "Соумь",
          "name:cv": "Финлянди",
          "name:cy": "Y Ffindir",
          "name:da": "Finland",
          "name:de": "Finnland",
          "name:dv": "ފިންލޭންޑު",
          "name:dz": "ཕིན་ལེནཌ་",
          "name:ee": "Finland",
          "name:el": "Φινλανδία",
          "name:en": "Finland",
          "name:eo": "Finnlando",
          "name:es": "Finlandia",
          "name:et": "Soome",
          "name:eu": "Finlandia",
          "name:fa": "فنلاند",
          "name:fi": "Suomi",
          "name:fo": "Finnland",
          "name:fr": "Finlande",
          "name:fy": "Finlân",
          "name:ga": "An Fhionlainn",
          "name:gd": "Suòmaidh",
          "name:gl": "Finlandia",
          "name:gn": "Hĩlandia",
          "name:gu": "ફીનલેંડ",
          "name:gv": "Finnlynn",
          "name:he": "פינלנד",
          "name:hi": "फ़िनलैंड",
          "name:hr": "Finska",
          "name:ht": "Fenlann",
          "name:hu": "Finnország",
          "name:hy": "Ֆինլանդիա",
          "name:ia": "Finlandia",
          "name:id": "Finlandia",
          "name:ie": "Finland",
          "name:ig": "Finland",
          "name:io": "Finlando",
          "name:is": "Finnland",
          "name:it": "Finlandia",
          "name:iu": "ᐃᓐᓚᓐᑦ",
          "name:ja": "フィンランド",
          "name:jv": "Finlandia",
          "name:ka": "ფინეთი",
          "name:kg": "Finlandi",
          "name:ki": "Finland",
          "name:kk": "Финландия",
          "name:kl": "Finlandi",
          "name:kn": "ಫಿನ್‍ಲ್ಯಾಂಡ್",
          "name:ko": "핀란드",
          "name:ks": "فننش",
          "name:ku": "Fînland",
          "name:kv": "Финляндия",
          "name:kw": "Pow Finn",
          "name:ky": "Финляндия",
          "name:la": "Finnia",
          "name:lb": "Finnland",
          "name:lg": "Finilandi",
          "name:li": "Finland",
          "name:ln": "Finilanda",
          "name:lt": "Suomija",
          "name:lv": "Somija",
          "name:mg": "Finlandy",
          "name:mi": "Whinarana",
          "name:mk": "Финска",
          "name:ml": "ഫിൻലാന്റ്",
          "name:mn": "Финлянд",
          "name:mr": "फिनलंड",
          "name:ms": "Finland",
          "name:mt": "Finlandja",
          "name:my": "ဖင်လန်နိုင်ငံ",
          "name:na": "Finland",
          "name:ne": "फिनल्याण्ड",
          "name:nl": "Finland",
          "name:nn": "Finland",
          "name:no": "Finland",
          "name:nv": "Nahoditsʼǫʼłání",
          "name:oc": "Finlàndia",
          "name:or": "ଫିନଲ୍ୟାଣ୍ଡ",
          "name:os": "Финлянди",
          "name:pa": "ਫ਼ਿਨਲੈਂਡ",
          "name:pl": "Finlandia",
          "name:ps": "فېنلانډ",
          "name:pt": "Finlândia",
          "name:qu": "Phinsuyu",
          "name:rm": "Finlanda",
          "name:ro": "Finlanda",
          "name:ru": "Финляндия",
          "name:rw": "Finilande",
          "name:sa": "फिन्लैंड",
          "name:sc": "Finlandia",
          "name:se": "Suopma",
          "name:sh": "Finska",
          "name:si": "ෆින්ලන්තය",
          "name:sk": "Fínsko",
          "name:sl": "Finska",
          "name:sm": "Finalagi",
          "name:so": "Finland",
          "name:sq": "Finlanda",
          "name:sr": "Финска",
          "name:ss": "IFini",
          "name:st": "Finland",
          "name:su": "Finlandia",
          "name:sv": "Finland",
          "name:sw": "Ufini",
          "name:ta": "பின்லாந்து",
          "name:te": "ఫిన్లెండ్",
          "name:tg": "Финланд",
          "name:th": "ประเทศฟินแลนด์",
          "name:tk": "Finlýandiýa",
          "name:tl": "Pinlandiya",
          "name:tr": "Finlandiya",
          "name:tt": "Финләндия",
          "name:ug": "فىنلاندىيە",
          "name:uk": "Фінляндія",
          "name:ur": "فن لینڈ",
          "name:uz": "Finlandiya",
          "name:vi": "Phần Lan",
          "name:vo": "Suomiyän",
          "name:wa": "Finlande",
          "name:wo": "Finlaand",
          "name:yi": "פינלאנד",
          "name:yo": "Finlandi",
          "name:za": "Finlan",
          "name:zh": "芬兰",
          "name:zu": "IFinlandi",
          "website": "https://www.finland.fi/",
          "boundary": "administrative",
          "int_name": "Finland",
          "name:ace": "Finlandia",
          "name:als": "Finnland",
          "name:ang": "Finnland",
          "name:arc": "ܦܢܠܢܕܐ",
          "name:arz": "فينلاندا",
          "name:ast": "Finlandia",
          "name:bar": "Finnlånd",
          "name:bcl": "Finlandya",
          "name:bpy": "ফিনল্যান্ড",
          "name:bxr": "Финланд",
          "name:cdo": "Hŭng-làng",
          "name:ceb": "Finlandia",
          "name:chr": "ᏫᏂᎦᏙᎯ",
          "name:ckb": "فینلاند",
          "name:crh": "Finlandiya",
          "name:csb": "Fińskô",
          "name:din": "Pinlɛn",
          "name:diq": "Finlanda",
          "name:dsb": "Finska",
          "name:ext": "Finlándia",
          "name:frp": "Finlande",
          "name:frr": "Finlönj",
          "name:fur": "Finlande",
          "name:gag": "Finlandiya",
          "name:gan": "芬蘭",
          "name:hak": "Fûn-làn",
          "name:haw": "Pinilana",
          "name:hif": "Finland",
          "name:hsb": "Finska",
          "name:ilo": "Finlandia",
          "name:jbo": "finland",
          "name:kaa": "Finlyandiya",
          "name:kbd": "Финлэнд",
          "name:koi": "Суоми",
          "name:krc": "Финляндия",
          "name:ksh": "Finnlandt",
          "name:lad": "Finlandia",
          "name:lez": "Финляндия",
          "name:lij": "Finlandia",
          "name:lmo": "Finlandia",
          "name:ltg": "Suomeja",
          "name:lzh": "芬蘭",
          "name:mdf": "Суоми мастор",
          "name:mhr": "Суоми Эл",
          "name:mrj": "Финлянди",
          "name:myv": "Суоми Мастор",
          "name:nah": "Fintlālpan",
          "name:nan": "Suomi",
          "name:nds": "Finnland",
          "name:new": "फिनल्यान्ड",
          "name:nov": "Finlande",
          "name:nrm": "Fînlande",
          "name:pam": "Finland",
          "name:pap": "Finlandia",
          "name:pcd": "Finlinde",
          "name:pih": "Finland",
          "name:pms": "Finlandia",
          "name:pnb": "فنلینڈ",
          "name:pnt": "Φινλανδία",
          "name:rmy": "Finland",
          "name:rue": "Фіньско",
          "name:sah": "Финляндия",
          "name:scn": "Finlandia",
          "name:sco": "Finland",
          "name:sje": "Suobma",
          "name:smn": "Suomâ",
          "name:sms": "Lääʹddjânnam",
          "name:srn": "Finland",
          "name:stq": "Finlound",
          "name:szl": "Finland",
          "name:tet": "Finlándia",
          "name:tok": "ma Sumi",
          "name:tpi": "Pinlan",
          "name:tzl": "Finphäts",
          "name:udm": "Финляндия",
          "name:vec": "Finlandia",
          "name:vep": "Suomenma",
          "name:vls": "Finland",
          "name:vro": "Soomõ",
          "name:war": "Finlandya",
          "name:wuu": "芬兰",
          "name:xal": "Суһомудин Орн",
          "name:xmf": "ფინეთი",
          "name:yue": "芬蘭",
          "name:zea": "Finland",
          "way_area": "72.1163",
          "wikidata": "Q33",
          "ISO3166-1": "FI",
          "wikipedia": "fi:Suomi",
          "admin_level": "2",
          "alt_name:eo": "Finlando;Finnio;Finnujo;Suomio;Suomujo",
          "name:nds-nl": "Finlaand",
          "driving_side": "right",
          "name:bat-smg": "Soumėjė",
          "name:roa-rup": "Finlanda",
          "name:zh-Hans": "芬兰",
          "name:zh-Hant": "芬蘭",
          "name:roa-tara": "Finlandie",
          "official_name": "Suomen tasavalta / Republiken Finland",
          "name:be-tarask": "Фінляндыя",
          "name:zh_pinyin": "Fēnlán",
          "ISO3166-1:alpha2": "FI",
          "ISO3166-1:alpha3": "FIN",
          "default_language": "fi",
          "official_name:ar": "جمهورية فنلندا",
          "official_name:be": "Фінляндская Рэспубліка",
          "official_name:cs": "Finská republika",
          "official_name:da": "Repbulikken Finland",
          "official_name:de": "Republik Finnland",
          "official_name:el": "Δημοκρατία της Φινλανδίας",
          "official_name:en": "Republic of Finland",
          "official_name:eo": "Respubliko Finnlando",
          "official_name:es": "República de Finlandia",
          "official_name:et": "Soome Vabariik",
          "official_name:fa": "جمهوری فنلاند",
          "official_name:fi": "Suomen tasavalta",
          "official_name:fr": "République de Finlande",
          "official_name:id": "Republik Finlandia",
          "official_name:is": "Lýðveldið Finnland",
          "official_name:it": "Repubblica di Finlandia",
          "official_name:ja": "フィンランド共和国",
          "official_name:lt": "Suomijos Respublika",
          "official_name:nn": "Republikken Finland",
          "official_name:no": "Republikken Finland",
          "official_name:pt": "República da Finlândia",
          "official_name:ru": "Финляндская Республика",
          "official_name:se": "Suoma dásseváldi",
          "official_name:sk": "Fínska republika",
          "official_name:sv": "Republiken Finland",
          "official_name:ur": "جمہوریہ فن لینڈ",
          "official_name:vi": "Cộng hòa Phần Lan",
          "official_name:zh": "芬兰共和国",
          "ISO3166-1:numeric": "246",
          "official_name:zh-Hans": "芬兰共和国",
          "official_name:zh-Hant": "芬蘭共和國"
        }
      },
      "geometry": {
        "type": "Polygon",
        "coordinates": [
          [
            [
              30,
              65.69287890593401
            ],
            [
              30.0013446,
              65.6931863
            ],
            [
              30.0171184,
              65.6964797
            ],
            [
              30.0396972,
              65.6872796
            ],
            [
              30.1384664,
              65.6686764
            ],
            [
              30.1340677,
              65.6997234
            ],
            [
              30.1301764,
              65.7140402
            ],
            [
              30.1296615,
              65.7153816
            ],
            [
              30.1193675,
              65.7521935
            ],
            [
              30.1120161,
              65.7747097
            ],
            [
              30.1073201,
              65.7884096
            ],
            [
              30.1050681,
              65.7930415
            ],
            [
              30.0871145,
              65.8506494
            ],
            [
              30.0684527,
              65.8949786
            ],
            [
              30.059374,
              65.910312
            ],
            [
              30.024398,
              65.9587363
            ],
            [
              30.024207,
              65.9616191
            ],
            [
              30.0242236,
              65.9666987
            ],
            [
              30,
              65.97754928246816
            ],
            [
              30,
              65.69287890593401
            ]
          ]
        ]
      }
    },
    {
      "type": "Feature",
      "properties": {
        "osm_id": -60189,
        "boundary": "administrative",
        "admin_level": 2,
        "parents": null,
        "name": "Russia",
        "local_name": "Россия",
        "name_en": "Russia",
        "all_tags": {
          "flag": "https://upload.wikimedia.org/wikipedia/commons/f/f3/Flag_of_Russia.svg",
          "name": "Россия",
          "int_ref": "RU",
          "name:ab": "Урыстәыла",
          "name:af": "Rusland",
          "name:ak": "Russia",
          "name:am": "ሩሲያ",
          "name:an": "Rusia",
          "name:ar": "روسيا",
          "name:as": "ৰুশিযা",
          "name:av": "Россиялъул Федерация",
          "name:ay": "Rusiya",
          "name:az": "Rusiya",
          "name:ba": "Рәсәй",
          "name:be": "Расія",
          "name:bg": "Русия",
          "name:bi": "Rusia",
          "name:bm": "Risila",
          "name:bn": "রাশিয়া",
          "name:bo": "ཨུ་རུ་སུ།",
          "name:br": "Rusia",
          "name:bs": "Rusija",
          "name:ca": "Rússia",
          "name:ce": "Росси",
          "name:ch": "Russia",
          "name:co": "Russia",
          "name:cs": "Rusko",
          "name:cu": "Рѡсїꙗ",
          "name:cv": "Раççей Патшалăхĕ",
          "name:cy": "Rwsia",
          "name:da": "Rusland",
          "name:de": "Russland",
          "name:dv": "ރޫސީވިލާތް",
          "name:dz": "ར་ཤི་ཡཱན་ཕེ་ཌི་རེ་ཤཱན",
          "name:ee": "Russia",
          "name:el": "Ρωσία",
          "name:en": "Russia",
          "name:eo": "Rusio",
          "name:es": "Rusia",
          "name:et": "Venemaa",
          "name:eu": "Errusia",
          "name:fa": "روسیه",
          "name:ff": "Roosiya",
          "name:fi": "Venäjä",
          "name:fo": "Russland",
          "name:fr": "Russie",
          "name:fy": "Ruslân",
          "name:ga": "An Rúis",
          "name:gd": "An Ruis",
          "name:gl": "Rusia",
          "name:gn": "Rrúsia",
          "name:gu": "રશિયા",
          "name:gv": "Yn Roosh",
          "name:ha": "Rasha",
          "name:he": "רוסיה",
          "name:hi": "रूस",
          "name:hr": "Ruska Federacija",
          "name:ht": "Risi",
          "name:hu": "Oroszország",
          "name:hy": "Ռուսաստան",
          "name:ia": "Russia",
          "name:id": "Rusia",
          "name:ie": "Russia",
          "name:ig": "Mpaghara Russia",
          "name:ik": "Russia",
          "name:io": "Rusia",
          "name:is": "Rússland",
          "name:it": "Russia",
          "name:iu": "ᐅᓛᓴ",
          "name:ja": "ロシア",
          "name:jv": "Rusia",
          "name:ka": "რუსეთი",
          "name:kg": "Rusia",
          "name:ki": "Russia",
          "name:kk": "Ресей",
          "name:kl": "Ruslandi",
          "name:km": "រុស្ស៊ី",
          "name:kn": "ರಷ್ಯಾ",
          "name:ko": "러시아",
          "name:ks": "روٗس",
          "name:ku": "Rûsya",
          "name:kv": "Рочму",
          "name:kw": "Russi",
          "name:ky": "Орусия",
          "name:la": "Russia",
          "name:lb": "Russland",
          "name:lg": "Rwasha",
          "name:li": "Rusland",
          "name:ln": "Rusí",
          "name:lo": "ລັດເຊັຽ",
          "name:lt": "Rusija",
          "name:lv": "Krievija",
          "name:mg": "Rosia",
          "name:mi": "Ruhia",
          "name:mk": "Русија",
          "name:ml": "റഷ്യ",
          "name:mn": "Оросын Холбооны Улс",
          "name:mo": "Русия",
          "name:mr": "रशिया",
          "name:ms": "Rusia",
          "name:mt": "Russja",
          "name:my": "ရုရှားနိုင်ငံ",
          "name:na": "Ratsiya",
          "name:ne": "रुस",
          "name:nl": "Rusland",
          "name:nn": "Russland",
          "name:no": "Russland",
          "name:nv": "Biʼééʼ Łichííʼí Bikéyah",
          "name:ny": "Russia",
          "name:oc": "Russia",
          "name:om": "Raashiyaa",
          "name:or": "ଋଷିଆ",
          "name:os": "Уæрæсе",
          "name:pa": "ਰੂਸ",
          "name:pl": "Rosja",
          "name:ps": "روسیه",
          "name:pt": "Rússia",
          "name:qu": "Rusiya",
          "name:rm": "Russia",
          "name:rn": "Uburusiya",
          "name:ro": "Rusia",
          "name:ru": "Россия",
          "name:rw": "Uburusiya",
          "name:sc": "Rùssia",
          "name:sd": "روس",
          "name:se": "Ruošša",
          "name:sg": "Rusïi",
          "name:sh": "Rusija",
          "name:si": "රුසියාව",
          "name:sk": "Rusko",
          "name:sl": "Rusija",
          "name:sm": "Lusia",
          "name:sn": "Russia",
          "name:so": "Ruushka",
          "name:sq": "Rusia",
          "name:sr": "Русија",
          "name:ss": "IRashiya",
          "name:st": "Russia",
          "name:su": "Rusia",
          "name:sv": "Ryssland",
          "name:sw": "Shirikisho la Urusi",
          "name:ta": "உருசியா",
          "name:te": "రష్యా",
          "name:tg": "Русия",
          "name:th": "ประเทศรัสเซีย",
          "name:ti": "ራሻ",
          "name:tk": "Russiýa",
          "name:tl": "Pederasyong Ruso",
          "name:to": "Lūsia",
          "name:tr": "Rusya Federasyonu",
          "name:ts": "Russia",
          "name:tt": "Русия",
          "name:tw": "Russia",
          "name:ty": "Rūtia",
          "name:ug": "روسىيە",
          "name:uk": "Росія",
          "name:ur": "روس",
          "name:uz": "Rossiya Federatsiyasi",
          "name:ve": "Rashia",
          "name:vi": "Liên bang Nga",
          "name:vo": "Rusän",
          "name:wa": "Federåcion d' Rûsseye",
          "name:wo": "Federaasioŋ bu Riisi",
          "name:xh": "IRashiya",
          "name:yi": "רוסלאנד",
          "name:yo": "Rọ́síà",
          "name:za": "Ezlozswh Lienzbangh",
          "name:zh": "俄罗斯",
          "name:zu": "IRashiya",
          "boundary": "administrative",
          "currency": "RUB",
          "int_name": "Russia",
          "name:ace": "Rusia",
          "name:als": "Russland",
          "name:ang": "Russland",
          "name:arc": "ܪܘܣܝܐ",
          "name:arz": "روسيا",
          "name:ast": "Rusia",
          "name:bar": "Russland",
          "name:bcl": "Rusya",
          "name:bjn": "Rusia",
          "name:bpy": "রাশিয়া",
          "name:bug": "Russia",
          "name:bxr": "Ородой Холбооной Улас",
          "name:cdo": "Ngò̤-lò̤-sṳ̆",
          "name:ceb": "Rusya",
          "name:chr": "ᏲᏂᏱ",
          "name:chy": "Russia",
          "name:ckb": "ڕووسیا",
          "name:crh": "Rusiye",
          "name:csb": "Ruskô",
          "name:diq": "Rusya",
          "name:dsb": "Rusojska",
          "name:eml": "Rossia",
          "name:ext": "Russia",
          "name:frp": "Russie",
          "name:frr": "Ruslönj",
          "name:fur": "Russie",
          "name:gag": "Rusiya",
          "name:gan": "俄羅斯",
          "name:hak": "Ngò-lò-sṳ̂",
          "name:haw": "Rūsia",
          "name:hif": "Russia",
          "name:hsb": "Ruska federacija",
          "name:ilo": "Rusia",
          "name:jbo": "rukygu'e",
          "name:kaa": "Rossiya",
          "name:kab": "Rrus",
          "name:kbd": "Урысей",
          "name:koi": "Рочму",
          "name:krc": "Россия Федерация",
          "name:lad": "Rusia",
          "name:lbe": "Аьрасат",
          "name:lez": "Урусат",
          "name:lij": "Ruscia",
          "name:lmo": "Rüssia",
          "name:ltg": "Krīveja",
          "name:lzh": "俄羅斯",
          "name:mdf": "Рузмастор",
          "name:mhr": "Россий",
          "name:min": "Rusia",
          "name:mrj": "Россий",
          "name:mwl": "Rússia",
          "name:myv": "Россия Мастор",
          "name:mzn": "ئوروسیا",
          "name:nah": "Rusia",
          "name:nan": "Lō͘-se-a",
          "name:nap": "Russia",
          "name:nds": "Russ'sche Föderatschoon",
          "name:new": "रुस",
          "name:nov": "Rusia",
          "name:nrm": "Russie",
          "name:nso": "Russia",
          "name:pag": "Rusia",
          "name:pam": "Rusia",
          "name:pap": "Rusia",
          "name:pcd": "Russie",
          "name:pdc": "Russland",
          "name:pfl": "Russlond",
          "name:pih": "Rusha",
          "name:pms": "Russia",
          "name:pnb": "روس",
          "name:pnt": "Ρουσία",
          "name:rmy": "Rusiya",
          "name:rue": "Росія",
          "name:sah": "Арассыыйа",
          "name:scn": "Russia",
          "name:sco": "Roushie",
          "name:smn": "Ruoššâ",
          "name:sms": "Ruõššjânnam",
          "name:srn": "Rusland",
          "name:stq": "Ruslound",
          "name:szl": "Rusyjŏ",
          "name:tet": "Rúsia",
          "name:tok": "ma Losi",
          "name:tpi": "Rasia",
          "name:tum": "Russia",
          "name:tzl": "Rußía",
          "name:udm": "Россия",
          "name:vec": "Rusia",
          "name:vep": "Venäma",
          "name:vls": "Rusland",
          "name:vro": "Vinnemaa",
          "name:war": "Rusya",
          "name:wuu": "俄罗斯",
          "name:xal": "Орсн Орн Нутг",
          "name:xmf": "რუსეთი",
          "name:yue": "俄羅斯",
          "name:zea": "Rusland",
          "old_name": "Московия;Русское Царство;Российская Империя;Российская Советская Федеративная Социалистическая Республика",
          "way_area": "3241.56",
          "wikidata": "Q159",
          "ISO3166-1": "RU",
          "wikipedia": "ru:Россия",
          "name:UN:ar": "الاتحاد الروسي",
          "name:UN:en": "Russian Federation (the)",
          "name:UN:es": "Federación de Rusia (la)",
          "name:UN:fr": "Fédération de Russie (la)",
          "name:UN:ru": "Российская Федерация",
          "name:UN:zh": "俄罗斯联邦",
          "population": "146447424",
          "short_name": "РФ",
          "admin_level": "2",
          "alt_name:eo": "Rusujo;Ruslando",
          "border_type": "nation",
          "name:nds-nl": "Ruslaand",
          "name:bat-smg": "Rosėjė",
          "name:cbk-zam": "Rusia",
          "name:map-bms": "Rusia",
          "name:roa-rup": "Arusia",
          "name:zh-Hans": "俄罗斯",
          "name:zh-Hant": "俄羅斯",
          "name:roa-tara": "Russie",
          "official_name": "Российская Федерация",
          "short_name:ru": "РФ",
          "name:be-tarask": "Расея",
          "old_short_name": "РСФСР",
          "according_to:RU": "yes",
          "according_to:UA": "no",
          "population:date": "2023-01-01",
          "ISO3166-1:alpha2": "RU",
          "ISO3166-1:alpha3": "RUS",
          "default_language": "ru",
          "official_name:ar": "الاتحاد الروسي",
          "official_name:be": "Расійская Федэрацыя",
          "official_name:cs": "Ruská federace",
          "official_name:de": "Russische Föderation",
          "official_name:en": "Russian Federation",
          "official_name:eo": "Rusa Federacio",
          "official_name:es": "Federación Rusa",
          "official_name:et": "Venemaa Föderatsioon",
          "official_name:fi": "Venäjän Federaatio",
          "official_name:fr": "Fédération de Russie",
          "official_name:nl": "Russische Federatie",
          "official_name:pl": "Federacja Rosyjska",
          "official_name:pt": "Federação Russa",
          "official_name:ru": "Российская Федерация",
          "official_name:sk": "Ruská federácia",
          "official_name:sl": "Ruska federacija",
          "official_name:sv": "Ryska Federationen",
          "official_name:uk": "Російська Федерація",
          "official_name:yi": "רוסישע פֿעדעראַציע",
          "official_name:zh": "俄罗斯联邦",
          "ISO3166-1:numeric": "643",
          "official_name:ast": "Federación Rusa",
          "old_short_name:en": "RSFSR",
          "old_short_name:ru": "РСФСР",
          "official_name:zh-Hans": "俄罗斯联邦",
          "official_name:zh-Hant": "俄羅斯聯邦"
        }
      },
      "geometry": {
        "type": "Polygon",
        "coordinates": [
          [
            [
              30,
              65
            ],
            [
              31,
              65
            ],
            [
              31,
              66
            ],
            [
              30,
              66
            ],
            [
              30,
              65.97754928246816
            ],
            [
              30.0242236,
              65.9666987
            ],
            [
              30.024207,
              65.9616191
            ],
            [
              30.024398,
              65.9587363
            ],
            [
              30.059374,
              65.910312
            ],
            [
              30.0684527,
              65.8949786
            ],
            [
              30.0871145,
              65.8506494
            ],
            [
              30.1050681,
              65.7930415
            ],
            [
              30.1073201,
              65.7884096
            ],
            [
              30.1120161,
              65.7747097
            ],
            [
              30.1193675,
              65.7521935
            ],
            [
              30.1296615,
              65.7153816
            ],
            [
              30.1301764,
              65.7140402
            ],
            [
              30.1340677,
              65.6997234
            ],
            [
              30.1384664,
              65.6686764
            ],
            [
              30.0396972,
              65.6872796
            ],
            [
              30.0171184,
              65.6964797
            ],
            [
              30.0013446,
              65.6931863
            ],
            [
              30,
              65.69287890593401
            ],
            [
              30,
              65
            ]
          ]
        ]
      }
    }
  ]
}