{
  "type": "FeatureCollection",
  "features": [
    {
      "type": "Feature",
      "properties": {
        "osm_id": -195273,
        "boundary": "administrative",
        "admin_level": 2,
        "parents": null,
        "name": "Mozambique",
        "local_name": "Moçambique",
        "name_en": "Mozambique",
        "all_tags": {
          "flag": "http://upload.wikimedia.org/wikipedia/commons/d/d0/Flag_of_Mozambique.svg",
          "name": "Moçambique",
          "name:af": "Mosambiek",
          "name:am": "ሞዛምቢክ",
          "name:an": "Mozambique",
          "name:ar": "موزمبيق",
          "name:az": "Mozambik",
          "name:ba": "Мозамбик",
          "name:be": "Мазамбік",
          "name:bg": "Мозамбик",
          "name:bm": "Mozanbik",
          "name:bn": "মোজাম্বিক",
          "name:bo": "མོ་ཛམ་བིཀ།",
          "name:br": "Mozambik",
          "name:bs": "Mozambik",
          "name:ca": "Moçambic",
          "name:ce": "Мозамбик",
          "name:co": "Mozambicu",
          "name:cs": "Mosambik",
          "name:cv": "Мозамбик",
          "name:cy": "Mosambic",
          "name:da": "Mozambique",
          "name:de": "Mosambik",
          "name:dv": "މުސިންބީ",
          "name:el": "Μοζαμβίκη",
          "name:en": "Mozambique",
          "name:eo": "Mozambiko",
          "name:es": "Mozambique",
          "name:et": "Mosambiik",
          "name:eu": "Mozambike",
          "name:fa": "موزامبیک",
          "name:fi": "Mosambik",
          "name:fo": "Mosambik",
          "name:fr": "Mozambique",
          "name:fy": "Mozambyk",
          "name:ga": "Poblacht Mhósaimbíc",
          "name:gd": "Mòsaimbic",
          "name:gl": "Mozambique",
          "name:gn": "Mosambike",
          "name:gv": "Yn Vosambeeck",
          "name:he": "מוזמביק",
          "name:hi": "मोज़ाम्बीक",
          "name:hr": "Mozambik",
          "name:ht": "Mozanbik",
          "name:hu": "Mozambik",
          "name:hy": "Մոզամբիկ",
          "name:ia": "Mozambique",
          "name:id": "Mozambik",
          "name:ie": "Mozambique",
          "name:io": "Mozambik",
          "name:is": "Mósambík",
          "name:it": "Mozambico",
          "name:ja": "モザンビーク",
          "name:jv": "Mozambik",
          "name:ka": "მოზამბიკი",
          "name:kg": "Musambiki",
          "name:kk": "Мозамбик",
          "name:kn": "ಮೊಜಾಂಬಿಕ್",
          "name:ko": "모잠비크",
          "name:ku": "Mozambîk",
          "name:kw": "Mosambik",
          "name:la": "Mozambicum",
          "name:lb": "Mosambik",
          "name:li": "Mozambique",
          "name:ln": "Mozambíki",
          "name:lt": "Mozambikas",
          "name:lv": "Mozambika",
          "name:mg": "Mozambika",
          "name:mi": "Mohapiki",
          "name:mk": "Мозамбик",
          "name:ml": "മൊസാംബിക്ക്",
          "name:mn": "Мозамбик",
          "name:mr": "मोझांबिक",
          "name:ms": "Mozambique",
          "name:mt": "Możambik",
          "name:my": "မိုဇမ်ဘစ်နိုင်ငံ",
          "name:nl": "Mozambique",
          "name:nn": "Mosambik",
          "name:no": "Mosambik",
          "name:ny": "Mozambique",
          "name:oc": "Moçambic",
          "name:or": "ମୋଜାମ୍ବିକ",
          "name:os": "Мозамбик",
          "name:pa": "ਮੋਜ਼ੈਂਬੀਕ",
          "name:pl": "Mozambik",
          "name:ps": "موزمبيق",
          "name:pt": "Moçambique",
          "name:qu": "Musambik",
          "name:ro": "Mozambic",
          "name:ru": "Мозамбик",
          "name:rw": "Mozambike",
          "name:sa": "मोजम्बीक",
          "name:sc": "Mozambico",
          "name:se": "Mosambik",
          "name:sg": "Mözämbîka",
          "name:sh": "Mozambik",
          "name:sk": "Mozambik",
          "name:sl": "Mozambik",
          "name:sn": "Mozambique",
          "name:so": "Musanbiig",
          "name:sq": "Mozambiku",
          "name:sr": "Мозамбик",
          "name:ss": "IMozambikhi",
          "name:su": "Mosambik",
          "name:sv": "Moçambique",
          "name:sw": "Msumbiji",
          "name:ta": "மொசாம்பிக்",
          "name:tg": "Мозамбик",
          "name:th": "ประเทศโมซัมบิก",
          "name:ti": "ሞዛምቢክ",
          "name:tk": "Mozambik",
          "name:tl": "Musambik",
          "name:tr": "Mozambik",
          "name:ts": "Mozambique",
          "name:ug": "موزامبىك",
          "name:uk": "Мозамбік",
          "name:ur": "موزمبیق",
          "name:uz": "Mozambik",
          "name:ve": "Mozambikwi",
          "name:vi": "Mozambique",
          "name:vo": "Mozambikän",
          "name:wo": "Mosambik",
          "name:yi": "מאזאמביק",
          "name:yo": "Mòsámbìk",
          "name:zh": "莫桑比克 / 莫三比克",
          "name:zu": "IMozambiki",
          "boundary": "administrative",
          "name:ace": "Mozambik",
          "name:als": "Mosambik",
          "name:ang": "Mosambice",
          "name:arz": "موزامبيق",
          "name:ast": "Mozambique",
          "name:bcl": "Mosambik",
          "name:bjn": "Mozambik",
          "name:bpy": "মোজাম্বিক",
          "name:bxr": "Мозамбик",
          "name:ceb": "Mozambique",
          "name:ckb": "مۆزامبیک",
          "name:crh": "Mozambik",
          "name:diq": "Mozambik",
          "name:dsb": "Mosambik",
          "name:ext": "Mozambiqui",
          "name:frp": "Mozambique",
          "name:gag": "Mozambik",
          "name:hak": "Mo̍k-sông-pí-khiet",
          "name:hif": "Mozambique",
          "name:hsb": "Mosambik",
          "name:ilo": "Mosambike",
          "name:jbo": "mosambik",
          "name:lad": "Mosambiko",
          "name:lij": "Moçambico",
          "name:lmo": "Muzambich",
          "name:ltg": "Mozambika",
          "name:lzh": "莫三比克",
          "name:min": "Mozambik",
          "name:mwl": "Moçambique",
          "name:nah": "Mozambique",
          "name:nan": "Moçambique",
          "name:nds": "Mosambik",
          "name:nov": "Mozambik",
          "name:nso": "Mozambique",
          "name:pam": "Mozambique",
          "name:pap": "Mozambique",
          "name:pms": "Mosambich",
          "name:pnb": "موزمبیق",
          "name:sah": "Мозамбик",
          "name:scn": "Mozambicu",
          "name:sco": "Mozambique",
          "name:smn": "Mosambik",
          "name:sms": "Mosambikk",
          "name:stq": "Mosambik",
          "name:szl": "Mozambik",
          "name:tet": "Mosambike",
          "name:tzl": "Moçambica",
          "name:vec": "Mozanbico",
          "name:vro": "Mosambiik",
          "name:war": "Mozambique",
          "name:xal": "Мозамбикудин Орн",
          "name:yue": "莫三鼻給",
          "timezone": "Africa/Maputo",
          "way_area": "72.964",
          "wikidata": "Q1029",
          "ISO3166-1": "MZ",
          "wikipedia": "pt:Moçambique",
          "admin_level": "2",
          "name:simple": "Mozambique",
          "driving_side": "left",
          "name:bat-smg": "Mozambėks",
          "name:roa-rup": "Mozambic",
          "name:zh-Hans": "莫桑比克",
          "name:zh-Hant": "莫三比克",
          "name:be-tarask": "Мазамбік",
          "ISO3166-1:alpha2": "MZ",
          "ISO3166-1:alpha3": "MOZ",
          "default_language": "pt",
          "official_name:cs": "Mosambická republika",
          "ISO3166-1:numeric": "508"
        }
      },
      "geometry": {
        "type": "Polygon",
        "coordinates": [
          [
            [
              31.3073774,
              -22.4241096
            ],
            [
              31.3468005,
              -22.5422679
            ],
            [
              31.4752556,
              -22.9255938
            ],
            [
              31.50005848716565,
              -23
            ],
            [
              32,
              -23
            ],
            [
              32,
              -22
            ],
            [
              31.75097096493689,
              -22
            ],
            [
              31.6810875,
              -22.0713943
            ],
            [
              31.6522335,
              -22.1012162
            ],
            [
              31.6124424,
              -22.141378
            ],
            [
              31.3764754,
              -22.3813244
            ],
            [
              31.3487297,
              -22.3984412
            ],
            [
              31.3093667,
              -22.4220084
            ],
            [
              31.3073774,
              -22.4241096
            ]
          ]
        ]
      }
    },
    {
      "type": "Feature",
      "properties": {
        "osm_id": -1252792,
        "boundary": "land_area",
        "admin_level": 2,
        "parents": null,
        "name": "South Africa (land mass)",
        "local_name": "South Africa (land mass)",
        "name_en": "South Africa (land mass)",
        "all_tags": {
          "flag": "http://upload.wikimedia.org/wikipedia/commons/a/af/Flag_of_South_Africa.svg",
          "name": "South Africa (land mass)",
          "name:af": "Suid-Afrika",
          "name:ak": "Afrika Anaafo",
          "name:am": "ደቡብ አፍሪካ",
          "name:an": "Sudafrica",
          "name:ar": "جنوب أفريقيا",
          "name:az": "Cənub Afrika",
          "name:be": "Паўднёва-Афрыканская Рэспубліка",
          "name:bg": "Южна Африка",
          "name:bm": "Worodugu Afriki",
          "name:bn": "দক্ষিণ আফ্রিকা",
          "name:bo": "ལྷོ་ ཨཕྲི་ཀ།",
          "name:br": "Suafrika",
          "name:bs": "Južna Afrika",
          "name:ca": "Sud-àfrica",
          "name:cs": "Jižní Afrika",
          "name:cv": "Кăнтăр Африка",
          "name:cy": "De Affrica",
          "name:da": "Sydafrika",
          "name:de": "Südafrika (Landmass)",
          "name:dv": "ދެކުނު އެފްރިކާ",
          "name:dz": "སཱའུཐ་ ཨཕ་རི་ཀ",
          "name:ee": "Anyiehe Afrika nutome",
          "name:el": "Νότια Αφρική",
          "name:en": "South Africa (land mass)",
          "name:eo": "Sudafriko",
          "name:es": "Sudáfrica",
          "name:et": "Lõuna-Aafrika",
          "name:eu": "Hegoafrika",
          "name:fa": "آفریقای جنوبی",
          "name:ff": "Afrik bŋ Worgo",
          "name:fi": "Etelä-Afrikka",
          "name:fo": "Suðurafrika",
          "name:fr": "Afrique du Sud (terres)",
          "name:fy": "Súd-Afrika",
          "name:ga": "An Afraic Theas",
          "name:gd": "Afraga a Deas",
          "name:gl": "Sudáfrica",
          "name:gn": "Yvyafrika",
          "name:gu": "દક્ષિણ આફ્રિકા",
          "name:gv": "Yn Affrick Yiass",
          "name:ha": "Afirka ta Kudu",
          "name:he": "דרום אפריקה",
          "name:hi": "दक्षिण अफ़्रीका",
          "name:hr": "Južna Afrika",
          "name:ht": "Afrik disid",
          "name:hu": "Dél-Afrika",
          "name:hy": "Հարավային Աֆրիկա",
          "name:ia": "Africa del Sud",
          "name:id": "Afrika Selatan",
          "name:ie": "Sudafrica",
          "name:io": "Sud-Afrika",
          "name:is": "Suður-Afríka",
          "name:it": "Sudafrica",
          "name:ja": "南アフリカ",
          "name:jv": "Afrika Kidul",
          "name:ka": "სამხრეთ აფრიკა",
          "name:kg": "Afelika ya Sudi",
          "name:ki": "Abĩrika Kusini",
          "name:kk": "Оңтүстік Африка",
          "name:km": "អាព្រិក​ភាគ​ខាង​ត្បូង",
          "name:kn": "ದಕ್ಷಿಣ ಆಫ್ರಿಕಾ",
          "name:ko": "남아프리카",
          "name:ks": "جَنوٗبی اَفریٖکا",
          "name:ku": "Afrîkaya Başûr",
          "name:kv": "Лунвыв Африкаса Республика",
          "name:kw": "Afrika Dhyhow",
          "name:ky": "Африкаанс тили",
          "name:la": "Africa Australis",
          "name:lb": "Südafrika",
          "name:lg": "Sawusafirika",
          "name:li": "Zuud-Afrika",
          "name:ln": "Sidafríka",
          "name:lo": "ອາຟະລິກາໃຕ້",
          "name:lt": "Pietų Afrika",
          "name:lv": "Dienvidāfrika",
          "name:mg": "Afrika Atsimo",
          "name:mi": "Āwherika-ki-te-tonga",
          "name:mk": "Јужна Африка",
          "name:ml": "ദക്ഷിണാഫ്രിക്ക",
          "name:mn": "Өмнөд Африк",
          "name:mr": "दक्षिण अफ्रिका",
          "name:ms": "Afrika Selatan",
          "name:mt": "Afrika t’Isfel",
          "name:my": "တောင်အာဖရိက",
          "name:ne": "दक्षिण अफ्रिका",
          "name:nl": "Zuid-Afrika",
          "name:nn": "Sør-Afrika",
          "name:no": "Sør-Afrika",
          "name:oc": "Sud-Africa",
          "name:or": "ଦକ୍ଷିଣ ଆଫ୍ରିକା",
          "name:os": "Хуссар Африкæйы",
          "name:pa": "ਦੱਖਣੀ ਅਫ਼ਰੀਕਾ",
          "name:pl": "Republika Południowej Afryki",
          "name:ps": "سویلي افریقا",
          "name:pt": "África do Sul",
          "name:qu": "Urin Aphrika",
          "name:rm": "Africa dal Sid",
          "name:rn": "Afurika y'Epfo",
          "name:ro": "Africa de Sud",
          "name:ru": "Южная Африка",
          "name:rw": "Afurika y’Epfo",
          "name:sa": "दक्षिण-आफ्रिका",
          "name:sc": "Sudàfrica",
          "name:se": "Lulli-Afrihká",
          "name:sg": "Afrîka-Mbongo",
          "name:sh": "Južna Afrika",
          "name:si": "දකුණු අප්‍රිකාව",
          "name:sk": "Južná Afrika",
          "name:sl": "Južna Afrika",
          "name:so": "Koonfur Afrika",
          "name:sq": "Afrika e Jugut",
          "name:sr": "Јужна Африка",
          "name:ss": "INingizimu Afrika",
          "name:st": "Afrika Borwa",
          "name:su": "Afrika Kidul",
          "name:sv": "Sydafrika",
          "name:sw": "Afrika Kusini",
          "name:ta": "தென் ஆப்பிரிக்கா",
          "name:te": "దక్షిణ ఆఫ్రికా రాజ్యం",
          "name:tg": "Африқои Ҷанубӣ",
          "name:th": "แอฟริกาใต้",
          "name:ti": "ደቡብ አፍሪካ",
          "name:tk": "Günorta Afrika",
          "name:tn": "Aferika Borwa",
          "name:to": "ʻAfilika tonga",
          "name:tr": "Güney Afrika",
          "name:ts": "Afrika-Dzonga",
          "name:tt": "Көньяк Африка",
          "name:ug": "جەنۇبىي ئافرىقا",
          "name:uk": "Південний Африки",
          "name:ur": "جنوبی افریقہ",
          "name:uz": "Janubiy Afrika",
          "name:ve": "Afurika Tshipembe",
          "name:vi": "Nam Phi",
          "name:vo": "Sulüdafrikän",
          "name:wa": "Nonne-Afrike",
          "name:wo": "Afrig gu Bëj-saalum",
          "name:xh": "uMzantsi Afrika",
          "name:yi": "דרום אפריקע",
          "name:yo": "Gúúsù Áfríkà",
          "name:zh": "南非",
          "name:zu": "iNingizimu Afrika",
          "boundary": "land_area",
          "int_name": "South Africa",
          "name:ace": "Afrika Seulatan",
          "name:als": "Südafrika",
          "name:ang": "Sūðaffrica",
          "name:arz": "جنوب افريقيا",
          "name:ast": "Sudáfrica",
          "name:bar": "Südafrika",
          "name:bjn": "Aprika Salatan",
          "name:bpy": "খা আফ্রিকা",
          "name:ceb": "Habagatang Aprika",
          "name:chy": "Mo'hetaneho'e hánêsóvóne",
          "name:ckb": "ئەفریقای باشوور",
          "name:crh": "Cenübiy Afrika",
          "name:diq": "Afrikaya Veroci",
          "name:dsb": "Pódpołdnjowa Afrika",
          "name:ext": "Sudáfrica",
          "name:frp": "Africa du Sud",
          "name:fur": "Sud Afriche",
          "name:gag": "Üülen Afrika Respublikası",
          "name:gan": "南非",
          "name:hak": "Nàm-fî",
          "name:haw": "ʻApelika Hema",
          "name:hif": "South Africa",
          "name:ilo": "Abagatan nga Áprika",
          "name:jbo": "nanfi'ogu'e",
          "name:kaa": "Qubla Afrika",
          "name:kab": "Tafriqt Wadda",
          "name:krc": "Къыбыла-Африкан Республика",
          "name:ksh": "Södaffrika",
          "name:lad": "Sud-Afrika",
          "name:lij": "Sudafrica",
          "name:lmo": "Südafrica",
          "name:ltg": "Dīnavydu Afrikys",
          "name:mdf": "Лямбеширень Африк",
          "name:min": "Afrika Selatan",
          "name:mzn": "جنوبی آفریخا",
          "name:nah": "Africa Huitztlāmpa",
          "name:nan": "Lâm-hui",
          "name:nds": "Süüdafrika",
          "name:new": "दक्षिण अफ्रिका",
          "name:nov": "Sud Afrika",
          "name:nso": "Afrika Borwa",
          "name:pam": "Mauling Aprika",
          "name:pap": "Sur Afrika",
          "name:pdc": "Saut Afrikaa",
          "name:pih": "Sowth Afreka",
          "name:pms": "Sudàfrica",
          "name:pnb": "دکھنی افریقہ",
          "name:rue": "Южна Африка",
          "name:sah": "Соҕуруу Африка",
          "name:scn": "Àfrica dû Sud",
          "name:sco": "Sooth Africae",
          "name:stq": "Suud-Afrikoa",
          "name:szl": "Połedńowyj Afriki",
          "name:tzl": "Südafrica",
          "name:vec": "Sudàfrica",
          "name:war": "Salatan nga Apriká",
          "name:wuu": "南非",
          "name:xal": "Өмн Априкин",
          "name:xmf": "ობჟათე აფრიკა",
          "name:yue": "南非",
          "name:zea": "Zuud-Afrika",
          "timezone": "Africa/Johannesburg",
          "way_area": "113.121",
          "wikidata": "Q258",
          "ISO3166-1": "ZA",
          "land_area": "administrative",
          "wikipedia": "en:South Africa",
          "population": "49991300",
          "admin_level": "2",
          "alt_name:gl": "África do Sur",
          "alt_name:ln": "Afríka ya Súdi",
          "alt_name:oc": "Africa del Sud",
          "alt_name:wo": "Afrig gu Bëj-gànnaar",
          "name:nds-nl": "Zuud-Afrika",
          "capital_city": "Pretoria;Bloemfontein;Cape Town",
          "official_name": "Republic of South Africa",
          "short_name:af": "ZAR",
          "short_name:be": "ПАР",
          "short_name:bg": "РЮА",
          "short_name:cv": "КАР",
          "short_name:en": "RSA",
          "short_name:fr": "RSA",
          "short_name:kv": "ЛАР",
          "short_name:ky": "ТАР",
          "short_name:mn": "ӨАБНУ",
          "short_name:os": "ХАР",
          "short_name:pl": "RPA",
          "short_name:ru": "ЮАР",
          "short_name:sl": "JAR",
          "short_name:tk": "GAR",
          "short_name:tt": "КАҖ",
          "short_name:uk": "ПАР",
          "short_name:uz": "JAR",
          "name:zh_pinyin": "Nán Fēi",
          "short_name:kbd": "ИАР",
          "short_name:krc": "КъАР",
          "short_name:mdf": "ЛАР",
          "short_name:sah": "САР",
          "ISO3166-1:alpha2": "ZA",
          "ISO3166-1:alpha3": "ZAF",
          "official_name:af": "Zuid-Afrikaansche Republiek",
          "official_name:am": "የደቡብ አፍሪካ ሬፑብሊክ",
          "official_name:an": "Republica de Sudafrica",
          "official_name:ar": "جمهورية جنوب أفريقيا",
          "official_name:az": "Cənubi Afrika Respublikası",
          "official_name:be": "Паўднёва-Афрыканская Рэспубліка",
          "official_name:bg": "Република Южна Африка",
          "official_name:bm": "Worodugu Afrika ka Fasojamana",
          "official_name:bn": "রিপাবলিক অফ সাউথ আফ্রিকা",
          "official_name:br": "Republik Suafrika",
          "official_name:bs": "Južnoafrička Republika",
          "official_name:ca": "República de Sud-àfrica",
          "official_name:cs": "Jihoafrická republika",
          "official_name:cv": "Кăнтăр Африка Республики",
          "official_name:cy": "Gweriniaeth De Affrica",
          "official_name:da": "Republikken Sydafrika",
          "official_name:de": "Republik Südafrika",
          "official_name:el": "Δημοκρατία της Νοτίου Αφρικής",
          "official_name:en": "Republic of South Africa",
          "official_name:eo": "Respubliko de Sud-Afriko",
          "official_name:es": "República de Sudáfrica",
          "official_name:et": "Lõuna-Aafrika Vabariik",
          "official_name:eu": "Hegoafrikako Errepublika",
          "official_name:fa": "جمهوری آفریقای جنوبی",
          "official_name:fi": "Etelä-Afrikan tasavalta",
          "official_name:fo": "Tjóðveldið Suðurafrika",
          "official_name:fr": "République d'Afrique du Sud",
          "official_name:fy": "Súd-Afrikaanske Republyk",
          "official_name:ga": "Poblacht na hAfraice Theas",
          "official_name:gd": "Poblachd Afraga a Deas",
          "official_name:gl": "República de Sudáfrica",
          "official_name:gn": "Tetã Yvyafrika",
          "official_name:gu": "દક્ષિણ આફ્રિકાનું ગણરાજ્ય",
          "official_name:gv": "Pobblaght yn Affrick Yiass",
          "official_name:ha": "Jamhuriyar Afrika ta Kudu",
          "official_name:he": "רפובליקת דרום אפריקה",
          "official_name:hi": "दक्षिण अफ़्रीका गणराज्य",
          "official_name:hr": "Južnoafrička Republika",
          "official_name:ht": "Repiblik Afrik disid",
          "official_name:hu": "Dél-Afrikai Köztársaság",
          "official_name:ia": "Republica del Africa del Sud",
          "official_name:id": "Republik Afrika Selatan",
          "official_name:ie": "Republic de Sudafrica",
          "official_name:io": "Republiko di Sud-Afrika",
          "official_name:is": "Lýðveldið Suður-Afríku",
          "official_name:it": "Repubblica del Sudafrica",
          "official_name:ja": "南アフリカ共和国",
          "official_name:jv": "Republik Afrika Kidul",
          "official_name:ka": "სამხრეთ აფრიკის რესპუბლიკა",
          "official_name:kg": "Repubilika ya Afelika ya Sudi",
          "official_name:kk": "Оңтүстік Африка Республикасы",
          "official_name:ku": "Komara Afrîkaya Başûr",
          "official_name:kv": "Лунвыв Африкаса Республика",
          "official_name:ky": "Түштүк-Африка Республикасы",
          "official_name:la": "Res Publica Africae Australis",
          "official_name:lb": "Republik Südafrika",
          "official_name:ln": "Republíki ya Sidafríka",
          "official_name:lt": "Pietų Afrikos Respublika",
          "official_name:lv": "Dienvidāfrikas Republika",
          "official_name:mk": "Јужноафриканска Република",
          "official_name:ml": "റിപബ്ലിക്ക് ഓഫ് സൗത്ത് ആഫ്രിക്ക",
          "official_name:mn": "Өмнөд Африкийн Бүгд Найрамдах Улс",
          "official_name:mr": "दक्षिण आफ्रिकेचे गणराज्य",
          "official_name:ms": "Republik Afrika Selatan",
          "official_name:mt": "Repubblika tal-Afrika t'Isfel",
          "official_name:my": "တောင်အာဖရိက သမ္မတနိုင်ငံ",
          "official_name:nl": "Republiek Zuid-Afrika",
          "official_name:nn": "Sørafrikanske republikken",
          "official_name:no": "Republikken Sør-Afrika",
          "official_name:nr": "iRiphabliki yeSewula Afrika",
          "official_name:nv": "Kéyah Naakai Łizhinii Bikéyah Shádiʼááhjí Siʼánígíí",
          "official_name:oc": "Republica Sud-Africana",
          "official_name:os": "Хуссар Африкæйы Республикæ",
          "official_name:pa": "ਦੱਖਣ ਅਫ਼ਰੀਕਾ ਗਣਰਾਜ",
          "official_name:pl": "Republika Południowej Afryki",
          "official_name:pt": "República da África do Sul",
          "official_name:qu": "Urin Aphrika Republika",
          "official_name:rm": "Republica Sidafricana",
          "official_name:ro": "Republica Africa de Sud",
          "official_name:ru": "Южно-Африканская Республика",
          "official_name:rw": "Repubulika ’Afurika y ’Epfo",
          "official_name:sc": "Repubblica de su Sudàfrica",
          "official_name:se": "Lulli-Afrihká dásseváldi",
          "official_name:sg": "Ködörösêse tî Afrîka-Mbongo",
          "official_name:sh": "Južnoafrička Republika;Republika Južna Afrika",
          "official_name:sk": "Juhoafrická republika",
          "official_name:sl": "Južnoafriška republika;Republika Južna Afrika",
          "official_name:so": "Jamhuuriyadda Koonfur Afrika",
          "official_name:sq": "Republika Jugafrikane",
          "official_name:sr": "Јужноафричка Република;Република Јужна Африка",
          "official_name:ss": "iRiphabhulikhi yeNingizimu Afrika",
          "official_name:st": "Rephabliki ya Afrika Borwa",
          "official_name:su": "Republik Afrika Kidul",
          "official_name:sv": "Republiken Sydafrika",
          "official_name:sw": "Jamhuri ya Afrika Kusini",
          "official_name:tg": "Ҷазираҳои Африқои Ҷанубӣ",
          "official_name:th": "ประเทศแอฟริกาใต้",
          "official_name:tk": "Günorta Afrika Respublikasy",
          "official_name:tn": "Rephaboliki ya Aforika Borwa",
          "official_name:ts": "Riphabliki ya Afrika-Dzonga",
          "official_name:tt": "Көньяк Африка Җөмһүрияте",
          "official_name:uk": "Південно-Африканська Республіка",
          "official_name:uz": "Janubiy Afrika Respublikasi",
          "official_name:ve": "Riphabuḽiki ya Afurika Tshipembe",
          "official_name:vi": "Cộng hòa Nam Phi",
          "official_name:vo": "Repüblikän Sulüdafrikäna",
          "official_name:wa": "Republike di Nonne-Afrike",
          "official_name:wo": "Republik bu Afrig gu Bëj-saalum",
          "official_name:xh": "iRiphabliki yaseMzantsi Afrika",
          "official_name:yi": "רעפובליק פון דרום אפריקע",
          "official_name:yo": "Orílẹ̀-èdè Olómìnira ilẹ̀ Gúúsù Áfríkà",
          "official_name:zh": "南非共和国",
          "official_name:zu": "iRiphabliki yaseNingizimu Afrika",
          "ISO3166-1:numeric": "710",
          "country_code_fips": "SF",
          "official_name:ace": "Republik Afrika Seulatan",
          "official_name:als": "Republik Südafrika",
          "official_name:ang": "Cynewīse Sūþaffrice",
          "official_name:arz": "جمهورية جنوب افريقيا",
          "official_name:ast": "República Sudafricana",
          "official_name:bar": "Republik Südafrika",
          "official_name:bjn": "Republik Aprika Salatan",
          "official_name:bpy": "প্রজাতন্ত্রি খা আফ্রিকা",
          "official_name:ceb": "Republikang Habagatang Aprikano",
          "official_name:ckb": "کۆماری ئافریقای باشوور",
          "official_name:crh": "Cenübiy Afrika Cumhuriyeti",
          "official_name:diq": "Cumhuriyetê Afrikaya Veroci",
          "official_name:dsb": "Pódpołdnjowa Afrika Republika",
          "official_name:ext": "Repúbrica de Sudáfrica",
          "official_name:frp": "Rèpublica de l'Africa du Sud",
          "official_name:gag": "Üülen Afrika Respublikası",
          "official_name:gan": "南非共和國",
          "official_name:hif": "Republic of South Africa",
          "official_name:hsb": "Republika Južna Afrika",
          "official_name:ilo": "Republika iti Abagatan nga Áprika",
          "official_name:kaa": "Qubla Afrika Respublikası",
          "official_name:kbd": "Ипшъэ Африкэ Республикэ",
          "official_name:krc": "Къыбыла-Африкан Республика",
          "official_name:lad": "Repuvlika de Sud-Afrika",
          "official_name:lmo": "Repübliga de Südafrica",
          "official_name:ltg": "Dīnavydu Afrikys Republika",
          "official_name:mdf": "Лямбеширень Африконь Республик",
          "official_name:nah": "Tlācatlahtohcāyōtl Africa Huitztlāmpa",
          "official_name:nan": "Lâm-hui Kiōng-hô-kok",
          "official_name:nds": "Süüdafrikaansche Republiek",
          "official_name:nov": "Sud Afrikani Republike",
          "official_name:nso": "Repabliki le Afrika Borwa",
          "official_name:pam": "Republika ning Mauling Aprika",
          "official_name:pap": "Republika di Sur Afrika",
          "official_name:pdc": "Republik vun Saut Afrikaa",
          "official_name:pih": "Sowth Afrekan Repablik",
          "official_name:pms": "Repùblica Sudafrican-a",
          "official_name:sah": "Соҕуруу Африка Республиката",
          "official_name:scn": "Ripùbbrica dû Àfrica dû Sud",
          "official_name:sco": "Sooth African Republic",
          "official_name:stq": "Suud-afrikoanske Republik",
          "official_name:szl": "Połedńowoafrikańsko Republika;Republika Połedńowyj Afriki",
          "official_name:vec": "Republica Sudafricana",
          "official_name:war": "Republika han Salatan nga Aprika",
          "official_name:xal": "Өмн Априкин Орн",
          "official_name:xmf": "ობჟათე აფრიკაშ რესპუბლიკა",
          "official_name:yue": "南非共和國",
          "official_name:zea": "Zuud-Afrikaonse Republiek",
          "official_name:nds-nl": "Rippebliek Zuud-Afrika",
          "capital_city:judicial": "Bloemfontein",
          "capital_city:legislative": "Cape Town",
          "capital_city:administrative": "Pretoria",
          "country_code_iso3166_1_alpha_2": "ZA"
        }
      },
      "geometry": {
        "type": "Polygon",
        "coordinates": [
          [
            [
              31,
              -23
            ],
            [
              31.50005848716565,
              -23
            ],
            [
              31.4752556,
              -22.9255938
            ],
            [
              31.3468005,
              -22.5422679
            ],
            [
              31.3073774,
              -22.4241096
            ],
            [
              31.30314,
              -22.41699
            ],
            [
              31.30013,
              -22.41369
            ],
            [
              31.29668,
              -22.41111
            ],
            [
              31.29015,
              -22.40721
            ],
            [
              31.2885,
              -22.4059
            ],
            [
              31.28653,
              -22.40357
            ],
            [
              31.28409,
              -22.39879
            ],
            [
              31.27947,
              -22.39246
            ],
            [
              31.27706,
              -22.38783
            ],
            [
              31.27598,
              -22.38474
            ],
            [
              31.27468,
              -22.37774
            ],
            [
              31.27368,
              -22.37476
            ],
            [
              31.26904,
              -22.36798
            ],
            [
              31.26513,
              -22.36548
            ],
            [
              31.26313,
              -22.36486
            ],
            [
              31.25391,
              -22.36341
            ],
            [
              31.24945,
              -22.36287
            ],
            [
              31.24842,
              -22.36294
            ],
            [
              31.24731,
              -22.36332
            ],
            [
              31.24394,
              -22.36403
            ],
            [
              31.24008,
              -22.36452
            ],
            [
              31.23281,
              -22.36683
            ],
            [
              31.23107,
              -22.36744
            ],
            [
              31.23062,
              -22.3678
            ],
            [
              31.22871,
              -22.36777
            ],
            [
              31.22423,
              -22.3689
            ],
            [
              31.22301,
              -22.36936
            ],
            [
              31.22087,
              -22.36981
            ],
            [
              31.21699,
              -22.36978
            ],
            [
              31.21516,
              -22.3694
            ],
            [
              31.2131,
              -22.36869
            ],
            [
              31.20968,
              -22.36703
            ],
            [
              31.20761,
              -22.36528
            ],
            [
              31.20392,
              -22.36298
            ],
            [
              31.20254,
              -22.36229
            ],
            [
              31.20093,
              -22.36085
            ],
            [
              31.19906,
              -22.35795
            ],
            [
              31.1983,
              -22.35728
            ],
            [
              31.19736,
              -22.35552
            ],
            [
              31.19616,
              -22.35412
            ],
            [
              31.19554,
              -22.35218
            ],
            [
              31.19319,
              -22.34856
            ],
            [
              31.19044,
              -22.34264
            ],
            [
              31.18741,
              -22.33893
            ],
            [
              31.18575,
              -22.33827
            ],
            [
              31.18295,
              -22.33684
            ],
            [
              31.17874,
              -22.33369
            ],
            [
              31.17535,
              -22.33231
            ],
            [
              31.17409,
              -22.33147
            ],
            [
              31.17093,
              -22.33053
            ],
            [
              31.16543,
              -22.32939
            ],
            [
              31.1636,
              -22.32865
            ],
            [
              31.1614,
              -22.32839
            ],
            [
              31.15921,
              -22.3287
            ],
            [
              31.15653,
              -22.32858
            ],
            [
              31.15292,
              -22.32964
            ],
            [
              31.14939,
              -22.33037
            ],
            [
              31.14714,
              -22.33103
            ],
            [
              31.14488,
              -22.33108
            ],
            [
              31.14311,
              -22.3316
            ],
            [
              31.14103,
              -22.33187
            ],
            [
              31.13972,
              -22.3324
            ],
            [
              31.13488,
              -22.33365
            ],
            [
              31.13381,
              -22.33414
            ],
            [
              31.13249,
              -22.33502
            ],
            [
              31.12659,
              -22.33663
            ],
            [
              31.12297,
              -22.33825
            ],
            [
              31.1213,
              -22.33884
            ],
            [
              31.11822,
              -22.33962
            ],
            [
              31.11491,
              -22.34144
            ],
            [
              31.10766,
              -22.34342
            ],
            [
              31.10307,
              -22.34568
            ],
            [
              31.10115,
              -22.34615
            ],
            [
              31.09759,
              -22.34772
            ],
            [
              31.09411,
              -22.34869
            ],
            [
              31.0889056,
              -22.3491638
            ],
            [
              31.0828,
              -22.34783
            ],
            [
              31.08129,
              -22.3471
            ],
            [
              31.07556,
              -22.34511
            ],
            [
              31.07397,
              -22.34409
            ],
            [
              31.068,
              -22.34226
            ],
            [
              31.06597,
              -22.34133
            ],
            [
              31.064584,
              -22.3412162
            ],
            [
              31.06173,
              -22.34026
            ],
            [
              31.05947,
              -22.33982
            ],
            [
              31.05526,
              -22.33855
            ],
            [
              31.05315,
              -22.33812
            ],
            [
              31.0508,
              -22.33719
            ],
            [
              31.05009,
              -22.33712
            ],
            [
              31.04823,
              -22.33603
            ],
            [
              31.04515,
              -22.33517
            ],
            [
              31.04458,
              -22.33482
            ],
            [
              31.04193,
              -22.33397
            ],
            [
              31.03877,
              -22.33268
            ],
            [
              31.0375,
              -22.33165
            ],
            [
              31.03406,
              -22.33007
            ],
            [
              31.03283,
              -22.32972
            ],
            [
              31.02716,
              -22.3275
            ],
            [
              31.02587,
              -22.32687
            ],
            [
              31.02199,
              -22.32446
            ],
            [
              31.0191,
              -22.32356
            ],
            [
              31.01399,
              -22.3213
            ],
            [
              31.01162,
              -22.32073
            ],
            [
              31.00944,
              -22.31983
            ],
            [
              31.00684,
              -22.31906
            ],
            [
              31.0058,
              -22.31845
            ],
            [
              31.00318,
              -22.31731
            ],
            [
              31,
              -22.31682076923077
            ],
            [
              31,
              -23
            ]
          ]
        ]
      }
    },
    {
      "type": "Feature",
      "properties": {
        "osm_id": -195272,
        "boundary": "administrative",
        "admin_level": 2,
        "parents": null,
        "name": "Zimbabwe",
        "local_name": "Zimbabwe",
        "name_en": "Zimbabwe",
        "all_tags": {
          "flag": "http://upload.wikimedia.org/wikipedia/commons/6/6a/Flag_of_Zimbabwe.svg",
          "name": "Zimbabwe",
          "name:af": "Zimbabwe",
          "name:am": "ዚምባብዌ",
          "name:an": "Zimbabwe",
          "name:ar": "زيمبابوي",
          "name:az": "Zimbabve",
          "name:ba": "Зимбабве",
          "name:be": "Зімбабвэ",
          "name:bg": "Зимбабве",
          "name:bm": "Zimbabwe",
          "name:bn": "জিম্বাবুয়ে",
          "name:bo": "ཛིམ་བབ་ཝི།",
          "name:br": "Zimbabwe",
          "name:bs": "Zimbabve",
          "name:ca": "Zimbabwe",
          "name:ce": "Зимбабве",
          "name:cs": "Zimbabwe",
          "name:cv": "Зимбабве",
          "name:cy": "Zimbabwe",
          "name:da": "Zimbabwe",
          "name:de": "Simbabwe",
          "name:dv": "ޒިމްބާބުވޭ",
          "name:dz": "ཛིམ་བབ་ཝེ་",
          "name:ee": "Zimbabwe",
          "name:el": "Ζιμπάμπουε",
          "name:en": "Zimbabwe",
          "name:eo": "Zimbabvo",
          "name:es": "Zimbabue",
          "name:et": "Zimbabwe",
          "name:eu": "Zimbabwe",
          "name:fa": "زیمبابوه",
          "name:fi": "Zimbabwe",
          "name:fo": "Simbabvi",
          "name:fr": "Zimbabwe",
          "name:fy": "Simbabwe",
          "name:ga": "An tSiombáib",
          "name:gd": "Siombabue",
          "name:gl": "Cimbabue",
          "name:gn": "Simbávue",
          "name:gv": "Yn Çhimbabwe",
          "name:he": "זימבבואה",
          "name:hi": "ज़िम्बाब्वे",
          "name:hr": "Zimbabve",
          "name:ht": "Zimbabwe",
          "name:hu": "Zimbabwe",
          "name:hy": "Զիմբաբվե",
          "name:id": "Zimbabwe",
          "name:ie": "Zimbabwe",
          "name:io": "Zimbabwe",
          "name:is": "Simbabve",
          "name:it": "Zimbabwe",
          "name:ja": "ジンバブエ",
          "name:jv": "Zimbabwe",
          "name:ka": "ზიმბაბვე",
          "name:kg": "Zimbabwe",
          "name:ki": "Zimbabwe",
          "name:kk": "Зимбабве",
          "name:kn": "ಜಿಂಬಾಬ್ವೆ",
          "name:ko": "짐바브웨",
          "name:ku": "Zîmbabwe",
          "name:kw": "Zimbabwe",
          "name:la": "Zimbabua",
          "name:lb": "Simbabwe",
          "name:li": "Zimbabwe",
          "name:ln": "Zimbabwe",
          "name:lt": "Zimbabvė",
          "name:lv": "Zimbabve",
          "name:mi": "Timuwawe",
          "name:mk": "Зимбабве",
          "name:ml": "സിംബാബ്വെ",
          "name:mn": "Зимбабве",
          "name:mr": "झिंबाब्वे",
          "name:ms": "Zimbabwe",
          "name:mt": "Żimbabwe",
          "name:my": "ဇင်ဘာဘွေနိုင်ငံ",
          "name:ne": "जिम्बाब्वे",
          "name:nl": "Zimbabwe",
          "name:nn": "Zimbabwe",
          "name:no": "Zimbabwe",
          "name:nv": "Hooghan Tsé Bee Ádaalyaaí Bikéyah",
          "name:ny": "Zimbabwe",
          "name:oc": "Zimbabwe",
          "name:or": "ଜିମ୍ବାୱେ",
          "name:os": "Зимбабве",
          "name:pa": "ਜ਼ਿੰਬਾਬਵੇ",
          "name:pl": "Zimbabwe",
          "name:ps": "زېمبابوې",
          "name:pt": "Zimbabué",
          "name:qu": "Simbabwi",
          "name:ro": "Zimbabwe",
          "name:ru": "Зимбабве",
          "name:rw": "Zimbabwe",
          "name:sa": "जिम्बाबवे",
          "name:sc": "Zimbabwe",
          "name:se": "Zimbabwe",
          "name:sg": "Zimbäbwe",
          "name:sh": "Zimbabve",
          "name:si": "සිම්බාබ්වේ",
          "name:sk": "Zimbabwe",
          "name:sl": "Zimbabve",
          "name:sn": "Zimbabwe",
          "name:so": "Simbaabwi",
          "name:sq": "Zimbabveja",
          "name:sr": "Зимбабве",
          "name:ss": "IZimbabhwe",
          "name:su": "Zimbabwé",
          "name:sv": "Zimbabwe",
          "name:sw": "Zimbabwe",
          "name:ta": "சிம்பாப்வே",
          "name:te": "జింబాబ్వే",
          "name:tg": "Зимбабве",
          "name:th": "ประเทศซิมบับเว",
          "name:ti": "ዚምባብዌ",
          "name:tk": "Zimbabwe",
          "name:tl": "Simbabwe",
          "name:tn": "Zimbabwe",
          "name:tr": "Zimbabve",
          "name:ts": "Zimbabwe",
          "name:tt": "Зимбабве",
          "name:ug": "زىمبابۋې",
          "name:uk": "Зімбабве",
          "name:ur": "زمبابوے",
          "name:uz": "Zimbabve",
          "name:ve": "Zimbagwe",
          "name:vi": "Zimbabwe",
          "name:vo": "Zimbabiyän",
          "name:wo": "Simbaawee",
          "name:yi": "זימבאבווע",
          "name:yo": "Sìmbábúè",
          "name:zh": "津巴布韦 / 辛巴威",
          "name:zu": "IZimbabwe",
          "boundary": "administrative",
          "name:als": "Simbabwe",
          "name:ang": "Simbabwe",
          "name:arz": "زيمبابوى",
          "name:ast": "Zimbabue",
          "name:bar": "Simbabwe",
          "name:bcl": "Simbabwe",
          "name:bjn": "Zimbabwe",
          "name:bpy": "জিম্বাবুয়ে",
          "name:bxr": "Зимбабве",
          "name:ceb": "Zimbabwe",
          "name:chy": "Zimbabwe",
          "name:ckb": "زیمبابۆی",
          "name:crh": "Zimbabve",
          "name:diq": "Zimbabwe",
          "name:ext": "Zimbagüi",
          "name:frp": "Zimbaboue",
          "name:gag": "Zimbabve",
          "name:hak": "Sîn-pâ-pu-vî",
          "name:hif": "Zimbabwe",
          "name:hsb": "Simbabwe",
          "name:ilo": "Zimbabwe",
          "name:jbo": "zimbabues",
          "name:kaa": "Zimbabve",
          "name:ksh": "Simbabwe",
          "name:lij": "Zimbabwe",
          "name:lmo": "Zimbabwe",
          "name:ltg": "Zimbabve",
          "name:lzh": "辛巴威",
          "name:mrj": "Зимбабве",
          "name:mzn": "زیمبابوه",
          "name:nah": "Zimbabhue",
          "name:nan": "Zimbabwe",
          "name:nds": "Simbabwe",
          "name:nov": "Zimbabwe",
          "name:nso": "Zimbabwe",
          "name:pam": "Zimbabwe",
          "name:pap": "Zimbabwe",
          "name:pms": "Zimbabwe",
          "name:pnb": "زمبابوے",
          "name:sah": "Зимбабве",
          "name:scn": "Zimbabbui",
          "name:sco": "Zimbabwe",
          "name:smn": "Zimbabwe",
          "name:sms": "Zimbabwe",
          "name:stq": "Simbabwe",
          "name:szl": "Zimbabwe",
          "name:tzl": "Zimbabwe",
          "name:vec": "Zinbàbue",
          "name:vro": "Zimbabwe",
          "name:war": "Zimbabwe",
          "name:wuu": "津巴布韦",
          "name:xal": "Зимбабвудин Орн",
          "name:yue": "津巴布韋",
          "timezone": "Africa/Harare",
          "way_area": "33.5333",
          "wikidata": "Q954",
          "ISO3166-1": "ZW",
          "wikipedia": "en:Zimbabwe",
          "admin_level": "2",
          "name:simple": "Zimbabwe",
          "driving_side": "left",
          "name:bat-smg": "Zėmbabvė",
          "name:zh-Hans": "津巴布韦",
          "name:zh-Hant": "辛巴威",
          "name:be-tarask": "Зымбабвэ",
          "ISO3166-1:alpha2": "ZW",
          "ISO3166-1:alpha3": "ZWE",
          "official_name:cs": "Zimbabwská republika",
          "official_name:de": "Republik Zimbabwe",
          "official_name:en": "Republic of Zimbabwe",
          "official_name:es": "República de Zimbabue",
          "official_name:gn": "Tavakuairetã Simbávue",
          "official_name:pt": "República do Zimbabwe",
          "official_name:ru": "Республика Зимбабве",
          "official_name:sk": "Zimbabwianska republika",
          "ISO3166-1:numeric": "716"
        }
      },
      "geometry": {
        "type": "Polygon",
        "coordinates": [
          [
            [
              31,
              -22.31682076923077
            ],
            [
              31.00318,
              -22.31731
            ],
            [
              31.0058,
              -22.31845
            ],
            [
              31.00684,
              -22.31906
            ],
            [
              31.00944,
              -22.31983
            ],
            [
              31.01162,
              -22.32073
            ],
            [
              31.01399,
              -22.3213
            ],
            [
              31.0191,
              -22.32356
            ],
            [
              31.02199,
              -22.32446
            ],
            [
              31.02587,
              -22.32687
            ],
            [
              31.02716,
              -22.3275
            ],
            [
              31.03283,
              -22.32972
            ],
            [
              31.03406,
              -22.33007
            ],
            [
              31.0375,
              -22.33165
            ],
            [
              31.03877,
              -22.33268
            ],
            [
              31.04193,
              -22.33397
            ],
            [
              31.04458,
              -22.33482
            ],
            [
              31.04515,
              -22.33517
            ],
            [
              31.04823,
              -22.33603
            ],
            [
              31.05009,
              -22.33712
            ],
            [
              31.0508,
              -22.33719
            ],
            [
              31.05315,
              -22.33812
            ],
            [
              31.05526,
              -22.33855
            ],
            [
              31.05947,
              -22.33982
            ],
            [
              31.06173,
              -22.34026
            ],
            [
              31.064584,
              -22.3412162
            ],
            [
              31.06597,
              -22.34133
            ],
            [
              31.068,
              -22.34226
            ],
            [
              31.07397,
              -22.34409
            ],
            [
              31.07556,
              -22.34511
            ],
            [
              31.08129,
              -22.3471
            ],
            [
              31.0828,
              -22.34783
            ],
            [
              31.0889056,
              -22.3491638
            ],
            [
              31.09411,
              -22.34869
            ],
            [
              31.09759,
              -22.34772
            ],
            [
              31.10115,
              -22.34615
            ],
            [
              31.10307,
              -22.34568
            ],
            [
              31.10766,
              -22.34342
            ],
            [
              31.11491,
              -22.34144
            ],
            [
              31.11822,
              -22.33962
            ],
            [
              31.1213,
              -22.33884
            ],
            [
              31.12297,
              -22.33825
            ],
            [
              31.12659,
              -22.33663
            ],
            [
              31.13249,
              -22.33502
            ],
            [
              31.13381,
              -22.33414
            ],
            [
              31.13488,
              -22.33365
            ],
            [
              31.13972,
              -22.3324
            ],
            [
              31.14103,
              -22.33187
            ],
            [
              31.14311,
              -22.3316
            ],
            [
              31.14488,
              -22.33108
            ],
            [
              31.14714,
              -22.33103
            ],
            [
              31.14939,
              -22.33037
            ],
            [
              31.15292,
              -22.32964
            ],
            [
              31.15653,
              -22.32858
            ],
            [
              31.15921,
              -22.3287
            ],
            [
              31.1614,
              -22.32839
            ],
            [
              31.1636,
              -22.32865
            ],
            [
              31.16543,
              -22.32939
            ],
            [
              31.17157,
              -22.3307
            ],
            [
              31.17409,
              -22.33147
            ],
            [
              31.17535,
              -22.33231
            ],
            [
              31.17874,
              -22.33369
            ],
            [
              31.18295,
              -22.33684
            ],
            [
              31.18575,
              -22.33827
            ],
            [
              31.18741,
              -22.33893
            ],
            [
              31.19044,
              -22.34264
            ],
            [
              31.19319,
              -22.34856
            ],
            [
              31.19554,
              -22.35218
            ],
            [
              31.19616,
              -22.35412
            ],
            [
              31.19736,
              -22.35552
            ],
            [
              31.1983,
              -22.35728
            ],
            [
              31.19906,
              -22.35795
            ],
            [
              31.20093,
              -22.36085
            ],
            [
              31.20254,
              -22.36229
            ],
            [
              31.20392,
              -22.36298
            ],
            [
              31.20761,
              -22.36528
            ],
            [
              31.20968,
              -22.36703
            ],
            [
              31.2131,
              -22.36869
            ],
            [
              31.21516,
              -22.3694
            ],
            [
              31.21699,
              -22.36978
            ],
            [
              31.22087,
              -22.36981
            ],
            [
              31.22301,
              -22.36936
            ],
            [
              31.22423,
              -22.3689
            ],
            [
              31.22871,
              -22.36777
            ],
            [
              31.23062,
              -22.3678
            ],
            [
              31.23107,
              -22.36744
            ],
            [
              31.23281,
              -22.36683
            ],
            [
              31.24008,
              -22.36452
            ],
            [
              31.24394,
              -22.36403
            ],
            [
              31.24731,
              -22.36332
            ],
            [
              31.24842,
              -22.36294
            ],
            [
              31.24945,
              -22.36287
            ],
            [
              31.25391,
              -22.36341
            ],
            [
              31.26313,
              -22.36486
            ],
            [
              31.26513,
              -22.36548
            ],
            [
              31.2685,
              -22.36755
            ],
            [
              31.26904,
              -22.36798
            ],
            [
              31.27004,
              -22.36928
            ],
            [
              31.27368,
              -22.37476
            ],
            [
              31.27468,
              -22.37774
            ],
            [
              31.27598,
              -22.38474
            ],
            [
              31.27706,
              -22.38783
            ],
            [
              31.27832,
              -22.39039
            ],
            [
              31.28054,
              -22.39407
            ],
            [
              31.28248,
              -22.39644
            ],
            [
              31.28409,
              -22.39879
            ],
            [
              31.28653,
              -22.40357
            ],
            [
              31.2885,
              -22.4059
            ],
            [
              31.29015,
              -22.40721
            ],
            [
              31.29668,
              -22.41111
            ],
            [
              31.30013,
              -22.41369
            ],
            [
              31.30314,
              -22.41699
            ],
            [
              31.3073774,
              -22.4241096
            ],
            [
              31.3093667,
              -22.4220084
            ],
            [
              31.3487297,
              -22.3984412
            ],
            [
              31.3764754,
              -22.3813244
            ],
            [
              31.6124424,
              -22.141378
            ],
            [
              31.6522335,
              -22.1012162
            ],
            [
              31.6810875,
              -22.0713943
            ],
            [
              31.75097096493689,
              -22
            ],
            [
              31,
              -22
            ],
            [
              31,
              -22.31682076923077
            ]
          ]
        ]
      }
    }
  ]
}