{
  "type": "FeatureCollection",
  "features": [
    {
      "type": "Feature",
      "properties": {
        "osm_id": -195270,
        "boundary": "administrative",
        "admin_level": 2,
        "parents": null,
        "name": "Tanzania",
        "local_name": "Tanzania",
        "name_en": "Tanzania",
        "all_tags": {
          "flag": "http://upload.wikimedia.org/wikipedia/commons/3/38/Flag_of_Tanzania.svg",
          "name": "Tanzania",
          "name:af": "Tanzanië",
          "name:ak": "Tanzania",
          "name:am": "ታንዛኒያ",
          "name:an": "Tanzania",
          "name:ar": "تنزانيا",
          "name:az": "Tanzaniya",
          "name:ba": "Танзания",
          "name:be": "Танзанія",
          "name:bg": "Танзания",
          "name:bm": "Tanzania",
          "name:bn": "তানজানিয়া",
          "name:bo": "ཏན་ཛ་ནི་ཡ།",
          "name:br": "Tanzania",
          "name:bs": "Tanzanija",
          "name:ca": "Tanzània",
          "name:ce": "Танзани",
          "name:cs": "Tanzanie",
          "name:cv": "Танзани",
          "name:cy": "Tanzania",
          "name:da": "Tanzania",
          "name:de": "Tansania",
          "name:dv": "ޓެންޒޭނިއާ",
          "name:ee": "Tanzania",
          "name:el": "Τανζανία",
          "name:en": "Tanzania",
          "name:eo": "Tanzanio",
          "name:es": "Tanzania",
          "name:et": "Tansaania",
          "name:eu": "Tanzania",
          "name:fa": "تانزانیا",
          "name:fi": "Tansania",
          "name:fo": "Tansania",
          "name:fr": "Tanzanie",
          "name:fy": "Tanzania",
          "name:ga": "An Tansáin",
          "name:gd": "Tansainìa",
          "name:gl": "Tanzania",
          "name:gn": "Tãsáña",
          "name:gu": "ટાન્ઝાનિયા",
          "name:gv": "Tanzania",
          "name:he": "טנזניה",
          "name:hi": "तंज़ानिया",
          "name:hr": "Tanzanija",
          "name:ht": "Tanzani",
          "name:hu": "Tanzánia",
          "name:hy": "Տանզանիա",
          "name:ia": "Tanzania",
          "name:id": "Tanzania",
          "name:ie": "Tanzania",
          "name:io": "Tanzania",
          "name:is": "Tansanía",
          "name:it": "Tanzania",
          "name:ja": "タンザニア",
          "name:jv": "Tanzania",
          "name:ka": "ტანზანია",
          "name:kg": "Tanzania",
          "name:ki": "Tanzania",
          "name:kk": "Танзания",
          "name:kl": "Tanzania",
          "name:kn": "ಟಾಂಜಾನಿಯ",
          "name:ko": "탄자니아",
          "name:ku": "Tanzanya",
          "name:kw": "Tanzania",
          "name:la": "Tanzania",
          "name:lb": "Tansania",
          "name:li": "Tanzania",
          "name:ln": "Tanzania",
          "name:lt": "Tanzanija",
          "name:lv": "Tanzānija",
          "name:mg": "Tanzania",
          "name:mi": "Tānahia",
          "name:mk": "Танзанија",
          "name:ml": "ടാൻസാനിയ",
          "name:mn": "Танзани",
          "name:mr": "टांझानिया",
          "name:ms": "Tanzania",
          "name:mt": "Tanżanija",
          "name:my": "တန်ဇေးနီးယားနိုင်ငံ",
          "name:ne": "तन्जानिया",
          "name:nl": "Tanzania",
          "name:nn": "Tanzania",
          "name:no": "Tanzania",
          "name:nv": "Tʼanzanííya",
          "name:ny": "Tanzania",
          "name:oc": "Tanzania",
          "name:om": "Tanzania",
          "name:or": "ତାଞ୍ଜାନିଆ",
          "name:os": "Танзани",
          "name:pa": "ਤਨਜ਼ਾਨੀਆ",
          "name:pl": "Tanzania",
          "name:pt": "Tanzânia",
          "name:qu": "Tansanya",
          "name:rm": "Tansania",
          "name:rn": "Tanzaniya",
          "name:ro": "Tanzania",
          "name:ru": "Танзания",
          "name:rw": "Tanzaniya",
          "name:sa": "टंजानिया",
          "name:sc": "Tanzània",
          "name:se": "Tanzania",
          "name:sg": "Tanzanïi",
          "name:sh": "Tanzanija",
          "name:sk": "Tanzánia",
          "name:sl": "Tanzanija",
          "name:sn": "Tanzania",
          "name:so": "Tansaaniya",
          "name:sq": "Tanzania",
          "name:sr": "Танзанија",
          "name:ss": "IThanzaniya",
          "name:st": "Tanzania",
          "name:su": "Tanzania",
          "name:sv": "Tanzania",
          "name:sw": "Tanzania",
          "name:ta": "தன்சானியா",
          "name:te": "టాంజానియా",
          "name:tg": "Танзания",
          "name:th": "ประเทศแทนซาเนีย",
          "name:ti": "ታንዛኒያ",
          "name:tk": "Tanzaniýa",
          "name:tl": "Tanzania",
          "name:tr": "Tanzanya",
          "name:ts": "Tanzania",
          "name:tt": "Танзания",
          "name:tw": "Tanzania",
          "name:ug": "تانزانىيە",
          "name:uk": "Танзанія",
          "name:ur": "تنزانیہ",
          "name:uz": "Tanzaniya",
          "name:vi": "Tanzania",
          "name:vo": "Tansanän",
          "name:wo": "Tansani",
          "name:yi": "טאנזאניע",
          "name:yo": "Tànsáníà",
          "name:zh": "坦桑尼亚 / 坦尚尼亞",
          "name:zu": "ITanzania",
          "boundary": "administrative",
          "int_name": "Tanzania",
          "name:ace": "Tanzania",
          "name:als": "Tansania",
          "name:ang": "Tansania",
          "name:arz": "تانزانيا",
          "name:ast": "República Xunida de Tanzania",
          "name:bcl": "Tansaniya",
          "name:bjn": "Tanzania",
          "name:bpy": "তাঞ্জানিয়া",
          "name:bxr": "Танзани",
          "name:ceb": "Tanzania",
          "name:chy": "Tanzania",
          "name:ckb": "تانزانیا",
          "name:crh": "Tanzaniya",
          "name:diq": "Tanzanya",
          "name:dsb": "Tansanija",
          "name:ext": "Tanzánia",
          "name:frp": "Tanzanie",
          "name:gag": "Tanzaniya",
          "name:hif": "Tanzania",
          "name:hsb": "Tansanija",
          "name:ilo": "Tanzania",
          "name:jbo": "tanzanias",
          "name:kaa": "Tanzaniya",
          "name:kbd": "Танзаниэ",
          "name:lez": "Танзания",
          "name:lij": "Tanzania",
          "name:lmo": "Tanzania",
          "name:ltg": "Tanzaneja",
          "name:min": "Tanzania",
          "name:mrj": "Танзани",
          "name:mzn": "تانزانیا",
          "name:nah": "Tanzania",
          "name:nan": "Tanzania",
          "name:nds": "Tansania",
          "name:nov": "Tanzania",
          "name:nso": "Tanzania",
          "name:pam": "Tanzania",
          "name:pap": "Tanzania",
          "name:pih": "Tansaania",
          "name:pms": "Tanzanìa",
          "name:pnb": "تنزانیہ",
          "name:rue": "Танзанія",
          "name:sah": "Танзания",
          "name:scn": "Tanzania",
          "name:sco": "Tanzanie",
          "name:smn": "Tansania",
          "name:sms": "Tansania",
          "name:stq": "Tansania",
          "name:szl": "Tanzańijo",
          "name:tok": "ma Tansanija",
          "name:tum": "Tanzania",
          "name:tzl": "Tanzanía",
          "name:vec": "Tanzania",
          "name:vro": "Tansaania",
          "name:war": "Tanzania",
          "name:xal": "Танзнмудин Ниицәтә Орн",
          "name:yue": "坦桑尼亞",
          "timezone": "Africa/Dar_es_Salaam",
          "way_area": "80.485",
          "wikidata": "Q924",
          "ISO3166-1": "TZ",
          "wikipedia": "en:Tanzania",
          "population": "59441988",
          "admin_level": "2",
          "name:simple": "Tanzania",
          "driving_side": "left",
          "name:bat-smg": "Tanzanėjė",
          "name:zh-Hans": "坦桑尼亚",
          "name:zh-Hant": "坦尚尼亞",
          "name:roa-tara": "Tanzanie",
          "official_name": "Jamhuri ya Muungano wa Tanzania",
          "name:be-tarask": "Танзанія",
          "population:date": "2021-06-01",
          "ISO3166-1:alpha2": "TZ",
          "ISO3166-1:alpha3": "TZA",
          "official_name:be": "Аб'яднаная Рэспубліка Танзанія",
          "official_name:cs": "Sjednocená tanzanská republika",
          "official_name:en": "United Republic of Tanzania",
          "official_name:es": "República Unida de Tanzania",
          "official_name:et": "Tansaania Ühendvabariik",
          "official_name:gn": "Tavakuairetã Tãsaña Joaju",
          "official_name:id": "Persatuan Republik Tanzania",
          "official_name:ku": "Yekîtiya Komarên Tanzanya",
          "official_name:lb": "Vereenegt Republik Tansania",
          "official_name:lt": "Tanzanijos Jungtinė Respublika",
          "official_name:no": "Den forente republikken Tanzania",
          "official_name:pt": "República Unida da Tanzânia",
          "official_name:ru": "Объединённая Республика Танзания",
          "official_name:sv": "Förenade republiken Tanzania",
          "official_name:vi": "Cộng hòa Thống nhất Tanzania",
          "ISO3166-1:numeric": "834"
        }
      },
      "geometry": {
        "type": "Polygon",
        "coordinates": [
          [
            [
              31,
              -8.564111089519113
            ],
            [
              31.0105113,
              -8.5764758
            ],
            [
              31.0280513,
              -8.5921258
            ],
            [
              31.0497813,
              -8.6055458
            ],
            [
              31.0592113,
              -8.6082158
            ],
            [
              31.0779413,
              -8.6218158
            ],
            [
              31.1004513,
              -8.6297258
            ],
            [
              31.13646,
              -8.6328
            ],
            [
              31.14964,
              -8.63139
            ],
            [
              31.16011,
              -8.62603
            ],
            [
              31.18019,
              -8.61047
            ],
            [
              31.1832111,
              -8.6026707
            ],
            [
              31.1825868,
              -8.6020485
            ],
            [
              31.1825439,
              -8.6014133
            ],
            [
              31.1828819,
              -8.6010553
            ],
            [
              31.1839306,
              -8.6010115
            ],
            [
              31.1841238,
              -8.6006548
            ],
            [
              31.183877,
              -8.599594
            ],
            [
              31.1841693,
              -8.5980319
            ],
            [
              31.1840574,
              -8.5964615
            ],
            [
              31.1837554,
              -8.5959927
            ],
            [
              31.1830638,
              -8.5962256
            ],
            [
              31.1828404,
              -8.5961868
            ],
            [
              31.1826652,
              -8.5958404
            ],
            [
              31.1835893,
              -8.5945982
            ],
            [
              31.1833598,
              -8.5941175
            ],
            [
              31.1826954,
              -8.5934396
            ],
            [
              31.1829642,
              -8.5930963
            ],
            [
              31.1836648,
              -8.5929111
            ],
            [
              31.1847369,
              -8.5932038
            ],
            [
              31.1849724,
              -8.5931709
            ],
            [
              31.1852804,
              -8.5928156
            ],
            [
              31.1868568,
              -8.5929081
            ],
            [
              31.1890614,
              -8.5924095
            ],
            [
              31.1894691,
              -8.5933023
            ],
            [
              31.1894751,
              -8.5947386
            ],
            [
              31.1906438,
              -8.5952731
            ],
            [
              31.1909579,
              -8.595715
            ],
            [
              31.1921085,
              -8.5958404
            ],
            [
              31.1945999,
              -8.5954373
            ],
            [
              31.1953941,
              -8.5940906
            ],
            [
              31.1970732,
              -8.5926364
            ],
            [
              31.2005974,
              -8.5901909
            ],
            [
              31.2014762,
              -8.5894354
            ],
            [
              31.2022795,
              -8.5883694
            ],
            [
              31.2041821,
              -8.5877423
            ],
            [
              31.2061269,
              -8.5867957
            ],
            [
              31.2067581,
              -8.5856939
            ],
            [
              31.2073802,
              -8.5851623
            ],
            [
              31.2079026,
              -8.5850459
            ],
            [
              31.2097025,
              -8.5850907
            ],
            [
              31.2102128,
              -8.5846129
            ],
            [
              31.2107836,
              -8.5836932
            ],
            [
              31.2110524,
              -8.5835379
            ],
            [
              31.2136435,
              -8.5843889
            ],
            [
              31.2149148,
              -8.5855207
            ],
            [
              31.2158963,
              -8.5856909
            ],
            [
              31.2168899,
              -8.5869241
            ],
            [
              31.2183455,
              -8.5875482
            ],
            [
              31.2198057,
              -8.5875379
            ],
            [
              31.2202304,
              -8.5881894
            ],
            [
              31.2207974,
              -8.588131
            ],
            [
              31.2212177,
              -8.5878214
            ],
            [
              31.2213688,
              -8.5869382
            ],
            [
              31.2218176,
              -8.5867629
            ],
            [
              31.2223321,
              -8.5872673
            ],
            [
              31.2230479,
              -8.588854
            ],
            [
              31.2230567,
              -8.5896355
            ],
            [
              31.2234486,
              -8.5900489
            ],
            [
              31.2237179,
              -8.5901225
            ],
            [
              31.2240616,
              -8.5899818
            ],
            [
              31.2247205,
              -8.5894406
            ],
            [
              31.2250336,
              -8.589367
            ],
            [
              31.2252963,
              -8.5887544
            ],
            [
              31.225594,
              -8.5886354
            ],
            [
              31.2272326,
              -8.5885576
            ],
            [
              31.2275979,
              -8.5893229
            ],
            [
              31.2281026,
              -8.5915148
            ],
            [
              31.2288766,
              -8.5927822
            ],
            [
              31.2291459,
              -8.59292
            ],
            [
              31.2323318,
              -8.5930822
            ],
            [
              31.2330563,
              -8.5934741
            ],
            [
              31.2345262,
              -8.5948994
            ],
            [
              31.2349821,
              -8.5963467
            ],
            [
              31.2355084,
              -8.596798
            ],
            [
              31.2372082,
              -8.5968441
            ],
            [
              31.238155,
              -8.596601
            ],
            [
              31.2387,
              -8.5967089
            ],
            [
              31.2407756,
              -8.5956416
            ],
            [
              31.2414404,
              -8.5956094
            ],
            [
              31.2419515,
              -8.5953549
            ],
            [
              31.2430276,
              -8.5954986
            ],
            [
              31.2432134,
              -8.5949568
            ],
            [
              31.2438635,
              -8.594871
            ],
            [
              31.2438171,
              -8.5945802
            ],
            [
              31.2433883,
              -8.5941012
            ],
            [
              31.242701,
              -8.5938104
            ],
            [
              31.2415384,
              -8.5938363
            ],
            [
              31.2401219,
              -8.5928227
            ],
            [
              31.2401064,
              -8.5923237
            ],
            [
              31.2406403,
              -8.5922943
            ],
            [
              31.241173,
              -8.5915985
            ],
            [
              31.2417737,
              -8.5915189
            ],
            [
              31.2431174,
              -8.5908026
            ],
            [
              31.2433186,
              -8.5909219
            ],
            [
              31.2433774,
              -8.5918128
            ],
            [
              31.2432134,
              -8.5921373
            ],
            [
              31.2426065,
              -8.5920546
            ],
            [
              31.2425725,
              -8.5927006
            ],
            [
              31.2427149,
              -8.5928383
            ],
            [
              31.2440772,
              -8.5921587
            ],
            [
              31.2443125,
              -8.591724
            ],
            [
              31.2445292,
              -8.591623
            ],
            [
              31.2447923,
              -8.5920883
            ],
            [
              31.244653,
              -8.5921648
            ],
            [
              31.2446778,
              -8.5926179
            ],
            [
              31.2450555,
              -8.5931292
            ],
            [
              31.2472135,
              -8.5946643
            ],
            [
              31.248102,
              -8.5949292
            ],
            [
              31.2493838,
              -8.5962149
            ],
            [
              31.2510588,
              -8.5968884
            ],
            [
              31.251743,
              -8.5974272
            ],
            [
              31.2525759,
              -8.5984129
            ],
            [
              31.2535976,
              -8.6003017
            ],
            [
              31.2543231,
              -8.6022843
            ],
            [
              31.2547474,
              -8.6023077
            ],
            [
              31.2551104,
              -8.6027076
            ],
            [
              31.2547834,
              -8.6039875
            ],
            [
              31.2553283,
              -8.6076364
            ],
            [
              31.2557834,
              -8.6092221
            ],
            [
              31.2563314,
              -8.6100884
            ],
            [
              31.2566348,
              -8.6110894
            ],
            [
              31.2575977,
              -8.6131435
            ],
            [
              31.2575667,
              -8.6139302
            ],
            [
              31.2581209,
              -8.6144567
            ],
            [
              31.2582478,
              -8.6153597
            ],
            [
              31.2584398,
              -8.6156658
            ],
            [
              31.2604306,
              -8.6172209
            ],
            [
              31.2605606,
              -8.6185708
            ],
            [
              31.2613625,
              -8.619131
            ],
            [
              31.2626876,
              -8.619382
            ],
            [
              31.2633564,
              -8.6199667
            ],
            [
              31.263731,
              -8.6208177
            ],
            [
              31.2637217,
              -8.6211269
            ],
            [
              31.2631087,
              -8.6229911
            ],
            [
              31.2631458,
              -8.623288
            ],
            [
              31.2633595,
              -8.6235145
            ],
            [
              31.2643038,
              -8.6236829
            ],
            [
              31.2656722,
              -8.6232206
            ],
            [
              31.2664122,
              -8.6231686
            ],
            [
              31.2669726,
              -8.6236216
            ],
            [
              31.2673812,
              -8.625896
            ],
            [
              31.268139,
              -8.6266856
            ],
            [
              31.2688364,
              -8.6271847
            ],
            [
              31.2696971,
              -8.6273653
            ],
            [
              31.2700284,
              -8.6276745
            ],
            [
              31.2715454,
              -8.6278428
            ],
            [
              31.2722544,
              -8.6277663
            ],
            [
              31.2727343,
              -8.6279928
            ],
            [
              31.2734743,
              -8.6287703
            ],
            [
              31.2737158,
              -8.6296427
            ],
            [
              31.2735176,
              -8.6305151
            ],
            [
              31.2728179,
              -8.631415
            ],
            [
              31.2729418,
              -8.6320731
            ],
            [
              31.274465,
              -8.6321772
            ],
            [
              31.2753443,
              -8.6311518
            ],
            [
              31.275657,
              -8.6310875
            ],
            [
              31.2767345,
              -8.6312467
            ],
            [
              31.2781215,
              -8.6321497
            ],
            [
              31.2788584,
              -8.6319354
            ],
            [
              31.2793321,
              -8.6312773
            ],
            [
              31.2803971,
              -8.6307385
            ],
            [
              31.2818213,
              -8.6306957
            ],
            [
              31.2838121,
              -8.6310508
            ],
            [
              31.2851341,
              -8.6309651
            ],
            [
              31.2860723,
              -8.6306398
            ],
            [
              31.2870375,
              -8.6299725
            ],
            [
              31.2876593,
              -8.6289908
            ],
            [
              31.288649,
              -8.6285925
            ],
            [
              31.2896546,
              -8.6287932
            ],
            [
              31.290768,
              -8.6287838
            ],
            [
              31.2912217,
              -8.6289344
            ],
            [
              31.2920909,
              -8.6297812
            ],
            [
              31.2925159,
              -8.6298721
            ],
            [
              31.2941846,
              -8.6295597
            ],
            [
              31.2945685,
              -8.6296569
            ],
            [
              31.295095,
              -8.629041
            ],
            [
              31.2950601,
              -8.6283071
            ],
            [
              31.2941433,
              -8.6253119
            ],
            [
              31.295095,
              -8.6239287
            ],
            [
              31.297636,
              -8.6233391
            ],
            [
              31.2986733,
              -8.6223856
            ],
            [
              31.2991555,
              -8.6207484
            ],
            [
              31.3009922,
              -8.6200177
            ],
            [
              31.3012491,
              -8.6195723
            ],
            [
              31.3012364,
              -8.6191928
            ],
            [
              31.3007257,
              -8.6185498
            ],
            [
              31.3004624,
              -8.6179006
            ],
            [
              31.3003895,
              -8.6173737
            ],
            [
              31.3005512,
              -8.6169753
            ],
            [
              31.3016076,
              -8.6162101
            ],
            [
              31.3019058,
              -8.6157898
            ],
            [
              31.3020707,
              -8.6151186
            ],
            [
              31.3027052,
              -8.614899
            ],
            [
              31.3033967,
              -8.6142466
            ],
            [
              31.3033587,
              -8.6139706
            ],
            [
              31.3037044,
              -8.6136162
            ],
            [
              31.3039963,
              -8.6127004
            ],
            [
              31.3047671,
              -8.612026
            ],
            [
              31.3056966,
              -8.6117312
            ],
            [
              31.3073303,
              -8.6122268
            ],
            [
              31.3083486,
              -8.6122738
            ],
            [
              31.3086023,
              -8.6120386
            ],
            [
              31.3086848,
              -8.6116685
            ],
            [
              31.3085008,
              -8.6104798
            ],
            [
              31.3095096,
              -8.6095796
            ],
            [
              31.3102551,
              -8.6081556
            ],
            [
              31.3113622,
              -8.607751
            ],
            [
              31.3123614,
              -8.6068414
            ],
            [
              31.3126311,
              -8.6068258
            ],
            [
              31.3133068,
              -8.607246
            ],
            [
              31.3141918,
              -8.6075126
            ],
            [
              31.3152545,
              -8.6075064
            ],
            [
              31.3167137,
              -8.6087798
            ],
            [
              31.3186583,
              -8.6094792
            ],
            [
              31.3195719,
              -8.6105237
            ],
            [
              31.3198923,
              -8.6105488
            ],
            [
              31.3201207,
              -8.6103574
            ],
            [
              31.3208027,
              -8.6078232
            ],
            [
              31.3213928,
              -8.6074938
            ],
            [
              31.3219352,
              -8.6074907
            ],
            [
              31.3225601,
              -8.6080678
            ],
            [
              31.3237466,
              -8.608623
            ],
            [
              31.3244127,
              -8.6087453
            ],
            [
              31.325412,
              -8.6086041
            ],
            [
              31.3258117,
              -8.6091374
            ],
            [
              31.3259576,
              -8.610944
            ],
            [
              31.325044,
              -8.6126439
            ],
            [
              31.324749,
              -8.6137072
            ],
            [
              31.3245396,
              -8.615542
            ],
            [
              31.3248886,
              -8.6163355
            ],
            [
              31.3258624,
              -8.616853
            ],
            [
              31.3291116,
              -8.616443
            ],
            [
              31.3300696,
              -8.6160416
            ],
            [
              31.3305613,
              -8.6153077
            ],
            [
              31.3305486,
              -8.6144451
            ],
            [
              31.3296319,
              -8.6138774
            ],
            [
              31.3294098,
              -8.6132376
            ],
            [
              31.3295589,
              -8.6128393
            ],
            [
              31.3305137,
              -8.6117478
            ],
            [
              31.3315701,
              -8.6118983
            ],
            [
              31.3321284,
              -8.6123814
            ],
            [
              31.3331562,
              -8.6126699
            ],
            [
              31.3335813,
              -8.6130212
            ],
            [
              31.3343331,
              -8.614558
            ],
            [
              31.3345679,
              -8.614649
            ],
            [
              31.3349168,
              -8.6145612
            ],
            [
              31.336817,
              -8.6131372
            ],
            [
              31.3371881,
              -8.6127609
            ],
            [
              31.3378638,
              -8.6114749
            ],
            [
              31.3392405,
              -8.6117729
            ],
            [
              31.3400844,
              -8.611315
            ],
            [
              31.3401795,
              -8.6115753
            ],
            [
              31.3400304,
              -8.612052
            ],
            [
              31.3402461,
              -8.6121618
            ],
            [
              31.341036,
              -8.6120018
            ],
            [
              31.3413913,
              -8.6121681
            ],
            [
              31.3424223,
              -8.6130526
            ],
            [
              31.3429108,
              -8.6141252
            ],
            [
              31.3443224,
              -8.6155335
            ],
            [
              31.3447634,
              -8.6156652
            ],
            [
              31.3451409,
              -8.6154363
            ],
            [
              31.3454993,
              -8.6159161
            ],
            [
              31.3458039,
              -8.6160384
            ],
            [
              31.3461179,
              -8.6160384
            ],
            [
              31.3466477,
              -8.6156464
            ],
            [
              31.3473297,
              -8.6155743
            ],
            [
              31.3476945,
              -8.6169323
            ],
            [
              31.3480498,
              -8.6170672
            ],
            [
              31.3486589,
              -8.6158063
            ],
            [
              31.3498516,
              -8.6151383
            ],
            [
              31.3507938,
              -8.6152951
            ],
            [
              31.3512918,
              -8.6149626
            ],
            [
              31.3513997,
              -8.614671
            ],
            [
              31.3519041,
              -8.6144545
            ],
            [
              31.3519548,
              -8.614097
            ],
            [
              31.3515297,
              -8.613821
            ],
            [
              31.3517169,
              -8.6131874
            ],
            [
              31.3519548,
              -8.6130024
            ],
            [
              31.3532079,
              -8.6128299
            ],
            [
              31.3534077,
              -8.6121524
            ],
            [
              31.3544672,
              -8.6124347
            ],
            [
              31.3549843,
              -8.6120552
            ],
            [
              31.3553459,
              -8.6105716
            ],
            [
              31.3557996,
              -8.6101796
            ],
            [
              31.3558186,
              -8.6098408
            ],
            [
              31.3555141,
              -8.6093139
            ],
            [
              31.3549621,
              -8.6091822
            ],
            [
              31.3549431,
              -8.6089406
            ],
            [
              31.3556251,
              -8.6079872
            ],
            [
              31.3563071,
              -8.6076327
            ],
            [
              31.3564943,
              -8.607087
            ],
            [
              31.3567639,
              -8.6072062
            ],
            [
              31.356783,
              -8.6078146
            ],
            [
              31.3574015,
              -8.6079087
            ],
            [
              31.3575475,
              -8.6082036
            ],
            [
              31.3583342,
              -8.6085988
            ],
            [
              31.3586831,
              -8.6093703
            ],
            [
              31.3588957,
              -8.6093641
            ],
            [
              31.3593525,
              -8.6086301
            ],
            [
              31.3602375,
              -8.6079464
            ],
            [
              31.3606309,
              -8.6078429
            ],
            [
              31.361075,
              -8.6080656
            ],
            [
              31.3615223,
              -8.6078303
            ],
            [
              31.3621186,
              -8.6080279
            ],
            [
              31.3625754,
              -8.6079652
            ],
            [
              31.3628958,
              -8.6077362
            ],
            [
              31.3629942,
              -8.6075104
            ],
            [
              31.362788,
              -8.6073065
            ],
            [
              31.3627436,
              -8.6063562
            ],
            [
              31.3620044,
              -8.6059327
            ],
            [
              31.3618046,
              -8.6056034
            ],
            [
              31.3618395,
              -8.604973
            ],
            [
              31.3614366,
              -8.6041449
            ],
            [
              31.3618712,
              -8.6034267
            ],
            [
              31.3617792,
              -8.6025265
            ],
            [
              31.3613478,
              -8.6015604
            ],
            [
              31.3615476,
              -8.5996158
            ],
            [
              31.3618871,
              -8.5987281
            ],
            [
              31.3608815,
              -8.5973323
            ],
            [
              31.3601614,
              -8.5970532
            ],
            [
              31.3592509,
              -8.59535
            ],
            [
              31.3593207,
              -8.5941424
            ],
            [
              31.3599869,
              -8.5933394
            ],
            [
              31.3607514,
              -8.593283
            ],
            [
              31.3622138,
              -8.5924612
            ],
            [
              31.362401,
              -8.5922448
            ],
            [
              31.3626484,
              -8.5910278
            ],
            [
              31.3637382,
              -8.5901138
            ],
            [
              31.3638589,
              -8.5897789
            ],
            [
              31.3637541,
              -8.5892208
            ],
            [
              31.3644899,
              -8.5893917
            ],
            [
              31.3648043,
              -8.589902
            ],
            [
              31.3654398,
              -8.5900683
            ],
            [
              31.3653396,
              -8.5912255
            ],
            [
              31.3657588,
              -8.5914487
            ],
            [
              31.3664353,
              -8.5905375
            ],
            [
              31.3676654,
              -8.5897835
            ],
            [
              31.3688751,
              -8.5893689
            ],
            [
              31.3700277,
              -8.5896377
            ],
            [
              31.3700892,
              -8.5893142
            ],
            [
              31.3698774,
              -8.5887971
            ],
            [
              31.3699799,
              -8.5886536
            ],
            [
              31.3704833,
              -8.5886377
            ],
            [
              31.3712465,
              -8.58887
            ],
            [
              31.3717226,
              -8.5885124
            ],
            [
              31.3719595,
              -8.5888313
            ],
            [
              31.3721075,
              -8.5886878
            ],
            [
              31.3721326,
              -8.5878518
            ],
            [
              31.3733354,
              -8.58769
            ],
            [
              31.3742033,
              -8.5879429
            ],
            [
              31.3744789,
              -8.5876012
            ],
            [
              31.3747683,
              -8.5876171
            ],
            [
              31.3750917,
              -8.588444
            ],
            [
              31.3765588,
              -8.5886946
            ],
            [
              31.3762877,
              -8.5894669
            ],
            [
              31.3764927,
              -8.5897584
            ],
            [
              31.3769232,
              -8.5899544
            ],
            [
              31.3766727,
              -8.5909681
            ],
            [
              31.3762649,
              -8.5917084
            ],
            [
              31.376274,
              -8.5921025
            ],
            [
              31.3758594,
              -8.5921709
            ],
            [
              31.3759893,
              -8.5927927
            ],
            [
              31.3757751,
              -8.5929408
            ],
            [
              31.3754471,
              -8.5927062
            ],
            [
              31.3753059,
              -8.5928725
            ],
            [
              31.3753036,
              -8.5934648
            ],
            [
              31.37552,
              -8.5938588
            ],
            [
              31.3748161,
              -8.5943281
            ],
            [
              31.3749118,
              -8.5945126
            ],
            [
              31.3757227,
              -8.5948794
            ],
            [
              31.3760827,
              -8.5954284
            ],
            [
              31.3765907,
              -8.5956972
            ],
            [
              31.3770166,
              -8.5962394
            ],
            [
              31.3768412,
              -8.5972121
            ],
            [
              31.3764449,
              -8.5974945
            ],
            [
              31.3759938,
              -8.5985242
            ],
            [
              31.3768572,
              -8.5992008
            ],
            [
              31.3766704,
              -8.5998363
            ],
            [
              31.3770668,
              -8.6006929
            ],
            [
              31.3768344,
              -8.6015471
            ],
            [
              31.3770189,
              -8.6016086
            ],
            [
              31.3772239,
              -8.6013785
            ],
            [
              31.3775497,
              -8.6013763
            ],
            [
              31.3779051,
              -8.601866
            ],
            [
              31.3782695,
              -8.6019344
            ],
            [
              31.3788436,
              -8.6017407
            ],
            [
              31.3789962,
              -8.6012851
            ],
            [
              31.3792286,
              -8.6012122
            ],
            [
              31.3796409,
              -8.6015038
            ],
            [
              31.3796363,
              -8.6018911
            ],
            [
              31.3802924,
              -8.6029298
            ],
            [
              31.3802833,
              -8.6035563
            ],
            [
              31.3808961,
              -8.6035062
            ],
            [
              31.380953,
              -8.6041941
            ],
            [
              31.3813243,
              -8.6051076
            ],
            [
              31.3815635,
              -8.605037
            ],
            [
              31.3821102,
              -8.6040438
            ],
            [
              31.3826433,
              -8.6036656
            ],
            [
              31.384001,
              -8.6048502
            ],
            [
              31.3844611,
              -8.6049072
            ],
            [
              31.3845933,
              -8.6051509
            ],
            [
              31.384427,
              -8.605529
            ],
            [
              31.3845227,
              -8.6057523
            ],
            [
              31.385083,
              -8.6058821
            ],
            [
              31.385673,
              -8.6065291
            ],
            [
              31.3866093,
              -8.6065109
            ],
            [
              31.3869487,
              -8.6071259
            ],
            [
              31.3864635,
              -8.6076089
            ],
            [
              31.3870398,
              -8.6081852
            ],
            [
              31.3873451,
              -8.6081305
            ],
            [
              31.387762,
              -8.6077774
            ],
            [
              31.3882609,
              -8.6079255
            ],
            [
              31.3880923,
              -8.6083652
            ],
            [
              31.388147,
              -8.6088754
            ],
            [
              31.3875068,
              -8.6089757
            ],
            [
              31.3873952,
              -8.6091465
            ],
            [
              31.3876617,
              -8.6094632
            ],
            [
              31.3874294,
              -8.6100577
            ],
            [
              31.3878144,
              -8.6104359
            ],
            [
              31.3878986,
              -8.6107753
            ],
            [
              31.3877301,
              -8.6111717
            ],
            [
              31.3881424,
              -8.6113288
            ],
            [
              31.3881538,
              -8.6115225
            ],
            [
              31.3879579,
              -8.6116705
            ],
            [
              31.3873656,
              -8.6115749
            ],
            [
              31.3866002,
              -8.6119257
            ],
            [
              31.3865045,
              -8.6123448
            ],
            [
              31.3868644,
              -8.6125977
            ],
            [
              31.3878144,
              -8.6126159
            ],
            [
              31.387787,
              -8.613067
            ],
            [
              31.388459,
              -8.6136752
            ],
            [
              31.3885934,
              -8.6142811
            ],
            [
              31.3889283,
              -8.6145727
            ],
            [
              31.3890126,
              -8.6162083
            ],
            [
              31.3895798,
              -8.6158962
            ],
            [
              31.3901083,
              -8.6162265
            ],
            [
              31.3898281,
              -8.6166571
            ],
            [
              31.3892837,
              -8.6166343
            ],
            [
              31.3891333,
              -8.6167983
            ],
            [
              31.3893201,
              -8.6172425
            ],
            [
              31.3900195,
              -8.6180717
            ],
            [
              31.3899283,
              -8.6185205
            ],
            [
              31.3895206,
              -8.6186503
            ],
            [
              31.3896368,
              -8.619213
            ],
            [
              31.3900126,
              -8.6193223
            ],
            [
              31.3903612,
              -8.6189898
            ],
            [
              31.3907462,
              -8.6189123
            ],
            [
              31.3910036,
              -8.6192722
            ],
            [
              31.3910127,
              -8.6200809
            ],
            [
              31.3912997,
              -8.6205023
            ],
            [
              31.390917,
              -8.6208919
            ],
            [
              31.3912906,
              -8.6210513
            ],
            [
              31.3912951,
              -8.621327
            ],
            [
              31.391605,
              -8.6216072
            ],
            [
              31.3915389,
              -8.6221744
            ],
            [
              31.3917553,
              -8.6224159
            ],
            [
              31.3916642,
              -8.6226733
            ],
            [
              31.391794,
              -8.6228942
            ],
            [
              31.3916232,
              -8.6230173
            ],
            [
              31.3913544,
              -8.6227758
            ],
            [
              31.3911425,
              -8.6228578
            ],
            [
              31.3909922,
              -8.6231949
            ],
            [
              31.3912838,
              -8.623343
            ],
            [
              31.39104,
              -8.6235048
            ],
            [
              31.3911038,
              -8.6237348
            ],
            [
              31.3919945,
              -8.62422
            ],
            [
              31.3925207,
              -8.6240948
            ],
            [
              31.3923818,
              -8.6244251
            ],
            [
              31.3927212,
              -8.6249103
            ],
            [
              31.3935344,
              -8.6255003
            ],
            [
              31.3941108,
              -8.6254502
            ],
            [
              31.3945755,
              -8.6257076
            ],
            [
              31.3949035,
              -8.6263568
            ],
            [
              31.3953022,
              -8.6265117
            ],
            [
              31.3953637,
              -8.6267577
            ],
            [
              31.3949149,
              -8.6267919
            ],
            [
              31.395006,
              -8.6272657
            ],
            [
              31.3947144,
              -8.6276188
            ],
            [
              31.394785,
              -8.6279537
            ],
            [
              31.394498,
              -8.6281405
            ],
            [
              31.394498,
              -8.6283432
            ],
            [
              31.3950265,
              -8.6287077
            ],
            [
              31.3954229,
              -8.6287783
            ],
            [
              31.3954161,
              -8.6292089
            ],
            [
              31.3950493,
              -8.6294891
            ],
            [
              31.3952065,
              -8.6297009
            ],
            [
              31.3955732,
              -8.6295688
            ],
            [
              31.3954502,
              -8.6300859
            ],
            [
              31.3964275,
              -8.63066
            ],
            [
              31.3968899,
              -8.6312295
            ],
            [
              31.3972225,
              -8.6312408
            ],
            [
              31.397382,
              -8.6315415
            ],
            [
              31.397669,
              -8.6315438
            ],
            [
              31.39789,
              -8.6310085
            ],
            [
              31.3982636,
              -8.6309698
            ],
            [
              31.3988422,
              -8.6305779
            ],
            [
              31.3994094,
              -8.6307032
            ],
            [
              31.3993479,
              -8.6308832
            ],
            [
              31.3996941,
              -8.6313547
            ],
            [
              31.4007056,
              -8.6312477
            ],
            [
              31.400881,
              -8.6316463
            ],
            [
              31.4011885,
              -8.6316987
            ],
            [
              31.4011498,
              -8.6321839
            ],
            [
              31.4015712,
              -8.6322477
            ],
            [
              31.4015393,
              -8.6326122
            ],
            [
              31.4018651,
              -8.6331931
            ],
            [
              31.4022296,
              -8.6328696
            ],
            [
              31.4026647,
              -8.6329334
            ],
            [
              31.4029016,
              -8.6332068
            ],
            [
              31.4033025,
              -8.6332136
            ],
            [
              31.4039768,
              -8.6336031
            ],
            [
              31.404462,
              -8.6335097
            ],
            [
              31.4056443,
              -8.6346305
            ],
            [
              31.4062525,
              -8.6349244
            ],
            [
              31.4069313,
              -8.63579
            ],
            [
              31.4073756,
              -8.636052
            ],
            [
              31.4070726,
              -8.6368675
            ],
            [
              31.407232,
              -8.6373823
            ],
            [
              31.4075578,
              -8.6373869
            ],
            [
              31.4082321,
              -8.636216
            ],
            [
              31.4087173,
              -8.6361773
            ],
            [
              31.4087788,
              -8.6364438
            ],
            [
              31.4082663,
              -8.6374416
            ],
            [
              31.4083528,
              -8.6378311
            ],
            [
              31.4090681,
              -8.6377719
            ],
            [
              31.4097606,
              -8.6379541
            ],
            [
              31.4105351,
              -8.638535
            ],
            [
              31.4111889,
              -8.6382913
            ],
            [
              31.4123074,
              -8.6386945
            ],
            [
              31.4127676,
              -8.6389405
            ],
            [
              31.4130592,
              -8.6396922
            ],
            [
              31.4134009,
              -8.6398175
            ],
            [
              31.4140888,
              -8.6397788
            ],
            [
              31.4154511,
              -8.639305
            ],
            [
              31.4158383,
              -8.6393733
            ],
            [
              31.415934,
              -8.6389997
            ],
            [
              31.4162028,
              -8.6388676
            ],
            [
              31.4170912,
              -8.6392002
            ],
            [
              31.4173874,
              -8.6389769
            ],
            [
              31.4176516,
              -8.6390999
            ],
            [
              31.4180571,
              -8.6389314
            ],
            [
              31.4189182,
              -8.6394189
            ],
            [
              31.4193738,
              -8.6393779
            ],
            [
              31.4196289,
              -8.6392138
            ],
            [
              31.419761,
              -8.6387765
            ],
            [
              31.4203305,
              -8.6380475
            ],
            [
              31.4216973,
              -8.638207
            ],
            [
              31.4223215,
              -8.6389587
            ],
            [
              31.4229821,
              -8.6390954
            ],
            [
              31.423415,
              -8.6394462
            ],
            [
              31.4237065,
              -8.6393687
            ],
            [
              31.4237475,
              -8.63874
            ],
            [
              31.4239025,
              -8.6386535
            ],
            [
              31.4242168,
              -8.6392093
            ],
            [
              31.424841,
              -8.6394508
            ],
            [
              31.4253194,
              -8.6394416
            ],
            [
              31.425734,
              -8.6391774
            ],
            [
              31.4279573,
              -8.639879
            ],
            [
              31.4283218,
              -8.6397651
            ],
            [
              31.4284812,
              -8.639264
            ],
            [
              31.4288594,
              -8.6392913
            ],
            [
              31.4289733,
              -8.6389587
            ],
            [
              31.4294289,
              -8.638986
            ],
            [
              31.4292421,
              -8.638371
            ],
            [
              31.4297432,
              -8.638371
            ],
            [
              31.4301943,
              -8.6386125
            ],
            [
              31.430413,
              -8.6381523
            ],
            [
              31.4314609,
              -8.6379701
            ],
            [
              31.4318345,
              -8.6384029
            ],
            [
              31.4329962,
              -8.6386261
            ],
            [
              31.433666,
              -8.6390134
            ],
            [
              31.4344496,
              -8.6391546
            ],
            [
              31.4346683,
              -8.6396649
            ],
            [
              31.4355658,
              -8.6395419
            ],
            [
              31.4360351,
              -8.6399246
            ],
            [
              31.4364315,
              -8.6400066
            ],
            [
              31.4379122,
              -8.6398198
            ],
            [
              31.4385044,
              -8.6388858
            ],
            [
              31.4394475,
              -8.6382434
            ],
            [
              31.4399532,
              -8.6391728
            ],
            [
              31.4404772,
              -8.6389223
            ],
            [
              31.4418485,
              -8.6392047
            ],
            [
              31.4422176,
              -8.6391091
            ],
            [
              31.4428691,
              -8.6395601
            ],
            [
              31.4434158,
              -8.6394826
            ],
            [
              31.4431789,
              -8.6387765
            ],
            [
              31.4432837,
              -8.6386443
            ],
            [
              31.4438942,
              -8.6387127
            ],
            [
              31.4448783,
              -8.6394416
            ],
            [
              31.4455526,
              -8.6392184
            ],
            [
              31.4467964,
              -8.6391318
            ],
            [
              31.4473157,
              -8.6393141
            ],
            [
              31.4477896,
              -8.6390954
            ],
            [
              31.4485231,
              -8.6390407
            ],
            [
              31.4486598,
              -8.6387901
            ],
            [
              31.4490835,
              -8.638617
            ],
            [
              31.4494844,
              -8.6389633
            ],
            [
              31.4498307,
              -8.6386945
            ],
            [
              31.4506325,
              -8.6387537
            ],
            [
              31.4508148,
              -8.6388721
            ],
            [
              31.4508056,
              -8.6392776
            ],
            [
              31.4510334,
              -8.6392047
            ],
            [
              31.4514116,
              -8.6393551
            ],
            [
              31.4515574,
              -8.6391409
            ],
            [
              31.4522681,
              -8.6388721
            ],
            [
              31.4523729,
              -8.6382525
            ],
            [
              31.4527465,
              -8.638043
            ],
            [
              31.4531839,
              -8.6374233
            ],
            [
              31.4534481,
              -8.6379336
            ],
            [
              31.4542135,
              -8.6383391
            ],
            [
              31.4543502,
              -8.6392457
            ],
            [
              31.454496,
              -8.6393687
            ],
            [
              31.4559448,
              -8.6391546
            ],
            [
              31.4561544,
              -8.6395783
            ],
            [
              31.4572159,
              -8.6394462
            ],
            [
              31.4576898,
              -8.6388995
            ],
            [
              31.4582228,
              -8.6392321
            ],
            [
              31.4588105,
              -8.6390772
            ],
            [
              31.4596671,
              -8.6396376
            ],
            [
              31.4597263,
              -8.6399155
            ],
            [
              31.4594484,
              -8.640485
            ],
            [
              31.4595486,
              -8.6406399
            ],
            [
              31.4599313,
              -8.6405396
            ],
            [
              31.4601728,
              -8.6407857
            ],
            [
              31.4598402,
              -8.6417561
            ],
            [
              31.4600498,
              -8.6420887
            ],
            [
              31.460519,
              -8.6420203
            ],
            [
              31.4606193,
              -8.6421935
            ],
            [
              31.4602593,
              -8.6427265
            ],
            [
              31.4606102,
              -8.6436195
            ],
            [
              31.4608926,
              -8.6435831
            ],
            [
              31.4613665,
              -8.6431183
            ],
            [
              31.4616216,
              -8.6433006
            ],
            [
              31.4619086,
              -8.6431593
            ],
            [
              31.4621091,
              -8.6436514
            ],
            [
              31.4624508,
              -8.6437243
            ],
            [
              31.4625738,
              -8.6445854
            ],
            [
              31.4630203,
              -8.6446947
            ],
            [
              31.463198,
              -8.645041
            ],
            [
              31.4638221,
              -8.6450045
            ],
            [
              31.4642231,
              -8.6459886
            ],
            [
              31.4644099,
              -8.646016
            ],
            [
              31.4646103,
              -8.6457289
            ],
            [
              31.465034,
              -8.6457472
            ],
            [
              31.4650933,
              -8.6461344
            ],
            [
              31.4653666,
              -8.6464761
            ],
            [
              31.4651024,
              -8.6468224
            ],
            [
              31.4654031,
              -8.6475832
            ],
            [
              31.4663462,
              -8.6477245
            ],
            [
              31.4666651,
              -8.6479568
            ],
            [
              31.4665466,
              -8.6481892
            ],
            [
              31.466091,
              -8.648376
            ],
            [
              31.4661093,
              -8.6487587
            ],
            [
              31.4669931,
              -8.6492826
            ],
            [
              31.4680592,
              -8.6493099
            ],
            [
              31.4689158,
              -8.6499523
            ],
            [
              31.4689659,
              -8.6511825
            ],
            [
              31.4692985,
              -8.6515697
            ],
            [
              31.4699363,
              -8.651392
            ],
            [
              31.4701823,
              -8.6515879
            ],
            [
              31.4702962,
              -8.6520527
            ],
            [
              31.4701459,
              -8.6525857
            ],
            [
              31.4707746,
              -8.6535242
            ],
            [
              31.4709477,
              -8.6536564
            ],
            [
              31.4715491,
              -8.6534286
            ],
            [
              31.4720412,
              -8.654235
            ],
            [
              31.4724284,
              -8.6541712
            ],
            [
              31.4726243,
              -8.6542942
            ],
            [
              31.4727063,
              -8.654727
            ],
            [
              31.4734353,
              -8.6555198
            ],
            [
              31.472761,
              -8.6559982
            ],
            [
              31.4728066,
              -8.65639
            ],
            [
              31.4731301,
              -8.6566178
            ],
            [
              31.4735583,
              -8.656554
            ],
            [
              31.4737679,
              -8.656677
            ],
            [
              31.4739547,
              -8.6574424
            ],
            [
              31.4746745,
              -8.6574242
            ],
            [
              31.4751666,
              -8.6572055
            ],
            [
              31.4757771,
              -8.6578707
            ],
            [
              31.476342,
              -8.6587181
            ],
            [
              31.4757953,
              -8.6591099
            ],
            [
              31.475768,
              -8.6596657
            ],
            [
              31.4765152,
              -8.6597477
            ],
            [
              31.4766883,
              -8.6600758
            ],
            [
              31.47626,
              -8.6604494
            ],
            [
              31.4762509,
              -8.6616339
            ],
            [
              31.476743,
              -8.6614244
            ],
            [
              31.477071,
              -8.6615884
            ],
            [
              31.4773899,
              -8.6620713
            ],
            [
              31.4774355,
              -8.6627183
            ],
            [
              31.4777908,
              -8.662782
            ],
            [
              31.4780733,
              -8.6643493
            ],
            [
              31.4784651,
              -8.6645953
            ],
            [
              31.4792488,
              -8.6659621
            ],
            [
              31.4797864,
              -8.6664997
            ],
            [
              31.4800324,
              -8.6670282
            ],
            [
              31.4803149,
              -8.668559
            ],
            [
              31.4809709,
              -8.669616
            ],
            [
              31.4811896,
              -8.6717756
            ],
            [
              31.4816817,
              -8.6718576
            ],
            [
              31.4818912,
              -8.6722767
            ],
            [
              31.4820735,
              -8.6722494
            ],
            [
              31.4822648,
              -8.6718576
            ],
            [
              31.482438,
              -8.6719487
            ],
            [
              31.4825655,
              -8.6723223
            ],
            [
              31.48334,
              -8.6729146
            ],
            [
              31.483741,
              -8.6737164
            ],
            [
              31.4845519,
              -8.6742723
            ],
            [
              31.4850258,
              -8.6749375
            ],
            [
              31.4850303,
              -8.6774105
            ],
            [
              31.4845851,
              -8.6776704
            ],
            [
              31.4845261,
              -8.6780257
            ],
            [
              31.4846602,
              -8.6782007
            ],
            [
              31.4847192,
              -8.6794734
            ],
            [
              31.4849123,
              -8.6796749
            ],
            [
              31.4852503,
              -8.6796537
            ],
            [
              31.4856794,
              -8.680009
            ],
            [
              31.4855721,
              -8.6803484
            ],
            [
              31.4858506,
              -8.6809371
            ],
            [
              31.4857165,
              -8.6813242
            ],
            [
              31.4859692,
              -8.681492
            ],
            [
              31.4868538,
              -8.6813931
            ],
            [
              31.4881788,
              -8.6822469
            ],
            [
              31.4885543,
              -8.682862
            ],
            [
              31.4887099,
              -8.6839703
            ],
            [
              31.4889513,
              -8.6841347
            ],
            [
              31.4897666,
              -8.6841825
            ],
            [
              31.490051,
              -8.6852908
            ],
            [
              31.4912633,
              -8.6851264
            ],
            [
              31.4918105,
              -8.6847923
            ],
            [
              31.4923577,
              -8.6848824
            ],
            [
              31.4930014,
              -8.6845324
            ],
            [
              31.4939723,
              -8.6848559
            ],
            [
              31.4942674,
              -8.6846173
            ],
            [
              31.4948682,
              -8.684612
            ],
            [
              31.4952013,
              -8.6852889
            ],
            [
              31.4956729,
              -8.6854552
            ],
            [
              31.4966921,
              -8.6854392
            ],
            [
              31.4968155,
              -8.6856301
            ],
            [
              31.4973525,
              -8.685745
            ],
            [
              31.4976953,
              -8.6856036
            ],
            [
              31.4987758,
              -8.6856896
            ],
            [
              31.4993772,
              -8.6855894
            ],
            [
              31.5001699,
              -8.6849333
            ],
            [
              31.5024297,
              -8.6841952
            ],
            [
              31.5029673,
              -8.6836394
            ],
            [
              31.52674,
              -8.68095
            ],
            [
              31.53617,
              -8.68361
            ],
            [
              31.54235,
              -8.68828
            ],
            [
              31.55157,
              -8.68978
            ],
            [
              31.57048,
              -8.70955
            ],
            [
              31.58202,
              -8.74553
            ],
            [
              31.58298,
              -8.76117
            ],
            [
              31.57895,
              -8.78684
            ],
            [
              31.56988,
              -8.80923
            ],
            [
              31.57639,
              -8.82356
            ],
            [
              31.58475,
              -8.83883
            ],
            [
              31.60009,
              -8.84695
            ],
            [
              31.61039,
              -8.8577
            ],
            [
              31.6292,
              -8.86807
            ],
            [
              31.65861,
              -8.87996
            ],
            [
              31.67352,
              -8.90474
            ],
            [
              31.6799,
              -8.91126
            ],
            [
              31.69214,
              -8.91212
            ],
            [
              31.69994,
              -8.91636
            ],
            [
              31.70871,
              -8.9174
            ],
            [
              31.72516,
              -8.91463
            ],
            [
              31.72861,
              -8.91606
            ],
            [
              31.7351269,
              -8.9245688
            ],
            [
              31.7362303,
              -8.9236502
            ],
            [
              31.7369457,
              -8.9206294
            ],
            [
              31.7375862,
              -8.9197985
            ],
            [
              31.7392727,
              -8.9194278
            ],
            [
              31.7397825,
              -8.9193959
            ],
            [
              31.7403352,
              -8.9197537
            ],
            [
              31.7407474,
              -8.9195447
            ],
            [
              31.7409795,
              -8.9196517
            ],
            [
              31.7412416,
              -8.9195314
            ],
            [
              31.7413755,
              -8.919371
            ],
            [
              31.7411665,
              -8.9192895
            ],
            [
              31.7412609,
              -8.918897
            ],
            [
              31.7417867,
              -8.9183898
            ],
            [
              31.7422743,
              -8.9183584
            ],
            [
              31.7428788,
              -8.9173742
            ],
            [
              31.7441457,
              -8.9169177
            ],
            [
              31.7446793,
              -8.9162413
            ],
            [
              31.745642,
              -8.9158846
            ],
            [
              31.7467238,
              -8.914672
            ],
            [
              31.747482,
              -8.9147096
            ],
            [
              31.7480332,
              -8.9144494
            ],
            [
              31.7481594,
              -8.9137666
            ],
            [
              31.7484182,
              -8.9134782
            ],
            [
              31.7485575,
              -8.9126314
            ],
            [
              31.7488489,
              -8.9122945
            ],
            [
              31.749919,
              -8.911932
            ],
            [
              31.7498448,
              -8.9116893
            ],
            [
              31.7502763,
              -8.9107185
            ],
            [
              31.7505398,
              -8.9106279
            ],
            [
              31.7511621,
              -8.9107601
            ],
            [
              31.7509969,
              -8.910593
            ],
            [
              31.751489,
              -8.9102112
            ],
            [
              31.7516234,
              -8.9097233
            ],
            [
              31.7519558,
              -8.9096001
            ],
            [
              31.7526405,
              -8.90985
            ],
            [
              31.7525933,
              -8.9089364
            ],
            [
              31.7528646,
              -8.9084876
            ],
            [
              31.7526747,
              -8.908202
            ],
            [
              31.7530149,
              -8.9079857
            ],
            [
              31.7535866,
              -8.9080701
            ],
            [
              31.7543503,
              -8.9087353
            ],
            [
              31.7552713,
              -8.9073176
            ],
            [
              31.7553749,
              -8.907065
            ],
            [
              31.75524,
              -8.9065987
            ],
            [
              31.75572,
              -8.9062778
            ],
            [
              31.7556824,
              -8.9059809
            ],
            [
              31.7558877,
              -8.905789
            ],
            [
              31.7564199,
              -8.9056838
            ],
            [
              31.7569345,
              -8.9058097
            ],
            [
              31.7571084,
              -8.9055821
            ],
            [
              31.7564445,
              -8.9048369
            ],
            [
              31.7564604,
              -8.9038434
            ],
            [
              31.7561867,
              -8.9037082
            ],
            [
              31.7561722,
              -8.9034636
            ],
            [
              31.7564307,
              -8.9032184
            ],
            [
              31.7569579,
              -8.9032514
            ],
            [
              31.7575942,
              -8.9023661
            ],
            [
              31.7576338,
              -8.901875
            ],
            [
              31.7582076,
              -8.9015503
            ],
            [
              31.7582956,
              -8.9008858
            ],
            [
              31.7578838,
              -8.9001671
            ],
            [
              31.7580284,
              -8.8997299
            ],
            [
              31.7590779,
              -8.8990175
            ],
            [
              31.7592774,
              -8.8984954
            ],
            [
              31.7597503,
              -8.8984485
            ],
            [
              31.7599716,
              -8.8977403
            ],
            [
              31.7603166,
              -8.8975798
            ],
            [
              31.7607263,
              -8.8980125
            ],
            [
              31.7610704,
              -8.8977959
            ],
            [
              31.7617088,
              -8.8976981
            ],
            [
              31.7620222,
              -8.8977346
            ],
            [
              31.7622141,
              -8.8980406
            ],
            [
              31.7624171,
              -8.8979357
            ],
            [
              31.7623891,
              -8.8973633
            ],
            [
              31.7627996,
              -8.896842
            ],
            [
              31.7635277,
              -8.8967896
            ],
            [
              31.7642765,
              -8.8970192
            ],
            [
              31.7644382,
              -8.8969026
            ],
            [
              31.7641711,
              -8.8962875
            ],
            [
              31.7643544,
              -8.8959256
            ],
            [
              31.7647483,
              -8.895968
            ],
            [
              31.7648755,
              -8.8957219
            ],
            [
              31.7646765,
              -8.8952049
            ],
            [
              31.7648292,
              -8.894809
            ],
            [
              31.7653123,
              -8.8945619
            ],
            [
              31.7658008,
              -8.8948295
            ],
            [
              31.7661286,
              -8.8947575
            ],
            [
              31.7665459,
              -8.8943043
            ],
            [
              31.7672153,
              -8.8946081
            ],
            [
              31.767602,
              -8.8943265
            ],
            [
              31.7689597,
              -8.8938375
            ],
            [
              31.7695119,
              -8.8938951
            ],
            [
              31.7701418,
              -8.8936073
            ],
            [
              31.7704504,
              -8.8937459
            ],
            [
              31.7709642,
              -8.8943926
            ],
            [
              31.772116,
              -8.893798
            ],
            [
              31.7724777,
              -8.8937603
            ],
            [
              31.7728214,
              -8.8940623
            ],
            [
              31.7728279,
              -8.8942863
            ],
            [
              31.7734477,
              -8.8942703
            ],
            [
              31.7741014,
              -8.8937656
            ],
            [
              31.7755905,
              -8.8935217
            ],
            [
              31.775724,
              -8.8931816
            ],
            [
              31.7762831,
              -8.8928459
            ],
            [
              31.7766382,
              -8.8927714
            ],
            [
              31.7772708,
              -8.8931044
            ],
            [
              31.7776978,
              -8.892843
            ],
            [
              31.7778725,
              -8.8930234
            ],
            [
              31.7780913,
              -8.8929932
            ],
            [
              31.7784217,
              -8.8919012
            ],
            [
              31.7787635,
              -8.8919763
            ],
            [
              31.7788719,
              -8.8917906
            ],
            [
              31.7791655,
              -8.8918631
            ],
            [
              31.7794421,
              -8.8923886
            ],
            [
              31.7797669,
              -8.8925002
            ],
            [
              31.7798465,
              -8.8928308
            ],
            [
              31.7801232,
              -8.8930001
            ],
            [
              31.7810577,
              -8.89252
            ],
            [
              31.7817667,
              -8.8923905
            ],
            [
              31.7824951,
              -8.892605
            ],
            [
              31.7831973,
              -8.8923311
            ],
            [
              31.7839844,
              -8.8924772
            ],
            [
              31.7843715,
              -8.8917969
            ],
            [
              31.7854222,
              -8.8912272
            ],
            [
              31.7858124,
              -8.8911913
            ],
            [
              31.7857816,
              -8.8899247
            ],
            [
              31.7859567,
              -8.889688
            ],
            [
              31.7862135,
              -8.8895982
            ],
            [
              31.7863556,
              -8.8898501
            ],
            [
              31.7863172,
              -8.8895245
            ],
            [
              31.786597,
              -8.8892173
            ],
            [
              31.7868514,
              -8.8892453
            ],
            [
              31.7869691,
              -8.8894605
            ],
            [
              31.7872192,
              -8.8888816
            ],
            [
              31.7875811,
              -8.8887624
            ],
            [
              31.7877614,
              -8.8892969
            ],
            [
              31.7884349,
              -8.8894822
            ],
            [
              31.7885421,
              -8.8897166
            ],
            [
              31.7888608,
              -8.8898501
            ],
            [
              31.7891545,
              -8.8896469
            ],
            [
              31.7895465,
              -8.8898682
            ],
            [
              31.7897536,
              -8.8896873
            ],
            [
              31.7899778,
              -8.8890356
            ],
            [
              31.7916767,
              -8.8895301
            ],
            [
              31.7920103,
              -8.8901684
            ],
            [
              31.792826,
              -8.8903967
            ],
            [
              31.7930696,
              -8.8900891
            ],
            [
              31.7937117,
              -8.889925
            ],
            [
              31.7946941,
              -8.8887806
            ],
            [
              31.7950043,
              -8.888767
            ],
            [
              31.79525,
              -8.8883566
            ],
            [
              31.7951642,
              -8.8877419
            ],
            [
              31.7962514,
              -8.8863301
            ],
            [
              31.7968973,
              -8.8861307
            ],
            [
              31.7984617,
              -8.8865124
            ],
            [
              31.798984,
              -8.88632
            ],
            [
              31.799245,
              -8.885639
            ],
            [
              31.800671,
              -8.885169
            ],
            [
              31.804023,
              -8.88524
            ],
            [
              31.804712,
              -8.885568
            ],
            [
              31.805995,
              -8.885545
            ],
            [
              31.806589,
              -8.885733
            ],
            [
              31.806803,
              -8.885568
            ],
            [
              31.807802,
              -8.885662
            ],
            [
              31.808206,
              -8.885944
            ],
            [
              31.808586,
              -8.885874
            ],
            [
              31.811605,
              -8.887283
            ],
            [
              31.813268,
              -8.887447
            ],
            [
              31.814171,
              -8.887376
            ],
            [
              31.815954,
              -8.887846
            ],
            [
              31.816358,
              -8.887823
            ],
            [
              31.817047,
              -8.888222
            ],
            [
              31.819377,
              -8.890162
            ],
            [
              31.82974,
              -8.89176
            ],
            [
              31.86842,
              -8.90394
            ],
            [
              31.8935,
              -8.91265
            ],
            [
              31.9470513,
              -8.9367758
            ],
            [
              31.9472313,
              -8.9416058
            ],
            [
              31.9380113,
              -8.9591858
            ],
            [
              31.93129,
              -8.98256
            ],
            [
              31.936747414965986,
              -9
            ],
            [
              32,
              -9
            ],
            [
              32,
              -8
            ],
            [
              31,
              -8
            ],
            [
              31,
              -8.564111089519113
            ]
          ]
        ]
      }
    },
    {
      "type": "Feature",
      "properties": {
        "osm_id": -195271,
        "boundary": "administrative",
        "admin_level": 2,
        "parents": null,
        "name": "Zambia",
        "local_name": "Zambia",
        "name_en": "Zambia",
        "all_tags": {
          "flag": "http://upload.wikimedia.org/wikipedia/commons/0/06/Flag_of_Zambia.svg",
          "name": "Zambia",
          "name:af": "Zambië",
          "name:am": "ዛምቢያ",
          "name:an": "Zambia",
          "name:ar": "زامبيا",
          "name:az": "Zambiya",
          "name:ba": "Замбия",
          "name:be": "Замбія",
          "name:bg": "Замбия",
          "name:bm": "Zanbia",
          "name:bn": "জাম্বিয়া",
          "name:bo": "ཛམ་བི་ཡ།",
          "name:br": "Zambia",
          "name:bs": "Zambija",
          "name:ca": "Zàmbia",
          "name:ce": "Замби",
          "name:cs": "Zambie",
          "name:cv": "Замби",
          "name:cy": "Zambia",
          "name:da": "Zambia",
          "name:de": "Sambia",
          "name:dv": "ޒެމްބިއާ",
          "name:ee": "Zambia",
          "name:el": "Ζάμπια",
          "name:en": "Zambia",
          "name:eo": "Zambio",
          "name:es": "Zambia",
          "name:et": "Sambia",
          "name:eu": "Zambia",
          "name:fa": "زامبیا",
          "name:fi": "Sambia",
          "name:fo": "Sambia",
          "name:fr": "Zambie",
          "name:fy": "Sambia",
          "name:ga": "An tSaimbia",
          "name:gd": "Saimbia",
          "name:gl": "Zambia",
          "name:gn": "Sámbia",
          "name:gv": "Yn Tambia",
          "name:he": "זמביה",
          "name:hi": "ज़ाम्बिया",
          "name:hr": "Zambija",
          "name:ht": "Zanbi",
          "name:hu": "Zambia",
          "name:hy": "Զամբիա",
          "name:id": "Zambia",
          "name:ie": "Zambia",
          "name:io": "Zambia",
          "name:is": "Sambía",
          "name:it": "Zambia",
          "name:ja": "ザンビア",
          "name:jv": "Zambia",
          "name:ka": "ზამბია",
          "name:kg": "Zambia",
          "name:kk": "Замбия",
          "name:km": "ប្រទេសហ្សំប៊ី",
          "name:ko": "잠비아",
          "name:ku": "Zambiya",
          "name:kw": "Zambi",
          "name:la": "Zambia",
          "name:lb": "Sambia",
          "name:li": "Zambia",
          "name:ln": "Zambia",
          "name:lt": "Zambija",
          "name:lv": "Zambija",
          "name:mi": "Tāmipia",
          "name:mk": "Замбија",
          "name:ml": "സാംബിയ",
          "name:mn": "Замби",
          "name:mr": "झांबिया",
          "name:ms": "Zambia",
          "name:mt": "Żambja",
          "name:my": "ဇမ်ဘီယာနိုင်ငံ",
          "name:nl": "Zambia",
          "name:nn": "Zambia",
          "name:no": "Zambia",
          "name:ny": "Zambia",
          "name:oc": "Zambia",
          "name:or": "ଜାମ୍ବିଆ",
          "name:os": "Замби",
          "name:pa": "ਜ਼ਾਂਬੀਆ",
          "name:pl": "Zambia",
          "name:ps": "زېمبيا",
          "name:pt": "Zâmbia",
          "name:qu": "Sambya",
          "name:ro": "Zambia",
          "name:ru": "Замбия",
          "name:rw": "Zambiya",
          "name:sa": "जाम्बिया",
          "name:sc": "Zàmbia",
          "name:se": "Zambia",
          "name:sg": "Zambïi",
          "name:sh": "Zambija",
          "name:sk": "Zambia",
          "name:sl": "Zambija",
          "name:sn": "Zambia",
          "name:so": "Saambiya",
          "name:sq": "Zambia",
          "name:sr": "Замбија",
          "name:ss": "IZambiya",
          "name:su": "Zambia",
          "name:sv": "Zambia",
          "name:sw": "Zambia",
          "name:ta": "சாம்பியா",
          "name:te": "జాంబియా",
          "name:tg": "Замбия",
          "name:th": "ประเทศแซมเบีย",
          "name:ti": "ዛምቢያ",
          "name:tk": "Zambiýa",
          "name:tl": "Sambya",
          "name:tn": "Zambia",
          "name:tr": "Zambiya",
          "name:ts": "Zambia",
          "name:tt": "Замбия",
          "name:ug": "زامبىيە",
          "name:uk": "Замбія",
          "name:ur": "زیمبیا",
          "name:uz": "Zambiya",
          "name:vi": "Zambia",
          "name:vo": "Zambiyän",
          "name:wo": "Saambi",
          "name:yi": "זאמביע",
          "name:yo": "Sámbíà",
          "name:zh": "赞比亚 / 尚比亞",
          "name:zu": "IZambiya",
          "boundary": "administrative",
          "name:ace": "Zambia",
          "name:als": "Sambia",
          "name:arz": "زامبيا",
          "name:ast": "Zambia",
          "name:bcl": "Sambya",
          "name:bjn": "Zambia",
          "name:bpy": "জাম্বিয়া",
          "name:bxr": "Замби",
          "name:ceb": "Zambia",
          "name:chy": "Zambia",
          "name:ckb": "زامبیا",
          "name:crh": "Zambiya",
          "name:din": "Dhambia",
          "name:diq": "Zambiya",
          "name:dsb": "Sambija",
          "name:ext": "Zámbia",
          "name:frp": "Zambie",
          "name:gag": "Zambiya",
          "name:hak": "Tsan-pí-â",
          "name:hif": "Zambia",
          "name:hsb": "Sambija",
          "name:ilo": "Zambia",
          "name:jbo": "zambias",
          "name:kaa": "Zambiya",
          "name:lij": "Zambia",
          "name:lmo": "Zambia",
          "name:ltg": "Zambeja",
          "name:lzh": "尚比亞",
          "name:mrj": "Замби",
          "name:mzn": "زامبیا",
          "name:nah": "Zambia",
          "name:nan": "Zambia",
          "name:nds": "Sambia",
          "name:nov": "Zambia",
          "name:nso": "Zambia",
          "name:pam": "Zambia",
          "name:pap": "Zambia",
          "name:pms": "Zambia",
          "name:pnb": "زیمبیا",
          "name:rue": "Замбія",
          "name:sah": "Замбия",
          "name:scn": "Zambia",
          "name:sco": "Zambie",
          "name:smn": "Zambia",
          "name:sms": "Sambia",
          "name:stq": "Sambia",
          "name:szl": "Zambijo",
          "name:tum": "Zambia",
          "name:tzl": "Zambia",
          "name:vec": "Zanbia",
          "name:vro": "Sambia",
          "name:war": "Zambia",
          "name:wuu": "赞比亚",
          "name:xal": "Замбудин Орн",
          "name:yue": "贊比亞",
          "timezone": "Africa/Lusaka",
          "way_area": "62.7169",
          "wikidata": "Q953",
          "ISO3166-1": "ZM",
          "wikipedia": "en:Zambia",
          "admin_level": "2",
          "name:simple": "Zambia",
          "driving_side": "left",
          "name:bat-smg": "Zambėjė",
          "name:zh-Hans": "赞比亚",
          "name:zh-Hant": "尚比亞",
          "name:be-tarask": "Замбія",
          "ISO3166-1:alpha2": "ZM",
          "ISO3166-1:alpha3": "ZMB",
          "default_language": "en",
          "official_name:cs": "Zambijská republika",
          "official_name:en": "Republic of Zambia",
          "official_name:es": "República de Zambia",
          "official_name:gn": "Tavakuairetã Sámbia",
          "official_name:pt": "República da Zâmbia",
          "official_name:ru": "Республика Замбия",
          "ISO3166-1:numeric": "894"
        }
      },
      "geometry": {
        "type": "Polygon",
        "coordinates": [
          [
            [
              31,
              -9
            ],
            [
              31.936747414965986,
              -9
            ],
            [
              31.93129,
              -8.98256
            ],
            [
              31.9380113,
              -8.9591858
            ],
            [
              31.9472313,
              -8.9416058
            ],
            [
              31.9470513,
              -8.9367758
            ],
            [
              31.8935,
              -8.91265
            ],
            [
              31.86842,
              -8.90394
            ],
            [
              31.82974,
              -8.89176
            ],
            [
              31.819377,
              -8.890162
            ],
            [
              31.817047,
              -8.888222
            ],
            [
              31.816358,
              -8.887823
            ],
            [
              31.815954,
              -8.887846
            ],
            [
              31.814171,
              -8.887376
            ],
            [
              31.813268,
              -8.887447
            ],
            [
              31.811605,
              -8.887283
            ],
            [
              31.808586,
              -8.885874
            ],
            [
              31.808206,
              -8.885944
            ],
            [
              31.807802,
              -8.885662
            ],
            [
              31.806803,
              -8.885568
            ],
            [
              31.806589,
              -8.885733
            ],
            [
              31.805995,
              -8.885545
            ],
            [
              31.804712,
              -8.885568
            ],
            [
              31.804023,
              -8.88524
            ],
            [
              31.800671,
              -8.885169
            ],
            [
              31.799245,
              -8.885639
            ],
            [
              31.798984,
              -8.88632
            ],
            [
              31.7984617,
              -8.8865124
            ],
            [
              31.7968973,
              -8.8861307
            ],
            [
              31.7962514,
              -8.8863301
            ],
            [
              31.7951642,
              -8.8877419
            ],
            [
              31.79525,
              -8.8883566
            ],
            [
              31.7950043,
              -8.888767
            ],
            [
              31.7946941,
              -8.8887806
            ],
            [
              31.7937117,
              -8.889925
            ],
            [
              31.7930696,
              -8.8900891
            ],
            [
              31.792826,
              -8.8903967
            ],
            [
              31.7920103,
              -8.8901684
            ],
            [
              31.7916767,
              -8.8895301
            ],
            [
              31.7899778,
              -8.8890356
            ],
            [
              31.7897536,
              -8.8896873
            ],
            [
              31.7895465,
              -8.8898682
            ],
            [
              31.7891545,
              -8.8896469
            ],
            [
              31.7888608,
              -8.8898501
            ],
            [
              31.7885421,
              -8.8897166
            ],
            [
              31.7884349,
              -8.8894822
            ],
            [
              31.7877614,
              -8.8892969
            ],
            [
              31.7875811,
              -8.8887624
            ],
            [
              31.7872192,
              -8.8888816
            ],
            [
              31.7869691,
              -8.8894605
            ],
            [
              31.7868514,
              -8.8892453
            ],
            [
              31.786597,
              -8.8892173
            ],
            [
              31.7863172,
              -8.8895245
            ],
            [
              31.7863556,
              -8.8898501
            ],
            [
              31.7862135,
              -8.8895982
            ],
            [
              31.7859567,
              -8.889688
            ],
            [
              31.7857816,
              -8.8899247
            ],
            [
              31.7858124,
              -8.8911913
            ],
            [
              31.7854222,
              -8.8912272
            ],
            [
              31.7843715,
              -8.8917969
            ],
            [
              31.7839844,
              -8.8924772
            ],
            [
              31.7831973,
              -8.8923311
            ],
            [
              31.7824951,
              -8.892605
            ],
            [
              31.7817667,
              -8.8923905
            ],
            [
              31.7810577,
              -8.89252
            ],
            [
              31.7801232,
              -8.8930001
            ],
            [
              31.7798465,
              -8.8928308
            ],
            [
              31.7797669,
              -8.8925002
            ],
            [
              31.7794421,
              -8.8923886
            ],
            [
              31.7791655,
              -8.8918631
            ],
            [
              31.7788719,
              -8.8917906
            ],
            [
              31.7787635,
              -8.8919763
            ],
            [
              31.7784217,
              -8.8919012
            ],
            [
              31.7780913,
              -8.8929932
            ],
            [
              31.7778725,
              -8.8930234
            ],
            [
              31.7776978,
              -8.892843
            ],
            [
              31.7772708,
              -8.8931044
            ],
            [
              31.7766382,
              -8.8927714
            ],
            [
              31.7762831,
              -8.8928459
            ],
            [
              31.775724,
              -8.8931816
            ],
            [
              31.7755905,
              -8.8935217
            ],
            [
              31.7741014,
              -8.8937656
            ],
            [
              31.7734477,
              -8.8942703
            ],
            [
              31.7728279,
              -8.8942863
            ],
            [
              31.7728214,
              -8.8940623
            ],
            [
              31.7724777,
              -8.8937603
            ],
            [
              31.772116,
              -8.893798
            ],
            [
              31.7709642,
              -8.8943926
            ],
            [
              31.7704504,
              -8.8937459
            ],
            [
              31.7701418,
              -8.8936073
            ],
            [
              31.7695119,
              -8.8938951
            ],
            [
              31.7689597,
              -8.8938375
            ],
            [
              31.767602,
              -8.8943265
            ],
            [
              31.7672153,
              -8.8946081
            ],
            [
              31.7665459,
              -8.8943043
            ],
            [
              31.7661286,
              -8.8947575
            ],
            [
              31.7658008,
              -8.8948295
            ],
            [
              31.7653123,
              -8.8945619
            ],
            [
              31.7648292,
              -8.894809
            ],
            [
              31.7646765,
              -8.8952049
            ],
            [
              31.7648755,
              -8.8957219
            ],
            [
              31.7647483,
              -8.895968
            ],
            [
              31.7643544,
              -8.8959256
            ],
            [
              31.7641711,
              -8.8962875
            ],
            [
              31.7644382,
              -8.8969026
            ],
            [
              31.7642765,
              -8.8970192
            ],
            [
              31.7635277,
              -8.8967896
            ],
            [
              31.7627996,
              -8.896842
            ],
            [
              31.7623891,
              -8.8973633
            ],
            [
              31.7624171,
              -8.8979357
            ],
            [
              31.7622141,
              -8.8980406
            ],
            [
              31.7620222,
              -8.8977346
            ],
            [
              31.7617088,
              -8.8976981
            ],
            [
              31.7610704,
              -8.8977959
            ],
            [
              31.7607263,
              -8.8980125
            ],
            [
              31.7603166,
              -8.8975798
            ],
            [
              31.7599716,
              -8.8977403
            ],
            [
              31.7597503,
              -8.8984485
            ],
            [
              31.7592774,
              -8.8984954
            ],
            [
              31.7590779,
              -8.8990175
            ],
            [
              31.7580284,
              -8.8997299
            ],
            [
              31.7578838,
              -8.9001671
            ],
            [
              31.7582956,
              -8.9008858
            ],
            [
              31.7582076,
              -8.9015503
            ],
            [
              31.7576338,
              -8.901875
            ],
            [
              31.7575942,
              -8.9023661
            ],
            [
              31.7569579,
              -8.9032514
            ],
            [
              31.7564307,
              -8.9032184
            ],
            [
              31.7561722,
              -8.9034636
            ],
            [
              31.7561867,
              -8.9037082
            ],
            [
              31.7564604,
              -8.9038434
            ],
            [
              31.7564445,
              -8.9048369
            ],
            [
              31.7571084,
              -8.9055821
            ],
            [
              31.7569345,
              -8.9058097
            ],
            [
              31.7564199,
              -8.9056838
            ],
            [
              31.7558877,
              -8.905789
            ],
            [
              31.7556824,
              -8.9059809
            ],
            [
              31.75572,
              -8.9062778
            ],
            [
              31.75524,
              -8.9065987
            ],
            [
              31.7553749,
              -8.907065
            ],
            [
              31.7552713,
              -8.9073176
            ],
            [
              31.7543503,
              -8.9087353
            ],
            [
              31.7535866,
              -8.9080701
            ],
            [
              31.7530149,
              -8.9079857
            ],
            [
              31.7526747,
              -8.908202
            ],
            [
              31.7528646,
              -8.9084876
            ],
            [
              31.7525933,
              -8.9089364
            ],
            [
              31.7526405,
              -8.90985
            ],
            [
              31.7519558,
              -8.9096001
            ],
            [
              31.7516234,
              -8.9097233
            ],
            [
              31.751489,
              -8.9102112
            ],
            [
              31.7509969,
              -8.910593
            ],
            [
              31.7511621,
              -8.9107601
            ],
            [
              31.7505398,
              -8.9106279
            ],
            [
              31.7502763,
              -8.9107185
            ],
            [
              31.7498448,
              -8.9116893
            ],
            [
              31.749919,
              -8.911932
            ],
            [
              31.7488489,
              -8.9122945
            ],
            [
              31.7485575,
              -8.9126314
            ],
            [
              31.7484182,
              -8.9134782
            ],
            [
              31.7481594,
              -8.9137666
            ],
            [
              31.7480332,
              -8.9144494
            ],
            [
              31.747482,
              -8.9147096
            ],
            [
              31.7467238,
              -8.914672
            ],
            [
              31.745642,
              -8.9158846
            ],
            [
              31.7446793,
              -8.9162413
            ],
            [
              31.7441457,
              -8.9169177
            ],
            [
              31.7428788,
              -8.9173742
            ],
            [
              31.7422743,
              -8.9183584
            ],
            [
              31.7417867,
              -8.9183898
            ],
            [
              31.7412609,
              -8.918897
            ],
            [
              31.7411665,
              -8.9192895
            ],
            [
              31.7413755,
              -8.919371
            ],
            [
              31.7412416,
              -8.9195314
            ],
            [
              31.7409795,
              -8.9196517
            ],
            [
              31.7407474,
              -8.9195447
            ],
            [
              31.7403352,
              -8.9197537
            ],
            [
              31.7397825,
              -8.9193959
            ],
            [
              31.7392727,
              -8.9194278
            ],
            [
              31.7375862,
              -8.9197985
            ],
            [
              31.7369457,
              -8.9206294
            ],
            [
              31.7362303,
              -8.9236502
            ],
            [
              31.7351269,
              -8.9245688
            ],
            [
              31.72861,
              -8.91606
            ],
            [
              31.72516,
              -8.91463
            ],
            [
              31.70871,
              -8.9174
            ],
            [
              31.69994,
              -8.91636
            ],
            [
              31.69214,
              -8.91212
            ],
            [
              31.6799,
              -8.91126
            ],
            [
              31.67352,
              -8.90474
            ],
            [
              31.65861,
              -8.87996
            ],
            [
              31.6292,
              -8.86807
            ],
            [
              31.61039,
              -8.8577
            ],
            [
              31.60009,
              -8.84695
            ],
            [
              31.58475,
              -8.83883
            ],
            [
              31.57639,
              -8.82356
            ],
            [
              31.56988,
              -8.80923
            ],
            [
              31.57895,
              -8.78684
            ],
            [
              31.58298,
              -8.76117
            ],
            [
              31.58202,
              -8.74553
            ],
            [
              31.57048,
              -8.70955
            ],
            [
              31.55157,
              -8.68978
            ],
            [
              31.54235,
              -8.68828
            ],
            [
              31.53617,
              -8.68361
            ],
            [
              31.52674,
              -8.68095
            ],
            [
              31.5029673,
              -8.6836394
            ],
            [
              31.5024297,
              -8.6841952
            ],
            [
              31.5001699,
              -8.6849333
            ],
            [
              31.4993772,
              -8.6855894
            ],
            [
              31.4987758,
              -8.6856896
            ],
            [
              31.4976953,
              -8.6856036
            ],
            [
              31.4973525,
              -8.685745
            ],
            [
              31.4968155,
              -8.6856301
            ],
            [
              31.4966921,
              -8.6854392
            ],
            [
              31.4956729,
              -8.6854552
            ],
            [
              31.4952013,
              -8.6852889
            ],
            [
              31.4948682,
              -8.684612
            ],
            [
              31.4942674,
              -8.6846173
            ],
            [
              31.4939723,
              -8.6848559
            ],
            [
              31.4930014,
              -8.6845324
            ],
            [
              31.4923577,
              -8.6848824
            ],
            [
              31.4918105,
              -8.6847923
            ],
            [
              31.4912633,
              -8.6851264
            ],
            [
              31.490051,
              -8.6852908
            ],
            [
              31.4897666,
              -8.6841825
            ],
            [
              31.4889513,
              -8.6841347
            ],
            [
              31.4887099,
              -8.6839703
            ],
            [
              31.4885543,
              -8.682862
            ],
            [
              31.4881788,
              -8.6822469
            ],
            [
              31.4868538,
              -8.6813931
            ],
            [
              31.4859692,
              -8.681492
            ],
            [
              31.4857165,
              -8.6813242
            ],
            [
              31.4858506,
              -8.6809371
            ],
            [
              31.4855721,
              -8.6803484
            ],
            [
              31.4856794,
              -8.680009
            ],
            [
              31.4852503,
              -8.6796537
            ],
            [
              31.4849123,
              -8.6796749
            ],
            [
              31.4847192,
              -8.6794734
            ],
            [
              31.4846602,
              -8.6782007
            ],
            [
              31.4845261,
              -8.6780257
            ],
            [
              31.4845851,
              -8.6776704
            ],
            [
              31.4850303,
              -8.6774105
            ],
            [
              31.4850258,
              -8.6749375
            ],
            [
              31.4845519,
              -8.6742723
            ],
            [
              31.483741,
              -8.6737164
            ],
            [
              31.48334,
              -8.6729146
            ],
            [
              31.4825655,
              -8.6723223
            ],
            [
              31.482438,
              -8.6719487
            ],
            [
              31.4822648,
              -8.6718576
            ],
            [
              31.4820735,
              -8.6722494
            ],
            [
              31.4818912,
              -8.6722767
            ],
            [
              31.4816817,
              -8.6718576
            ],
            [
              31.4811896,
              -8.6717756
            ],
            [
              31.4809709,
              -8.669616
            ],
            [
              31.4803149,
              -8.668559
            ],
            [
              31.4800324,
              -8.6670282
            ],
            [
              31.4797864,
              -8.6664997
            ],
            [
              31.4792488,
              -8.6659621
            ],
            [
              31.4784651,
              -8.6645953
            ],
            [
              31.4780733,
              -8.6643493
            ],
            [
              31.4777908,
              -8.662782
            ],
            [
              31.4774355,
              -8.6627183
            ],
            [
              31.4773899,
              -8.6620713
            ],
            [
              31.477071,
              -8.6615884
            ],
            [
              31.476743,
              -8.6614244
            ],
            [
              31.4762509,
              -8.6616339
            ],
            [
              31.47626,
              -8.6604494
            ],
            [
              31.4766883,
              -8.6600758
            ],
            [
              31.4765152,
              -8.6597477
            ],
            [
              31.475768,
              -8.6596657
            ],
            [
              31.4757953,
              -8.6591099
            ],
            [
              31.476342,
              -8.6587181
            ],
            [
              31.4757771,
              -8.6578707
            ],
            [
              31.4751666,
              -8.6572055
            ],
            [
              31.4746745,
              -8.6574242
            ],
            [
              31.4739547,
              -8.6574424
            ],
            [
              31.4737679,
              -8.656677
            ],
            [
              31.4735583,
              -8.656554
            ],
            [
              31.4731301,
              -8.6566178
            ],
            [
              31.4728066,
              -8.65639
            ],
            [
              31.472761,
              -8.6559982
            ],
            [
              31.4734353,
              -8.6555198
            ],
            [
              31.4727063,
              -8.654727
            ],
            [
              31.4726243,
              -8.6542942
            ],
            [
              31.4724284,
              -8.6541712
            ],
            [
              31.4720412,
              -8.654235
            ],
            [
              31.4715491,
              -8.6534286
            ],
            [
              31.4709477,
              -8.6536564
            ],
            [
              31.4707746,
              -8.6535242
            ],
            [
              31.4701459,
              -8.6525857
            ],
            [
              31.4702962,
              -8.6520527
            ],
            [
              31.4701823,
              -8.6515879
            ],
            [
              31.4699363,
              -8.651392
            ],
            [
              31.4692985,
              -8.6515697
            ],
            [
              31.4689659,
              -8.6511825
            ],
            [
              31.4689158,
              -8.6499523
            ],
            [
              31.4680592,
              -8.6493099
            ],
            [
              31.4669931,
              -8.6492826
            ],
            [
              31.4661093,
              -8.6487587
            ],
            [
              31.466091,
              -8.648376
            ],
            [
              31.4665466,
              -8.6481892
            ],
            [
              31.4666651,
              -8.6479568
            ],
            [
              31.4663462,
              -8.6477245
            ],
            [
              31.4654031,
              -8.6475832
            ],
            [
              31.4651024,
              -8.6468224
            ],
            [
              31.4653666,
              -8.6464761
            ],
            [
              31.4650933,
              -8.6461344
            ],
            [
              31.465034,
              -8.6457472
            ],
            [
              31.4646103,
              -8.6457289
            ],
            [
              31.4644099,
              -8.646016
            ],
            [
              31.4642231,
              -8.6459886
            ],
            [
              31.4638221,
              -8.6450045
            ],
            [
              31.463198,
              -8.645041
            ],
            [
              31.4630203,
              -8.6446947
            ],
            [
              31.4625738,
              -8.6445854
            ],
            [
              31.4624508,
              -8.6437243
            ],
            [
              31.4621091,
              -8.6436514
            ],
            [
              31.4619086,
              -8.6431593
            ],
            [
              31.4616216,
              -8.6433006
            ],
            [
              31.4613665,
              -8.6431183
            ],
            [
              31.4608926,
              -8.6435831
            ],
            [
              31.4606102,
              -8.6436195
            ],
            [
              31.4602593,
              -8.6427265
            ],
            [
              31.4606193,
              -8.6421935
            ],
            [
              31.460519,
              -8.6420203
            ],
            [
              31.4600498,
              -8.6420887
            ],
            [
              31.4598402,
              -8.6417561
            ],
            [
              31.4601728,
              -8.6407857
            ],
            [
              31.4599313,
              -8.6405396
            ],
            [
              31.4595486,
              -8.6406399
            ],
            [
              31.4594484,
              -8.640485
            ],
            [
              31.4597263,
              -8.6399155
            ],
            [
              31.4596671,
              -8.6396376
            ],
            [
              31.4588105,
              -8.6390772
            ],
            [
              31.4582228,
              -8.6392321
            ],
            [
              31.4576898,
              -8.6388995
            ],
            [
              31.4572159,
              -8.6394462
            ],
            [
              31.4561544,
              -8.6395783
            ],
            [
              31.4559448,
              -8.6391546
            ],
            [
              31.454496,
              -8.6393687
            ],
            [
              31.4543502,
              -8.6392457
            ],
            [
              31.4542135,
              -8.6383391
            ],
            [
              31.4534481,
              -8.6379336
            ],
            [
              31.4531839,
              -8.6374233
            ],
            [
              31.4527465,
              -8.638043
            ],
            [
              31.4523729,
              -8.6382525
            ],
            [
              31.4522681,
              -8.6388721
            ],
            [
              31.4515574,
              -8.6391409
            ],
            [
              31.4514116,
              -8.6393551
            ],
            [
              31.4510334,
              -8.6392047
            ],
            [
              31.4508056,
              -8.6392776
            ],
            [
              31.4508148,
              -8.6388721
            ],
            [
              31.4506325,
              -8.6387537
            ],
            [
              31.4498307,
              -8.6386945
            ],
            [
              31.4494844,
              -8.6389633
            ],
            [
              31.4490835,
              -8.638617
            ],
            [
              31.4486598,
              -8.6387901
            ],
            [
              31.4485231,
              -8.6390407
            ],
            [
              31.4477896,
              -8.6390954
            ],
            [
              31.4473157,
              -8.6393141
            ],
            [
              31.4467964,
              -8.6391318
            ],
            [
              31.4455526,
              -8.6392184
            ],
            [
              31.4448783,
              -8.6394416
            ],
            [
              31.4438942,
              -8.6387127
            ],
            [
              31.4432837,
              -8.6386443
            ],
            [
              31.4431789,
              -8.6387765
            ],
            [
              31.4434158,
              -8.6394826
            ],
            [
              31.4428691,
              -8.6395601
            ],
            [
              31.4422176,
              -8.6391091
            ],
            [
              31.4418485,
              -8.6392047
            ],
            [
              31.4404772,
              -8.6389223
            ],
            [
              31.4399532,
              -8.6391728
            ],
            [
              31.4394475,
              -8.6382434
            ],
            [
              31.4385044,
              -8.6388858
            ],
            [
              31.4379122,
              -8.6398198
            ],
            [
              31.4364315,
              -8.6400066
            ],
            [
              31.4360351,
              -8.6399246
            ],
            [
              31.4355658,
              -8.6395419
            ],
            [
              31.4346683,
              -8.6396649
            ],
            [
              31.4344496,
              -8.6391546
            ],
            [
              31.433666,
              -8.6390134
            ],
            [
              31.4329962,
              -8.6386261
            ],
            [
              31.4318345,
              -8.6384029
            ],
            [
              31.4314609,
              -8.6379701
            ],
            [
              31.430413,
              -8.6381523
            ],
            [
              31.4301943,
              -8.6386125
            ],
            [
              31.4297432,
              -8.638371
            ],
            [
              31.4292421,
              -8.638371
            ],
            [
              31.4294289,
              -8.638986
            ],
            [
              31.4289733,
              -8.6389587
            ],
            [
              31.4288594,
              -8.6392913
            ],
            [
              31.4284812,
              -8.639264
            ],
            [
              31.4283218,
              -8.6397651
            ],
            [
              31.4279573,
              -8.639879
            ],
            [
              31.425734,
              -8.6391774
            ],
            [
              31.4253194,
              -8.6394416
            ],
            [
              31.424841,
              -8.6394508
            ],
            [
              31.4242168,
              -8.6392093
            ],
            [
              31.4239025,
              -8.6386535
            ],
            [
              31.4237475,
              -8.63874
            ],
            [
              31.4237065,
              -8.6393687
            ],
            [
              31.423415,
              -8.6394462
            ],
            [
              31.4229821,
              -8.6390954
            ],
            [
              31.4223215,
              -8.6389587
            ],
            [
              31.4216973,
              -8.638207
            ],
            [
              31.4203305,
              -8.6380475
            ],
            [
              31.419761,
              -8.6387765
            ],
            [
              31.4196289,
              -8.6392138
            ],
            [
              31.4193738,
              -8.6393779
            ],
            [
              31.4189182,
              -8.6394189
            ],
            [
              31.4180571,
              -8.6389314
            ],
            [
              31.4176516,
              -8.6390999
            ],
            [
              31.4173874,
              -8.6389769
            ],
            [
              31.4170912,
              -8.6392002
            ],
            [
              31.4162028,
              -8.6388676
            ],
            [
              31.415934,
              -8.6389997
            ],
            [
              31.4158383,
              -8.6393733
            ],
            [
              31.4154511,
              -8.639305
            ],
            [
              31.4140888,
              -8.6397788
            ],
            [
              31.4134009,
              -8.6398175
            ],
            [
              31.4130592,
              -8.6396922
            ],
            [
              31.4127676,
              -8.6389405
            ],
            [
              31.4123074,
              -8.6386945
            ],
            [
              31.4111889,
              -8.6382913
            ],
            [
              31.4105351,
              -8.638535
            ],
            [
              31.4097606,
              -8.6379541
            ],
            [
              31.4090681,
              -8.6377719
            ],
            [
              31.4083528,
              -8.6378311
            ],
            [
              31.4082663,
              -8.6374416
            ],
            [
              31.4087788,
              -8.6364438
            ],
            [
              31.4087173,
              -8.6361773
            ],
            [
              31.4082321,
              -8.636216
            ],
            [
              31.4075578,
              -8.6373869
            ],
            [
              31.407232,
              -8.6373823
            ],
            [
              31.4070726,
              -8.6368675
            ],
            [
              31.4073756,
              -8.636052
            ],
            [
              31.4069313,
              -8.63579
            ],
            [
              31.4062525,
              -8.6349244
            ],
            [
              31.4056443,
              -8.6346305
            ],
            [
              31.404462,
              -8.6335097
            ],
            [
              31.4039768,
              -8.6336031
            ],
            [
              31.4033025,
              -8.6332136
            ],
            [
              31.4029016,
              -8.6332068
            ],
            [
              31.4026647,
              -8.6329334
            ],
            [
              31.4022296,
              -8.6328696
            ],
            [
              31.4018651,
              -8.6331931
            ],
            [
              31.4015393,
              -8.6326122
            ],
            [
              31.4015712,
              -8.6322477
            ],
            [
              31.4011498,
              -8.6321839
            ],
            [
              31.4011885,
              -8.6316987
            ],
            [
              31.400881,
              -8.6316463
            ],
            [
              31.4007056,
              -8.6312477
            ],
            [
              31.3996941,
              -8.6313547
            ],
            [
              31.3993479,
              -8.6308832
            ],
            [
              31.3994094,
              -8.6307032
            ],
            [
              31.3988422,
              -8.6305779
            ],
            [
              31.3982636,
              -8.6309698
            ],
            [
              31.39789,
              -8.6310085
            ],
            [
              31.397669,
              -8.6315438
            ],
            [
              31.397382,
              -8.6315415
            ],
            [
              31.3972225,
              -8.6312408
            ],
            [
              31.3968899,
              -8.6312295
            ],
            [
              31.3964275,
              -8.63066
            ],
            [
              31.3954502,
              -8.6300859
            ],
            [
              31.3955732,
              -8.6295688
            ],
            [
              31.3952065,
              -8.6297009
            ],
            [
              31.3950493,
              -8.6294891
            ],
            [
              31.3954161,
              -8.6292089
            ],
            [
              31.3954229,
              -8.6287783
            ],
            [
              31.3950265,
              -8.6287077
            ],
            [
              31.394498,
              -8.6283432
            ],
            [
              31.394498,
              -8.6281405
            ],
            [
              31.394785,
              -8.6279537
            ],
            [
              31.3947144,
              -8.6276188
            ],
            [
              31.395006,
              -8.6272657
            ],
            [
              31.3949149,
              -8.6267919
            ],
            [
              31.3953637,
              -8.6267577
            ],
            [
              31.3953022,
              -8.6265117
            ],
            [
              31.3949035,
              -8.6263568
            ],
            [
              31.3945755,
              -8.6257076
            ],
            [
              31.3941108,
              -8.6254502
            ],
            [
              31.3935344,
              -8.6255003
            ],
            [
              31.3927212,
              -8.6249103
            ],
            [
              31.3923818,
              -8.6244251
            ],
            [
              31.3925207,
              -8.6240948
            ],
            [
              31.3919945,
              -8.62422
            ],
            [
              31.3911038,
              -8.6237348
            ],
            [
              31.39104,
              -8.6235048
            ],
            [
              31.3912838,
              -8.623343
            ],
            [
              31.3909922,
              -8.6231949
            ],
            [
              31.3911425,
              -8.6228578
            ],
            [
              31.3913544,
              -8.6227758
            ],
            [
              31.3916232,
              -8.6230173
            ],
            [
              31.391794,
              -8.6228942
            ],
            [
              31.3916642,
              -8.6226733
            ],
            [
              31.3917553,
              -8.6224159
            ],
            [
              31.3915389,
              -8.6221744
            ],
            [
              31.391605,
              -8.6216072
            ],
            [
              31.3912951,
              -8.621327
            ],
            [
              31.3912906,
              -8.6210513
            ],
            [
              31.390917,
              -8.6208919
            ],
            [
              31.3912997,
              -8.6205023
            ],
            [
              31.3910127,
              -8.6200809
            ],
            [
              31.3910036,
              -8.6192722
            ],
            [
              31.3907462,
              -8.6189123
            ],
            [
              31.3903612,
              -8.6189898
            ],
            [
              31.3900126,
              -8.6193223
            ],
            [
              31.3896368,
              -8.619213
            ],
            [
              31.3895206,
              -8.6186503
            ],
            [
              31.3899283,
              -8.6185205
            ],
            [
              31.3900195,
              -8.6180717
            ],
            [
              31.3893201,
              -8.6172425
            ],
            [
              31.3891333,
              -8.6167983
            ],
            [
              31.3892837,
              -8.6166343
            ],
            [
              31.3898281,
              -8.6166571
            ],
            [
              31.3901083,
              -8.6162265
            ],
            [
              31.3895798,
              -8.6158962
            ],
            [
              31.3890126,
              -8.6162083
            ],
            [
              31.3889283,
              -8.6145727
            ],
            [
              31.3885934,
              -8.6142811
            ],
            [
              31.388459,
              -8.6136752
            ],
            [
              31.387787,
              -8.613067
            ],
            [
              31.3878144,
              -8.6126159
            ],
            [
              31.3868644,
              -8.6125977
            ],
            [
              31.3865045,
              -8.6123448
            ],
            [
              31.3866002,
              -8.6119257
            ],
            [
              31.3873656,
              -8.6115749
            ],
            [
              31.3879579,
              -8.6116705
            ],
            [
              31.3881538,
              -8.6115225
            ],
            [
              31.3881424,
              -8.6113288
            ],
            [
              31.3877301,
              -8.6111717
            ],
            [
              31.3878986,
              -8.6107753
            ],
            [
              31.3878144,
              -8.6104359
            ],
            [
              31.3874294,
              -8.6100577
            ],
            [
              31.3876617,
              -8.6094632
            ],
            [
              31.3873952,
              -8.6091465
            ],
            [
              31.3875068,
              -8.6089757
            ],
            [
              31.388147,
              -8.6088754
            ],
            [
              31.3880923,
              -8.6083652
            ],
            [
              31.3882609,
              -8.6079255
            ],
            [
              31.387762,
              -8.6077774
            ],
            [
              31.3873451,
              -8.6081305
            ],
            [
              31.3870398,
              -8.6081852
            ],
            [
              31.3864635,
              -8.6076089
            ],
            [
              31.3869487,
              -8.6071259
            ],
            [
              31.3866093,
              -8.6065109
            ],
            [
              31.385673,
              -8.6065291
            ],
            [
              31.385083,
              -8.6058821
            ],
            [
              31.3845227,
              -8.6057523
            ],
            [
              31.384427,
              -8.605529
            ],
            [
              31.3845933,
              -8.6051509
            ],
            [
              31.3844611,
              -8.6049072
            ],
            [
              31.384001,
              -8.6048502
            ],
            [
              31.3826433,
              -8.6036656
            ],
            [
              31.3821102,
              -8.6040438
            ],
            [
              31.3815635,
              -8.605037
            ],
            [
              31.3813243,
              -8.6051076
            ],
            [
              31.380953,
              -8.6041941
            ],
            [
              31.3808961,
              -8.6035062
            ],
            [
              31.3802833,
              -8.6035563
            ],
            [
              31.3802924,
              -8.6029298
            ],
            [
              31.3796363,
              -8.6018911
            ],
            [
              31.3796409,
              -8.6015038
            ],
            [
              31.3792286,
              -8.6012122
            ],
            [
              31.3789962,
              -8.6012851
            ],
            [
              31.3788436,
              -8.6017407
            ],
            [
              31.3782695,
              -8.6019344
            ],
            [
              31.3779051,
              -8.601866
            ],
            [
              31.3775497,
              -8.6013763
            ],
            [
              31.3772239,
              -8.6013785
            ],
            [
              31.3770189,
              -8.6016086
            ],
            [
              31.3768344,
              -8.6015471
            ],
            [
              31.3770668,
              -8.6006929
            ],
            [
              31.3766704,
              -8.5998363
            ],
            [
              31.3768572,
              -8.5992008
            ],
            [
              31.3759938,
              -8.5985242
            ],
            [
              31.3764449,
              -8.5974945
            ],
            [
              31.3768412,
              -8.5972121
            ],
            [
              31.3770166,
              -8.5962394
            ],
            [
              31.3765907,
              -8.5956972
            ],
            [
              31.3760827,
              -8.5954284
            ],
            [
              31.3757227,
              -8.5948794
            ],
            [
              31.3749118,
              -8.5945126
            ],
            [
              31.3748161,
              -8.5943281
            ],
            [
              31.37552,
              -8.5938588
            ],
            [
              31.3753036,
              -8.5934648
            ],
            [
              31.3753059,
              -8.5928725
            ],
            [
              31.3754471,
              -8.5927062
            ],
            [
              31.3757751,
              -8.5929408
            ],
            [
              31.3759893,
              -8.5927927
            ],
            [
              31.3758594,
              -8.5921709
            ],
            [
              31.376274,
              -8.5921025
            ],
            [
              31.3762649,
              -8.5917084
            ],
            [
              31.3766727,
              -8.5909681
            ],
            [
              31.3769232,
              -8.5899544
            ],
            [
              31.3764927,
              -8.5897584
            ],
            [
              31.3762877,
              -8.5894669
            ],
            [
              31.3765588,
              -8.5886946
            ],
            [
              31.3750917,
              -8.588444
            ],
            [
              31.3747683,
              -8.5876171
            ],
            [
              31.3744789,
              -8.5876012
            ],
            [
              31.3742033,
              -8.5879429
            ],
            [
              31.3733354,
              -8.58769
            ],
            [
              31.3721326,
              -8.5878518
            ],
            [
              31.3721075,
              -8.5886878
            ],
            [
              31.3719595,
              -8.5888313
            ],
            [
              31.3717226,
              -8.5885124
            ],
            [
              31.3712465,
              -8.58887
            ],
            [
              31.3704833,
              -8.5886377
            ],
            [
              31.3699799,
              -8.5886536
            ],
            [
              31.3698774,
              -8.5887971
            ],
            [
              31.3700892,
              -8.5893142
            ],
            [
              31.3700277,
              -8.5896377
            ],
            [
              31.3688751,
              -8.5893689
            ],
            [
              31.3676654,
              -8.5897835
            ],
            [
              31.3664353,
              -8.5905375
            ],
            [
              31.3657588,
              -8.5914487
            ],
            [
              31.3653396,
              -8.5912255
            ],
            [
              31.3654398,
              -8.5900683
            ],
            [
              31.3648043,
              -8.589902
            ],
            [
              31.3644899,
              -8.5893917
            ],
            [
              31.3637541,
              -8.5892208
            ],
            [
              31.3638589,
              -8.5897789
            ],
            [
              31.3637382,
              -8.5901138
            ],
            [
              31.3626484,
              -8.5910278
            ],
            [
              31.362401,
              -8.5922448
            ],
            [
              31.3622138,
              -8.5924612
            ],
            [
              31.3607514,
              -8.593283
            ],
            [
              31.3599869,
              -8.5933394
            ],
            [
              31.3593207,
              -8.5941424
            ],
            [
              31.3592509,
              -8.59535
            ],
            [
              31.3601614,
              -8.5970532
            ],
            [
              31.3608815,
              -8.5973323
            ],
            [
              31.3618871,
              -8.5987281
            ],
            [
              31.3615476,
              -8.5996158
            ],
            [
              31.3613478,
              -8.6015604
            ],
            [
              31.3617792,
              -8.6025265
            ],
            [
              31.3618712,
              -8.6034267
            ],
            [
              31.3614366,
              -8.6041449
            ],
            [
              31.3618395,
              -8.604973
            ],
            [
              31.3618046,
              -8.6056034
            ],
            [
              31.3620044,
              -8.6059327
            ],
            [
              31.3627436,
              -8.6063562
            ],
            [
              31.362788,
              -8.6073065
            ],
            [
              31.3629942,
              -8.6075104
            ],
            [
              31.3628958,
              -8.6077362
            ],
            [
              31.3625754,
              -8.6079652
            ],
            [
              31.3621186,
              -8.6080279
            ],
            [
              31.3615223,
              -8.6078303
            ],
            [
              31.361075,
              -8.6080656
            ],
            [
              31.3606309,
              -8.6078429
            ],
            [
              31.3602375,
              -8.6079464
            ],
            [
              31.3593525,
              -8.6086301
            ],
            [
              31.3588957,
              -8.6093641
            ],
            [
              31.3586831,
              -8.6093703
            ],
            [
              31.3583342,
              -8.6085988
            ],
            [
              31.3575475,
              -8.6082036
            ],
            [
              31.3574015,
              -8.6079087
            ],
            [
              31.356783,
              -8.6078146
            ],
            [
              31.3567639,
              -8.6072062
            ],
            [
              31.3564943,
              -8.607087
            ],
            [
              31.3563071,
              -8.6076327
            ],
            [
              31.3556251,
              -8.6079872
            ],
            [
              31.3549431,
              -8.6089406
            ],
            [
              31.3549621,
              -8.6091822
            ],
            [
              31.3555141,
              -8.6093139
            ],
            [
              31.3558186,
              -8.6098408
            ],
            [
              31.3557996,
              -8.6101796
            ],
            [
              31.3553459,
              -8.6105716
            ],
            [
              31.3549843,
              -8.6120552
            ],
            [
              31.3544672,
              -8.6124347
            ],
            [
              31.3534077,
              -8.6121524
            ],
            [
              31.3532079,
              -8.6128299
            ],
            [
              31.3519548,
              -8.6130024
            ],
            [
              31.3517169,
              -8.6131874
            ],
            [
              31.3515297,
              -8.613821
            ],
            [
              31.3519548,
              -8.614097
            ],
            [
              31.3519041,
              -8.6144545
            ],
            [
              31.3513997,
              -8.614671
            ],
            [
              31.3512918,
              -8.6149626
            ],
            [
              31.3507938,
              -8.6152951
            ],
            [
              31.3498516,
              -8.6151383
            ],
            [
              31.3486589,
              -8.6158063
            ],
            [
              31.3480498,
              -8.6170672
            ],
            [
              31.3476945,
              -8.6169323
            ],
            [
              31.3473297,
              -8.6155743
            ],
            [
              31.3466477,
              -8.6156464
            ],
            [
              31.3461179,
              -8.6160384
            ],
            [
              31.3458039,
              -8.6160384
            ],
            [
              31.3454993,
              -8.6159161
            ],
            [
              31.3451409,
              -8.6154363
            ],
            [
              31.3447634,
              -8.6156652
            ],
            [
              31.3443224,
              -8.6155335
            ],
            [
              31.3429108,
              -8.6141252
            ],
            [
              31.3424223,
              -8.6130526
            ],
            [
              31.3413913,
              -8.6121681
            ],
            [
              31.341036,
              -8.6120018
            ],
            [
              31.3402461,
              -8.6121618
            ],
            [
              31.3400304,
              -8.612052
            ],
            [
              31.3401795,
              -8.6115753
            ],
            [
              31.3400844,
              -8.611315
            ],
            [
              31.3392405,
              -8.6117729
            ],
            [
              31.3378638,
              -8.6114749
            ],
            [
              31.3371881,
              -8.6127609
            ],
            [
              31.336817,
              -8.6131372
            ],
            [
              31.3349168,
              -8.6145612
            ],
            [
              31.3345679,
              -8.614649
            ],
            [
              31.3343331,
              -8.614558
            ],
            [
              31.3335813,
              -8.6130212
            ],
            [
              31.3331562,
              -8.6126699
            ],
            [
              31.3321284,
              -8.6123814
            ],
            [
              31.3315701,
              -8.6118983
            ],
            [
              31.3305137,
              -8.6117478
            ],
            [
              31.3295589,
              -8.6128393
            ],
            [
              31.3294098,
              -8.6132376
            ],
            [
              31.3296319,
              -8.6138774
            ],
            [
              31.3305486,
              -8.6144451
            ],
            [
              31.3305613,
              -8.6153077
            ],
            [
              31.3300696,
              -8.6160416
            ],
            [
              31.3291116,
              -8.616443
            ],
            [
              31.3258624,
              -8.616853
            ],
            [
              31.3248886,
              -8.6163355
            ],
            [
              31.3245396,
              -8.615542
            ],
            [
              31.324749,
              -8.6137072
            ],
            [
              31.325044,
              -8.6126439
            ],
            [
              31.3259576,
              -8.610944
            ],
            [
              31.3258117,
              -8.6091374
            ],
            [
              31.325412,
              -8.6086041
            ],
            [
              31.3244127,
              -8.6087453
            ],
            [
              31.3237466,
              -8.608623
            ],
            [
              31.3225601,
              -8.6080678
            ],
            [
              31.3219352,
              -8.6074907
            ],
            [
              31.3213928,
              -8.6074938
            ],
            [
              31.3208027,
              -8.6078232
            ],
            [
              31.3201207,
              -8.6103574
            ],
            [
              31.3198923,
              -8.6105488
            ],
            [
              31.3195719,
              -8.6105237
            ],
            [
              31.3186583,
              -8.6094792
            ],
            [
              31.3167137,
              -8.6087798
            ],
            [
              31.3152545,
              -8.6075064
            ],
            [
              31.3141918,
              -8.6075126
            ],
            [
              31.3133068,
              -8.607246
            ],
            [
              31.3126311,
              -8.6068258
            ],
            [
              31.3123614,
              -8.6068414
            ],
            [
              31.3113622,
              -8.607751
            ],
            [
              31.3102551,
              -8.6081556
            ],
            [
              31.3095096,
              -8.6095796
            ],
            [
              31.3085008,
              -8.6104798
            ],
            [
              31.3086848,
              -8.6116685
            ],
            [
              31.3086023,
              -8.6120386
            ],
            [
              31.3083486,
              -8.6122738
            ],
            [
              31.3073303,
              -8.6122268
            ],
            [
              31.3056966,
              -8.6117312
            ],
            [
              31.3047671,
              -8.612026
            ],
            [
              31.3039963,
              -8.6127004
            ],
            [
              31.3037044,
              -8.6136162
            ],
            [
              31.3033587,
              -8.6139706
            ],
            [
              31.3033967,
              -8.6142466
            ],
            [
              31.3027052,
              -8.614899
            ],
            [
              31.3020707,
              -8.6151186
            ],
            [
              31.3019058,
              -8.6157898
            ],
            [
              31.3016076,
              -8.6162101
            ],
            [
              31.3005512,
              -8.6169753
            ],
            [
              31.3003895,
              -8.6173737
            ],
            [
              31.3004624,
              -8.6179006
            ],
            [
              31.3007257,
              -8.6185498
            ],
            [
              31.3012364,
              -8.6191928
            ],
            [
              31.3012491,
              -8.6195723
            ],
            [
              31.3009922,
              -8.6200177
            ],
            [
              31.2991555,
              -8.6207484
            ],
            [
              31.2986733,
              -8.6223856
            ],
            [
              31.297636,
              -8.6233391
            ],
            [
              31.295095,
              -8.6239287
            ],
            [
              31.2941433,
              -8.6253119
            ],
            [
              31.2941624,
              -8.6256882
            ],
            [
              31.2949523,
              -8.6276672
            ],
            [
              31.295095,
              -8.629041
            ],
            [
              31.2948571,
              -8.6294499
            ],
            [
              31.2945685,
              -8.6296569
            ],
            [
              31.2941846,
              -8.6295597
            ],
            [
              31.2925159,
              -8.6298721
            ],
            [
              31.2920909,
              -8.6297812
            ],
            [
              31.2912217,
              -8.6289344
            ],
            [
              31.290768,
              -8.6287838
            ],
            [
              31.2896546,
              -8.6287932
            ],
            [
              31.288649,
              -8.6285925
            ],
            [
              31.2876593,
              -8.6289908
            ],
            [
              31.2870375,
              -8.6299725
            ],
            [
              31.2857099,
              -8.6308304
            ],
            [
              31.2838121,
              -8.6310508
            ],
            [
              31.2818213,
              -8.6306957
            ],
            [
              31.2803971,
              -8.6307385
            ],
            [
              31.2793321,
              -8.6312773
            ],
            [
              31.2788584,
              -8.6319354
            ],
            [
              31.2781215,
              -8.6321497
            ],
            [
              31.2767345,
              -8.6312467
            ],
            [
              31.275657,
              -8.6310875
            ],
            [
              31.2753443,
              -8.6311518
            ],
            [
              31.274465,
              -8.6321772
            ],
            [
              31.2729418,
              -8.6320731
            ],
            [
              31.2728179,
              -8.631415
            ],
            [
              31.2735176,
              -8.6305151
            ],
            [
              31.2737158,
              -8.6296427
            ],
            [
              31.2734743,
              -8.6287703
            ],
            [
              31.2727343,
              -8.6279928
            ],
            [
              31.2722544,
              -8.6277663
            ],
            [
              31.2715454,
              -8.6278428
            ],
            [
              31.2700284,
              -8.6276745
            ],
            [
              31.2696971,
              -8.6273653
            ],
            [
              31.2688364,
              -8.6271847
            ],
            [
              31.268139,
              -8.6266856
            ],
            [
              31.2673812,
              -8.625896
            ],
            [
              31.2669726,
              -8.6236216
            ],
            [
              31.2664122,
              -8.6231686
            ],
            [
              31.2656722,
              -8.6232206
            ],
            [
              31.2643038,
              -8.6236829
            ],
            [
              31.2633595,
              -8.6235145
            ],
            [
              31.2631458,
              -8.623288
            ],
            [
              31.2631087,
              -8.6229911
            ],
            [
              31.2637217,
              -8.6211269
            ],
            [
              31.263731,
              -8.6208177
            ],
            [
              31.2633564,
              -8.6199667
            ],
            [
              31.2626876,
              -8.619382
            ],
            [
              31.2613625,
              -8.619131
            ],
            [
              31.2605606,
              -8.6185708
            ],
            [
              31.2604306,
              -8.6172209
            ],
            [
              31.2584398,
              -8.6156658
            ],
            [
              31.2582478,
              -8.6153597
            ],
            [
              31.2581209,
              -8.6144567
            ],
            [
              31.2575667,
              -8.6139302
            ],
            [
              31.2575977,
              -8.6131435
            ],
            [
              31.2566348,
              -8.6110894
            ],
            [
              31.2563314,
              -8.6100884
            ],
            [
              31.2557834,
              -8.6092221
            ],
            [
              31.2553283,
              -8.6076364
            ],
            [
              31.2547834,
              -8.6039875
            ],
            [
              31.2551104,
              -8.6027076
            ],
            [
              31.2547474,
              -8.6023077
            ],
            [
              31.2543231,
              -8.6022843
            ],
            [
              31.2535976,
              -8.6003017
            ],
            [
              31.2525759,
              -8.5984129
            ],
            [
              31.251743,
              -8.5974272
            ],
            [
              31.2510588,
              -8.5968884
            ],
            [
              31.2493838,
              -8.5962149
            ],
            [
              31.248102,
              -8.5949292
            ],
            [
              31.2472135,
              -8.5946643
            ],
            [
              31.2450555,
              -8.5931292
            ],
            [
              31.2446778,
              -8.5926179
            ],
            [
              31.244653,
              -8.5921648
            ],
            [
              31.2447923,
              -8.5920883
            ],
            [
              31.2445292,
              -8.591623
            ],
            [
              31.2443125,
              -8.591724
            ],
            [
              31.2440772,
              -8.5921587
            ],
            [
              31.2427149,
              -8.5928383
            ],
            [
              31.2425725,
              -8.5927006
            ],
            [
              31.2426065,
              -8.5920546
            ],
            [
              31.2432134,
              -8.5921373
            ],
            [
              31.2433774,
              -8.5918128
            ],
            [
              31.2433186,
              -8.5909219
            ],
            [
              31.2431174,
              -8.5908026
            ],
            [
              31.2417737,
              -8.5915189
            ],
            [
              31.241173,
              -8.5915985
            ],
            [
              31.2406403,
              -8.5922943
            ],
            [
              31.2401064,
              -8.5923237
            ],
            [
              31.2401219,
              -8.5928227
            ],
            [
              31.2415384,
              -8.5938363
            ],
            [
              31.242701,
              -8.5938104
            ],
            [
              31.2433883,
              -8.5941012
            ],
            [
              31.2438171,
              -8.5945802
            ],
            [
              31.2438635,
              -8.594871
            ],
            [
              31.2432134,
              -8.5949568
            ],
            [
              31.2430276,
              -8.5954986
            ],
            [
              31.2419515,
              -8.5953549
            ],
            [
              31.2414404,
              -8.5956094
            ],
            [
              31.2407756,
              -8.5956416
            ],
            [
              31.2387,
              -8.5967089
            ],
            [
              31.238155,
              -8.596601
            ],
            [
              31.2372082,
              -8.5968441
            ],
            [
              31.2355084,
              -8.596798
            ],
            [
              31.2349821,
              -8.5963467
            ],
            [
              31.2345262,
              -8.5948994
            ],
            [
              31.2330563,
              -8.5934741
            ],
            [
              31.2323318,
              -8.5930822
            ],
            [
              31.2291459,
              -8.59292
            ],
            [
              31.2288766,
              -8.5927822
            ],
            [
              31.2281026,
              -8.5915148
            ],
            [
              31.2275979,
              -8.5893229
            ],
            [
              31.2272326,
              -8.5885576
            ],
            [
              31.225594,
              -8.5886354
            ],
            [
              31.2252963,
              -8.5887544
            ],
            [
              31.2250336,
              -8.589367
            ],
            [
              31.2247205,
              -8.5894406
            ],
            [
              31.2240616,
              -8.5899818
            ],
            [
              31.2237179,
              -8.5901225
            ],
            [
              31.2234486,
              -8.5900489
            ],
            [
              31.2230567,
              -8.5896355
            ],
            [
              31.2230479,
              -8.588854
            ],
            [
              31.2223321,
              -8.5872673
            ],
            [
              31.2218176,
              -8.5867629
            ],
            [
              31.2213688,
              -8.5869382
            ],
            [
              31.2212177,
              -8.5878214
            ],
            [
              31.2207974,
              -8.588131
            ],
            [
              31.2202304,
              -8.5881894
            ],
            [
              31.2198057,
              -8.5875379
            ],
            [
              31.2183455,
              -8.5875482
            ],
            [
              31.2168899,
              -8.5869241
            ],
            [
              31.2158963,
              -8.5856909
            ],
            [
              31.2149148,
              -8.5855207
            ],
            [
              31.2136435,
              -8.5843889
            ],
            [
              31.2117168,
              -8.5838156
            ],
            [
              31.2113302,
              -8.5835678
            ],
            [
              31.2107836,
              -8.5836932
            ],
            [
              31.2102128,
              -8.5846129
            ],
            [
              31.2097025,
              -8.5850907
            ],
            [
              31.2079026,
              -8.5850459
            ],
            [
              31.2073802,
              -8.5851623
            ],
            [
              31.2067581,
              -8.5856939
            ],
            [
              31.2061269,
              -8.5867957
            ],
            [
              31.2041821,
              -8.5877423
            ],
            [
              31.2022795,
              -8.5883694
            ],
            [
              31.2014762,
              -8.5894354
            ],
            [
              31.2005974,
              -8.5901909
            ],
            [
              31.1970732,
              -8.5926364
            ],
            [
              31.1953941,
              -8.5940906
            ],
            [
              31.1945999,
              -8.5954373
            ],
            [
              31.1921085,
              -8.5958404
            ],
            [
              31.1909579,
              -8.595715
            ],
            [
              31.1906438,
              -8.5952731
            ],
            [
              31.1894751,
              -8.5947386
            ],
            [
              31.1894691,
              -8.5933023
            ],
            [
              31.1890614,
              -8.5924095
            ],
            [
              31.1868568,
              -8.5929081
            ],
            [
              31.1852804,
              -8.5928156
            ],
            [
              31.1849724,
              -8.5931709
            ],
            [
              31.1847369,
              -8.5932038
            ],
            [
              31.1836648,
              -8.5929111
            ],
            [
              31.1829642,
              -8.5930963
            ],
            [
              31.1826954,
              -8.5934396
            ],
            [
              31.1833598,
              -8.5941175
            ],
            [
              31.1835893,
              -8.5945982
            ],
            [
              31.1826652,
              -8.5958404
            ],
            [
              31.1828404,
              -8.5961868
            ],
            [
              31.1830638,
              -8.5962256
            ],
            [
              31.1837554,
              -8.5959927
            ],
            [
              31.1840574,
              -8.5964615
            ],
            [
              31.1841693,
              -8.5980319
            ],
            [
              31.183877,
              -8.599594
            ],
            [
              31.1841238,
              -8.6006548
            ],
            [
              31.1839306,
              -8.6010115
            ],
            [
              31.1828819,
              -8.6010553
            ],
            [
              31.1825439,
              -8.6014133
            ],
            [
              31.1825868,
              -8.6020485
            ],
            [
              31.1832111,
              -8.6026707
            ],
            [
              31.18019,
              -8.61047
            ],
            [
              31.16011,
              -8.62603
            ],
            [
              31.14964,
              -8.63139
            ],
            [
              31.13646,
              -8.6328
            ],
            [
              31.1004513,
              -8.6297258
            ],
            [
              31.0779413,
              -8.6218158
            ],
            [
              31.0592113,
              -8.6082158
            ],
            [
              31.0497813,
              -8.6055458
            ],
            [
              31.0280513,
              -8.5921258
            ],
            [
              31.0105113,
              -8.5764758
            ],
            [
              31,
              -8.564111089519113
            ],
            [
              31,
              -9
            ]
          ]
        ]
      }
    }
  ]
}