{
  "type": "FeatureCollection",
  "features": [
    {
      "type": "Feature",
      "properties": {
        "osm_id": -60199,
        "boundary": "administrative",
        "admin_level": 2,
        "parents": null,
        "name": "Ukraine",
        "local_name": "Україна",
        "name_en": "Ukraine",
        "all_tags": {
          "flag": "http://upload.wikimedia.org/wikipedia/commons/4/49/Flag_of_Ukraine.svg",
          "name": "Україна",
          "name:ab": "Украина",
          "name:af": "Oekraïne",
          "name:am": "ዩክሬን",
          "name:an": "Ucraína",
          "name:ar": "أوكرانيا",
          "name:az": "Ukrayna",
          "name:ba": "Украина",
          "name:be": "Украіна",
          "name:bg": "Украйна",
          "name:bi": "Ukraine",
          "name:bn": "ইউক্রেন",
          "name:bo": "ཨུཀ་རཡི་ནི།",
          "name:br": "Ukraina",
          "name:bs": "Ukrajina",
          "name:ca": "Ucraïna",
          "name:ce": "Украина",
          "name:cs": "Ukrajina",
          "name:cu": "Оукраина",
          "name:cv": "Украина",
          "name:cy": "Wcráin",
          "name:da": "Ukraine",
          "name:de": "Ukraine",
          "name:dv": "ޔުކްރެއިން",
          "name:ee": "Ukraine",
          "name:el": "Ουκρανία",
          "name:en": "Ukraine",
          "name:eo": "Ukrainio",
          "name:es": "Ucrania",
          "name:et": "Ukraina",
          "name:eu": "Ukraina",
          "name:fa": "اوکراین",
          "name:fi": "Ukraina",
          "name:fo": "Ukraina",
          "name:fr": "Ukraine",
          "name:fy": "Oekraïne",
          "name:ga": "An Úcráin",
          "name:gd": "An Ucràin",
          "name:gl": "Ucraína",
          "name:gn": "Ukyaña",
          "name:gu": "યુક્રેન",
          "name:gv": "Yn Ookraan",
          "name:he": "אוקראינה",
          "name:hi": "युक्रेन",
          "name:hr": "Ukrajina",
          "name:ht": "Ikrèn",
          "name:hu": "Ukrajna",
          "name:hy": "Ուկրաինա",
          "name:ia": "Ukraina",
          "name:id": "Ukraina",
          "name:ie": "Ucraina",
          "name:ig": "Yukrain",
          "name:io": "Ukrainia",
          "name:is": "Úkraína",
          "name:it": "Ucraina",
          "name:ja": "ウクライナ",
          "name:jv": "Ukraina",
          "name:ka": "უკრაინა",
          "name:kg": "Ukrayina",
          "name:kk": "Украина",
          "name:kl": "Ukraine",
          "name:km": "អ៊ុយក្រែន",
          "name:kn": "ಯುಕ್ರೇನ್",
          "name:ko": "우크라이나",
          "name:ku": "Ûkrayna",
          "name:kv": "Украина",
          "name:kw": "Ukrayn",
          "name:ky": "Украина",
          "name:la": "Ucraina",
          "name:lb": "Ukrain",
          "name:li": "Oekraïne",
          "name:ln": "Ukraine",
          "name:lt": "Ukraina",
          "name:lv": "Ukraina",
          "name:mg": "Okraina",
          "name:mi": "Ūkareinga",
          "name:mk": "Украина",
          "name:ml": "ഉക്രൈൻ",
          "name:mn": "Украйн",
          "name:mr": "युक्रेन",
          "name:ms": "Ukraine",
          "name:mt": "Ukrajna",
          "name:my": "ယူကရိန်းနိုင်ငံ",
          "name:na": "Ukraine",
          "name:ne": "युक्रेन",
          "name:nl": "Oekraïne",
          "name:nn": "Ukraina",
          "name:no": "Ukraina",
          "name:nv": "Yóókwein",
          "name:oc": "Ucraïna",
          "name:or": "ୟୁକ୍ରେନ",
          "name:os": "Украинæ",
          "name:pa": "ਯੂਕ੍ਰੇਨ",
          "name:pl": "Ukraina",
          "name:ps": "اوکراین",
          "name:pt": "Ucrânia",
          "name:qu": "Ukranya",
          "name:rm": "Ucraina",
          "name:ro": "Ucraina",
          "name:ru": "Украина",
          "name:rw": "Ikerene",
          "name:sc": "Ucraina",
          "name:se": "Ukraina",
          "name:sh": "Ukrajina",
          "name:sk": "Ukrajina",
          "name:sl": "Ukrajina",
          "name:sm": "Ukraine",
          "name:sn": "Ukraine",
          "name:so": "Ukrain",
          "name:sq": "Ukraina",
          "name:sr": "Украјина",
          "name:ss": "IYukhureni",
          "name:su": "Ukraina",
          "name:sv": "Ukraina",
          "name:sw": "Ukraine",
          "name:ta": "உக்ரைன்",
          "name:te": "ఉక్రెయిన్",
          "name:tg": "Украйина",
          "name:th": "ประเทศยูเครน",
          "name:tk": "Ukraina",
          "name:tl": "Ukranya",
          "name:tr": "Ukrayna",
          "name:ts": "Ukraine",
          "name:tt": "Украина",
          "name:tw": "Ukraine",
          "name:ug": "ئۇكرائىنا",
          "name:uk": "Україна",
          "name:ur": "یوکرین",
          "name:uz": "Ukraina",
          "name:vi": "Ukraina",
          "name:vo": "Lukrayän",
          "name:wa": "Oucrinne",
          "name:wo": "Ukreen",
          "name:yi": "אוקראינע",
          "name:yo": "Ukréìn",
          "name:zh": "乌克兰/烏克蘭",
          "boundary": "administrative",
          "int_name": "Ukraine",
          "name:ace": "Ukraina",
          "name:als": "Ukraine",
          "name:ang": "Ucrægna",
          "name:arc": "ܐܘܩܪܐܝܢܐ",
          "name:arz": "اوكرانيا",
          "name:ast": "Ucraína",
          "name:bar": "Ukraine",
          "name:bcl": "Ukranya",
          "name:bpy": "ইউক্রেন",
          "name:bxr": "Украина",
          "name:cdo": "Ŭ-káik-làng",
          "name:ceb": "Ukranya",
          "name:chr": "ᏳᎧᏪᏂ",
          "name:chy": "Ukraine",
          "name:ckb": "ئوکراینا",
          "name:crh": "Ukraina",
          "name:csb": "Ùkrajina",
          "name:diq": "Ukrayna",
          "name:dsb": "Ukraina",
          "name:ext": "Ucránia",
          "name:frp": "Ucrayena",
          "name:frr": "Ukraine",
          "name:gag": "Ukrayna",
          "name:gan": "烏克蘭",
          "name:hak": "Vû-khiet-làn",
          "name:haw": "ʻUkelena",
          "name:hif": "Ukraine",
          "name:hsb": "Ukraina",
          "name:ilo": "Ukrania",
          "name:jbo": "vurgu'e",
          "name:kaa": "Ukraina",
          "name:kab": "Ukrayin",
          "name:kbd": "Украинэ",
          "name:koi": "Украина",
          "name:krc": "Украина",
          "name:lad": "Ukraina",
          "name:lez": "Украина",
          "name:lij": "Ucrainn-a",
          "name:lmo": "Ücraina",
          "name:ltg": "Ukraina",
          "name:lzh": "烏克蘭",
          "name:mdf": "Украин",
          "name:mhr": "Украина",
          "name:mwl": "Oucránia",
          "name:myv": "Украина",
          "name:mzn": "اوکراین",
          "name:nah": "Ucrania",
          "name:nan": "Ukrayina",
          "name:nap": "Ucraina",
          "name:nds": "Ukraine",
          "name:new": "युक्रेन",
          "name:nov": "Ukraina",
          "name:nrm": "Ukraîne",
          "name:pam": "Ukranya",
          "name:pap": "Ukrania",
          "name:pcd": "Oucrinne",
          "name:pih": "Yukrayn",
          "name:pms": "Ucrain-a",
          "name:pnb": "یوکرین",
          "name:pnt": "Ουκρανία",
          "name:rmy": "Ukraina",
          "name:rue": "Україна",
          "name:sah": "Украина",
          "name:scn": "Ucraina",
          "name:sco": "Ukraine",
          "name:smn": "Ukraina",
          "name:sms": "Ukraina",
          "name:stq": "Ukraine",
          "name:szl": "Ukrajina",
          "name:tok": "ma Ukawina",
          "name:tpi": "Yukren",
          "name:tum": "Ukraine",
          "name:tzl": "Ucraína",
          "name:udm": "Украина",
          "name:vec": "Ucraina",
          "name:vep": "Ukrain",
          "name:vls": "Oekraïne",
          "name:vro": "Ukraina",
          "name:war": "Ukranya",
          "name:xal": "Украинмудин Орн",
          "name:xmf": "უკრაინა",
          "name:yue": "烏克蘭",
          "name:zea": "Oekraïne",
          "way_area": "78.4038",
          "wikidata": "Q212",
          "ISO3166-1": "UA",
          "wikipedia": "en:uk:Україна",
          "admin_level": "2",
          "alt_name:eo": "Ukrainujo",
          "alt_name:vi": "Uy Kiên",
          "name:nds-nl": "Oekraïne",
          "old_name:vi": "Ô Khắc Lan",
          "name:bat-smg": "Okraėna",
          "name:cbk-zam": "Ukrania",
          "name:zh-Hans": "乌克兰",
          "name:zh-Hant": "烏克蘭",
          "name:roa-tara": "Ucraine",
          "official_name": "Україна",
          "name:be-tarask": "Украіна",
          "according_to:RU": "no",
          "according_to:UA": "yes",
          "ISO3166-1:alpha2": "UA",
          "ISO3166-1:alpha3": "UKR",
          "default_language": "uk",
          "ISO3166-1:numeric": "804"
        }
      },
      "geometry": {
        "type": "Polygon",
        "coordinates": [
          [
            [
              31,
              46.26376030703741
            ],
            [
              31.0093506,
              46.2759086
            ],
            [
              31.0174833,
              46.2884718
            ],
            [
              31.0243565,
              46.3013862
            ],
            [
              31.0299381,
              46.3145915
            ],
            [
              31.0342022,
              46.3280259
            ],
            [
              31.0371289,
              46.3416265
            ],
            [
              31.0387044,
              46.3553299
            ],
            [
              31.0387811,
              46.3601837
            ],
            [
              31.0461773,
              46.3738877
            ],
            [
              31.047436,
              46.376862
            ],
            [
              31.057428,
              46.3782162
            ],
            [
              31.0766616,
              46.3817784
            ],
            [
              31.095498,
              46.3862374
            ],
            [
              31.1138493,
              46.3915723
            ],
            [
              31.1316301,
              46.3977579
            ],
            [
              31.1487573,
              46.4047651
            ],
            [
              31.1590964,
              46.4096818
            ],
            [
              31.180176,
              46.4064141
            ],
            [
              31.1998745,
              46.404396
            ],
            [
              31.2197267,
              46.4033095
            ],
            [
              31.2372722,
              46.4031776
            ],
            [
              31.236497,
              46.4007389
            ],
            [
              31.2335704,
              46.387153
            ],
            [
              31.2319948,
              46.3734576
            ],
            [
              31.2317777,
              46.3597165
            ],
            [
              31.23292,
              46.3459937
            ],
            [
              31.2354164,
              46.3323533
            ],
            [
              31.2395833,
              46.3180155
            ],
            [
              31.2388138,
              46.3113188
            ],
            [
              31.2385967,
              46.2975621
            ],
            [
              31.239739,
              46.2838237
            ],
            [
              31.2422354,
              46.2701679
            ],
            [
              31.2460744,
              46.2566582
            ],
            [
              31.2512379,
              46.2433579
            ],
            [
              31.2577019,
              46.2303292
            ],
            [
              31.2654363,
              46.217633
            ],
            [
              31.274405,
              46.2053287
            ],
            [
              31.2845662,
              46.1934741
            ],
            [
              31.2958725,
              46.1821246
            ],
            [
              31.3082713,
              46.1713336
            ],
            [
              31.3217046,
              46.1611517
            ],
            [
              31.3361099,
              46.1516267
            ],
            [
              31.3436306,
              46.1472926
            ],
            [
              31.3531522,
              46.1377268
            ],
            [
              31.3655509,
              46.1269271
            ],
            [
              31.3789842,
              46.116737
            ],
            [
              31.3933895,
              46.1072043
            ],
            [
              31.4086996,
              46.0983739
            ],
            [
              31.424843,
              46.0902872
            ],
            [
              31.4417447,
              46.0829824
            ],
            [
              31.4593257,
              46.0764938
            ],
            [
              31.477504,
              46.0708518
            ],
            [
              31.496195,
              46.0660832
            ],
            [
              31.5153114,
              46.0622104
            ],
            [
              31.5367522,
              46.0590466
            ],
            [
              31.5426659,
              46.0564893
            ],
            [
              31.5602469,
              46.0499976
            ],
            [
              31.5784253,
              46.0443529
            ],
            [
              31.5971162,
              46.039582
            ],
            [
              31.6162327,
              46.0357073
            ],
            [
              31.6356855,
              46.0327471
            ],
            [
              31.6553839,
              46.0307152
            ],
            [
              31.6752361,
              46.0296213
            ],
            [
              31.6802135,
              46.0295837
            ],
            [
              31.6875293,
              46.0273112
            ],
            [
              31.7062203,
              46.0225389
            ],
            [
              31.7253367,
              46.018663
            ],
            [
              31.7447895,
              46.0157018
            ],
            [
              31.7644879,
              46.0136693
            ],
            [
              31.7843402,
              46.0125751
            ],
            [
              31.8036251,
              46.0124291
            ],
            [
              31.8075438,
              46.0112115
            ],
            [
              31.8262347,
              46.0064377
            ],
            [
              31.8453512,
              46.0025607
            ],
            [
              31.86216791279159,
              46
            ],
            [
              32,
              46
            ],
            [
              32,
              47
            ],
            [
              31,
              47
            ],
            [
              31,
              46.26376030703741
            ]
          ]
        ]
      }
    }
  ]
}