{
  "type": "FeatureCollection",
  "features": [
    {
      "type": "Feature",
      "properties": {
        "osm_id": -2978650,
        "boundary": "administrative",
        "admin_level": 2,
        "parents": null,
        "name": "Norway",
        "local_name": "Norge",
        "name_en": "Norway",
        "all_tags": {
          "flag": "http://upload.wikimedia.org/wikipedia/commons/d/d9/Flag_of_Norway.svg",
          "name": "Norge",
          "name:af": "Noorweë",
          "name:am": "ኖርዌይ",
          "name:an": "Noruega",
          "name:ar": "النرويج",
          "name:ay": "Nurweka",
          "name:az": "Norveç",
          "name:ba": "Норвегия",
          "name:be": "Нарвегія",
          "name:bg": "Норвегия",
          "name:bi": "Norway",
          "name:bm": "Norwij",
          "name:bn": "নরওয়ে",
          "name:bo": "ནོར་ཝེ།",
          "name:br": "Norvegia",
          "name:bs": "Norveška",
          "name:ca": "Noruega",
          "name:ce": "Норвеги",
          "name:co": "Nurvegia",
          "name:cs": "Norsko",
          "name:cu": "Норєгъ",
          "name:cv": "Норвеги",
          "name:cy": "Norwy",
          "name:da": "Norge",
          "name:de": "Norwegen",
          "name:dv": "ނޯވޭ",
          "name:dz": "ནོ་ཝེ་",
          "name:ee": "Norway",
          "name:el": "Νορβηγία",
          "name:en": "Norway",
          "name:eo": "Norvegio",
          "name:es": "Noruega",
          "name:et": "Norra",
          "name:eu": "Norvegia",
          "name:fa": "نروژ",
          "name:fi": "Norja",
          "name:fo": "Noregur",
          "name:fr": "Norvège",
          "name:fy": "Noarwegen",
          "name:ga": "An Iorua",
          "name:gd": "Nirribhidh",
          "name:gl": "Noruega",
          "name:gn": "Noruega",
          "name:gu": "નોર્વે",
          "name:gv": "Norlynn",
          "name:he": "נורבגיה",
          "name:hi": "नॉर्वे",
          "name:hr": "Norveška",
          "name:ht": "Nòvèj",
          "name:hu": "Norvégia",
          "name:hy": "Նորվեգիա",
          "name:ia": "Norvegia",
          "name:id": "Norwegia",
          "name:ie": "Norvegia",
          "name:io": "Norvegia",
          "name:is": "Noregur",
          "name:it": "Norvegia",
          "name:iu": "ᓄᕐᒋ",
          "name:ja": "ノルウェー",
          "name:jv": "Norwégia",
          "name:ka": "ნორვეგია",
          "name:kg": "Norge",
          "name:kk": "Норвегия",
          "name:kl": "Norge",
          "name:kn": "ನಾರ್ವೇ",
          "name:ko": "노르웨이",
          "name:ku": "Norwêc",
          "name:kv": "Норвегия",
          "name:kw": "Norgagh",
          "name:ky": "Норвегия",
          "name:la": "Norvegia",
          "name:lb": "Norwegen",
          "name:li": "Noorwege",
          "name:ln": "Norvej",
          "name:lt": "Norvegija",
          "name:lv": "Norvēģija",
          "name:mg": "Norvezy",
          "name:mi": "Nōwei",
          "name:mk": "Норвешка",
          "name:ml": "നോർവെ",
          "name:mn": "Норвеги",
          "name:mr": "नॉर्वे",
          "name:ms": "Norway",
          "name:mt": "Norveġja",
          "name:my": "နော်ဝေနိုင်ငံ",
          "name:na": "Norwei",
          "name:nb": "Norge",
          "name:ne": "नर्वे",
          "name:nl": "Noorwegen",
          "name:nn": "Noreg",
          "name:no": "Norge",
          "name:oc": "Norvègia",
          "name:om": "Norway",
          "name:or": "ନରୱେ",
          "name:os": "Норвеги",
          "name:pa": "ਨਾਰਵੇ",
          "name:pl": "Norwegia",
          "name:ps": "ناروې",
          "name:pt": "Noruega",
          "name:qu": "Nurwiga",
          "name:rm": "Norvegia",
          "name:rn": "Noruega",
          "name:ro": "Norvegia",
          "name:ru": "Норвегия",
          "name:rw": "Noruveje",
          "name:sa": "नार्वे",
          "name:sc": "Norvegia",
          "name:se": "Norga",
          "name:sh": "Norveška",
          "name:sk": "Nórsko",
          "name:sl": "Norveška",
          "name:so": "Norway",
          "name:sq": "Norvegjia",
          "name:sr": "Норвешка",
          "name:ss": "INoweyi",
          "name:su": "Norwégia",
          "name:sv": "Norge",
          "name:sw": "Norwei",
          "name:ta": "நோர்வே",
          "name:te": "నార్వే",
          "name:tg": "Норвегия",
          "name:th": "ประเทศนอร์เวย์",
          "name:tk": "Norwegiýa",
          "name:tl": "Noruwega",
          "name:tr": "Norveç",
          "name:ts": "Norge",
          "name:tt": "Норвегия",
          "name:ug": "نورۋېگىيە",
          "name:uk": "Норвегія",
          "name:ur": "ناروے",
          "name:uz": "Norvegiya",
          "name:vi": "Na Uy",
          "name:vo": "Norgän",
          "name:wa": "Norvedje",
          "name:wo": "Noorwees",
          "name:yi": "נארוועגיע",
          "name:yo": "Nọ́rwèy",
          "name:za": "Nozveih",
          "name:zh": "挪威",
          "name:zu": "INoki",
          "boundary": "administrative",
          "int_name": "Norway",
          "name:ace": "Norwègia",
          "name:als": "Norwegen",
          "name:ang": "Norþweg",
          "name:arc": "ܢܘܪܒܝܓ",
          "name:arz": "النرويج",
          "name:ast": "Noruega",
          "name:bar": "Norwegn",
          "name:bcl": "Norwey",
          "name:bpy": "নরৱে",
          "name:bxr": "Норвеги",
          "name:cdo": "Nò̤-ŭi",
          "name:ceb": "Noruwega",
          "name:chy": "Norway",
          "name:ckb": "نۆرویژ",
          "name:crh": "Norvegiya",
          "name:csb": "Norweskô",
          "name:diq": "Norwec",
          "name:dsb": "Norwegska",
          "name:ext": "Noruega",
          "name:frp": "Norvèg·e",
          "name:frr": "Norweegen",
          "name:gag": "Norvegiya",
          "name:gan": "挪威",
          "name:hak": "Nò-vî",
          "name:haw": "Nolewai",
          "name:hif": "Norway",
          "name:hsb": "Norwegska",
          "name:ilo": "Norwéga",
          "name:jbo": "noreg",
          "name:kaa": "Norvegiya",
          "name:kbd": "Норвегэ",
          "name:koi": "Норвег",
          "name:krc": "Норвегия",
          "name:lad": "Norvejia",
          "name:lez": "Норвегия",
          "name:lij": "Norveggia",
          "name:lmo": "Nurvegia",
          "name:ltg": "Norvegeja",
          "name:mdf": "Норвегие",
          "name:mhr": "Норвегий",
          "name:myv": "Норвегия Мастор",
          "name:nah": "Noruegia",
          "name:nan": "Lo̍k-ui-kok",
          "name:nds": "Norwegen",
          "name:nov": "Norvegia",
          "name:nrm": "Norouague",
          "name:pam": "Norwega",
          "name:pap": "Noruega",
          "name:pcd": "Norvège",
          "name:pih": "Norwaii",
          "name:pms": "Norvegia",
          "name:pnb": "ناروے",
          "name:pnt": "Νορβηγία",
          "name:rmy": "Norvejiya",
          "name:sah": "Норвегия",
          "name:scn": "Norveggia",
          "name:sco": "Norawa",
          "name:sje": "Vuodna",
          "name:sma": "Nöörje",
          "name:smj": "Vuodna",
          "name:smn": "Taažâ",
          "name:sms": "Taarr",
          "name:stq": "Norwegen",
          "name:szl": "Norwegijŏ",
          "name:tet": "Noruega",
          "name:tok": "ma Nosiki",
          "name:tpi": "Nowe",
          "name:tzl": "Norvexhà",
          "name:udm": "Норвегия",
          "name:vec": "Norveja",
          "name:vep": "Norvegii",
          "name:vls": "Nôorweegn",
          "name:vro": "Norra",
          "name:war": "Noruega",
          "name:wuu": "挪威",
          "name:xal": "Ноорскгин Нутг",
          "name:xmf": "ნორვეგია",
          "name:yue": "挪威",
          "name:zea": "Noorwegen",
          "way_area": "153.801",
          "wikidata": "Q20",
          "ISO3166-1": "NO",
          "wikipedia": "no:Norge",
          "population": "5488984",
          "admin_level": "2",
          "alt_name:eo": "Norvegujo",
          "name:nds-nl": "Noorwegen",
          "alt_name:sma": "Nøørje",
          "name:bat-smg": "Nuorvegėjė",
          "name:iu-Latn": "nurgi",
          "name:roa-rup": "Norveghia",
          "name:roa-tara": "Norveggie",
          "official_name": "Kongeriket Norge",
          "name:be-tarask": "Нарвэгія",
          "population:date": "2023-01-01",
          "ISO3166-1:alpha2": "NO",
          "ISO3166-1:alpha3": "NOR",
          "default_language": "no",
          "official_name:be": "Каралеўства Нарвегія",
          "official_name:cs": "Norské království",
          "official_name:de": "Königreich Norwegen",
          "official_name:en": "Kingdom of Norway",
          "official_name:eo": "Reĝlando Norvegio",
          "official_name:fr": "Royaume de Norvège",
          "official_name:sv": "Konungariket Norge",
          "ISO3166-1:numeric": "578"
        }
      },
      "geometry": {
        "type": "Polygon",
        "coordinates": [
          [
            [
              31,
              70
            ],
            [
              31.16249778684081,
              70
            ],
            [
              31.1983237,
              70.0127471
            ],
            [
              31.2145608,
              70.0183479
            ],
            [
              31.4447997,
              70.099678
            ],
            [
              31.5054051,
              70.1208748
            ],
            [
              31.585589,
              70.143751
            ],
            [
              31.6059955,
              70.1871927
            ],
            [
              31.6356491,
              70.2373235
            ],
            [
              31.7245083,
              70.3184509
            ],
            [
              31.7328112,
              70.3265231
            ],
            [
              31.7404155,
              70.3351117
            ],
            [
              31.7468709,
              70.3438067
            ],
            [
              31.7521631,
              70.3525904
            ],
            [
              31.7562799,
              70.3614453
            ],
            [
              31.7592114,
              70.3703533
            ],
            [
              31.7609502,
              70.3792968
            ],
            [
              31.7614911,
              70.3882574
            ],
            [
              31.7608316,
              70.3972172
            ],
            [
              31.7599655,
              70.4023479
            ],
            [
              31.7575183,
              70.4112727
            ],
            [
              31.7538747,
              70.4201514
            ],
            [
              31.7490402,
              70.428966
            ],
            [
              31.7358347,
              70.4463313
            ],
            [
              31.7274875,
              70.4548466
            ],
            [
              31.7179977,
              70.4632271
            ],
            [
              31.7073829,
              70.4714556
            ],
            [
              31.6956632,
              70.4795153
            ],
            [
              31.6875866,
              70.4847302
            ],
            [
              31.6744932,
              70.4925513
            ],
            [
              31.6603503,
              70.5001665
            ],
            [
              31.6451855,
              70.5075602
            ],
            [
              31.6208567,
              70.518766
            ],
            [
              31.6041979,
              70.5257959
            ],
            [
              31.5865969,
              70.5325669
            ],
            [
              31.5680886,
              70.5390652
            ],
            [
              31.5487108,
              70.5452772
            ],
            [
              31.2225257,
              70.6443883
            ],
            [
              31,
              70.71051081979363
            ],
            [
              31,
              70
            ]
          ]
        ]
      }
    },
    {
      "type": "Feature",
      "properties": {
        "osm_id": -60189,
        "boundary": "administrative",
        "admin_level": 2,
        "parents": null,
        "name": "Russia",
        "local_name": "Россия",
        "name_en": "Russia",
        "all_tags": {
          "flag": "https://upload.wikimedia.org/wikipedia/commons/f/f3/Flag_of_Russia.svg",
          "name": "Россия",
          "int_ref": "RU",
          "name:ab": "Урыстәыла",
          "name:af": "Rusland",
          "name:ak": "Russia",
          "name:am": "ሩሲያ",
          "name:an": "Rusia",
          "name:ar": "روسيا",
          "name:as": "ৰুশিযা",
          "name:av": "Россиялъул Федерация",
          "name:ay": "Rusiya",
          "name:az": "Rusiya",
          "name:ba": "Рәсәй",
          "name:be": "Расія",
          "name:bg": "Русия",
          "name:bi": "Rusia",
          "name:bm": "Risila",
          "name:bn": "রাশিয়া",
          "name:bo": "ཨུ་རུ་སུ།",
          "name:br": "Rusia",
          "name:bs": "Rusija",
          "name:ca": "Rússia",
          "name:ce": "Росси",
          "name:ch": "Russia",
          "name:co": "Russia",
          "name:cs": "Rusko",
          "name:cu": "Рѡсїꙗ",
          "name:cv": "Раççей Патшалăхĕ",
          "name:cy": "Rwsia",
          "name:da": "Rusland",
          "name:de": "Russland",
          "name:dv": "ރޫސީވިލާތް",
          "name:dz": "ར་ཤི་ཡཱན་ཕེ་ཌི་རེ་ཤཱན",
          "name:ee": "Russia",
          "name:el": "Ρωσία",
          "name:en": "Russia",
          "name:eo": "Rusio",
          "name:es": "Rusia",
          "name:et": "Venemaa",
          "name:eu": "Errusia",
          "name:fa": "روسیه",
          "name:ff": "Roosiya",
          "name:fi": "Venäjä",
          "name:fo": "Russland",
          "name:fr": "Russie",
          "name:fy": "Ruslân",
          "name:ga": "An Rúis",
          "name:gd": "An Ruis",
          "name:gl": "Rusia",
          "name:gn": "Rrúsia",
          "name:gu": "રશિયા",
          "name:gv": "Yn Roosh",
          "name:ha": "Rasha",
          "name:he": "רוסיה",
          "name:hi": "रूस",
          "name:hr": "Ruska Federacija",
          "name:ht": "Risi",
          "name:hu": "Oroszország",
          "name:hy": "Ռուսաստան",
          "name:ia": "Russia",
          "name:id": "Rusia",
          "name:ie": "Russia",
          "name:ig": "Mpaghara Russia",
          "name:ik": "Russia",
          "name:io": "Rusia",
          "name:is": "Rússland",
          "name:it": "Russia",
          "name:iu": "ᐅᓛᓴ",
          "name:ja": "ロシア",
          "name:jv": "Rusia",
          "name:ka": "რუსეთი",
          "name:kg": "Rusia",
          "name:ki": "Russia",
          "name:kk": "Ресей",
          "name:kl": "Ruslandi",
          "name:km": "រុស្ស៊ី",
          "name:kn": "ರಷ್ಯಾ",
          "name:ko": "러시아",
          "name:ks": "روٗس",
          "name:ku": "Rûsya",
          "name:kv": "Рочму",
          "name:kw": "Russi",
          "name:ky": "Орусия",
          "name:la": "Russia",
          "name:lb": "Russland",
          "name:lg": "Rwasha",
          "name:li": "Rusland",
          "name:ln": "Rusí",
          "name:lo": "ລັດເຊັຽ",
          "name:lt": "Rusija",
          "name:lv": "Krievija",
          "name:mg": "Rosia",
          "name:mi": "Ruhia",
          "name:mk": "Русија",
          "name:ml": "റഷ്യ",
          "name:mn": "Оросын Холбооны Улс",
          "name:mo": "Русия",
          "name:mr": "रशिया",
          "name:ms": "Rusia",
          "name:mt": "Russja",
          "name:my": "ရုရှားနိုင်ငံ",
          "name:na": "Ratsiya",
          "name:ne": "रुस",
          "name:nl": "Rusland",
          "name:nn": "Russland",
          "name:no": "Russland",
          "name:nv": "Biʼééʼ Łichííʼí Bikéyah",
          "name:ny": "Russia",
          "name:oc": "Russia",
          "name:om": "Raashiyaa",
          "name:or": "ଋଷିଆ",
          "name:os": "Уæрæсе",
          "name:pa": "ਰੂਸ",
          "name:pl": "Rosja",
          "name:ps": "روسیه",
          "name:pt": "Rússia",
          "name:qu": "Rusiya",
          "name:rm": "Russia",
          "name:rn": "Uburusiya",
          "name:ro": "Rusia",
          "name:ru": "Россия",
          "name:rw": "Uburusiya",
          "name:sc": "Rùssia",
          "name:sd": "روس",
          "name:se": "Ruošša",
          "name:sg": "Rusïi",
          "name:sh": "Rusija",
          "name:si": "රුසියාව",
          "name:sk": "Rusko",
          "name:sl": "Rusija",
          "name:sm": "Lusia",
          "name:sn": "Russia",
          "name:so": "Ruushka",
          "name:sq": "Rusia",
          "name:sr": "Русија",
          "name:ss": "IRashiya",
          "name:st": "Russia",
          "name:su": "Rusia",
          "name:sv": "Ryssland",
          "name:sw": "Shirikisho la Urusi",
          "name:ta": "உருசியா",
          "name:te": "రష్యా",
          "name:tg": "Русия",
          "name:th": "ประเทศรัสเซีย",
          "name:ti": "ራሻ",
          "name:tk": "Russiýa",
          "name:tl": "Pederasyong Ruso",
          "name:to": "Lūsia",
          "name:tr": "Rusya Federasyonu",
          "name:ts": "Russia",
          "name:tt": "Русия",
          "name:tw": "Russia",
          "name:ty": "Rūtia",
          "name:ug": "روسىيە",
          "name:uk": "Росія",
          "name:ur": "روس",
          "name:uz": "Rossiya Federatsiyasi",
          "name:ve": "Rashia",
          "name:vi": "Liên bang Nga",
          "name:vo": "Rusän",
          "name:wa": "Federåcion d' Rûsseye",
          "name:wo": "Federaasioŋ bu Riisi",
          "name:xh": "IRashiya",
          "name:yi": "רוסלאנד",
          "name:yo": "Rọ́síà",
          "name:za": "Ezlozswh Lienzbangh",
          "name:zh": "俄罗斯",
          "name:zu": "IRashiya",
          "boundary": "administrative",
          "currency": "RUB",
          "int_name": "Russia",
          "name:ace": "Rusia",
          "name:als": "Russland",
          "name:ang": "Russland",
          "name:arc": "ܪܘܣܝܐ",
          "name:arz": "روسيا",
          "name:ast": "Rusia",
          "name:bar": "Russland",
          "name:bcl": "Rusya",
          "name:bjn": "Rusia",
          "name:bpy": "রাশিয়া",
          "name:bug": "Russia",
          "name:bxr": "Ородой Холбооной Улас",
          "name:cdo": "Ngò̤-lò̤-sṳ̆",
          "name:ceb": "Rusya",
          "name:chr": "ᏲᏂᏱ",
          "name:chy": "Russia",
          "name:ckb": "ڕووسیا",
          "name:crh": "Rusiye",
          "name:csb": "Ruskô",
          "name:diq": "Rusya",
          "name:dsb": "Rusojska",
          "name:eml": "Rossia",
          "name:ext": "Russia",
          "name:frp": "Russie",
          "name:frr": "Ruslönj",
          "name:fur": "Russie",
          "name:gag": "Rusiya",
          "name:gan": "俄羅斯",
          "name:hak": "Ngò-lò-sṳ̂",
          "name:haw": "Rūsia",
          "name:hif": "Russia",
          "name:hsb": "Ruska federacija",
          "name:ilo": "Rusia",
          "name:jbo": "rukygu'e",
          "name:kaa": "Rossiya",
          "name:kab": "Rrus",
          "name:kbd": "Урысей",
          "name:koi": "Рочму",
          "name:krc": "Россия Федерация",
          "name:lad": "Rusia",
          "name:lbe": "Аьрасат",
          "name:lez": "Урусат",
          "name:lij": "Ruscia",
          "name:lmo": "Rüssia",
          "name:ltg": "Krīveja",
          "name:lzh": "俄羅斯",
          "name:mdf": "Рузмастор",
          "name:mhr": "Россий",
          "name:min": "Rusia",
          "name:mrj": "Россий",
          "name:mwl": "Rússia",
          "name:myv": "Россия Мастор",
          "name:mzn": "ئوروسیا",
          "name:nah": "Rusia",
          "name:nan": "Lō͘-se-a",
          "name:nap": "Russia",
          "name:nds": "Russ'sche Föderatschoon",
          "name:new": "रुस",
          "name:nov": "Rusia",
          "name:nrm": "Russie",
          "name:nso": "Russia",
          "name:pag": "Rusia",
          "name:pam": "Rusia",
          "name:pap": "Rusia",
          "name:pcd": "Russie",
          "name:pdc": "Russland",
          "name:pfl": "Russlond",
          "name:pih": "Rusha",
          "name:pms": "Russia",
          "name:pnb": "روس",
          "name:pnt": "Ρουσία",
          "name:rmy": "Rusiya",
          "name:rue": "Росія",
          "name:sah": "Арассыыйа",
          "name:scn": "Russia",
          "name:sco": "Roushie",
          "name:smn": "Ruoššâ",
          "name:sms": "Ruõššjânnam",
          "name:srn": "Rusland",
          "name:stq": "Ruslound",
          "name:szl": "Rusyjŏ",
          "name:tet": "Rúsia",
          "name:tok": "ma Losi",
          "name:tpi": "Rasia",
          "name:tum": "Russia",
          "name:tzl": "Rußía",
          "name:udm": "Россия",
          "name:vec": "Rusia",
          "name:vep": "Venäma",
          "name:vls": "Rusland",
          "name:vro": "Vinnemaa",
          "name:war": "Rusya",
          "name:wuu": "俄罗斯",
          "name:xal": "Орсн Орн Нутг",
          "name:xmf": "რუსეთი",
          "name:yue": "俄羅斯",
          "name:zea": "Rusland",
          "old_name": "Московия;Русское Царство;Российская Империя;Российская Советская Федеративная Социалистическая Республика",
          "way_area": "3241.56",
          "wikidata": "Q159",
          "ISO3166-1": "RU",
          "wikipedia": "ru:Россия",
          "name:UN:ar": "الاتحاد الروسي",
          "name:UN:en": "Russian Federation (the)",
          "name:UN:es": "Federación de Rusia (la)",
          "name:UN:fr": "Fédération de Russie (la)",
          "name:UN:ru": "Российская Федерация",
          "name:UN:zh": "俄罗斯联邦",
          "population": "146447424",
          "short_name": "РФ",
          "admin_level": "2",
          "alt_name:eo": "Rusujo;Ruslando",
          "border_type": "nation",
          "name:nds-nl": "Ruslaand",
          "name:bat-smg": "Rosėjė",
          "name:cbk-zam": "Rusia",
          "name:map-bms": "Rusia",
          "name:roa-rup": "Arusia",
          "name:zh-Hans": "俄罗斯",
          "name:zh-Hant": "俄羅斯",
          "name:roa-tara": "Russie",
          "official_name": "Российская Федерация",
          "short_name:ru": "РФ",
          "name:be-tarask": "Расея",
          "old_short_name": "РСФСР",
          "according_to:RU": "yes",
          "according_to:UA": "no",
          "population:date": "2023-01-01",
          "ISO3166-1:alpha2": "RU",
          "ISO3166-1:alpha3": "RUS",
          "default_language": "ru",
          "official_name:ar": "الاتحاد الروسي",
          "official_name:be": "Расійская Федэрацыя",
          "official_name:cs": "Ruská federace",
          "official_name:de": "Russische Föderation",
          "official_name:en": "Russian Federation",
          "official_name:eo": "Rusa Federacio",
          "official_name:es": "Federación Rusa",
          "official_name:et": "Venemaa Föderatsioon",
          "official_name:fi": "Venäjän Federaatio",
          "official_name:fr": "Fédération de Russie",
          "official_name:nl": "Russische Federatie",
          "official_name:pl": "Federacja Rosyjska",
          "official_name:pt": "Federação Russa",
          "official_name:ru": "Российская Федерация",
          "official_name:sk": "Ruská federácia",
          "official_name:sl": "Ruska federacija",
          "official_name:sv": "Ryska Federationen",
          "official_name:uk": "Російська Федерація",
          "official_name:yi": "רוסישע פֿעדעראַציע",
          "official_name:zh": "俄罗斯联邦",
          "ISO3166-1:numeric": "643",
          "official_name:ast": "Federación Rusa",
          "old_short_name:en": "RSFSR",
          "old_short_name:ru": "РСФСР",
          "official_name:zh-Hans": "俄罗斯联邦",
          "official_name:zh-Hant": "俄羅斯聯邦"
        }
      },
      "geometry": {
        "type": "Polygon",
        "coordinates": [
          [
            [
              31.16249778684081,
              70
            ],
            [
              32,
              70
            ],
            [
              32,
              70.1522816837633
            ],
            [
              31.9450402,
              70.1529749
            ],
            [
              31.8892659,
              70.1520674
            ],
            [
              31.8340088,
              70.1493507
            ],
            [
              31.8067346,
              70.1473212
            ],
            [
              31.779781,
              70.1448501
            ],
            [
              31.7270846,
              70.1386072
            ],
            [
              31.4408114,
              70.0982719
            ],
            [
              31.2145608,
              70.0183479
            ],
            [
              31.1983237,
              70.0127471
            ],
            [
              31.16249778684081,
              70
            ]
          ]
        ]
      }
    }
  ]
}