{
  "type": "FeatureCollection",
  "features": [
    {
      "type": "Feature",
      "properties": {
        "osm_id": -304751,
        "boundary": "administrative",
        "admin_level": 2,
        "parents": null,
        "name": "Indonesia",
        "local_name": "Indonesia",
        "name_en": "Indonesia",
        "all_tags": {
          "ref": "ID",
          "flag": "http://upload.wikimedia.org/wikipedia/commons/9/9f/Flag_of_Indonesia.svg",
          "name": "Indonesia",
          "name:af": "Indonesië",
          "name:ak": "Indonesia",
          "name:am": "ኢንዶኔዥያ",
          "name:an": "Indonesia",
          "name:ar": "إندونيسيا",
          "name:ay": "Indunisya",
          "name:az": "İndoneziya",
          "name:ba": "Индонезия",
          "name:be": "Інданезія",
          "name:bg": "Индонезия",
          "name:bi": "Indonesia",
          "name:bn": "ইন্দোনেশিয়া",
          "name:bo": "ཨིན་རྡུ་ནི་ཤིས་ཡ།",
          "name:br": "Indonezia",
          "name:bs": "Indonezija",
          "name:ca": "Indonèsia",
          "name:ce": "Индонези",
          "name:ch": "Indonesia",
          "name:co": "Indunesia",
          "name:cs": "Indonésie",
          "name:cu": "Їндонисїꙗ",
          "name:cv": "Индонези",
          "name:cy": "Indonesia",
          "name:da": "Indonesien",
          "name:de": "Indonesien",
          "name:dv": "އިންޑޮނޭޝިޔާ",
          "name:el": "Ινδονησία",
          "name:en": "Indonesia",
          "name:eo": "Indonezio",
          "name:es": "Indonesia",
          "name:et": "Indoneesia",
          "name:eu": "Indonesia",
          "name:fa": "اندونزی",
          "name:fi": "Indonesia",
          "name:fo": "Indonesia",
          "name:fr": "Indonésie",
          "name:fy": "Yndoneezje",
          "name:ga": "An Indinéis",
          "name:gd": "An Innd-Innse",
          "name:gl": "Indonesia",
          "name:gn": "Indonesia",
          "name:gu": "ઈંડોનેશિયા",
          "name:gv": "Yn Indoneesh",
          "name:he": "אינדונזיה",
          "name:hi": "इंडोनेशिया",
          "name:hr": "Indonezija",
          "name:ht": "Endonezi",
          "name:hu": "Indonézia",
          "name:hy": "Ինդոնեզիա",
          "name:ia": "Indonesia",
          "name:id": "Indonesia",
          "name:ie": "Indonesia",
          "name:io": "Indonezia",
          "name:is": "Indónesía",
          "name:it": "Indonesia",
          "name:iu": "ᐄᓅᓯᐊ",
          "name:ja": "インドネシア",
          "name:jv": "Indonésia",
          "name:ka": "ინდონეზია",
          "name:ki": "Indonesia",
          "name:kk": "Индонезия",
          "name:kl": "Indonesia",
          "name:km": "ឥណ្ឌូនេស៊ី",
          "name:kn": "ಇಂಡೋನೇಷ್ಯಾ",
          "name:ko": "인도네시아",
          "name:ku": "Îndonezya",
          "name:kv": "Индонезия",
          "name:kw": "Indonesi",
          "name:ky": "Индонезия",
          "name:la": "Indonesia",
          "name:lb": "Indonesien",
          "name:li": "Indonesië",
          "name:ln": "Indonezí",
          "name:lt": "Indonezija",
          "name:lv": "Indonēzija",
          "name:mg": "Indonezia",
          "name:mi": "Initonīhia",
          "name:mk": "Индонезија",
          "name:ml": "ഇന്തോനേഷ്യ",
          "name:mn": "Индонез",
          "name:mr": "इंडोनेशिया",
          "name:ms": "Indonesia",
          "name:mt": "Indoneżja",
          "name:my": "အင်ဒိုနီးရှားနိုင်ငံ",
          "name:na": "Indonitsiya",
          "name:ne": "इण्डोनेशिया",
          "name:nl": "Indonesië",
          "name:nn": "Indonesia",
          "name:no": "Indonesia",
          "name:nv": "Indoníízha",
          "name:oc": "Indonesia",
          "name:om": "Indoneeshiyaa",
          "name:or": "ଇଣ୍ଡୋନେସିଆ",
          "name:os": "Индонези",
          "name:pa": "ਇੰਡੋਨੇਸ਼ੀਆ",
          "name:pl": "Indonezja",
          "name:ps": "اندونيزيا",
          "name:pt": "Indonésia",
          "name:qu": "Indunisya",
          "name:rm": "Indonesia",
          "name:ro": "Indonezia",
          "name:ru": "Индонезия",
          "name:rw": "Indonesiya",
          "name:sa": "इण्डोनेशिया",
          "name:se": "Indonesia",
          "name:sg": "Ênndonezïi",
          "name:sh": "Indonezija",
          "name:si": "ඉන්දුනීසියාව",
          "name:sk": "Indonézia",
          "name:sl": "Indonezija",
          "name:sm": "Indyunisia",
          "name:so": "Indunisiya",
          "name:sq": "Indonezia",
          "name:sr": "Индонезија",
          "name:ss": "INdonesiya",
          "name:su": "Indonésia",
          "name:sv": "Indonesien",
          "name:sw": "Indonesia",
          "name:ta": "இந்தோனேசியா",
          "name:te": "ఇండోనేషియా",
          "name:tg": "Индонезия",
          "name:th": "ประเทศอินโดนีเซีย",
          "name:tk": "Indoneziýa",
          "name:tl": "Indonesya",
          "name:tr": "Endonezya",
          "name:tt": "Индонезия",
          "name:ug": "ھىندونېزىيە",
          "name:uk": "Індонезія",
          "name:ur": "انڈونیشیا",
          "name:uz": "Indoneziya",
          "name:vi": "Indonesia",
          "name:vo": "Lindäna-Seänuäns",
          "name:wa": "Indonezeye",
          "name:wo": "Endoneesi",
          "name:yi": "אינדאנעזיע",
          "name:yo": "Indonésíà",
          "name:za": "Yindunizsihya",
          "name:zh": "印度尼西亚 / 印度尼西亞",
          "alt_name": "Negara Kesatuan Republik Indonesia",
          "boundary": "administrative",
          "name:als": "Indonesien",
          "name:ang": "Indonesia",
          "name:arz": "اندونيسيا",
          "name:ast": "Indonesia",
          "name:bar": "Indonesien",
          "name:bcl": "Indonesya",
          "name:bjn": "Indunisia",
          "name:bpy": "ইন্দোনেশিয়া",
          "name:bug": "Indonesia",
          "name:bxr": "Индонези",
          "name:ceb": "Indonesia",
          "name:chr": "ᎢᏂᏙᏂᏍᏯ",
          "name:ckb": "ئیندۆنیزیا",
          "name:crh": "İndoneziya",
          "name:csb": "Jindonezjô",
          "name:diq": "İndonezya",
          "name:dsb": "Indoneziska",
          "name:ext": "Indonésia",
          "name:frp": "Endonèsie",
          "name:frr": "Indoneesien",
          "name:fur": "Indonesie",
          "name:gag": "İndoneziya",
          "name:gan": "印度尼西亞",
          "name:hak": "Yin-thu-nì-sî-â",
          "name:haw": "‘Inidonesia",
          "name:hif": "Indonesia",
          "name:hsb": "Indoneska",
          "name:ilo": "Indonesia",
          "name:jbo": "bidgu'e",
          "name:kbd": "Индонезиэ",
          "name:lez": "Индонезия",
          "name:lij": "Indonexia",
          "name:lmo": "Indunesia",
          "name:lrc": "ٱندونزی",
          "name:lzh": "印度尼西亞",
          "name:mhr": "Индонезий",
          "name:min": "Indonesia",
          "name:mrj": "Индонези",
          "name:mzn": "اندونزی",
          "name:nah": "Indonesia",
          "name:nan": "Ìn-nî",
          "name:nap": "Indonesia",
          "name:nds": "Indonesien",
          "name:new": "इन्दोनेसिया",
          "name:nov": "Indonesia",
          "name:pag": "Indonesiya",
          "name:pam": "Indonesia",
          "name:pap": "Indonesia",
          "name:pih": "Endonesya",
          "name:pms": "Indonesia",
          "name:pnb": "انڈونیشیا",
          "name:rue": "Індонезія",
          "name:sah": "Индонезия",
          "name:scn": "Indunesia",
          "name:sco": "Indonesie",
          "name:smn": "Indonesia",
          "name:sms": "Indonesia",
          "name:srn": "Indonesikondre",
          "name:stq": "Indonesien",
          "name:szl": "Indōnezyjŏ",
          "name:tet": "Indonézia",
          "name:tok": "ma Intonesija",
          "name:tpi": "Indonisia",
          "name:tzl": "Indonesía",
          "name:udm": "Индонезия",
          "name:vec": "Indonexia",
          "name:vep": "Indonezii",
          "name:vro": "Indoneesiä",
          "name:war": "Indonesia",
          "name:wuu": "印度尼西亚",
          "name:xal": "Эндонесин Орн",
          "name:yue": "印尼",
          "name:zea": "Indonesië",
          "way_area": "428.9",
          "wikidata": "Q252",
          "ISO3166-1": "ID",
          "wikipedia": "id:Indonesia",
          "population": "270203917",
          "short_name": "NKRI",
          "admin_level": "2",
          "border_type": "nation",
          "name:nds-nl": "Indonezie",
          "name:simple": "Indonesia",
          "driving_side": "left",
          "name:bat-smg": "Induonezėjė",
          "name:cbk-zam": "Indonesia",
          "name:map-bms": "Indonesia",
          "name:zh-Hans": "印度尼西亚",
          "name:zh-Hant": "印度尼西亞",
          "name:roa-tara": "Indonesie",
          "official_name": "Republik Indonesia",
          "name:be-tarask": "Інданэзія",
          "ISO3166-1:alpha2": "ID",
          "ISO3166-1:alpha3": "IDN",
          "default_language": "id",
          "official_name:ar": "جمهورية إندونيسيا",
          "official_name:cs": "Indonéská republika",
          "official_name:de": "Republik Indonesien",
          "official_name:en": "Republic of Indonesia",
          "official_name:es": "República de Indonesia",
          "official_name:fa": "جمهوری اندونزی",
          "official_name:ku": "Komara Îndonezya",
          "official_name:ru": "Республика Индонезия",
          "official_name:ur": "جمہوریہ انڈونیشیا",
          "official_name:zh": "印度尼西亚共和国 / 印度尼西亞共和國",
          "ISO3166-1:numeric": "360",
          "official_name:bjn": "Ripublik Indunisia",
          "official_name:ckb": "کۆماری ئیندۆنیزیا",
          "official_name:zh-Hans": "印度尼西亚共和国",
          "official_name:zh-Hant": "印度尼西亞共和國",
          "population:census:2020": "https://en.wikipedia.org/wiki/Indonesia#cite_note-2020census-8"
        }
      },
      "geometry": {
        "type": "Polygon",
        "coordinates": [
          [
            [
              127,
              -8.199183817082483
            ],
            [
              127.0029719,
              -8.1994362
            ],
            [
              127.0101873,
              -8.2002633
            ],
            [
              127.0173661,
              -8.2012868
            ],
            [
              127.0245074,
              -8.2025105
            ],
            [
              127.0377914,
              -8.2053736
            ],
            [
              127.0500649,
              -8.2087153
            ],
            [
              127.0622179,
              -8.2127031
            ],
            [
              127.0784373,
              -8.2188441
            ],
            [
              127.0969293,
              -8.2241585
            ],
            [
              127.1053144,
              -8.2267846
            ],
            [
              127.1197587,
              -8.2241842
            ],
            [
              127.1313393,
              -8.2231534
            ],
            [
              127.1427716,
              -8.2226467
            ],
            [
              127.1521852,
              -8.222625
            ],
            [
              127.1624212,
              -8.2230216
            ],
            [
              127.1725387,
              -8.2238376
            ],
            [
              127.1825359,
              -8.2250791
            ],
            [
              127.205824,
              -8.2292224
            ],
            [
              127.2164621,
              -8.2315249
            ],
            [
              127.2226052,
              -8.2330892
            ],
            [
              127.2295633,
              -8.2350985
            ],
            [
              127.2364548,
              -8.237344
            ],
            [
              127.2424301,
              -8.2395026
            ],
            [
              127.2492026,
              -8.2421699
            ],
            [
              127.2559136,
              -8.2450551
            ],
            [
              127.2617339,
              -8.2477637
            ],
            [
              127.2683232,
              -8.2510803
            ],
            [
              127.2845662,
              -8.2601895
            ],
            [
              127.2909812,
              -8.2641251
            ],
            [
              127.2967722,
              -8.2679162
            ],
            [
              127.3071314,
              -8.2702279
            ],
            [
              127.3246438,
              -8.2748339
            ],
            [
              127.3358984,
              -8.2782834
            ],
            [
              127.3461505,
              -8.2819529
            ],
            [
              127.3562769,
              -8.2860683
            ],
            [
              127.3662833,
              -8.2906097
            ],
            [
              127.3753566,
              -8.2951251
            ],
            [
              127.3842574,
              -8.3000029
            ],
            [
              127.3928041,
              -8.303299
            ],
            [
              127.3995358,
              -8.306111
            ],
            [
              127.4070422,
              -8.3095116
            ],
            [
              127.414478,
              -8.3131632
            ],
            [
              127.4242994,
              -8.3183623
            ],
            [
              127.4323989,
              -8.3229968
            ],
            [
              127.4404117,
              -8.32794
            ],
            [
              127.4507303,
              -8.3347144
            ],
            [
              127.4578133,
              -8.3396204
            ],
            [
              127.4656018,
              -8.3453611
            ],
            [
              127.4725383,
              -8.3507884
            ],
            [
              127.4817102,
              -8.358298
            ],
            [
              127.4885244,
              -8.364161
            ],
            [
              127.4982857,
              -8.3729197
            ],
            [
              127.5057123,
              -8.3799501
            ],
            [
              127.513061,
              -8.3872578
            ],
            [
              127.5210648,
              -8.3955807
            ],
            [
              127.5282561,
              -8.4034501
            ],
            [
              127.5353647,
              -8.4116138
            ],
            [
              127.542867,
              -8.4206449
            ],
            [
              127.5864725,
              -8.4316262
            ],
            [
              127.5987981,
              -8.434252
            ],
            [
              127.6081382,
              -8.4357114
            ],
            [
              127.6196403,
              -8.4369661
            ],
            [
              128,
              -8.48670033230685
            ],
            [
              128,
              -8
            ],
            [
              127,
              -8
            ],
            [
              127,
              -8.199183817082483
            ]
          ]
        ]
      }
    },
    {
      "type": "Feature",
      "properties": {
        "osm_id": -305142,
        "boundary": "administrative",
        "admin_level": 2,
        "parents": null,
        "name": "East Timor",
        "local_name": "Timór Lorosa'e / Timor-Leste",
        "name_en": "East Timor",
        "all_tags": {
          "flag": "http://upload.wikimedia.org/wikipedia/commons/2/26/Flag_of_East_Timor.svg",
          "name": "Timór Lorosa'e / Timor-Leste",
          "name:af": "Oos-Timor",
          "name:am": "ምሥራቅ ቲሞር",
          "name:an": "Timor Oriental",
          "name:ar": "تيمور الشرقية",
          "name:as": "পূৱ টিমুৰ",
          "name:az": "Şərqi Timor",
          "name:ba": "Көнсығыш Тимор",
          "name:be": "Усходні Тымор",
          "name:bg": "Източен Тимор",
          "name:bh": "पूर्ब तिमोर",
          "name:bi": "Is Timor",
          "name:bn": "পূর্ব তিমুর",
          "name:bo": "ཤར་ཏིམོར།",
          "name:br": "Timor ar Reter",
          "name:bs": "Istočni Timor",
          "name:ca": "Timor Oriental",
          "name:ce": "Малхбален Тимор",
          "name:co": "Timor Este",
          "name:cs": "Východní Timor",
          "name:cy": "Dwyrain Timor",
          "name:da": "Østtimor",
          "name:de": "Osttimor",
          "name:dv": "އިރުމަތީ ޓިމޯރު",
          "name:el": "Ανατολικό Τιμόρ",
          "name:en": "East Timor",
          "name:es": "Timor Oriental",
          "name:et": "Ida-Timor",
          "name:eu": "Ekialdeko Timor",
          "name:fa": "تیمور شرقی",
          "name:ff": "East Timor",
          "name:fi": "Itä-Timor",
          "name:fo": "Eysturtimor",
          "name:fr": "Timor oriental",
          "name:fy": "East-Timor",
          "name:ga": "An Tíomór Thoir",
          "name:gd": "Tiomor an Ear",
          "name:gl": "Timor Leste",
          "name:gn": "Kuarahyresẽ Timor",
          "name:gu": "પૂર્વ તિમોર",
          "name:gv": "Yn Teemor Hiar",
          "name:ha": "Timor-Leste",
          "name:he": "מזרח טימור",
          "name:hi": "पूर्व तिमोर",
          "name:hr": "Istočni Timor",
          "name:ht": "Timò oryantal",
          "name:hu": "Kelet-Timor",
          "name:hy": "Արևելյան Թիմոր",
          "name:id": "Timor Leste",
          "name:ie": "Ost-Timor",
          "name:io": "Estal Timor",
          "name:is": "Austur-Tímor",
          "name:it": "Timor Est",
          "name:ja": "東ティモール",
          "name:jv": "Timor Wétan",
          "name:ka": "აღმოსავლეთი ტიმორი",
          "name:kg": "Timor-Leste",
          "name:kk": "Шығыс Тимор",
          "name:km": "ទីម័រខាងកើត",
          "name:kn": "ಪೂರ್ವ ಟೀಮೊರ್",
          "name:ko": "동티모르",
          "name:ku": "Tîmora Rojhilat",
          "name:kw": "Timor Est",
          "name:ky": "Батыш Тимор",
          "name:lb": "Timor-Leste",
          "name:li": "Oos-Timor",
          "name:ln": "Timor ya monyɛlɛ",
          "name:lo": "ປະເທດຕິມໍແລັດສະເຕ",
          "name:lt": "Rytų Timoras",
          "name:lv": "Austrumtimora",
          "name:mg": "Timôro Atsinanana",
          "name:mi": "Tīmoa-ki-te-Rāwhiti",
          "name:mk": "Источен Тимор",
          "name:ml": "കിഴക്കൻ ടിമോർ",
          "name:mn": "Зүүн Тимор",
          "name:mr": "पूर्व तिमोर",
          "name:ms": "Timor Timur",
          "name:mt": "Timor tal-Lvant",
          "name:my": "အရှေ့တီမောနိုင်ငံ",
          "name:na": "East Timor",
          "name:ne": "पूर्वी टिमोर",
          "name:nl": "Oost-Timor",
          "name:nn": "Aust-Timor",
          "name:no": "Øst-Timor",
          "name:oc": "Timòr Èst",
          "name:om": "Tiimor Bahaa",
          "name:or": "ପୂର୍ବ ଟିମୋର",
          "name:os": "Скæсæн Тимор",
          "name:pa": "ਪੂਰਬੀ ਤਿਮੋਰ",
          "name:pl": "Timor Wschodni",
          "name:pt": "Timor-Leste",
          "name:qu": "Anti Timur",
          "name:ro": "Timorul de Est",
          "name:ru": "Восточный Тимор",
          "name:rw": "Timoro-Lesite",
          "name:sc": "Timor Orientale",
          "name:sd": "اوڀر تيمور",
          "name:se": "Nuorta-Timor",
          "name:sg": "Timôro tî Tö",
          "name:sh": "Istočni Timor",
          "name:si": "නැගෙනහිර ටිමෝරය",
          "name:sk": "Východný Timor",
          "name:sl": "Vzhodni Timor",
          "name:sm": "Sasaʻe Timor",
          "name:sn": "East Timor",
          "name:so": "Bariga Timor",
          "name:sq": "Timori Lindor",
          "name:sr": "Источни Тимор",
          "name:su": "Timor Lésté",
          "name:sv": "Östtimor",
          "name:sw": "Timor ya Mashariki",
          "name:ta": "கிழக்குத் திமோர்",
          "name:te": "తూర్పు తిమోర్",
          "name:tg": "Тимури Шарқӣ",
          "name:th": "ประเทศติมอร์-เลสเต",
          "name:tk": "Gündogar Timor",
          "name:tl": "Silangang Timor",
          "name:tr": "Doğu Timor",
          "name:tt": "Көнчыгыш Тимор",
          "name:ug": "شەرقىي تىمور",
          "name:uk": "Східний Тимор",
          "name:ur": "مشرقی تیمور",
          "name:uz": "Sharqiy Timor",
          "name:vi": "Đông Timor",
          "name:wo": "Timoor gu Penku",
          "name:yi": "מזרח טימאר",
          "name:yo": "Ìlàòrùn Timor",
          "name:za": "Doeng Timor",
          "name:zh": "东帝汶 / 東帝汶",
          "boundary": "administrative",
          "name:ace": "Timor Leste",
          "name:als": "Osttimor",
          "name:ami": "Timor-leste",
          "name:ang": "Ēasttimor",
          "name:ary": "تيمور الشرقية",
          "name:arz": "تيمور الشرقيه",
          "name:ast": "Timor Oriental",
          "name:azb": "شرقی تیمور",
          "name:ban": "Timor Lésté",
          "name:bar": "Osttimor",
          "name:bcl": "Subangan na Timor",
          "name:bjn": "Timor Lorosa'é",
          "name:bpy": "মুঙ তিমুর",
          "name:bug": "ᨈᨗᨆᨚᨑ ᨒᨙᨔᨈᨙ",
          "name:bxr": "Зүүн Тимор",
          "name:cdo": "Dĕ̤ng Timor",
          "name:ceb": "Sidlakang Timor",
          "name:chr": "ᏘᎼᎵ-ᎴᏍᏖ",
          "name:chy": "East Timor",
          "name:ckb": "تیمۆری ڕۆژھەڵات",
          "name:crh": "Şarqiy Timor",
          "name:csb": "Pòrënkòwi Timor",
          "name:diq": "Timurê Rocvetışi",
          "name:dsb": "Pódzajtšny Timor",
          "name:dty": "पूर्वी टिमोर",
          "name:ext": "Timol Oriental",
          "name:frp": "Timor levantenc",
          "name:frr": "Uast-Timor",
          "name:gag": "Günduusu Timor",
          "name:gcr": "Timor oryantal",
          "name:gom": "उदेंत तिमोर",
          "name:hak": "Tûng Timor",
          "name:hif": "East Timor",
          "name:hsb": "Wuchodny Timor",
          "name:ilo": "Daya a Timor",
          "name:jam": "Iis Timor",
          "name:kaa": "Shıg'ıs Timor",
          "name:lad": "Timor Oryentala",
          "name:lij": "Timor Leste",
          "name:lmo": "Timor Est",
          "name:lzh": "東帝汶",
          "name:mai": "पूर्वी टिमोर",
          "name:mhr": "Эрвел Тимор",
          "name:min": "Timor Leste",
          "name:mni": "ꯇꯤꯃꯣꯔ-ꯂꯦꯁ꯭ꯇꯦ",
          "name:mnw": "ကၟိန်ဍုင်သမ္မတဒဳမံက်ကရေဇြဳ ထဳမဝ်လေဝ်သ်တေ",
          "name:mwl": "Timor-Leste",
          "name:myv": "Чилисемань Тимор Мастор",
          "name:mzn": "شرقی تیمور",
          "name:nah": "Timor Tlāpcopa",
          "name:nan": "Tang Timor",
          "name:nds": "Oosttimor",
          "name:new": "पूर्व टिमोर",
          "name:nia": "Timor Leste",
          "name:nov": "Timor-Leste",
          "name:olo": "Päivännouzu Timor",
          "name:pam": "Aslagang Timor",
          "name:pap": "Ost-Timor",
          "name:pih": "Eist Tiimor",
          "name:pms": "Timor Est",
          "name:pnb": "چڑھدا تیمور",
          "name:sah": "Илин Тимор",
          "name:sat": "ᱥᱟᱢᱟᱝ ᱛᱤᱢᱳᱨ",
          "name:scn": "Timor Est",
          "name:sco": "East Timor",
          "name:shn": "မိူင်းတီႇမေႃးပွတ်းဝၼ်းဢွၵ်ႇ",
          "name:smn": "Nuorttâ-Timor",
          "name:sms": "Nuõrtt-Timor",
          "name:stq": "Aast-Timor",
          "name:szl": "Weschodni Timor",
          "name:szy": "Timor-leste",
          "name:tay": "Timor-leste",
          "name:tet": "Timór Lorosa'e",
          "name:tpi": "Timor-Leste",
          "name:trv": "Timor-Leste",
          "name:tum": "East Timor",
          "name:udm": "Шунды ӝужан пал Тимор",
          "name:vec": "Timor Est",
          "name:vep": "Päivnouzmaine Timor",
          "name:vls": "Ôost-Timor",
          "name:war": "Sinirangan nga Timor",
          "name:wuu": "东帝汶",
          "name:xal": "Зюнһара Тимормудин Улс Орн",
          "name:xmf": "ბჟაეიოლი ტიმორი",
          "name:yue": "東帝汶",
          "name:zea": "Oôst-Timor",
          "timezone": "Asia/Dili",
          "way_area": "2.38988",
          "wikidata": "Q574",
          "ISO3166-1": "TL",
          "wikipedia": "pt:Timor-Leste",
          "admin_level": "2",
          "border_type": "nation",
          "driving_side": "left",
          "name:bat-smg": "Rītū Timuors",
          "name:zh-Hans": "东帝汶",
          "name:zh-Hant": "東帝汶",
          "official_name": "Repúblika Demokrátika Timor Lorosa'e",
          "name:be-tarask": "Усходні Тымор",
          "ISO3166-1:alpha2": "TL",
          "ISO3166-1:alpha3": "TLS",
          "default_language": "pt",
          "official_name:cs": "Demokratická republika Východní Timor",
          "official_name:en": "Democratic Republic of Timor-Leste",
          "official_name:es": "República Democrática de Timor Oriental",
          "official_name:fr": "République démocratique du Timor-Leste",
          "official_name:pt": "República Democrática de Timor-Leste",
          "official_name:ru": "Демократическая Республика Восточный Тимор",
          "ISO3166-1:numeric": "626"
        }
      },
      "geometry": {
        "type": "Polygon",
        "coordinates": [
          [
            [
              127,
              -8.89341744053515
            ],
            [
              127.0011654,
              -8.8924491
            ],
            [
              127.0079559,
              -8.8892066
            ],
            [
              127.0159428,
              -8.8849708
            ],
            [
              127.0261593,
              -8.8845987
            ],
            [
              127.0325109,
              -8.8841039
            ],
            [
              127.0388436,
              -8.8834096
            ],
            [
              127.0451511,
              -8.8825166
            ],
            [
              127.0514269,
              -8.8814257
            ],
            [
              127.0576648,
              -8.8801382
            ],
            [
              127.0638586,
              -8.8786552
            ],
            [
              127.0700021,
              -8.8769783
            ],
            [
              127.0760892,
              -8.8751091
            ],
            [
              127.0851008,
              -8.871949
            ],
            [
              127.0910203,
              -8.8696077
            ],
            [
              127.0968624,
              -8.8670816
            ],
            [
              127.1065762,
              -8.8623865
            ],
            [
              127.1139168,
              -8.8584024
            ],
            [
              127.1192915,
              -8.8552278
            ],
            [
              127.1256476,
              -8.8511701
            ],
            [
              127.1322723,
              -8.8465799
            ],
            [
              127.1384537,
              -8.8419164
            ],
            [
              127.1445401,
              -8.836958
            ],
            [
              127.1492309,
              -8.8328493
            ],
            [
              127.1560212,
              -8.82642
            ],
            [
              127.1640884,
              -8.8181012
            ],
            [
              127.1702305,
              -8.8112475
            ],
            [
              127.1771844,
              -8.8027382
            ],
            [
              127.1824013,
              -8.7956994
            ],
            [
              127.191427,
              -8.7872404
            ],
            [
              127.1961504,
              -8.7823743
            ],
            [
              127.2020004,
              -8.7759256
            ],
            [
              127.208514,
              -8.7681054
            ],
            [
              127.2126314,
              -8.762714
            ],
            [
              127.2174759,
              -8.7559784
            ],
            [
              127.2242724,
              -8.7477175
            ],
            [
              127.2318602,
              -8.739611
            ],
            [
              127.2375847,
              -8.7343939
            ],
            [
              127.2429558,
              -8.7291637
            ],
            [
              127.2482488,
              -8.7253821
            ],
            [
              127.2543225,
              -8.7207001
            ],
            [
              127.2613528,
              -8.7171151
            ],
            [
              127.2668386,
              -8.7140648
            ],
            [
              127.2775098,
              -8.7074611
            ],
            [
              127.2852299,
              -8.7020808
            ],
            [
              127.292182,
              -8.6967492
            ],
            [
              127.3042242,
              -8.688647
            ],
            [
              127.3138196,
              -8.6816689
            ],
            [
              127.3217645,
              -8.6754933
            ],
            [
              127.3383178,
              -8.6614803
            ],
            [
              127.3457754,
              -8.6546035
            ],
            [
              127.3533296,
              -8.6469119
            ],
            [
              127.3612747,
              -8.6457751
            ],
            [
              127.3704449,
              -8.6440929
            ],
            [
              127.3795267,
              -8.64199
            ],
            [
              127.3885008,
              -8.6394708
            ],
            [
              127.3944142,
              -8.6375629
            ],
            [
              127.4031661,
              -8.6343626
            ],
            [
              127.4117595,
              -8.6307625
            ],
            [
              127.420176,
              -8.6267705
            ],
            [
              127.4283977,
              -8.6223949
            ],
            [
              127.4409486,
              -8.6151067
            ],
            [
              127.4469309,
              -8.6114562
            ],
            [
              127.4545254,
              -8.6064174
            ],
            [
              127.462422,
              -8.6006278
            ],
            [
              127.4696547,
              -8.5948174
            ],
            [
              127.4753195,
              -8.5899005
            ],
            [
              127.4826383,
              -8.5829667
            ],
            [
              127.4896008,
              -8.5756834
            ],
            [
              127.4979467,
              -8.5659443
            ],
            [
              127.5038484,
              -8.5582674
            ],
            [
              127.5093711,
              -8.5503162
            ],
            [
              127.512836,
              -8.5448721
            ],
            [
              127.5161232,
              -8.53932
            ],
            [
              127.5209613,
              -8.5303646
            ],
            [
              127.525011,
              -8.5219328
            ],
            [
              127.5297879,
              -8.5104157
            ],
            [
              127.533523,
              -8.499662
            ],
            [
              127.5368426,
              -8.4881381
            ],
            [
              127.5396858,
              -8.4753698
            ],
            [
              127.5412781,
              -8.4656922
            ],
            [
              127.5426507,
              -8.4531956
            ],
            [
              127.543222,
              -8.4429902
            ],
            [
              127.5433172,
              -8.4304928
            ],
            [
              127.542867,
              -8.4206449
            ],
            [
              127.5360711,
              -8.4124464
            ],
            [
              127.5296844,
              -8.4050593
            ],
            [
              127.5232309,
              -8.3979106
            ],
            [
              127.5159818,
              -8.3902474
            ],
            [
              127.5086617,
              -8.3828376
            ],
            [
              127.5012652,
              -8.3757002
            ],
            [
              127.4945426,
              -8.3695109
            ],
            [
              127.4855043,
              -8.3615251
            ],
            [
              127.4778982,
              -8.3551348
            ],
            [
              127.469464,
              -8.3483458
            ],
            [
              127.4624967,
              -8.3430283
            ],
            [
              127.4562453,
              -8.3385089
            ],
            [
              127.4491469,
              -8.3336577
            ],
            [
              127.4388161,
              -8.3269266
            ],
            [
              127.4315929,
              -8.3225195
            ],
            [
              127.4234847,
              -8.3179158
            ],
            [
              127.414478,
              -8.3131632
            ],
            [
              127.4062117,
              -8.3091214
            ],
            [
              127.3953351,
              -8.3043303
            ],
            [
              127.3842574,
              -8.3000029
            ],
            [
              127.3753566,
              -8.2951251
            ],
            [
              127.3671128,
              -8.2910038
            ],
            [
              127.357115,
              -8.2864317
            ],
            [
              127.3486926,
              -8.2829444
            ],
            [
              127.3376164,
              -8.2788621
            ],
            [
              127.3263841,
              -8.2753334
            ],
            [
              127.3080104,
              -8.2704463
            ],
            [
              127.2967722,
              -8.2679162
            ],
            [
              127.2909812,
              -8.2641251
            ],
            [
              127.2845662,
              -8.2601895
            ],
            [
              127.2691422,
              -8.2515115
            ],
            [
              127.2575817,
              -8.2458105
            ],
            [
              127.2449765,
              -8.2404792
            ],
            [
              127.2381672,
              -8.2379423
            ],
            [
              127.2321554,
              -8.2359129
            ],
            [
              127.2260926,
              -8.2340643
            ],
            [
              127.2191011,
              -8.2321732
            ],
            [
              127.2076073,
              -8.2295697
            ],
            [
              127.1852408,
              -8.2254943
            ],
            [
              127.1752776,
              -8.2241325
            ],
            [
              127.1642689,
              -8.223141
            ],
            [
              127.1540555,
              -8.2226644
            ],
            [
              127.1437176,
              -8.2226282
            ],
            [
              127.1322977,
              -8.2230911
            ],
            [
              127.1207295,
              -8.2240783
            ],
            [
              127.1152112,
              -8.2249116
            ],
            [
              127.1053144,
              -8.2267846
            ],
            [
              127.0969293,
              -8.2241585
            ],
            [
              127.0784373,
              -8.2188441
            ],
            [
              127.0613538,
              -8.2123968
            ],
            [
              127.0483189,
              -8.2081983
            ],
            [
              127.0413104,
              -8.2062624
            ],
            [
              127.0333788,
              -8.2043368
            ],
            [
              127.0253973,
              -8.2026783
            ],
            [
              127.0182609,
              -8.2014282
            ],
            [
              127.0101873,
              -8.2002633
            ],
            [
              127.0029719,
              -8.1994362
            ],
            [
              127,
              -8.199183817082483
            ],
            [
              127,
              -8.89341744053515
            ]
          ]
        ]
      }
    }
  ]
}