{
  "type": "FeatureCollection",
  "features": [
    {
      "type": "Feature",
      "properties": {
        "osm_id": -51701,
        "boundary": "administrative",
        "admin_level": 2,
        "parents": null,
        "name": "Switzerland",
        "local_name": "Schweiz/Suisse/Svizzera/Svizra",
        "name_en": "Switzerland",
        "all_tags": {
          "flag": "https://upload.wikimedia.org/wikipedia/commons/f/f3/Flag_of_Switzerland.svg",
          "name": "Schweiz/Suisse/Svizzera/Svizra",
          "name:af": "Switserland",
          "name:am": "ስዊዘርላንድ",
          "name:an": "Suiza",
          "name:ar": "سويسرا",
          "name:az": "İsveçrə",
          "name:ba": "Швейцария",
          "name:be": "Швейцарыя",
          "name:bg": "Швейцария",
          "name:bi": "Switzerland",
          "name:bn": "Switzerland",
          "name:bo": "སུད་སི།",
          "name:br": "Suis",
          "name:bs": "Švicarska",
          "name:ca": "Suïssa",
          "name:ce": "Швейцари",
          "name:co": "Svizzera",
          "name:cs": "Švýcarsko",
          "name:cu": "Свицєра",
          "name:cv": "Швейцари",
          "name:cy": "Y Swistir",
          "name:da": "Schweiz",
          "name:de": "Schweiz",
          "name:dv": "ސުވިޒަލޭންޑު",
          "name:dz": "སུའིཊ་ཛར་ལེན་",
          "name:ee": "Switzerland",
          "name:el": "Ελβετία",
          "name:en": "Switzerland",
          "name:eo": "Svislando",
          "name:es": "Suiza",
          "name:et": "Šveits",
          "name:eu": "Suitza",
          "name:fa": "سوئیس",
          "name:fi": "Sveitsi",
          "name:fo": "Sveis",
          "name:fr": "Suisse",
          "name:fy": "Switserlân",
          "name:ga": "An Eilbhéis",
          "name:gd": "An Eilbheis",
          "name:gl": "Suíza",
          "name:gn": "Suisa",
          "name:gu": "સ્વિત્ઝરલેન્ડ",
          "name:gv": "Yn Elveeish",
          "name:he": "שוויץ",
          "name:hi": "स्विट्ज़रलैंड",
          "name:hr": "Švicarska",
          "name:ht": "Swis",
          "name:hu": "Svájc",
          "name:hy": "Շվեյցարիա",
          "name:ia": "Suissa",
          "name:id": "Swiss",
          "name:ie": "Svissia",
          "name:io": "Suisia",
          "name:is": "Sviss",
          "name:it": "Svizzera",
          "name:ja": "スイス",
          "name:jv": "Swiss",
          "name:ka": "შვეიცარია",
          "name:kg": "Suisi",
          "name:kk": "Швейцария",
          "name:kl": "Schweizi",
          "name:kn": "ಸ್ವಿಟ್ಜರ್ಲ್ಯಾಂಡ್",
          "name:ko": "스위스",
          "name:ku": "Swîsre",
          "name:kv": "Швейцария",
          "name:kw": "Swistir",
          "name:ky": "Швейцария",
          "name:la": "Helvetia",
          "name:lb": "Schwäiz",
          "name:li": "Zweitserland",
          "name:ln": "Swisi",
          "name:lt": "Šveicarija",
          "name:lv": "Šveice",
          "name:mg": "Soisa",
          "name:mi": "Huiterangi",
          "name:mk": "Швајцарија",
          "name:ml": "സ്വിറ്റ്സര്ലാന്റ്",
          "name:mn": "Швейцари",
          "name:mr": "स्वित्झर्लंड",
          "name:ms": "Switzerland",
          "name:mt": "Żvizzera",
          "name:my": "ဆွစ်ဇာလန်နိုင်ငံ",
          "name:na": "Switzerland",
          "name:ne": "स्विजरल्याण्ड",
          "name:nl": "Zwitserland",
          "name:nn": "Sveits",
          "name:no": "Sveits",
          "name:nv": "Swis Bikéyah",
          "name:oc": "Soïssa",
          "name:or": "ସୁଇଜରଲ୍ୟାଣ୍ଡ",
          "name:os": "Швейцари",
          "name:pa": "ਸਵਿਟਜ਼ਰਲੈਂਡ",
          "name:pl": "Szwajcaria",
          "name:ps": "سويس",
          "name:pt": "Suíça",
          "name:qu": "Suwisa",
          "name:rm": "Svizra",
          "name:ro": "Elveţia",
          "name:ru": "Швейцария",
          "name:rw": "Ubusuwisi",
          "name:sa": "स्विटजरलैंड",
          "name:sc": "Isvìtzera",
          "name:se": "Šveica",
          "name:sh": "Švajcarska",
          "name:si": "ස්විට්සර්ලන්තය",
          "name:sk": "Švajčiarsko",
          "name:sl": "Švica",
          "name:so": "Iswiizerlaan",
          "name:sq": "Zvicra",
          "name:sr": "Швајцарска",
          "name:ss": "ISwizalandi",
          "name:su": "Suis",
          "name:sv": "Schweiz",
          "name:sw": "Uswisi",
          "name:ta": "சுவிட்சர்லாந்து",
          "name:te": "స్విట్జర్లాండ్",
          "name:tg": "Швейтсария",
          "name:th": "ประเทศสวิตเซอร์แลนด์",
          "name:tk": "Şweýsariýa",
          "name:tl": "Suwisa",
          "name:tr": "İsviçre",
          "name:tt": "Швейцария",
          "name:ug": "Shwétsariye",
          "name:uk": "Швейцарія",
          "name:ur": "سویٹزر لینڈ",
          "name:uz": "Shveysariya",
          "name:vi": "Thụy Sĩ",
          "name:vo": "Jveizän",
          "name:wo": "Suwis",
          "name:yi": "שווייץ",
          "name:yo": "Swítsàlandì",
          "name:za": "Nyeiqswq",
          "name:zh": "瑞士",
          "website": "https://www.ch.ch/",
          "boundary": "administrative",
          "int_name": "Schweiz",
          "name:ace": "Swiss",
          "name:als": "Schweiz",
          "name:ang": "Sƿissland",
          "name:arc": "ܣܘܝܣܪܐ",
          "name:arz": "سويسرا",
          "name:ast": "Suiza",
          "name:bar": "Schweiz",
          "name:bcl": "Suisa",
          "name:bpy": "সুইজারল্যান্ড",
          "name:bug": "Swiss",
          "name:bxr": "Швейцари",
          "name:cdo": "Sô̤i-sê̤ṳ",
          "name:ceb": "Swisa",
          "name:chr": "ᏍᏫᏣᎳᏂ",
          "name:chy": "Switzerland",
          "name:ckb": "سویسرا",
          "name:crh": "İsviçre",
          "name:csb": "Szwajcarskô",
          "name:diq": "İswiçre",
          "name:dsb": "Šwicarska",
          "name:eml": "Svézzra",
          "name:ext": "Suiça",
          "name:frp": "Suisse",
          "name:frr": "Swaits",
          "name:fur": "Svuizare",
          "name:gag": "Şveyțariya",
          "name:gsw": "Schwiiz",
          "name:hak": "Shuì-sṳ",
          "name:haw": "Kuikilani",
          "name:hif": "Switzerland",
          "name:hsb": "Šwicarska",
          "name:ilo": "Switzerland",
          "name:jbo": "elvetias",
          "name:kaa": "Shveytsariya",
          "name:kbd": "Шуэцарэ",
          "name:koi": "Швейцарму",
          "name:krc": "Швейцария",
          "name:ksh": "Shwäĳz",
          "name:lad": "Suisa",
          "name:lez": "Швейцария",
          "name:lij": "Svissëa",
          "name:lmo": "Svìzzera",
          "name:ltg": "Šveicareja",
          "name:lzh": "瑞士",
          "name:mdf": "Швейцария",
          "name:mhr": "Швейцарий",
          "name:nah": "Suiza",
          "name:nan": "Sūi-se",
          "name:nap": "Sguizzera",
          "name:nds": "Swiez",
          "name:new": "स्विट्जरल्याण्ड",
          "name:nov": "Suisia",
          "name:nrm": "Suisse",
          "name:pag": "Switzerland",
          "name:pam": "Suiza",
          "name:pap": "Suisa",
          "name:pcd": "Suisse",
          "name:pdc": "Schweiz",
          "name:pfl": "Schwaiz",
          "name:pih": "Switsaland",
          "name:pms": "Svìssera",
          "name:pnb": "سویٹزرلینڈ",
          "name:pnt": "Ελβετία",
          "name:rmy": "Elveciya",
          "name:rue": "Швайц",
          "name:sah": "Швейцария",
          "name:scn": "Svìzzira",
          "name:sco": "Swisserland",
          "name:smn": "Sveitsi",
          "name:sms": "Sveiʹcc",
          "name:stq": "Swaits",
          "name:szl": "Szwajcaryjŏ",
          "name:tet": "Suisa",
          "name:tok": "ma Suwasi",
          "name:tpi": "Suwisalan",
          "name:tzl": "Suiça",
          "name:udm": "Швейцария",
          "name:vec": "Svìzera",
          "name:vep": "Šveicarii",
          "name:vls": "Zwitserland",
          "name:vro": "Sveits",
          "name:war": "Swiza",
          "name:wuu": "瑞士",
          "name:xal": "Свисн Һазр",
          "name:xmf": "შვეიცარია",
          "name:yue": "瑞士",
          "name:zea": "Zwitserland",
          "timezone": "Europe/Zurich",
          "way_area": "4.86454",
          "wikidata": "Q39",
          "ISO3166-1": "CH",
          "land_area": "administrative",
          "wikipedia": "de:Schweiz",
          "admin_level": "2",
          "alt_name:cs": "Švýcarská konfederace",
          "alt_name:eo": "Svisio;Svisujo",
          "name:nds-nl": "Zwitserlaand",
          "old_name:eo": "Helvetio;Helvetujo",
          "alt_name:gsw": "Schwiz",
          "capital_city": "Bern",
          "name:bat-smg": "Šveicarėjė",
          "name:roa-rup": "Shwaitsã",
          "name:zh-Hans": "瑞士",
          "name:zh-Hant": "瑞士",
          "name:roa-tara": "Svizzere",
          "name:be-tarask": "Швейцарыя",
          "name:zh_pinyin": "Ruìshì",
          "ISO3166-1:alpha2": "CH",
          "ISO3166-1:alpha3": "CHE",
          "default_language": "de",
          "official_name:ca": "Confederació Helvètica",
          "official_name:cs": "Švýcarská konfederace",
          "official_name:de": "Schweizerische Eidgenossenschaft",
          "official_name:el": "Ελβετική Συνομοσπονδία",
          "official_name:en": "Swiss Confederation",
          "official_name:eo": "Svisa Konfederacio",
          "official_name:fi": "Sveitsin valaliitto",
          "official_name:fr": "Confédération suisse",
          "official_name:id": "Konfederasi Swiss",
          "official_name:it": "Confederazione Svizzera",
          "official_name:ja": "スイス連邦",
          "official_name:la": "Confoederatio Helvetica",
          "official_name:lb": "Schwäizeresch Eidgenossenschaft",
          "official_name:lt": "Šveicarijos Konfederacija",
          "official_name:rm": "Confederaziun svizra",
          "official_name:sk": "Švajčiarska konfederácia",
          "official_name:sv": "Schweiziska edsförbundet",
          "official_name:vi": "Liên bang Thụy Sĩ",
          "official_name:zh": "瑞士联邦 / 瑞士聯邦",
          "ISO3166-1:numeric": "756",
          "country_code_fips": "SZ",
          "official_name:zh-Hans": "瑞士联邦",
          "official_name:zh-Hant": "瑞士聯邦",
          "TMC:cid_58:tabcd_1:Class": "Area",
          "TMC:cid_58:tabcd_1:LCLversion": "8.00",
          "TMC:cid_58:tabcd_1:LocationCode": "6"
        }
      },
      "geometry": {
        "type": "Polygon",
        "coordinates": [
          [
            [
              8.7859221,
              45.9891496
            ],
            [
              8.7881752,
              45.9889247
            ],
            [
              8.789649,
              45.9885021
            ],
            [
              8.7906839,
              45.9885976
            ],
            [
              8.79144,
              45.9889034
            ],
            [
              8.7923858,
              45.9895668
            ],
            [
              8.7924721,
              45.9904474
            ],
            [
              8.7922474,
              45.9917996
            ],
            [
              8.7933918,
              45.9921457
            ],
            [
              8.7941676,
              45.9921993
            ],
            [
              8.7974779,
              45.9919164
            ],
            [
              8.7995925,
              45.9913061
            ],
            [
              8.8024048,
              45.991245
            ],
            [
              8.8073868,
              45.9907166
            ],
            [
              8.8101401,
              45.9898464
            ],
            [
              8.8115657,
              45.9900809
            ],
            [
              8.8138222,
              45.991016
            ],
            [
              8.8140914,
              45.9904279
            ],
            [
              8.8144706,
              45.9901084
            ],
            [
              8.8164165,
              45.98896
            ],
            [
              8.8198264,
              45.9875236
            ],
            [
              8.8220332,
              45.9872822
            ],
            [
              8.8243268,
              45.9878731
            ],
            [
              8.825833,
              45.9877196
            ],
            [
              8.8268925,
              45.9872567
            ],
            [
              8.830229,
              45.9880253
            ],
            [
              8.8316221,
              45.9879901
            ],
            [
              8.8325977,
              45.9872763
            ],
            [
              8.8341972,
              45.9852142
            ],
            [
              8.8356062,
              45.9847919
            ],
            [
              8.8385022,
              45.984486
            ],
            [
              8.8392687,
              45.9841796
            ],
            [
              8.8396328,
              45.9822677
            ],
            [
              8.8399784,
              45.9816516
            ],
            [
              8.8425798,
              45.9814393
            ],
            [
              8.8432359,
              45.9803515
            ],
            [
              8.843298,
              45.9777417
            ],
            [
              8.8435721,
              45.9773604
            ],
            [
              8.8445293,
              45.9769436
            ],
            [
              8.8456633,
              45.9768844
            ],
            [
              8.8468328,
              45.9761951
            ],
            [
              8.8477507,
              45.9752569
            ],
            [
              8.8486799,
              45.9737608
            ],
            [
              8.8494987,
              45.9729859
            ],
            [
              8.8520528,
              45.9719642
            ],
            [
              8.8562512,
              45.9686727
            ],
            [
              8.8578208,
              45.9680052
            ],
            [
              8.8590951,
              45.9669242
            ],
            [
              8.8607018,
              45.9661695
            ],
            [
              8.8619814,
              45.9657665
            ],
            [
              8.864875,
              45.965415
            ],
            [
              8.866653,
              45.9628555
            ],
            [
              8.867603,
              45.9611971
            ],
            [
              8.8684912,
              45.960628
            ],
            [
              8.8708011,
              45.9601668
            ],
            [
              8.8716097,
              45.9599148
            ],
            [
              8.8721826,
              45.9594937
            ],
            [
              8.8739412,
              45.9593891
            ],
            [
              8.8749017,
              45.959125
            ],
            [
              8.8764747,
              45.9576204
            ],
            [
              8.8783583,
              45.9566517
            ],
            [
              8.8876104,
              45.9577475
            ],
            [
              8.8937069,
              45.9590184
            ],
            [
              8.8947316,
              45.9577726
            ],
            [
              8.8967549,
              45.9547954
            ],
            [
              8.8969516,
              45.9418375
            ],
            [
              8.8947269,
              45.9391673
            ],
            [
              8.8933828,
              45.9371155
            ],
            [
              8.8927383,
              45.9346947
            ],
            [
              8.8926261,
              45.9328968
            ],
            [
              8.8928249,
              45.9321296
            ],
            [
              8.8963356,
              45.926938
            ],
            [
              8.9049957,
              45.9205457
            ],
            [
              8.9075005,
              45.917814
            ],
            [
              8.9125488,
              45.91764
            ],
            [
              8.9143319,
              45.9177965
            ],
            [
              8.9168177,
              45.9135401
            ],
            [
              8.9198254,
              45.9102571
            ],
            [
              8.9202427,
              45.9090101
            ],
            [
              8.9219413,
              45.9074853
            ],
            [
              8.9226862,
              45.9064408
            ],
            [
              8.9240838,
              45.9057027
            ],
            [
              8.9248487,
              45.9037375
            ],
            [
              8.9253867,
              45.9033659
            ],
            [
              8.9254127,
              45.9022912
            ],
            [
              8.9245345,
              45.8998508
            ],
            [
              8.9223977,
              45.8967463
            ],
            [
              8.9219043,
              45.8951784
            ],
            [
              8.9225082,
              45.8954682
            ],
            [
              8.9228681,
              45.8954355
            ],
            [
              8.92321,
              45.8950995
            ],
            [
              8.923723,
              45.8940187
            ],
            [
              8.9240802,
              45.8922708
            ],
            [
              8.9273518,
              45.8917596
            ],
            [
              8.9297439,
              45.8887589
            ],
            [
              8.9306002,
              45.8870831
            ],
            [
              8.9319359,
              45.885041
            ],
            [
              8.9325436,
              45.8813442
            ],
            [
              8.933047,
              45.8809056
            ],
            [
              8.9332837,
              45.8801377
            ],
            [
              8.933147,
              45.8798516
            ],
            [
              8.9332501,
              45.8789056
            ],
            [
              8.9335284,
              45.8787219
            ],
            [
              8.933185,
              45.8779348
            ],
            [
              8.9330556,
              45.876497
            ],
            [
              8.9331655,
              45.8748581
            ],
            [
              8.9339693,
              45.8736328
            ],
            [
              8.9340251,
              45.8733172
            ],
            [
              8.9343819,
              45.8731774
            ],
            [
              8.9344915,
              45.8724742
            ],
            [
              8.9342942,
              45.8723239
            ],
            [
              8.9346308,
              45.8719146
            ],
            [
              8.9338048,
              45.8709089
            ],
            [
              8.9336621,
              45.870398
            ],
            [
              8.935253,
              45.869702
            ],
            [
              8.9370185,
              45.8673843
            ],
            [
              8.9373794,
              45.8673974
            ],
            [
              8.9383879,
              45.8680138
            ],
            [
              8.9416447,
              45.8703095
            ],
            [
              8.9417963,
              45.8701995
            ],
            [
              8.9420966,
              45.8703484
            ],
            [
              8.9425348,
              45.8698927
            ],
            [
              8.9423343,
              45.8696255
            ],
            [
              8.9444203,
              45.868203
            ],
            [
              8.9453151,
              45.8670214
            ],
            [
              8.943447,
              45.8655889
            ],
            [
              8.9403413,
              45.864101
            ],
            [
              8.9383957,
              45.8634068
            ],
            [
              8.9370985,
              45.8632446
            ],
            [
              8.9354042,
              45.8625025
            ],
            [
              8.9349333,
              45.8627067
            ],
            [
              8.9332292,
              45.8616048
            ],
            [
              8.9324392,
              45.8609675
            ],
            [
              8.9262123,
              45.8545274
            ],
            [
              8.9206913,
              45.8493823
            ],
            [
              8.9152399,
              45.8434021
            ],
            [
              8.914255,
              45.8422426
            ],
            [
              8.9127644,
              45.8380336
            ],
            [
              8.9120812,
              45.8317718
            ],
            [
              8.9122392,
              45.8304652
            ],
            [
              8.9163431,
              45.8323186
            ],
            [
              8.9183737,
              45.8336413
            ],
            [
              8.9205143,
              45.8342699
            ],
            [
              8.923819,
              45.8341542
            ],
            [
              8.9258588,
              45.8334344
            ],
            [
              8.9269499,
              45.83333
            ],
            [
              8.9274694,
              45.833503
            ],
            [
              8.929115,
              45.8334362
            ],
            [
              8.9294746,
              45.8338813
            ],
            [
              8.9288183,
              45.8343578
            ],
            [
              8.9290652,
              45.8353892
            ],
            [
              8.9307837,
              45.8356362
            ],
            [
              8.9321894,
              45.8366792
            ],
            [
              8.9323958,
              45.8371713
            ],
            [
              8.9320943,
              45.837913
            ],
            [
              8.9331035,
              45.8381065
            ],
            [
              8.9328735,
              45.8389277
            ],
            [
              8.9334437,
              45.8391904
            ],
            [
              8.9340994,
              45.8391207
            ],
            [
              8.936104,
              45.839569
            ],
            [
              8.9391522,
              45.8412974
            ],
            [
              8.940273,
              45.8413954
            ],
            [
              8.9404227,
              45.8412207
            ],
            [
              8.9435785,
              45.841884
            ],
            [
              8.9472639,
              45.8428384
            ],
            [
              8.948891,
              45.8434913
            ],
            [
              8.9494696,
              45.8434656
            ],
            [
              8.9513463,
              45.8429005
            ],
            [
              8.9520546,
              45.842909
            ],
            [
              8.9531359,
              45.8424446
            ],
            [
              8.95357,
              45.8427806
            ],
            [
              8.9538012,
              45.8432274
            ],
            [
              8.9563184,
              45.8434814
            ],
            [
              8.9558286,
              45.8429931
            ],
            [
              8.9562686,
              45.8416826
            ],
            [
              8.9566215,
              45.8414079
            ],
            [
              8.9608511,
              45.8398212
            ],
            [
              8.9610942,
              45.8393051
            ],
            [
              8.9619654,
              45.8391584
            ],
            [
              8.9622791,
              45.8379395
            ],
            [
              8.9622065,
              45.8376436
            ],
            [
              8.961189,
              45.8366946
            ],
            [
              8.9613745,
              45.8364222
            ],
            [
              8.9639739,
              45.8350104
            ],
            [
              8.9652339,
              45.8354252
            ],
            [
              8.9663457,
              45.8343978
            ],
            [
              8.9670555,
              45.8347437
            ],
            [
              8.9681941,
              45.8340354
            ],
            [
              8.9689697,
              45.8332331
            ],
            [
              8.9685487,
              45.8329059
            ],
            [
              8.9701045,
              45.8323899
            ],
            [
              8.972482,
              45.8331853
            ],
            [
              8.9733895,
              45.8324981
            ],
            [
              8.9760869,
              45.8346026
            ],
            [
              8.9750647,
              45.8357862
            ],
            [
              8.9762084,
              45.8366432
            ],
            [
              8.9767849,
              45.8365453
            ],
            [
              8.9776326,
              45.8369386
            ],
            [
              8.9782395,
              45.8365524
            ],
            [
              8.9792075,
              45.836647
            ],
            [
              8.9794484,
              45.8360589
            ],
            [
              8.9813724,
              45.8357194
            ],
            [
              8.9822399,
              45.8360026
            ],
            [
              8.9831305,
              45.8365481
            ],
            [
              8.9833873,
              45.8365266
            ],
            [
              8.9837279,
              45.8371967
            ],
            [
              8.9844669,
              45.8373844
            ],
            [
              8.9853898,
              45.8381634
            ],
            [
              8.9867296,
              45.8386578
            ],
            [
              8.9870461,
              45.8384735
            ],
            [
              8.9882256,
              45.8383042
            ],
            [
              8.988667,
              45.8379832
            ],
            [
              8.9895943,
              45.8366389
            ],
            [
              8.9900963,
              45.8361821
            ],
            [
              8.9910574,
              45.8360339
            ],
            [
              8.9899455,
              45.8354015
            ],
            [
              8.9911678,
              45.8353846
            ],
            [
              8.9921797,
              45.8347588
            ],
            [
              8.994338,
              45.8342546
            ],
            [
              8.997502,
              45.8349366
            ],
            [
              8.9974534,
              45.8346873
            ],
            [
              8.9969247,
              45.8341532
            ],
            [
              8.9968445,
              45.8335965
            ],
            [
              8.9976428,
              45.8331536
            ],
            [
              8.9977645,
              45.832909
            ],
            [
              8.997645,
              45.8323258
            ],
            [
              8.9969984,
              45.8322178
            ],
            [
              8.9963418,
              45.8317591
            ],
            [
              8.9960467,
              45.8304317
            ],
            [
              8.9951761,
              45.8292292
            ],
            [
              8.9949558,
              45.8282696
            ],
            [
              8.9952003,
              45.8278163
            ],
            [
              8.9946112,
              45.8274646
            ],
            [
              8.9940558,
              45.8260328
            ],
            [
              8.9942777,
              45.8256879
            ],
            [
              8.9940097,
              45.8253137
            ],
            [
              8.9945814,
              45.8250539
            ],
            [
              8.9945763,
              45.824874
            ],
            [
              8.9939834,
              45.8243874
            ],
            [
              8.9936041,
              45.8237178
            ],
            [
              8.9928834,
              45.8232599
            ],
            [
              8.9939171,
              45.822049
            ],
            [
              8.9984729,
              45.8229756
            ],
            [
              8.9998051,
              45.8223093
            ],
            [
              9,
              45.82231531423452
            ],
            [
              9,
              45.965000095333565
            ],
            [
              8.99402,
              45.9665632
            ],
            [
              8.9889929,
              45.9703487
            ],
            [
              8.9888292,
              45.9712438
            ],
            [
              8.9882623,
              45.9723096
            ],
            [
              8.9884715,
              45.9728334
            ],
            [
              8.9890451,
              45.9720326
            ],
            [
              8.9897134,
              45.9714836
            ],
            [
              8.9903783,
              45.9712676
            ],
            [
              8.9923263,
              45.9726173
            ],
            [
              8.9928544,
              45.9721331
            ],
            [
              8.994646,
              45.9716134
            ],
            [
              8.9958169,
              45.9728568
            ],
            [
              8.9963126,
              45.9744064
            ],
            [
              8.9958422,
              45.9751057
            ],
            [
              8.9960595,
              45.9759394
            ],
            [
              8.9950545,
              45.9768981
            ],
            [
              8.9954645,
              45.9777022
            ],
            [
              8.9953251,
              45.978244
            ],
            [
              8.9959854,
              45.9787746
            ],
            [
              8.9953394,
              45.9805043
            ],
            [
              9,
              45.980376324134674
            ],
            [
              9,
              46
            ],
            [
              8.790119793979454,
              46
            ],
            [
              8.7893654,
              45.997925
            ],
            [
              8.787242,
              45.991383
            ],
            [
              8.7859221,
              45.9891496
            ]
          ],
          [
            [
              8.958586,
              45.9648006
            ],
            [
              8.9587577,
              45.9676306
            ],
            [
              8.9590688,
              45.9684434
            ],
            [
              8.9591268,
              45.9691951
            ],
            [
              8.9610675,
              45.9705253
            ],
            [
              8.961299,
              45.9718897
            ],
            [
              8.9619527,
              45.9731224
            ],
            [
              8.9640328,
              45.9759913
            ],
            [
              8.9646611,
              45.9790867
            ],
            [
              8.9666517,
              45.9833601
            ],
            [
              8.9668665,
              45.9841219
            ],
            [
              8.9771139,
              45.9830754
            ],
            [
              8.9774152,
              45.9828986
            ],
            [
              8.9774633,
              45.9823131
            ],
            [
              8.9763789,
              45.9790891
            ],
            [
              8.9763142,
              45.9758691
            ],
            [
              8.9766809,
              45.9751443
            ],
            [
              8.9772373,
              45.9719877
            ],
            [
              8.9775884,
              45.9716231
            ],
            [
              8.9793152,
              45.9710866
            ],
            [
              8.9782344,
              45.9684473
            ],
            [
              8.9773602,
              45.9680993
            ],
            [
              8.9769265,
              45.9637533
            ],
            [
              8.9757221,
              45.9616889
            ],
            [
              8.9735773,
              45.962033
            ],
            [
              8.9725449,
              45.9620201
            ],
            [
              8.971206,
              45.9616604
            ],
            [
              8.9688898,
              45.9618719
            ],
            [
              8.9684502,
              45.9623007
            ],
            [
              8.9688259,
              45.9628175
            ],
            [
              8.9681692,
              45.9630542
            ],
            [
              8.958586,
              45.9648006
            ]
          ]
        ]
      }
    },
    {
      "type": "Feature",
      "properties": {
        "osm_id": -365331,
        "boundary": "administrative",
        "admin_level": 2,
        "parents": null,
        "name": "Italy",
        "local_name": "Italia",
        "name_en": "Italy",
        "all_tags": {
          "flag": "http://upload.wikimedia.org/wikipedia/commons/0/03/Flag_of_Italy.svg",
          "name": "Italia",
          "name:ab": "Италиа",
          "name:af": "Italië",
          "name:ak": "Italy",
          "name:am": "ጣልያን",
          "name:an": "Italia",
          "name:ar": "إيطاليا",
          "name:as": "ইটালী",
          "name:ay": "Italiya",
          "name:az": "İtaliya",
          "name:ba": "Италия",
          "name:be": "Італія",
          "name:bg": "Италия",
          "name:bi": "Itali",
          "name:bn": "ইতালি",
          "name:bo": "ཨི་ཏ་ལི།",
          "name:br": "Italia",
          "name:bs": "Italija",
          "name:ca": "Itàlia",
          "name:ce": "Итали",
          "name:co": "Italia",
          "name:cr": "ᐃᑕᓖ",
          "name:cs": "Itálie",
          "name:cu": "Италїꙗ",
          "name:cv": "Итали",
          "name:cy": "Yr Eidal",
          "name:da": "Italien",
          "name:de": "Italien",
          "name:dv": "އިޓަލީވިލާތް",
          "name:dz": "ཨྀཊ་ལི་",
          "name:ee": "Italy",
          "name:el": "Ιταλία",
          "name:en": "Italy",
          "name:eo": "Italio",
          "name:es": "Italia",
          "name:et": "Itaalia",
          "name:eu": "Italia",
          "name:fa": "ایتالیا",
          "name:ff": "Italiya",
          "name:fi": "Italia",
          "name:fo": "Italia",
          "name:fr": "Italie",
          "name:fy": "Itaalje",
          "name:ga": "An Iodáil",
          "name:gd": "An Eadailt",
          "name:gl": "Italia",
          "name:gn": "Itália",
          "name:gu": "ઈટલી",
          "name:gv": "Yn Iddaal",
          "name:he": "איטליה",
          "name:hi": "इटली",
          "name:hr": "Italija",
          "name:ht": "Itali",
          "name:hu": "Olaszország",
          "name:hy": "Իտալիա",
          "name:ia": "Italia",
          "name:id": "Italia",
          "name:ie": "Italia",
          "name:io": "Italia",
          "name:is": "Ítalía",
          "name:it": "Italia",
          "name:ja": "イタリア",
          "name:jv": "Italia",
          "name:ka": "იტალია",
          "name:kg": "Italia",
          "name:ki": "Italia",
          "name:kk": "Италия",
          "name:kl": "Italia",
          "name:km": "អ៊ីតាលី",
          "name:kn": "ಇಟಲಿ",
          "name:ko": "이탈리아",
          "name:ku": "Îtalya",
          "name:kv": "Италия",
          "name:kw": "Itali",
          "name:ky": "Италия",
          "name:la": "Italia",
          "name:lb": "Italien",
          "name:lg": "Yitale",
          "name:li": "Italië",
          "name:ln": "Italya",
          "name:lo": "ອິຕາລີ",
          "name:lt": "Italija",
          "name:lv": "Itālija",
          "name:mg": "Italia",
          "name:mi": "Itari",
          "name:mk": "Италија",
          "name:ml": "ഇറ്റലി",
          "name:mn": "Итали",
          "name:mr": "इटली",
          "name:ms": "Itali",
          "name:mt": "Italja",
          "name:my": "အီတလီနိုင်ငံ",
          "name:na": "Itari",
          "name:ne": "इटाली",
          "name:nl": "Italië",
          "name:nn": "Italia",
          "name:no": "Italia",
          "name:nv": "Ídelii",
          "name:oc": "Itàlia",
          "name:or": "ଇଟାଲୀ",
          "name:os": "Итали",
          "name:pa": "ਇਟਲੀ",
          "name:pl": "Włochy",
          "name:ps": "اېټاليا",
          "name:pt": "Itália",
          "name:qu": "Italya",
          "name:rm": "Italia",
          "name:ro": "Italia",
          "name:ru": "Италия",
          "name:rw": "Ubutaliyani",
          "name:sa": "इटली",
          "name:sc": "Itàlia",
          "name:se": "Itália",
          "name:sg": "Italùii",
          "name:sh": "Italija",
          "name:sk": "Taliansko",
          "name:sl": "Italija",
          "name:sm": "Italia",
          "name:so": "Talyaaniga",
          "name:sq": "Italia",
          "name:sr": "Италија",
          "name:ss": "INtaliyane",
          "name:su": "Italia",
          "name:sv": "Italien",
          "name:sw": "Italia",
          "name:ta": "இத்தாலி",
          "name:te": "ఇటలీ",
          "name:tg": "Итолиё",
          "name:th": "ประเทศอิตาลี",
          "name:tk": "Italiýa",
          "name:tl": "Italya",
          "name:tr": "İtalya",
          "name:tt": "Италия",
          "name:tw": "Italy",
          "name:ty": "’Itāria",
          "name:ug": "ئىتالىيە",
          "name:uk": "Італія",
          "name:ur": "اطالیہ",
          "name:uz": "Italiya",
          "name:ve": "Italy",
          "name:vi": "Ý",
          "name:vo": "Litaliyän",
          "name:wa": "Itåleye",
          "name:wo": "Itaali",
          "name:yi": "איטאליע",
          "name:yo": "Itálíà",
          "name:zh": "意大利 / 義大利",
          "name:zu": "ITaliya",
          "boundary": "administrative",
          "currency": "EUR",
          "int_name": "Italia",
          "name:ace": "Itali",
          "name:als": "Italien",
          "name:ang": "Italia",
          "name:arc": "ܐܝܛܠܝܐ",
          "name:arz": "ايطاليا",
          "name:ast": "Italia",
          "name:bar": "Italien",
          "name:bcl": "Italya",
          "name:bpy": "ইতালি",
          "name:bug": "Italia",
          "name:bxr": "Итаали",
          "name:cdo": "É-dâi-lé",
          "name:ceb": "Italya",
          "name:chr": "ᎢᏔᎵᏱ",
          "name:chy": "Italy",
          "name:ckb": "ئیتالیا",
          "name:crh": "İtaliya",
          "name:csb": "Italskô",
          "name:din": "Italia",
          "name:diq": "İtalya",
          "name:dsb": "Italska",
          "name:eml": "Itâglia",
          "name:ext": "Itália",
          "name:frp": "Étalie",
          "name:frr": "Itaalien",
          "name:fur": "Italie",
          "name:gag": "İtaliya",
          "name:gan": "意大利",
          "name:grc": "Ἰταλία",
          "name:hak": "Yi-thai-li",
          "name:haw": "ʻĪkālia",
          "name:hif": "Italy",
          "name:hsb": "Italska",
          "name:ilo": "Italia",
          "name:jbo": "italias",
          "name:kaa": "İtaliya",
          "name:kab": "Ṭelyan",
          "name:kbd": "Урым",
          "name:koi": "Италья",
          "name:krc": "Италия",
          "name:lad": "Italia",
          "name:lez": "Италия",
          "name:lij": "Italia",
          "name:lld": "Talia",
          "name:lmo": "Itàlia",
          "name:ltg": "Italeja",
          "name:lzh": "義大利",
          "name:mdf": "Италие",
          "name:mhr": "Италий",
          "name:min": "Italia",
          "name:mwl": "Eitália",
          "name:mzn": "ایتالیا",
          "name:nah": "Italia",
          "name:nan": "Italia",
          "name:nap": "Italia",
          "name:nds": "Italien",
          "name:new": "इटाली",
          "name:nov": "Italia",
          "name:nrm": "Italie",
          "name:nso": "Italia",
          "name:pag": "Italia",
          "name:pam": "Italia",
          "name:pap": "Italia",
          "name:pcd": "Italie",
          "name:pdc": "Idali",
          "name:pfl": "Idalje",
          "name:pih": "Italii",
          "name:pms": "Italia",
          "name:pnb": "اٹلی",
          "name:pnt": "Ιταλία",
          "name:rmy": "Italiya",
          "name:rue": "Італія",
          "name:sah": "Италия",
          "name:scn": "Italia",
          "name:sco": "Italy",
          "name:smn": "Italia",
          "name:sms": "Italia",
          "name:srn": "Italiyanikondre",
          "name:stq": "Italien",
          "name:szl": "Italijŏ",
          "name:tet": "Itália",
          "name:tok": "ma Italija",
          "name:tpi": "Itali",
          "name:tzl": "Talia",
          "name:udm": "Италия",
          "name:vec": "Itałia",
          "name:vep": "Italii",
          "name:vls": "Itoalië",
          "name:vro": "Itaalia",
          "name:war": "Italya",
          "name:wuu": "意大利",
          "name:xal": "Италмудин Орн",
          "name:xmf": "იტალია",
          "name:yue": "意大利",
          "name:zea": "Itâlië",
          "timezone": "Europe/Rome",
          "way_area": "49.7321",
          "wikidata": "Q38",
          "ISO3166-1": "IT",
          "wikipedia": "it:Italia",
          "population": "58983000",
          "start_date": "1946-06-10",
          "admin_level": "2",
          "alt_name:eo": "Italujo",
          "alt_name:vi": "I-ta-li-a",
          "name:nds-nl": "Italiën",
          "old_name:vi": "Ý Đại Lợi",
          "name:bat-smg": "Italėjė",
          "name:cbk-zam": "Italia",
          "name:map-bms": "Italia",
          "name:zh-Hans": "意大利",
          "name:zh-Hant": "義大利",
          "name:roa-tara": "Itaglie",
          "official_name": "Repubblica Italiana",
          "name:be-tarask": "Італія",
          "population:date": "2022-04-08",
          "ISO3166-1:alpha2": "IT",
          "ISO3166-1:alpha3": "ITA",
          "default_language": "it",
          "official_name:cs": "Italská republika",
          "official_name:de": "Republik Italien",
          "official_name:el": "Ιταλική Δημοκρατία",
          "official_name:eo": "Itala Respubliko",
          "official_name:zh": "意大利共和国",
          "ISO3166-1:numeric": "380",
          "official_language": "it",
          "official_name:zh-Hans": "意大利共和国",
          "official_name:zh-Hant": "義大利共和國",
          "TMC:cid_58:tabcd_1:Class": "Area",
          "TMC:cid_58:tabcd_1:LCLversion": "8.00",
          "TMC:cid_58:tabcd_1:LocationCode": "11"
        }
      },
      "geometry": {
        "type": "MultiPolygon",
        "coordinates": [
          [
            [
              [
                8,
                45
              ],
              [
                9,
                45
              ],
              [
                9,
                45.82231531423452
              ],
              [
                8.9998051,
                45.8223093
              ],
              [
                8.9984729,
                45.8229756
              ],
              [
                8.9939171,
                45.822049
              ],
              [
                8.9928834,
                45.8232599
              ],
              [
                8.9936041,
                45.8237178
              ],
              [
                8.9939834,
                45.8243874
              ],
              [
                8.9945763,
                45.824874
              ],
              [
                8.9945814,
                45.8250539
              ],
              [
                8.9940097,
                45.8253137
              ],
              [
                8.9942777,
                45.8256879
              ],
              [
                8.9940558,
                45.8260328
              ],
              [
                8.9946112,
                45.8274646
              ],
              [
                8.9952003,
                45.8278163
              ],
              [
                8.9949558,
                45.8282696
              ],
              [
                8.9951761,
                45.8292292
              ],
              [
                8.9960467,
                45.8304317
              ],
              [
                8.9963418,
                45.8317591
              ],
              [
                8.9969984,
                45.8322178
              ],
              [
                8.997645,
                45.8323258
              ],
              [
                8.9977645,
                45.832909
              ],
              [
                8.9976428,
                45.8331536
              ],
              [
                8.9968445,
                45.8335965
              ],
              [
                8.9969247,
                45.8341532
              ],
              [
                8.9974534,
                45.8346873
              ],
              [
                8.997502,
                45.8349366
              ],
              [
                8.994338,
                45.8342546
              ],
              [
                8.9921797,
                45.8347588
              ],
              [
                8.9911678,
                45.8353846
              ],
              [
                8.9899455,
                45.8354015
              ],
              [
                8.9910574,
                45.8360339
              ],
              [
                8.9900963,
                45.8361821
              ],
              [
                8.9895943,
                45.8366389
              ],
              [
                8.988667,
                45.8379832
              ],
              [
                8.9882256,
                45.8383042
              ],
              [
                8.9870461,
                45.8384735
              ],
              [
                8.9867296,
                45.8386578
              ],
              [
                8.9853898,
                45.8381634
              ],
              [
                8.9844669,
                45.8373844
              ],
              [
                8.9837279,
                45.8371967
              ],
              [
                8.9833873,
                45.8365266
              ],
              [
                8.9831305,
                45.8365481
              ],
              [
                8.9822399,
                45.8360026
              ],
              [
                8.9813724,
                45.8357194
              ],
              [
                8.9794484,
                45.8360589
              ],
              [
                8.9792075,
                45.836647
              ],
              [
                8.9782395,
                45.8365524
              ],
              [
                8.9776326,
                45.8369386
              ],
              [
                8.9767849,
                45.8365453
              ],
              [
                8.9762084,
                45.8366432
              ],
              [
                8.9750647,
                45.8357862
              ],
              [
                8.9760869,
                45.8346026
              ],
              [
                8.9733895,
                45.8324981
              ],
              [
                8.972482,
                45.8331853
              ],
              [
                8.9701045,
                45.8323899
              ],
              [
                8.9685487,
                45.8329059
              ],
              [
                8.9689697,
                45.8332331
              ],
              [
                8.9681941,
                45.8340354
              ],
              [
                8.9670555,
                45.8347437
              ],
              [
                8.9663457,
                45.8343978
              ],
              [
                8.9652339,
                45.8354252
              ],
              [
                8.9639739,
                45.8350104
              ],
              [
                8.9613745,
                45.8364222
              ],
              [
                8.961189,
                45.8366946
              ],
              [
                8.9622065,
                45.8376436
              ],
              [
                8.9622791,
                45.8379395
              ],
              [
                8.9619654,
                45.8391584
              ],
              [
                8.9610942,
                45.8393051
              ],
              [
                8.9608511,
                45.8398212
              ],
              [
                8.9566215,
                45.8414079
              ],
              [
                8.9562686,
                45.8416826
              ],
              [
                8.9558286,
                45.8429931
              ],
              [
                8.9563184,
                45.8434814
              ],
              [
                8.9538012,
                45.8432274
              ],
              [
                8.95357,
                45.8427806
              ],
              [
                8.9531359,
                45.8424446
              ],
              [
                8.9520546,
                45.842909
              ],
              [
                8.9513463,
                45.8429005
              ],
              [
                8.9494696,
                45.8434656
              ],
              [
                8.948891,
                45.8434913
              ],
              [
                8.9472639,
                45.8428384
              ],
              [
                8.9435785,
                45.841884
              ],
              [
                8.9404227,
                45.8412207
              ],
              [
                8.940273,
                45.8413954
              ],
              [
                8.9391522,
                45.8412974
              ],
              [
                8.936104,
                45.839569
              ],
              [
                8.9340994,
                45.8391207
              ],
              [
                8.9334437,
                45.8391904
              ],
              [
                8.9328735,
                45.8389277
              ],
              [
                8.9331035,
                45.8381065
              ],
              [
                8.9320943,
                45.837913
              ],
              [
                8.9323958,
                45.8371713
              ],
              [
                8.9321894,
                45.8366792
              ],
              [
                8.9307837,
                45.8356362
              ],
              [
                8.9290652,
                45.8353892
              ],
              [
                8.9288183,
                45.8343578
              ],
              [
                8.9294746,
                45.8338813
              ],
              [
                8.929115,
                45.8334362
              ],
              [
                8.9274694,
                45.833503
              ],
              [
                8.9269499,
                45.83333
              ],
              [
                8.9258588,
                45.8334344
              ],
              [
                8.923819,
                45.8341542
              ],
              [
                8.9205143,
                45.8342699
              ],
              [
                8.9183737,
                45.8336413
              ],
              [
                8.9163431,
                45.8323186
              ],
              [
                8.9122392,
                45.8304652
              ],
              [
                8.9120812,
                45.8317718
              ],
              [
                8.9127644,
                45.8380336
              ],
              [
                8.914255,
                45.8422426
              ],
              [
                8.9152399,
                45.8434021
              ],
              [
                8.9206913,
                45.8493823
              ],
              [
                8.9262123,
                45.8545274
              ],
              [
                8.9324392,
                45.8609675
              ],
              [
                8.9332292,
                45.8616048
              ],
              [
                8.9349333,
                45.8627067
              ],
              [
                8.9354042,
                45.8625025
              ],
              [
                8.9370985,
                45.8632446
              ],
              [
                8.9383957,
                45.8634068
              ],
              [
                8.9403413,
                45.864101
              ],
              [
                8.943447,
                45.8655889
              ],
              [
                8.9453151,
                45.8670214
              ],
              [
                8.9444203,
                45.868203
              ],
              [
                8.9423343,
                45.8696255
              ],
              [
                8.9425348,
                45.8698927
              ],
              [
                8.9420966,
                45.8703484
              ],
              [
                8.9417963,
                45.8701995
              ],
              [
                8.9416447,
                45.8703095
              ],
              [
                8.9383879,
                45.8680138
              ],
              [
                8.9373794,
                45.8673974
              ],
              [
                8.9370185,
                45.8673843
              ],
              [
                8.935253,
                45.869702
              ],
              [
                8.9336621,
                45.870398
              ],
              [
                8.9338048,
                45.8709089
              ],
              [
                8.9346308,
                45.8719146
              ],
              [
                8.9342942,
                45.8723239
              ],
              [
                8.9344915,
                45.8724742
              ],
              [
                8.9343819,
                45.8731774
              ],
              [
                8.9340251,
                45.8733172
              ],
              [
                8.9339693,
                45.8736328
              ],
              [
                8.9331655,
                45.8748581
              ],
              [
                8.9330556,
                45.876497
              ],
              [
                8.933185,
                45.8779348
              ],
              [
                8.9335284,
                45.8787219
              ],
              [
                8.9332501,
                45.8789056
              ],
              [
                8.933147,
                45.8798516
              ],
              [
                8.9332837,
                45.8801377
              ],
              [
                8.933047,
                45.8809056
              ],
              [
                8.9325436,
                45.8813442
              ],
              [
                8.9319359,
                45.885041
              ],
              [
                8.9306002,
                45.8870831
              ],
              [
                8.9297439,
                45.8887589
              ],
              [
                8.9273518,
                45.8917596
              ],
              [
                8.9240802,
                45.8922708
              ],
              [
                8.923723,
                45.8940187
              ],
              [
                8.92321,
                45.8950995
              ],
              [
                8.9228681,
                45.8954355
              ],
              [
                8.9225082,
                45.8954682
              ],
              [
                8.9219043,
                45.8951784
              ],
              [
                8.9223977,
                45.8967463
              ],
              [
                8.9245345,
                45.8998508
              ],
              [
                8.9254127,
                45.9022912
              ],
              [
                8.9253867,
                45.9033659
              ],
              [
                8.9248487,
                45.9037375
              ],
              [
                8.9240838,
                45.9057027
              ],
              [
                8.9226862,
                45.9064408
              ],
              [
                8.9219413,
                45.9074853
              ],
              [
                8.9202427,
                45.9090101
              ],
              [
                8.9198254,
                45.9102571
              ],
              [
                8.9168177,
                45.9135401
              ],
              [
                8.9143319,
                45.9177965
              ],
              [
                8.9125488,
                45.91764
              ],
              [
                8.9075005,
                45.917814
              ],
              [
                8.9049957,
                45.9205457
              ],
              [
                8.8963356,
                45.926938
              ],
              [
                8.8928249,
                45.9321296
              ],
              [
                8.8926261,
                45.9328968
              ],
              [
                8.8927383,
                45.9346947
              ],
              [
                8.8933828,
                45.9371155
              ],
              [
                8.8947269,
                45.9391673
              ],
              [
                8.8969516,
                45.9418375
              ],
              [
                8.8967549,
                45.9547954
              ],
              [
                8.8947316,
                45.9577726
              ],
              [
                8.8937069,
                45.9590184
              ],
              [
                8.8876104,
                45.9577475
              ],
              [
                8.8783583,
                45.9566517
              ],
              [
                8.8764747,
                45.9576204
              ],
              [
                8.8749017,
                45.959125
              ],
              [
                8.8739412,
                45.9593891
              ],
              [
                8.8721826,
                45.9594937
              ],
              [
                8.8716097,
                45.9599148
              ],
              [
                8.8708011,
                45.9601668
              ],
              [
                8.8684912,
                45.960628
              ],
              [
                8.867603,
                45.9611971
              ],
              [
                8.866653,
                45.9628555
              ],
              [
                8.864875,
                45.965415
              ],
              [
                8.8619814,
                45.9657665
              ],
              [
                8.8607018,
                45.9661695
              ],
              [
                8.8590951,
                45.9669242
              ],
              [
                8.8578208,
                45.9680052
              ],
              [
                8.8562512,
                45.9686727
              ],
              [
                8.8520528,
                45.9719642
              ],
              [
                8.8494987,
                45.9729859
              ],
              [
                8.8486799,
                45.9737608
              ],
              [
                8.8477507,
                45.9752569
              ],
              [
                8.8468328,
                45.9761951
              ],
              [
                8.8456633,
                45.9768844
              ],
              [
                8.8445293,
                45.9769436
              ],
              [
                8.8435721,
                45.9773604
              ],
              [
                8.843298,
                45.9777417
              ],
              [
                8.8432359,
                45.9803515
              ],
              [
                8.8425798,
                45.9814393
              ],
              [
                8.8399784,
                45.9816516
              ],
              [
                8.8396328,
                45.9822677
              ],
              [
                8.8392687,
                45.9841796
              ],
              [
                8.8385022,
                45.984486
              ],
              [
                8.8356062,
                45.9847919
              ],
              [
                8.8341972,
                45.9852142
              ],
              [
                8.8325977,
                45.9872763
              ],
              [
                8.8316221,
                45.9879901
              ],
              [
                8.830229,
                45.9880253
              ],
              [
                8.8268925,
                45.9872567
              ],
              [
                8.825833,
                45.9877196
              ],
              [
                8.8243268,
                45.9878731
              ],
              [
                8.8220332,
                45.9872822
              ],
              [
                8.8198264,
                45.9875236
              ],
              [
                8.8164165,
                45.98896
              ],
              [
                8.8144706,
                45.9901084
              ],
              [
                8.8140914,
                45.9904279
              ],
              [
                8.8138222,
                45.991016
              ],
              [
                8.8115657,
                45.9900809
              ],
              [
                8.8101401,
                45.9898464
              ],
              [
                8.8073868,
                45.9907166
              ],
              [
                8.8024048,
                45.991245
              ],
              [
                8.7995925,
                45.9913061
              ],
              [
                8.7974779,
                45.9919164
              ],
              [
                8.7941676,
                45.9921993
              ],
              [
                8.7933918,
                45.9921457
              ],
              [
                8.7922474,
                45.9917996
              ],
              [
                8.7924721,
                45.9904474
              ],
              [
                8.7923858,
                45.9895668
              ],
              [
                8.79144,
                45.9889034
              ],
              [
                8.7906839,
                45.9885976
              ],
              [
                8.789649,
                45.9885021
              ],
              [
                8.7881752,
                45.9889247
              ],
              [
                8.7859221,
                45.9891496
              ],
              [
                8.787242,
                45.991383
              ],
              [
                8.7893654,
                45.997925
              ],
              [
                8.790119793979454,
                46
              ],
              [
                8,
                46
              ],
              [
                8,
                45
              ]
            ]
          ],
          [
            [
              [
                8.958586,
                45.9648006
              ],
              [
                8.9681692,
                45.9630542
              ],
              [
                8.9688259,
                45.9628175
              ],
              [
                8.9684502,
                45.9623007
              ],
              [
                8.9688898,
                45.9618719
              ],
              [
                8.971206,
                45.9616604
              ],
              [
                8.9725449,
                45.9620201
              ],
              [
                8.9735773,
                45.962033
              ],
              [
                8.9757221,
                45.9616889
              ],
              [
                8.9769265,
                45.9637533
              ],
              [
                8.9773602,
                45.9680993
              ],
              [
                8.9782344,
                45.9684473
              ],
              [
                8.9793152,
                45.9710866
              ],
              [
                8.9775884,
                45.9716231
              ],
              [
                8.9772373,
                45.9719877
              ],
              [
                8.9766809,
                45.9751443
              ],
              [
                8.9763142,
                45.9758691
              ],
              [
                8.9763789,
                45.9790891
              ],
              [
                8.9774633,
                45.9823131
              ],
              [
                8.9774152,
                45.9828986
              ],
              [
                8.9771139,
                45.9830754
              ],
              [
                8.9668665,
                45.9841219
              ],
              [
                8.9666517,
                45.9833601
              ],
              [
                8.9646611,
                45.9790867
              ],
              [
                8.9640328,
                45.9759913
              ],
              [
                8.9619527,
                45.9731224
              ],
              [
                8.961299,
                45.9718897
              ],
              [
                8.9610675,
                45.9705253
              ],
              [
                8.9591268,
                45.9691951
              ],
              [
                8.9590688,
                45.9684434
              ],
              [
                8.9587577,
                45.9676306
              ],
              [
                8.958586,
                45.9648006
              ]
            ]
          ],
          [
            [
              [
                8.9882623,
                45.9723096
              ],
              [
                8.9888292,
                45.9712438
              ],
              [
                8.9889929,
                45.9703487
              ],
              [
                8.99402,
                45.9665632
              ],
              [
                9,
                45.965000095333565
              ],
              [
                9,
                45.980376324134674
              ],
              [
                8.9953394,
                45.9805043
              ],
              [
                8.9959854,
                45.9787746
              ],
              [
                8.9953251,
                45.978244
              ],
              [
                8.9954645,
                45.9777022
              ],
              [
                8.9950545,
                45.9768981
              ],
              [
                8.9960595,
                45.9759394
              ],
              [
                8.9958422,
                45.9751057
              ],
              [
                8.9963126,
                45.9744064
              ],
              [
                8.9958169,
                45.9728568
              ],
              [
                8.994646,
                45.9716134
              ],
              [
                8.9928544,
                45.9721331
              ],
              [
                8.9923263,
                45.9726173
              ],
              [
                8.9903783,
                45.9712676
              ],
              [
                8.9897134,
                45.9714836
              ],
              [
                8.9890451,
                45.9720326
              ],
              [
                8.9884715,
                45.9728334
              ],
              [
                8.9882623,
                45.9723096
              ]
            ]
          ]
        ]
      }
    }
  ]
}