{
  "type": "FeatureCollection",
  "features": [
    {
      "type": "Feature",
      "properties": {
        "osm_id": -120027,
        "boundary": "administrative",
        "admin_level": 2,
        "parents": null,
        "name": "Colombia",
        "local_name": "Colombia",
        "name_en": "Colombia",
        "all_tags": {
          "flag": "http://upload.wikimedia.org/wikipedia/commons/2/21/Flag_of_Colombia.svg",
          "name": "Colombia",
          "name:af": "Colombia",
          "name:am": "ኮሎምቢያ",
          "name:an": "Colombia",
          "name:ar": "كولومبيا",
          "name:ay": "Kuluwya",
          "name:az": "Kolumbiya",
          "name:ba": "Колумбия",
          "name:be": "Калумбія",
          "name:bg": "Колумбия",
          "name:bi": "Colombia",
          "name:bn": "কলম্বিয়া",
          "name:bo": "ཁོ་ལོམ་བི་ཡ།",
          "name:br": "Kolombia",
          "name:bs": "Kolumbija",
          "name:ca": "Colòmbia",
          "name:ce": "Колумби",
          "name:co": "Colombia",
          "name:cs": "Kolumbie",
          "name:cv": "Колумби",
          "name:cy": "Colombia",
          "name:da": "Colombia",
          "name:de": "Kolumbien",
          "name:dv": "ކޮލަންބިއާ",
          "name:dz": "ཀོ་ལོམ་བི་ཡ",
          "name:ee": "Colombia",
          "name:el": "Κολομβία",
          "name:en": "Colombia",
          "name:eo": "Kolombio",
          "name:es": "Colombia",
          "name:et": "Colombia",
          "name:eu": "Kolonbia",
          "name:fa": "کلمبیا",
          "name:fi": "Kolumbia",
          "name:fo": "Kolumbia",
          "name:fr": "Colombie",
          "name:fy": "Kolombia",
          "name:ga": "An Cholóim",
          "name:gd": "Coloimbia",
          "name:gl": "Colombia",
          "name:gn": "Kolómbia",
          "name:gu": "કોલમ્બિયા",
          "name:gv": "Yn Cholombey",
          "name:he": "קולומביה",
          "name:hi": "कोलम्बिया",
          "name:hr": "Kolumbija",
          "name:ht": "Kolonbi",
          "name:hu": "Kolumbia",
          "name:hy": "Կոլումբիա",
          "name:ia": "Colombia",
          "name:id": "Kolombia",
          "name:ie": "Columbia",
          "name:io": "Kolumbia",
          "name:is": "Kólumbía",
          "name:it": "Colombia",
          "name:ja": "コロンビア",
          "name:jv": "Kolombia",
          "name:ka": "კოლუმბია",
          "name:kk": "Колумбия Республикасы",
          "name:kl": "Colombia",
          "name:km": "កូឡុំប៊ី",
          "name:kn": "ಕೊಲೊಂಬಿಯ",
          "name:ko": "콜롬비아",
          "name:ku": "Kolombiya",
          "name:kw": "Kolombi",
          "name:la": "Columbia",
          "name:lb": "Kolumbien",
          "name:li": "Colombia",
          "name:ln": "Kolombi",
          "name:lt": "Kolumbija",
          "name:lv": "Kolumbija",
          "name:mg": "Kolombia",
          "name:mi": "Koromōpia",
          "name:mk": "Колумбија",
          "name:ml": "കൊളംബിയ",
          "name:mn": "Колумб",
          "name:mr": "कोलंबिया",
          "name:ms": "Colombia",
          "name:mt": "Kolombja",
          "name:my": "ကိုလံဘီယာနိုင်ငံ",
          "name:na": "Korombiya",
          "name:ne": "कोलम्बिया",
          "name:nl": "Colombia",
          "name:nn": "Colombia",
          "name:no": "Colombia",
          "name:nv": "Kolámbiya",
          "name:oc": "Colómbia",
          "name:om": "Colombia",
          "name:or": "କଲୋମ୍ବିଆ",
          "name:os": "Колумби",
          "name:pa": "ਕੋਲੰਬੀਆ",
          "name:pl": "Kolumbia",
          "name:pt": "Colômbia",
          "name:qu": "Kulumbya",
          "name:rm": "Columbia",
          "name:ro": "Columbia",
          "name:ru": "Колумбия",
          "name:rw": "Kolombiya",
          "name:sa": "कोलोम्बिया",
          "name:se": "Colombia",
          "name:sh": "Kolumbija",
          "name:sk": "Kolumbia",
          "name:sl": "Kolumbija",
          "name:so": "Kolombiya",
          "name:sq": "Kolumbia",
          "name:sr": "Колумбија",
          "name:su": "Kolombia",
          "name:sv": "Colombia",
          "name:sw": "Kolombia",
          "name:ta": "கொலொம்பியா",
          "name:te": "కొలంబియా",
          "name:tg": "Кулумбия",
          "name:th": "ประเทศโคลอมเบีย",
          "name:tl": "Colombia",
          "name:tr": "Kolombiya",
          "name:ts": "Colombia",
          "name:tt": "Колумбия",
          "name:ug": "كولومبىيە",
          "name:uk": "Колумбія",
          "name:ur": "کولمبیا",
          "name:uz": "Kolumbiya",
          "name:vi": "Colombia",
          "name:vo": "Kolumbän",
          "name:wo": "Koloombi",
          "name:xh": "IsiColombia",
          "name:yi": "קאלאמביע",
          "name:yo": "Kòlómbìà",
          "name:zh": "哥伦比亚 / 哥倫比亞",
          "name:zu": "IKolombiya",
          "boundary": "administrative",
          "int_name": "Colombia",
          "name:ace": "Kolombia",
          "name:als": "Kolumbien",
          "name:ang": "Colombia",
          "name:arc": "ܩܘܠܘܡܒܝܐ",
          "name:arz": "كولومبيا",
          "name:ast": "Colombia",
          "name:bar": "Kolumbien",
          "name:bcl": "Kolombya",
          "name:bpy": "কলম্বিয়া",
          "name:bxr": "Колумби",
          "name:ceb": "Colombia",
          "name:ckb": "کۆلۆمبیا",
          "name:crh": "Kolombiya",
          "name:diq": "Kolombiya",
          "name:dsb": "Kolumbiska",
          "name:ext": "Colómbia",
          "name:frp": "Colombie",
          "name:frr": "Kolumbien",
          "name:gag": "Kolumbiya",
          "name:gan": "哥倫比亞",
          "name:hak": "Kô-lùn-pí-â",
          "name:hif": "Colombia",
          "name:hsb": "Kolumbiska",
          "name:ilo": "Colombia",
          "name:jbo": "kolombias",
          "name:lad": "Kolombia",
          "name:lij": "Colombia",
          "name:lmo": "Culumbia",
          "name:ltg": "Kolumbeja",
          "name:lzh": "哥倫比亞",
          "name:mhr": "Колумбий",
          "name:mrj": "Колумби",
          "name:nah": "Colombia",
          "name:nan": "Colombia",
          "name:nds": "Kolumbien",
          "name:new": "कोलम्बिया",
          "name:nov": "Kolombia",
          "name:nso": "Kolombia",
          "name:pag": "Colombia",
          "name:pam": "Colombia",
          "name:pap": "Colombia",
          "name:pms": "Colombia",
          "name:pnb": "کولمبیا",
          "name:rmy": "Kolombiya",
          "name:sah": "Колумбия",
          "name:scn": "Colombia",
          "name:sco": "Colombie",
          "name:smn": "Kolumbia",
          "name:sms": "Kolumbia",
          "name:srn": "Kolombikondre",
          "name:stq": "Kolumbien",
          "name:szl": "Kolōmbijŏ",
          "name:tet": "Kolómbia",
          "name:tzl": "Colombia",
          "name:udm": "Колумбия",
          "name:vec": "Cołonbia",
          "name:vro": "Colombia",
          "name:war": "Colombia",
          "name:wuu": "哥伦比亚",
          "name:xal": "Коламбудин Орн",
          "name:xmf": "კოლუმბია",
          "name:yue": "哥倫比亞",
          "name:zea": "Colombia",
          "timezone": "America/Bogota",
          "way_area": "100.631",
          "wikidata": "Q739",
          "ISO3166-1": "CO",
          "wikipedia": "es:Colombia",
          "admin_level": "2",
          "name:bat-smg": "Kuolombėjė",
          "name:cbk-zam": "Colombia",
          "name:zh-Hans": "哥伦比亚",
          "name:zh-Hant": "哥倫比亞",
          "official_name": "República de Colombia",
          "name:be-tarask": "Калюмбія",
          "ISO3166-1:alpha2": "CO",
          "ISO3166-1:alpha3": "COL",
          "default_language": "es",
          "official_name:cs": "Kolumbijská republika",
          "official_name:en": "Republic of Colombia",
          "official_name:eo": "Kolombia Respubliko",
          "official_name:es": "República de Colombia",
          "official_name:fr": "République de Colombie",
          "official_name:ku": "Komara Kolombiya",
          "official_name:ru": "Республика Колумбия",
          "ISO3166-1:numeric": "170",
          "official_name:ckb": "کۆماری کۆڵۆمبیا"
        }
      },
      "geometry": {
        "type": "Polygon",
        "coordinates": [
          [
            [
              -78.77008772287054,
              16
            ],
            [
              -78.4964497244005,
              16
            ],
            [
              -78.5011202,
              16.0038961
            ],
            [
              -78.5091322,
              16.0099433
            ],
            [
              -78.5174431,
              16.0156051
            ],
            [
              -78.5260331,
              16.0208679
            ],
            [
              -78.5348813,
              16.0257192
            ],
            [
              -78.5439666,
              16.0301473
            ],
            [
              -78.553267,
              16.0341414
            ],
            [
              -78.5627601,
              16.0376921
            ],
            [
              -78.5724231,
              16.0407908
            ],
            [
              -78.5822326,
              16.04343
            ],
            [
              -78.5921651,
              16.0456034
            ],
            [
              -78.6021965,
              16.0473058
            ],
            [
              -78.6123028,
              16.0485332
            ],
            [
              -78.6224596,
              16.0492824
            ],
            [
              -78.6326424,
              16.0495518
            ],
            [
              -78.6428267,
              16.0493408
            ],
            [
              -78.652988,
              16.0486497
            ],
            [
              -78.6631017,
              16.0474803
            ],
            [
              -78.6731435,
              16.0458354
            ],
            [
              -78.6830893,
              16.0437189
            ],
            [
              -78.692915,
              16.0411359
            ],
            [
              -78.702597,
              16.0380926
            ],
            [
              -78.712112,
              16.0345964
            ],
            [
              -78.721437,
              16.0306556
            ],
            [
              -78.7305495,
              16.0262797
            ],
            [
              -78.7394278,
              16.0214792
            ],
            [
              -78.7480502,
              16.0162656
            ],
            [
              -78.7563961,
              16.0106516
            ],
            [
              -78.7644454,
              16.0046504
            ],
            [
              -78.77008772287054,
              16
            ]
          ]
        ]
      }
    },
    {
      "type": "Feature",
      "properties": {
        "osm_id": -555017,
        "boundary": "administrative",
        "admin_level": 2,
        "parents": null,
        "name": "Jamaica",
        "local_name": "Jamaica",
        "name_en": "Jamaica",
        "all_tags": {
          "flag": "http://upload.wikimedia.org/wikipedia/commons/0/0a/Flag_of_Jamaica.svg",
          "name": "Jamaica",
          "name:ar": "جامايكا",
          "name:br": "Jamaika",
          "name:cs": "Jamajka",
          "name:de": "Jamaika",
          "name:el": "Ιαμαϊκή",
          "name:en": "Jamaica",
          "name:eo": "Jamajko",
          "name:es": "Jamaica",
          "name:fr": "Jamaïque",
          "name:fy": "Jamaika",
          "name:gn": "Hamáika",
          "name:hr": "Jamajka",
          "name:io": "Jamaika",
          "name:it": "Giamaica",
          "name:ja": "ジャマイカ",
          "name:ko": "자메이카",
          "name:ku": "Camayka",
          "name:nl": "Jamaica",
          "name:no": "Jamaica",
          "name:oc": "Jamaica",
          "name:pl": "Jamajka",
          "name:pt": "Jamaica",
          "name:ru": "Ямайка",
          "name:se": "Jamaica",
          "name:sk": "Jamajka",
          "name:sl": "Jamajka",
          "name:sv": "Jamaica",
          "name:ta": "ஜமேக்கா",
          "name:uk": "Ямайка",
          "name:vo": "Camekeän",
          "name:zh": "牙买加 / 牙買加",
          "boundary": "administrative",
          "name:ckb": "جامایکا",
          "name:smn": "Jamaika",
          "name:sms": "Jamaika",
          "name:tzl": "Xhamieca",
          "timezone": "America/Jamaica",
          "way_area": "4.34461",
          "wikidata": "Q766",
          "ISO3166-1": "JM",
          "wikipedia": "en:Jamaica",
          "admin_level": "2",
          "border_type": "nation",
          "driving_side": "left",
          "name:zh-Hans": "牙买加",
          "name:zh-Hant": "牙買加",
          "ISO3166-1:alpha2": "JM",
          "ISO3166-1:alpha3": "JAM",
          "default_language": "en",
          "official_name:en": "Commonwealth of Jamaica",
          "ISO3166-1:numeric": "388"
        }
      },
      "geometry": {
        "type": "Polygon",
        "coordinates": [
          [
            [
              -78.42664613609283,
              17
            ],
            [
              -78.3985447,
              16.7677633
            ],
            [
              -78.3907826,
              16.731926
            ],
            [
              -78.3763948,
              16.6980433
            ],
            [
              -78.3558629,
              16.6672422
            ],
            [
              -78.3298718,
              16.6405467
            ],
            [
              -78.2992869,
              16.6188445
            ],
            [
              -78.2651253,
              16.6028568
            ],
            [
              -78.2285221,
              16.5931154
            ],
            [
              -78.190693,
              16.5899443
            ],
            [
              -78.1528943,
              16.5934497
            ],
            [
              -78.1163816,
              16.6035157
            ],
            [
              -78,
              16.64678390417843
            ],
            [
              -78,
              17
            ],
            [
              -78.42664613609283,
              17
            ]
          ]
        ]
      }
    }
  ]
}