{
  "type": "FeatureCollection",
  "features": [
    {
      "type": "Feature",
      "properties": {
        "osm_id": -49898,
        "boundary": "administrative",
        "admin_level": 2,
        "parents": null,
        "name": "Cambodia",
        "local_name": "ព្រះរាជាណាចក្រ​កម្ពុជា",
        "name_en": "Cambodia",
        "all_tags": {
          "flag": "http://upload.wikimedia.org/wikipedia/commons/8/83/Flag_of_Cambodia.svg",
          "name": "ព្រះរាជាណាចក្រ​កម្ពុជា",
          "name:af": "Kambodja",
          "name:am": "ካምቦዲያ",
          "name:an": "Cambocha",
          "name:ar": "كمبوديا",
          "name:az": "Kamboca",
          "name:ba": "Камбоджа",
          "name:be": "Камбоджа",
          "name:bg": "Камбоджа",
          "name:bn": "কম্বোডিয়া",
          "name:bo": "ཁམ་པོ་ཛ།",
          "name:br": "Kambodja",
          "name:bs": "Kambodža",
          "name:ca": "Cambodja",
          "name:ce": "Камбоджа",
          "name:cs": "Kambodža",
          "name:cv": "Камбоджа",
          "name:cy": "Cambodia",
          "name:da": "Cambodja",
          "name:de": "Kambodscha",
          "name:dv": "ކެންބޯޑިއާ",
          "name:dz": "ཀམ་བོ་ཌི་ཡ་",
          "name:el": "Καμπότζη",
          "name:en": "Cambodia",
          "name:eo": "Kamboĝo",
          "name:es": "Camboya",
          "name:et": "Kambodža",
          "name:eu": "Kanbodia",
          "name:fa": "کامبوج",
          "name:fi": "Kambodža",
          "name:fo": "Kambodja",
          "name:fr": "Cambodge",
          "name:fy": "Kambodja",
          "name:ga": "An Chambóid",
          "name:gd": "Cambuidea",
          "name:gl": "Camboxa",
          "name:gn": "Kamboja",
          "name:gu": "કમ્બોડીયા",
          "name:gv": "Yn Chamboyd",
          "name:ha": "Kambodiya",
          "name:he": "קמבודיה",
          "name:hi": "कम्बोडिया",
          "name:hr": "Kambodža",
          "name:ht": "Kanbòdj",
          "name:hu": "Kambodzsa",
          "name:hy": "Կամբոջա",
          "name:ia": "Cambodgia",
          "name:id": "Kamboja",
          "name:ie": "Cambodja",
          "name:io": "Kambodja",
          "name:is": "Kambódía",
          "name:it": "Cambogia",
          "name:ja": "カンボジア",
          "name:jv": "Kamboja",
          "name:ka": "კამბოჯა",
          "name:kk": "Камбоджа",
          "name:km": "ព្រះរាជាណាចក្រកម្ពុជា",
          "name:kn": "ಕಾಂಬೋಡಿಯ",
          "name:ko": "캄보디아",
          "name:ku": "Kamboca",
          "name:kv": "Камбоджа",
          "name:kw": "Kamboji",
          "name:la": "Cambosia",
          "name:lb": "Kambodscha",
          "name:li": "Cambodja",
          "name:ln": "Kamboji",
          "name:lo": "ປະເທດກຳປູເຈຍ",
          "name:lt": "Kambodža",
          "name:lv": "Kambodža",
          "name:mg": "Kambodia",
          "name:mi": "Kamapōtia",
          "name:mk": "Камбоџа",
          "name:ml": "കംബോഡിയ",
          "name:mn": "Камбож",
          "name:mr": "कंबोडिया",
          "name:ms": "Kemboja",
          "name:mt": "Kambodja",
          "name:my": "ကမ္ဘောဒီးယားနိုင်ငံ",
          "name:na": "Kambodja",
          "name:nl": "Cambodja",
          "name:nn": "Kambodsja",
          "name:no": "Kambodsja",
          "name:oc": "Cambòtja",
          "name:or": "କମ୍ବୋଡ଼ିଆ",
          "name:os": "Камбоджæ",
          "name:pa": "ਕੰਬੋਡੀਆ",
          "name:pl": "Kambodża",
          "name:ps": "کمبودیا",
          "name:pt": "Camboja",
          "name:qu": "Kambuya",
          "name:rm": "Cambodscha",
          "name:ro": "Cambodgia",
          "name:ru": "Камбоджа",
          "name:rw": "Kambodiya",
          "name:se": "Kambodja",
          "name:sh": "Kambodža",
          "name:si": "කාම්බෝජය",
          "name:sk": "Kambodža",
          "name:sl": "Kambodža",
          "name:so": "Kambodiya",
          "name:sq": "Kamboxhia",
          "name:sr": "Камбоџа",
          "name:ss": "IKhambodiya",
          "name:su": "Kamboja",
          "name:sv": "Kambodja",
          "name:sw": "Kamboja",
          "name:ta": "கம்போடியா",
          "name:te": "కంబోడియా",
          "name:tg": "Камбоҷа",
          "name:th": "ประเทศกัมพูชา",
          "name:tk": "Kamboçiýa",
          "name:tl": "Kamboya",
          "name:tr": "Kamboçya",
          "name:tt": "Камбоҗа",
          "name:ug": "كامبوجا",
          "name:uk": "Камбоджа",
          "name:ur": "کمبوڈیا",
          "name:uz": "Kambodja",
          "name:vi": "Cao Miên",
          "name:vo": "Kambocän",
          "name:wo": "Kamboodi",
          "name:yi": "קאמבאדיע",
          "name:yo": "Kàmbódíà",
          "name:zh": "柬埔寨",
          "boundary": "administrative",
          "int_name": "Cambodia",
          "name:ace": "Kamboja",
          "name:als": "Kambodscha",
          "name:ang": "Cambodia",
          "name:arz": "كامبوديا",
          "name:ast": "Camboya",
          "name:bar": "Kambodscha",
          "name:bcl": "Kambodya",
          "name:bpy": "কম্বোডিয়া",
          "name:bug": "Kamboja",
          "name:bxr": "Камбож",
          "name:ceb": "Kamboya",
          "name:ckb": "کەمبۆدیا",
          "name:crh": "Kamboçiya",
          "name:csb": "Kambòdżô",
          "name:diq": "Kamboçya",
          "name:dsb": "Kambodža",
          "name:ext": "Camboya",
          "name:frp": "Cambodg·e",
          "name:gag": "Kamboca",
          "name:gan": "柬埔寨",
          "name:hak": "Kán-pu-chhài",
          "name:haw": "Kamabodia",
          "name:hif": "Cambodia",
          "name:hsb": "Kambodźa",
          "name:ilo": "Cambodia",
          "name:jbo": "kamputceas",
          "name:kbd": "Камбоджэ",
          "name:lij": "Camboggia",
          "name:lmo": "Cambogia",
          "name:lzh": "柬埔寨",
          "name:mdf": "Камбоджа",
          "name:nah": "Camboya",
          "name:nan": "Kampuchea",
          "name:nap": "Cambogia",
          "name:nds": "Kambodscha",
          "name:nov": "Kambodia",
          "name:pam": "Kambodya",
          "name:pih": "Kamboedya",
          "name:pms": "Cambògia",
          "name:pnb": "کمپوچیا",
          "name:sah": "Камбодьа",
          "name:scn": "Camboggia",
          "name:sco": "Cambodie",
          "name:smn": "Kambodža",
          "name:sms": "Kambodža",
          "name:szl": "Kambodża",
          "name:tzl": "Camputsch",
          "name:udm": "Камбоджа",
          "name:vro": "Kambodža",
          "name:war": "Camboya",
          "name:wuu": "柬埔寨",
          "name:xal": "Камбудин Нутг",
          "name:yue": "柬埔寨",
          "name:zea": "Cambodja",
          "timezone": "Asia/Phnom_Penh",
          "way_area": "16.9133",
          "wikidata": "Q424",
          "ISO3166-1": "KH",
          "wikipedia": "en:Cambodia",
          "admin_level": "2",
          "name:km:IPA": "prĕəh riə.ciə.naː.caʔ kam.pu.ciə",
          "name:bat-smg": "Kambuodža",
          "name:map-bms": "Kamboja",
          "name:roa-rup": "Cambogia",
          "name:zh-Hans": "柬埔寨",
          "name:zh-Hant": "柬埔寨",
          "name:be-tarask": "Камбоджа",
          "ISO3166-1:alpha2": "KH",
          "ISO3166-1:alpha3": "KHM",
          "default_language": "km",
          "official_name:cs": "Kambodžské království",
          "official_name:de": "Königreich Kambodscha",
          "official_name:en": "Kingdom of Cambodia",
          "official_name:es": "Reino de Camboya",
          "official_name:fr": "Royaume du Cambodge",
          "official_name:ru": "Королевство Камбоджа",
          "ISO3166-1:numeric": "116",
          "official_name:ckb": "شانشینی کەمبۆدیا"
        }
      },
      "geometry": {
        "type": "Polygon",
        "coordinates": [
          [
            [
              102.584992,
              11.1154727
            ],
            [
              102.5851144,
              11.1061337
            ],
            [
              102.585961,
              11.0937096
            ],
            [
              102.59525100951826,
              11
            ],
            [
              103,
              11
            ],
            [
              103,
              12
            ],
            [
              102.77800012985438,
              12
            ],
            [
              102.778011,
              11.999947
            ],
            [
              102.780389,
              11.993762
            ],
            [
              102.780389,
              11.99262
            ],
            [
              102.779961,
              11.991347
            ],
            [
              102.780912,
              11.988362
            ],
            [
              102.782909,
              11.983357
            ],
            [
              102.784621,
              11.978352
            ],
            [
              102.784668,
              11.978045
            ],
            [
              102.784431,
              11.977474
            ],
            [
              102.784763,
              11.976728
            ],
            [
              102.7889,
              11.977342
            ],
            [
              102.789248,
              11.9772341
            ],
            [
              102.7901352,
              11.9754153
            ],
            [
              102.7919096,
              11.9731974
            ],
            [
              102.7931517,
              11.9706467
            ],
            [
              102.794061,
              11.9684952
            ],
            [
              102.795081,
              11.965269
            ],
            [
              102.796412,
              11.96303
            ],
            [
              102.797078,
              11.962416
            ],
            [
              102.7972771,
              11.9616195
            ],
            [
              102.7970775,
              11.9608432
            ],
            [
              102.7963456,
              11.9595789
            ],
            [
              102.796127,
              11.958157
            ],
            [
              102.796555,
              11.956401
            ],
            [
              102.7984748,
              11.9529028
            ],
            [
              102.7998278,
              11.9497532
            ],
            [
              102.800977,
              11.948499
            ],
            [
              102.801642,
              11.948016
            ],
            [
              102.8048405,
              11.9471138
            ],
            [
              102.808632,
              11.945382
            ],
            [
              102.8095648,
              11.9442304
            ],
            [
              102.8104741,
              11.9410809
            ],
            [
              102.8129805,
              11.937266
            ],
            [
              102.8151763,
              11.9335398
            ],
            [
              102.815668,
              11.930236
            ],
            [
              102.814908,
              11.928348
            ],
            [
              102.813624,
              11.926417
            ],
            [
              102.813481,
              11.923519
            ],
            [
              102.813767,
              11.922422
            ],
            [
              102.814432,
              11.921368
            ],
            [
              102.816287,
              11.919217
            ],
            [
              102.8190799,
              11.9168383
            ],
            [
              102.8194126,
              11.9162173
            ],
            [
              102.8194348,
              11.915441
            ],
            [
              102.8192574,
              11.9146647
            ],
            [
              102.8179931,
              11.912735
            ],
            [
              102.8180597,
              11.9118478
            ],
            [
              102.818592,
              11.9112712
            ],
            [
              102.821279,
              11.909251
            ],
            [
              102.822182,
              11.908154
            ],
            [
              102.822515,
              11.907188
            ],
            [
              102.82242,
              11.90631
            ],
            [
              102.821612,
              11.904729
            ],
            [
              102.821136,
              11.903368
            ],
            [
              102.820994,
              11.901964
            ],
            [
              102.821279,
              11.896608
            ],
            [
              102.821089,
              11.895905
            ],
            [
              102.8199228,
              11.8942148
            ],
            [
              102.8192795,
              11.8927066
            ],
            [
              102.8202555,
              11.889668
            ],
            [
              102.822705,
              11.884096
            ],
            [
              102.824037,
              11.878827
            ],
            [
              102.826224,
              11.871979
            ],
            [
              102.828649,
              11.86873
            ],
            [
              102.829124,
              11.867852
            ],
            [
              102.82979,
              11.864911
            ],
            [
              102.8305026,
              11.863407
            ],
            [
              102.8314785,
              11.8592816
            ],
            [
              102.8327871,
              11.8563095
            ],
            [
              102.8354043,
              11.8520066
            ],
            [
              102.8366242,
              11.8505649
            ],
            [
              102.839929,
              11.8486352
            ],
            [
              102.843198,
              11.846472
            ],
            [
              102.845718,
              11.844277
            ],
            [
              102.8462059,
              11.8432012
            ],
            [
              102.8469157,
              11.8403621
            ],
            [
              102.847001,
              11.838087
            ],
            [
              102.8479359,
              11.8319116
            ],
            [
              102.8484683,
              11.8305365
            ],
            [
              102.8510411,
              11.826655
            ],
            [
              102.854514,
              11.825312
            ],
            [
              102.8567248,
              11.8254127
            ],
            [
              102.8604368,
              11.8242135
            ],
            [
              102.8616111,
              11.8232829
            ],
            [
              102.8624796,
              11.8221093
            ],
            [
              102.8627143,
              11.8213113
            ],
            [
              102.8621275,
              11.8193397
            ],
            [
              102.863975,
              11.81697
            ],
            [
              102.864451,
              11.815302
            ],
            [
              102.864261,
              11.814643
            ],
            [
              102.863025,
              11.813458
            ],
            [
              102.862882,
              11.8128
            ],
            [
              102.863595,
              11.811395
            ],
            [
              102.865307,
              11.809024
            ],
            [
              102.866638,
              11.806346
            ],
            [
              102.867351,
              11.805556
            ],
            [
              102.86892,
              11.80481
            ],
            [
              102.872629,
              11.803712
            ],
            [
              102.87377,
              11.802922
            ],
            [
              102.874768,
              11.802527
            ],
            [
              102.8761,
              11.802922
            ],
            [
              102.876623,
              11.802834
            ],
            [
              102.881187,
              11.800068
            ],
            [
              102.882994,
              11.799673
            ],
            [
              102.885371,
              11.799585
            ],
            [
              102.885942,
              11.79941
            ],
            [
              102.886084,
              11.799102
            ],
            [
              102.885609,
              11.798268
            ],
            [
              102.884753,
              11.79739
            ],
            [
              102.883992,
              11.796205
            ],
            [
              102.88171,
              11.791903
            ],
            [
              102.881472,
              11.791024
            ],
            [
              102.881472,
              11.790234
            ],
            [
              102.882186,
              11.789444
            ],
            [
              102.88889,
              11.788478
            ],
            [
              102.890506,
              11.787995
            ],
            [
              102.891742,
              11.787337
            ],
            [
              102.8932744,
              11.7857048
            ],
            [
              102.894595,
              11.781498
            ],
            [
              102.896259,
              11.779478
            ],
            [
              102.897733,
              11.777283
            ],
            [
              102.902583,
              11.771796
            ],
            [
              102.903867,
              11.769513
            ],
            [
              102.904865,
              11.767054
            ],
            [
              102.905674,
              11.764288
            ],
            [
              102.907385,
              11.757133
            ],
            [
              102.908146,
              11.755069
            ],
            [
              102.908621,
              11.752391
            ],
            [
              102.908621,
              11.750372
            ],
            [
              102.91076,
              11.746761
            ],
            [
              102.911331,
              11.745531
            ],
            [
              102.911378,
              11.743995
            ],
            [
              102.910617,
              11.740702
            ],
            [
              102.91057,
              11.73877
            ],
            [
              102.911236,
              11.73056
            ],
            [
              102.91076,
              11.723491
            ],
            [
              102.91057,
              11.717652
            ],
            [
              102.910665,
              11.714974
            ],
            [
              102.911331,
              11.709486
            ],
            [
              102.911378,
              11.705403
            ],
            [
              102.911901,
              11.703515
            ],
            [
              102.912091,
              11.702154
            ],
            [
              102.912044,
              11.699696
            ],
            [
              102.912329,
              11.696578
            ],
            [
              102.911473,
              11.693812
            ],
            [
              102.911473,
              11.688983
            ],
            [
              102.911664,
              11.687139
            ],
            [
              102.911188,
              11.681827
            ],
            [
              102.911426,
              11.6795
            ],
            [
              102.913042,
              11.676865
            ],
            [
              102.91328,
              11.675768
            ],
            [
              102.913042,
              11.674056
            ],
            [
              102.912472,
              11.672519
            ],
            [
              102.913708,
              11.66927
            ],
            [
              102.91366,
              11.667865
            ],
            [
              102.912757,
              11.664572
            ],
            [
              102.912757,
              11.660226
            ],
            [
              102.914136,
              11.655748
            ],
            [
              102.9141851,
              11.6551688
            ],
            [
              102.9138918,
              11.6546598
            ],
            [
              102.9131325,
              11.6539091
            ],
            [
              102.9097177,
              11.6509201
            ],
            [
              102.9088775,
              11.6504921
            ],
            [
              102.9046913,
              11.6394699
            ],
            [
              102.7569699,
              11.4017269
            ],
            [
              102.5895277,
              11.1556312
            ],
            [
              102.5877545,
              11.146457
            ],
            [
              102.5864153,
              11.1372114
            ],
            [
              102.5855127,
              11.1279142
            ],
            [
              102.584992,
              11.1154727
            ]
          ]
        ]
      }
    },
    {
      "type": "Feature",
      "properties": {
        "osm_id": -2067731,
        "boundary": "administrative",
        "admin_level": 2,
        "parents": null,
        "name": "Thailand",
        "local_name": "ประเทศไทย",
        "name_en": "Thailand",
        "all_tags": {
          "fee": "no",
          "flag": "http://upload.wikimedia.org/wikipedia/commons/a/a9/Flag_of_Thailand.svg",
          "name": "ประเทศไทย",
          "name:af": "Thailand",
          "name:am": "ታይላንድ",
          "name:an": "Tailandia",
          "name:ar": "تايلاند",
          "name:az": "Tailand",
          "name:ba": "Таиланд",
          "name:be": "Тайланд",
          "name:bg": "Тайланд",
          "name:bn": "থাইল্যান্ড",
          "name:bo": "ཐའི་ལེན།",
          "name:br": "Thailand",
          "name:bs": "Tajland",
          "name:ca": "Tailàndia",
          "name:ce": "Таиланд",
          "name:cs": "Thajsko",
          "name:cv": "Таиланд",
          "name:cy": "Gwlad Thai",
          "name:da": "Thailand",
          "name:de": "Thailand",
          "name:dv": "ސިޔާމު",
          "name:dz": "ཐཱའི་ལེནཌ",
          "name:el": "Ταϊλάνδη",
          "name:en": "Thailand",
          "name:eo": "Tajlando",
          "name:es": "Tailandia",
          "name:et": "Tai",
          "name:eu": "Thailandia",
          "name:fa": "تایلند",
          "name:fi": "Thaimaa",
          "name:fo": "Teiland",
          "name:fr": "Thaïlande",
          "name:fy": "Tailân",
          "name:ga": "An Téalainn",
          "name:gd": "Dùthaich nan Tàidh",
          "name:gl": "Tailandia",
          "name:gn": "Tailandia",
          "name:gu": "થાઇલેન્ડ",
          "name:gv": "Yn Çheer Thai",
          "name:he": "תאילנד",
          "name:hi": "थाईलैण्ड",
          "name:hr": "Tajland",
          "name:ht": "Tayilann",
          "name:hu": "Thaiföld",
          "name:hy": "Թաիլանդ",
          "name:ia": "Thailanda",
          "name:id": "Thailand",
          "name:ie": "Thailand",
          "name:io": "Tailando",
          "name:is": "Taíland",
          "name:it": "Thailandia",
          "name:ja": "タイ王国",
          "name:jv": "Thailand",
          "name:ka": "ტაილანდი",
          "name:ki": "Thailand",
          "name:kk": "Тайланд",
          "name:kl": "Thailandi",
          "name:km": "ថៃ",
          "name:kn": "ಥೈಲ್ಯಾಂಡ್",
          "name:ko": "태국",
          "name:ks": "تھائی لینڈ",
          "name:ku": "Taylenda",
          "name:kv": "Таиланд",
          "name:kw": "Pow Tay",
          "name:la": "Thailandia",
          "name:lb": "Thailand",
          "name:li": "Thailand",
          "name:lo": "ປະເທດໄທ",
          "name:lt": "Tailandas",
          "name:lv": "Taizeme",
          "name:mg": "Tailandy",
          "name:mi": "Tairana",
          "name:mk": "Тајланд",
          "name:ml": "തായ്‌ലാന്റ്",
          "name:mn": "Тайланд",
          "name:mr": "थायलंड",
          "name:ms": "Thailand",
          "name:my": "ထိုင်းနိုင်ငံ",
          "name:na": "Thailand",
          "name:ne": "थाइल्याण्ड",
          "name:nl": "Thailand",
          "name:nn": "Thailand",
          "name:no": "Thailand",
          "name:nv": "Tʼáí Bikéyah",
          "name:oc": "Tailàndia",
          "name:or": "ଥାଇଲାଣ୍ଡ",
          "name:os": "Таиланд",
          "name:pa": "ਥਾਈਲੈਂਡ",
          "name:pl": "Tajlandia",
          "name:ps": "تايلنډ",
          "name:pt": "Tailândia",
          "name:qu": "Thaysuyu",
          "name:ro": "Thailanda",
          "name:ru": "Таиланд",
          "name:rw": "Tayilande",
          "name:sa": "श्यामदेश",
          "name:sd": "ٿائيلينڊ",
          "name:se": "Thaieana",
          "name:sg": "Tailânde",
          "name:sh": "Tajland",
          "name:sk": "Thajsko",
          "name:sl": "Tajska",
          "name:so": "Tayland",
          "name:sq": "Tajlanda",
          "name:sr": "Тајланд",
          "name:ss": "IThayilandi",
          "name:su": "Thailand",
          "name:sv": "Thailand",
          "name:sw": "Uthai",
          "name:ta": "தாய்லாந்து",
          "name:te": "థాయిలాండ్",
          "name:tg": "Таиланд",
          "name:th": "ประเทศไทย",
          "name:tk": "Tailand",
          "name:tl": "Taylandiya",
          "name:tr": "Tayland",
          "name:tt": "Таиланд",
          "name:tw": "Thailand",
          "name:ug": "تايلاند",
          "name:uk": "Таїланд",
          "name:ur": "تھائی لینڈ",
          "name:uz": "Tailand",
          "name:vi": "Thái Lan",
          "name:vo": "Tayän",
          "name:wo": "Taaylaand",
          "name:yi": "טיילאנד",
          "name:yo": "Tháílàndì",
          "name:za": "Daigoz",
          "name:zh": "泰国 / 泰國",
          "boundary": "administrative",
          "name:als": "Thailand",
          "name:ang": "Thailand",
          "name:arz": "تايلاندا",
          "name:ast": "Tailandia",
          "name:azb": "تایلند",
          "name:bar": "Thailand",
          "name:bcl": "Tailandya",
          "name:bpy": "টাইলান্ডিয়া",
          "name:bug": "Thailand",
          "name:bxr": "Таиланд",
          "name:ceb": "Tailandya",
          "name:chr": "ᏔᏱᎦᏙᎯ",
          "name:ckb": "تایلەند",
          "name:crh": "Tayland",
          "name:csb": "Tajlandiô",
          "name:diq": "Taylanda",
          "name:dsb": "Thailandska",
          "name:ext": "Tailándia",
          "name:frp": "Tayilande",
          "name:fur": "Tailandie",
          "name:gag": "Tailand",
          "name:gan": "泰國",
          "name:hak": "Thai-koet",
          "name:haw": "Tailani",
          "name:hif": "Thailand",
          "name:hsb": "Thailandska",
          "name:ilo": "Tailandia",
          "name:jbo": "tais",
          "name:kbd": "Тайлэнд",
          "name:lez": "Таиланд",
          "name:lij": "Thailandia",
          "name:lmo": "Thailandia",
          "name:lrc": "تاؽلٱند",
          "name:lzh": "泰國",
          "name:mhr": "Таиланд",
          "name:min": "Thailand",
          "name:mzn": "تایلند",
          "name:nah": "Taitlālpan",
          "name:nan": "Thài-kok",
          "name:nds": "Thailand",
          "name:new": "थाइल्याण्ड",
          "name:nov": "Tailande",
          "name:pam": "Tailandya",
          "name:pap": "Thailand",
          "name:pih": "Tailan",
          "name:pms": "Thailandia",
          "name:pnb": "تھائی لینڈ",
          "name:rue": "Таїланд",
          "name:sah": "Тайлаан",
          "name:scn": "Thailandia",
          "name:sco": "Thailand",
          "name:srn": "Taikondre",
          "name:stq": "Thailound",
          "name:szl": "Tajlandyjŏ",
          "name:tpi": "Tailan",
          "name:tzl": "Taiphäts",
          "name:udm": "Таиланд",
          "name:vec": "Thailandia",
          "name:vro": "Tai",
          "name:war": "Taylandya",
          "name:wuu": "泰国",
          "name:xal": "Тагилмудин Нутг",
          "name:yue": "泰國",
          "name:zea": "Thailand",
          "timezone": "Asia/Bangkok",
          "way_area": "52.5396",
          "wikidata": "Q869",
          "ISO3166-1": "TH",
          "wikipedia": "en:Thailand",
          "admin_level": "2",
          "alt_name:eo": "Tajujo",
          "alt_name:ko": "타이",
          "name:nds-nl": "Thailaand",
          "driving_side": "left",
          "name:bat-smg": "Tailands",
          "name:kk-Arab": "تايلاند",
          "name:map-bms": "Thailand",
          "name:zh-Hans": "泰国",
          "name:zh-Hant": "泰國",
          "name:roa-tara": "Thailandie",
          "official_name": "ราชอาณาจักรไทย",
          "name:be-tarask": "Тайлянд",
          "ISO3166-1:alpha2": "TH",
          "ISO3166-1:alpha3": "THA",
          "default_language": "th",
          "official_name:ar": "مملكة تايلاند",
          "official_name:cs": "Thajské království",
          "official_name:en": "Kingdom of Thailand",
          "official_name:eo": "Tajlanda Reĝlando",
          "official_name:fa": "پادشاهی تایلند",
          "official_name:ko": "타이왕국",
          "official_name:pl": "Królestwo Tajlandii",
          "official_name:ur": "تمملکت تھائی لینڈ",
          "ISO3166-1:numeric": "764"
        }
      },
      "geometry": {
        "type": "Polygon",
        "coordinates": [
          [
            [
              102.04178485221716,
              12
            ],
            [
              102.0999113,
              11.8613407
            ],
            [
              102.2155919,
              11.6656313
            ],
            [
              102.3979556,
              11.4412885
            ],
            [
              102.5615507,
              11.3463991
            ],
            [
              102.7569699,
              11.4017269
            ],
            [
              102.9046913,
              11.6394699
            ],
            [
              102.9088775,
              11.6504921
            ],
            [
              102.9097177,
              11.6509201
            ],
            [
              102.9131325,
              11.6539091
            ],
            [
              102.9138918,
              11.6546598
            ],
            [
              102.9141851,
              11.6551688
            ],
            [
              102.914136,
              11.655748
            ],
            [
              102.912757,
              11.660226
            ],
            [
              102.912757,
              11.664572
            ],
            [
              102.91366,
              11.667865
            ],
            [
              102.913708,
              11.66927
            ],
            [
              102.912472,
              11.672519
            ],
            [
              102.913042,
              11.674056
            ],
            [
              102.91328,
              11.675768
            ],
            [
              102.913042,
              11.676865
            ],
            [
              102.911426,
              11.6795
            ],
            [
              102.911188,
              11.681827
            ],
            [
              102.911664,
              11.687139
            ],
            [
              102.911473,
              11.688983
            ],
            [
              102.911473,
              11.693812
            ],
            [
              102.912329,
              11.696578
            ],
            [
              102.912044,
              11.699696
            ],
            [
              102.912091,
              11.702154
            ],
            [
              102.911901,
              11.703515
            ],
            [
              102.911378,
              11.705403
            ],
            [
              102.911331,
              11.709486
            ],
            [
              102.910665,
              11.714974
            ],
            [
              102.91057,
              11.717652
            ],
            [
              102.91076,
              11.723491
            ],
            [
              102.911236,
              11.73056
            ],
            [
              102.91057,
              11.73877
            ],
            [
              102.910617,
              11.740702
            ],
            [
              102.911378,
              11.743995
            ],
            [
              102.911331,
              11.745531
            ],
            [
              102.91076,
              11.746761
            ],
            [
              102.908621,
              11.750372
            ],
            [
              102.908621,
              11.752391
            ],
            [
              102.908146,
              11.755069
            ],
            [
              102.907385,
              11.757133
            ],
            [
              102.906434,
              11.761479
            ],
            [
              102.904865,
              11.767054
            ],
            [
              102.903867,
              11.769513
            ],
            [
              102.902583,
              11.771796
            ],
            [
              102.897733,
              11.777283
            ],
            [
              102.896259,
              11.779478
            ],
            [
              102.894595,
              11.781498
            ],
            [
              102.8932744,
              11.7857048
            ],
            [
              102.891742,
              11.787337
            ],
            [
              102.890506,
              11.787995
            ],
            [
              102.88889,
              11.788478
            ],
            [
              102.882186,
              11.789444
            ],
            [
              102.881472,
              11.790234
            ],
            [
              102.881472,
              11.791024
            ],
            [
              102.88171,
              11.791903
            ],
            [
              102.883992,
              11.796205
            ],
            [
              102.884753,
              11.79739
            ],
            [
              102.885609,
              11.798268
            ],
            [
              102.886084,
              11.799102
            ],
            [
              102.885942,
              11.79941
            ],
            [
              102.885371,
              11.799585
            ],
            [
              102.882994,
              11.799673
            ],
            [
              102.881187,
              11.800068
            ],
            [
              102.876623,
              11.802834
            ],
            [
              102.8761,
              11.802922
            ],
            [
              102.874768,
              11.802527
            ],
            [
              102.874245,
              11.802702
            ],
            [
              102.872629,
              11.803712
            ],
            [
              102.86892,
              11.80481
            ],
            [
              102.867351,
              11.805556
            ],
            [
              102.866638,
              11.806346
            ],
            [
              102.865307,
              11.809024
            ],
            [
              102.863595,
              11.811395
            ],
            [
              102.862882,
              11.8128
            ],
            [
              102.863025,
              11.813458
            ],
            [
              102.864261,
              11.814643
            ],
            [
              102.864451,
              11.815302
            ],
            [
              102.863975,
              11.81697
            ],
            [
              102.8621275,
              11.8193397
            ],
            [
              102.8627143,
              11.8213113
            ],
            [
              102.8624796,
              11.8221093
            ],
            [
              102.8616111,
              11.8232829
            ],
            [
              102.8604368,
              11.8242135
            ],
            [
              102.8567248,
              11.8254127
            ],
            [
              102.854514,
              11.825312
            ],
            [
              102.8510411,
              11.826655
            ],
            [
              102.8484683,
              11.8305365
            ],
            [
              102.8479359,
              11.8319116
            ],
            [
              102.847001,
              11.838087
            ],
            [
              102.8469157,
              11.8403621
            ],
            [
              102.8462059,
              11.8432012
            ],
            [
              102.845718,
              11.844277
            ],
            [
              102.843198,
              11.846472
            ],
            [
              102.839929,
              11.8486352
            ],
            [
              102.8366242,
              11.8505649
            ],
            [
              102.8354043,
              11.8520066
            ],
            [
              102.8327871,
              11.8563095
            ],
            [
              102.8314785,
              11.8592816
            ],
            [
              102.8305026,
              11.863407
            ],
            [
              102.82979,
              11.864911
            ],
            [
              102.829124,
              11.867852
            ],
            [
              102.828649,
              11.86873
            ],
            [
              102.826224,
              11.871979
            ],
            [
              102.824037,
              11.878827
            ],
            [
              102.822705,
              11.884096
            ],
            [
              102.8202555,
              11.889668
            ],
            [
              102.8192795,
              11.8927066
            ],
            [
              102.8199228,
              11.8942148
            ],
            [
              102.821089,
              11.895905
            ],
            [
              102.821279,
              11.896608
            ],
            [
              102.820994,
              11.901964
            ],
            [
              102.821136,
              11.903368
            ],
            [
              102.821612,
              11.904729
            ],
            [
              102.82242,
              11.90631
            ],
            [
              102.822515,
              11.907188
            ],
            [
              102.822182,
              11.908154
            ],
            [
              102.821279,
              11.909251
            ],
            [
              102.818592,
              11.9112712
            ],
            [
              102.8180597,
              11.9118478
            ],
            [
              102.8179931,
              11.912735
            ],
            [
              102.8192574,
              11.9146647
            ],
            [
              102.8194348,
              11.915441
            ],
            [
              102.8194126,
              11.9162173
            ],
            [
              102.8190799,
              11.9168383
            ],
            [
              102.816287,
              11.919217
            ],
            [
              102.814432,
              11.921368
            ],
            [
              102.813767,
              11.922422
            ],
            [
              102.813481,
              11.923519
            ],
            [
              102.813624,
              11.926417
            ],
            [
              102.814908,
              11.928348
            ],
            [
              102.815668,
              11.930236
            ],
            [
              102.8151763,
              11.9335398
            ],
            [
              102.8129805,
              11.937266
            ],
            [
              102.8104741,
              11.9410809
            ],
            [
              102.8095648,
              11.9442304
            ],
            [
              102.808632,
              11.945382
            ],
            [
              102.8048405,
              11.9471138
            ],
            [
              102.801642,
              11.948016
            ],
            [
              102.800977,
              11.948499
            ],
            [
              102.7998278,
              11.9497532
            ],
            [
              102.7984748,
              11.9529028
            ],
            [
              102.796555,
              11.956401
            ],
            [
              102.796127,
              11.958157
            ],
            [
              102.7963456,
              11.9595789
            ],
            [
              102.7970775,
              11.9608432
            ],
            [
              102.7972771,
              11.9616195
            ],
            [
              102.797078,
              11.962416
            ],
            [
              102.796412,
              11.96303
            ],
            [
              102.795081,
              11.965269
            ],
            [
              102.794061,
              11.9684952
            ],
            [
              102.7931517,
              11.9706467
            ],
            [
              102.7919096,
              11.9731974
            ],
            [
              102.7901352,
              11.9754153
            ],
            [
              102.789248,
              11.9772341
            ],
            [
              102.7889,
              11.977342
            ],
            [
              102.784763,
              11.976728
            ],
            [
              102.784431,
              11.977474
            ],
            [
              102.784668,
              11.978045
            ],
            [
              102.784621,
              11.978352
            ],
            [
              102.782909,
              11.983357
            ],
            [
              102.780912,
              11.988362
            ],
            [
              102.779961,
              11.991347
            ],
            [
              102.780389,
              11.99262
            ],
            [
              102.780389,
              11.993762
            ],
            [
              102.778011,
              11.999947
            ],
            [
              102.77800012985438,
              12
            ],
            [
              102.04178485221716,
              12
            ]
          ]
        ]
      }
    }
  ]
}