{
  "type": "FeatureCollection",
  "features": [
    {
      "type": "Feature",
      "properties": {
        "osm_id": -304751,
        "boundary": "administrative",
        "admin_level": 2,
        "parents": null,
        "name": "Indonesia",
        "local_name": "Indonesia",
        "name_en": "Indonesia",
        "all_tags": {
          "ref": "ID",
          "flag": "http://upload.wikimedia.org/wikipedia/commons/9/9f/Flag_of_Indonesia.svg",
          "name": "Indonesia",
          "name:af": "Indonesië",
          "name:ak": "Indonesia",
          "name:am": "ኢንዶኔዥያ",
          "name:an": "Indonesia",
          "name:ar": "إندونيسيا",
          "name:ay": "Indunisya",
          "name:az": "İndoneziya",
          "name:ba": "Индонезия",
          "name:be": "Інданезія",
          "name:bg": "Индонезия",
          "name:bi": "Indonesia",
          "name:bn": "ইন্দোনেশিয়া",
          "name:bo": "ཨིན་རྡུ་ནི་ཤིས་ཡ།",
          "name:br": "Indonezia",
          "name:bs": "Indonezija",
          "name:ca": "Indonèsia",
          "name:ce": "Индонези",
          "name:ch": "Indonesia",
          "name:co": "Indunesia",
          "name:cs": "Indonésie",
          "name:cu": "Їндонисїꙗ",
          "name:cv": "Индонези",
          "name:cy": "Indonesia",
          "name:da": "Indonesien",
          "name:de": "Indonesien",
          "name:dv": "އިންޑޮނޭޝިޔާ",
          "name:el": "Ινδονησία",
          "name:en": "Indonesia",
          "name:eo": "Indonezio",
          "name:es": "Indonesia",
          "name:et": "Indoneesia",
          "name:eu": "Indonesia",
          "name:fa": "اندونزی",
          "name:fi": "Indonesia",
          "name:fo": "Indonesia",
          "name:fr": "Indonésie",
          "name:fy": "Yndoneezje",
          "name:ga": "An Indinéis",
          "name:gd": "An Innd-Innse",
          "name:gl": "Indonesia",
          "name:gn": "Indonesia",
          "name:gu": "ઈંડોનેશિયા",
          "name:gv": "Yn Indoneesh",
          "name:he": "אינדונזיה",
          "name:hi": "इंडोनेशिया",
          "name:hr": "Indonezija",
          "name:ht": "Endonezi",
          "name:hu": "Indonézia",
          "name:hy": "Ինդոնեզիա",
          "name:ia": "Indonesia",
          "name:id": "Indonesia",
          "name:ie": "Indonesia",
          "name:io": "Indonezia",
          "name:is": "Indónesía",
          "name:it": "Indonesia",
          "name:iu": "ᐄᓅᓯᐊ",
          "name:ja": "インドネシア",
          "name:jv": "Indonésia",
          "name:ka": "ინდონეზია",
          "name:ki": "Indonesia",
          "name:kk": "Индонезия",
          "name:kl": "Indonesia",
          "name:km": "ឥណ្ឌូនេស៊ី",
          "name:kn": "ಇಂಡೋನೇಷ್ಯಾ",
          "name:ko": "인도네시아",
          "name:ku": "Îndonezya",
          "name:kv": "Индонезия",
          "name:kw": "Indonesi",
          "name:ky": "Индонезия",
          "name:la": "Indonesia",
          "name:lb": "Indonesien",
          "name:li": "Indonesië",
          "name:ln": "Indonezí",
          "name:lt": "Indonezija",
          "name:lv": "Indonēzija",
          "name:mg": "Indonezia",
          "name:mi": "Initonīhia",
          "name:mk": "Индонезија",
          "name:ml": "ഇന്തോനേഷ്യ",
          "name:mn": "Индонез",
          "name:mr": "इंडोनेशिया",
          "name:ms": "Indonesia",
          "name:mt": "Indoneżja",
          "name:my": "အင်ဒိုနီးရှားနိုင်ငံ",
          "name:na": "Indonitsiya",
          "name:ne": "इण्डोनेशिया",
          "name:nl": "Indonesië",
          "name:nn": "Indonesia",
          "name:no": "Indonesia",
          "name:nv": "Indoníízha",
          "name:oc": "Indonesia",
          "name:om": "Indoneeshiyaa",
          "name:or": "ଇଣ୍ଡୋନେସିଆ",
          "name:os": "Индонези",
          "name:pa": "ਇੰਡੋਨੇਸ਼ੀਆ",
          "name:pl": "Indonezja",
          "name:ps": "اندونيزيا",
          "name:pt": "Indonésia",
          "name:qu": "Indunisya",
          "name:rm": "Indonesia",
          "name:ro": "Indonezia",
          "name:ru": "Индонезия",
          "name:rw": "Indonesiya",
          "name:sa": "इण्डोनेशिया",
          "name:se": "Indonesia",
          "name:sg": "Ênndonezïi",
          "name:sh": "Indonezija",
          "name:si": "ඉන්දුනීසියාව",
          "name:sk": "Indonézia",
          "name:sl": "Indonezija",
          "name:sm": "Indyunisia",
          "name:so": "Indunisiya",
          "name:sq": "Indonezia",
          "name:sr": "Индонезија",
          "name:ss": "INdonesiya",
          "name:su": "Indonésia",
          "name:sv": "Indonesien",
          "name:sw": "Indonesia",
          "name:ta": "இந்தோனேசியா",
          "name:te": "ఇండోనేషియా",
          "name:tg": "Индонезия",
          "name:th": "ประเทศอินโดนีเซีย",
          "name:tk": "Indoneziýa",
          "name:tl": "Indonesya",
          "name:tr": "Endonezya",
          "name:tt": "Индонезия",
          "name:ug": "ھىندونېزىيە",
          "name:uk": "Індонезія",
          "name:ur": "انڈونیشیا",
          "name:uz": "Indoneziya",
          "name:vi": "Indonesia",
          "name:vo": "Lindäna-Seänuäns",
          "name:wa": "Indonezeye",
          "name:wo": "Endoneesi",
          "name:yi": "אינדאנעזיע",
          "name:yo": "Indonésíà",
          "name:za": "Yindunizsihya",
          "name:zh": "印度尼西亚 / 印度尼西亞",
          "alt_name": "Negara Kesatuan Republik Indonesia",
          "boundary": "administrative",
          "name:als": "Indonesien",
          "name:ang": "Indonesia",
          "name:arz": "اندونيسيا",
          "name:ast": "Indonesia",
          "name:bar": "Indonesien",
          "name:bcl": "Indonesya",
          "name:bjn": "Indunisia",
          "name:bpy": "ইন্দোনেশিয়া",
          "name:bug": "Indonesia",
          "name:bxr": "Индонези",
          "name:ceb": "Indonesia",
          "name:chr": "ᎢᏂᏙᏂᏍᏯ",
          "name:ckb": "ئیندۆنیزیا",
          "name:crh": "İndoneziya",
          "name:csb": "Jindonezjô",
          "name:diq": "İndonezya",
          "name:dsb": "Indoneziska",
          "name:ext": "Indonésia",
          "name:frp": "Endonèsie",
          "name:frr": "Indoneesien",
          "name:fur": "Indonesie",
          "name:gag": "İndoneziya",
          "name:gan": "印度尼西亞",
          "name:hak": "Yin-thu-nì-sî-â",
          "name:haw": "‘Inidonesia",
          "name:hif": "Indonesia",
          "name:hsb": "Indoneska",
          "name:ilo": "Indonesia",
          "name:jbo": "bidgu'e",
          "name:kbd": "Индонезиэ",
          "name:lez": "Индонезия",
          "name:lij": "Indonexia",
          "name:lmo": "Indunesia",
          "name:lrc": "ٱندونزی",
          "name:lzh": "印度尼西亞",
          "name:mhr": "Индонезий",
          "name:min": "Indonesia",
          "name:mrj": "Индонези",
          "name:mzn": "اندونزی",
          "name:nah": "Indonesia",
          "name:nan": "Ìn-nî",
          "name:nap": "Indonesia",
          "name:nds": "Indonesien",
          "name:new": "इन्दोनेसिया",
          "name:nov": "Indonesia",
          "name:pag": "Indonesiya",
          "name:pam": "Indonesia",
          "name:pap": "Indonesia",
          "name:pih": "Endonesya",
          "name:pms": "Indonesia",
          "name:pnb": "انڈونیشیا",
          "name:rue": "Індонезія",
          "name:sah": "Индонезия",
          "name:scn": "Indunesia",
          "name:sco": "Indonesie",
          "name:smn": "Indonesia",
          "name:sms": "Indonesia",
          "name:srn": "Indonesikondre",
          "name:stq": "Indonesien",
          "name:szl": "Indōnezyjŏ",
          "name:tet": "Indonézia",
          "name:tok": "ma Intonesija",
          "name:tpi": "Indonisia",
          "name:tzl": "Indonesía",
          "name:udm": "Индонезия",
          "name:vec": "Indonexia",
          "name:vep": "Indonezii",
          "name:vro": "Indoneesiä",
          "name:war": "Indonesia",
          "name:wuu": "印度尼西亚",
          "name:xal": "Эндонесин Орн",
          "name:yue": "印尼",
          "name:zea": "Indonesië",
          "way_area": "428.9",
          "wikidata": "Q252",
          "ISO3166-1": "ID",
          "wikipedia": "id:Indonesia",
          "population": "270203917",
          "short_name": "NKRI",
          "admin_level": "2",
          "border_type": "nation",
          "name:nds-nl": "Indonezie",
          "name:simple": "Indonesia",
          "driving_side": "left",
          "name:bat-smg": "Induonezėjė",
          "name:cbk-zam": "Indonesia",
          "name:map-bms": "Indonesia",
          "name:zh-Hans": "印度尼西亚",
          "name:zh-Hant": "印度尼西亞",
          "name:roa-tara": "Indonesie",
          "official_name": "Republik Indonesia",
          "name:be-tarask": "Інданэзія",
          "ISO3166-1:alpha2": "ID",
          "ISO3166-1:alpha3": "IDN",
          "default_language": "id",
          "official_name:ar": "جمهورية إندونيسيا",
          "official_name:cs": "Indonéská republika",
          "official_name:de": "Republik Indonesien",
          "official_name:en": "Republic of Indonesia",
          "official_name:es": "República de Indonesia",
          "official_name:fa": "جمهوری اندونزی",
          "official_name:ku": "Komara Îndonezya",
          "official_name:ru": "Республика Индонезия",
          "official_name:ur": "جمہوریہ انڈونیشیا",
          "official_name:zh": "印度尼西亚共和国 / 印度尼西亞共和國",
          "ISO3166-1:numeric": "360",
          "official_name:bjn": "Ripublik Indunisia",
          "official_name:ckb": "کۆماری ئیندۆنیزیا",
          "official_name:zh-Hans": "印度尼西亚共和国",
          "official_name:zh-Hant": "印度尼西亞共和國",
          "population:census:2020": "https://en.wikipedia.org/wiki/Indonesia#cite_note-2020census-8"
        }
      },
      "geometry": {
        "type": "Polygon",
        "coordinates": [
          [
            [
              102,
              2
            ],
            [
              102.117402447691,
              2
            ],
            [
              102.1158593,
              2.0011654
            ],
            [
              102,
              2.0880112093033985
            ],
            [
              102,
              2
            ]
          ]
        ]
      }
    },
    {
      "type": "Feature",
      "properties": {
        "osm_id": -2108121,
        "boundary": "administrative",
        "admin_level": 2,
        "parents": null,
        "name": "Malaysia",
        "local_name": "Malaysia",
        "name_en": "Malaysia",
        "all_tags": {
          "flag": "http://upload.wikimedia.org/wikipedia/commons/6/66/Flag_of_Malaysia.svg",
          "name": "Malaysia",
          "name:am": "ማሌዢያ",
          "name:an": "Malaisia",
          "name:ar": "ماليزيا",
          "name:az": "Malayziya",
          "name:ba": "Малайзия",
          "name:be": "Малайзія",
          "name:bg": "Малайзия",
          "name:bn": "মালয়েশিয়া",
          "name:bo": "མ་ལ་ཤི་ཡ།",
          "name:br": "Malaysia",
          "name:bs": "Malezija",
          "name:ca": "Malàisia",
          "name:ce": "Малайзи",
          "name:cs": "Malajsie",
          "name:cv": "Малайзи",
          "name:cy": "Malaysia",
          "name:da": "Malaysia",
          "name:de": "Malaysia",
          "name:dv": "މެލޭޝިޔާ",
          "name:dz": "མ་ལེ་ཤི་ཡ་",
          "name:el": "Μαλαισία",
          "name:en": "Malaysia",
          "name:eo": "Malajzio",
          "name:es": "Malasia",
          "name:et": "Malaisia",
          "name:eu": "Malaysia",
          "name:fa": "مالزی",
          "name:fi": "Malesia",
          "name:fo": "Maleisia",
          "name:fr": "Malaisie",
          "name:fy": "Maleizje",
          "name:ga": "An Mhalaeisia",
          "name:gd": "Malaidhsia",
          "name:gl": "Malaisia",
          "name:gn": "Malásia",
          "name:gu": "મલેશિયા",
          "name:gv": "Yn Valaysia",
          "name:he": "מלזיה",
          "name:hi": "मलेशिया",
          "name:hr": "Malezija",
          "name:ht": "Malezi",
          "name:hu": "Malajzia",
          "name:hy": "Մալազիա",
          "name:ia": "Malaysia",
          "name:id": "Malaysia",
          "name:ie": "Malaysia",
          "name:io": "Malaizia",
          "name:is": "Malasía",
          "name:it": "Malesia",
          "name:ja": "マレーシア",
          "name:jv": "Malaysia",
          "name:ka": "მალაიზია",
          "name:ki": "Malaysia",
          "name:kk": "Малайзия",
          "name:km": "ម៉ាឡេស៊ី",
          "name:kn": "ಮಲೇಶಿಯ",
          "name:ko": "말레이시아",
          "name:ku": "Malezya",
          "name:kv": "Малайзия",
          "name:kw": "Malaysi",
          "name:ky": "Малайзия",
          "name:la": "Malaesia",
          "name:lb": "Malaysia",
          "name:li": "Maleisië",
          "name:lo": "ປະເທດມາເລເຊຍ",
          "name:lt": "Malaizija",
          "name:lv": "Malaizija",
          "name:mi": "Marēhia",
          "name:mk": "Малезија",
          "name:ml": "മലേഷ്യ",
          "name:mn": "Малайз",
          "name:mr": "मलेशिया",
          "name:ms": "Maleisië",
          "name:mt": "Malażja",
          "name:my": "မလေးရှားနိုင်ငံ",
          "name:na": "Maraidja",
          "name:ne": "मलेशिया",
          "name:nl": "Maleisië",
          "name:nn": "Malaysia",
          "name:no": "Malaysia",
          "name:nv": "Maléízha",
          "name:oc": "Malàisia",
          "name:or": "ମାଲେସିଆ",
          "name:os": "Малайзи",
          "name:pa": "ਮਲੇਸ਼ੀਆ",
          "name:pl": "Malezja",
          "name:pt": "Malásia",
          "name:qu": "Malasya",
          "name:ro": "Malaezia",
          "name:ru": "Малайзия",
          "name:rw": "Malesiya",
          "name:sa": "मलयेशिया",
          "name:se": "Malesia",
          "name:sg": "Malezïi",
          "name:sh": "Malezija",
          "name:sk": "Malajzia",
          "name:sl": "Malezija",
          "name:so": "Malaysiya",
          "name:sq": "Malajzia",
          "name:sr": "Малезија",
          "name:ss": "IMaleshiya",
          "name:su": "Malaysia",
          "name:sv": "Malaysia",
          "name:sw": "Malaysia",
          "name:ta": "மலேசியா",
          "name:te": "మలేషియా",
          "name:tg": "Малайзия",
          "name:th": "ประเทศมาเลเซีย",
          "name:tk": "Malaýziýa",
          "name:tl": "Malasya",
          "name:tr": "Malezya",
          "name:tt": "Малайзия",
          "name:tw": "Malaysia",
          "name:ug": "مالايسىيا",
          "name:uk": "Малайзія",
          "name:ur": "ملائیشیا",
          "name:uz": "Malayziya",
          "name:vi": "Malaysia",
          "name:vo": "Malaysiyän",
          "name:wo": "Maleesi",
          "name:yi": "מאלייזיע",
          "name:yo": "Malaysia",
          "name:za": "Majlaizsihya",
          "name:zh": "马来西亚",
          "boundary": "administrative",
          "name:als": "Malaysia",
          "name:arz": "ماليزيا",
          "name:ast": "Malasia",
          "name:bar": "Malaysia",
          "name:bcl": "Malasya",
          "name:bjn": "Malaysia",
          "name:bpy": "মালয়েশিয়া",
          "name:bug": "Malaysia",
          "name:bxr": "Малайзи",
          "name:cdo": "Mā-lài-să̤-ā",
          "name:ceb": "Malasya",
          "name:ckb": "مالیزیا",
          "name:crh": "Malayziya",
          "name:csb": "Malezjô",
          "name:diq": "Malêzya",
          "name:dsb": "Malayzija",
          "name:ext": "Malásia",
          "name:frp": "Malèsie",
          "name:gag": "Malayziya",
          "name:gan": "馬來西亞",
          "name:hak": "Mâ-lòi-sî-â",
          "name:haw": "Malaisia",
          "name:hif": "Malaysia",
          "name:hsb": "Malajzija",
          "name:ilo": "Malaysia",
          "name:jbo": "mejgu'e",
          "name:kbd": "Мэлайзиэ",
          "name:lij": "Malaysia",
          "name:lmo": "Malaysia",
          "name:lzh": "馬來西亞",
          "name:mhr": "Малайзий",
          "name:min": "Malaysia",
          "name:nah": "Malasia",
          "name:nan": "Má-lâi-se-a",
          "name:nds": "Malaysia",
          "name:new": "मलेसिया",
          "name:nov": "Malaysia",
          "name:pag": "Malasia",
          "name:pam": "Malasya",
          "name:pap": "Malaysia",
          "name:pih": "Melasya",
          "name:pms": "Malaysia",
          "name:pnb": "ملائشیا",
          "name:sah": "Малайзия",
          "name:scn": "Malesia",
          "name:sco": "Malaysie",
          "name:smn": "Malesia",
          "name:sms": "Malesia",
          "name:szl": "Malezyjŏ",
          "name:tet": "Malázia",
          "name:tzl": "Malaiçía",
          "name:udm": "Малайзия",
          "name:vro": "Malaisia",
          "name:war": "Malaysia",
          "name:wuu": "马来西亚",
          "name:xal": "Малаймудин Орн",
          "name:yue": "馬來西亞",
          "way_area": "41.0891",
          "wikidata": "Q833",
          "ISO3166-1": "MY",
          "wikipedia": "en:Malaysia",
          "admin_level": "2",
          "border_type": "nation",
          "name:nan-HJ": "马来西亚",
          "name:nan-TL": "Má-lâi-se-a",
          "name:simple": "Malaysia",
          "driving_side": "left",
          "name:bat-smg": "Malaizėjė",
          "name:cbk-zam": "Malasia",
          "name:map-bms": "Malaysia",
          "name:nan-POJ": "Má-lâi-se-a",
          "name:zh-Hans": "马来西亚",
          "name:zh-Hant": "馬來西亞",
          "name:be-tarask": "Малайзія",
          "ISO3166-1:alpha2": "MY",
          "ISO3166-1:alpha3": "MYS",
          "official_name:ru": "Федерация Малайзия",
          "ISO3166-1:numeric": "458"
        }
      },
      "geometry": {
        "type": "Polygon",
        "coordinates": [
          [
            [
              102,
              2.0880112093033985
            ],
            [
              102.1158593,
              2.0011654
            ],
            [
              102.117402447691,
              2
            ],
            [
              103,
              2
            ],
            [
              103,
              3
            ],
            [
              102,
              3
            ],
            [
              102,
              2.0880112093033985
            ]
          ]
        ]
      }
    }
  ]
}