{
  "type": "FeatureCollection",
  "features": [
    {
      "type": "Feature",
      "properties": {
        "osm_id": -192758,
        "boundary": "administrative",
        "admin_level": 2,
        "parents": null,
        "name": "Libya",
        "local_name": "ليبيا",
        "name_en": "Libya",
        "all_tags": {
          "flag": "http://upload.wikimedia.org/wikipedia/commons/0/05/Flag_of_Libya.svg",
          "name": "ليبيا",
          "name:af": "Libië",
          "name:am": "ሊቢያ",
          "name:an": "Libia",
          "name:ar": "ليبيا",
          "name:az": "Liviya",
          "name:ba": "Ливия",
          "name:be": "Лівія",
          "name:bg": "Либия",
          "name:bm": "Libya",
          "name:bn": "লিবিয়া",
          "name:bo": "ལི་པི་ཡ།",
          "name:br": "Libia",
          "name:bs": "Libija",
          "name:ca": "Líbia",
          "name:ce": "Ливи",
          "name:cs": "Libye",
          "name:cv": "Ливи",
          "name:cy": "Libya",
          "name:da": "Libyen",
          "name:de": "Libyen",
          "name:dv": "ލީބިޔާ",
          "name:ee": "Libya",
          "name:el": "Λιβύη",
          "name:en": "Libya",
          "name:eo": "Libio",
          "name:es": "Libia",
          "name:et": "Liibüa",
          "name:eu": "Libia",
          "name:fa": "لیبی",
          "name:fi": "Libya",
          "name:fo": "Libya",
          "name:fr": "Libye",
          "name:fy": "Lybje",
          "name:ga": "An Libia",
          "name:gd": "Libia",
          "name:gl": "Libia",
          "name:gn": "Livia",
          "name:gv": "Yn Leeb",
          "name:ha": "Libya",
          "name:he": "לוב",
          "name:hi": "लीबिया",
          "name:hr": "Libija",
          "name:ht": "Libi",
          "name:hu": "Líbia",
          "name:hy": "Լիբիա",
          "name:ia": "Libya",
          "name:id": "Libya",
          "name:ie": "Libya",
          "name:io": "Libia",
          "name:is": "Líbýa",
          "name:it": "Libia",
          "name:ja": "リビア",
          "name:jv": "Libya",
          "name:ka": "ლიბია",
          "name:kg": "Libia",
          "name:kk": "Ливия",
          "name:kl": "Libya",
          "name:kn": "ಲಿಬಿಯಾ",
          "name:ko": "리비아",
          "name:ks": "لِبیا",
          "name:ku": "Lîbya",
          "name:kw": "Libi",
          "name:ky": "Ливия",
          "name:la": "Libya",
          "name:lb": "Libyen",
          "name:li": "Libië",
          "name:ln": "Libîya",
          "name:lt": "Libija",
          "name:lv": "Lībija",
          "name:mg": "Libia",
          "name:mi": "Rīpia",
          "name:mk": "Либија",
          "name:ml": "ലിബിയ",
          "name:mn": "Ливи",
          "name:mr": "लीबिया",
          "name:ms": "Libya",
          "name:mt": "Libja",
          "name:my": "လစ်ဗျားနိုင်ငံ",
          "name:ne": "लिबिया",
          "name:nl": "Libië",
          "name:nn": "Libya",
          "name:no": "Libya",
          "name:nv": "Łíbya",
          "name:oc": "Libia",
          "name:or": "ଲିବିଆ",
          "name:os": "Ливи",
          "name:pa": "ਲੀਬੀਆ",
          "name:pl": "Libia",
          "name:ps": "لېبيا",
          "name:pt": "Líbia",
          "name:qu": "Libya",
          "name:ro": "Libia",
          "name:ru": "Ливия",
          "name:rw": "Libiya",
          "name:sa": "लिबिया",
          "name:sc": "Lìbia",
          "name:se": "Libya",
          "name:sg": "Libïi",
          "name:sh": "Libija",
          "name:si": "ලිබියාව",
          "name:sk": "Líbya",
          "name:sl": "Libija",
          "name:sm": "Libya",
          "name:sn": "Libya",
          "name:so": "Libiya",
          "name:sq": "Libia",
          "name:sr": "Либија",
          "name:ss": "ILibhiya",
          "name:su": "Libya",
          "name:sv": "Libyen",
          "name:sw": "Libya",
          "name:ta": "லிபியா",
          "name:te": "లిబియా",
          "name:tg": "Либия",
          "name:th": "ประเทศลิเบีย",
          "name:ti": "ሊቢያ",
          "name:tk": "Liwiýa",
          "name:tl": "Libya",
          "name:tr": "Libya",
          "name:ts": "Libiya",
          "name:tt": "Ливия",
          "name:ug": "لىۋىيە",
          "name:uk": "Лівія",
          "name:ur": "لیبیا",
          "name:uz": "Liviya",
          "name:vi": "Libya",
          "name:vo": "Lübän",
          "name:wa": "Libeye",
          "name:wo": "Libi",
          "name:yi": "ליביע",
          "name:yo": "Líbyà",
          "name:zh": "利比亚 / 利比亞",
          "name:zu": "ILibiya",
          "boundary": "administrative",
          "name:ace": "Libya",
          "name:als": "Libyen",
          "name:ang": "Libia",
          "name:arc": "ܠܘܒܐ",
          "name:arz": "ليبيا",
          "name:ast": "Libia",
          "name:bar": "Libyen",
          "name:bcl": "Libya",
          "name:ber": "ⵍⵉⴱⵢⴰ",
          "name:bjn": "Libya",
          "name:bpy": "লিবিয়া",
          "name:bug": "Libya",
          "name:bxr": "Ливи",
          "name:ceb": "Libya",
          "name:ckb": "لیبیا",
          "name:cop": "ⲧⲉⲙⲫⲁⲓⲁⲧ",
          "name:crh": "Libiya",
          "name:din": "Libya",
          "name:diq": "Libya",
          "name:dsb": "Libyska",
          "name:ext": "Líbia",
          "name:frp": "Libie",
          "name:frr": "Libyen",
          "name:gag": "Liviya",
          "name:hak": "Libya",
          "name:hif": "Libya",
          "name:hsb": "Libyska",
          "name:ilo": "Libya",
          "name:jbo": "libgu'e",
          "name:kab": "Libya",
          "name:lad": "Libya",
          "name:lij": "Libia",
          "name:lmo": "Libia",
          "name:lzh": "利比亞",
          "name:mdf": "Ливие",
          "name:min": "Libya",
          "name:mrj": "Ливи",
          "name:mzn": "لیبی",
          "name:nah": "Libia",
          "name:nan": "Libya",
          "name:nap": "Libbia",
          "name:nds": "Libyen",
          "name:new": "लिब्या",
          "name:nov": "Libia",
          "name:nso": "Libya",
          "name:pag": "Libia",
          "name:pam": "Libya",
          "name:pap": "Libia",
          "name:pfl": "Libye",
          "name:pih": "Libiia",
          "name:pms": "Libia",
          "name:pnb": "لبیا",
          "name:rue": "Лібія",
          "name:sah": "Лиибийэ",
          "name:scn": "Libbia",
          "name:sco": "Libie",
          "name:smn": "Libya",
          "name:sms": "Libya",
          "name:stq": "Libyen",
          "name:szl": "Libijo",
          "name:tzl": "Libia",
          "name:vec": "Łibia",
          "name:vls": "Libië",
          "name:vro": "Liibüä",
          "name:war": "Libya",
          "name:xal": "Либудин Аһу Социгализмин Араб Улс Орн",
          "name:xmf": "ლიბია",
          "name:yue": "利比亞",
          "name:zea": "Libië",
          "name:zgh": "ⵍⵉⴱⵢⴰ",
          "timezone": "Africa/Tripoli",
          "way_area": "157.672",
          "wikidata": "Q1016",
          "ISO3166-1": "LY",
          "wikipedia": "ar:ليبيا",
          "admin_level": "2",
          "alt_name:vi": "Libi",
          "name:nds-nl": "Libië",
          "name:simple": "Libya",
          "name:bat-smg": "Lėbėjė",
          "name:cbk-zam": "Libya",
          "name:ku-Arab": "لیبیا",
          "name:map-bms": "Libya",
          "name:zh-Hans": "利比亚",
          "name:zh-Hant": "利比亞",
          "official_name": "دولة ليبيا",
          "name:be-tarask": "Лібія",
          "ISO3166-1:alpha2": "LY",
          "ISO3166-1:alpha3": "LBY",
          "default_language": "ar",
          "official_name:ar": "دولة ليبيا",
          "official_name:cs": "Libyjský stát",
          "official_name:fa": "دولت لیبی",
          "official_name:ur": "ریاست لیبیا",
          "ISO3166-1:numeric": "434"
        }
      },
      "geometry": {
        "type": "Polygon",
        "coordinates": [
          [
            [
              11.519662,
              33.0123589
            ],
            [
              11.523472735223933,
              33
            ],
            [
              12,
              33
            ],
            [
              12,
              33.23281074423648
            ],
            [
              11.9962862,
              33.2344834
            ],
            [
              11.975213,
              33.2429118
            ],
            [
              11.9641374,
              33.249745
            ],
            [
              11.9586826,
              33.2527838
            ],
            [
              11.9531318,
              33.2557748
            ],
            [
              11.9399094,
              33.2621003
            ],
            [
              11.9302218,
              33.2661635
            ],
            [
              11.9203342,
              33.2698619
            ],
            [
              11.9091032,
              33.2734978
            ],
            [
              11.9004561,
              33.2759455
            ],
            [
              11.8906111,
              33.2783525
            ],
            [
              11.8794046,
              33.2806603
            ],
            [
              11.8732188,
              33.2817077
            ],
            [
              11.7888749,
              33.3151346
            ],
            [
              11.7793654,
              33.3186209
            ],
            [
              11.7697303,
              33.3217209
            ],
            [
              11.7558163,
              33.3255389
            ],
            [
              11.7409135,
              33.3287644
            ],
            [
              11.7348924,
              33.3298244
            ],
            [
              11.7251997,
              33.331257
            ],
            [
              11.7152417,
              33.3323598
            ],
            [
              11.708759,
              33.332901
            ],
            [
              11.69802,
              33.3394122
            ],
            [
              11.6859814,
              33.3460372
            ],
            [
              11.677361,
              33.3502571
            ],
            [
              11.6675779,
              33.3545898
            ],
            [
              11.5893981,
              33.2223349
            ],
            [
              11.5653038,
              33.1719998
            ],
            [
              11.5615932,
              33.1668144
            ],
            [
              11.5613541,
              33.1629958
            ],
            [
              11.5593116,
              33.1482892
            ],
            [
              11.5594572,
              33.1478327
            ],
            [
              11.5595591,
              33.1457151
            ],
            [
              11.5605019,
              33.1400617
            ],
            [
              11.5359323,
              33.0895437
            ],
            [
              11.529114,
              33.0804943
            ],
            [
              11.5269931,
              33.0783251
            ],
            [
              11.524962,
              33.0666283
            ],
            [
              11.5222154,
              33.0439496
            ],
            [
              11.519662,
              33.0123589
            ]
          ]
        ]
      }
    },
    {
      "type": "Feature",
      "properties": {
        "osm_id": -192757,
        "boundary": "administrative",
        "admin_level": 2,
        "parents": null,
        "name": "Tunisia",
        "local_name": "تونس",
        "name_en": "Tunisia",
        "all_tags": {
          "flag": "http://upload.wikimedia.org/wikipedia/commons/c/ce/Flag_of_Tunisia.svg",
          "name": "تونس",
          "name:af": "Tunisië",
          "name:am": "ቱኒዚያ",
          "name:an": "Tunicia",
          "name:ar": "تونس",
          "name:az": "Tunis",
          "name:ba": "Тунис",
          "name:be": "Туніс",
          "name:bg": "Тунис",
          "name:bm": "Tunizi",
          "name:bn": "তিউনিসিয়া",
          "name:bo": "ཏུ་ནི་ཤི་ཡ།",
          "name:br": "Tunizia",
          "name:bs": "Tunis",
          "name:ca": "Tunísia",
          "name:ce": "Тунис",
          "name:cs": "Tunisko",
          "name:cv": "Тунис",
          "name:cy": "Tunisia",
          "name:da": "Tunesien",
          "name:de": "Tunesien",
          "name:dv": "ތޫނިސް",
          "name:ee": "Tunisia",
          "name:el": "Τυνησία",
          "name:en": "Tunisia",
          "name:eo": "Tunizio",
          "name:es": "Túnez",
          "name:et": "Tuneesia",
          "name:eu": "Tunisia",
          "name:fa": "تونس",
          "name:fi": "Tunisia",
          "name:fo": "Tunesia",
          "name:fr": "Tunisie",
          "name:fy": "Tuneezje",
          "name:ga": "An Túinéis",
          "name:gd": "Tuinisia",
          "name:gl": "Tunisia",
          "name:gn": "Tunísia",
          "name:gr": "Τυνησία",
          "name:gu": "ટ્યુનિશિયા",
          "name:gv": "Yn Tooneesh",
          "name:he": "תוניסיה",
          "name:hi": "ट्यूनिशिया",
          "name:hr": "Tunis",
          "name:ht": "Tinizi",
          "name:hu": "Tunézia",
          "name:hy": "Թունիս",
          "name:id": "Tunisia",
          "name:ie": "Tunisia",
          "name:io": "Tunizia",
          "name:is": "Túnis",
          "name:it": "Tunisia",
          "name:ja": "チュニジア",
          "name:jv": "Tunisia",
          "name:ka": "ტუნისი",
          "name:kg": "Tunisia",
          "name:kk": "Тунис",
          "name:kn": "ಟುನೀಶಿಯ",
          "name:ko": "튀니지",
          "name:ks": "تونس",
          "name:ku": "Tûnis",
          "name:kw": "Tunisi",
          "name:ky": "Тунис",
          "name:la": "Tunesia",
          "name:lb": "Tunesien",
          "name:li": "Tunesië",
          "name:ln": "Tunisia",
          "name:lt": "Tunisas",
          "name:lv": "Tunisija",
          "name:mg": "Tonizia",
          "name:mi": "Tūnihia",
          "name:mk": "Тунис",
          "name:ml": "ടുണീഷ്യ",
          "name:mn": "Тунис",
          "name:mr": "ट्युनिसिया",
          "name:ms": "Tunisia",
          "name:mt": "Tuneżija",
          "name:my": "တူနီးရှားနိုင်ငံ",
          "name:nl": "Tunesië",
          "name:nn": "Tunisia",
          "name:no": "Tunisia",
          "name:oc": "Tunisia",
          "name:or": "ଟ୍ୟୁନିସିଆ",
          "name:os": "Тунис",
          "name:pa": "ਤੁਨੀਸੀਆ",
          "name:pl": "Tunezja",
          "name:ps": "تونس",
          "name:pt": "Tunísia",
          "name:qu": "Tunisya",
          "name:rm": "Tunesia",
          "name:ro": "Tunisia",
          "name:ru": "Тунис",
          "name:rw": "Tunisiya",
          "name:sa": "टुनिशिया",
          "name:sc": "Tunisia",
          "name:se": "Tunisia",
          "name:sg": "Tunizïi",
          "name:sh": "Tunis",
          "name:sk": "Tunisko",
          "name:sl": "Tunizija",
          "name:sn": "Tunisia",
          "name:so": "Tunisiya",
          "name:sq": "Tunizia",
          "name:sr": "Тунис",
          "name:ss": "IThunisiya",
          "name:su": "Tunisia",
          "name:sv": "Tunisien",
          "name:sw": "Tunisia",
          "name:ta": "துனீசியா",
          "name:te": "ట్యునీషియా",
          "name:tg": "Тунис",
          "name:th": "ประเทศตูนิเซีย",
          "name:ti": "ቱኒዢያ",
          "name:tk": "Tunis",
          "name:tl": "Tunisya",
          "name:tr": "Tunus",
          "name:ts": "Tunisia",
          "name:tt": "Тунис",
          "name:ug": "تۇنىس",
          "name:uk": "Туніс",
          "name:ur": "تونس",
          "name:uz": "Tunis",
          "name:vi": "Tunisia",
          "name:vo": "Tünisän",
          "name:wa": "Tunizeye",
          "name:wo": "Tiniisi",
          "name:yi": "טוניסיע",
          "name:yo": "Tùnísíà",
          "name:zh": "突尼西亚 / 突尼西亞",
          "name:zu": "ITunisia",
          "boundary": "administrative",
          "name:ace": "Tunisia",
          "name:als": "Tunesien",
          "name:ang": "Tunisia",
          "name:arc": "ܬܘܢܣ",
          "name:arz": "تونس",
          "name:ast": "Tunicia",
          "name:azb": "تونیس",
          "name:bcl": "Tunisya",
          "name:bjn": "Tunisia",
          "name:bpy": "তিউনিসিয়া",
          "name:bxr": "Тунис",
          "name:ceb": "Tunisia",
          "name:ckb": "توونس",
          "name:crh": "Tunis",
          "name:diq": "Tunıs",
          "name:ext": "Túnis",
          "name:frp": "Tunisie",
          "name:gag": "Tunis",
          "name:grc": "Τυνησία",
          "name:haw": "Tunisia",
          "name:hif": "Tunisia",
          "name:hsb": "Tuneziska",
          "name:ilo": "Tunisia",
          "name:kab": "Tunes",
          "name:lad": "Tunesia",
          "name:lij": "Tunixia",
          "name:lmo": "Tünisia",
          "name:mdf": "Тунис",
          "name:mrj": "Тунис",
          "name:mzn": "تونس",
          "name:nah": "Tunez",
          "name:nan": "Tunisia",
          "name:nds": "Tunesien",
          "name:new": "ट्युनिसिया",
          "name:nov": "Tunisia",
          "name:nso": "Tunisia",
          "name:pam": "Tunisia",
          "name:pap": "Tunesia",
          "name:pms": "Tunisìa",
          "name:pnb": "ٹیونس",
          "name:pnt": "Τυνησίαν",
          "name:sah": "Тунис",
          "name:scn": "Tunisìa",
          "name:sco": "Tunisie",
          "name:smn": "Tunisia",
          "name:sms": "Tunisia",
          "name:stq": "Tunesien",
          "name:syc": "ܬܘܢܣ",
          "name:szl": "Tůnezyjo",
          "name:tzl": "Tünis",
          "name:vec": "Tunixia",
          "name:vro": "Tuneesiä",
          "name:war": "Tunisia",
          "name:wuu": "突尼斯",
          "name:yue": "突尼西亞",
          "name:zgh": "ⵜⵓⵏⵙ",
          "timezone": "Africa/Tunis",
          "way_area": "18.6143",
          "wikidata": "Q948",
          "ISO3166-1": "TN",
          "wikipedia": "ar:تونس",
          "admin_level": "2",
          "alt_name:ur": "تیونس",
          "alt_name:vi": "Tuy-ni-di",
          "border_type": "nation",
          "name:simple": "Tunisia",
          "name:bat-smg": "Tonėsos",
          "name:ku-Arab": "توونس",
          "name:zh-Hans": "突尼西亚",
          "name:zh-Hant": "突尼西亞",
          "official_name": "الجمهورية التونسية",
          "name:be-tarask": "Туніс",
          "ISO3166-1:alpha2": "TN",
          "ISO3166-1:alpha3": "TUN",
          "default_language": "ar",
          "official_name:ar": "الجمهورية التونسية",
          "official_name:bs": "Republika Tunis",
          "official_name:cs": "Tuniská republika",
          "official_name:de": "Republik Tunesien",
          "official_name:en": "Republic of Tunisia",
          "official_name:es": "República de Túnez",
          "official_name:fa": "جمهوری تونس",
          "official_name:gn": "Tavakuairetã Tunísia",
          "official_name:pt": "República Tunisina",
          "official_name:ru": "Тунисская Республика",
          "official_name:ur": "جمہوریہ تونس",
          "ISO3166-1:numeric": "788"
        }
      },
      "geometry": {
        "type": "Polygon",
        "coordinates": [
          [
            [
              11,
              33
            ],
            [
              11.523472735223933,
              33
            ],
            [
              11.519662,
              33.0123589
            ],
            [
              11.5222154,
              33.0439496
            ],
            [
              11.524962,
              33.0666283
            ],
            [
              11.5269931,
              33.0783251
            ],
            [
              11.529114,
              33.0804943
            ],
            [
              11.5359323,
              33.0895437
            ],
            [
              11.5605019,
              33.1400617
            ],
            [
              11.5595591,
              33.1457151
            ],
            [
              11.5594572,
              33.1478327
            ],
            [
              11.5593116,
              33.1482892
            ],
            [
              11.5613541,
              33.1629958
            ],
            [
              11.5615932,
              33.1668144
            ],
            [
              11.5653038,
              33.1719998
            ],
            [
              11.5893981,
              33.2223349
            ],
            [
              11.6642137,
              33.3488242
            ],
            [
              11.6560297,
              33.3507624
            ],
            [
              11.6178775,
              33.3614908
            ],
            [
              11.5985357,
              33.3645068
            ],
            [
              11.5849439,
              33.3703548
            ],
            [
              11.5660737,
              33.3767835
            ],
            [
              11.5541456,
              33.3793046
            ],
            [
              11.5009941,
              33.4141176
            ],
            [
              11.4769513,
              33.4272532
            ],
            [
              11.4610409,
              33.4350619
            ],
            [
              11.4140803,
              33.4529118
            ],
            [
              11.3880686,
              33.4646595
            ],
            [
              11.369635,
              33.4753611
            ],
            [
              11.3703889,
              33.484989
            ],
            [
              11.3653539,
              33.5211079
            ],
            [
              11.352944,
              33.5549322
            ],
            [
              11.3519026,
              33.5669541
            ],
            [
              11.3488836,
              33.5806064
            ],
            [
              11.3358074,
              33.6183257
            ],
            [
              11.3183524,
              33.6528523
            ],
            [
              11.3081645,
              33.6678601
            ],
            [
              11.2903729,
              33.6897604
            ],
            [
              11.2933984,
              33.7361254
            ],
            [
              11.300216,
              33.7611178
            ],
            [
              11.3023676,
              33.7954495
            ],
            [
              11.2933231,
              33.8594113
            ],
            [
              11.2838165,
              33.8900794
            ],
            [
              11.2645114,
              33.9252925
            ],
            [
              11.2338007,
              33.960333
            ],
            [
              11.1947307,
              33.9890298
            ],
            [
              11.17299510126574,
              34
            ],
            [
              11,
              34
            ],
            [
              11,
              33
            ]
          ]
        ]
      }
    }
  ]
}