{
  "type": "FeatureCollection",
  "features": [
    {
      "type": "Feature",
      "properties": {
        "osm_id": -2978650,
        "boundary": "administrative",
        "admin_level": 2,
        "parents": null,
        "name": "Norway",
        "local_name": "Norge",
        "name_en": "Norway",
        "all_tags": {
          "flag": "http://upload.wikimedia.org/wikipedia/commons/d/d9/Flag_of_Norway.svg",
          "name": "Norge",
          "name:af": "Noorweë",
          "name:am": "ኖርዌይ",
          "name:an": "Noruega",
          "name:ar": "النرويج",
          "name:ay": "Nurweka",
          "name:az": "Norveç",
          "name:ba": "Норвегия",
          "name:be": "Нарвегія",
          "name:bg": "Норвегия",
          "name:bi": "Norway",
          "name:bm": "Norwij",
          "name:bn": "নরওয়ে",
          "name:bo": "ནོར་ཝེ།",
          "name:br": "Norvegia",
          "name:bs": "Norveška",
          "name:ca": "Noruega",
          "name:ce": "Норвеги",
          "name:co": "Nurvegia",
          "name:cs": "Norsko",
          "name:cu": "Норєгъ",
          "name:cv": "Норвеги",
          "name:cy": "Norwy",
          "name:da": "Norge",
          "name:de": "Norwegen",
          "name:dv": "ނޯވޭ",
          "name:dz": "ནོ་ཝེ་",
          "name:ee": "Norway",
          "name:el": "Νορβηγία",
          "name:en": "Norway",
          "name:eo": "Norvegio",
          "name:es": "Noruega",
          "name:et": "Norra",
          "name:eu": "Norvegia",
          "name:fa": "نروژ",
          "name:fi": "Norja",
          "name:fo": "Noregur",
          "name:fr": "Norvège",
          "name:fy": "Noarwegen",
          "name:ga": "An Iorua",
          "name:gd": "Nirribhidh",
          "name:gl": "Noruega",
          "name:gn": "Noruega",
          "name:gu": "નોર્વે",
          "name:gv": "Norlynn",
          "name:he": "נורבגיה",
          "name:hi": "नॉर्वे",
          "name:hr": "Norveška",
          "name:ht": "Nòvèj",
          "name:hu": "Norvégia",
          "name:hy": "Նորվեգիա",
          "name:ia": "Norvegia",
          "name:id": "Norwegia",
          "name:ie": "Norvegia",
          "name:io": "Norvegia",
          "name:is": "Noregur",
          "name:it": "Norvegia",
          "name:iu": "ᓄᕐᒋ",
          "name:ja": "ノルウェー",
          "name:jv": "Norwégia",
          "name:ka": "ნორვეგია",
          "name:kg": "Norge",
          "name:kk": "Норвегия",
          "name:kl": "Norge",
          "name:kn": "ನಾರ್ವೇ",
          "name:ko": "노르웨이",
          "name:ku": "Norwêc",
          "name:kv": "Норвегия",
          "name:kw": "Norgagh",
          "name:ky": "Норвегия",
          "name:la": "Norvegia",
          "name:lb": "Norwegen",
          "name:li": "Noorwege",
          "name:ln": "Norvej",
          "name:lt": "Norvegija",
          "name:lv": "Norvēģija",
          "name:mg": "Norvezy",
          "name:mi": "Nōwei",
          "name:mk": "Норвешка",
          "name:ml": "നോർവെ",
          "name:mn": "Норвеги",
          "name:mr": "नॉर्वे",
          "name:ms": "Norway",
          "name:mt": "Norveġja",
          "name:my": "နော်ဝေနိုင်ငံ",
          "name:na": "Norwei",
          "name:nb": "Norge",
          "name:ne": "नर्वे",
          "name:nl": "Noorwegen",
          "name:nn": "Noreg",
          "name:no": "Norge",
          "name:oc": "Norvègia",
          "name:om": "Norway",
          "name:or": "ନରୱେ",
          "name:os": "Норвеги",
          "name:pa": "ਨਾਰਵੇ",
          "name:pl": "Norwegia",
          "name:ps": "ناروې",
          "name:pt": "Noruega",
          "name:qu": "Nurwiga",
          "name:rm": "Norvegia",
          "name:rn": "Noruega",
          "name:ro": "Norvegia",
          "name:ru": "Норвегия",
          "name:rw": "Noruveje",
          "name:sa": "नार्वे",
          "name:sc": "Norvegia",
          "name:se": "Norga",
          "name:sh": "Norveška",
          "name:sk": "Nórsko",
          "name:sl": "Norveška",
          "name:so": "Norway",
          "name:sq": "Norvegjia",
          "name:sr": "Норвешка",
          "name:ss": "INoweyi",
          "name:su": "Norwégia",
          "name:sv": "Norge",
          "name:sw": "Norwei",
          "name:ta": "நோர்வே",
          "name:te": "నార్వే",
          "name:tg": "Норвегия",
          "name:th": "ประเทศนอร์เวย์",
          "name:tk": "Norwegiýa",
          "name:tl": "Noruwega",
          "name:tr": "Norveç",
          "name:ts": "Norge",
          "name:tt": "Норвегия",
          "name:ug": "نورۋېگىيە",
          "name:uk": "Норвегія",
          "name:ur": "ناروے",
          "name:uz": "Norvegiya",
          "name:vi": "Na Uy",
          "name:vo": "Norgän",
          "name:wa": "Norvedje",
          "name:wo": "Noorwees",
          "name:yi": "נארוועגיע",
          "name:yo": "Nọ́rwèy",
          "name:za": "Nozveih",
          "name:zh": "挪威",
          "name:zu": "INoki",
          "boundary": "administrative",
          "int_name": "Norway",
          "name:ace": "Norwègia",
          "name:als": "Norwegen",
          "name:ang": "Norþweg",
          "name:arc": "ܢܘܪܒܝܓ",
          "name:arz": "النرويج",
          "name:ast": "Noruega",
          "name:bar": "Norwegn",
          "name:bcl": "Norwey",
          "name:bpy": "নরৱে",
          "name:bxr": "Норвеги",
          "name:cdo": "Nò̤-ŭi",
          "name:ceb": "Noruwega",
          "name:chy": "Norway",
          "name:ckb": "نۆرویژ",
          "name:crh": "Norvegiya",
          "name:csb": "Norweskô",
          "name:diq": "Norwec",
          "name:dsb": "Norwegska",
          "name:ext": "Noruega",
          "name:frp": "Norvèg·e",
          "name:frr": "Norweegen",
          "name:gag": "Norvegiya",
          "name:gan": "挪威",
          "name:hak": "Nò-vî",
          "name:haw": "Nolewai",
          "name:hif": "Norway",
          "name:hsb": "Norwegska",
          "name:ilo": "Norwéga",
          "name:jbo": "noreg",
          "name:kaa": "Norvegiya",
          "name:kbd": "Норвегэ",
          "name:koi": "Норвег",
          "name:krc": "Норвегия",
          "name:lad": "Norvejia",
          "name:lez": "Норвегия",
          "name:lij": "Norveggia",
          "name:lmo": "Nurvegia",
          "name:ltg": "Norvegeja",
          "name:mdf": "Норвегие",
          "name:mhr": "Норвегий",
          "name:myv": "Норвегия Мастор",
          "name:nah": "Noruegia",
          "name:nan": "Lo̍k-ui-kok",
          "name:nds": "Norwegen",
          "name:nov": "Norvegia",
          "name:nrm": "Norouague",
          "name:pam": "Norwega",
          "name:pap": "Noruega",
          "name:pcd": "Norvège",
          "name:pih": "Norwaii",
          "name:pms": "Norvegia",
          "name:pnb": "ناروے",
          "name:pnt": "Νορβηγία",
          "name:rmy": "Norvejiya",
          "name:sah": "Норвегия",
          "name:scn": "Norveggia",
          "name:sco": "Norawa",
          "name:sje": "Vuodna",
          "name:sma": "Nöörje",
          "name:smj": "Vuodna",
          "name:smn": "Taažâ",
          "name:sms": "Taarr",
          "name:stq": "Norwegen",
          "name:szl": "Norwegijŏ",
          "name:tet": "Noruega",
          "name:tok": "ma Nosiki",
          "name:tpi": "Nowe",
          "name:tzl": "Norvexhà",
          "name:udm": "Норвегия",
          "name:vec": "Norveja",
          "name:vep": "Norvegii",
          "name:vls": "Nôorweegn",
          "name:vro": "Norra",
          "name:war": "Noruega",
          "name:wuu": "挪威",
          "name:xal": "Ноорскгин Нутг",
          "name:xmf": "ნორვეგია",
          "name:yue": "挪威",
          "name:zea": "Noorwegen",
          "way_area": "153.801",
          "wikidata": "Q20",
          "ISO3166-1": "NO",
          "wikipedia": "no:Norge",
          "population": "5488984",
          "admin_level": "2",
          "alt_name:eo": "Norvegujo",
          "name:nds-nl": "Noorwegen",
          "alt_name:sma": "Nøørje",
          "name:bat-smg": "Nuorvegėjė",
          "name:iu-Latn": "nurgi",
          "name:roa-rup": "Norveghia",
          "name:roa-tara": "Norveggie",
          "official_name": "Kongeriket Norge",
          "name:be-tarask": "Нарвэгія",
          "population:date": "2023-01-01",
          "ISO3166-1:alpha2": "NO",
          "ISO3166-1:alpha3": "NOR",
          "default_language": "no",
          "official_name:be": "Каралеўства Нарвегія",
          "official_name:cs": "Norské království",
          "official_name:de": "Königreich Norwegen",
          "official_name:en": "Kingdom of Norway",
          "official_name:eo": "Reĝlando Norvegio",
          "official_name:fr": "Royaume de Norvège",
          "official_name:sv": "Konungariket Norge",
          "ISO3166-1:numeric": "578"
        }
      },
      "geometry": {
        "type": "MultiPolygon",
        "coordinates": [
          [
            [
              [
                11,
                58.963867889382975
              ],
              [
                11.0665166,
                58.977411
              ],
              [
                11.0923814,
                58.9918054
              ],
              [
                11.101109138829452,
                59
              ],
              [
                11,
                59
              ],
              [
                11,
                58.963867889382975
              ]
            ]
          ],
          [
            [
              [
                11.4538742,
                58.9854673
              ],
              [
                11.4623248,
                58.9730566
              ],
              [
                11.4596828,
                58.9524876
              ],
              [
                11.4621644,
                58.9410401
              ],
              [
                11.4636597,
                58.9332617
              ],
              [
                11.4562599,
                58.9166316
              ],
              [
                11.4562393,
                58.896933
              ],
              [
                11.4564835,
                58.8950394
              ],
              [
                11.4570411,
                58.8940417
              ],
              [
                11.4569271,
                58.8936472
              ],
              [
                11.4571842,
                58.8932945
              ],
              [
                11.4569639,
                58.8929389
              ],
              [
                11.4569966,
                58.890963
              ],
              [
                11.4556679,
                58.8895903
              ],
              [
                11.4558126,
                58.8891832
              ],
              [
                11.4574477,
                58.8884387
              ],
              [
                11.4606837,
                58.8896561
              ],
              [
                11.4829167,
                58.8914583
              ],
              [
                11.4892709,
                58.8907723
              ],
              [
                11.4916958,
                58.8891194
              ],
              [
                11.497957,
                58.8889112
              ],
              [
                11.5001149,
                58.8893821
              ],
              [
                11.512186,
                58.8833248
              ],
              [
                11.5138501,
                58.8828465
              ],
              [
                11.5137868,
                58.8824304
              ],
              [
                11.5141876,
                58.8817602
              ],
              [
                11.515318,
                58.8813445
              ],
              [
                11.5161351,
                58.8815889
              ],
              [
                11.5167633,
                58.8813945
              ],
              [
                11.5171413,
                58.8810584
              ],
              [
                11.5165016,
                58.8804242
              ],
              [
                11.5164976,
                58.880226
              ],
              [
                11.5168342,
                58.8798614
              ],
              [
                11.517718,
                58.8794663
              ],
              [
                11.5193055,
                58.8792056
              ],
              [
                11.5218587,
                58.8783278
              ],
              [
                11.5239127,
                58.8782062
              ],
              [
                11.5245157,
                58.8778456
              ],
              [
                11.525045,
                58.8777629
              ],
              [
                11.5252898,
                58.8773934
              ],
              [
                11.526371,
                58.8768949
              ],
              [
                11.5291642,
                58.8770822
              ],
              [
                11.5296533,
                58.8776212
              ],
              [
                11.5308373,
                58.8779525
              ],
              [
                11.5313459,
                58.8779283
              ],
              [
                11.5314497,
                58.8781258
              ],
              [
                11.5311995,
                58.8785399
              ],
              [
                11.5318003,
                58.8784762
              ],
              [
                11.5329285,
                58.8791487
              ],
              [
                11.5339299,
                58.8789074
              ],
              [
                11.5344402,
                58.8785631
              ],
              [
                11.5351019,
                58.8784997
              ],
              [
                11.5364123,
                58.8773567
              ],
              [
                11.5374131,
                58.8774183
              ],
              [
                11.5373492,
                58.878139
              ],
              [
                11.5376314,
                58.8784028
              ],
              [
                11.5384091,
                58.8787028
              ],
              [
                11.53861,
                58.8790722
              ],
              [
                11.5382769,
                58.8795584
              ],
              [
                11.5389691,
                58.8802084
              ],
              [
                11.5387198,
                58.8813751
              ],
              [
                11.5388639,
                58.8818528
              ],
              [
                11.5386492,
                58.8826833
              ],
              [
                11.5381934,
                58.8829111
              ],
              [
                11.5381033,
                58.8833
              ],
              [
                11.5343587,
                58.8848361
              ],
              [
                11.5339617,
                58.885225
              ],
              [
                11.5337089,
                58.8860723
              ],
              [
                11.5346561,
                58.885989
              ],
              [
                11.5347473,
                58.8858556
              ],
              [
                11.5345377,
                58.8855917
              ],
              [
                11.5348645,
                58.8853611
              ],
              [
                11.5362392,
                58.8854695
              ],
              [
                11.5371505,
                58.8861263
              ],
              [
                11.5389173,
                58.8862417
              ],
              [
                11.5398573,
                58.8866715
              ],
              [
                11.5400152,
                58.8868164
              ],
              [
                11.539816,
                58.8871293
              ],
              [
                11.5398452,
                58.8876149
              ],
              [
                11.5406098,
                58.8883389
              ],
              [
                11.5414646,
                58.8882778
              ],
              [
                11.5420051,
                58.8880556
              ],
              [
                11.542403,
                58.8881764
              ],
              [
                11.5426912,
                58.8886973
              ],
              [
                11.5425814,
                58.8891917
              ],
              [
                11.5427355,
                58.8895223
              ],
              [
                11.5439162,
                58.890075
              ],
              [
                11.5440603,
                58.8907251
              ],
              [
                11.5448287,
                58.8920889
              ],
              [
                11.5462727,
                58.892925
              ],
              [
                11.5454958,
                58.8934262
              ],
              [
                11.5452722,
                58.8938639
              ],
              [
                11.5453364,
                58.8940195
              ],
              [
                11.5460401,
                58.8943903
              ],
              [
                11.5474539,
                58.8956423
              ],
              [
                11.5478815,
                58.8956843
              ],
              [
                11.5489165,
                58.8954098
              ],
              [
                11.5489128,
                58.8956973
              ],
              [
                11.5494387,
                58.8961178
              ],
              [
                11.5490581,
                58.8967361
              ],
              [
                11.5504286,
                58.8969889
              ],
              [
                11.5512891,
                58.8982306
              ],
              [
                11.551608,
                58.8982361
              ],
              [
                11.5523372,
                58.8978834
              ],
              [
                11.5530663,
                58.8980862
              ],
              [
                11.5526527,
                58.8983422
              ],
              [
                11.5532922,
                58.8986167
              ],
              [
                11.5533985,
                58.8989319
              ],
              [
                11.5558121,
                58.8987967
              ],
              [
                11.5558738,
                58.8984437
              ],
              [
                11.5576657,
                58.8980608
              ],
              [
                11.5579306,
                58.8977289
              ],
              [
                11.5585447,
                58.8975244
              ],
              [
                11.5587957,
                58.8972004
              ],
              [
                11.5607978,
                58.8963727
              ],
              [
                11.5611183,
                58.8961295
              ],
              [
                11.5611421,
                58.8958459
              ],
              [
                11.5614177,
                58.8955149
              ],
              [
                11.5634665,
                58.8939174
              ],
              [
                11.5640178,
                58.8932085
              ],
              [
                11.5641767,
                58.8924607
              ],
              [
                11.5650941,
                58.892064
              ],
              [
                11.5655329,
                58.8916025
              ],
              [
                11.5663514,
                58.8911348
              ],
              [
                11.5667154,
                58.8906479
              ],
              [
                11.5670474,
                58.8905579
              ],
              [
                11.5679048,
                58.8898461
              ],
              [
                11.5699079,
                58.8889387
              ],
              [
                11.5701736,
                58.8886556
              ],
              [
                11.5700705,
                58.8885639
              ],
              [
                11.5709734,
                58.888325
              ],
              [
                11.5710861,
                58.8881001
              ],
              [
                11.5724948,
                58.8878254
              ],
              [
                11.5727799,
                58.8882888
              ],
              [
                11.5733151,
                58.8884615
              ],
              [
                11.5735151,
                58.8889196
              ],
              [
                11.5733931,
                58.8891754
              ],
              [
                11.573599,
                58.8898628
              ],
              [
                11.5739226,
                58.8899758
              ],
              [
                11.5739124,
                58.8901942
              ],
              [
                11.5744331,
                58.8903901
              ],
              [
                11.574679,
                58.891151
              ],
              [
                11.5751948,
                58.8914137
              ],
              [
                11.5752148,
                58.8920501
              ],
              [
                11.5755556,
                58.8928139
              ],
              [
                11.5758061,
                58.8942805
              ],
              [
                11.5760014,
                58.8944528
              ],
              [
                11.5761276,
                58.8950084
              ],
              [
                11.5761653,
                58.8957778
              ],
              [
                11.5764431,
                58.8962445
              ],
              [
                11.5767047,
                58.896375
              ],
              [
                11.5766873,
                58.8967723
              ],
              [
                11.5774197,
                58.8972056
              ],
              [
                11.5778655,
                58.8972834
              ],
              [
                11.5778222,
                58.8974944
              ],
              [
                11.579509,
                58.8969545
              ],
              [
                11.5793578,
                58.8967322
              ],
              [
                11.5799762,
                58.8960028
              ],
              [
                11.5807519,
                58.8957028
              ],
              [
                11.5813553,
                58.8957306
              ],
              [
                11.5818687,
                58.8951139
              ],
              [
                11.5817328,
                58.8947139
              ],
              [
                11.5819564,
                58.8947361
              ],
              [
                11.5826845,
                58.8941028
              ],
              [
                11.5840255,
                58.8944528
              ],
              [
                11.5844369,
                58.8943528
              ],
              [
                11.584847,
                58.8945778
              ],
              [
                11.5878689,
                58.8921528
              ],
              [
                11.5906295,
                58.8907158
              ],
              [
                11.5974091,
                58.8936505
              ],
              [
                11.5988374,
                58.8941272
              ],
              [
                11.5992136,
                58.8945314
              ],
              [
                11.6070703,
                58.8979528
              ],
              [
                11.6263053,
                58.9054778
              ],
              [
                11.6298145,
                58.9076129
              ],
              [
                11.6299393,
                58.9083236
              ],
              [
                11.6304263,
                58.9086151
              ],
              [
                11.631165,
                58.9086638
              ],
              [
                11.6322489,
                58.9083218
              ],
              [
                11.6335481,
                58.9083472
              ],
              [
                11.6339644,
                58.9081844
              ],
              [
                11.652003,
                58.9062334
              ],
              [
                11.6570087,
                58.9223016
              ],
              [
                11.657044,
                58.9239055
              ],
              [
                11.6566393,
                58.9252841
              ],
              [
                11.6568019,
                58.9261182
              ],
              [
                11.657495,
                58.9268761
              ],
              [
                11.6590479,
                58.9275935
              ],
              [
                11.6609955,
                58.9271047
              ],
              [
                11.6616449,
                58.9274002
              ],
              [
                11.661597,
                58.9276081
              ],
              [
                11.6582017,
                58.9309126
              ],
              [
                11.6580543,
                58.9311914
              ],
              [
                11.658171,
                58.9317617
              ],
              [
                11.6587992,
                58.9322344
              ],
              [
                11.6613491,
                58.9331136
              ],
              [
                11.663874,
                58.9345521
              ],
              [
                11.6648855,
                58.9348794
              ],
              [
                11.6660731,
                58.9349392
              ],
              [
                11.6683751,
                58.9346491
              ],
              [
                11.6699517,
                58.9348095
              ],
              [
                11.6721959,
                58.9346947
              ],
              [
                11.6736611,
                58.9348624
              ],
              [
                11.6753566,
                58.9348303
              ],
              [
                11.6758604,
                58.9350644
              ],
              [
                11.6760666,
                58.9355975
              ],
              [
                11.6759686,
                58.9365429
              ],
              [
                11.6747419,
                58.9380293
              ],
              [
                11.6744539,
                58.938799
              ],
              [
                11.6737205,
                58.939793
              ],
              [
                11.673288,
                58.9410141
              ],
              [
                11.6733816,
                58.9419574
              ],
              [
                11.6756747,
                58.9430625
              ],
              [
                11.6760889,
                58.9436409
              ],
              [
                11.6761176,
                58.9443316
              ],
              [
                11.6766009,
                58.9448956
              ],
              [
                11.6801473,
                58.9460776
              ],
              [
                11.6817196,
                58.947101
              ],
              [
                11.6819955,
                58.9474933
              ],
              [
                11.6819865,
                58.9478038
              ],
              [
                11.6814776,
                58.9489583
              ],
              [
                11.681267,
                58.9504287
              ],
              [
                11.6816451,
                58.9514223
              ],
              [
                11.6828198,
                58.952508
              ],
              [
                11.6879188,
                58.9554572
              ],
              [
                11.688823,
                58.9563556
              ],
              [
                11.6890826,
                58.9568451
              ],
              [
                11.6891905,
                58.9578562
              ],
              [
                11.6880358,
                58.9609103
              ],
              [
                11.6877554,
                58.9633602
              ],
              [
                11.6872461,
                58.9652478
              ],
              [
                11.6873472,
                58.9680457
              ],
              [
                11.6866489,
                58.9698937
              ],
              [
                11.6868445,
                58.9705021
              ],
              [
                11.6886677,
                58.9716883
              ],
              [
                11.6892924,
                58.9723884
              ],
              [
                11.689028,
                58.9726681
              ],
              [
                11.6878256,
                58.972925
              ],
              [
                11.6871331,
                58.9727723
              ],
              [
                11.6860116,
                58.9728159
              ],
              [
                11.6856397,
                58.9730621
              ],
              [
                11.6853215,
                58.9729828
              ],
              [
                11.6851667,
                58.9732977
              ],
              [
                11.6846245,
                58.9735898
              ],
              [
                11.6847751,
                58.9739066
              ],
              [
                11.684432,
                58.9743846
              ],
              [
                11.684704,
                58.9746982
              ],
              [
                11.6853312,
                58.9746723
              ],
              [
                11.6854185,
                58.9749103
              ],
              [
                11.6864073,
                58.9753602
              ],
              [
                11.6864907,
                58.9761753
              ],
              [
                11.6873295,
                58.9765244
              ],
              [
                11.6873778,
                58.9762638
              ],
              [
                11.6880945,
                58.9762039
              ],
              [
                11.6883578,
                58.9768574
              ],
              [
                11.6889172,
                58.9771498
              ],
              [
                11.6905419,
                58.9767503
              ],
              [
                11.6908258,
                58.9768869
              ],
              [
                11.6905036,
                58.9770951
              ],
              [
                11.69078,
                58.977277
              ],
              [
                11.6919022,
                58.9770671
              ],
              [
                11.6916986,
                58.9775679
              ],
              [
                11.6917997,
                58.9776474
              ],
              [
                11.6930522,
                58.9772633
              ],
              [
                11.6931778,
                58.9773785
              ],
              [
                11.6930263,
                58.9776601
              ],
              [
                11.6936412,
                58.9777759
              ],
              [
                11.6931628,
                58.9783096
              ],
              [
                11.6933734,
                58.9785768
              ],
              [
                11.6924086,
                58.9790677
              ],
              [
                11.692544,
                58.979266
              ],
              [
                11.6930303,
                58.979359
              ],
              [
                11.6930282,
                58.9794868
              ],
              [
                11.6924617,
                58.9796175
              ],
              [
                11.6928513,
                58.980204
              ],
              [
                11.6923068,
                58.9804221
              ],
              [
                11.6925266,
                58.980549
              ],
              [
                11.6922663,
                58.9808265
              ],
              [
                11.6909499,
                58.9809869
              ],
              [
                11.6908445,
                58.9810704
              ],
              [
                11.6909383,
                58.9811931
              ],
              [
                11.6916242,
                58.9810118
              ],
              [
                11.691923,
                58.9812639
              ],
              [
                11.6915902,
                58.9816076
              ],
              [
                11.6905511,
                58.982
              ],
              [
                11.6906306,
                58.9821889
              ],
              [
                11.691337,
                58.9820528
              ],
              [
                11.6916462,
                58.9822778
              ],
              [
                11.6916451,
                58.9827917
              ],
              [
                11.6918412,
                58.9832267
              ],
              [
                11.6916884,
                58.9843707
              ],
              [
                11.6920137,
                58.984865
              ],
              [
                11.692015,
                58.9851217
              ],
              [
                11.6909403,
                58.9858008
              ],
              [
                11.6904044,
                58.9856552
              ],
              [
                11.689624,
                58.9857363
              ],
              [
                11.6893892,
                58.9861632
              ],
              [
                11.6887209,
                58.9863452
              ],
              [
                11.6890148,
                58.9864417
              ],
              [
                11.689042,
                58.9866889
              ],
              [
                11.6872629,
                58.986766
              ],
              [
                11.6856217,
                58.9873362
              ],
              [
                11.6857086,
                58.9875389
              ],
              [
                11.6855372,
                58.9876306
              ],
              [
                11.6843306,
                58.987314
              ],
              [
                11.6840516,
                58.9878083
              ],
              [
                11.6849067,
                58.98805
              ],
              [
                11.6847188,
                58.9882945
              ],
              [
                11.6847765,
                58.9886945
              ],
              [
                11.6842036,
                58.9890528
              ],
              [
                11.6842772,
                58.9892361
              ],
              [
                11.6838484,
                58.9897058
              ],
              [
                11.6839138,
                58.9899989
              ],
              [
                11.684852,
                58.9902831
              ],
              [
                11.6864312,
                58.9902074
              ],
              [
                11.6881653,
                58.9912722
              ],
              [
                11.6892765,
                58.991164
              ],
              [
                11.6897797,
                58.9916055
              ],
              [
                11.6900672,
                58.9921584
              ],
              [
                11.6917078,
                58.9928722
              ],
              [
                11.6918913,
                58.9934334
              ],
              [
                11.6927952,
                58.9940362
              ],
              [
                11.692858,
                58.9943834
              ],
              [
                11.6932172,
                58.9946001
              ],
              [
                11.6931553,
                58.9950444
              ],
              [
                11.6924902,
                58.9954952
              ],
              [
                11.6922686,
                58.9958699
              ],
              [
                11.6926066,
                58.9960738
              ],
              [
                11.6940027,
                58.9959944
              ],
              [
                11.6946442,
                58.9963028
              ],
              [
                11.6939778,
                58.9966445
              ],
              [
                11.6936544,
                58.9972444
              ],
              [
                11.6926041,
                58.9977306
              ],
              [
                11.6924589,
                58.9979917
              ],
              [
                11.6927301,
                58.9983584
              ],
              [
                11.6933389,
                58.9986333
              ],
              [
                11.6942373,
                58.9986362
              ],
              [
                11.6953341,
                58.9988834
              ],
              [
                11.697014,
                58.9995084
              ],
              [
                11.697854047327512,
                59
              ],
              [
                11.455909755079013,
                59
              ],
              [
                11.4645982,
                58.9911521
              ],
              [
                11.460069,
                58.988158
              ],
              [
                11.4589105,
                58.988114
              ],
              [
                11.4581226,
                58.9878701
              ],
              [
                11.4564464,
                58.9861705
              ],
              [
                11.4538742,
                58.9854673
              ]
            ]
          ]
        ]
      }
    },
    {
      "type": "Feature",
      "properties": {
        "osm_id": -52822,
        "boundary": "administrative",
        "admin_level": 2,
        "parents": null,
        "name": "Sweden",
        "local_name": "Sverige",
        "name_en": "Sweden",
        "all_tags": {
          "flag": "http://upload.wikimedia.org/wikipedia/commons/4/4c/Flag_of_Sweden.svg",
          "name": "Sverige",
          "name:ab": "Швециа",
          "name:af": "Swede",
          "name:ak": "Sweden",
          "name:am": "ስዊድን",
          "name:an": "Suecia",
          "name:ar": "السويد",
          "name:az": "İsveç",
          "name:ba": "Швеция",
          "name:be": "Швецыя",
          "name:bg": "Швеция",
          "name:bi": "Sweden",
          "name:bm": "Swedi",
          "name:bn": "সুইডেন",
          "name:bo": "སི་ཝེ་དེན།",
          "name:br": "Sveden",
          "name:bs": "Švedska",
          "name:ca": "Suècia",
          "name:ce": "Швеци",
          "name:co": "Svezia",
          "name:cs": "Švédsko",
          "name:cu": "Свєньско",
          "name:cv": "Швеци",
          "name:cy": "Sweden",
          "name:da": "Sverige",
          "name:de": "Schweden",
          "name:dv": "ސުވިޑަން",
          "name:dz": "སུའི་ཌན་",
          "name:ee": "Sweden",
          "name:el": "Σουηδία",
          "name:en": "Sweden",
          "name:eo": "Svedio",
          "name:es": "Suecia",
          "name:et": "Rootsi",
          "name:eu": "Suedia",
          "name:fa": "سوئد",
          "name:fi": "Ruotsi",
          "name:fo": "Svøríki",
          "name:fr": "Suède",
          "name:fy": "Sweden",
          "name:ga": "An tSualainn",
          "name:gd": "An t-Suain",
          "name:gl": "Suecia",
          "name:gn": "Suesia",
          "name:gu": "સ્વિડન",
          "name:gv": "Yn Toolynn",
          "name:he": "שבדיה",
          "name:hi": "स्वीडन",
          "name:hr": "Švedska",
          "name:ht": "Syèd",
          "name:hu": "Svédország",
          "name:hy": "Շվեդիա",
          "name:ia": "Svedia",
          "name:id": "Swedia",
          "name:ie": "Svedia",
          "name:io": "Suedia",
          "name:is": "Svíþjóð",
          "name:it": "Svezia",
          "name:iu": "ᔅᕗᕆᑭ",
          "name:ja": "スウェーデン",
          "name:jv": "Swédia",
          "name:ka": "შვედეთი",
          "name:kg": "Suedi",
          "name:ki": "Sweden",
          "name:kk": "Швеция",
          "name:kl": "Svenskit Nunaat",
          "name:km": "ស៊ុយអែត",
          "name:kn": "ಸ್ವೀಡನ್",
          "name:ko": "스웨덴",
          "name:ku": "Swêd",
          "name:kv": "Швеция",
          "name:kw": "Swedherwyk",
          "name:ky": "Швеция",
          "name:la": "Suecia",
          "name:lb": "Schweden",
          "name:lg": "Swiiden",
          "name:li": "Zwede",
          "name:ln": "Swédi",
          "name:lt": "Švedija",
          "name:lv": "Zviedrija",
          "name:mg": "Soeda",
          "name:mi": "Huītene",
          "name:mk": "Шведска",
          "name:ml": "സ്വീഡൻ",
          "name:mn": "Швед",
          "name:mr": "स्वीडन",
          "name:ms": "Sweden",
          "name:mt": "Żvezja",
          "name:my": "ဆွီဒင်နိုင်ငံ",
          "name:na": "Widen",
          "name:ne": "स्वीडेन",
          "name:nl": "Zweden",
          "name:nn": "Sverige",
          "name:no": "Sverige",
          "name:oc": "Suècia",
          "name:or": "ସ୍ଵିଡେନ",
          "name:os": "Швеци",
          "name:pa": "ਸਵੀਡਨ",
          "name:pl": "Szwecja",
          "name:ps": "سويډن",
          "name:pt": "Suécia",
          "name:qu": "Suwidsuyu",
          "name:rm": "Svezia",
          "name:ro": "Suedia",
          "name:ru": "Швеция",
          "name:rw": "Suwede",
          "name:sa": "स्वीडन",
          "name:sc": "Isvetzia",
          "name:se": "Ruoŧŧa",
          "name:sh": "Švedska",
          "name:sk": "Švédsko",
          "name:sl": "Švedska",
          "name:sm": "Sweden",
          "name:so": "Iswiidhan",
          "name:sq": "Suedia",
          "name:sr": "Шведска",
          "name:ss": "ISwideni",
          "name:su": "Swédia",
          "name:sv": "Sverige",
          "name:sw": "Uswidi",
          "name:ta": "சுவீடன்",
          "name:te": "స్వీడన్",
          "name:tg": "Шветсия",
          "name:th": "ประเทศสวีเดน",
          "name:tk": "Şwesiýa",
          "name:tl": "Suwesya",
          "name:tr": "İsveç",
          "name:tt": "Швеция",
          "name:tw": "Sweden",
          "name:ug": "شۋېتسىيە",
          "name:uk": "Швеція",
          "name:ur": "سویڈن",
          "name:uz": "Shvetsiya",
          "name:vi": "Thụy Điển",
          "name:vo": "Svedän",
          "name:wa": "Suwedwesse",
          "name:wo": "Suweed",
          "name:yi": "שוועדן",
          "name:yo": "Swídìn",
          "name:zh": "瑞典",
          "name:zu": "ISwidi",
          "boundary": "administrative",
          "int_name": "Sweden",
          "name:ace": "Swèdia",
          "name:als": "Schweden",
          "name:ang": "Swēoland",
          "name:arc": "ܣܘܝܕ",
          "name:arz": "السويد",
          "name:ast": "Suecia",
          "name:bar": "Schwedn",
          "name:bcl": "Suesya",
          "name:bpy": "সুইডেন",
          "name:bxr": "Швед",
          "name:cdo": "Sôi-diēng",
          "name:ceb": "Suwesya",
          "name:chr": "ᏍᏫᏕᏂ",
          "name:ckb": "سوید",
          "name:crh": "İsveç",
          "name:csb": "Szwedzkô",
          "name:diq": "İswec",
          "name:dsb": "Šwedska",
          "name:ext": "Suécia",
          "name:frp": "Suède",
          "name:frr": "Swärik",
          "name:fur": "Svezie",
          "name:gag": "Şvețiya",
          "name:gan": "瑞典",
          "name:hak": "Shuì-tién",
          "name:haw": "Kuekene",
          "name:hif": "Sweden",
          "name:hsb": "Šwedska",
          "name:ilo": "Suésia",
          "name:jbo": "sueriges",
          "name:kaa": "Shvetsiya",
          "name:kab": "Sswid",
          "name:kbd": "Шуэц",
          "name:koi": "Шведму",
          "name:krc": "Швеция",
          "name:krl": "Ruočči",
          "name:lad": "Suesia",
          "name:lez": "Швеция",
          "name:lij": "Sveçia",
          "name:lmo": "Svezia",
          "name:ltg": "Švedeja",
          "name:lzh": "瑞典",
          "name:mdf": "Шведмастор",
          "name:mhr": "Швеций",
          "name:myv": "Швеция Мастор",
          "name:mzn": "سوئد",
          "name:nah": "Suecia",
          "name:nan": "Sūi-tián",
          "name:nap": "Sguezia",
          "name:nds": "Sweden",
          "name:new": "स्विदेन",
          "name:nov": "Suedia",
          "name:nrm": "Suède",
          "name:pag": "Suesia",
          "name:pam": "Sweden",
          "name:pap": "Suecia",
          "name:pcd": "Suède",
          "name:pih": "Swiiden",
          "name:pms": "Svessia",
          "name:pnb": "سویڈن",
          "name:pnt": "Σουηδία",
          "name:rue": "Швеція",
          "name:sah": "Швеция",
          "name:scn": "Svezzia",
          "name:sco": "Swaden",
          "name:sje": "Sverrje",
          "name:smn": "Ruotâ",
          "name:sms": "Ruõcc",
          "name:stq": "Sweeden",
          "name:szl": "Szwedyjŏ",
          "name:tet": "Suésia",
          "name:tok": "ma Wensa",
          "name:tpi": "Suwidan",
          "name:tzl": "Sveiria",
          "name:udm": "Швеция",
          "name:vec": "Svèsia",
          "name:vep": "Ročinma",
          "name:vls": "Zweedn",
          "name:vro": "Roodsi",
          "name:war": "Suwesya",
          "name:wuu": "瑞典",
          "name:xal": "Сведин Нутг",
          "name:xmf": "შვედეთი",
          "name:yue": "瑞典",
          "name:zea": "Zweden",
          "timezone": "Europe/Stockholm",
          "way_area": "92.383",
          "wikidata": "Q34",
          "ISO3166-1": "SE",
          "wikipedia": "sv:Sverige",
          "admin_level": "2",
          "alt_name:eo": "Svedujo",
          "name:nds-nl": "Sveden",
          "name:bat-smg": "Švedėjė",
          "name:roa-rup": "Suidia",
          "name:zh-Hans": "瑞典",
          "name:roa-tara": "Svezzie",
          "official_name": "Konungariket Sverige",
          "name:be-tarask": "Швэцыя",
          "ISO3166-1:alpha2": "SE",
          "ISO3166-1:alpha3": "SWE",
          "default_language": "sv",
          "official_name:be": "Каралеўства Швецыя",
          "official_name:cs": "Švédské království",
          "official_name:de": "Königreich Schweden",
          "official_name:el": "Βασίλειο της Σουηδίας",
          "official_name:eo": "Reĝlando Svedio",
          "official_name:sv": "Konungariket Sverige",
          "ISO3166-1:numeric": "752"
        }
      },
      "geometry": {
        "type": "Polygon",
        "coordinates": [
          [
            [
              11,
              58
            ],
            [
              12,
              58
            ],
            [
              12,
              59
            ],
            [
              11.697854047327512,
              59
            ],
            [
              11.697014,
              58.9995084
            ],
            [
              11.6953341,
              58.9988834
            ],
            [
              11.6942373,
              58.9986362
            ],
            [
              11.6933389,
              58.9986333
            ],
            [
              11.6927301,
              58.9983584
            ],
            [
              11.6924589,
              58.9979917
            ],
            [
              11.6926041,
              58.9977306
            ],
            [
              11.6936544,
              58.9972444
            ],
            [
              11.6939778,
              58.9966445
            ],
            [
              11.6946442,
              58.9963028
            ],
            [
              11.6940027,
              58.9959944
            ],
            [
              11.6926066,
              58.9960738
            ],
            [
              11.6922686,
              58.9958699
            ],
            [
              11.6924902,
              58.9954952
            ],
            [
              11.6931553,
              58.9950444
            ],
            [
              11.6932172,
              58.9946001
            ],
            [
              11.692858,
              58.9943834
            ],
            [
              11.6927952,
              58.9940362
            ],
            [
              11.6918913,
              58.9934334
            ],
            [
              11.6917078,
              58.9928722
            ],
            [
              11.6900672,
              58.9921584
            ],
            [
              11.6897797,
              58.9916055
            ],
            [
              11.6892765,
              58.991164
            ],
            [
              11.6881653,
              58.9912722
            ],
            [
              11.6864312,
              58.9902074
            ],
            [
              11.684852,
              58.9902831
            ],
            [
              11.6839138,
              58.9899989
            ],
            [
              11.6838484,
              58.9897058
            ],
            [
              11.6842772,
              58.9892361
            ],
            [
              11.6842036,
              58.9890528
            ],
            [
              11.6847765,
              58.9886945
            ],
            [
              11.6847188,
              58.9882945
            ],
            [
              11.6849067,
              58.98805
            ],
            [
              11.6840516,
              58.9878083
            ],
            [
              11.6843306,
              58.987314
            ],
            [
              11.6855372,
              58.9876306
            ],
            [
              11.6857086,
              58.9875389
            ],
            [
              11.6856217,
              58.9873362
            ],
            [
              11.6872629,
              58.986766
            ],
            [
              11.689042,
              58.9866889
            ],
            [
              11.6890148,
              58.9864417
            ],
            [
              11.6887209,
              58.9863452
            ],
            [
              11.6893892,
              58.9861632
            ],
            [
              11.689624,
              58.9857363
            ],
            [
              11.6904044,
              58.9856552
            ],
            [
              11.6909403,
              58.9858008
            ],
            [
              11.692015,
              58.9851217
            ],
            [
              11.6920137,
              58.984865
            ],
            [
              11.6916884,
              58.9843707
            ],
            [
              11.6918412,
              58.9832267
            ],
            [
              11.6916451,
              58.9827917
            ],
            [
              11.6916462,
              58.9822778
            ],
            [
              11.691337,
              58.9820528
            ],
            [
              11.6906306,
              58.9821889
            ],
            [
              11.6905511,
              58.982
            ],
            [
              11.6915902,
              58.9816076
            ],
            [
              11.691923,
              58.9812639
            ],
            [
              11.6916242,
              58.9810118
            ],
            [
              11.6909383,
              58.9811931
            ],
            [
              11.6908445,
              58.9810704
            ],
            [
              11.6909499,
              58.9809869
            ],
            [
              11.6922663,
              58.9808265
            ],
            [
              11.6925266,
              58.980549
            ],
            [
              11.6923068,
              58.9804221
            ],
            [
              11.6928513,
              58.980204
            ],
            [
              11.6924617,
              58.9796175
            ],
            [
              11.6930282,
              58.9794868
            ],
            [
              11.6930303,
              58.979359
            ],
            [
              11.692544,
              58.979266
            ],
            [
              11.6924086,
              58.9790677
            ],
            [
              11.6933734,
              58.9785768
            ],
            [
              11.6931628,
              58.9783096
            ],
            [
              11.6936412,
              58.9777759
            ],
            [
              11.6930263,
              58.9776601
            ],
            [
              11.6931778,
              58.9773785
            ],
            [
              11.6930522,
              58.9772633
            ],
            [
              11.6917997,
              58.9776474
            ],
            [
              11.6916986,
              58.9775679
            ],
            [
              11.6919022,
              58.9770671
            ],
            [
              11.69078,
              58.977277
            ],
            [
              11.6905036,
              58.9770951
            ],
            [
              11.6908258,
              58.9768869
            ],
            [
              11.6905419,
              58.9767503
            ],
            [
              11.6889172,
              58.9771498
            ],
            [
              11.6883578,
              58.9768574
            ],
            [
              11.6880945,
              58.9762039
            ],
            [
              11.6873778,
              58.9762638
            ],
            [
              11.6873295,
              58.9765244
            ],
            [
              11.6864907,
              58.9761753
            ],
            [
              11.6864073,
              58.9753602
            ],
            [
              11.6854185,
              58.9749103
            ],
            [
              11.6853312,
              58.9746723
            ],
            [
              11.684704,
              58.9746982
            ],
            [
              11.684432,
              58.9743846
            ],
            [
              11.6847751,
              58.9739066
            ],
            [
              11.6846245,
              58.9735898
            ],
            [
              11.6851667,
              58.9732977
            ],
            [
              11.6853215,
              58.9729828
            ],
            [
              11.6856397,
              58.9730621
            ],
            [
              11.6860116,
              58.9728159
            ],
            [
              11.6871331,
              58.9727723
            ],
            [
              11.6878256,
              58.972925
            ],
            [
              11.689028,
              58.9726681
            ],
            [
              11.6892924,
              58.9723884
            ],
            [
              11.6886677,
              58.9716883
            ],
            [
              11.6868445,
              58.9705021
            ],
            [
              11.6866489,
              58.9698937
            ],
            [
              11.6873472,
              58.9680457
            ],
            [
              11.6872461,
              58.9652478
            ],
            [
              11.6877554,
              58.9633602
            ],
            [
              11.6880358,
              58.9609103
            ],
            [
              11.6891905,
              58.9578562
            ],
            [
              11.6890826,
              58.9568451
            ],
            [
              11.688823,
              58.9563556
            ],
            [
              11.6879188,
              58.9554572
            ],
            [
              11.6828198,
              58.952508
            ],
            [
              11.6816451,
              58.9514223
            ],
            [
              11.681267,
              58.9504287
            ],
            [
              11.6814776,
              58.9489583
            ],
            [
              11.6819865,
              58.9478038
            ],
            [
              11.6819955,
              58.9474933
            ],
            [
              11.6817196,
              58.947101
            ],
            [
              11.6801473,
              58.9460776
            ],
            [
              11.6766009,
              58.9448956
            ],
            [
              11.6761176,
              58.9443316
            ],
            [
              11.6760889,
              58.9436409
            ],
            [
              11.6756747,
              58.9430625
            ],
            [
              11.6733816,
              58.9419574
            ],
            [
              11.673288,
              58.9410141
            ],
            [
              11.6737205,
              58.939793
            ],
            [
              11.6744539,
              58.938799
            ],
            [
              11.6747419,
              58.9380293
            ],
            [
              11.6759686,
              58.9365429
            ],
            [
              11.6760666,
              58.9355975
            ],
            [
              11.6758604,
              58.9350644
            ],
            [
              11.6753566,
              58.9348303
            ],
            [
              11.6736611,
              58.9348624
            ],
            [
              11.6721959,
              58.9346947
            ],
            [
              11.6699517,
              58.9348095
            ],
            [
              11.6683751,
              58.9346491
            ],
            [
              11.6660731,
              58.9349392
            ],
            [
              11.6648855,
              58.9348794
            ],
            [
              11.663874,
              58.9345521
            ],
            [
              11.6613491,
              58.9331136
            ],
            [
              11.6587992,
              58.9322344
            ],
            [
              11.658171,
              58.9317617
            ],
            [
              11.6580543,
              58.9311914
            ],
            [
              11.6582017,
              58.9309126
            ],
            [
              11.661597,
              58.9276081
            ],
            [
              11.6616449,
              58.9274002
            ],
            [
              11.6609955,
              58.9271047
            ],
            [
              11.6590479,
              58.9275935
            ],
            [
              11.657495,
              58.9268761
            ],
            [
              11.6568019,
              58.9261182
            ],
            [
              11.6566393,
              58.9252841
            ],
            [
              11.657044,
              58.9239055
            ],
            [
              11.6570087,
              58.9223016
            ],
            [
              11.652003,
              58.9062334
            ],
            [
              11.6339644,
              58.9081844
            ],
            [
              11.6335481,
              58.9083472
            ],
            [
              11.6322489,
              58.9083218
            ],
            [
              11.631165,
              58.9086638
            ],
            [
              11.6304263,
              58.9086151
            ],
            [
              11.6299393,
              58.9083236
            ],
            [
              11.6298145,
              58.9076129
            ],
            [
              11.6263053,
              58.9054778
            ],
            [
              11.6070703,
              58.8979528
            ],
            [
              11.5992136,
              58.8945314
            ],
            [
              11.5988374,
              58.8941272
            ],
            [
              11.5974091,
              58.8936505
            ],
            [
              11.5906295,
              58.8907158
            ],
            [
              11.5878689,
              58.8921528
            ],
            [
              11.584847,
              58.8945778
            ],
            [
              11.5844369,
              58.8943528
            ],
            [
              11.5840255,
              58.8944528
            ],
            [
              11.5826845,
              58.8941028
            ],
            [
              11.5819564,
              58.8947361
            ],
            [
              11.5817328,
              58.8947139
            ],
            [
              11.5818687,
              58.8951139
            ],
            [
              11.5813553,
              58.8957306
            ],
            [
              11.5807519,
              58.8957028
            ],
            [
              11.5799762,
              58.8960028
            ],
            [
              11.5793578,
              58.8967322
            ],
            [
              11.579509,
              58.8969545
            ],
            [
              11.5778222,
              58.8974944
            ],
            [
              11.5778655,
              58.8972834
            ],
            [
              11.5774197,
              58.8972056
            ],
            [
              11.5766873,
              58.8967723
            ],
            [
              11.5767047,
              58.896375
            ],
            [
              11.5764431,
              58.8962445
            ],
            [
              11.5761653,
              58.8957778
            ],
            [
              11.5761276,
              58.8950084
            ],
            [
              11.5760014,
              58.8944528
            ],
            [
              11.5758061,
              58.8942805
            ],
            [
              11.5755556,
              58.8928139
            ],
            [
              11.5752148,
              58.8920501
            ],
            [
              11.5751948,
              58.8914137
            ],
            [
              11.574679,
              58.891151
            ],
            [
              11.5744331,
              58.8903901
            ],
            [
              11.5739124,
              58.8901942
            ],
            [
              11.5739226,
              58.8899758
            ],
            [
              11.573599,
              58.8898628
            ],
            [
              11.5733931,
              58.8891754
            ],
            [
              11.5735151,
              58.8889196
            ],
            [
              11.5733151,
              58.8884615
            ],
            [
              11.5727799,
              58.8882888
            ],
            [
              11.5724948,
              58.8878254
            ],
            [
              11.5710861,
              58.8881001
            ],
            [
              11.5709734,
              58.888325
            ],
            [
              11.5700705,
              58.8885639
            ],
            [
              11.5701736,
              58.8886556
            ],
            [
              11.5699079,
              58.8889387
            ],
            [
              11.5679048,
              58.8898461
            ],
            [
              11.5670474,
              58.8905579
            ],
            [
              11.5667154,
              58.8906479
            ],
            [
              11.5663514,
              58.8911348
            ],
            [
              11.5655329,
              58.8916025
            ],
            [
              11.5650941,
              58.892064
            ],
            [
              11.5641767,
              58.8924607
            ],
            [
              11.5640178,
              58.8932085
            ],
            [
              11.5634665,
              58.8939174
            ],
            [
              11.5614177,
              58.8955149
            ],
            [
              11.5611421,
              58.8958459
            ],
            [
              11.5611183,
              58.8961295
            ],
            [
              11.5607978,
              58.8963727
            ],
            [
              11.5587957,
              58.8972004
            ],
            [
              11.5585447,
              58.8975244
            ],
            [
              11.5579306,
              58.8977289
            ],
            [
              11.5576657,
              58.8980608
            ],
            [
              11.5558738,
              58.8984437
            ],
            [
              11.5558121,
              58.8987967
            ],
            [
              11.5533985,
              58.8989319
            ],
            [
              11.5532922,
              58.8986167
            ],
            [
              11.5526527,
              58.8983422
            ],
            [
              11.5530663,
              58.8980862
            ],
            [
              11.5523372,
              58.8978834
            ],
            [
              11.551608,
              58.8982361
            ],
            [
              11.5512891,
              58.8982306
            ],
            [
              11.5504286,
              58.8969889
            ],
            [
              11.5490581,
              58.8967361
            ],
            [
              11.5494387,
              58.8961178
            ],
            [
              11.5489128,
              58.8956973
            ],
            [
              11.5489165,
              58.8954098
            ],
            [
              11.5478815,
              58.8956843
            ],
            [
              11.5474539,
              58.8956423
            ],
            [
              11.5460401,
              58.8943903
            ],
            [
              11.5453364,
              58.8940195
            ],
            [
              11.5452722,
              58.8938639
            ],
            [
              11.5454958,
              58.8934262
            ],
            [
              11.5462727,
              58.892925
            ],
            [
              11.5448287,
              58.8920889
            ],
            [
              11.5440603,
              58.8907251
            ],
            [
              11.5439162,
              58.890075
            ],
            [
              11.5427355,
              58.8895223
            ],
            [
              11.5425814,
              58.8891917
            ],
            [
              11.5426912,
              58.8886973
            ],
            [
              11.542403,
              58.8881764
            ],
            [
              11.5420051,
              58.8880556
            ],
            [
              11.5414646,
              58.8882778
            ],
            [
              11.5406098,
              58.8883389
            ],
            [
              11.5398452,
              58.8876149
            ],
            [
              11.539816,
              58.8871293
            ],
            [
              11.5400152,
              58.8868164
            ],
            [
              11.5398573,
              58.8866715
            ],
            [
              11.5389173,
              58.8862417
            ],
            [
              11.5371505,
              58.8861263
            ],
            [
              11.5362392,
              58.8854695
            ],
            [
              11.5348645,
              58.8853611
            ],
            [
              11.5345377,
              58.8855917
            ],
            [
              11.5347473,
              58.8858556
            ],
            [
              11.5346561,
              58.885989
            ],
            [
              11.5337089,
              58.8860723
            ],
            [
              11.5339617,
              58.885225
            ],
            [
              11.5343587,
              58.8848361
            ],
            [
              11.5381033,
              58.8833
            ],
            [
              11.5381934,
              58.8829111
            ],
            [
              11.5386492,
              58.8826833
            ],
            [
              11.5388639,
              58.8818528
            ],
            [
              11.5387198,
              58.8813751
            ],
            [
              11.5389691,
              58.8802084
            ],
            [
              11.5382769,
              58.8795584
            ],
            [
              11.53861,
              58.8790722
            ],
            [
              11.5384091,
              58.8787028
            ],
            [
              11.5376314,
              58.8784028
            ],
            [
              11.5373492,
              58.878139
            ],
            [
              11.5374131,
              58.8774183
            ],
            [
              11.5364123,
              58.8773567
            ],
            [
              11.5351019,
              58.8784997
            ],
            [
              11.5344402,
              58.8785631
            ],
            [
              11.5339299,
              58.8789074
            ],
            [
              11.5329285,
              58.8791487
            ],
            [
              11.5318003,
              58.8784762
            ],
            [
              11.5311995,
              58.8785399
            ],
            [
              11.5314497,
              58.8781258
            ],
            [
              11.5313459,
              58.8779283
            ],
            [
              11.5308373,
              58.8779525
            ],
            [
              11.5296533,
              58.8776212
            ],
            [
              11.5291642,
              58.8770822
            ],
            [
              11.526371,
              58.8768949
            ],
            [
              11.5252898,
              58.8773934
            ],
            [
              11.525045,
              58.8777629
            ],
            [
              11.5245157,
              58.8778456
            ],
            [
              11.5239127,
              58.8782062
            ],
            [
              11.5218587,
              58.8783278
            ],
            [
              11.5193055,
              58.8792056
            ],
            [
              11.517718,
              58.8794663
            ],
            [
              11.5168342,
              58.8798614
            ],
            [
              11.5164976,
              58.880226
            ],
            [
              11.5165016,
              58.8804242
            ],
            [
              11.5171413,
              58.8810584
            ],
            [
              11.5167633,
              58.8813945
            ],
            [
              11.5161351,
              58.8815889
            ],
            [
              11.515318,
              58.8813445
            ],
            [
              11.5141876,
              58.8817602
            ],
            [
              11.5137868,
              58.8824304
            ],
            [
              11.5138501,
              58.8828465
            ],
            [
              11.512186,
              58.8833248
            ],
            [
              11.5001149,
              58.8893821
            ],
            [
              11.497957,
              58.8889112
            ],
            [
              11.4916958,
              58.8891194
            ],
            [
              11.4892709,
              58.8907723
            ],
            [
              11.4829167,
              58.8914583
            ],
            [
              11.4606837,
              58.8896561
            ],
            [
              11.4574477,
              58.8884387
            ],
            [
              11.4558126,
              58.8891832
            ],
            [
              11.4556679,
              58.8895903
            ],
            [
              11.4569966,
              58.890963
            ],
            [
              11.4569639,
              58.8929389
            ],
            [
              11.4571842,
              58.8932945
            ],
            [
              11.4569271,
              58.8936472
            ],
            [
              11.4570411,
              58.8940417
            ],
            [
              11.4564835,
              58.8950394
            ],
            [
              11.4562393,
              58.896933
            ],
            [
              11.4562599,
              58.9166316
            ],
            [
              11.4636597,
              58.9332617
            ],
            [
              11.4621644,
              58.9410401
            ],
            [
              11.4596828,
              58.9524876
            ],
            [
              11.4623248,
              58.9730566
            ],
            [
              11.4538742,
              58.9854673
            ],
            [
              11.4564464,
              58.9861705
            ],
            [
              11.4581226,
              58.9878701
            ],
            [
              11.4589105,
              58.988114
            ],
            [
              11.460069,
              58.988158
            ],
            [
              11.4645982,
              58.9911521
            ],
            [
              11.455909755079013,
              59
            ],
            [
              11.101109138829452,
              59
            ],
            [
              11.0923814,
              58.9918054
            ],
            [
              11.0665166,
              58.977411
            ],
            [
              11,
              58.963867889382975
            ],
            [
              11,
              58
            ]
          ]
        ]
      }
    }
  ]
}