{
  "type": "FeatureCollection",
  "features": [
    {
      "type": "Feature",
      "properties": {
        "osm_id": -214665,
        "boundary": "administrative",
        "admin_level": 2,
        "parents": null,
        "name": "Kazakhstan",
        "local_name": "Қазақстан",
        "name_en": "Kazakhstan",
        "all_tags": {
          "flag": "http://upload.wikimedia.org/wikipedia/commons/d/d3/Flag_of_Kazakhstan.svg",
          "name": "Қазақстан",
          "int_ref": "KZ",
          "name:ab": "Ҟазаҟсҭан",
          "name:af": "Kasakstan",
          "name:am": "ካዛክስታን",
          "name:an": "Cazaquistán",
          "name:ar": "كازاخستان",
          "name:av": "Хъазахъистан",
          "name:az": "Qazaxıstan",
          "name:ba": "Ҡаҙағстан",
          "name:be": "Казахстан",
          "name:bg": "Казахстан",
          "name:bi": "Kazakhstan",
          "name:bn": "কাজাখস্তান",
          "name:bo": "ཀཛ་ཀིསུ་གཏན།",
          "name:br": "Kazakstan",
          "name:bs": "Kazahstan",
          "name:ca": "Kazakhstan",
          "name:ce": "Кхазакхстан",
          "name:cs": "Kazachstán",
          "name:cu": "Каꙁахстанъ",
          "name:cv": "Казахстан",
          "name:cy": "Kazakstan",
          "name:da": "Kasakhstan",
          "name:de": "Kasachstan",
          "name:dv": "ކަޒަކިސްތާން",
          "name:ee": "Kazakhstan",
          "name:el": "Καζακστάν",
          "name:en": "Kazakhstan",
          "name:eo": "Kazaĥio",
          "name:es": "Kazajistán",
          "name:et": "Kasahstan",
          "name:eu": "Kazakhstan",
          "name:fa": "قزاقستان",
          "name:fi": "Kazakstan",
          "name:fo": "Kasakstan",
          "name:fr": "Kazakhstan",
          "name:fy": "Kazakstan",
          "name:ga": "An Chasacstáin",
          "name:gd": "Casachstàn",
          "name:gl": "Casaquistán",
          "name:gn": "Kazajistán",
          "name:gu": "કઝાકિસ્તાન",
          "name:gv": "Yn Chassaghstaan",
          "name:he": "קזחסטן",
          "name:hi": "कज़ाख़िस्तान",
          "name:hr": "Kazahstan",
          "name:ht": "Kazakstan",
          "name:hu": "Kazahsztán",
          "name:hy": "Ղազախստան",
          "name:ia": "Kazakhstan",
          "name:id": "Kazakhstan",
          "name:ie": "Kazakstan",
          "name:io": "Kazakstan",
          "name:is": "Kasakstan",
          "name:it": "Kazakistan",
          "name:ja": "カザフスタン",
          "name:jv": "Kazakhstan",
          "name:ka": "ყაზახეთი",
          "name:kg": "Kazakhstan",
          "name:kk": "Қазақстан",
          "name:kl": "Kasakhstani",
          "name:km": "កាសាក់ស្ថាន",
          "name:kn": "ಕಜಾಕಸ್ಥಾನ್",
          "name:ko": "카자흐스탄",
          "name:ku": "Qazaxistan",
          "name:kv": "Казахстан",
          "name:kw": "Pow Kazagh",
          "name:ky": "Казакстан Республикасы",
          "name:la": "Kazachstania",
          "name:lb": "Kasachstan",
          "name:li": "Kazachstan",
          "name:ln": "Kazakstáni",
          "name:lt": "Kazachstanas",
          "name:lv": "Kazahstāna",
          "name:mg": "Kazakstàna",
          "name:mi": "Katatānga",
          "name:mk": "Казахстан",
          "name:ml": "ഖസാഖ്സ്ഥാൻ",
          "name:mn": "Казахстан",
          "name:mr": "कझाकस्तान",
          "name:ms": "Kazakhstan",
          "name:mt": "Każakistan",
          "name:my": "ကာဇက်စတန်နိုင်ငံ",
          "name:na": "Kadaketan",
          "name:nl": "Kazachstan",
          "name:nn": "Kasakhstan",
          "name:no": "Kasakhstan",
          "name:nv": "Kʼazah Bikéyah",
          "name:oc": "Cazacstan",
          "name:or": "କାଜାଖସ୍ତାନ",
          "name:os": "Хъазахстан",
          "name:pa": "ਕਜਾਖਸਤਾਨ",
          "name:pl": "Kazachstan",
          "name:ps": "قزاقستان",
          "name:pt": "Cazaquistão",
          "name:qu": "Qasaqsuyu",
          "name:rm": "Kasachstan",
          "name:ro": "Kazahstan",
          "name:ru": "Казахстан",
          "name:rw": "Kazakisitani",
          "name:sa": "कजाकस्थान",
          "name:se": "Kazakstan",
          "name:sh": "Kazahstan",
          "name:si": "කසක්ස්තානය",
          "name:sk": "Kazachstan",
          "name:sl": "Kazahstan",
          "name:so": "Kasakhstan",
          "name:sq": "Kazakistani",
          "name:sr": "Казахстан",
          "name:ss": "IKhazakhi",
          "name:su": "Kazastan",
          "name:sv": "Kazakstan",
          "name:sw": "Kazakhstan",
          "name:ta": "கசக்ஸ்தான்",
          "name:te": "కజకస్తాన్",
          "name:tg": "Қазоқистон",
          "name:th": "ประเทศคาซัคสถาน",
          "name:tk": "Gazagystan",
          "name:tl": "Kazakhstan",
          "name:tr": "Kazakistan",
          "name:tt": "Казакъстан",
          "name:ug": "قازاقىستان",
          "name:uk": "Казахстан",
          "name:ur": "قازقستان",
          "name:uz": "Qozogʻiston",
          "name:vi": "Kazakhstan",
          "name:vo": "Kazakistän",
          "name:wo": "Kasakistaan",
          "name:yi": "קאזאכסטאן",
          "name:yo": "Kàsàkstán",
          "name:za": "Hahsazgwswhdanj",
          "name:zh": "哈萨克斯坦",
          "boundary": "administrative",
          "int_name": "Kazakhstan",
          "name:ace": "Kazakhstan",
          "name:als": "Kasachstan",
          "name:ang": "Casahstan",
          "name:arc": "ܩܙܩܣܛܐܢ",
          "name:arz": "كازاخستان",
          "name:ast": "Kazakstán",
          "name:bar": "Kasachstan",
          "name:bcl": "Kasahistan",
          "name:bpy": "কাজাখস্তান",
          "name:bug": "Kazakhstan",
          "name:bxr": "Казахстан",
          "name:ceb": "Kasahistan",
          "name:chr": "ᎧᏌᎩᏍᏔᏂ",
          "name:ckb": "کازاخستان",
          "name:crh": "Qazahistan",
          "name:csb": "Kazachstan",
          "name:diq": "Qazaxıstan",
          "name:dsb": "Kazachstan",
          "name:ext": "Cazastán",
          "name:frp": "Kazacstan",
          "name:frr": "Kasachstan",
          "name:gag": "Kazahstan",
          "name:hak": "Hâ-sat-khiet-sṳ̂-thán",
          "name:haw": "Kasakana",
          "name:hif": "Kazakhstan",
          "name:hsb": "Kazachstan",
          "name:ilo": "Kazakstan",
          "name:jbo": "kazaksTAN",
          "name:kaa": "Qazaqstan",
          "name:kbd": "Къазахъстэн",
          "name:koi": "Казахстан",
          "name:krc": "Къазакъстан",
          "name:lad": "Kazakistan",
          "name:lez": "Къазакъстан",
          "name:lij": "Kazakistan",
          "name:lmo": "Kazakistan",
          "name:ltg": "Kazaheja",
          "name:lzh": "哈薩克",
          "name:mdf": "Казахстан",
          "name:mhr": "Казахстан",
          "name:min": "Kazakhstan",
          "name:mzn": "قزاقئون",
          "name:nah": "Cazactlālpan",
          "name:nan": "Kazakhstan",
          "name:nds": "Kasachstan",
          "name:new": "कजाख्स्तान",
          "name:nov": "Kasakstan",
          "name:pam": "Kazastan",
          "name:pap": "Kazachstan",
          "name:pih": "Kazakstaan",
          "name:pms": "Kazakistan",
          "name:pnb": "قازقستان",
          "name:rue": "Казахстан",
          "name:sah": "Казахстаан",
          "name:scn": "Kazakistan",
          "name:sco": "Kazakhstan",
          "name:smn": "Kazakstan",
          "name:sms": "Kazakstaan",
          "name:srn": "Kazachstan",
          "name:stq": "Kasachstan",
          "name:szl": "Kazachstōn",
          "name:udm": "Казахстан",
          "name:vec": "Kazakistan",
          "name:vep": "Kazahstan",
          "name:vro": "Kasastan",
          "name:war": "Kasahistan",
          "name:wuu": "哈萨克斯坦",
          "name:xal": "Хасгудин Орн",
          "name:xmf": "ყაზახეთი",
          "name:yue": "哈薩克",
          "name:zea": "Kazachstan",
          "way_area": "333.001",
          "wikidata": "Q232",
          "ISO3166-1": "KZ",
          "wikipedia": "kk:Қазақстан",
          "admin_level": "2",
          "alt_name:ar": "قزخستان;قزاقستان",
          "alt_name:eo": "Kazaĥujo;Kazaĥstano",
          "alt_name:vi": "Ca-dắc-xtan",
          "name:nds-nl": "Kazakstan",
          "name:bat-smg": "Kazakstans",
          "name:roa-rup": "Kazahstan",
          "name:zh-Hans": "哈萨克斯坦",
          "name:zh-Hant": "哈薩克",
          "name:roa-tara": "Kazakistan",
          "name:be-tarask": "Казахстан",
          "ISO3166-1:alpha2": "KZ",
          "ISO3166-1:alpha3": "KAZ",
          "official_name:ar": "جمهورية كازاخستان",
          "official_name:cs": "Republika Kazachstán",
          "official_name:en": "Republic of Kazakhstan",
          "official_name:eo": "Respubliko Kazaĥio",
          "official_name:es": "República de Kazajistán",
          "official_name:ru": "Республика Казахстан",
          "official_name:zh": "哈萨克斯坦共和国",
          "ISO3166-1:numeric": "398",
          "official_name:zh-Hans": "哈萨克斯坦共和国",
          "official_name:zh-Hant": "哈薩克共和國"
        }
      },
      "geometry": {
        "type": "Polygon",
        "coordinates": [
          [
            [
              65,
              43.71601313869649
            ],
            [
              65.0021563,
              43.7153968
            ],
            [
              65.184862,
              43.4951617
            ],
            [
              65.4954695,
              43.3329139
            ],
            [
              65.532129,
              43.3150927
            ],
            [
              65.5592582,
              43.289475
            ],
            [
              65.74172179948037,
              43
            ],
            [
              66,
              43
            ],
            [
              66,
              44
            ],
            [
              65,
              44
            ],
            [
              65,
              43.71601313869649
            ]
          ]
        ]
      }
    },
    {
      "type": "Feature",
      "properties": {
        "osm_id": -196240,
        "boundary": "administrative",
        "admin_level": 2,
        "parents": null,
        "name": "Uzbekistan",
        "local_name": "Oʻzbekiston",
        "name_en": "Uzbekistan",
        "all_tags": {
          "flag": "http://upload.wikimedia.org/wikipedia/commons/8/84/Flag_of_Uzbekistan.svg",
          "name": "Oʻzbekiston",
          "name:af": "Oesbekistan",
          "name:am": "ኡዝቤኪስታን",
          "name:an": "Uzbekistán",
          "name:ar": "أوزبكستان",
          "name:az": "Özbəkistan",
          "name:ba": "Үзбәкстан",
          "name:be": "Узбекістан",
          "name:bg": "Узбекистан",
          "name:bn": "উজবেকিস্তান",
          "name:bo": "ཨུ་ཟ་བྷེ་ཁི་སི་ཐན།",
          "name:br": "Ouzbekistan",
          "name:bs": "Uzbekistan",
          "name:ca": "Uzbekistan",
          "name:ce": "Узбекистан",
          "name:cs": "Uzbekistán",
          "name:cv": "Ӳспекстан",
          "name:cy": "Uzbekistan",
          "name:da": "Usbekistan",
          "name:de": "Usbekistan",
          "name:dv": "އުޒްބެކިސްތާން",
          "name:dz": "ཨུཛ་བེ་ཀིསི་ཏཱན་",
          "name:ee": "Uzbekistan",
          "name:el": "Ουζμπεκιστάν",
          "name:en": "Uzbekistan",
          "name:eo": "Uzbekio",
          "name:es": "Uzbekistán",
          "name:et": "Usbekistan",
          "name:eu": "Uzbekistan",
          "name:fa": "ازبکستان",
          "name:fi": "Uzbekistan",
          "name:fo": "Usbekistan",
          "name:fr": "Ouzbékistan",
          "name:fy": "Oezbekistan",
          "name:ga": "An Úisbéiceastáin",
          "name:gd": "Usbagastàn",
          "name:gl": "Uzbequistán",
          "name:gn": "Uvekitã",
          "name:gu": "ઉઝબેકિસ્તાન",
          "name:gv": "Yn Oosbeckistaan",
          "name:he": "אוזבקיסטן",
          "name:hi": "उज़्बेकिस्तान",
          "name:hr": "Uzbekistan",
          "name:ht": "Ouzbekistan",
          "name:hu": "Üzbegisztán",
          "name:hy": "Ուզբեկստան",
          "name:ia": "Uzbekistan",
          "name:id": "Uzbekistan",
          "name:ie": "Uzbekistan",
          "name:io": "Uzbekistan",
          "name:is": "Úsbekistan",
          "name:it": "Uzbekistan",
          "name:ja": "ウズベキスタン",
          "name:jv": "Uzbekistan",
          "name:ka": "უზბეკეთი",
          "name:kk": "Өзбекстан",
          "name:kn": "ಉಜ್ಬೇಕಿಸ್ಥಾನ್",
          "name:ko": "우즈베키스탄",
          "name:ku": "Ûzbêkistan",
          "name:kv": "Узбекистан",
          "name:kw": "Pow Ousbek",
          "name:ky": "Өзбекстан",
          "name:la": "Uzbecia",
          "name:lb": "Usbekistan",
          "name:li": "Oesbekistan",
          "name:ln": "Uzbekistáni",
          "name:lt": "Uzbekija",
          "name:lv": "Uzbekistāna",
          "name:mk": "Узбекистан",
          "name:ml": "ഉസ്ബെക്കിസ്ഥാൻ",
          "name:mn": "Узбекистан",
          "name:mr": "उझबेकिस्तान",
          "name:ms": "Uzbekistan",
          "name:my": "ဥဇဘက်ကစ္စတန်နိုင်ငံ",
          "name:na": "Uzbekistan",
          "name:nl": "Oezbekistan",
          "name:nn": "Usbekistan",
          "name:no": "Usbekistan",
          "name:nv": "Ózbeʼ Bikéyah",
          "name:oc": "Ozbequistan",
          "name:or": "ଉଜବେକିସ୍ଥାନ",
          "name:os": "Узбекистан",
          "name:pa": "ਉਜ਼ਬੇਕਿਸਤਾਨ",
          "name:pl": "Uzbekistan",
          "name:ps": "اوزبکستان",
          "name:pt": "Uzbequistão",
          "name:qu": "Usbiksuyu",
          "name:ro": "Uzbekistan",
          "name:ru": "Узбекистан",
          "name:rw": "Uzubekisitani",
          "name:sa": "उजबेकिस्थान",
          "name:sd": "ازبڪستان",
          "name:se": "Uzbekistan",
          "name:sh": "Uzbekistan",
          "name:sk": "Uzbekistan",
          "name:sl": "Uzbekistan",
          "name:so": "Usbekistan",
          "name:sq": "Uzbekistani",
          "name:sr": "Узбекистан",
          "name:ss": "IZubekhi",
          "name:su": "Uzbékistan",
          "name:sv": "Uzbekistan",
          "name:sw": "Uzbekistan",
          "name:ta": "உசுபெக்கிசுத்தான்",
          "name:te": "ఉజ్బెకిస్తాన్",
          "name:tg": "Ӯзбакистон",
          "name:th": "ประเทศอุซเบกิสถาน",
          "name:tk": "Özbegistan",
          "name:tl": "Uzbekistan",
          "name:tr": "Özbekistan",
          "name:tt": "Үзбәкстан",
          "name:ug": "ئۆزبېكىستان",
          "name:uk": "Узбекистан",
          "name:ur": "ازبکستان",
          "name:uz": "Oʻzbekiston",
          "name:vi": "Uzbekistan",
          "name:vo": "Lusbekän",
          "name:wo": "Usbekistaan",
          "name:yi": "אוזבעקיסטאן",
          "name:yo": "Ùsbẹ̀kìstán",
          "name:zh": "乌兹别克斯坦 / 烏茲別克",
          "boundary": "administrative",
          "name:ace": "Uzbèkistan",
          "name:als": "Usbekistan",
          "name:ang": "Usbecastan",
          "name:arc": "ܐܘܙܒܩܣܛܐܢ",
          "name:arz": "اوزبيكيستان",
          "name:ast": "Uzbequistán",
          "name:bar": "Usbekistan",
          "name:bcl": "Usbekistan",
          "name:bpy": "উজবেকিস্তান",
          "name:bug": "Uzbekistan",
          "name:bxr": "Узбекистан",
          "name:ceb": "Uzbekistan",
          "name:chr": "ᎤᏍᏇᎩᏍᏔᏂ",
          "name:ckb": "ئۆزبەکستان",
          "name:crh": "Özbekistan",
          "name:csb": "Ùzbekistan",
          "name:diq": "Ozbekıstan",
          "name:dsb": "Usbekska",
          "name:ext": "Uzbequistán",
          "name:frp": "Ozbèquistan",
          "name:gag": "Özbekistan",
          "name:hak": "Vû-tsṳ̂-phe̍t-khiet-sṳ̂-thán",
          "name:hif": "Uzbekistan",
          "name:hsb": "Uzbekistan",
          "name:ilo": "Uzbekistan",
          "name:jbo": "uzbekistan",
          "name:kaa": "Ózbekstan",
          "name:kbd": "Узбэчыстэн",
          "name:lad": "Uzbekistan",
          "name:lez": "Узбекистан",
          "name:lij": "Uzbekistan",
          "name:lmo": "Uzbekistan",
          "name:lrc": "اوزبکستان",
          "name:mdf": "Узбекистан",
          "name:mhr": "Узбекистан",
          "name:min": "Uzbekistan",
          "name:mzn": "اوزبکستون",
          "name:nah": "Uzbequistan",
          "name:nan": "Uzbekistan",
          "name:nds": "Usbekistan",
          "name:new": "उज्बेकिस्तान",
          "name:nov": "Uzbekistan",
          "name:pam": "Uzbekistan",
          "name:pap": "Uzbekistan",
          "name:pms": "Uzbekistan",
          "name:pnb": "ازبکستان",
          "name:rue": "Узбекістан",
          "name:sah": "Узбекистаан",
          "name:scn": "Uzbekistan",
          "name:sco": "Uzbekistan",
          "name:smn": "Uzbekistan",
          "name:sms": "Uzbekistaan",
          "name:szl": "Uzbekistōn",
          "name:udm": "Узбекистан",
          "name:vec": "Uzbekistan",
          "name:vep": "Uzbekistan",
          "name:vro": "Usbekistan",
          "name:war": "Usbekistan",
          "name:wuu": "乌兹别克斯坦",
          "name:xal": "Сартин Орн",
          "name:yue": "月即別",
          "name:zea": "Oezbekistan",
          "way_area": "48.4889",
          "wikidata": "Q265",
          "ISO3166-1": "UZ",
          "wikipedia": "en:Uzbekistan",
          "population": "35727181",
          "admin_level": "2",
          "alt_name:eo": "Uzbekujo;Uzbekistano",
          "alt_name:vi": "U-dơ-bê-kít-xtan;Uzbekstan;Ozbekistan",
          "name:uz-cyr": "Ўзбекистон",
          "name:bat-smg": "Ozbėkistans",
          "name:zh-Hans": "乌兹别克斯坦",
          "name:zh-Hant": "烏茲別克",
          "official_name": "O‘zbekiston Respublikasi",
          "name:be-tarask": "Узбэкістан",
          "population:date": "2022-09-01",
          "ISO3166-1:alpha2": "UZ",
          "ISO3166-1:alpha3": "UZB",
          "default_language": "uz",
          "official_name:ar": "جمهورية أوزبكستان",
          "official_name:cs": "Republika Uzbekistán",
          "official_name:en": "Republic of Uzbekistan",
          "official_name:eo": "Uzbeka Respubliko",
          "official_name:fa": "جمهوری ازبکستان",
          "official_name:gn": "Tavakuairetã Uvekitã",
          "official_name:pt": "República do Uzbequistão",
          "official_name:ru": "Республика Узбекистан",
          "official_name:ur": "جمہوریہ ازبکستان",
          "ISO3166-1:numeric": "860"
        }
      },
      "geometry": {
        "type": "Polygon",
        "coordinates": [
          [
            [
              65,
              43
            ],
            [
              65.74172179948037,
              43
            ],
            [
              65.5592582,
              43.289475
            ],
            [
              65.532129,
              43.3150927
            ],
            [
              65.4954695,
              43.3329139
            ],
            [
              65.184862,
              43.4951617
            ],
            [
              65.0021563,
              43.7153968
            ],
            [
              65,
              43.71601313869649
            ],
            [
              65,
              43
            ]
          ]
        ]
      }
    }
  ]
}