{
  "type": "FeatureCollection",
  "features": [
    {
      "type": "Feature",
      "properties": {
        "osm_id": -192799,
        "boundary": "administrative",
        "admin_level": 2,
        "parents": null,
        "name": "Somalia",
        "local_name": "Soomaaliya ÿßŸÑÿµŸàŸÖÿßŸÑ",
        "name_en": "Somalia",
        "all_tags": {
          "flag": "http://upload.wikimedia.org/wikipedia/commons/a/a0/Flag_of_Somalia.svg",
          "name": "Soomaaliya ÿßŸÑÿµŸàŸÖÿßŸÑ",
          "name:af": "Somali√´",
          "name:am": "·à∂·àõ·àä·ã´",
          "name:an": "Somalia",
          "name:ar": "ÿßŸÑÿµŸàŸÖÿßŸÑ",
          "name:az": "Somali",
          "name:ba": "–°–æ–º–∞–ª–∏",
          "name:be": "–°–∞–º–∞–ª—ñ",
          "name:bg": "–°–æ–º–∞–ª–∏—è",
          "name:bn": "‡¶∏‡ßã‡¶Æ‡¶æ‡¶≤‡¶ø‡¶Ø‡¶º‡¶æ",
          "name:bo": "‡Ω¶‡Ωº‡ºã‡Ωò‡ºã‡Ω£‡Ω≤‡ºç",
          "name:br": "Somalia",
          "name:bs": "Somalija",
          "name:ca": "Som√†lia",
          "name:ce": "–°–æ–º–∞–ª–∏",
          "name:cs": "Som√°lsko",
          "name:cy": "Somalia",
          "name:da": "Somalia",
          "name:de": "Somalia",
          "name:dv": "ﬁêﬁØﬁâﬁßﬁçﬁ®ﬁáﬁß",
          "name:ee": "Somalia",
          "name:el": "Œ£ŒøŒºŒ±ŒªŒØŒ±",
          "name:en": "Somalia",
          "name:eo": "Somalio",
          "name:es": "Somalia",
          "name:et": "Somaalia",
          "name:eu": "Somalia",
          "name:fa": "ÿ≥ŸàŸÖÿßŸÑ€å",
          "name:fi": "Somalia",
          "name:fo": "Somalia",
          "name:fr": "Somalie",
          "name:fy": "Somaalje",
          "name:ga": "An tSom√°il",
          "name:gd": "Som√†ilia",
          "name:gl": "Somalia",
          "name:gn": "Som√°lia",
          "name:gv": "Yn Tomaal",
          "name:he": "◊°◊ï◊û◊ú◊ô◊î",
          "name:hi": "‡§∏‡•ã‡§Æ‡§æ‡§≤‡§ø‡§Ø‡§æ",
          "name:hr": "Somalija",
          "name:ht": "Somali",
          "name:hu": "Szom√°lia",
          "name:hy": "’ç’∏’¥’°’¨’´",
          "name:ia": "Somalia",
          "name:id": "Somalia",
          "name:ie": "Somalia",
          "name:io": "Somalia",
          "name:is": "S√≥mal√≠a",
          "name:it": "Somalia",
          "name:ja": "„ÇΩ„Éû„É™„Ç¢",
          "name:jv": "Somalia",
          "name:ka": "·É°·Éù·Éõ·Éê·Éö·Éò",
          "name:kg": "S√¥m√¢lia",
          "name:ki": "Somalia",
          "name:kk": "–°–æ–º–∞–ª–∏",
          "name:kn": "‡≤∏‡≥ä‡≤Æ‡≤æ‡≤≤‡≤ø‡≤Ø",
          "name:ko": "ÏÜåÎßêÎ¶¨ÏïÑ",
          "name:ku": "Somalya",
          "name:kw": "Somali",
          "name:la": "Somalia",
          "name:lb": "Somalia",
          "name:li": "Somali√´",
          "name:ln": "Somalia",
          "name:lt": "Somalis",
          "name:lv": "SomƒÅlija",
          "name:mg": "Somalia",
          "name:mi": "H≈´mƒÅrie",
          "name:mk": "–°–æ–º–∞–ª–∏—ò–∞",
          "name:ml": "‡¥∏‡µä‡¥Æ‡¥æ‡¥≤‡¥ø‡¥Ø",
          "name:mn": "–°–æ–º–∞–ª–∏",
          "name:mr": "‡§∏‡•ã‡§Æ‡§æ‡§≤‡§ø‡§Ø‡§æ ‡§™‡•ç‡§∞‡§ú‡§æ‡§∏‡§§‡•ç‡§§‡§æ‡§ï",
          "name:ms": "Somalia",
          "name:mt": "Somalja",
          "name:my": "·ÄÜ·Ä≠·ÄØ·Äô·Ä¨·Äú·ÄÆ·Äö·Ä¨·Äî·Ä≠·ÄØ·ÄÑ·Ä∫·ÄÑ·Ä∂",
          "name:na": "Tomariya",
          "name:nl": "Somali√´",
          "name:nn": "Somalia",
          "name:no": "Somalia",
          "name:nv": "Soom√°√°lii Bik√©yah",
          "name:oc": "Somalia",
          "name:om": "Somaaliyaa",
          "name:or": "‡¨∏‡≠ã‡¨Æ‡¨æ‡¨≤‡¨ø‡¨Ü",
          "name:os": "–°–æ–º–∞–ª–∏",
          "name:pa": "‡®∏‡©ã‡®Æ‡®æ‡®≤‡©Ä‡®Ü",
          "name:pl": "Somalia",
          "name:ps": "ÿ≥ŸàŸÖÿßŸÑ€åÿß",
          "name:pt": "Som√°lia",
          "name:qu": "Sumalya",
          "name:rm": "Somalia",
          "name:ro": "Somalia",
          "name:ru": "–°–æ–º–∞–ª–∏",
          "name:rw": "Somaliya",
          "name:sa": "‡§∏‡•ã‡§Æ‡§æ‡§≤‡§ø‡§Ø‡§æ",
          "name:sc": "Som√†lia",
          "name:se": "Som√°lia",
          "name:sg": "Somal√Øi",
          "name:sh": "Somalija",
          "name:si": "‡∑É‡∑ù‡∂∏‡∑è‡∂Ω‡∑í‡∂∫‡∑è‡∑Ä",
          "name:sk": "Som√°lsko",
          "name:sl": "Somalija",
          "name:sm": "Somalia",
          "name:sn": "Somalia",
          "name:so": "Soomaaliya",
          "name:sq": "Somalia",
          "name:sr": "–°–æ–º–∞–ª–∏—ò–∞",
          "name:ss": "ISomaliya",
          "name:st": "Somalia",
          "name:su": "Somalia",
          "name:sv": "Somalia",
          "name:sw": "Somalia",
          "name:ta": "‡Æö‡Øã‡ÆÆ‡Ææ‡Æ≤‡Æø‡ÆØ‡Ææ",
          "name:te": "‡∞∏‡±ä‡∞Æ‡∞æ‡∞≤‡∞ø‡∞Ø‡∞æ",
          "name:tg": "–°—É–º–æ–ª”£",
          "name:th": "‡∏õ‡∏£‡∏∞‡πÄ‡∏ó‡∏®‡πÇ‡∏ã‡∏°‡∏≤‡πÄ‡∏•‡∏µ‡∏¢",
          "name:ti": "·à∂·àõ·àä·ã´",
          "name:tk": "Somali",
          "name:tl": "Somalya",
          "name:tr": "Somali",
          "name:ts": "Somalia",
          "name:tt": "–°–æ–º–∞–ª–∏",
          "name:ug": "ÿ≥ŸàŸÖÿßŸÑŸâ",
          "name:uk": "–°–æ–º–∞–ª—ñ",
          "name:ur": "ÿµŸàŸÖÿßŸÑ€å€Å",
          "name:uz": "Somali",
          "name:vi": "Somalia",
          "name:vo": "Somal√§n",
          "name:wo": "Somali",
          "name:yi": "◊°◊ê◊û◊ê◊ú◊ô◊¢",
          "name:yo": "S√≤m√°l√≠√†",
          "name:zh": "Á¥¢È©¨Èáå / Á¥¢È¶¨Âà©‰∫û",
          "name:zu": "ISomalia",
          "boundary": "administrative",
          "name:ace": "Somalia",
          "name:als": "Somalia",
          "name:ang": "S≈çmalia",
          "name:arz": "ÿßŸÑÿµŸàŸÖÿßŸÑ",
          "name:ast": "Somalia",
          "name:bcl": "Somalya",
          "name:bjn": "Somalia",
          "name:bpy": "‡¶∏‡ßã‡¶Æ‡¶æ‡¶≤‡¶ø‡¶Ø‡¶º‡¶æ",
          "name:bxr": "–°–æ–º–∞–ª–∏",
          "name:ceb": "Somalia",
          "name:ckb": "ÿ≥€ÜŸÖÿß⁄µ€åÿß",
          "name:crh": "Somaliya",
          "name:din": "Thomalia",
          "name:diq": "Somalya",
          "name:dsb": "Somalija",
          "name:ext": "Som√°lia",
          "name:frp": "Somalie",
          "name:gag": "Somali",
          "name:hif": "Somalia",
          "name:hsb": "Somalija",
          "name:ilo": "Somalia",
          "name:jbo": "somalias",
          "name:lij": "Somalia",
          "name:lmo": "Sumalia",
          "name:lzh": "Á¥¢È¶¨Èáå",
          "name:mhr": "–°–æ–º–∞–ª–∏",
          "name:nah": "Somalia",
          "name:nan": "Somalia",
          "name:nds": "Somalia",
          "name:new": "‡§∏‡•ã‡§Æ‡§æ‡§≤‡§ø‡§Ø‡§æ",
          "name:nov": "Somalia",
          "name:nso": "Somalia",
          "name:pam": "Somalia",
          "name:pap": "Somalia",
          "name:pdc": "Somaali",
          "name:pms": "Somalia",
          "name:pnb": "ÿµŸàŸÖÿßŸÑ€å€Å",
          "name:sah": "–°–æ–º–∞–ª–∏—è",
          "name:scn": "Somalia",
          "name:sco": "Somalie",
          "name:smn": "Somalia",
          "name:sms": "Somalia",
          "name:stq": "Somalia",
          "name:szl": "S≈Ømalijo",
          "name:tzl": "Somalia",
          "name:vec": "Soma≈Çia",
          "name:vro": "Somaalia",
          "name:war": "Somalia",
          "name:wuu": "Á¥¢È©¨Èáå",
          "name:xal": "–°–æ–º–∞–ª–º—É–¥–∏–Ω –û—Ä–Ω",
          "name:yue": "Á¥¢È¶¨Èáå",
          "timezone": "Africa/Mogadishu",
          "way_area": "57.6923",
          "wikidata": "Q1045",
          "ISO3166-1": "SO",
          "wikipedia": "ar:ÿßŸÑÿµŸàŸÖÿßŸÑ",
          "admin_level": "2",
          "alt_name:eo": "Somalujo",
          "name:bat-smg": "Suomalis",
          "name:so-Osma": "êíàêíùêíëêíõêíêêíòêíïêíñ",
          "name:zh-Hans": "Á¥¢È©¨Èáå",
          "name:zh-Hant": "Á¥¢È¶¨Âà©‰∫û",
          "name:be-tarask": "–°–∞–º–∞–ª—ñ",
          "ISO3166-1:alpha2": "SO",
          "ISO3166-1:alpha3": "SOM",
          "official_name:cs": "Som√°lsk√° federativn√≠ republika",
          "official_name:en": "Federal Republic of Somalia",
          "official_name:gn": "Tavakuairet√£ √ëembyatypyre Som√°lia",
          "official_name:pt": "Rep√∫blica Federal da Som√°lia",
          "ISO3166-1:numeric": "706"
        }
      },
      "geometry": {
        "type": "MultiPolygon",
        "coordinates": [
          [
            [
              [
                46,
                11
              ],
              [
                46.00135199816857,
                11
              ],
              [
                46,
                11.000670865477206
              ],
              [
                46,
                11
              ]
            ]
          ],
          [
            [
              [
                46.70589580801355,
                11
              ],
              [
                47,
                11
              ],
              [
                47,
                11.198711900928334
              ],
              [
                46.9889499,
                11.1876805
              ],
              [
                46.9770004,
                11.169422
              ],
              [
                46.9655053,
                11.157276
              ],
              [
                46.9492047,
                11.1531632
              ],
              [
                46.919879,
                11.1411666
              ],
              [
                46.875602,
                11.1119697
              ],
              [
                46.8533402,
                11.1055958
              ],
              [
                46.8202962,
                11.0892549
              ],
              [
                46.790795,
                11.0672749
              ],
              [
                46.7808714,
                11.056594
              ],
              [
                46.7741139,
                11.0524581
              ],
              [
                46.746018,
                11.0274924
              ],
              [
                46.7248232,
                11.0145494
              ],
              [
                46.7117701,
                11.003534
              ],
              [
                46.70589580801355,
                11
              ]
            ]
          ]
        ]
      }
    }
  ]
}