{
  "type": "FeatureCollection",
  "features": [
    {
      "type": "Feature",
      "properties": {
        "osm_id": -1857436,
        "boundary": "administrative",
        "admin_level": 2,
        "parents": null,
        "name": "Solomon Islands",
        "local_name": "Solomon Islands",
        "name_en": "Solomon Islands",
        "all_tags": {
          "flag": "http://upload.wikimedia.org/wikipedia/commons/7/74/Flag_of_the_Solomon_Islands.svg",
          "name": "Solomon Islands",
          "name:af": "Solomoneilande",
          "name:am": "ሰለሞን ደሴቶች",
          "name:an": "Islas Salomón",
          "name:ar": "جزر سليمان",
          "name:az": "Solomon adaları",
          "name:be": "Саламонавы Астравы",
          "name:bg": "Соломонови острови",
          "name:bn": "সলোমন দ্বীপপুঞ্জ",
          "name:bo": "སོ་ལོ་མོན་གླིང་ཕྲན་ཚོ་ཁག",
          "name:br": "Inizi Solomon",
          "name:bs": "Solomonska Ostrva",
          "name:ca": "Salomó",
          "name:ce": "Соломонан гӀайреш",
          "name:cs": "Šalomounovy ostrovy",
          "name:cv": "Соломон Утравĕсем",
          "name:cy": "Ynysoedd Solomon",
          "name:da": "Salomonøerne",
          "name:de": "Salomonen",
          "name:dv": "ސޮލޮމޮން ޖަޒީރާ",
          "name:el": "Νήσοι Σολομώντα",
          "name:en": "Solomon Islands",
          "name:eo": "Salomonoj",
          "name:es": "Islas Salomón",
          "name:et": "Saalomoni Saared",
          "name:eu": "Salomon Uharteak",
          "name:fa": "جزایر سلیمان",
          "name:fi": "Salomonsaaret",
          "name:fo": "Sálomonoyggjarnar",
          "name:fr": "Salomon",
          "name:fy": "Salomonseilannen",
          "name:ga": "Oileáin Sholamón",
          "name:gd": "Na h-Eileanan Sholaimh",
          "name:gl": "Illas Salomón",
          "name:gn": "Ypa'ũnguéra Salomõ",
          "name:gv": "Ny h-Ellanyn Holomon",
          "name:he": "איי שלמה",
          "name:hi": "सोलोमन द्वीपसमूह",
          "name:hr": "Solomonski Otoci",
          "name:ht": "Salomon",
          "name:hu": "Salamon-szigetek",
          "name:hy": "Սողոմոնյան Կղզիներ",
          "name:id": "Kepulauan Solomon",
          "name:io": "Salomon Insuli",
          "name:is": "Salómonseyjar",
          "name:it": "Isole Salomone",
          "name:ja": "ソロモン諸島",
          "name:jv": "Kapuloan Solomon",
          "name:ka": "სოლომონის კუნძულები",
          "name:kk": "Соломон Аралдары",
          "name:kn": "ಸಾಲೊಮನ್ ದ್ವೀಪಗಳು",
          "name:ko": "솔로몬 제도",
          "name:ku": "Giravên Salomon",
          "name:kw": "Ynysow Salamon",
          "name:la": "Insulae Salomonis",
          "name:lb": "Salomonen",
          "name:li": "Salomonseilen",
          "name:lt": "Saliamono Salos",
          "name:lv": "Zālamana Salas",
          "name:mk": "Соломонски Острови",
          "name:ml": "സോളമൻ ദ്വീപുകൾ",
          "name:mr": "सॉलोमन द्वीपसमूह",
          "name:ms": "Kepulauan Solomon",
          "name:mt": "Gżejjer Solomon",
          "name:my": "ဆော်လမွန်အိုင်းလန်းနိုင်ငံ",
          "name:ne": "सोलोमन द्धीप",
          "name:nl": "Salomonseilanden",
          "name:nn": "Salomonøyane",
          "name:no": "Salomonøyene",
          "name:nv": "Sólomon Tó Bináhaazyínígíí",
          "name:oc": "Illas Salamon",
          "name:or": "ସୋଲୋମନ ଆୟରଲ୍ୟାଣ୍ଡ",
          "name:os": "Соломоны сакъадæхтæ",
          "name:pa": "ਸੋਲੋਮਨ ਟਾਪੂ",
          "name:pl": "Wyspy Salomona",
          "name:pt": "Ilhas Salomão",
          "name:qu": "Salumun wat'akuna",
          "name:ro": "Insulele Solomon",
          "name:ru": "Соломоновы Острова",
          "name:rw": "Ibirwa bya Solomoni",
          "name:sa": "सोलोमन-द्वीप",
          "name:se": "Salomonsullot",
          "name:sh": "Solomonski Otoci",
          "name:si": "සොලමන් දුපත්",
          "name:sk": "Šalamúnove ostrovy",
          "name:sl": "Salomonovi otoki",
          "name:sm": "Solomon Islands",
          "name:so": "Jasiiradaha Solomon",
          "name:sq": "Ishujt Solomon",
          "name:sr": "Соломонска Острва",
          "name:su": "Kapuloan Solomon",
          "name:sv": "Salomonöarna",
          "name:sw": "Visiwa vya Solomon",
          "name:ta": "சொலமன் தீவுகள்",
          "name:te": "సోలమన్ దీవులు",
          "name:tg": "Ҷазираҳои Соломон",
          "name:th": "หมู่เกาะโซโลมอน",
          "name:tl": "Kapuluang Solomon",
          "name:tr": "Solomon Adaları",
          "name:ug": "سولومون تاقىم ئاراللىرى",
          "name:uk": "Соломонові Острови",
          "name:ur": "جزائر سلیمان",
          "name:uz": "Solomon Orollari",
          "name:vi": "Quần đảo Solomon",
          "name:vo": "Solomonuäns",
          "name:wo": "Duni Solomon",
          "name:yo": "Àwọn Erékùsù Sólómọ́nì",
          "name:zh": "所罗门群岛 / 索羅門群島",
          "boundary": "administrative",
          "name:ace": "Pulo-pulo Solomon",
          "name:als": "Salomonen",
          "name:arz": "جزر سولومون",
          "name:ast": "Islles Salomón",
          "name:bcl": "Islas Solomon",
          "name:bpy": "সলোমন দ্বীপমালা",
          "name:bxr": "Соломон аралууд",
          "name:ceb": "Kapupud-ang Solomon",
          "name:ckb": "دوورگەکانی سلێمان",
          "name:crh": "Solomon Adaları",
          "name:diq": "Adeyê Solomoni",
          "name:dsb": "Salomony",
          "name:ext": "Islas Salomón",
          "name:frp": "Iles Salomon",
          "name:hif": "Solomon Islands",
          "name:hsb": "Salomony",
          "name:ilo": "Is-isla ti Solomon",
          "name:ksh": "Salomone",
          "name:lij": "Isoe Salomon",
          "name:lmo": "Isul Salomon",
          "name:nah": "Salomón Tlālhuāctli",
          "name:nan": "Só͘-lô-bûn Kûn-tó",
          "name:nds": "Salomonen",
          "name:pam": "Solomon Islands",
          "name:pih": "Solamon Ailen",
          "name:pms": "Ìsole Salomon",
          "name:pnb": "سولومن آئلینڈ",
          "name:sah": "Соломон арыылара",
          "name:scn": "Ìsuli Salamuni",
          "name:sco": "Solomon Islands",
          "name:smn": "Salomonsuolluuh",
          "name:sms": "Salomoon-suõllu",
          "name:szl": "Wyspy ôd Salōmōna",
          "name:tpi": "Solomon Ailans",
          "name:vro": "Saalomoni saarõq",
          "name:war": "Kapuropod-an Solomon",
          "name:xal": "Соломонин Арлс",
          "name:yue": "所羅門群島",
          "timezone": "Pacific/Guadalcanal",
          "way_area": "19.9969",
          "wikidata": "Q685",
          "ISO3166-1": "SB",
          "wikipedia": "en:Solomon Islands",
          "admin_level": "2",
          "alt_name:mk": "Соломони",
          "border_type": "nation",
          "name:simple": "Solomon Islands",
          "driving_side": "left",
          "name:bat-smg": "Saliamuona Salas",
          "name:zh-Hans": "所罗门群岛",
          "name:zh-Hant": "索羅門群島",
          "name:be-tarask": "Саламонавы астравы",
          "ISO3166-1:alpha2": "SB",
          "ISO3166-1:alpha3": "SLB",
          "default_language": "en",
          "ISO3166-1:numeric": "090"
        }
      },
      "geometry": {
        "type": "Polygon",
        "coordinates": [
          [
            [
              158.9808611,
              -5.3741586
            ],
            [
              158.9833509,
              -5.4058263
            ],
            [
              158.9904964,
              -5.4454279
            ],
            [
              159,
              -5.469312258427347
            ],
            [
              159,
              -5.210294564563521
            ],
            [
              158.9824238,
              -5.3287882
            ],
            [
              158.9808611,
              -5.3741586
            ]
          ]
        ]
      }
    }
  ]
}