{
  "type": "FeatureCollection",
  "features": [
    {
      "type": "Feature",
      "properties": {
        "osm_id": -2978650,
        "boundary": "administrative",
        "admin_level": 2,
        "parents": null,
        "name": "Norway",
        "local_name": "Norge",
        "name_en": "Norway",
        "all_tags": {
          "flag": "http://upload.wikimedia.org/wikipedia/commons/d/d9/Flag_of_Norway.svg",
          "name": "Norge",
          "name:af": "Noorweë",
          "name:am": "ኖርዌይ",
          "name:an": "Noruega",
          "name:ar": "النرويج",
          "name:ay": "Nurweka",
          "name:az": "Norveç",
          "name:ba": "Норвегия",
          "name:be": "Нарвегія",
          "name:bg": "Норвегия",
          "name:bi": "Norway",
          "name:bm": "Norwij",
          "name:bn": "নরওয়ে",
          "name:bo": "ནོར་ཝེ།",
          "name:br": "Norvegia",
          "name:bs": "Norveška",
          "name:ca": "Noruega",
          "name:ce": "Норвеги",
          "name:co": "Nurvegia",
          "name:cs": "Norsko",
          "name:cu": "Норєгъ",
          "name:cv": "Норвеги",
          "name:cy": "Norwy",
          "name:da": "Norge",
          "name:de": "Norwegen",
          "name:dv": "ނޯވޭ",
          "name:dz": "ནོ་ཝེ་",
          "name:ee": "Norway",
          "name:el": "Νορβηγία",
          "name:en": "Norway",
          "name:eo": "Norvegio",
          "name:es": "Noruega",
          "name:et": "Norra",
          "name:eu": "Norvegia",
          "name:fa": "نروژ",
          "name:fi": "Norja",
          "name:fo": "Noregur",
          "name:fr": "Norvège",
          "name:fy": "Noarwegen",
          "name:ga": "An Iorua",
          "name:gd": "Nirribhidh",
          "name:gl": "Noruega",
          "name:gn": "Noruega",
          "name:gu": "નોર્વે",
          "name:gv": "Norlynn",
          "name:he": "נורבגיה",
          "name:hi": "नॉर्वे",
          "name:hr": "Norveška",
          "name:ht": "Nòvèj",
          "name:hu": "Norvégia",
          "name:hy": "Նորվեգիա",
          "name:ia": "Norvegia",
          "name:id": "Norwegia",
          "name:ie": "Norvegia",
          "name:io": "Norvegia",
          "name:is": "Noregur",
          "name:it": "Norvegia",
          "name:iu": "ᓄᕐᒋ",
          "name:ja": "ノルウェー",
          "name:jv": "Norwégia",
          "name:ka": "ნორვეგია",
          "name:kg": "Norge",
          "name:kk": "Норвегия",
          "name:kl": "Norge",
          "name:kn": "ನಾರ್ವೇ",
          "name:ko": "노르웨이",
          "name:ku": "Norwêc",
          "name:kv": "Норвегия",
          "name:kw": "Norgagh",
          "name:ky": "Норвегия",
          "name:la": "Norvegia",
          "name:lb": "Norwegen",
          "name:li": "Noorwege",
          "name:ln": "Norvej",
          "name:lt": "Norvegija",
          "name:lv": "Norvēģija",
          "name:mg": "Norvezy",
          "name:mi": "Nōwei",
          "name:mk": "Норвешка",
          "name:ml": "നോർവെ",
          "name:mn": "Норвеги",
          "name:mr": "नॉर्वे",
          "name:ms": "Norway",
          "name:mt": "Norveġja",
          "name:my": "နော်ဝေနိုင်ငံ",
          "name:na": "Norwei",
          "name:nb": "Norge",
          "name:ne": "नर्वे",
          "name:nl": "Noorwegen",
          "name:nn": "Noreg",
          "name:no": "Norge",
          "name:oc": "Norvègia",
          "name:om": "Norway",
          "name:or": "ନରୱେ",
          "name:os": "Норвеги",
          "name:pa": "ਨਾਰਵੇ",
          "name:pl": "Norwegia",
          "name:ps": "ناروې",
          "name:pt": "Noruega",
          "name:qu": "Nurwiga",
          "name:rm": "Norvegia",
          "name:rn": "Noruega",
          "name:ro": "Norvegia",
          "name:ru": "Норвегия",
          "name:rw": "Noruveje",
          "name:sa": "नार्वे",
          "name:sc": "Norvegia",
          "name:se": "Norga",
          "name:sh": "Norveška",
          "name:sk": "Nórsko",
          "name:sl": "Norveška",
          "name:so": "Norway",
          "name:sq": "Norvegjia",
          "name:sr": "Норвешка",
          "name:ss": "INoweyi",
          "name:su": "Norwégia",
          "name:sv": "Norge",
          "name:sw": "Norwei",
          "name:ta": "நோர்வே",
          "name:te": "నార్వే",
          "name:tg": "Норвегия",
          "name:th": "ประเทศนอร์เวย์",
          "name:tk": "Norwegiýa",
          "name:tl": "Noruwega",
          "name:tr": "Norveç",
          "name:ts": "Norge",
          "name:tt": "Норвегия",
          "name:ug": "نورۋېگىيە",
          "name:uk": "Норвегія",
          "name:ur": "ناروے",
          "name:uz": "Norvegiya",
          "name:vi": "Na Uy",
          "name:vo": "Norgän",
          "name:wa": "Norvedje",
          "name:wo": "Noorwees",
          "name:yi": "נארוועגיע",
          "name:yo": "Nọ́rwèy",
          "name:za": "Nozveih",
          "name:zh": "挪威",
          "name:zu": "INoki",
          "boundary": "administrative",
          "int_name": "Norway",
          "name:ace": "Norwègia",
          "name:als": "Norwegen",
          "name:ang": "Norþweg",
          "name:arc": "ܢܘܪܒܝܓ",
          "name:arz": "النرويج",
          "name:ast": "Noruega",
          "name:bar": "Norwegn",
          "name:bcl": "Norwey",
          "name:bpy": "নরৱে",
          "name:bxr": "Норвеги",
          "name:cdo": "Nò̤-ŭi",
          "name:ceb": "Noruwega",
          "name:chy": "Norway",
          "name:ckb": "نۆرویژ",
          "name:crh": "Norvegiya",
          "name:csb": "Norweskô",
          "name:diq": "Norwec",
          "name:dsb": "Norwegska",
          "name:ext": "Noruega",
          "name:frp": "Norvèg·e",
          "name:frr": "Norweegen",
          "name:gag": "Norvegiya",
          "name:gan": "挪威",
          "name:hak": "Nò-vî",
          "name:haw": "Nolewai",
          "name:hif": "Norway",
          "name:hsb": "Norwegska",
          "name:ilo": "Norwéga",
          "name:jbo": "noreg",
          "name:kaa": "Norvegiya",
          "name:kbd": "Норвегэ",
          "name:koi": "Норвег",
          "name:krc": "Норвегия",
          "name:lad": "Norvejia",
          "name:lez": "Норвегия",
          "name:lij": "Norveggia",
          "name:lmo": "Nurvegia",
          "name:ltg": "Norvegeja",
          "name:mdf": "Норвегие",
          "name:mhr": "Норвегий",
          "name:myv": "Норвегия Мастор",
          "name:nah": "Noruegia",
          "name:nan": "Lo̍k-ui-kok",
          "name:nds": "Norwegen",
          "name:nov": "Norvegia",
          "name:nrm": "Norouague",
          "name:pam": "Norwega",
          "name:pap": "Noruega",
          "name:pcd": "Norvège",
          "name:pih": "Norwaii",
          "name:pms": "Norvegia",
          "name:pnb": "ناروے",
          "name:pnt": "Νορβηγία",
          "name:rmy": "Norvejiya",
          "name:sah": "Норвегия",
          "name:scn": "Norveggia",
          "name:sco": "Norawa",
          "name:sje": "Vuodna",
          "name:sma": "Nöörje",
          "name:smj": "Vuodna",
          "name:smn": "Taažâ",
          "name:sms": "Taarr",
          "name:stq": "Norwegen",
          "name:szl": "Norwegijŏ",
          "name:tet": "Noruega",
          "name:tok": "ma Nosiki",
          "name:tpi": "Nowe",
          "name:tzl": "Norvexhà",
          "name:udm": "Норвегия",
          "name:vec": "Norveja",
          "name:vep": "Norvegii",
          "name:vls": "Nôorweegn",
          "name:vro": "Norra",
          "name:war": "Noruega",
          "name:wuu": "挪威",
          "name:xal": "Ноорскгин Нутг",
          "name:xmf": "ნორვეგია",
          "name:yue": "挪威",
          "name:zea": "Noorwegen",
          "way_area": "153.801",
          "wikidata": "Q20",
          "ISO3166-1": "NO",
          "wikipedia": "no:Norge",
          "population": "5488984",
          "admin_level": "2",
          "alt_name:eo": "Norvegujo",
          "name:nds-nl": "Noorwegen",
          "alt_name:sma": "Nøørje",
          "name:bat-smg": "Nuorvegėjė",
          "name:iu-Latn": "nurgi",
          "name:roa-rup": "Norveghia",
          "name:roa-tara": "Norveggie",
          "official_name": "Kongeriket Norge",
          "name:be-tarask": "Нарвэгія",
          "population:date": "2023-01-01",
          "ISO3166-1:alpha2": "NO",
          "ISO3166-1:alpha3": "NOR",
          "default_language": "no",
          "official_name:be": "Каралеўства Нарвегія",
          "official_name:cs": "Norské království",
          "official_name:de": "Königreich Norwegen",
          "official_name:en": "Kingdom of Norway",
          "official_name:eo": "Reĝlando Norvegio",
          "official_name:fr": "Royaume de Norvège",
          "official_name:sv": "Konungariket Norge",
          "ISO3166-1:numeric": "578"
        }
      },
      "geometry": {
        "type": "Polygon",
        "coordinates": [
          [
            [
              10,
              58.72843428001688
            ],
            [
              10.0738334,
              58.7479193
            ],
            [
              10.2526274,
              58.7723346
            ],
            [
              10.2709199,
              58.7750264
            ],
            [
              10.5761627,
              58.7618275
            ],
            [
              10.593096,
              58.760962
            ],
            [
              10.6389238,
              58.8922758
            ],
            [
              10.7751579,
              58.9168004
            ],
            [
              10.9179084,
              58.9422722
            ],
            [
              10.9832927,
              58.9604662
            ],
            [
              11,
              58.963867889382975
            ],
            [
              11,
              59
            ],
            [
              10,
              59
            ],
            [
              10,
              58.72843428001688
            ]
          ]
        ]
      }
    },
    {
      "type": "Feature",
      "properties": {
        "osm_id": -52822,
        "boundary": "administrative",
        "admin_level": 2,
        "parents": null,
        "name": "Sweden",
        "local_name": "Sverige",
        "name_en": "Sweden",
        "all_tags": {
          "flag": "http://upload.wikimedia.org/wikipedia/commons/4/4c/Flag_of_Sweden.svg",
          "name": "Sverige",
          "name:ab": "Швециа",
          "name:af": "Swede",
          "name:ak": "Sweden",
          "name:am": "ስዊድን",
          "name:an": "Suecia",
          "name:ar": "السويد",
          "name:az": "İsveç",
          "name:ba": "Швеция",
          "name:be": "Швецыя",
          "name:bg": "Швеция",
          "name:bi": "Sweden",
          "name:bm": "Swedi",
          "name:bn": "সুইডেন",
          "name:bo": "སི་ཝེ་དེན།",
          "name:br": "Sveden",
          "name:bs": "Švedska",
          "name:ca": "Suècia",
          "name:ce": "Швеци",
          "name:co": "Svezia",
          "name:cs": "Švédsko",
          "name:cu": "Свєньско",
          "name:cv": "Швеци",
          "name:cy": "Sweden",
          "name:da": "Sverige",
          "name:de": "Schweden",
          "name:dv": "ސުވިޑަން",
          "name:dz": "སུའི་ཌན་",
          "name:ee": "Sweden",
          "name:el": "Σουηδία",
          "name:en": "Sweden",
          "name:eo": "Svedio",
          "name:es": "Suecia",
          "name:et": "Rootsi",
          "name:eu": "Suedia",
          "name:fa": "سوئد",
          "name:fi": "Ruotsi",
          "name:fo": "Svøríki",
          "name:fr": "Suède",
          "name:fy": "Sweden",
          "name:ga": "An tSualainn",
          "name:gd": "An t-Suain",
          "name:gl": "Suecia",
          "name:gn": "Suesia",
          "name:gu": "સ્વિડન",
          "name:gv": "Yn Toolynn",
          "name:he": "שבדיה",
          "name:hi": "स्वीडन",
          "name:hr": "Švedska",
          "name:ht": "Syèd",
          "name:hu": "Svédország",
          "name:hy": "Շվեդիա",
          "name:ia": "Svedia",
          "name:id": "Swedia",
          "name:ie": "Svedia",
          "name:io": "Suedia",
          "name:is": "Svíþjóð",
          "name:it": "Svezia",
          "name:iu": "ᔅᕗᕆᑭ",
          "name:ja": "スウェーデン",
          "name:jv": "Swédia",
          "name:ka": "შვედეთი",
          "name:kg": "Suedi",
          "name:ki": "Sweden",
          "name:kk": "Швеция",
          "name:kl": "Svenskit Nunaat",
          "name:km": "ស៊ុយអែត",
          "name:kn": "ಸ್ವೀಡನ್",
          "name:ko": "스웨덴",
          "name:ku": "Swêd",
          "name:kv": "Швеция",
          "name:kw": "Swedherwyk",
          "name:ky": "Швеция",
          "name:la": "Suecia",
          "name:lb": "Schweden",
          "name:lg": "Swiiden",
          "name:li": "Zwede",
          "name:ln": "Swédi",
          "name:lt": "Švedija",
          "name:lv": "Zviedrija",
          "name:mg": "Soeda",
          "name:mi": "Huītene",
          "name:mk": "Шведска",
          "name:ml": "സ്വീഡൻ",
          "name:mn": "Швед",
          "name:mr": "स्वीडन",
          "name:ms": "Sweden",
          "name:mt": "Żvezja",
          "name:my": "ဆွီဒင်နိုင်ငံ",
          "name:na": "Widen",
          "name:ne": "स्वीडेन",
          "name:nl": "Zweden",
          "name:nn": "Sverige",
          "name:no": "Sverige",
          "name:oc": "Suècia",
          "name:or": "ସ୍ଵିଡେନ",
          "name:os": "Швеци",
          "name:pa": "ਸਵੀਡਨ",
          "name:pl": "Szwecja",
          "name:ps": "سويډن",
          "name:pt": "Suécia",
          "name:qu": "Suwidsuyu",
          "name:rm": "Svezia",
          "name:ro": "Suedia",
          "name:ru": "Швеция",
          "name:rw": "Suwede",
          "name:sa": "स्वीडन",
          "name:sc": "Isvetzia",
          "name:se": "Ruoŧŧa",
          "name:sh": "Švedska",
          "name:sk": "Švédsko",
          "name:sl": "Švedska",
          "name:sm": "Sweden",
          "name:so": "Iswiidhan",
          "name:sq": "Suedia",
          "name:sr": "Шведска",
          "name:ss": "ISwideni",
          "name:su": "Swédia",
          "name:sv": "Sverige",
          "name:sw": "Uswidi",
          "name:ta": "சுவீடன்",
          "name:te": "స్వీడన్",
          "name:tg": "Шветсия",
          "name:th": "ประเทศสวีเดน",
          "name:tk": "Şwesiýa",
          "name:tl": "Suwesya",
          "name:tr": "İsveç",
          "name:tt": "Швеция",
          "name:tw": "Sweden",
          "name:ug": "شۋېتسىيە",
          "name:uk": "Швеція",
          "name:ur": "سویڈن",
          "name:uz": "Shvetsiya",
          "name:vi": "Thụy Điển",
          "name:vo": "Svedän",
          "name:wa": "Suwedwesse",
          "name:wo": "Suweed",
          "name:yi": "שוועדן",
          "name:yo": "Swídìn",
          "name:zh": "瑞典",
          "name:zu": "ISwidi",
          "boundary": "administrative",
          "int_name": "Sweden",
          "name:ace": "Swèdia",
          "name:als": "Schweden",
          "name:ang": "Swēoland",
          "name:arc": "ܣܘܝܕ",
          "name:arz": "السويد",
          "name:ast": "Suecia",
          "name:bar": "Schwedn",
          "name:bcl": "Suesya",
          "name:bpy": "সুইডেন",
          "name:bxr": "Швед",
          "name:cdo": "Sôi-diēng",
          "name:ceb": "Suwesya",
          "name:chr": "ᏍᏫᏕᏂ",
          "name:ckb": "سوید",
          "name:crh": "İsveç",
          "name:csb": "Szwedzkô",
          "name:diq": "İswec",
          "name:dsb": "Šwedska",
          "name:ext": "Suécia",
          "name:frp": "Suède",
          "name:frr": "Swärik",
          "name:fur": "Svezie",
          "name:gag": "Şvețiya",
          "name:gan": "瑞典",
          "name:hak": "Shuì-tién",
          "name:haw": "Kuekene",
          "name:hif": "Sweden",
          "name:hsb": "Šwedska",
          "name:ilo": "Suésia",
          "name:jbo": "sueriges",
          "name:kaa": "Shvetsiya",
          "name:kab": "Sswid",
          "name:kbd": "Шуэц",
          "name:koi": "Шведму",
          "name:krc": "Швеция",
          "name:krl": "Ruočči",
          "name:lad": "Suesia",
          "name:lez": "Швеция",
          "name:lij": "Sveçia",
          "name:lmo": "Svezia",
          "name:ltg": "Švedeja",
          "name:lzh": "瑞典",
          "name:mdf": "Шведмастор",
          "name:mhr": "Швеций",
          "name:myv": "Швеция Мастор",
          "name:mzn": "سوئد",
          "name:nah": "Suecia",
          "name:nan": "Sūi-tián",
          "name:nap": "Sguezia",
          "name:nds": "Sweden",
          "name:new": "स्विदेन",
          "name:nov": "Suedia",
          "name:nrm": "Suède",
          "name:pag": "Suesia",
          "name:pam": "Sweden",
          "name:pap": "Suecia",
          "name:pcd": "Suède",
          "name:pih": "Swiiden",
          "name:pms": "Svessia",
          "name:pnb": "سویڈن",
          "name:pnt": "Σουηδία",
          "name:rue": "Швеція",
          "name:sah": "Швеция",
          "name:scn": "Svezzia",
          "name:sco": "Swaden",
          "name:sje": "Sverrje",
          "name:smn": "Ruotâ",
          "name:sms": "Ruõcc",
          "name:stq": "Sweeden",
          "name:szl": "Szwedyjŏ",
          "name:tet": "Suésia",
          "name:tok": "ma Wensa",
          "name:tpi": "Suwidan",
          "name:tzl": "Sveiria",
          "name:udm": "Швеция",
          "name:vec": "Svèsia",
          "name:vep": "Ročinma",
          "name:vls": "Zweedn",
          "name:vro": "Roodsi",
          "name:war": "Suwesya",
          "name:wuu": "瑞典",
          "name:xal": "Сведин Нутг",
          "name:xmf": "შვედეთი",
          "name:yue": "瑞典",
          "name:zea": "Zweden",
          "timezone": "Europe/Stockholm",
          "way_area": "92.383",
          "wikidata": "Q34",
          "ISO3166-1": "SE",
          "wikipedia": "sv:Sverige",
          "admin_level": "2",
          "alt_name:eo": "Svedujo",
          "name:nds-nl": "Sveden",
          "name:bat-smg": "Švedėjė",
          "name:roa-rup": "Suidia",
          "name:zh-Hans": "瑞典",
          "name:roa-tara": "Svezzie",
          "official_name": "Konungariket Sverige",
          "name:be-tarask": "Швэцыя",
          "ISO3166-1:alpha2": "SE",
          "ISO3166-1:alpha3": "SWE",
          "default_language": "sv",
          "official_name:be": "Каралеўства Швецыя",
          "official_name:cs": "Švédské království",
          "official_name:de": "Königreich Schweden",
          "official_name:el": "Βασίλειο της Σουηδίας",
          "official_name:eo": "Reĝlando Svedio",
          "official_name:sv": "Konungariket Sverige",
          "ISO3166-1:numeric": "752"
        }
      },
      "geometry": {
        "type": "Polygon",
        "coordinates": [
          [
            [
              10.5935025,
              58.762173
            ],
            [
              10.6395004,
              58.5155433
            ],
            [
              10.6411973,
              58.5086358
            ],
            [
              10.6433529,
              58.5017637
            ],
            [
              10.6459644,
              58.4949349
            ],
            [
              10.6490269,
              58.4881574
            ],
            [
              10.652541,
              58.4814401
            ],
            [
              10.6564966,
              58.4747917
            ],
            [
              10.6608927,
              58.4682193
            ],
            [
              10.6657212,
              58.4617307
            ],
            [
              10.6709775,
              58.4553346
            ],
            [
              10.7679463,
              58.3475633
            ],
            [
              10.8480563,
              58.258037
            ],
            [
              10.9013344,
              58.1576713
            ],
            [
              10.9627236,
              58.04129
            ],
            [
              10.9686316,
              58.0306828
            ],
            [
              10.9707826,
              58.0263037
            ],
            [
              10.9744686,
              58.0196191
            ],
            [
              10.9785394,
              58.0130859
            ],
            [
              10.985896348120583,
              58
            ],
            [
              11,
              58
            ],
            [
              11,
              58.963867889382975
            ],
            [
              10.9832927,
              58.9604662
            ],
            [
              10.9179084,
              58.9422722
            ],
            [
              10.7751579,
              58.9168004
            ],
            [
              10.6389238,
              58.8922758
            ],
            [
              10.5935025,
              58.762173
            ]
          ]
        ]
      }
    }
  ]
}