{
  "type": "FeatureCollection",
  "features": [
    {
      "type": "Feature",
      "properties": {
        "osm_id": -382313,
        "boundary": "administrative",
        "admin_level": 2,
        "parents": null,
        "name": "Japan",
        "local_name": "日本",
        "name_en": "Japan",
        "all_tags": {
          "flag": "http://upload.wikimedia.org/wikipedia/commons/9/9e/Flag_of_Japan.svg",
          "name": "日本",
          "name:ab": "Иапониа",
          "name:af": "Japan",
          "name:am": "ጃፓን",
          "name:an": "Chapón",
          "name:ar": "اليابان",
          "name:ay": "Nihun",
          "name:az": "Yaponiya",
          "name:ba": "Япония",
          "name:be": "Японія",
          "name:bg": "Япония",
          "name:bn": "জাপান",
          "name:bo": "རི་པིན།",
          "name:br": "Japan",
          "name:bs": "Japan",
          "name:ca": "Japó",
          "name:ce": "Япони",
          "name:ch": "Chapan",
          "name:cs": "Japonsko",
          "name:cu": "Ꙗпѡнїꙗ",
          "name:cv": "Япони",
          "name:cy": "Japan",
          "name:da": "Japan",
          "name:de": "Japan",
          "name:dv": "ޖަޕާނު",
          "name:dz": "ཇཱ་པཱན།",
          "name:ee": "Japan",
          "name:el": "Ιαπωνία",
          "name:en": "Japan",
          "name:eo": "Japanio",
          "name:es": "Japón",
          "name:et": "Jaapan",
          "name:eu": "Japonia",
          "name:fa": "ژاپن",
          "name:fi": "Japani",
          "name:fo": "Japan",
          "name:fr": "Japon",
          "name:fy": "Japan",
          "name:ga": "An tSeapáin",
          "name:gd": "An t-Seapan",
          "name:gl": "Xapón",
          "name:gn": "Hapõ",
          "name:gu": "જાપાન",
          "name:gv": "Yn Çhapaan",
          "name:ha": "Japan",
          "name:he": "יפן",
          "name:hi": "जापान",
          "name:hr": "Japan",
          "name:ht": "Japon",
          "name:hu": "Japán",
          "name:hy": "Ճապոնիա",
          "name:ia": "Japon",
          "name:id": "Jepang",
          "name:ie": "Japan",
          "name:io": "Japonia",
          "name:is": "Japan",
          "name:it": "Giappone",
          "name:iu": "ᓃᑉᐊᓐ",
          "name:ja": "日本",
          "name:jv": "Jepang",
          "name:ka": "იაპონია",
          "name:ki": "Japan",
          "name:kk": "Жапония",
          "name:kl": "Japani",
          "name:km": "ជប៉ុន",
          "name:kn": "ಜಪಾನ್",
          "name:ko": "일본",
          "name:ku": "Japon",
          "name:kv": "Япония",
          "name:kw": "Nihon",
          "name:ky": "Жапония",
          "name:la": "Iaponia",
          "name:lb": "Japan",
          "name:li": "Japan",
          "name:ln": "Zapɔ́",
          "name:lo": "ປະເທດຍີ່ປຸ່ນ",
          "name:lt": "Japonija",
          "name:lv": "Japāna",
          "name:mg": "Japana",
          "name:mi": "Hapani",
          "name:mk": "Јапонија",
          "name:ml": "ജപ്പാൻ",
          "name:mn": "Япон",
          "name:mo": "Жапония",
          "name:mr": "जपान",
          "name:ms": "Jepun",
          "name:mt": "Ġappun",
          "name:my": "ဂျပန်နိုင်ငံ",
          "name:na": "Djapan",
          "name:ne": "जापान",
          "name:nl": "Japan",
          "name:nn": "Japan",
          "name:no": "Japan",
          "name:nv": "Binaʼadaałtzózí Dinéʼiʼ Bikéyah",
          "name:oc": "Japon",
          "name:om": "Jaappaan",
          "name:or": "ଜାପାନ",
          "name:os": "Япон",
          "name:pa": "ਜਪਾਨ",
          "name:pl": "Japonia",
          "name:ps": "جاپان",
          "name:pt": "Japão",
          "name:qu": "Nihun",
          "name:rm": "Giapun",
          "name:ro": "Japonia",
          "name:ru": "Япония",
          "name:rw": "Ubuyapani",
          "name:sa": "सूर्यमूल",
          "name:sc": "Giapone",
          "name:sd": "جاپان",
          "name:se": "Japána",
          "name:sh": "Japan",
          "name:si": "ජපානය",
          "name:sk": "Japonsko",
          "name:sl": "Japonska",
          "name:sm": "Iapani",
          "name:so": "Jabaan",
          "name:sq": "Japonia",
          "name:sr": "Јапан",
          "name:ss": "IJaphani",
          "name:su": "Jepang",
          "name:sv": "Japan",
          "name:sw": "Japani",
          "name:ta": "ஜப்பான்",
          "name:te": "జపాన్",
          "name:tg": "Жопун",
          "name:th": "ประเทศญี่ปุ่น",
          "name:ti": "ጃፓን",
          "name:tk": "Ýaponiýa",
          "name:tl": "Hapon",
          "name:tr": "Japonya",
          "name:tt": "Япония",
          "name:tw": "Yapan",
          "name:ty": "Tāpōnē",
          "name:ug": "ياپونىيە",
          "name:uk": "Японія",
          "name:ur": "جاپان",
          "name:uz": "Yaponiya",
          "name:vi": "Nhật Bản",
          "name:vo": "Yapän",
          "name:wo": "Sapoŋ",
          "name:yi": "יאפאן",
          "name:yo": "Japan",
          "name:za": "Nditbonj",
          "name:zh": "日本",
          "name:zu": "IJapani",
          "boundary": "administrative",
          "name:ace": "Jeupun",
          "name:als": "Japan",
          "name:ang": "Iapan",
          "name:arc": "ܝܦܢ",
          "name:arz": "اليابان",
          "name:ast": "Xapón",
          "name:bar": "Japan",
          "name:bcl": "Hapon",
          "name:bjn": "Japang",
          "name:bpy": "জাপান",
          "name:bug": "ᨍᨛᨄ",
          "name:bxr": "Япон Улас",
          "name:cdo": "Nĭk-buōng",
          "name:ceb": "Hapon",
          "name:chr": "ᏣᏆᏂᏱ",
          "name:ckb": "ژاپۆن",
          "name:crh": "Yaponiya",
          "name:csb": "Japòńskô",
          "name:din": "Japan",
          "name:diq": "Japonya",
          "name:dsb": "Japańska",
          "name:ext": "Japón",
          "name:frp": "J·apon",
          "name:frr": "Japan",
          "name:gag": "Yaponiya",
          "name:gan": "日本",
          "name:hak": "Ngi̍t-pún",
          "name:haw": "Iāpana",
          "name:hif": "Japan",
          "name:hsb": "Japanska",
          "name:ilo": "Hapón",
          "name:jbo": "gugdejupu",
          "name:kab": "Japun",
          "name:kbd": "Япон",
          "name:koi": "Ниппон",
          "name:krc": "Япония",
          "name:lez": "Япония",
          "name:lij": "Giappon",
          "name:lmo": "Giapun",
          "name:ltg": "Japoneja",
          "name:lzh": "日本",
          "name:mdf": "Япунмастор",
          "name:mhr": "Японий",
          "name:min": "Japang",
          "name:mrj": "Япони",
          "name:mwl": "Japon",
          "name:mzn": "جاپون",
          "name:nah": "Xapon",
          "name:nan": "Ji̍t-pún",
          "name:nap": "Giappone",
          "name:nds": "Japan",
          "name:new": "जापान",
          "name:nov": "Japan",
          "name:nrm": "Japon",
          "name:nso": "Japane",
          "name:pam": "Hapon",
          "name:pap": "Hapon",
          "name:pcd": "Japon",
          "name:pdc": "Japan",
          "name:pih": "Japan",
          "name:pms": "Giapon",
          "name:pnb": "جاپان",
          "name:rue": "Японія",
          "name:sah": "Дьоппуон",
          "name:scn": "Giappuni",
          "name:sco": "Japan",
          "name:smn": "Jaapaan",
          "name:sms": "Japaan",
          "name:srn": "Japan",
          "name:stq": "Japan",
          "name:szl": "Japōnijŏ",
          "name:tok": "ma Nijon",
          "name:tpi": "Siapan",
          "name:tzl": "Cipangu",
          "name:udm": "Япония",
          "name:vec": "Giapòn",
          "name:vro": "Jaapan",
          "name:war": "Hapon",
          "name:wuu": "日本",
          "name:xal": "Ниxуудин Нутг",
          "name:xmf": "იაპონია",
          "name:yue": "日本",
          "name:zea": "Japan",
          "timezone": "Asia/Tokyo",
          "way_area": "76.5268",
          "wikidata": "Q17",
          "ISO3166-1": "JP",
          "wikipedia": "ja:日本",
          "name:ja_rm": "Nippon",
          "admin_level": "2",
          "alt_name:eo": "Japanujo",
          "alt_name:vi": "Nhật",
          "name:nds-nl": "Japan",
          "old_name:vi": "Nhật Bổn",
          "driving_side": "left",
          "name:bat-smg": "Japuonėjė",
          "name:cbk-zam": "Japón",
          "name:ja_kana": "にほん",
          "name:roa-rup": "Japonia",
          "name:zh-Hans": "日本",
          "name:zh-Hant": "日本",
          "name:roa-tara": "Giappone",
          "name:be-tarask": "Японія",
          "ISO3166-1:alpha2": "JP",
          "ISO3166-1:alpha3": "JPN",
          "default_language": "ja",
          "official_name:ar": "دولة اليابان",
          "official_name:en": "State of Japan",
          "official_name:es": "Estado de Japón",
          "official_name:fr": "État du Japon",
          "official_name:ko": "일본국",
          "ISO3166-1:numeric": "392"
        }
      },
      "geometry": {
        "type": "Polygon",
        "coordinates": [
          [
            [
              145,
              43
            ],
            [
              145.67518411027103,
              43
            ],
            [
              145.7540548,
              43.0375806
            ],
            [
              145.7641083,
              43.0428492
            ],
            [
              145.7738842,
              43.0482703
            ],
            [
              145.7870552,
              43.0566925
            ],
            [
              145.7994196,
              43.0657639
            ],
            [
              145.9160328,
              43.152585
            ],
            [
              145.8981585,
              43.2667845
            ],
            [
              145.8982336,
              43.2788691
            ],
            [
              145.8789325,
              43.3098079
            ],
            [
              145.8646738,
              43.3393029
            ],
            [
              145.8579737,
              43.3596929
            ],
            [
              145.8514023,
              43.369821
            ],
            [
              145.8469176,
              43.3736113
            ],
            [
              145.8438277,
              43.3786491
            ],
            [
              145.8283138,
              43.4089973
            ],
            [
              145.8268433,
              43.4125572
            ],
            [
              145.8217746,
              43.4269738
            ],
            [
              145.8145648,
              43.4300943
            ],
            [
              145.7936744,
              43.4445973
            ],
            [
              145.7747836,
              43.4622663
            ],
            [
              145.7680124,
              43.4690817
            ],
            [
              145.6941122,
              43.5413625
            ],
            [
              145.6923124,
              43.5445063
            ],
            [
              145.6504244,
              43.5344852
            ],
            [
              145.5314617,
              43.5083757
            ],
            [
              145.4596093,
              43.5915505
            ],
            [
              145.4534362,
              43.5997644
            ],
            [
              145.4435295,
              43.6138364
            ],
            [
              145.4330702,
              43.6298042
            ],
            [
              145.4295015,
              43.6355782
            ],
            [
              145.4065968,
              43.6450749
            ],
            [
              145.3836438,
              43.6556239
            ],
            [
              145.3487348,
              43.6734203
            ],
            [
              145.3308016,
              43.6839788
            ],
            [
              145.3261506,
              43.6864945
            ],
            [
              145.3115916,
              43.6954005
            ],
            [
              145.2917378,
              43.7081944
            ],
            [
              145.2745342,
              43.7230717
            ],
            [
              145.263977,
              43.7316621
            ],
            [
              145.2557588,
              43.7513076
            ],
            [
              145.2535057,
              43.7578288
            ],
            [
              145.251737,
              43.7687139
            ],
            [
              145.2430129,
              43.7821328
            ],
            [
              145.2429163,
              43.7845166
            ],
            [
              145.2444405,
              43.8184455
            ],
            [
              145.2457729,
              43.829202
            ],
            [
              145.2527825,
              43.8678593
            ],
            [
              145.2675551,
              43.8923027
            ],
            [
              145.2759799,
              43.9047049
            ],
            [
              145.2901071,
              43.9189072
            ],
            [
              145.3042772,
              43.9300251
            ],
            [
              145.3173959,
              43.9400112
            ],
            [
              145.3213119,
              43.9447679
            ],
            [
              145.342543,
              43.9626242
            ],
            [
              145.3658152,
              43.9843591
            ],
            [
              145.3845611,
              43.99891
            ],
            [
              145.38584890720426,
              44
            ],
            [
              145,
              44
            ],
            [
              145,
              43
            ]
          ]
        ]
      }
    },
    {
      "type": "Feature",
      "properties": {
        "osm_id": -60189,
        "boundary": "administrative",
        "admin_level": 2,
        "parents": null,
        "name": "Russia",
        "local_name": "Россия",
        "name_en": "Russia",
        "all_tags": {
          "flag": "https://upload.wikimedia.org/wikipedia/commons/f/f3/Flag_of_Russia.svg",
          "name": "Россия",
          "int_ref": "RU",
          "name:ab": "Урыстәыла",
          "name:af": "Rusland",
          "name:ak": "Russia",
          "name:am": "ሩሲያ",
          "name:an": "Rusia",
          "name:ar": "روسيا",
          "name:as": "ৰুশিযা",
          "name:av": "Россиялъул Федерация",
          "name:ay": "Rusiya",
          "name:az": "Rusiya",
          "name:ba": "Рәсәй",
          "name:be": "Расія",
          "name:bg": "Русия",
          "name:bi": "Rusia",
          "name:bm": "Risila",
          "name:bn": "রাশিয়া",
          "name:bo": "ཨུ་རུ་སུ།",
          "name:br": "Rusia",
          "name:bs": "Rusija",
          "name:ca": "Rússia",
          "name:ce": "Росси",
          "name:ch": "Russia",
          "name:co": "Russia",
          "name:cs": "Rusko",
          "name:cu": "Рѡсїꙗ",
          "name:cv": "Раççей Патшалăхĕ",
          "name:cy": "Rwsia",
          "name:da": "Rusland",
          "name:de": "Russland",
          "name:dv": "ރޫސީވިލާތް",
          "name:dz": "ར་ཤི་ཡཱན་ཕེ་ཌི་རེ་ཤཱན",
          "name:ee": "Russia",
          "name:el": "Ρωσία",
          "name:en": "Russia",
          "name:eo": "Rusio",
          "name:es": "Rusia",
          "name:et": "Venemaa",
          "name:eu": "Errusia",
          "name:fa": "روسیه",
          "name:ff": "Roosiya",
          "name:fi": "Venäjä",
          "name:fo": "Russland",
          "name:fr": "Russie",
          "name:fy": "Ruslân",
          "name:ga": "An Rúis",
          "name:gd": "An Ruis",
          "name:gl": "Rusia",
          "name:gn": "Rrúsia",
          "name:gu": "રશિયા",
          "name:gv": "Yn Roosh",
          "name:ha": "Rasha",
          "name:he": "רוסיה",
          "name:hi": "रूस",
          "name:hr": "Ruska Federacija",
          "name:ht": "Risi",
          "name:hu": "Oroszország",
          "name:hy": "Ռուսաստան",
          "name:ia": "Russia",
          "name:id": "Rusia",
          "name:ie": "Russia",
          "name:ig": "Mpaghara Russia",
          "name:ik": "Russia",
          "name:io": "Rusia",
          "name:is": "Rússland",
          "name:it": "Russia",
          "name:iu": "ᐅᓛᓴ",
          "name:ja": "ロシア",
          "name:jv": "Rusia",
          "name:ka": "რუსეთი",
          "name:kg": "Rusia",
          "name:ki": "Russia",
          "name:kk": "Ресей",
          "name:kl": "Ruslandi",
          "name:km": "រុស្ស៊ី",
          "name:kn": "ರಷ್ಯಾ",
          "name:ko": "러시아",
          "name:ks": "روٗس",
          "name:ku": "Rûsya",
          "name:kv": "Рочму",
          "name:kw": "Russi",
          "name:ky": "Орусия",
          "name:la": "Russia",
          "name:lb": "Russland",
          "name:lg": "Rwasha",
          "name:li": "Rusland",
          "name:ln": "Rusí",
          "name:lo": "ລັດເຊັຽ",
          "name:lt": "Rusija",
          "name:lv": "Krievija",
          "name:mg": "Rosia",
          "name:mi": "Ruhia",
          "name:mk": "Русија",
          "name:ml": "റഷ്യ",
          "name:mn": "Оросын Холбооны Улс",
          "name:mo": "Русия",
          "name:mr": "रशिया",
          "name:ms": "Rusia",
          "name:mt": "Russja",
          "name:my": "ရုရှားနိုင်ငံ",
          "name:na": "Ratsiya",
          "name:ne": "रुस",
          "name:nl": "Rusland",
          "name:nn": "Russland",
          "name:no": "Russland",
          "name:nv": "Biʼééʼ Łichííʼí Bikéyah",
          "name:ny": "Russia",
          "name:oc": "Russia",
          "name:om": "Raashiyaa",
          "name:or": "ଋଷିଆ",
          "name:os": "Уæрæсе",
          "name:pa": "ਰੂਸ",
          "name:pl": "Rosja",
          "name:ps": "روسیه",
          "name:pt": "Rússia",
          "name:qu": "Rusiya",
          "name:rm": "Russia",
          "name:rn": "Uburusiya",
          "name:ro": "Rusia",
          "name:ru": "Россия",
          "name:rw": "Uburusiya",
          "name:sc": "Rùssia",
          "name:sd": "روس",
          "name:se": "Ruošša",
          "name:sg": "Rusïi",
          "name:sh": "Rusija",
          "name:si": "රුසියාව",
          "name:sk": "Rusko",
          "name:sl": "Rusija",
          "name:sm": "Lusia",
          "name:sn": "Russia",
          "name:so": "Ruushka",
          "name:sq": "Rusia",
          "name:sr": "Русија",
          "name:ss": "IRashiya",
          "name:st": "Russia",
          "name:su": "Rusia",
          "name:sv": "Ryssland",
          "name:sw": "Shirikisho la Urusi",
          "name:ta": "உருசியா",
          "name:te": "రష్యా",
          "name:tg": "Русия",
          "name:th": "ประเทศรัสเซีย",
          "name:ti": "ራሻ",
          "name:tk": "Russiýa",
          "name:tl": "Pederasyong Ruso",
          "name:to": "Lūsia",
          "name:tr": "Rusya Federasyonu",
          "name:ts": "Russia",
          "name:tt": "Русия",
          "name:tw": "Russia",
          "name:ty": "Rūtia",
          "name:ug": "روسىيە",
          "name:uk": "Росія",
          "name:ur": "روس",
          "name:uz": "Rossiya Federatsiyasi",
          "name:ve": "Rashia",
          "name:vi": "Liên bang Nga",
          "name:vo": "Rusän",
          "name:wa": "Federåcion d' Rûsseye",
          "name:wo": "Federaasioŋ bu Riisi",
          "name:xh": "IRashiya",
          "name:yi": "רוסלאנד",
          "name:yo": "Rọ́síà",
          "name:za": "Ezlozswh Lienzbangh",
          "name:zh": "俄罗斯",
          "name:zu": "IRashiya",
          "boundary": "administrative",
          "currency": "RUB",
          "int_name": "Russia",
          "name:ace": "Rusia",
          "name:als": "Russland",
          "name:ang": "Russland",
          "name:arc": "ܪܘܣܝܐ",
          "name:arz": "روسيا",
          "name:ast": "Rusia",
          "name:bar": "Russland",
          "name:bcl": "Rusya",
          "name:bjn": "Rusia",
          "name:bpy": "রাশিয়া",
          "name:bug": "Russia",
          "name:bxr": "Ородой Холбооной Улас",
          "name:cdo": "Ngò̤-lò̤-sṳ̆",
          "name:ceb": "Rusya",
          "name:chr": "ᏲᏂᏱ",
          "name:chy": "Russia",
          "name:ckb": "ڕووسیا",
          "name:crh": "Rusiye",
          "name:csb": "Ruskô",
          "name:diq": "Rusya",
          "name:dsb": "Rusojska",
          "name:eml": "Rossia",
          "name:ext": "Russia",
          "name:frp": "Russie",
          "name:frr": "Ruslönj",
          "name:fur": "Russie",
          "name:gag": "Rusiya",
          "name:gan": "俄羅斯",
          "name:hak": "Ngò-lò-sṳ̂",
          "name:haw": "Rūsia",
          "name:hif": "Russia",
          "name:hsb": "Ruska federacija",
          "name:ilo": "Rusia",
          "name:jbo": "rukygu'e",
          "name:kaa": "Rossiya",
          "name:kab": "Rrus",
          "name:kbd": "Урысей",
          "name:koi": "Рочму",
          "name:krc": "Россия Федерация",
          "name:lad": "Rusia",
          "name:lbe": "Аьрасат",
          "name:lez": "Урусат",
          "name:lij": "Ruscia",
          "name:lmo": "Rüssia",
          "name:ltg": "Krīveja",
          "name:lzh": "俄羅斯",
          "name:mdf": "Рузмастор",
          "name:mhr": "Россий",
          "name:min": "Rusia",
          "name:mrj": "Россий",
          "name:mwl": "Rússia",
          "name:myv": "Россия Мастор",
          "name:mzn": "ئوروسیا",
          "name:nah": "Rusia",
          "name:nan": "Lō͘-se-a",
          "name:nap": "Russia",
          "name:nds": "Russ'sche Föderatschoon",
          "name:new": "रुस",
          "name:nov": "Rusia",
          "name:nrm": "Russie",
          "name:nso": "Russia",
          "name:pag": "Rusia",
          "name:pam": "Rusia",
          "name:pap": "Rusia",
          "name:pcd": "Russie",
          "name:pdc": "Russland",
          "name:pfl": "Russlond",
          "name:pih": "Rusha",
          "name:pms": "Russia",
          "name:pnb": "روس",
          "name:pnt": "Ρουσία",
          "name:rmy": "Rusiya",
          "name:rue": "Росія",
          "name:sah": "Арассыыйа",
          "name:scn": "Russia",
          "name:sco": "Roushie",
          "name:smn": "Ruoššâ",
          "name:sms": "Ruõššjânnam",
          "name:srn": "Rusland",
          "name:stq": "Ruslound",
          "name:szl": "Rusyjŏ",
          "name:tet": "Rúsia",
          "name:tok": "ma Losi",
          "name:tpi": "Rasia",
          "name:tum": "Russia",
          "name:tzl": "Rußía",
          "name:udm": "Россия",
          "name:vec": "Rusia",
          "name:vep": "Venäma",
          "name:vls": "Rusland",
          "name:vro": "Vinnemaa",
          "name:war": "Rusya",
          "name:wuu": "俄罗斯",
          "name:xal": "Орсн Орн Нутг",
          "name:xmf": "რუსეთი",
          "name:yue": "俄羅斯",
          "name:zea": "Rusland",
          "old_name": "Московия;Русское Царство;Российская Империя;Российская Советская Федеративная Социалистическая Республика",
          "way_area": "3241.56",
          "wikidata": "Q159",
          "ISO3166-1": "RU",
          "wikipedia": "ru:Россия",
          "name:UN:ar": "الاتحاد الروسي",
          "name:UN:en": "Russian Federation (the)",
          "name:UN:es": "Federación de Rusia (la)",
          "name:UN:fr": "Fédération de Russie (la)",
          "name:UN:ru": "Российская Федерация",
          "name:UN:zh": "俄罗斯联邦",
          "population": "146447424",
          "short_name": "РФ",
          "admin_level": "2",
          "alt_name:eo": "Rusujo;Ruslando",
          "border_type": "nation",
          "name:nds-nl": "Ruslaand",
          "name:bat-smg": "Rosėjė",
          "name:cbk-zam": "Rusia",
          "name:map-bms": "Rusia",
          "name:roa-rup": "Arusia",
          "name:zh-Hans": "俄罗斯",
          "name:zh-Hant": "俄羅斯",
          "name:roa-tara": "Russie",
          "official_name": "Российская Федерация",
          "short_name:ru": "РФ",
          "name:be-tarask": "Расея",
          "old_short_name": "РСФСР",
          "according_to:RU": "yes",
          "according_to:UA": "no",
          "population:date": "2023-01-01",
          "ISO3166-1:alpha2": "RU",
          "ISO3166-1:alpha3": "RUS",
          "default_language": "ru",
          "official_name:ar": "الاتحاد الروسي",
          "official_name:be": "Расійская Федэрацыя",
          "official_name:cs": "Ruská federace",
          "official_name:de": "Russische Föderation",
          "official_name:en": "Russian Federation",
          "official_name:eo": "Rusa Federacio",
          "official_name:es": "Federación Rusa",
          "official_name:et": "Venemaa Föderatsioon",
          "official_name:fi": "Venäjän Federaatio",
          "official_name:fr": "Fédération de Russie",
          "official_name:nl": "Russische Federatie",
          "official_name:pl": "Federacja Rosyjska",
          "official_name:pt": "Federação Russa",
          "official_name:ru": "Российская Федерация",
          "official_name:sk": "Ruská federácia",
          "official_name:sl": "Ruska federacija",
          "official_name:sv": "Ryska Federationen",
          "official_name:uk": "Російська Федерація",
          "official_name:yi": "רוסישע פֿעדעראַציע",
          "official_name:zh": "俄罗斯联邦",
          "ISO3166-1:numeric": "643",
          "official_name:ast": "Federación Rusa",
          "old_short_name:en": "RSFSR",
          "old_short_name:ru": "РСФСР",
          "official_name:zh-Hans": "俄罗斯联邦",
          "official_name:zh-Hant": "俄羅斯聯邦"
        }
      },
      "geometry": {
        "type": "Polygon",
        "coordinates": [
          [
            [
              145.2429163,
              43.7845166
            ],
            [
              145.2430129,
              43.7821328
            ],
            [
              145.251737,
              43.7687139
            ],
            [
              145.2535057,
              43.7578288
            ],
            [
              145.2557588,
              43.7513076
            ],
            [
              145.263977,
              43.7316621
            ],
            [
              145.2745342,
              43.7230717
            ],
            [
              145.2917378,
              43.7081944
            ],
            [
              145.3115916,
              43.6954005
            ],
            [
              145.3261506,
              43.6864945
            ],
            [
              145.3308016,
              43.6839788
            ],
            [
              145.3487348,
              43.6734203
            ],
            [
              145.3836438,
              43.6556239
            ],
            [
              145.4065968,
              43.6450749
            ],
            [
              145.4295015,
              43.6355782
            ],
            [
              145.4330702,
              43.6298042
            ],
            [
              145.4435295,
              43.6138364
            ],
            [
              145.4534362,
              43.5997644
            ],
            [
              145.4596093,
              43.5915505
            ],
            [
              145.5314617,
              43.5083757
            ],
            [
              145.6504244,
              43.5344852
            ],
            [
              145.6923124,
              43.5445063
            ],
            [
              145.6941122,
              43.5413625
            ],
            [
              145.7680124,
              43.4690817
            ],
            [
              145.7747836,
              43.4622663
            ],
            [
              145.7936744,
              43.4445973
            ],
            [
              145.8145648,
              43.4300943
            ],
            [
              145.8217746,
              43.4269738
            ],
            [
              145.8268433,
              43.4125572
            ],
            [
              145.8283138,
              43.4089973
            ],
            [
              145.8438277,
              43.3786491
            ],
            [
              145.8469176,
              43.3736113
            ],
            [
              145.8514023,
              43.369821
            ],
            [
              145.8579737,
              43.3596929
            ],
            [
              145.8646738,
              43.3393029
            ],
            [
              145.8789325,
              43.3098079
            ],
            [
              145.8982336,
              43.2788691
            ],
            [
              145.8981585,
              43.2667845
            ],
            [
              145.9160328,
              43.152585
            ],
            [
              145.9315252,
              43.1482487
            ],
            [
              145.9735715,
              43.1412112
            ],
            [
              146,
              43.139901817945216
            ],
            [
              146,
              43.72422477381974
            ],
            [
              145.9955549,
              43.7229167
            ],
            [
              145.9558581,
              43.7107578
            ],
            [
              145.933628,
              43.7013888
            ],
            [
              145.8962916,
              43.6844463
            ],
            [
              145.8587836,
              43.6607314
            ],
            [
              145.8416605,
              43.6589616
            ],
            [
              145.8295154,
              43.6568814
            ],
            [
              145.8428621,
              43.7338948
            ],
            [
              145.9064197,
              43.7546052
            ],
            [
              145.9432626,
              43.7713572
            ],
            [
              145.9761571,
              43.7921011
            ],
            [
              146,
              43.81267086856928
            ],
            [
              146,
              44
            ],
            [
              145.38584890720426,
              44
            ],
            [
              145.3845611,
              43.99891
            ],
            [
              145.3658152,
              43.9843591
            ],
            [
              145.342543,
              43.9626242
            ],
            [
              145.3213119,
              43.9447679
            ],
            [
              145.3173959,
              43.9400112
            ],
            [
              145.3042772,
              43.9300251
            ],
            [
              145.2901071,
              43.9189072
            ],
            [
              145.2759799,
              43.9047049
            ],
            [
              145.2675551,
              43.8923027
            ],
            [
              145.2527825,
              43.8678593
            ],
            [
              145.2457729,
              43.829202
            ],
            [
              145.2444405,
              43.8184455
            ],
            [
              145.2429163,
              43.7845166
            ]
          ]
        ]
      }
    }
  ]
}