{
  "type": "FeatureCollection",
  "features": [
    {
      "type": "Feature",
      "properties": {
        "osm_id": -161033,
        "boundary": "administrative",
        "admin_level": 2,
        "parents": null,
        "name": "Mongolia",
        "local_name": "Монгол улс ᠮᠤᠩᠭᠤᠯ ᠤᠯᠤᠰ",
        "name_en": "Mongolia",
        "all_tags": {
          "flag": "http://upload.wikimedia.org/wikipedia/commons/4/4c/Flag_of_Mongolia.svg",
          "name": "Монгол улс ᠮᠤᠩᠭᠤᠯ ᠤᠯᠤᠰ",
          "name:af": "Mongolië",
          "name:am": "ሞንጎልያ",
          "name:an": "Mongolia",
          "name:ar": "منغوليا",
          "name:as": "মঙ্গোলিয়া",
          "name:az": "Monqolustan",
          "name:ba": "Монголия",
          "name:be": "Манголія",
          "name:bg": "Монголия",
          "name:bn": "মঙ্গোলিয়া",
          "name:bo": "མོང་གོལ།",
          "name:br": "Mongolia",
          "name:bs": "Mongolija",
          "name:ca": "Mongòlia",
          "name:ce": "Монголи",
          "name:cs": "Mongolsko",
          "name:cu": "Мѫголи",
          "name:cv": "Монголи",
          "name:cy": "Mongolia",
          "name:da": "Mongoliet",
          "name:de": "Mongolei",
          "name:dv": "މޮންގޯލިއާ",
          "name:dz": "སོག་པོ་",
          "name:ee": "Mongolia",
          "name:el": "Μογγολία",
          "name:en": "Mongolia",
          "name:eo": "Mongolio",
          "name:es": "Mongolia",
          "name:et": "Mongoolia",
          "name:eu": "Mongolia",
          "name:fa": "مغولستان",
          "name:fi": "Mongolia",
          "name:fo": "Mongolia",
          "name:fr": "Mongolie",
          "name:fy": "Mongoalje",
          "name:ga": "An Mhongóil",
          "name:gd": "Mongòilia",
          "name:gl": "Mongolia",
          "name:gn": "Mongolia",
          "name:gu": "મંગોલિયા",
          "name:gv": "Yn Vongoil",
          "name:he": "מונגוליה",
          "name:hi": "मंगोलिया",
          "name:hr": "Mongolija",
          "name:ht": "Mongoli",
          "name:hu": "Mongólia",
          "name:hy": "Մոնղոլիա",
          "name:ia": "Mongolia",
          "name:id": "Mongolia",
          "name:ie": "Mongolia",
          "name:io": "Mongolia",
          "name:is": "Mongólía",
          "name:it": "Mongolia",
          "name:ja": "モンゴル国",
          "name:jv": "Mongolia",
          "name:ka": "მონღოლეთი",
          "name:kk": "Моңғолия",
          "name:kl": "Mongolia",
          "name:km": "ម៉ុងហ្គោលី",
          "name:kn": "ಮಂಗೋಲಿಯ",
          "name:ko": "몽골",
          "name:ku": "Mongolya",
          "name:kv": "Монголия",
          "name:kw": "Mongoli",
          "name:ky": "Моңголстан",
          "name:la": "Mongolia",
          "name:lb": "Mongolei",
          "name:li": "Mongolië",
          "name:ln": "Mongolí",
          "name:lt": "Mongolija",
          "name:lv": "Mongolija",
          "name:mi": "Mongōria",
          "name:mk": "Монголија",
          "name:ml": "മംഗോളിയ",
          "name:mo": "Монголия",
          "name:mr": "मंगोलिया",
          "name:ms": "Mongolia",
          "name:my": "မွန်ဂိုးလီးယားနိုင်ငံ",
          "name:na": "Mongoriya",
          "name:ne": "मङ्गोलिया",
          "name:nl": "Mongolië",
          "name:nn": "Mongolia",
          "name:no": "Mongolia",
          "name:nv": "Chʼah Diʼilii Bikéyah",
          "name:oc": "Mongolia",
          "name:or": "ମଙ୍ଗୋଲିଆ",
          "name:os": "Мангол",
          "name:pa": "ਮੰਗੋਲੀਆ",
          "name:pl": "Mongolia",
          "name:ps": "مغولستان",
          "name:pt": "Mongólia",
          "name:qu": "Mungul suyu",
          "name:ro": "Mongolia",
          "name:ru": "Монголия",
          "name:rw": "Mongoliya",
          "name:sa": "मंगोलिया",
          "name:se": "Mongolia",
          "name:sh": "Mongolija",
          "name:si": "මොංගෝලියාව",
          "name:sk": "Mongolsko",
          "name:sl": "Mongolija",
          "name:sm": "Mogitolia",
          "name:so": "Mongolia",
          "name:sq": "Mongolia",
          "name:sr": "Монголија",
          "name:ss": "IMongoliya",
          "name:su": "Mongolia",
          "name:sv": "Mongoliet",
          "name:sw": "Mongolia",
          "name:ta": "மங்கோலியா",
          "name:te": "మంగోలియా",
          "name:tg": "Муғулистон",
          "name:th": "ประเทศมองโกเลีย",
          "name:tk": "Mongoliýa",
          "name:tl": "Monggolya",
          "name:tr": "Moğolistan",
          "name:tt": "Монголия",
          "name:ug": "موڭغۇلىيە",
          "name:uk": "Монголія",
          "name:ur": "منگولیا",
          "name:uz": "Moʻgʻuliston",
          "name:vi": "Mông Cổ",
          "name:vo": "Mongolän",
          "name:wo": "Mongoli",
          "name:yi": "מאנגאליי",
          "name:yo": "Mòngólíà",
          "name:za": "Mungzguj",
          "name:zh": "蒙古",
          "boundary": "administrative",
          "int_name": "Mongolia",
          "name:ace": "Mongolia",
          "name:als": "Mongolei",
          "name:arz": "مونجوليا",
          "name:ast": "Mongolia",
          "name:bcl": "Mongolya",
          "name:bpy": "মঙ্গোলিয়া",
          "name:bug": "Mongolia",
          "name:bxr": "Монгол Улас",
          "name:cdo": "Mūng-gū",
          "name:ceb": "Mongolia",
          "name:chr": "ᎼᏂᎪᎵᏱ",
          "name:ckb": "مەنگۆلیا",
          "name:crh": "Moğolistan",
          "name:csb": "Mòngolskô",
          "name:diq": "Moğolıstan",
          "name:dsb": "Mongolska",
          "name:ext": "Mongolia",
          "name:frp": "Mongolie",
          "name:gag": "Mongoliya",
          "name:hak": "Mùng-kú-koet",
          "name:haw": "Monokolia",
          "name:hif": "Mongolia",
          "name:hsb": "Mongolska",
          "name:ilo": "Mongolia",
          "name:jbo": "mongolo",
          "name:kbd": "Монгол",
          "name:lez": "Монголия",
          "name:lij": "Mongòllia",
          "name:lmo": "Mungolia",
          "name:mdf": "Монголие",
          "name:mzn": "موغولئون",
          "name:nah": "Mongolia",
          "name:nan": "Bông-kó͘",
          "name:nds": "Mongolei",
          "name:new": "मंगोलिया",
          "name:nov": "Mongolia",
          "name:nrm": "Mongolie",
          "name:pam": "Mongolia",
          "name:pap": "Mongolia",
          "name:pih": "Mongoelya",
          "name:pms": "Mongòlia",
          "name:pnb": "منگولیا",
          "name:sah": "Монголия",
          "name:scn": "Mongolia",
          "name:sco": "Mongolie",
          "name:smn": "Mongolia",
          "name:sms": "Mongolia",
          "name:szl": "Mōngolijŏ",
          "name:tzl": "Mongoglh",
          "name:udm": "Монголия",
          "name:vec": "Mongołia",
          "name:vro": "Mongoolia",
          "name:war": "Mongolya",
          "name:wuu": "蒙古国",
          "name:xal": "Моңһлмудин Орн",
          "name:yue": "蒙古國",
          "name:zea": "Monholië",
          "way_area": "184.687",
          "wikidata": "Q711",
          "ISO3166-1": "MN",
          "land_area": "administrative",
          "wikipedia": "en:Mongolia",
          "admin_level": "2",
          "alt_name:eo": "Mongolujo",
          "alt_name:zh": "蒙古",
          "name:nds-nl": "Mongolië",
          "name:bat-smg": "Monguolėjė",
          "name:mn-Cyrl": "Монгол улс",
          "name:mn-Mong": "ᠮᠤᠩᠭᠤᠯ ᠤᠯᠤᠰ",
          "name:zh-Hans": "蒙古国",
          "name:zh-Hant": "蒙古國",
          "name:be-tarask": "Манголія",
          "ISO3166-1:alpha2": "MN",
          "ISO3166-1:alpha3": "MNG",
          "default_language": "mn",
          "ISO3166-1:numeric": "496"
        }
      },
      "geometry": {
        "type": "MultiPolygon",
        "coordinates": [
          [
            [
              [
                95,
                50
              ],
              [
                95.00578172947205,
                50
              ],
              [
                95.0036357,
                50.0038883
              ],
              [
                95.0002052,
                50.0106255
              ],
              [
                95,
                50.010807590513124
              ],
              [
                95,
                50
              ]
            ]
          ],
          [
            [
              [
                95.7601775,
                50.0077255
              ],
              [
                95.7615454,
                50.0006415
              ],
              [
                95.7619688884857,
                50
              ],
              [
                95.91049177361069,
                50
              ],
              [
                95.9104733,
                50.0008306
              ],
              [
                95.9096708,
                50.0023548
              ],
              [
                95.9091015,
                50.0039005
              ],
              [
                95.9081655,
                50.0055104
              ],
              [
                95.9066628,
                50.0071843
              ],
              [
                95.9063947,
                50.0079787
              ],
              [
                95.90646,
                50.0086445
              ],
              [
                95.9074574,
                50.0098264
              ],
              [
                95.9103205,
                50.0113319
              ],
              [
                95.9106863,
                50.0117402
              ],
              [
                95.9105187,
                50.012234
              ],
              [
                95.9097182,
                50.0125985
              ],
              [
                95.9094505,
                50.0131781
              ],
              [
                95.9094827,
                50.0137794
              ],
              [
                95.9100479,
                50.0145315
              ],
              [
                95.9125442,
                50.0162944
              ],
              [
                95.9148748,
                50.0176491
              ],
              [
                95.9159381,
                50.0194967
              ],
              [
                95.9161355,
                50.0209786
              ],
              [
                95.9157009,
                50.021687
              ],
              [
                95.9148998,
                50.0223307
              ],
              [
                95.9138656,
                50.0228238
              ],
              [
                95.9124986,
                50.023059
              ],
              [
                95.9111975,
                50.0236594
              ],
              [
                95.9091611,
                50.0252684
              ],
              [
                95.9079608,
                50.0254393
              ],
              [
                95.9021243,
                50.0268948
              ],
              [
                95.8994552,
                50.0279663
              ],
              [
                95.8979199,
                50.0288454
              ],
              [
                95.8956492,
                50.0306044
              ],
              [
                95.8908121,
                50.0319314
              ],
              [
                95.888977,
                50.0325953
              ],
              [
                95.8810319,
                50.0367536
              ],
              [
                95.878758,
                50.0393927
              ],
              [
                95.8771549,
                50.0404219
              ],
              [
                95.8757528,
                50.0410431
              ],
              [
                95.874485,
                50.0412995
              ],
              [
                95.8712835,
                50.0414248
              ],
              [
                95.8680479,
                50.0418077
              ],
              [
                95.8633089,
                50.0431981
              ],
              [
                95.8608733,
                50.0436247
              ],
              [
                95.8582737,
                50.0431491
              ],
              [
                95.8543431,
                50.0417269
              ],
              [
                95.8515719,
                50.0428616
              ],
              [
                95.850237,
                50.043182
              ],
              [
                95.8465363,
                50.0429409
              ],
              [
                95.8441665,
                50.043625
              ],
              [
                95.8431327,
                50.0436236
              ],
              [
                95.8414336,
                50.0431488
              ],
              [
                95.83907,
                50.0419644
              ],
              [
                95.8343493,
                50.0377701
              ],
              [
                95.8333174,
                50.0372532
              ],
              [
                95.8315835,
                50.0372937
              ],
              [
                95.8275806,
                50.0377817
              ],
              [
                95.8250806,
                50.0375847
              ],
              [
                95.8201203,
                50.035494
              ],
              [
                95.8146482,
                50.0365807
              ],
              [
                95.8128538,
                50.0350101
              ],
              [
                95.809961,
                50.0330082
              ],
              [
                95.8058877,
                50.0344618
              ],
              [
                95.7996327,
                50.0313372
              ],
              [
                95.7959683,
                50.0306651
              ],
              [
                95.7906803,
                50.0354017
              ],
              [
                95.7891895,
                50.03323
              ],
              [
                95.7860336,
                50.0306687
              ],
              [
                95.7833536,
                50.0261325
              ],
              [
                95.7771009,
                50.0230497
              ],
              [
                95.7744699,
                50.0225506
              ],
              [
                95.7728408,
                50.021667
              ],
              [
                95.7718185,
                50.0193457
              ],
              [
                95.7653299,
                50.0171422
              ],
              [
                95.7612569,
                50.0118081
              ],
              [
                95.7604001,
                50.0098735
              ],
              [
                95.7601775,
                50.0077255
              ]
            ]
          ]
        ]
      }
    },
    {
      "type": "Feature",
      "properties": {
        "osm_id": -60189,
        "boundary": "administrative",
        "admin_level": 2,
        "parents": null,
        "name": "Russia",
        "local_name": "Россия",
        "name_en": "Russia",
        "all_tags": {
          "flag": "https://upload.wikimedia.org/wikipedia/commons/f/f3/Flag_of_Russia.svg",
          "name": "Россия",
          "int_ref": "RU",
          "name:ab": "Урыстәыла",
          "name:af": "Rusland",
          "name:ak": "Russia",
          "name:am": "ሩሲያ",
          "name:an": "Rusia",
          "name:ar": "روسيا",
          "name:as": "ৰুশিযা",
          "name:av": "Россиялъул Федерация",
          "name:ay": "Rusiya",
          "name:az": "Rusiya",
          "name:ba": "Рәсәй",
          "name:be": "Расія",
          "name:bg": "Русия",
          "name:bi": "Rusia",
          "name:bm": "Risila",
          "name:bn": "রাশিয়া",
          "name:bo": "ཨུ་རུ་སུ།",
          "name:br": "Rusia",
          "name:bs": "Rusija",
          "name:ca": "Rússia",
          "name:ce": "Росси",
          "name:ch": "Russia",
          "name:co": "Russia",
          "name:cs": "Rusko",
          "name:cu": "Рѡсїꙗ",
          "name:cv": "Раççей Патшалăхĕ",
          "name:cy": "Rwsia",
          "name:da": "Rusland",
          "name:de": "Russland",
          "name:dv": "ރޫސީވިލާތް",
          "name:dz": "ར་ཤི་ཡཱན་ཕེ་ཌི་རེ་ཤཱན",
          "name:ee": "Russia",
          "name:el": "Ρωσία",
          "name:en": "Russia",
          "name:eo": "Rusio",
          "name:es": "Rusia",
          "name:et": "Venemaa",
          "name:eu": "Errusia",
          "name:fa": "روسیه",
          "name:ff": "Roosiya",
          "name:fi": "Venäjä",
          "name:fo": "Russland",
          "name:fr": "Russie",
          "name:fy": "Ruslân",
          "name:ga": "An Rúis",
          "name:gd": "An Ruis",
          "name:gl": "Rusia",
          "name:gn": "Rrúsia",
          "name:gu": "રશિયા",
          "name:gv": "Yn Roosh",
          "name:ha": "Rasha",
          "name:he": "רוסיה",
          "name:hi": "रूस",
          "name:hr": "Ruska Federacija",
          "name:ht": "Risi",
          "name:hu": "Oroszország",
          "name:hy": "Ռուսաստան",
          "name:ia": "Russia",
          "name:id": "Rusia",
          "name:ie": "Russia",
          "name:ig": "Mpaghara Russia",
          "name:ik": "Russia",
          "name:io": "Rusia",
          "name:is": "Rússland",
          "name:it": "Russia",
          "name:iu": "ᐅᓛᓴ",
          "name:ja": "ロシア",
          "name:jv": "Rusia",
          "name:ka": "რუსეთი",
          "name:kg": "Rusia",
          "name:ki": "Russia",
          "name:kk": "Ресей",
          "name:kl": "Ruslandi",
          "name:km": "រុស្ស៊ី",
          "name:kn": "ರಷ್ಯಾ",
          "name:ko": "러시아",
          "name:ks": "روٗس",
          "name:ku": "Rûsya",
          "name:kv": "Рочму",
          "name:kw": "Russi",
          "name:ky": "Орусия",
          "name:la": "Russia",
          "name:lb": "Russland",
          "name:lg": "Rwasha",
          "name:li": "Rusland",
          "name:ln": "Rusí",
          "name:lo": "ລັດເຊັຽ",
          "name:lt": "Rusija",
          "name:lv": "Krievija",
          "name:mg": "Rosia",
          "name:mi": "Ruhia",
          "name:mk": "Русија",
          "name:ml": "റഷ്യ",
          "name:mn": "Оросын Холбооны Улс",
          "name:mo": "Русия",
          "name:mr": "रशिया",
          "name:ms": "Rusia",
          "name:mt": "Russja",
          "name:my": "ရုရှားနိုင်ငံ",
          "name:na": "Ratsiya",
          "name:ne": "रुस",
          "name:nl": "Rusland",
          "name:nn": "Russland",
          "name:no": "Russland",
          "name:nv": "Biʼééʼ Łichííʼí Bikéyah",
          "name:ny": "Russia",
          "name:oc": "Russia",
          "name:om": "Raashiyaa",
          "name:or": "ଋଷିଆ",
          "name:os": "Уæрæсе",
          "name:pa": "ਰੂਸ",
          "name:pl": "Rosja",
          "name:ps": "روسیه",
          "name:pt": "Rússia",
          "name:qu": "Rusiya",
          "name:rm": "Russia",
          "name:rn": "Uburusiya",
          "name:ro": "Rusia",
          "name:ru": "Россия",
          "name:rw": "Uburusiya",
          "name:sc": "Rùssia",
          "name:sd": "روس",
          "name:se": "Ruošša",
          "name:sg": "Rusïi",
          "name:sh": "Rusija",
          "name:si": "රුසියාව",
          "name:sk": "Rusko",
          "name:sl": "Rusija",
          "name:sm": "Lusia",
          "name:sn": "Russia",
          "name:so": "Ruushka",
          "name:sq": "Rusia",
          "name:sr": "Русија",
          "name:ss": "IRashiya",
          "name:st": "Russia",
          "name:su": "Rusia",
          "name:sv": "Ryssland",
          "name:sw": "Shirikisho la Urusi",
          "name:ta": "உருசியா",
          "name:te": "రష్యా",
          "name:tg": "Русия",
          "name:th": "ประเทศรัสเซีย",
          "name:ti": "ራሻ",
          "name:tk": "Russiýa",
          "name:tl": "Pederasyong Ruso",
          "name:to": "Lūsia",
          "name:tr": "Rusya Federasyonu",
          "name:ts": "Russia",
          "name:tt": "Русия",
          "name:tw": "Russia",
          "name:ty": "Rūtia",
          "name:ug": "روسىيە",
          "name:uk": "Росія",
          "name:ur": "روس",
          "name:uz": "Rossiya Federatsiyasi",
          "name:ve": "Rashia",
          "name:vi": "Liên bang Nga",
          "name:vo": "Rusän",
          "name:wa": "Federåcion d' Rûsseye",
          "name:wo": "Federaasioŋ bu Riisi",
          "name:xh": "IRashiya",
          "name:yi": "רוסלאנד",
          "name:yo": "Rọ́síà",
          "name:za": "Ezlozswh Lienzbangh",
          "name:zh": "俄罗斯",
          "name:zu": "IRashiya",
          "boundary": "administrative",
          "currency": "RUB",
          "int_name": "Russia",
          "name:ace": "Rusia",
          "name:als": "Russland",
          "name:ang": "Russland",
          "name:arc": "ܪܘܣܝܐ",
          "name:arz": "روسيا",
          "name:ast": "Rusia",
          "name:bar": "Russland",
          "name:bcl": "Rusya",
          "name:bjn": "Rusia",
          "name:bpy": "রাশিয়া",
          "name:bug": "Russia",
          "name:bxr": "Ородой Холбооной Улас",
          "name:cdo": "Ngò̤-lò̤-sṳ̆",
          "name:ceb": "Rusya",
          "name:chr": "ᏲᏂᏱ",
          "name:chy": "Russia",
          "name:ckb": "ڕووسیا",
          "name:crh": "Rusiye",
          "name:csb": "Ruskô",
          "name:diq": "Rusya",
          "name:dsb": "Rusojska",
          "name:eml": "Rossia",
          "name:ext": "Russia",
          "name:frp": "Russie",
          "name:frr": "Ruslönj",
          "name:fur": "Russie",
          "name:gag": "Rusiya",
          "name:gan": "俄羅斯",
          "name:hak": "Ngò-lò-sṳ̂",
          "name:haw": "Rūsia",
          "name:hif": "Russia",
          "name:hsb": "Ruska federacija",
          "name:ilo": "Rusia",
          "name:jbo": "rukygu'e",
          "name:kaa": "Rossiya",
          "name:kab": "Rrus",
          "name:kbd": "Урысей",
          "name:koi": "Рочму",
          "name:krc": "Россия Федерация",
          "name:lad": "Rusia",
          "name:lbe": "Аьрасат",
          "name:lez": "Урусат",
          "name:lij": "Ruscia",
          "name:lmo": "Rüssia",
          "name:ltg": "Krīveja",
          "name:lzh": "俄羅斯",
          "name:mdf": "Рузмастор",
          "name:mhr": "Россий",
          "name:min": "Rusia",
          "name:mrj": "Россий",
          "name:mwl": "Rússia",
          "name:myv": "Россия Мастор",
          "name:mzn": "ئوروسیا",
          "name:nah": "Rusia",
          "name:nan": "Lō͘-se-a",
          "name:nap": "Russia",
          "name:nds": "Russ'sche Föderatschoon",
          "name:new": "रुस",
          "name:nov": "Rusia",
          "name:nrm": "Russie",
          "name:nso": "Russia",
          "name:pag": "Rusia",
          "name:pam": "Rusia",
          "name:pap": "Rusia",
          "name:pcd": "Russie",
          "name:pdc": "Russland",
          "name:pfl": "Russlond",
          "name:pih": "Rusha",
          "name:pms": "Russia",
          "name:pnb": "روس",
          "name:pnt": "Ρουσία",
          "name:rmy": "Rusiya",
          "name:rue": "Росія",
          "name:sah": "Арассыыйа",
          "name:scn": "Russia",
          "name:sco": "Roushie",
          "name:smn": "Ruoššâ",
          "name:sms": "Ruõššjânnam",
          "name:srn": "Rusland",
          "name:stq": "Ruslound",
          "name:szl": "Rusyjŏ",
          "name:tet": "Rúsia",
          "name:tok": "ma Losi",
          "name:tpi": "Rasia",
          "name:tum": "Russia",
          "name:tzl": "Rußía",
          "name:udm": "Россия",
          "name:vec": "Rusia",
          "name:vep": "Venäma",
          "name:vls": "Rusland",
          "name:vro": "Vinnemaa",
          "name:war": "Rusya",
          "name:wuu": "俄罗斯",
          "name:xal": "Орсн Орн Нутг",
          "name:xmf": "რუსეთი",
          "name:yue": "俄羅斯",
          "name:zea": "Rusland",
          "old_name": "Московия;Русское Царство;Российская Империя;Российская Советская Федеративная Социалистическая Республика",
          "way_area": "3241.56",
          "wikidata": "Q159",
          "ISO3166-1": "RU",
          "wikipedia": "ru:Россия",
          "name:UN:ar": "الاتحاد الروسي",
          "name:UN:en": "Russian Federation (the)",
          "name:UN:es": "Federación de Rusia (la)",
          "name:UN:fr": "Fédération de Russie (la)",
          "name:UN:ru": "Российская Федерация",
          "name:UN:zh": "俄罗斯联邦",
          "population": "146447424",
          "short_name": "РФ",
          "admin_level": "2",
          "alt_name:eo": "Rusujo;Ruslando",
          "border_type": "nation",
          "name:nds-nl": "Ruslaand",
          "name:bat-smg": "Rosėjė",
          "name:cbk-zam": "Rusia",
          "name:map-bms": "Rusia",
          "name:roa-rup": "Arusia",
          "name:zh-Hans": "俄罗斯",
          "name:zh-Hant": "俄羅斯",
          "name:roa-tara": "Russie",
          "official_name": "Российская Федерация",
          "short_name:ru": "РФ",
          "name:be-tarask": "Расея",
          "old_short_name": "РСФСР",
          "according_to:RU": "yes",
          "according_to:UA": "no",
          "population:date": "2023-01-01",
          "ISO3166-1:alpha2": "RU",
          "ISO3166-1:alpha3": "RUS",
          "default_language": "ru",
          "official_name:ar": "الاتحاد الروسي",
          "official_name:be": "Расійская Федэрацыя",
          "official_name:cs": "Ruská federace",
          "official_name:de": "Russische Föderation",
          "official_name:en": "Russian Federation",
          "official_name:eo": "Rusa Federacio",
          "official_name:es": "Federación Rusa",
          "official_name:et": "Venemaa Föderatsioon",
          "official_name:fi": "Venäjän Federaatio",
          "official_name:fr": "Fédération de Russie",
          "official_name:nl": "Russische Federatie",
          "official_name:pl": "Federacja Rosyjska",
          "official_name:pt": "Federação Russa",
          "official_name:ru": "Российская Федерация",
          "official_name:sk": "Ruská federácia",
          "official_name:sl": "Ruska federacija",
          "official_name:sv": "Ryska Federationen",
          "official_name:uk": "Російська Федерація",
          "official_name:yi": "רוסישע פֿעדעראַציע",
          "official_name:zh": "俄罗斯联邦",
          "ISO3166-1:numeric": "643",
          "official_name:ast": "Federación Rusa",
          "old_short_name:en": "RSFSR",
          "old_short_name:ru": "РСФСР",
          "official_name:zh-Hans": "俄罗斯联邦",
          "official_name:zh-Hant": "俄羅斯聯邦"
        }
      },
      "geometry": {
        "type": "Polygon",
        "coordinates": [
          [
            [
              95,
              50.010807590513124
            ],
            [
              95.0002052,
              50.0106255
            ],
            [
              95.0036357,
              50.0038883
            ],
            [
              95.00578172947205,
              50
            ],
            [
              95.7619688884857,
              50
            ],
            [
              95.7615454,
              50.0006415
            ],
            [
              95.7601775,
              50.0077255
            ],
            [
              95.7604001,
              50.0098735
            ],
            [
              95.7612569,
              50.0118081
            ],
            [
              95.7653299,
              50.0171422
            ],
            [
              95.7718185,
              50.0193457
            ],
            [
              95.7728408,
              50.021667
            ],
            [
              95.7744699,
              50.0225506
            ],
            [
              95.7771009,
              50.0230497
            ],
            [
              95.7833536,
              50.0261325
            ],
            [
              95.7860336,
              50.0306687
            ],
            [
              95.7891895,
              50.03323
            ],
            [
              95.7906803,
              50.0354017
            ],
            [
              95.7959683,
              50.0306651
            ],
            [
              95.7996327,
              50.0313372
            ],
            [
              95.8058877,
              50.0344618
            ],
            [
              95.809961,
              50.0330082
            ],
            [
              95.8128538,
              50.0350101
            ],
            [
              95.8146482,
              50.0365807
            ],
            [
              95.8201203,
              50.035494
            ],
            [
              95.8250806,
              50.0375847
            ],
            [
              95.8275806,
              50.0377817
            ],
            [
              95.8315835,
              50.0372937
            ],
            [
              95.8333174,
              50.0372532
            ],
            [
              95.8343493,
              50.0377701
            ],
            [
              95.83907,
              50.0419644
            ],
            [
              95.8414336,
              50.0431488
            ],
            [
              95.8431327,
              50.0436236
            ],
            [
              95.8441665,
              50.043625
            ],
            [
              95.8465363,
              50.0429409
            ],
            [
              95.850237,
              50.043182
            ],
            [
              95.8515719,
              50.0428616
            ],
            [
              95.8543431,
              50.0417269
            ],
            [
              95.8582737,
              50.0431491
            ],
            [
              95.8608733,
              50.0436247
            ],
            [
              95.8633089,
              50.0431981
            ],
            [
              95.8680479,
              50.0418077
            ],
            [
              95.8712835,
              50.0414248
            ],
            [
              95.874485,
              50.0412995
            ],
            [
              95.8757528,
              50.0410431
            ],
            [
              95.8771549,
              50.0404219
            ],
            [
              95.878758,
              50.0393927
            ],
            [
              95.8810319,
              50.0367536
            ],
            [
              95.888977,
              50.0325953
            ],
            [
              95.8908121,
              50.0319314
            ],
            [
              95.8956492,
              50.0306044
            ],
            [
              95.8979199,
              50.0288454
            ],
            [
              95.8994552,
              50.0279663
            ],
            [
              95.9021243,
              50.0268948
            ],
            [
              95.9079608,
              50.0254393
            ],
            [
              95.9091611,
              50.0252684
            ],
            [
              95.9111975,
              50.0236594
            ],
            [
              95.9124986,
              50.023059
            ],
            [
              95.9138656,
              50.0228238
            ],
            [
              95.9148998,
              50.0223307
            ],
            [
              95.9157009,
              50.021687
            ],
            [
              95.9161355,
              50.0209786
            ],
            [
              95.9159381,
              50.0194967
            ],
            [
              95.9148748,
              50.0176491
            ],
            [
              95.9125442,
              50.0162944
            ],
            [
              95.9100479,
              50.0145315
            ],
            [
              95.9094827,
              50.0137794
            ],
            [
              95.9094505,
              50.0131781
            ],
            [
              95.9097182,
              50.0125985
            ],
            [
              95.9105187,
              50.012234
            ],
            [
              95.9106863,
              50.0117402
            ],
            [
              95.9103205,
              50.0113319
            ],
            [
              95.9074574,
              50.0098264
            ],
            [
              95.90646,
              50.0086445
            ],
            [
              95.9063947,
              50.0079787
            ],
            [
              95.9066628,
              50.0071843
            ],
            [
              95.9081655,
              50.0055104
            ],
            [
              95.9091015,
              50.0039005
            ],
            [
              95.9096708,
              50.0023548
            ],
            [
              95.9104733,
              50.0008306
            ],
            [
              95.91049177361069,
              50
            ],
            [
              96,
              50
            ],
            [
              96,
              51
            ],
            [
              95,
              51
            ],
            [
              95,
              50.010807590513124
            ]
          ]
        ]
      }
    }
  ]
}