{
  "type": "FeatureCollection",
  "features": [
    {
      "type": "Feature",
      "properties": {
        "osm_id": -192779,
        "boundary": "administrative",
        "admin_level": 2,
        "parents": null,
        "name": "Côte d'Ivoire",
        "local_name": "Côte d’Ivoire",
        "name_en": "Côte d'Ivoire",
        "all_tags": {
          "flag": "http://upload.wikimedia.org/wikipedia/commons/f/fe/Flag_of_C%C3%B4te_d%27Ivoire.svg",
          "name": "Côte d’Ivoire",
          "name:ab": "Кот-д’Ивуар",
          "name:af": "Ivoorkus",
          "name:am": "ኮት ዲቯር",
          "name:an": "Costa de Vori",
          "name:ar": "ساحل العاج",
          "name:az": "Fil Dişi Sahili",
          "name:ba": "Кот-д’Ивуар",
          "name:be": "Кот-д'Івуар",
          "name:bg": "Кот д'Ивоар",
          "name:bh": "आइवरी कोस्ट",
          "name:bi": "Côte d'Ivoire",
          "name:bm": "Côte d'Ivoire",
          "name:bn": "কোত দিভোয়ার",
          "name:bo": "ཀོ་ཊི་ཌི་ཨའི་བོ་རི།",
          "name:br": "Aod an Olifant",
          "name:bs": "Obala Slonovače",
          "name:ca": "Costa d'Ivori",
          "name:ce": "Кот-д’Ивуар",
          "name:cs": "Pobřeží slonoviny",
          "name:cv": "Кот-д'Ивуар",
          "name:cy": "Côte d'Ivoire",
          "name:da": "Elfenbenskysten",
          "name:de": "Elfenbeinküste",
          "name:dv": "އައިވަރީ ކޯސްޓު",
          "name:ee": "Côte d'Ivoire",
          "name:el": "Ακτή Ελεφαντοστού",
          "name:en": "Côte d'Ivoire",
          "name:eo": "Ebur-Bordo",
          "name:es": "Costa de Marfil",
          "name:et": "Elevandiluurannik",
          "name:eu": "Boli Kosta",
          "name:fa": "ساحل عاج",
          "name:ff": "Kodduwaar",
          "name:fi": "Norsunluurannikko",
          "name:fo": "Fílabeinsstrondin",
          "name:fr": "Côte d’Ivoire",
          "name:fy": "Ivoarkust",
          "name:ga": "An Cósta Eabhair",
          "name:gd": "Costa Ìbhri",
          "name:gl": "Costa do Marfil",
          "name:gn": "Marfil Rembe'y",
          "name:gv": "Yn Clyst Iuaagagh",
          "name:ha": "Ivory Coast",
          "name:he": "חוף השנהב",
          "name:hi": "कोत द'ईवोआर",
          "name:hr": "Obala Bjelokosti",
          "name:ht": "Kòt divwa",
          "name:hu": "Elefántcsontpart",
          "name:hy": "Կոտ դ'Իվուար",
          "name:ia": "Costa de Ebore",
          "name:id": "Pantai Gading",
          "name:ie": "Costa de Ivor",
          "name:ig": "Côte d'Ivoire",
          "name:io": "Ivora Rivo",
          "name:is": "Fílabeinsströndin",
          "name:it": "Costa d'Avorio",
          "name:ja": "コートジボワール",
          "name:jv": "Panté Gadhing",
          "name:ka": "კოტ-დ’ივუარი",
          "name:kg": "Côte d'Ivoire",
          "name:ki": "Côte d'Ivoire",
          "name:kk": "Кот-д-Ивуар",
          "name:kn": "ಕೋತ್ ದ್'ಇವಾರ್",
          "name:ko": "코트디부아르",
          "name:ku": "Peravê Diranfîl",
          "name:kw": "Côte d'Ivoire",
          "name:ky": "Кот-д'Ивуар",
          "name:la": "Litus Eburneum",
          "name:lb": "Elfebeeküst",
          "name:li": "Ivoorkös",
          "name:ln": "Kotdivuar",
          "name:lt": "Dramblio Kaulo Krantas",
          "name:lv": "Kotdivuāra",
          "name:mg": "Côte d'Ivoire",
          "name:mi": "Te Tai Rei",
          "name:mk": "Брег на Слоновата Коска",
          "name:ml": "ഐവറി കോസ്റ്റ്",
          "name:mn": "Кот д'Ивуар",
          "name:mr": "कोत द'ईवोआर",
          "name:ms": "Ivory Coast",
          "name:mt": "Kosta tal-Avorju",
          "name:my": "အိုင်ဗရီကို့စ်နိုင်ငံ",
          "name:na": "Aibori Kot",
          "name:ne": "आइभरी कोस्ट",
          "name:nl": "Ivoorkust",
          "name:nn": "Elfenbeinskysten",
          "name:no": "Elfenbenskysten",
          "name:nv": "Chį́į́h Yee Adilohii Bideeʼ Tónteel Bibąąh",
          "name:oc": "Còsta d'Evòri",
          "name:om": "Kootdivo’aar",
          "name:or": "ଆଇଭେରି କୋଷ୍ଟ",
          "name:os": "Кот-д’Ивуар",
          "name:pa": "ਦੰਦ ਖੰਡ ਤਟ",
          "name:pi": "कोट ऐवरी (ऐवरी कोस्ट)",
          "name:pl": "Wybrzeże Kości Słoniowej",
          "name:ps": "عاج ساحل",
          "name:pt": "Costa do Marfim",
          "name:qu": "Marphil Chala",
          "name:rm": "Costa d'Ivur",
          "name:ro": "Coasta de Fildeș",
          "name:ru": "Кот-д’Ивуар",
          "name:rw": "Kote Divuwari",
          "name:sa": "कोट ऐवरी",
          "name:sc": "Costa de Avòriu",
          "name:sd": "آئيوري ڪوسٽ",
          "name:se": "Elefántačalánriddu",
          "name:sg": "Kôdivüära",
          "name:sh": "Obala Slonovače",
          "name:si": "අයිවරි කෝස්ට්",
          "name:sk": "Pobrežie Slonoviny",
          "name:sl": "Slonokoščena obala",
          "name:sm": "Côte d'Ivoire",
          "name:sn": "Côte d'Ivoire",
          "name:so": "Xeebta Foolmaroodi",
          "name:sq": "Bregu i Fildishtë",
          "name:sr": "Обала Слоноваче",
          "name:ss": "Lugu Lwempondvondlovu",
          "name:su": "Basisir Gading",
          "name:sv": "Elfenbenskusten",
          "name:sw": "Cote d'Ivoire",
          "name:ta": "கோட் டிவார்",
          "name:te": "కోటె డి ఐవొరి",
          "name:tg": "Кот-д'Ивуар",
          "name:th": "ประเทศโกตดิวัวร์",
          "name:tk": "Kot-d’Iwuar",
          "name:tl": "Baybaying Garing",
          "name:tr": "Fildişi Sahili",
          "name:ts": "Côte d'Ivoire",
          "name:tt": "Кот-д’Ивуар",
          "name:ug": "پىل چىشى قىرغىغى",
          "name:uk": "Кот-д'Івуар",
          "name:ur": "کوت داوواغ",
          "name:uz": "Kot-d‘ivuar",
          "name:vi": "Bờ Biển Ngà",
          "name:vo": "Viorajolän",
          "name:wo": "Kodiwaar",
          "name:yi": "בארטן פון העלפאנדביין",
          "name:yo": "Côte d'Ivoire",
          "name:za": "Côte d'Ivoire",
          "name:zh": "科特迪瓦 / 象牙海岸",
          "name:zu": "Ugu Emhlophe",
          "alt_name": "Côte d'Ivoire",
          "boundary": "administrative",
          "currency": "XOF",
          "name:ace": "Panté Gadéng",
          "name:ady": "Кот-д-Ивуар",
          "name:als": "Elfenbeinküste",
          "name:ang": "Elpendbānrima",
          "name:arz": "كوت ديفوار",
          "name:ast": "Costa de Marfil",
          "name:avk": "Koteivoira",
          "name:ban": "Pantai Gading",
          "name:bar": "Helfnboagstodn",
          "name:bjn": "Pantai Gading",
          "name:bpy": "কটে ডি'আইভরি",
          "name:bxr": "Кот д'Ивуар",
          "name:ceb": "Baybayon sa Marpil",
          "name:chr": "ᎢᏬᎵ ᎾᎿ ᎠᎹᏳᎶᏗ",
          "name:ckb": "کۆتدیڤوار",
          "name:crh": "Filtiş Yalısı",
          "name:csb": "Ùbrzég Słoniowëch Kłów",
          "name:diq": "Sahilê Dındanê Fili",
          "name:dsb": "Pśibrjog Słonoweje kósći",
          "name:ext": "Costa de Marfil",
          "name:frp": "Couta d’Ivouèro",
          "name:gag": "Fildişi Kıyısı",
          "name:hak": "Côte d'Ivoire",
          "name:hif": "Côte d'Ivoire",
          "name:hsb": "Słonowinowy pobrjóh",
          "name:ilo": "Costa Ivoria",
          "name:jam": "Aivri Kuos",
          "name:kaa": "Kot-dİvuar",
          "name:kab": "Tafsirt n Uẓer",
          "name:lad": "Kosta de Marfil",
          "name:lij": "Còsta d'Avòïo",
          "name:lmo": "Costa d'Avori",
          "name:mai": "आइभोरी कोस्ट",
          "name:mrj": "Кот-д’Ивуар",
          "name:mzn": "عاج ساحل",
          "name:nah": "Tlanomihuēyātēnco",
          "name:nan": "Côte d'Ivoire",
          "name:nds": "Elfenbeenküst",
          "name:new": "आइभोरी कोस्ट",
          "name:nov": "Côte d'Ivoire",
          "name:nrm": "Côte d'Iviéthe",
          "name:nso": "Côte d'Ivoire",
          "name:pam": "Côte d'Ivoire",
          "name:pdc": "Ivory Coast",
          "name:pms": "Còsta d'Avòri",
          "name:pnb": "آئیوری کوسٹ",
          "name:rue": "Берег слоновины",
          "name:sah": "Кот д'Ивуар",
          "name:sat": "ᱟᱭᱵᱷᱚᱨᱤ ᱠᱳᱥᱴ",
          "name:scn": "Côte d'Ivoire",
          "name:sco": "Côte d'Ivoire",
          "name:shi": "Tafsirt n Uẓr",
          "name:shn": "မိူင်းဢၢႆႇဝူဝ်ႇရီႇၶူတ်ႈ",
          "name:smn": "Elefanttähtiriddo",
          "name:sms": "Njuʹršščåållanjreddtõk",
          "name:stq": "Älfenbeenkuste",
          "name:szl": "Wybrzeże Elefantowych Gnatůw",
          "name:tok": "ma Kosiwa",
          "name:trv": "Cote d'ivoirie",
          "name:tzl": "Costa d'Ivoria",
          "name:udm": "Кот-д’Ивуар",
          "name:vec": "Costa d'Avorio",
          "name:vep": "Kot d'Ivuar",
          "name:vls": "Ivôorkust",
          "name:vro": "Elevandiluurand",
          "name:war": "Côte d'Ivoire",
          "name:wuu": "科特迪瓦",
          "name:xal": "Котдивугармудин Орн",
          "name:yue": "象牙海岸",
          "name:zea": "Ivoôrkust",
          "timezone": "Africa/Abidjan",
          "way_area": "27.2894",
          "wikidata": "Q1008",
          "ISO3166-1": "CI",
          "wikipedia": "fr:Côte d'Ivoire",
          "name:UN:ar": "كوت ديفوار",
          "name:UN:en": "Côte d'Ivoire",
          "name:UN:es": "Côte d'Ivoire",
          "name:UN:fr": "Côte d’Ivoire (la)",
          "name:UN:ru": "Кот-д'Ивуар",
          "name:UN:zh": "科特迪瓦",
          "admin_level": "2",
          "alt_name:ar": "كوت ديفوار;جمهورية كوت ديفوار",
          "alt_name:eo": "Ebura Bordo",
          "alt_name:ur": "آئیوری کوسٹ",
          "name:nds-nl": "Ivoorkuste",
          "name:bat-smg": "Dramblė Kaula Kronts",
          "name:roa-rup": "Côte d'Ivoire",
          "name:zh-Hans": "科特迪瓦",
          "name:zh-Hant": "象牙海岸",
          "official_name": "République de Côte d’Ivoire",
          "name:be-tarask": "Кот д’Івуар",
          "ISO3166-1:alpha2": "CI",
          "ISO3166-1:alpha3": "CIV",
          "default_language": "fr",
          "official_name:ar": "جمهورية ساحل العاج",
          "official_name:cs": "Republika Pobřeží slonoviny",
          "official_name:de": "Republik Côte d’Ivoire",
          "official_name:en": "Republic of Côte d’Ivoire",
          "official_name:eo": "Ebur-Borda Respubliko",
          "official_name:es": "República de Costa de Marfil",
          "official_name:fa": "جمهوری ساحل عاج",
          "official_name:fr": "République de Côte d’Ivoire",
          "official_name:gn": "Tavakuairetã Marfil Rembe'y",
          "official_name:pt": "República de Côte d'Ivoire",
          "ISO3166-1:numeric": "384",
          "official_name:ckb": "کۆماری کۆدیڤوار"
        }
      },
      "geometry": {
        "type": "Polygon",
        "coordinates": [
          [
            [
              -7.5992113,
              4.8960306
            ],
            [
              -7.5991548,
              4.8937785
            ],
            [
              -7.5979772,
              4.8912642
            ],
            [
              -7.596298,
              4.8892008
            ],
            [
              -7.5916016,
              4.8857891
            ],
            [
              -7.5900864,
              4.8827752
            ],
            [
              -7.5901194,
              4.8750836
            ],
            [
              -7.5885727,
              4.8654941
            ],
            [
              -7.5866436,
              4.8566908
            ],
            [
              -7.5891659,
              4.8561708
            ],
            [
              -7.5910481,
              4.8542954
            ],
            [
              -7.5917755,
              4.8524944
            ],
            [
              -7.592642,
              4.8526588
            ],
            [
              -7.5933489,
              4.8520517
            ],
            [
              -7.5921312,
              4.8464836
            ],
            [
              -7.5890763,
              4.8405458
            ],
            [
              -7.5877181,
              4.8383117
            ],
            [
              -7.5835859,
              4.8335327
            ],
            [
              -7.5824419,
              4.8296062
            ],
            [
              -7.5829188,
              4.8279741
            ],
            [
              -7.5842168,
              4.8268058
            ],
            [
              -7.5926782,
              4.8226115
            ],
            [
              -7.5939903,
              4.8210206
            ],
            [
              -7.5948826,
              4.8187004
            ],
            [
              -7.5949477,
              4.8158042
            ],
            [
              -7.5935102,
              4.8096898
            ],
            [
              -7.5936374,
              4.8065645
            ],
            [
              -7.5945175,
              4.8050243
            ],
            [
              -7.5946046,
              4.8016404
            ],
            [
              -7.5938992,
              4.7999711
            ],
            [
              -7.589074,
              4.7960644
            ],
            [
              -7.584069,
              4.791719
            ],
            [
              -7.580079,
              4.7893118
            ],
            [
              -7.5774853,
              4.7886226
            ],
            [
              -7.5666608,
              4.7867644
            ],
            [
              -7.5625397,
              4.7851021
            ],
            [
              -7.5607014,
              4.7831935
            ],
            [
              -7.5620862,
              4.7803166
            ],
            [
              -7.5626,
              4.778676
            ],
            [
              -7.5625634,
              4.7764503
            ],
            [
              -7.5631257,
              4.774139
            ],
            [
              -7.5653277,
              4.771839
            ],
            [
              -7.5666234,
              4.7701951
            ],
            [
              -7.5672721,
              4.768126
            ],
            [
              -7.5666695,
              4.7662265
            ],
            [
              -7.5636813,
              4.763586
            ],
            [
              -7.5630725,
              4.7609336
            ],
            [
              -7.5646052,
              4.7550389
            ],
            [
              -7.5647046,
              4.7505933
            ],
            [
              -7.563352,
              4.7469816
            ],
            [
              -7.5602413,
              4.741391
            ],
            [
              -7.559392,
              4.7392669
            ],
            [
              -7.5593383,
              4.7319816
            ],
            [
              -7.5607183,
              4.7268696
            ],
            [
              -7.5619416,
              4.7239607
            ],
            [
              -7.5625391,
              4.7172281
            ],
            [
              -7.5608809,
              4.7115997
            ],
            [
              -7.5582228,
              4.707641
            ],
            [
              -7.5575772,
              4.7049547
            ],
            [
              -7.557438,
              4.7021488
            ],
            [
              -7.5574576,
              4.6960743
            ],
            [
              -7.557627,
              4.6926979
            ],
            [
              -7.5589507,
              4.6913786
            ],
            [
              -7.5635593,
              4.6903579
            ],
            [
              -7.570147,
              4.6884574
            ],
            [
              -7.5706653,
              4.6856729
            ],
            [
              -7.5675799,
              4.6797099
            ],
            [
              -7.5658522,
              4.6756553
            ],
            [
              -7.5622367,
              4.6722234
            ],
            [
              -7.559442,
              4.6687627
            ],
            [
              -7.5598422,
              4.6673269
            ],
            [
              -7.5688146,
              4.6646032
            ],
            [
              -7.572883,
              4.6617562
            ],
            [
              -7.5761195,
              4.6551532
            ],
            [
              -7.5761695,
              4.6530249
            ],
            [
              -7.5751143,
              4.6507464
            ],
            [
              -7.5736015,
              4.649948
            ],
            [
              -7.5715017,
              4.649948
            ],
            [
              -7.5672228,
              4.6511422
            ],
            [
              -7.5638441,
              4.6503003
            ],
            [
              -7.5625876,
              4.6490479
            ],
            [
              -7.5577512,
              4.641319
            ],
            [
              -7.5550749,
              4.632166
            ],
            [
              -7.5540023,
              4.6183674
            ],
            [
              -7.5478397,
              4.6119061
            ],
            [
              -7.5478059,
              4.6096952
            ],
            [
              -7.5499805,
              4.6068082
            ],
            [
              -7.5577832,
              4.5933899
            ],
            [
              -7.5598088,
              4.5912026
            ],
            [
              -7.5708764,
              4.5899237
            ],
            [
              -7.5730433,
              4.5869716
            ],
            [
              -7.5734999,
              4.583875
            ],
            [
              -7.5723203,
              4.5815752
            ],
            [
              -7.5697802,
              4.5796906
            ],
            [
              -7.5653079,
              4.5753501
            ],
            [
              -7.5587176,
              4.567002
            ],
            [
              -7.557824,
              4.5636328
            ],
            [
              -7.5575794,
              4.5615581
            ],
            [
              -7.5604472,
              4.5589048
            ],
            [
              -7.560889,
              4.557936
            ],
            [
              -7.5609247,
              4.5550342
            ],
            [
              -7.5577983,
              4.5462451
            ],
            [
              -7.5567189,
              4.5426014
            ],
            [
              -7.5580221,
              4.5411494
            ],
            [
              -7.5629077,
              4.5423839
            ],
            [
              -7.5645807,
              4.5379951
            ],
            [
              -7.5649267,
              4.531804
            ],
            [
              -7.562895,
              4.5273846
            ],
            [
              -7.5579813,
              4.5203309
            ],
            [
              -7.5532273,
              4.5156943
            ],
            [
              -7.5519428,
              4.511487
            ],
            [
              -7.552093,
              4.5086438
            ],
            [
              -7.555992,
              4.5030177
            ],
            [
              -7.5567731,
              4.4996436
            ],
            [
              -7.5550208,
              4.4943523
            ],
            [
              -7.5526662,
              4.4896161
            ],
            [
              -7.5524787,
              4.488407
            ],
            [
              -7.5557131,
              4.4853371
            ],
            [
              -7.560886,
              4.4791485
            ],
            [
              -7.5607581,
              4.4758378
            ],
            [
              -7.5653453,
              4.469737
            ],
            [
              -7.5667255,
              4.4649211
            ],
            [
              -7.5671245,
              4.4609728
            ],
            [
              -7.5668647,
              4.4567433
            ],
            [
              -7.5622907,
              4.4509617
            ],
            [
              -7.5570835,
              4.4464715
            ],
            [
              -7.5456995,
              4.442017
            ],
            [
              -7.5413984,
              4.4400742
            ],
            [
              -7.5393606,
              4.4377891
            ],
            [
              -7.5393406,
              4.4353966
            ],
            [
              -7.5435716,
              4.4324666
            ],
            [
              -7.5561948,
              4.4223639
            ],
            [
              -7.5640245,
              4.4120696
            ],
            [
              -7.5668675,
              4.4025353
            ],
            [
              -7.5663507,
              4.3933472
            ],
            [
              -7.5654799,
              4.3906556
            ],
            [
              -7.5574662,
              4.3833526
            ],
            [
              -7.5528155,
              4.38112
            ],
            [
              -7.5406497,
              4.3761651
            ],
            [
              -7.5390299,
              4.3740399
            ],
            [
              -7.5331112,
              4.3689082
            ],
            [
              -7.5318352,
              4.3668724
            ],
            [
              -7.5297198,
              4.3623725
            ],
            [
              -7.52699,
              4.1622419
            ],
            [
              -7.5096341,
              4.1621205
            ],
            [
              -7.4700592,
              4.1629185
            ],
            [
              -7.4469321,
              4.1653422
            ],
            [
              -7.4228169,
              4.1689867
            ],
            [
              -7.4095505,
              4.1714101
            ],
            [
              -7.3964778,
              4.1747188
            ],
            [
              -7.3836579,
              4.1788978
            ],
            [
              -7.3640284,
              4.1871361
            ],
            [
              -7.3363427,
              4.1958283
            ],
            [
              -7.3132661,
              4.2059336
            ],
            [
              -7.285532,
              4.2223371
            ],
            [
              -7.257874,
              4.2354538
            ],
            [
              -7.2379082,
              4.2484964
            ],
            [
              -7.2255431,
              4.2545715
            ],
            [
              -7.2123493,
              4.2622465
            ],
            [
              -7.1961313,
              4.2738353
            ],
            [
              -7.1877733,
              4.2761445
            ],
            [
              -7.1701753,
              4.2834413
            ],
            [
              -7.1518106,
              4.292062
            ],
            [
              -7.1403586,
              4.299192
            ],
            [
              -7.1228313,
              4.3117162
            ],
            [
              -7.1067558,
              4.326047
            ],
            [
              -7.1013337,
              4.3320453
            ],
            [
              -7.0280176,
              4.3408874
            ],
            [
              -7.0070339,
              4.345077
            ],
            [
              -7,
              4.347330532182408
            ],
            [
              -7,
              5
            ],
            [
              -7.542208988192546,
              5
            ],
            [
              -7.5421092,
              4.9962211
            ],
            [
              -7.542659,
              4.9927706
            ],
            [
              -7.5455283,
              4.9871636
            ],
            [
              -7.5481762,
              4.9833716
            ],
            [
              -7.550933,
              4.9808449
            ],
            [
              -7.5560301,
              4.9770917
            ],
            [
              -7.5575495,
              4.975578
            ],
            [
              -7.5581749,
              4.9734826
            ],
            [
              -7.5577181,
              4.9718899
            ],
            [
              -7.5564228,
              4.9702068
            ],
            [
              -7.5548448,
              4.9690837
            ],
            [
              -7.5487424,
              4.9673705
            ],
            [
              -7.5460445,
              4.9661637
            ],
            [
              -7.5416232,
              4.9630805
            ],
            [
              -7.535322,
              4.9583447
            ],
            [
              -7.5342298,
              4.9569302
            ],
            [
              -7.533595,
              4.9548541
            ],
            [
              -7.5343832,
              4.9508268
            ],
            [
              -7.5377844,
              4.9466808
            ],
            [
              -7.5364906,
              4.937808
            ],
            [
              -7.5330453,
              4.9334959
            ],
            [
              -7.5312087,
              4.9307225
            ],
            [
              -7.5290754,
              4.9298271
            ],
            [
              -7.5271849,
              4.9283313
            ],
            [
              -7.5260421,
              4.9265423
            ],
            [
              -7.5256056,
              4.9240955
            ],
            [
              -7.5260977,
              4.9206086
            ],
            [
              -7.5275023,
              4.9188862
            ],
            [
              -7.5322871,
              4.9170232
            ],
            [
              -7.5376368,
              4.9159242
            ],
            [
              -7.5398842,
              4.9160881
            ],
            [
              -7.5422993,
              4.9166896
            ],
            [
              -7.5442614,
              4.9177757
            ],
            [
              -7.54546,
              4.9194041
            ],
            [
              -7.5462395,
              4.9211236
            ],
            [
              -7.5480924,
              4.9228578
            ],
            [
              -7.5501195,
              4.9239238
            ],
            [
              -7.5532558,
              4.9240353
            ],
            [
              -7.5567122,
              4.9234243
            ],
            [
              -7.5603372,
              4.9218687
            ],
            [
              -7.5620237,
              4.9204684
            ],
            [
              -7.5630415,
              4.9187782
            ],
            [
              -7.5636526,
              4.9128567
            ],
            [
              -7.5642007,
              4.9103442
            ],
            [
              -7.565451,
              4.908557
            ],
            [
              -7.5674188,
              4.9073044
            ],
            [
              -7.5706492,
              4.9060496
            ],
            [
              -7.5726465,
              4.9064261
            ],
            [
              -7.5787913,
              4.9108383
            ],
            [
              -7.5808176,
              4.9113991
            ],
            [
              -7.5826348,
              4.9113425
            ],
            [
              -7.5840856,
              4.9103974
            ],
            [
              -7.5891132,
              4.9090212
            ],
            [
              -7.5918459,
              4.9080766
            ],
            [
              -7.5942008,
              4.906289
            ],
            [
              -7.596209,
              4.9030099
            ],
            [
              -7.5992113,
              4.8960306
            ]
          ]
        ]
      }
    },
    {
      "type": "Feature",
      "properties": {
        "osm_id": -192780,
        "boundary": "administrative",
        "admin_level": 2,
        "parents": null,
        "name": "Liberia",
        "local_name": "Liberia",
        "name_en": "Liberia",
        "all_tags": {
          "flag": "http://upload.wikimedia.org/wikipedia/commons/b/b8/Flag_of_Liberia.svg",
          "name": "Liberia",
          "name:af": "Liberië",
          "name:am": "ላይቤሪያ",
          "name:an": "Liberia",
          "name:ar": "ليبيريا",
          "name:az": "Liberiya",
          "name:ba": "Либерия",
          "name:be": "Ліберыя",
          "name:bg": "Либерия",
          "name:bm": "Liberia",
          "name:bn": "লাইবেরিয়া",
          "name:bo": "ལི་བེ་རི་ཡ།",
          "name:br": "Liberia",
          "name:bs": "Liberija",
          "name:ca": "Libèria",
          "name:ce": "Либери",
          "name:cs": "Libérie",
          "name:cv": "Либери",
          "name:cy": "Liberia",
          "name:da": "Liberia",
          "name:de": "Liberia",
          "name:dv": "ލައިބީރިއާ",
          "name:ee": "Liberia",
          "name:el": "Λιβερία",
          "name:en": "Liberia",
          "name:eo": "Liberio",
          "name:es": "Liberia",
          "name:et": "Libeeria",
          "name:eu": "Liberia",
          "name:fa": "لیبریا",
          "name:ff": "Labiriyaa",
          "name:fi": "Liberia",
          "name:fo": "Liberia",
          "name:fr": "Liberia",
          "name:fy": "Libearia",
          "name:ga": "An Libéir",
          "name:gd": "Libèiria",
          "name:gl": "Liberia",
          "name:gn": "Livéria",
          "name:gv": "Yn Laibeer",
          "name:he": "ליבריה",
          "name:hi": "लाइबेरिया",
          "name:hr": "Liberija",
          "name:ht": "Liberya",
          "name:hu": "Libéria",
          "name:hy": "Լիբերիա",
          "name:ia": "Liberia",
          "name:id": "Liberia",
          "name:ie": "Liberia",
          "name:io": "Liberia",
          "name:is": "Líbería",
          "name:it": "Liberia",
          "name:ja": "リベリア",
          "name:jv": "Liberia",
          "name:ka": "ლიბერია",
          "name:kg": "Liberia",
          "name:kk": "Либерия",
          "name:kn": "ಲೈಬೀರಿಯ",
          "name:ko": "라이베리아",
          "name:ku": "Lîberya",
          "name:kw": "Liberi",
          "name:la": "Liberia",
          "name:lb": "Liberia",
          "name:li": "Liberia",
          "name:ln": "Liberia",
          "name:lt": "Liberija",
          "name:lv": "Libērija",
          "name:mi": "Raipiri",
          "name:mk": "Либерија",
          "name:ml": "ലൈബീരിയ",
          "name:mr": "लायबेरिया",
          "name:ms": "Liberia",
          "name:mt": "Liberja",
          "name:my": "လိုက်ဘေးရီးယားနိုင်ငံ",
          "name:nl": "Liberia",
          "name:nn": "Liberia",
          "name:no": "Liberia",
          "name:oc": "Libèria",
          "name:or": "ଲାଇବେରିଆ",
          "name:os": "Либери",
          "name:pl": "Liberia",
          "name:ps": "لايبېريا",
          "name:pt": "Libéria",
          "name:qu": "Libirya",
          "name:rm": "Liberia",
          "name:ro": "Liberia",
          "name:ru": "Либерия",
          "name:rw": "Liberiya",
          "name:sa": "लायबीरिया",
          "name:sc": "Libèria",
          "name:se": "Liberia",
          "name:sg": "Liberïa",
          "name:sh": "Liberija",
          "name:sk": "Libéria",
          "name:sl": "Liberija",
          "name:sn": "Liberia",
          "name:so": "Liberia",
          "name:sq": "Liberia",
          "name:sr": "Либерија",
          "name:ss": "ILibheriya",
          "name:st": "Liberia",
          "name:su": "Liberia",
          "name:sv": "Liberia",
          "name:sw": "Liberia",
          "name:ta": "லைபீரியா",
          "name:tg": "Либерия",
          "name:th": "ประเทศไลบีเรีย",
          "name:tk": "Liberiýa",
          "name:tl": "Liberia",
          "name:tr": "Liberya",
          "name:ts": "Layiberiya",
          "name:tt": "Либерия",
          "name:ug": "لىبېرىيە",
          "name:uk": "Ліберія",
          "name:ur": "لائبیریا",
          "name:uz": "Liberiya",
          "name:vi": "Liberia",
          "name:vo": "Liberän",
          "name:wo": "Libeeria",
          "name:yi": "ליבעריע",
          "name:yo": "Làìbéríà",
          "name:zh": "利比里亚 / 賴比瑞亞",
          "name:zu": "ILiberia",
          "boundary": "administrative",
          "name:ace": "Liberia",
          "name:als": "Liberia",
          "name:ang": "Liberia",
          "name:arz": "ليبيريا",
          "name:ast": "Liberia",
          "name:bar": "Liberia",
          "name:bcl": "Libirya",
          "name:bjn": "Liberia",
          "name:bpy": "লাইবেরিয়া",
          "name:bxr": "Либери",
          "name:ceb": "Liberya",
          "name:ckb": "لیبێریا",
          "name:crh": "Liberiya",
          "name:csb": "Liberiô",
          "name:diq": "Liberya",
          "name:dsb": "Liberia",
          "name:ext": "Libéria",
          "name:frp": "Libèria",
          "name:gag": "Liberiya",
          "name:hif": "Liberia",
          "name:hsb": "Liberija",
          "name:ilo": "Liberia",
          "name:jbo": "liber",
          "name:krc": "Либерия",
          "name:lij": "Libeïa",
          "name:lmo": "Liberia",
          "name:min": "Liberia",
          "name:mrj": "Либери",
          "name:nah": "Liberia",
          "name:nan": "Liberia",
          "name:nds": "Liberia",
          "name:new": "लाइबेरिया",
          "name:nov": "Liberia",
          "name:nrm": "Libérie",
          "name:nso": "Liberia",
          "name:pam": "Liberia",
          "name:pap": "Liberia",
          "name:pms": "Liberia",
          "name:pnb": "لائیبیریا",
          "name:sah": "Либерия",
          "name:scn": "Libberia",
          "name:sco": "Liberie",
          "name:smn": "Liberia",
          "name:sms": "Liberia",
          "name:stq": "Liberia",
          "name:szl": "Liberyjo",
          "name:tzl": "Liberia",
          "name:vec": "Liberia",
          "name:vro": "Libeeriä",
          "name:war": "Liberia",
          "name:xal": "Либермудин Орн",
          "name:yue": "利比利亞",
          "timezone": "Africa/Monrovia",
          "way_area": "8.87279",
          "wikidata": "Q1014",
          "ISO3166-1": "LR",
          "wikipedia": "en:Liberia",
          "admin_level": "2",
          "name:nds-nl": "Liberië",
          "name:bat-smg": "Liberėjė",
          "name:zh-Hans": "利比里亚",
          "name:zh-Hant": "賴比瑞亞",
          "official_name": "Republic of Liberia",
          "name:be-tarask": "Лібэрыя",
          "ISO3166-1:alpha2": "LR",
          "ISO3166-1:alpha3": "LBR",
          "default_language": "en",
          "official_name:ar": "جمهورية ليبيريا",
          "official_name:cs": "Liberijská republika",
          "official_name:de": "Republik Liberia",
          "official_name:eo": "Liberia Respubliko",
          "official_name:fa": "جمهوری لیبریا",
          "official_name:gn": "Tavakuairetã Livéria",
          "official_name:pt": "República da Libéria",
          "ISO3166-1:numeric": "430"
        }
      },
      "geometry": {
        "type": "Polygon",
        "coordinates": [
          [
            [
              -8,
              4.301879825521169
            ],
            [
              -7.9880595,
              4.2967622
            ],
            [
              -7.9850627,
              4.2961618
            ],
            [
              -7.9664117,
              4.2743442
            ],
            [
              -7.9329819,
              4.2487844
            ],
            [
              -7.9133849,
              4.2395038
            ],
            [
              -7.897069,
              4.2262469
            ],
            [
              -7.8805616,
              4.2164868
            ],
            [
              -7.8624533,
              4.2076952
            ],
            [
              -7.8390815,
              4.199491
            ],
            [
              -7.8335546,
              4.1955152
            ],
            [
              -7.8199358,
              4.1878158
            ],
            [
              -7.8057416,
              4.1812861
            ],
            [
              -7.7824979,
              4.173223
            ],
            [
              -7.7584382,
              4.1680648
            ],
            [
              -7.7339259,
              4.1658894
            ],
            [
              -7.7093311,
              4.1667295
            ],
            [
              -7.6929803,
              4.1693148
            ],
            [
              -7.6859302,
              4.1683001
            ],
            [
              -7.6596861,
              4.1605012
            ],
            [
              -7.6387189,
              4.1569266
            ],
            [
              -7.6174898,
              4.1555907
            ],
            [
              -7.5882082,
              4.1563288
            ],
            [
              -7.5630107,
              4.1591217
            ],
            [
              -7.5464474,
              4.1623683
            ],
            [
              -7.52699,
              4.1622419
            ],
            [
              -7.5297198,
              4.3623725
            ],
            [
              -7.5318352,
              4.3668724
            ],
            [
              -7.5331112,
              4.3689082
            ],
            [
              -7.5390299,
              4.3740399
            ],
            [
              -7.5406497,
              4.3761651
            ],
            [
              -7.5528155,
              4.38112
            ],
            [
              -7.5574662,
              4.3833526
            ],
            [
              -7.5654799,
              4.3906556
            ],
            [
              -7.5663507,
              4.3933472
            ],
            [
              -7.5668675,
              4.4025353
            ],
            [
              -7.5640245,
              4.4120696
            ],
            [
              -7.5561948,
              4.4223639
            ],
            [
              -7.5435716,
              4.4324666
            ],
            [
              -7.5393406,
              4.4353966
            ],
            [
              -7.5393606,
              4.4377891
            ],
            [
              -7.5413984,
              4.4400742
            ],
            [
              -7.5456995,
              4.442017
            ],
            [
              -7.5570835,
              4.4464715
            ],
            [
              -7.5622907,
              4.4509617
            ],
            [
              -7.5668647,
              4.4567433
            ],
            [
              -7.5671245,
              4.4609728
            ],
            [
              -7.5667255,
              4.4649211
            ],
            [
              -7.5653453,
              4.469737
            ],
            [
              -7.5607581,
              4.4758378
            ],
            [
              -7.560886,
              4.4791485
            ],
            [
              -7.5557131,
              4.4853371
            ],
            [
              -7.5524787,
              4.488407
            ],
            [
              -7.5526662,
              4.4896161
            ],
            [
              -7.5550208,
              4.4943523
            ],
            [
              -7.5567731,
              4.4996436
            ],
            [
              -7.555992,
              4.5030177
            ],
            [
              -7.552093,
              4.5086438
            ],
            [
              -7.5519428,
              4.511487
            ],
            [
              -7.5532273,
              4.5156943
            ],
            [
              -7.5579813,
              4.5203309
            ],
            [
              -7.562895,
              4.5273846
            ],
            [
              -7.5649267,
              4.531804
            ],
            [
              -7.5645807,
              4.5379951
            ],
            [
              -7.5629077,
              4.5423839
            ],
            [
              -7.5580221,
              4.5411494
            ],
            [
              -7.5567189,
              4.5426014
            ],
            [
              -7.5577983,
              4.5462451
            ],
            [
              -7.5609247,
              4.5550342
            ],
            [
              -7.560889,
              4.557936
            ],
            [
              -7.5604472,
              4.5589048
            ],
            [
              -7.5575794,
              4.5615581
            ],
            [
              -7.557824,
              4.5636328
            ],
            [
              -7.5587176,
              4.567002
            ],
            [
              -7.5653079,
              4.5753501
            ],
            [
              -7.5697802,
              4.5796906
            ],
            [
              -7.5723203,
              4.5815752
            ],
            [
              -7.5734999,
              4.583875
            ],
            [
              -7.5730433,
              4.5869716
            ],
            [
              -7.5708764,
              4.5899237
            ],
            [
              -7.5598088,
              4.5912026
            ],
            [
              -7.5577832,
              4.5933899
            ],
            [
              -7.5499805,
              4.6068082
            ],
            [
              -7.5478059,
              4.6096952
            ],
            [
              -7.5478397,
              4.6119061
            ],
            [
              -7.5540023,
              4.6183674
            ],
            [
              -7.5550749,
              4.632166
            ],
            [
              -7.5577512,
              4.641319
            ],
            [
              -7.5625876,
              4.6490479
            ],
            [
              -7.5638441,
              4.6503003
            ],
            [
              -7.5672228,
              4.6511422
            ],
            [
              -7.5715017,
              4.649948
            ],
            [
              -7.5736015,
              4.649948
            ],
            [
              -7.5751143,
              4.6507464
            ],
            [
              -7.5761695,
              4.6530249
            ],
            [
              -7.5761195,
              4.6551532
            ],
            [
              -7.572883,
              4.6617562
            ],
            [
              -7.5688146,
              4.6646032
            ],
            [
              -7.5598422,
              4.6673269
            ],
            [
              -7.559442,
              4.6687627
            ],
            [
              -7.5622367,
              4.6722234
            ],
            [
              -7.5658522,
              4.6756553
            ],
            [
              -7.5675799,
              4.6797099
            ],
            [
              -7.5706653,
              4.6856729
            ],
            [
              -7.570147,
              4.6884574
            ],
            [
              -7.5635593,
              4.6903579
            ],
            [
              -7.5589507,
              4.6913786
            ],
            [
              -7.557627,
              4.6926979
            ],
            [
              -7.5574576,
              4.6960743
            ],
            [
              -7.557438,
              4.7021488
            ],
            [
              -7.5575772,
              4.7049547
            ],
            [
              -7.5582228,
              4.707641
            ],
            [
              -7.5608809,
              4.7115997
            ],
            [
              -7.5625391,
              4.7172281
            ],
            [
              -7.5619416,
              4.7239607
            ],
            [
              -7.5607183,
              4.7268696
            ],
            [
              -7.5593383,
              4.7319816
            ],
            [
              -7.559392,
              4.7392669
            ],
            [
              -7.5602413,
              4.741391
            ],
            [
              -7.563352,
              4.7469816
            ],
            [
              -7.5647046,
              4.7505933
            ],
            [
              -7.5646052,
              4.7550389
            ],
            [
              -7.5630725,
              4.7609336
            ],
            [
              -7.5636813,
              4.763586
            ],
            [
              -7.5666695,
              4.7662265
            ],
            [
              -7.5672721,
              4.768126
            ],
            [
              -7.5666234,
              4.7701951
            ],
            [
              -7.5653277,
              4.771839
            ],
            [
              -7.5631257,
              4.774139
            ],
            [
              -7.5625634,
              4.7764503
            ],
            [
              -7.5626,
              4.778676
            ],
            [
              -7.5620862,
              4.7803166
            ],
            [
              -7.5607014,
              4.7831935
            ],
            [
              -7.5625397,
              4.7851021
            ],
            [
              -7.5666608,
              4.7867644
            ],
            [
              -7.5774853,
              4.7886226
            ],
            [
              -7.580079,
              4.7893118
            ],
            [
              -7.584069,
              4.791719
            ],
            [
              -7.589074,
              4.7960644
            ],
            [
              -7.5938992,
              4.7999711
            ],
            [
              -7.5946046,
              4.8016404
            ],
            [
              -7.5945175,
              4.8050243
            ],
            [
              -7.5936374,
              4.8065645
            ],
            [
              -7.5935102,
              4.8096898
            ],
            [
              -7.5949477,
              4.8158042
            ],
            [
              -7.5948826,
              4.8187004
            ],
            [
              -7.5939903,
              4.8210206
            ],
            [
              -7.5926782,
              4.8226115
            ],
            [
              -7.5842168,
              4.8268058
            ],
            [
              -7.5829188,
              4.8279741
            ],
            [
              -7.5824419,
              4.8296062
            ],
            [
              -7.5835859,
              4.8335327
            ],
            [
              -7.5877181,
              4.8383117
            ],
            [
              -7.5890763,
              4.8405458
            ],
            [
              -7.5921312,
              4.8464836
            ],
            [
              -7.5933489,
              4.8520517
            ],
            [
              -7.592642,
              4.8526588
            ],
            [
              -7.5917755,
              4.8524944
            ],
            [
              -7.5910481,
              4.8542954
            ],
            [
              -7.5891659,
              4.8561708
            ],
            [
              -7.5866436,
              4.8566908
            ],
            [
              -7.5885727,
              4.8654941
            ],
            [
              -7.5901194,
              4.8750836
            ],
            [
              -7.5900864,
              4.8827752
            ],
            [
              -7.5916016,
              4.8857891
            ],
            [
              -7.596298,
              4.8892008
            ],
            [
              -7.5979772,
              4.8912642
            ],
            [
              -7.5991548,
              4.8937785
            ],
            [
              -7.5992113,
              4.8960306
            ],
            [
              -7.596209,
              4.9030099
            ],
            [
              -7.5942008,
              4.906289
            ],
            [
              -7.5918459,
              4.9080766
            ],
            [
              -7.5891132,
              4.9090212
            ],
            [
              -7.5840856,
              4.9103974
            ],
            [
              -7.5826348,
              4.9113425
            ],
            [
              -7.5808176,
              4.9113991
            ],
            [
              -7.5787913,
              4.9108383
            ],
            [
              -7.5726465,
              4.9064261
            ],
            [
              -7.5706492,
              4.9060496
            ],
            [
              -7.5674188,
              4.9073044
            ],
            [
              -7.565451,
              4.908557
            ],
            [
              -7.5642007,
              4.9103442
            ],
            [
              -7.5636526,
              4.9128567
            ],
            [
              -7.5630415,
              4.9187782
            ],
            [
              -7.5620237,
              4.9204684
            ],
            [
              -7.5603372,
              4.9218687
            ],
            [
              -7.5567122,
              4.9234243
            ],
            [
              -7.5532558,
              4.9240353
            ],
            [
              -7.5501195,
              4.9239238
            ],
            [
              -7.5480924,
              4.9228578
            ],
            [
              -7.5462395,
              4.9211236
            ],
            [
              -7.54546,
              4.9194041
            ],
            [
              -7.5442614,
              4.9177757
            ],
            [
              -7.5422993,
              4.9166896
            ],
            [
              -7.5398842,
              4.9160881
            ],
            [
              -7.5376368,
              4.9159242
            ],
            [
              -7.5322871,
              4.9170232
            ],
            [
              -7.5275023,
              4.9188862
            ],
            [
              -7.5260977,
              4.9206086
            ],
            [
              -7.5256056,
              4.9240955
            ],
            [
              -7.5260421,
              4.9265423
            ],
            [
              -7.5271849,
              4.9283313
            ],
            [
              -7.5290754,
              4.9298271
            ],
            [
              -7.5312087,
              4.9307225
            ],
            [
              -7.5330453,
              4.9334959
            ],
            [
              -7.5364906,
              4.937808
            ],
            [
              -7.5377844,
              4.9466808
            ],
            [
              -7.5343832,
              4.9508268
            ],
            [
              -7.533595,
              4.9548541
            ],
            [
              -7.5342298,
              4.9569302
            ],
            [
              -7.535322,
              4.9583447
            ],
            [
              -7.5416232,
              4.9630805
            ],
            [
              -7.5460445,
              4.9661637
            ],
            [
              -7.5487424,
              4.9673705
            ],
            [
              -7.5548448,
              4.9690837
            ],
            [
              -7.5564228,
              4.9702068
            ],
            [
              -7.5577181,
              4.9718899
            ],
            [
              -7.5581749,
              4.9734826
            ],
            [
              -7.5575495,
              4.975578
            ],
            [
              -7.5560301,
              4.9770917
            ],
            [
              -7.550933,
              4.9808449
            ],
            [
              -7.5481762,
              4.9833716
            ],
            [
              -7.5455283,
              4.9871636
            ],
            [
              -7.542659,
              4.9927706
            ],
            [
              -7.5421092,
              4.9962211
            ],
            [
              -7.542208988192546,
              5
            ],
            [
              -8,
              5
            ],
            [
              -8,
              4.301879825521169
            ]
          ]
        ]
      }
    }
  ]
}