{
  "type": "FeatureCollection",
  "features": [
    {
      "type": "Feature",
      "properties": {
        "osm_id": -62273,
        "boundary": "administrative",
        "admin_level": 2,
        "parents": null,
        "name": "Ireland",
        "local_name": "Ã‰ire / Ireland",
        "name_en": "Ireland",
        "all_tags": {
          "flag": "http://upload.wikimedia.org/wikipedia/commons/4/45/Flag_of_Ireland.svg",
          "name": "Ã‰ire / Ireland",
          "name:ab": "Ğ˜Ñ€Ğ»Ğ°Ğ½Ğ´Ğ¸Ğ°",
          "name:af": "Ierland",
          "name:ak": "Aereland",
          "name:am": "áŠ á‹¨áˆ­áˆ‹áŠ•á‹µ",
          "name:an": "Irlanda",
          "name:ar": "Ø£ÙŠØ±Ù„Ù†Ø¯Ø§",
          "name:av": "Ğ˜Ñ€Ğ»Ğ°Ğ½Ğ´Ğ¸Ñ",
          "name:ay": "Irlandiya",
          "name:az": "Ä°rlandiya",
          "name:ba": "Ğ˜Ñ€Ğ»Ğ°Ğ½Ğ´Ğ¸Ñ",
          "name:be": "Ğ†Ñ€Ğ»Ğ°Ğ½Ğ´Ñ‹Ñ",
          "name:bg": "Ğ˜Ñ€Ğ»Ğ°Ğ½Ğ´Ğ¸Ñ",
          "name:bh": "à¤†à¤¯à¤°à¤²à¥ˆà¤‚à¤¡ à¤°à¤¿à¤ªà¤¬à¥à¤²à¤¿à¤•",
          "name:bi": "Ireland",
          "name:bm": "Irilandi",
          "name:bn": "à¦†à¦¯à¦¼à¦¾à¦°à¦²à§à¦¯à¦¾à¦¨à§à¦¡",
          "name:bo": "à½¨à¼‹à½¡à½¢à¼‹à½£à½“à½Œà¼",
          "name:br": "Iwerzhon",
          "name:bs": "Irska",
          "name:ca": "Irlanda",
          "name:ce": "Ğ˜Ñ€Ğ»Ğ°Ğ½Ğ´Ğ¸",
          "name:ch": "Irlanda",
          "name:co": "Irlanda",
          "name:cs": "Irsko",
          "name:cu": "Ğ„Ğ¸Ñ€ÑŒ",
          "name:cv": "Ğ˜Ñ€Ğ»Ğ°Ğ½Ğ´Ğ¸ Ğ ĞµÑĞ¿ÑƒĞ±Ğ»Ğ¸ĞºĞ¸",
          "name:cy": "Iwerddon",
          "name:da": "Irland",
          "name:de": "Irland",
          "name:dv": "Ş‡Ş¦Ş”Ş¦ŞŞ­Ş‚Ş°Ş‘ŞªŞŞ¬ Ş–ŞªŞ‰Ş°Ş€Ş«ŞƒŞ¨Ş‡Ş°Ş”Ş§",
          "name:dz": "à½¨à½±à¼‹à½¡à¼‹à½£à½ºà½“à½Œ",
          "name:ee": "Ireland nutome",
          "name:el": "Î™ÏÎ»Î±Î½Î´Î¯Î±",
          "name:en": "Ireland",
          "name:eo": "Irlando",
          "name:es": "Irlanda",
          "name:et": "Iirimaa",
          "name:eu": "Irlanda",
          "name:fa": "Ø§ÛŒØ±Ù„Ù†Ø¯",
          "name:ff": "Irlannda",
          "name:fi": "Irlanti",
          "name:fo": "Ãrland",
          "name:fr": "Irlande",
          "name:fy": "IerlÃ¢n",
          "name:ga": "Ã‰ire",
          "name:gd": "Ãˆirinn",
          "name:gl": "Irlanda",
          "name:gn": "Ilandia",
          "name:gu": "àª†àª¯àª°à«àª²à«‡àª‚àª¡",
          "name:gv": "Nerin",
          "name:ha": "Ayalan",
          "name:he": "××™×¨×œ× ×“",
          "name:hi": "à¤†à¤¯à¤°à¤²à¥ˆà¤‚à¤¡",
          "name:hr": "Irska",
          "name:ht": "Ilann",
          "name:hu": "ÃrorszÃ¡g",
          "name:hy": "Ô»Õ¼Õ¬Õ¡Õ¶Õ¤Õ«Õ¡",
          "name:ia": "Irlanda",
          "name:id": "Irlandia",
          "name:ie": "Irland",
          "name:ig": "Ireland",
          "name:io": "Irlando",
          "name:is": "Ãrland",
          "name:it": "Irlanda",
          "name:ja": "ã‚¢ã‚¤ãƒ«ãƒ©ãƒ³ãƒ‰",
          "name:jv": "Republik Irlandia",
          "name:ka": "áƒ˜áƒ áƒšáƒáƒœáƒ“áƒ˜áƒ",
          "name:ki": "Ayalandi",
          "name:kk": "Ğ˜Ñ€Ğ»Ğ°Ğ½Ğ´Ğ¸Ñ",
          "name:kl": "Irlandi",
          "name:km": "á¢áŸ€ášá¡á„áŸ‹",
          "name:kn": "à²à²°à³à²²à³†à²‚à²¡à³",
          "name:ko": "ì•„ì¼ëœë“œ",
          "name:ks": "Ø§ÙÛŒÙØ±Ù„ÛŒÙ†Ù›Ú‘",
          "name:ku": "Ãrland",
          "name:kv": "Ğ˜Ñ€Ğ»Ğ°Ğ½Ğ´Ğ¸Ñ",
          "name:kw": "Repoblek Iwerdhon",
          "name:ky": "Ğ˜Ñ€Ğ»Ğ°Ğ½Ğ´Ğ¸Ñ",
          "name:la": "Hibernia",
          "name:lb": "Irland",
          "name:lg": "Ayalandi",
          "name:li": "Ierland",
          "name:ln": "IrelandÉ›",
          "name:lo": "à»„àº­à»àº¥àº™",
          "name:lt": "Airija",
          "name:lv": "Äªrija",
          "name:mg": "Irlandy",
          "name:mi": "Airangi",
          "name:mk": "Ğ˜Ñ€ÑĞºĞ°",
          "name:ml": "à´…à´¯àµ¼à´²à´¾àµ»à´¡àµ",
          "name:mn": "Ğ˜Ñ€Ğ»Ğ°Ğ½Ğ´",
          "name:mr": "à¤†à¤¯à¤°à¥à¤²à¤‚à¤¡",
          "name:ms": "Ireland",
          "name:mt": "Irlanda",
          "name:my": "á€¡á€­á€¯á€„á€ºá€šá€¬á€œá€”á€º",
          "name:na": "Ripubrikit Airerand",
          "name:ne": "à¤†à¤‡à¤°à¤²à¥à¤¯à¤¾à¤£à¥à¤¡",
          "name:nl": "Ierland",
          "name:nn": "Irland",
          "name:no": "Irland",
          "name:nv": "BitsiighaÊ¼ ÅichÃ­Ã­Ê¼Ã­ BikÃ©yah",
          "name:oc": "Republica d'Irlanda",
          "name:om": "Aayerlaandi",
          "name:or": "à¬†à­Ÿà¬°à¬²à­à­Ÿà¬¾à¬£à­à¬¡",
          "name:os": "Ğ˜Ñ€Ğ»Ğ°Ğ½Ğ´Ğ¸",
          "name:pa": "à¨†à¨‡à¨°à¨²à©ˆà¨‚à¨¡ à¨—à¨£à¨°à¨¾à¨œ",
          "name:pl": "Irlandia",
          "name:ps": "Ø¯ Ø¢ÙŠØ±Ù„ÛÙ†Ú‰ Ø¬Ù…Ù‡ÙˆØ±ÙŠØª",
          "name:pt": "Irlanda",
          "name:qu": "Ilanda",
          "name:rm": "Irlanda",
          "name:rn": "Irilandi",
          "name:ro": "Irlanda",
          "name:ru": "Ğ˜Ñ€Ğ»Ğ°Ğ½Ğ´Ğ¸Ñ",
          "name:rw": "Irilande",
          "name:sa": "à¤à¤°à¥à¤²à¥‡à¤£à¥à¤¡à¥ à¤—à¤£à¤°à¤¾à¤œà¥à¤¯à¤®à¥",
          "name:sc": "Irlanda",
          "name:sd": "Ø¬Ù…Ú¾ÙˆØ±ÙŠØ§ Ø¢Ø¦Ø±Ù„ÙŠÙ†ÚŠ",
          "name:se": "IrlÃ¡nda",
          "name:sg": "IrlÃ¢nde",
          "name:sh": "Irska",
          "name:si": "à¶…à¶ºà¶»à·Šà¶½à¶±à·Šà¶­à¶º",
          "name:sk": "Ãrsko",
          "name:sl": "Irska",
          "name:sm": "Ripapelika o Aialani",
          "name:sn": "Ireland",
          "name:so": "Ayrlaand",
          "name:sq": "IrlandÃ«",
          "name:sr": "Ğ˜Ñ€ÑĞºĞ°",
          "name:ss": "IYalendi",
          "name:sv": "Irland",
          "name:sw": "Ayalandi",
          "name:ta": "à®…à®¯à®°à¯à®²à®¾à®¨à¯à®¤à¯",
          "name:te": "à°à°°à± à°²à°¾à°‚à°¡à±",
          "name:tg": "Ò¶ÑƒĞ¼Ò³ÑƒÑ€Ğ¸Ğ¸ Ğ˜Ñ€Ğ»Ğ°Ğ½Ğ´Ğ¸Ñ",
          "name:th": "à¸ªà¸²à¸˜à¸²à¸£à¸“à¸£à¸±à¸à¹„à¸­à¸£à¹Œà¹à¸¥à¸™à¸”à¹Œ",
          "name:ti": "áŠ á‹¨áˆ­áˆ‹áŠ•á‹µ",
          "name:tk": "IrlandiÃ½a",
          "name:tl": "Irlanda",
          "name:to": "Ê»Aealani",
          "name:tr": "Ä°rlanda",
          "name:ts": "Ireland",
          "name:tt": "Ğ˜Ñ€Ğ»Ğ°Ğ½Ğ´Ğ¸Ñ",
          "name:uk": "Ğ†Ñ€Ğ»Ğ°Ğ½Ğ´Ñ–Ñ",
          "name:ur": "Ø¢Ø¦Ø±Ù„ÛŒÙ†Úˆ",
          "name:uz": "Irlandiya",
          "name:ve": "Ireland",
          "name:vi": "Ai-len",
          "name:vo": "LireyÃ¤n",
          "name:wa": "Irlande",
          "name:wo": "Irlaand",
          "name:yi": "××™×¨×œ×× ×“",
          "name:yo": "OrÃ­láº¹ÌÃ¨de Ailandi",
          "name:za": "Aiwjlanz Gunghozgoz",
          "name:zh": "çˆ±å°”å…° / æ„›çˆ¾è˜­",
          "name:zu": "i-Ireland",
          "alt_name": "Republic of Ireland",
          "boundary": "administrative",
          "currency": "EUR",
          "int_name": "Ireland",
          "name:ace": "Irlandia",
          "name:ady": "Ğ˜Ñ€Ğ»Ğ°Ğ½Ğ´Ğ¸Ğµ",
          "name:als": "Irland",
          "name:ang": "Äªrland CynewÄ«se",
          "name:arc": "Ü©Ü˜Ü›Ü¢ÜÜ˜Ü¬Ü Ü•ÜÜÜªÜ Ü¢Ü•",
          "name:ary": "Ø¥Ø±Ù„Ø§Ù†Ø¯Ø§",
          "name:arz": "Ø¬Ù…Ù‡ÙˆØ±ÙŠØ© Ø§ÙŠØ±Ù„Ø§Ù†Ø¯Ø§",
          "name:ast": "RepÃºblica d'Irlanda",
          "name:avk": "Eirea",
          "name:awa": "à¤†à¤¯à¤°à¤²à¥ˆà¤‚à¤¡ à¤—à¤£à¤°à¤¾à¤œà¥à¤¯",
          "name:azb": "Ø§ÛŒØ±Ù„Ù†Ø¯",
          "name:ban": "Irlandia",
          "name:bar": "Irland",
          "name:bcl": "Irlandya",
          "name:bpy": "à¦†à¦¯à¦¼à¦¾à¦°à¦²à§à¦¯à¦¾à¦¨à§à¦¡",
          "name:bug": "Irlandia",
          "name:bxr": "Ğ˜Ñ€Ğ»Ğ°Ğ½Ğ´",
          "name:cdo": "Ãi-Ä«-lÃ ng",
          "name:ceb": "Irlanda",
          "name:chr": "á á¢á´á‚á—",
          "name:chy": "Ireland",
          "name:ckb": "Ø¦ÛŒØ±Ù„Û•Ù†Ø¯",
          "name:crh": "Ä°rlandiya",
          "name:csb": "IrlandÃ«jÃ´",
          "name:diq": "CumhuriyetÃª Ä°rlanda",
          "name:dsb": "Irska",
          "name:dty": "à¤—à¤£à¤¤à¤¨à¥à¤¤à¥à¤° à¤†à¤¯à¤°à¤²à¥à¤¯à¤¾à¤¨à¥à¤¡",
          "name:eml": "IrlÃ nda",
          "name:ext": "Irlanda",
          "name:frp": "Irlande",
          "name:frr": "IrlÃ¶nj",
          "name:fur": "Irlande",
          "name:gag": "Ä°rlandiya",
          "name:gan": "æ„›çˆ¾è˜­",
          "name:gcr": "Irlann",
          "name:gom": "à¤†à¤¯à¤°à¥à¤²à¤‚à¤¡",
          "name:got": "ğŒ´ğŒ¹ğ‚ğŒ°ğŒ»ğŒ°ğŒ½ğŒ³",
          "name:hak": "Ireland",
          "name:haw": "â€˜Ilelani",
          "name:hif": "Republic of Ireland",
          "name:hsb": "Irska",
          "name:hyw": "Ô»Ö€Õ¬Õ¡Õ¶Õ¿Õ¡",
          "name:ilo": "Republika iti IrlÃ¡nda",
          "name:jam": "Ripoblik a Airilan",
          "name:jbo": "airland",
          "name:kaa": "Ä°rlandiya",
          "name:kab": "Lirlund",
          "name:kbd": "Ğ˜Ñ€Ğ»ÑĞ½Ğ´",
          "name:koi": "Ğ˜Ñ€Ğ¼Ñƒ",
          "name:krc": "Ğ˜Ñ€Ğ»Ğ°Ğ½Ğ´Ğ¸Ñ",
          "name:ksh": "Irrland",
          "name:lad": "Irlanda",
          "name:lez": "Ğ˜Ñ€Ğ»Ğ°Ğ½Ğ´Ğ¸Ñ",
          "name:lij": "Ã‰ire",
          "name:lld": "Irlanda",
          "name:lmo": "Irlanda",
          "name:ltg": "Eireja",
          "name:lzh": "æ„›çˆ¾è˜­å…±å’Œåœ‹",
          "name:mad": "Republik Irlandia",
          "name:mdf": "Ğ˜Ñ€Ğ»Ğ°Ğ½Ğ´Ğ¸Ñ Ğ¼Ğ°ÑÑ‚Ğ¾Ñ€",
          "name:mhr": "Ğ˜Ñ€Ğ»Ğ°Ğ½Ğ´Ğ¸Ğ¹",
          "name:mrj": "Ğ˜Ñ€Ğ»Ğ°Ğ½Ğ´Ğ¸",
          "name:mwl": "Irlanda",
          "name:myv": "Ğ˜Ñ€Ğ»Ğ°Ğ½Ğ´Ğ¸Ñ ĞœĞ°ÑÑ‚Ğ¾Ñ€",
          "name:mzn": "Ø§ÛŒØ±Ù„Ù†Ø¯ Ø¬Ù…Ù‡ÙˆØ±ÛŒ",
          "name:nah": "IrtlÄlpan",
          "name:nan": "Ã‰ire",
          "name:nds": "Irland",
          "name:new": "à¤—à¤£à¤¤à¤¨à¥à¤¤à¥à¤° à¤†à¤¯à¤°à¤²à¥à¤¯à¤¾à¤¨à¥à¤¦",
          "name:nov": "Republike de Irlande",
          "name:nrm": "RÃ©publyique d'Irlande",
          "name:nso": "Ireland",
          "name:pag": "Irlanda",
          "name:pam": "Irlanda",
          "name:pap": "Irlandia",
          "name:pcd": "Irlinde",
          "name:pdc": "Irland",
          "name:pih": "Repablik o' Airiland",
          "name:pms": "Irlanda",
          "name:pnb": "Ù„ÙˆÚ©Ø±Ø§Ø¬ Ø¢Ø¦Ø±Ù„ÛŒÙ†Úˆ",
          "name:pnt": "Î™ÏÎ»Î±Î½Î´Î¯Î±",
          "name:rmy": "Republika Irland",
          "name:rue": "Ğ†Ñ€ÑŒÑĞºĞ¾",
          "name:sah": "Ğ˜Ñ€Ğ»Ğ°Ğ½Ğ´Ğ¸Ñ Ğ ĞµÑĞ¿ÑƒĞ±Ğ»Ğ¸ĞºĞ°Ñ‚Ğ°",
          "name:sat": "á±Ÿá±­á±Ÿá±¨á±á±®á±±á±° á±¨á±®á±±á±Ÿá±œ á±Ÿá±¹á±¯á±±á±Ÿá±¹á±›",
          "name:scn": "Irlanda",
          "name:sco": "Republic o Ireland",
          "name:shn": "á€™á€­á€°á€„á€ºá€¸á€¢á¢á‚†á‚‡á€šá‚ƒá‚‡á€œá‚…á¼á€ºá‚‡",
          "name:smn": "Irland",
          "name:sms": "Irlantt",
          "name:srn": "Irikondre",
          "name:stq": "Irlound",
          "name:szl": "IrlandyjÅ",
          "name:tet": "Irlanda",
          "name:tok": "ma Alan",
          "name:tpi": "Ripablik bilong Aialan",
          "name:tzl": "Oira",
          "name:udm": "Ğ˜Ñ€Ğ»Ğ°Ğ½Ğ´Ğ¸Ñ",
          "name:vec": "Irlanda",
          "name:vep": "Irlandii",
          "name:vls": "Republiek Ierland",
          "name:vro": "Iirimaa",
          "name:war": "Republika han Irlanda",
          "name:wuu": "çˆ±å°”å…°",
          "name:xal": "Ğ“Ó™Ó™Ğ»Ğ³Ò¯Ğ´Ğ¸Ğ½ ĞÑ€Ğ½",
          "name:xmf": "áƒ˜áƒ áƒšáƒáƒœáƒ“áƒ˜áƒ",
          "name:yue": "æ„›çˆ¾è˜­å…±å’Œåœ‹",
          "name:zea": "Ierland",
          "timezone": "Europe/Dublin",
          "way_area": "14.613",
          "wikidata": "Q27",
          "ISO3166-1": "IE",
          "wikipedia": "en:Republic of Ireland",
          "population": "5123536",
          "ref:nuts:1": "IE0",
          "admin_level": "2",
          "alt_name:vi": "Ireland;Ãi NhÄ© Lan",
          "description": "Republic of Ireland",
          "geonames:id": "2963597",
          "is_in:ocean": "Atlantic",
          "name:nds-nl": "Ierlaand",
          "capital_city": "Dublin",
          "driving_side": "left",
          "name:bat-smg": "AirÄ—jÄ—",
          "name:roa-rup": "Irlanda",
          "name:zh-Hans": "çˆ±å°”å…°",
          "name:zh-Hant": "æ„›çˆ¾è˜­",
          "name:roa-tara": "Irlanne",
          "official_name": "Ã‰ire",
          "name:be-tarask": "Ğ†Ñ€Ğ»ÑĞ½Ğ´Ñ‹Ñ",
          "name:zh_pinyin": "Ã€iÄ›rlÃ¡n",
          "name:zh-min-nan": "Ã€i-nÃ­-lÃ¢n",
          "population:date": "2022",
          "ISO3166-1:alpha2": "IE",
          "ISO3166-1:alpha3": "IRL",
          "default_language": "en",
          "official_name:cs": "IrskÃ¡ republika",
          "official_name:en": "Ireland",
          "official_name:eo": "Respubliko de Irlando",
          "official_name:fi": "Irlannin tasavalta",
          "official_name:ga": "Ã‰ire",
          "official_name:io": "Republiko di Irlando",
          "official_name:la": "Hibernia",
          "official_name:pt": "RepÃºblica da Irlanda",
          "ISO3166-1:numeric": "372",
          "country_code_fips": "EI"
        }
      },
      "geometry": {
        "type": "Polygon",
        "coordinates": [
          [
            [
              -8,
              52
            ],
            [
              -7,
              52
            ],
            [
              -7,
              53
            ],
            [
              -8,
              53
            ],
            [
              -8,
              52
            ]
          ]
        ]
      }
    }
  ]
}