{
  "type": "FeatureCollection",
  "features": [
    {
      "type": "Feature",
      "properties": {
        "osm_id": -304934,
        "boundary": "administrative",
        "admin_level": 2,
        "parents": null,
        "name": "Iraq",
        "local_name": "العراق",
        "name_en": "Iraq",
        "all_tags": {
          "flag": "http://upload.wikimedia.org/wikipedia/commons/f/f6/Flag_of_Iraq.svg",
          "name": "العراق",
          "name:af": "Irak",
          "name:ak": "Irak",
          "name:am": "ኢራቅ",
          "name:an": "Iraq",
          "name:ar": "العراق",
          "name:av": "ГӀиракъ",
          "name:az": "İrak",
          "name:be": "Ірак",
          "name:bg": "Ирак",
          "name:bm": "Iraki",
          "name:bn": "ইরাক",
          "name:bo": "ཡི་ལའ་ཁོ།",
          "name:br": "Irak",
          "name:bs": "Irak",
          "name:ca": "Iraq",
          "name:ce": "Ӏиракъ",
          "name:cs": "Irák",
          "name:cv": "Ирак",
          "name:cy": "Irac",
          "name:da": "Irak",
          "name:de": "Irak",
          "name:dv": "ޢިރާޤު",
          "name:dz": "ཨི་རཱཀ",
          "name:ee": "iraqdukɔ",
          "name:el": "Ιράκ",
          "name:en": "Iraq",
          "name:eo": "Irako",
          "name:es": "Irak",
          "name:et": "Iraak",
          "name:eu": "Irak",
          "name:fa": "عراق",
          "name:ff": "Iraak",
          "name:fi": "Irak",
          "name:fo": "Irak",
          "name:fr": "Irak",
          "name:fy": "Irak",
          "name:ga": "An Iaráic",
          "name:gd": "Ioràc",
          "name:gl": "Iraq",
          "name:gn": "Iráke",
          "name:gu": "ઈરાક",
          "name:gv": "Yn Earack",
          "name:ha": "Iraƙi",
          "name:he": "עיראק",
          "name:hi": "इराक़",
          "name:hr": "Irak",
          "name:ht": "Irak",
          "name:hu": "Irak",
          "name:hy": "Իրաք",
          "name:ia": "Irak",
          "name:id": "Irak",
          "name:ie": "Irak",
          "name:io": "Irak",
          "name:is": "Írak",
          "name:it": "Iraq",
          "name:iu": "ᐃᕉᒃ",
          "name:ja": "イラク",
          "name:jv": "Irak",
          "name:ka": "ერაყი",
          "name:ki": "Iraq",
          "name:kk": "Ирак",
          "name:kl": "Iraq",
          "name:km": "អ៊ីរ៉ាក់",
          "name:kn": "ಇರಾಕ್",
          "name:ko": "이라크",
          "name:ks": "ایٖراق",
          "name:ku": "Êraq",
          "name:kv": "Ирак",
          "name:kw": "Irak",
          "name:ky": "Ирак",
          "name:la": "Iraca",
          "name:lb": "Irak",
          "name:lg": "Yiraaka",
          "name:li": "Irak",
          "name:ln": "Irak",
          "name:lo": "ອີລັກ",
          "name:lt": "Irakas",
          "name:lv": "Irāka",
          "name:mg": "Irak",
          "name:mi": "Īrāki",
          "name:mk": "Ирак",
          "name:ml": "ഇറാഖ്",
          "name:mn": "Ирак",
          "name:mr": "इराक",
          "name:ms": "Iraq",
          "name:mt": "Iraq",
          "name:my": "အီရတ်နိုင်ငံ",
          "name:na": "Irak",
          "name:nb": "Irak",
          "name:ne": "इराक",
          "name:nl": "Irak",
          "name:nn": "Irak",
          "name:no": "Irak",
          "name:nv": "Iiwááʼ",
          "name:oc": "Iraq",
          "name:or": "ଇରାକ",
          "name:os": "Ирак",
          "name:pa": "ਇਰਾਕ",
          "name:pl": "Irak",
          "name:ps": "عراق",
          "name:pt": "Iraque",
          "name:qu": "Iraq",
          "name:rm": "Irac",
          "name:rn": "Iraki",
          "name:ro": "Irak",
          "name:ru": "Ирак",
          "name:rw": "Irake",
          "name:sa": "ईराक",
          "name:se": "Irak",
          "name:sg": "Irâki",
          "name:sh": "Irak",
          "name:si": "ඉරාක",
          "name:sk": "Irak",
          "name:sl": "Irak",
          "name:sn": "Iraq",
          "name:so": "Ciraaq",
          "name:sq": "Iraku",
          "name:sr": "Ирак",
          "name:ss": "I-Irakhi",
          "name:su": "Irak",
          "name:sv": "Irak",
          "name:sw": "Iraq",
          "name:ta": "ஈராக்கு",
          "name:te": "ఇరాక్",
          "name:tg": "Ироқ",
          "name:th": "ประเทศอิรัก",
          "name:ti": "ኢራቅ",
          "name:tk": "Yrak",
          "name:tl": "Irak",
          "name:to": "ʻIulaaki",
          "name:tr": "Irak",
          "name:tt": "Гыйрак",
          "name:tw": "Irak",
          "name:ug": "ئىراق",
          "name:uk": "Ірак",
          "name:ur": "عراق",
          "name:uz": "Iroq",
          "name:vi": "Iraq",
          "name:vo": "Lirakän",
          "name:wa": "Irak",
          "name:wo": "Iraak",
          "name:yi": "איראק",
          "name:yo": "Irak",
          "name:zh": "伊拉克",
          "name:zu": "I-Iraki",
          "alt_name": "العِرَاقُ",
          "boundary": "administrative",
          "int_name": "Iraq",
          "name:ace": "Irak",
          "name:als": "Irak",
          "name:ang": "Irac",
          "name:arc": "ܥܝܪܐܩ",
          "name:arz": "العراق",
          "name:ast": "Iraq",
          "name:bar": "Irak",
          "name:bcl": "Iraq",
          "name:bpy": "ইরাক",
          "name:bug": "Irak",
          "name:bxr": "Ирак",
          "name:cdo": "Ĭ-lăk",
          "name:ceb": "Iraq",
          "name:chr": "ᎢᎳᎩ",
          "name:ckb": "عێراق",
          "name:crh": "Iraq",
          "name:csb": "Irak",
          "name:din": "Irak",
          "name:diq": "Iraq",
          "name:dsb": "Irak",
          "name:ext": "Iraq",
          "name:frp": "Iraq",
          "name:fur": "Iraq",
          "name:gag": "İrak",
          "name:gan": "伊拉克",
          "name:hak": "Yî-là-khiet",
          "name:haw": "‘Ilaka",
          "name:hif": "Iraq",
          "name:hsb": "Irak",
          "name:ilo": "Irak",
          "name:jbo": "raksygu'e",
          "name:kab": "Lɛiraq",
          "name:kbd": "Ирак",
          "name:ksh": "der Irak",
          "name:lad": "Irak",
          "name:lez": "Ирак",
          "name:lfn": "Irac",
          "name:lij": "Iraq",
          "name:lmo": "Irak",
          "name:lzh": "伊拉克",
          "name:mdf": "Ирак",
          "name:mzn": "عراق",
          "name:nah": "Irac",
          "name:nan": "Iraq",
          "name:nds": "Irak",
          "name:new": "इराक",
          "name:nov": "Irak",
          "name:pam": "Irak",
          "name:pap": "Irak",
          "name:pdc": "Iraek",
          "name:pih": "Eraak",
          "name:pms": "Irak",
          "name:pnb": "عراق",
          "name:rue": "Ірак",
          "name:sah": "Ирак",
          "name:scn": "Iraq",
          "name:sco": "Iraq",
          "name:sdh": "عێراق",
          "name:smn": "Irak",
          "name:sms": "Irakk",
          "name:stq": "Irak",
          "name:szl": "Irak",
          "name:tok": "ma Ilakija",
          "name:tpi": "Irak",
          "name:udm": "Ирак",
          "name:vec": "Iraq",
          "name:vep": "Irak",
          "name:vro": "Iraak",
          "name:war": "Irak",
          "name:wuu": "伊拉克",
          "name:xal": "Иракудин Орн",
          "name:yue": "伊拉克",
          "name:zea": "Irak",
          "timezone": "Asia/Baghdad",
          "way_area": "42.4981",
          "wikidata": "Q796",
          "ISO3166-1": "IQ",
          "wikipedia": "ar:العراق",
          "admin_level": "2",
          "alt_name:vi": "I-rắc",
          "border_type": "nation",
          "name:simple": "Iraq",
          "alt_name:ckb": "ئێراق",
          "alt_name:sdh": "ئێراق",
          "name:bat-smg": "Iraks",
          "name:roa-rup": "Irac",
          "name:zh-Hans": "伊拉克",
          "name:zh-Hant": "伊拉克",
          "name:roa-tara": "Iraq",
          "official_name": "جمهورية العراق",
          "name:be-tarask": "Ірак",
          "name:zh_pinyin": "Yīlākè",
          "ISO3166-1:alpha2": "IQ",
          "ISO3166-1:alpha3": "IRQ",
          "default_language": "ar",
          "official_name:ar": "جمهورية العراق",
          "official_name:be": "Рэспубліка Ірак",
          "official_name:cs": "Irácká republika",
          "official_name:de": "Republik Irak",
          "official_name:el": "Δημοκρατία του Ιράκ",
          "official_name:en": "Republic of Iraq",
          "official_name:eo": "Respubliko Irako",
          "official_name:es": "República de Irak",
          "official_name:et": "Iraagi Vabariik",
          "official_name:gd": "Poblachd Ioràic",
          "official_name:gn": "Tetã Iráke",
          "official_name:id": "Republik Irak",
          "official_name:ku": "Komara Êraqê",
          "official_name:lb": "Republik Irak",
          "official_name:lt": "Irako Respublika",
          "official_name:lv": "Irākas Republika",
          "official_name:pl": "Republika Federalna Iraku",
          "official_name:pt": "República do Iraque",
          "official_name:ru": "Республика Ирак",
          "official_name:sr": "Република Ирак",
          "official_name:sv": "Republiken Irak",
          "official_name:tl": "Republika ng Irak",
          "official_name:vi": "Cộng hoà Iraq",
          "ISO3166-1:numeric": "368",
          "official_name:ckb": "كۆماری عێراق",
          "official_name:sdh": "کۆماری عێراق"
        }
      },
      "geometry": {
        "type": "Polygon",
        "coordinates": [
          [
            [
              47,
              30
            ],
            [
              47.15519211126195,
              30
            ],
            [
              47.1555857,
              30.0003282
            ],
            [
              47.1725189,
              30.0173783
            ],
            [
              47.1895528,
              30.0283504
            ],
            [
              47.2084489,
              30.0362425
            ],
            [
              47.2271335,
              30.0432112
            ],
            [
              47.2476036,
              30.0486125
            ],
            [
              47.2683736,
              30.0520006
            ],
            [
              47.2874774,
              30.0587297
            ],
            [
              47.3051677,
              30.068672
            ],
            [
              47.3388357,
              30.0910355
            ],
            [
              47.352058,
              30.0945403
            ],
            [
              47.361094,
              30.0972302
            ],
            [
              47.3711929,
              30.1035683
            ],
            [
              47.4111868,
              30.1038082
            ],
            [
              47.5820542,
              30.1036376
            ],
            [
              47.6829528,
              30.1032433
            ],
            [
              47.7099646,
              30.0927219
            ],
            [
              47.7513634,
              30.0768883
            ],
            [
              47.8335427,
              30.0476588
            ],
            [
              47.853396,
              30.0394638
            ],
            [
              47.8644303,
              30.0346062
            ],
            [
              47.882779,
              30.0255597
            ],
            [
              47.8991528,
              30.0170463
            ],
            [
              47.9119947,
              30.0099255
            ],
            [
              47.9265295,
              30.0025418
            ],
            [
              47.932068270365896,
              30
            ],
            [
              48,
              30
            ],
            [
              48,
              31
            ],
            [
              47,
              31
            ],
            [
              47,
              30
            ]
          ]
        ]
      }
    },
    {
      "type": "Feature",
      "properties": {
        "osm_id": -305099,
        "boundary": "administrative",
        "admin_level": 2,
        "parents": null,
        "name": "Kuwait",
        "local_name": "الكويت",
        "name_en": "Kuwait",
        "all_tags": {
          "flag": "http://upload.wikimedia.org/wikipedia/commons/a/aa/Flag_of_Kuwait.svg",
          "name": "الكويت",
          "name:af": "Koeweit",
          "name:am": "ኩዌት",
          "name:an": "Kuwait",
          "name:ar": "الكويت",
          "name:az": "Küveyt",
          "name:ba": "Күвейт",
          "name:be": "Кувейт",
          "name:bg": "Кувейт",
          "name:bn": "কুয়েত",
          "name:bo": "ཁུ་ཝི་ཐི།",
          "name:br": "Koweit",
          "name:bs": "Kuvajt",
          "name:ca": "Kuwait",
          "name:ce": "Кувейт",
          "name:cs": "Kuvajt",
          "name:cv": "Кувейт",
          "name:cy": "Kuwait",
          "name:da": "Kuwait",
          "name:de": "Kuwait",
          "name:dv": "ކުވެއިތު",
          "name:dz": "ཀུ་ཝེཊ་",
          "name:el": "Κουβέιτ",
          "name:en": "Kuwait",
          "name:eo": "Kuvajto",
          "name:es": "Kuwait",
          "name:et": "Kuveit",
          "name:eu": "Kuwait",
          "name:fa": "کویت",
          "name:fi": "Kuwait",
          "name:fo": "Kuveit",
          "name:fr": "Koweït",
          "name:fy": "Koeweit",
          "name:ga": "Cuáit",
          "name:gd": "Cubhait",
          "name:gl": "Kuwait",
          "name:gn": "Kuáite",
          "name:gu": "કુવૈત",
          "name:gv": "Yn Choowait",
          "name:he": "כווית",
          "name:hi": "कुवैत",
          "name:hr": "Kuvajt",
          "name:ht": "Kowet",
          "name:hu": "Kuvait",
          "name:hy": "Քուվեյթ",
          "name:ia": "Kuwait",
          "name:id": "Kuwait",
          "name:ie": "Kuwait",
          "name:io": "Kuwait",
          "name:is": "Kúveit",
          "name:it": "Kuwait",
          "name:ja": "クウェート",
          "name:jv": "Kuwait",
          "name:ka": "ქუვეითი",
          "name:kk": "Кувейт",
          "name:kl": "Kuwait",
          "name:km": "គុយវ៉ែត",
          "name:kn": "ಕುವೈತ್",
          "name:ko": "쿠웨이트",
          "name:ku": "Kuweyt",
          "name:kv": "Кувейт",
          "name:kw": "Koweyt",
          "name:la": "Cuvaitum",
          "name:lb": "Kuwait",
          "name:li": "Koeweit",
          "name:ln": "Koweit",
          "name:lt": "Kuveitas",
          "name:lv": "Kuveita",
          "name:mk": "Кувајт",
          "name:ml": "കുവൈറ്റ്",
          "name:mn": "Кувейт",
          "name:mr": "कुवेत",
          "name:ms": "Kuwait",
          "name:my": "ကူဝိတ်နိုင်ငံ",
          "name:na": "Kuwait",
          "name:ne": "कुवेत",
          "name:nl": "Koeweit",
          "name:nn": "Kuwait",
          "name:no": "Kuwait",
          "name:nv": "Kóóweiʼ",
          "name:oc": "Kowait",
          "name:or": "କୁଏତ",
          "name:os": "Кувейт",
          "name:pl": "Kuwejt",
          "name:ps": "کوېټ",
          "name:pt": "Kuwait",
          "name:qu": "Kuwait",
          "name:ro": "Kuweit",
          "name:ru": "Кувейт",
          "name:rw": "Koweti",
          "name:sa": "कुवैत",
          "name:se": "Kuwait",
          "name:sh": "Kuvajt",
          "name:sk": "Kuvajt",
          "name:sl": "Kuvajt",
          "name:so": "Kuwayt",
          "name:sq": "Kuvajti",
          "name:sr": "Кувајт",
          "name:ss": "IKhuwathi",
          "name:su": "Kuwait",
          "name:sv": "Kuwait",
          "name:sw": "Kuwait",
          "name:ta": "குவைத்",
          "name:te": "కువైట్",
          "name:tg": "Кувайт",
          "name:th": "ประเทศคูเวต",
          "name:tk": "Kuweýt",
          "name:tl": "Kuwait",
          "name:tr": "Kuveyt",
          "name:tt": "Күвәйт",
          "name:ug": "كۇۋەيت",
          "name:uk": "Кувейт",
          "name:ur": "کویت",
          "name:uz": "Quvayt",
          "name:vi": "Kuwait",
          "name:vo": "Kovätän",
          "name:wo": "Kowet",
          "name:yi": "קואווייט",
          "name:yo": "Kuwaiti",
          "name:zh": "科威特",
          "boundary": "administrative",
          "name:ace": "Kuwait",
          "name:als": "Kuwait",
          "name:ang": "Cuwait",
          "name:arc": "ܟܘܘܝܬ",
          "name:arz": "الكويت",
          "name:ast": "Kuwait",
          "name:bar": "Kuwait",
          "name:bcl": "Kuwait",
          "name:bpy": "কুয়েত",
          "name:bug": "Kuwait",
          "name:bxr": "Кувейт",
          "name:ceb": "Kuwait",
          "name:ckb": "کووەیت",
          "name:crh": "Küveyt",
          "name:csb": "Kùwejt",
          "name:dsb": "Kuwait",
          "name:ext": "Kuwait",
          "name:frp": "Koveyit",
          "name:gag": "Kuveyt",
          "name:hak": "Khô-vî-thi̍t",
          "name:haw": "Kuete",
          "name:hif": "Kuwait",
          "name:hsb": "Kuwait",
          "name:ilo": "Kuwait",
          "name:jbo": "ku,uait",
          "name:kbd": "Кувейт",
          "name:lez": "Кувейт",
          "name:lij": "Kuwait",
          "name:lmo": "Kuwait",
          "name:lzh": "科威特",
          "name:nah": "Cuhuait",
          "name:nan": "Kuwait",
          "name:nds": "Kuwait",
          "name:new": "कुवेत",
          "name:nov": "Kuwayt",
          "name:pam": "Kuwait",
          "name:pih": "Kyuuwait",
          "name:pms": "Kuwait",
          "name:pnb": "کویت",
          "name:sah": "Кувейт",
          "name:scn": "Kuwait",
          "name:sco": "Kuwait",
          "name:smn": "Kuwait",
          "name:sms": "Kuwaitt",
          "name:szl": "Kuwejt",
          "name:tzl": "Cuviet",
          "name:udm": "Кувейт",
          "name:vro": "Kuveit",
          "name:war": "Kuwait",
          "name:wuu": "科威特",
          "name:xal": "Кувейтин Нутг",
          "name:yue": "科威特",
          "name:zea": "Koeweit",
          "timezone": "Asia/Kuwait",
          "way_area": "2.27465",
          "wikidata": "Q817",
          "ISO3166-1": "KW",
          "wikipedia": "ar:الكويت",
          "admin_level": "2",
          "border_type": "nation",
          "name:simple": "Kuwait",
          "name:bat-smg": "Kovėits",
          "name:zh-Hans": "科威特",
          "name:zh-Hant": "科威特",
          "name:be-tarask": "Кувэйт",
          "ISO3166-1:alpha2": "KW",
          "ISO3166-1:alpha3": "KWT",
          "default_language": "ar",
          "official_name:cs": "Stát Kuvajt",
          "official_name:en": "State of Kuwait",
          "official_name:es": "Estado de Kuwait",
          "official_name:gn": "Tetã Kuáite",
          "official_name:pt": "Estado do Kuwait",
          "official_name:ru": "Государство Кувейт",
          "ISO3166-1:numeric": "414"
        }
      },
      "geometry": {
        "type": "Polygon",
        "coordinates": [
          [
            [
              47.15519211126195,
              30
            ],
            [
              47.932068270365896,
              30
            ],
            [
              47.9265295,
              30.0025418
            ],
            [
              47.9119947,
              30.0099255
            ],
            [
              47.8991528,
              30.0170463
            ],
            [
              47.882779,
              30.0255597
            ],
            [
              47.8644303,
              30.0346062
            ],
            [
              47.853396,
              30.0394638
            ],
            [
              47.8335427,
              30.0476588
            ],
            [
              47.7513634,
              30.0768883
            ],
            [
              47.7099646,
              30.0927219
            ],
            [
              47.6829528,
              30.1032433
            ],
            [
              47.5820542,
              30.1036376
            ],
            [
              47.4111868,
              30.1038082
            ],
            [
              47.3711929,
              30.1035683
            ],
            [
              47.361094,
              30.0972302
            ],
            [
              47.352058,
              30.0945403
            ],
            [
              47.3388357,
              30.0910355
            ],
            [
              47.3051677,
              30.068672
            ],
            [
              47.2874774,
              30.0587297
            ],
            [
              47.2683736,
              30.0520006
            ],
            [
              47.2476036,
              30.0486125
            ],
            [
              47.2271335,
              30.0432112
            ],
            [
              47.2084489,
              30.0362425
            ],
            [
              47.1895528,
              30.0283504
            ],
            [
              47.1725189,
              30.0173783
            ],
            [
              47.1555857,
              30.0003282
            ],
            [
              47.15519211126195,
              30
            ]
          ]
        ]
      }
    }
  ]
}