{
  "type": "FeatureCollection",
  "features": [
    {
      "type": "Feature",
      "properties": {
        "osm_id": -535790,
        "boundary": "administrative",
        "admin_level": 2,
        "parents": null,
        "name": "Comoros",
        "local_name": "Comores Komori جزر القمر",
        "name_en": "Comoros",
        "all_tags": {
          "flag": "http://upload.wikimedia.org/wikipedia/commons/9/94/Flag_of_the_Comoros.svg",
          "name": "Comores Komori جزر القمر",
          "name:ab": "Комортәи Адгьылбжьахақәа",
          "name:af": "Comore-eilande",
          "name:am": "ኮሞሮስ",
          "name:an": "Comoras",
          "name:ar": "جزر القمر",
          "name:az": "Komor adaları",
          "name:ba": "Комор",
          "name:be": "Каморскія Астравы",
          "name:bg": "Коморски острови",
          "name:bh": "कोमोरोस",
          "name:bm": "Komore gun",
          "name:bn": "কোমোরোস",
          "name:bo": "ཁོ་མོ་རོ་སུ།",
          "name:br": "Komorez",
          "name:bs": "Komori",
          "name:ca": "Comores",
          "name:ce": "Коморийн гӀайренаш",
          "name:cs": "Komory",
          "name:cv": "Комор утравĕсем",
          "name:cy": "Y Comoros",
          "name:da": "Comorerne",
          "name:de": "Komoren",
          "name:dv": "ޖުޒުރުޤަމަރު",
          "name:ee": "Comoros",
          "name:el": "Κομόρες",
          "name:en": "Comoros",
          "name:eo": "Komoroj",
          "name:es": "Comoras",
          "name:et": "Komoorid",
          "name:eu": "Komoreak",
          "name:fa": "اتحاد قمر",
          "name:ff": "Komoor",
          "name:fi": "Komorit",
          "name:fo": "Komoroyggjar",
          "name:fr": "Comores",
          "name:fy": "Komoaren",
          "name:ga": "Aontas Oileáin Chomóra",
          "name:gd": "Na h-Eileanan Chomoro",
          "name:gl": "Comores",
          "name:gn": "Komóra",
          "name:gv": "Ny h-Ellanyn Chomoro",
          "name:ha": "Komoros",
          "name:he": "קומורו",
          "name:hi": "कोमोरोस",
          "name:hr": "Komori",
          "name:ht": "Komò",
          "name:hu": "Comore-szigetek",
          "name:hy": "Կոմորյան կղզիներ",
          "name:ia": "Comoros",
          "name:id": "Komoro",
          "name:ie": "Comoros",
          "name:ig": "Comoros",
          "name:io": "Komori",
          "name:is": "Kómoreyjar",
          "name:it": "Comore",
          "name:ja": "コモロ",
          "name:jv": "Komoro",
          "name:ka": "კომორის კუნძულების კავშირი",
          "name:kg": "Komoro",
          "name:ki": "Comoros",
          "name:kk": "Коморлар",
          "name:kn": "ಕೊಮೊರೊಸ್",
          "name:ko": "코모로",
          "name:ku": "Komor",
          "name:kw": "Komorys",
          "name:ky": "Коморлор",
          "name:la": "Insulae Comorianae",
          "name:lb": "Komoren",
          "name:lg": "Comoros",
          "name:li": "Comore",
          "name:ln": "Komori",
          "name:lt": "Komorai",
          "name:lv": "Komoras",
          "name:mg": "Kômôro",
          "name:mi": "Komoro",
          "name:mk": "Комори",
          "name:ml": "കൊമോറസ്",
          "name:mn": "Коморос",
          "name:mr": "कोमोरोस",
          "name:ms": "Comoros",
          "name:mt": "Komoros",
          "name:my": "ကိုမိုရိုနိုင်ငံ",
          "name:na": "Komorot",
          "name:ne": "कोमोरोस",
          "name:nl": "Comoren",
          "name:nn": "Komorane",
          "name:no": "Komorene",
          "name:nv": "Ooljééʼ Biyaadi Kéyah Dah Ndaaʼeełí",
          "name:oc": "Comòras",
          "name:om": "Komoroos",
          "name:or": "କୋମୋରୋସ",
          "name:os": "Комортæ",
          "name:pa": "ਕਾਮਾਰੋਸ",
          "name:pi": "कोमोरोस",
          "name:pl": "Komory",
          "name:ps": "قمرټاپوګان",
          "name:pt": "Comores",
          "name:qu": "Kumurakuna",
          "name:rm": "Comoras",
          "name:ro": "Comore",
          "name:ru": "Коморские острова",
          "name:rw": "Komore",
          "name:sa": "कोमोरोस",
          "name:sc": "Comoras",
          "name:sd": "ڪوموروس",
          "name:se": "Komorosullot",
          "name:sg": "Kömôro",
          "name:sh": "Komori",
          "name:si": "කොමරොස්",
          "name:sk": "Komory",
          "name:sl": "Komori",
          "name:sm": "Comoros",
          "name:sn": "Comoros",
          "name:so": "Komoros",
          "name:sq": "Komoret",
          "name:sr": "Комори",
          "name:ss": "IKhomoro",
          "name:st": "Comoros",
          "name:su": "Komoro",
          "name:sv": "Komorerna",
          "name:sw": "Komori",
          "name:ta": "கொமொரோசு",
          "name:te": "కొమొరోస్",
          "name:tg": "Иттиҳоди Қамар",
          "name:th": "ประเทศคอโมโรส",
          "name:tk": "Komor Adalary",
          "name:tl": "Comoros",
          "name:tr": "Komorlar",
          "name:ts": "Comoros",
          "name:tt": "Коморлар",
          "name:ug": "كومور ئاراللىرى",
          "name:uk": "Коморські Острови",
          "name:ur": "اتحاد القمری",
          "name:vi": "Comoros",
          "name:vo": "Komoruäns",
          "name:wo": "Komoor",
          "name:yi": "קאמאראס",
          "name:yo": "Kòmórò",
          "name:za": "Comoros",
          "name:zh": "科摩罗 / 葛摩 / 科摩洛",
          "name:zu": "IsiKhomorosi",
          "boundary": "administrative",
          "name:als": "Komoren",
          "name:ary": "جزر لقومور",
          "name:arz": "جزر القمر",
          "name:ast": "Comores",
          "name:avk": "Komoria",
          "name:azb": "کومور آدالاری",
          "name:ban": "Komoro",
          "name:bar": "Komorn",
          "name:bcl": "Komoros",
          "name:bjn": "Komoro",
          "name:bnt": "قمر",
          "name:bpy": "কোমোরোস",
          "name:bxr": "Коморой аралнууд",
          "name:cdo": "Comoros",
          "name:ceb": "Comoros",
          "name:chr": "ᎪᎼᎳᏍ",
          "name:ckb": "دوورگەکانی قەمەر",
          "name:crh": "Komorlar",
          "name:dag": "Comoros",
          "name:diq": "Komoroy",
          "name:dsb": "Komory",
          "name:dty": "कोमोरोस",
          "name:frp": "Comores",
          "name:frr": "Komooren",
          "name:gag": "Komorlar",
          "name:gcr": "Komor",
          "name:gom": "कोमोरोस",
          "name:hak": "Comoros",
          "name:hif": "Comoros",
          "name:hsb": "Komory",
          "name:ilo": "Komoros",
          "name:jam": "Komoros",
          "name:jbo": "komoros",
          "name:kab": "Qamar",
          "name:kmr": "کۆمۆر",
          "name:lad": "Komoras",
          "name:lij": "Isoe Comore",
          "name:lld": "Comore",
          "name:lmo": "Cumor",
          "name:lrc": "کوملۊس میٛناڤٱیا کومۊر",
          "name:min": "Komoro",
          "name:mni": "ꯀꯣꯃꯣꯔꯣꯁ",
          "name:mzn": "کومور",
          "name:nah": "Comoras",
          "name:nan": "Comoros",
          "name:nds": "Komoren",
          "name:new": "कोमोरोस",
          "name:nov": "Komoros",
          "name:nso": "Comoros",
          "name:olo": "Komorat",
          "name:pam": "Komoras",
          "name:pap": "Comores",
          "name:pih": "Komoros",
          "name:pms": "Comòre",
          "name:pnb": "اتحاد القمری",
          "name:sah": "Комордар",
          "name:sat": "ᱠᱳᱢᱳᱨᱳᱥ",
          "name:scn": "Comori",
          "name:sco": "Comoros",
          "name:shn": "မိူင်းၶူဝ်ႇမူဝ်ႇရူတ်ႈ",
          "name:smn": "Komoreh",
          "name:sms": "Komoor",
          "name:stq": "Komore",
          "name:szl": "Kůmory",
          "name:udm": "Коморъёс",
          "name:vec": "Comore",
          "name:vep": "Komoran Sared",
          "name:vls": "Comoorn",
          "name:vro": "Komooriq",
          "name:war": "Comoros",
          "name:wuu": "科摩羅",
          "name:xal": "Комормудин Арлин Ниицән",
          "name:xmf": "კომორიშ კოკეფიშ რსხუ",
          "name:yue": "科摩羅",
          "name:zea": "Comoôr'n",
          "timezone": "Indian/Comoro",
          "way_area": "2.10733",
          "wikidata": "Q970",
          "ISO3166-1": "KM",
          "wikipedia": "ar:جزر القمر",
          "name:zh-TW": "葛摩",
          "admin_level": "2",
          "border_type": "nation",
          "name:bnt_rm": "Komori",
          "name:nds_nl": "Komoren",
          "name:simple": "Comoros",
          "name:bat_smg": "Kuomorā",
          "name:cbk-zam": "Komoras",
          "name:ku-Arab": "کۆمۆر",
          "name:roa_rup": "Comore",
          "name:zh-Hans": "科摩罗",
          "name:zh-Hant": "葛摩 / 科摩洛",
          "name:kab-Arab": "قمر",
          "official_name": "Union des Comores;الاتحاد ﺍﻟﻘﻤﺮي;Udzima wa Komori",
          "name:be-tarask": "Каморскія астравы",
          "ISO3166-1:alpha2": "KM",
          "ISO3166-1:alpha3": "COM",
          "official_name:ar": "الاتّحاد القمريّ",
          "official_name:cs": "Komorský svaz",
          "official_name:en": "Union of the Comoros",
          "official_name:es": "Unión de las Comoras",
          "official_name:fa": "مجمع‌الجزایر قمر",
          "official_name:fr": "Union des Comores",
          "official_name:he": "האיחוד של איי קומורו",
          "official_name:ru": "Союз Коморских Островов",
          "official_name:ur": "اتحاد القمری",
          "ISO3166-1:numeric": "174"
        }
      },
      "geometry": {
        "type": "Polygon",
        "coordinates": [
          [
            [
              44,
              -12
            ],
            [
              44.722350518743966,
              -12
            ],
            [
              44.6121499,
              -11.9131775
            ],
            [
              44.6041992,
              -11.9072211
            ],
            [
              44.6001154,
              -11.9043884
            ],
            [
              44,
              -11.519679561870012
            ],
            [
              44,
              -12
            ]
          ]
        ]
      }
    }
  ]
}