{
  "type": "FeatureCollection",
  "features": [
    {
      "type": "Feature",
      "properties": {
        "osm_id": -364066,
        "boundary": "administrative",
        "admin_level": 2,
        "parents": null,
        "name": "Armenia",
        "local_name": "’Ä’°’µ’°’Ω’ø’°’∂",
        "name_en": "Armenia",
        "all_tags": {
          "flag": "http://upload.wikimedia.org/wikipedia/commons/2/2f/Flag_of_Armenia.svg",
          "name": "’Ä’°’µ’°’Ω’ø’°’∂",
          "int_ref": "AM",
          "name:ab": "–ï—Ä–º–∞–Ω—Ç”ô—ã–ª–∞",
          "name:af": "Armeni√´",
          "name:ak": "Armenia",
          "name:am": "·ä†·à≠·àò·äí·ã´",
          "name:an": "Armenia",
          "name:ar": "ÿ£ÿ±ŸÖŸäŸÜŸäÿß",
          "name:as": "‡¶Ü‡ß∞‡ßç‡¶Æ‡ßá‡¶®‡¶ø‡¶Ø‡¶º‡¶æ",
          "name:av": "–¶I–∞–º—É—Ö—ä",
          "name:az": "Erm…ônistan",
          "name:ba": "”ò—Ä–º”ô–Ω—Å—Ç–∞–Ω",
          "name:be": "–ê—Ä–º–µÃÅ–Ω—ñ—è",
          "name:bg": "–ê—Ä–º–µ–Ω–∏—è",
          "name:bh": "‡§Ü‡§∞‡•ç‡§Æ‡•Ä‡§®‡§ø‡§Ø‡§æ",
          "name:bi": "Armenia",
          "name:bm": "Arimeni",
          "name:bn": "‡¶Ü‡¶∞‡ßç‡¶Æ‡ßá‡¶®‡¶ø‡¶Ø‡¶º‡¶æ",
          "name:bo": "‡Ω®‡Ω¢‡ºã‡Ωò‡Ω∫‡ºã‡Ωì‡Ω≤‡ºã‡Ω°‡ºç",
          "name:br": "Armenia",
          "name:bs": "Ermenija",
          "name:ca": "Arm√®nia",
          "name:ce": "–≠—Ä–º–∞–ª–æ–π—á–æ—å",
          "name:ch": "Armenia",
          "name:co": "Armenia",
          "name:cs": "Arm√©nie",
          "name:cu": "–ê—Ä–º—î–Ω—ñÃÅÍôó",
          "name:cv": "–≠—Ä–º–µ–Ω–∏",
          "name:cy": "Armenia",
          "name:da": "Armenien",
          "name:de": "Armenien",
          "name:dv": "ﬁáﬁ¶ﬁÉﬁ™ﬁâﬁ©ﬁÇﬁ®ﬁáﬁß",
          "name:dz": "‡Ω®‡Ω¢‡ºã‡Ωò‡Ω≤‡ºã‡Ωì‡Ω≤‡ºã‡Ω°",
          "name:ee": "Armenia",
          "name:el": "ŒëœÅŒºŒµŒΩŒØŒ±",
          "name:en": "Armenia",
          "name:eo": "Armenio",
          "name:es": "Armenia",
          "name:et": "Armeenia",
          "name:eu": "Armenia",
          "name:fa": "ÿßÿ±ŸÖŸÜÿ≥ÿ™ÿßŸÜ",
          "name:ff": "Armaaniya",
          "name:fi": "Armenia",
          "name:fo": "Armenia",
          "name:fr": "Arm√©nie",
          "name:fy": "Armeenje",
          "name:ga": "An Airm√©in",
          "name:gd": "Airmeinia",
          "name:gl": "Armenia",
          "name:gn": "Aymenia",
          "name:gu": "‡™Ü‡™∞‡´ç‡™Æ‡´á‡™®‡™ø‡™Ø‡™æ",
          "name:gv": "Armeain",
          "name:ha": "Armeniya",
          "name:he": "◊ê÷∑◊®÷∞◊û÷∂◊†÷∞◊ô÷∏◊î",
          "name:hi": "‡§Ü‡§∞‡•ç‡§Æ‡•Ä‡§®‡§ø‡§Ø‡§æ",
          "name:hr": "Armenija",
          "name:ht": "Ameni",
          "name:hu": "√ñrm√©nyorsz√°g",
          "name:hy": "’Ä’°’µ’°’Ω’ø’°’∂",
          "name:ia": "Armenia",
          "name:id": "Armenia",
          "name:ie": "Armenia",
          "name:io": "Armenia",
          "name:is": "Armen√≠a",
          "name:it": "Armenia",
          "name:ja": "„Ç¢„É´„É°„Éã„Ç¢",
          "name:jv": "Arm√®nia",
          "name:ka": "·É°·Éù·Éõ·ÉÆ·Éî·Éó·Éò",
          "name:kg": "Armenia",
          "name:ki": "Armenia",
          "name:kk": "–ê—Ä–º–µ–Ω–∏—è",
          "name:kl": "Armenia",
          "name:km": "·û¢·û∂·ûò·üÅ·ûì·û∏",
          "name:kn": "‡≤Ü‡≤∞‡≥ç‡≤Æ‡≥á‡≤®‡≤ø‡≤Ø",
          "name:ko": "ÏïÑÎ•¥Î©îÎãàÏïÑ",
          "name:ks": "ÿßŸéÿ±ŸÖÿßŸÜŸê€åÿß",
          "name:ku": "Ermenistan",
          "name:kv": "–ê—Ä–º–µ–Ω–∏—è",
          "name:kw": "Armeni",
          "name:ky": "–ê—Ä–º–µ–Ω–∏—è",
          "name:la": "Armenia",
          "name:lb": "Armenien",
          "name:lg": "Arameniya",
          "name:li": "Armeni√´",
          "name:ln": "Armeni",
          "name:lo": "‡∫õ‡∫∞‡ªÄ‡∫ó‡∫î‡∫≠‡∫≤‡∫Å‡ªÄ‡∫°‡∫ô‡∫µ",
          "name:lt": "Armƒónija",
          "name:lv": "Armƒìnija",
          "name:mg": "Armenia",
          "name:mi": "ƒÄmenia",
          "name:mk": "–ï—Ä–º–µ–Ω–∏—ò–∞",
          "name:ml": "‡¥Ö‡µº‡¥Æ‡µá‡¥®‡¥ø‡¥Ø",
          "name:mn": "–ê—Ä–º–µ–Ω",
          "name:mo": "–ê—Ä–º–µ–Ω–∏—è",
          "name:mr": "‡§Ü‡§∞‡•ç‡§Æ‡•á‡§®‡§ø‡§Ø‡§æ",
          "name:ms": "Armenia",
          "name:mt": "Armenja",
          "name:my": "·Ä°·Ä¨·Äô·Ä±·Ä∏·Äî·ÄÆ·Ä∏·Äö·Ä¨·Ä∏·Äî·Ä≠·ÄØ·ÄÑ·Ä∫·ÄÑ·Ä∂",
          "name:na": "Arminiya",
          "name:ne": "‡§Ü‡§∞‡•ç‡§Æ‡•á‡§®‡§ø‡§Ø‡§æ",
          "name:nl": "Armeni√´",
          "name:nn": "Armenia",
          "name:no": "Armenia",
          "name:nv": "Aoom√©√©nii Bik√©yah",
          "name:oc": "Armenia",
          "name:om": "Armeeniyaa",
          "name:or": "‡¨Ü‡¨∞‡≠ç‡¨Æ‡≠á‡¨®‡¨ø‡¨Ü",
          "name:os": "–°–æ–º–∏—Ö—ã—Å—Ç–æ–Ω",
          "name:pa": "‡®Ö‡®∞‡®Æ‡©Ä‡®®‡©Ä‡®Ü",
          "name:pi": "‡§Ü‡§∞‡•ç‡§Æ‡•Ä‡§®‡§ø‡§Ø‡§æ",
          "name:pl": "Armenia",
          "name:ps": "ÿßÿ±ŸÖŸÜÿ≥ÿ™ÿßŸÜ",
          "name:pt": "Arm√©nia",
          "name:qu": "Arminya",
          "name:rm": "Armenia",
          "name:rn": "Arumeniya",
          "name:ro": "Armenia",
          "name:ru": "–ê—Ä–º–µ–Ω–∏—è",
          "name:rw": "Arumeniya",
          "name:sa": "‡§Ü‡§∞‡•ç‡§Æ‡•Ä‡§®‡§ø‡§Ø‡§æ",
          "name:sc": "Arm√®nia",
          "name:sd": "ÿ¢ÿ±ŸÖŸäŸÜŸäÿß",
          "name:se": "Armenia",
          "name:sg": "Armen√Øi",
          "name:sh": "Jermenija",
          "name:si": "‡∂Ü‡∂ª‡∑ä‡∂∏‡∑ö‡∂±‡∑í‡∂∫‡∑è‡∑Ä",
          "name:sk": "Arm√©nsko",
          "name:sl": "Armenija",
          "name:sm": "Amenia",
          "name:sn": "Armenia",
          "name:so": "Armania",
          "name:sq": "Armenia",
          "name:sr": "–à–µ—Ä–º–µ–Ω–∏—ò–∞",
          "name:ss": "iArimeniya",
          "name:su": "Arm√©nia",
          "name:sv": "Armenien",
          "name:sw": "Armenia",
          "name:ta": "‡ÆÜ‡Æ∞‡Øç‡ÆÆ‡ØÄ‡Æ©‡Æø‡ÆØ‡Ææ",
          "name:te": "‡∞Ü‡∞∞‡±ç‡∞Æ‡±á‡∞®‡∞ø‡∞Ø‡∞æ",
          "name:tg": "–ê—Ä–º–∞–Ω–∏—Å—Ç–æ–Ω",
          "name:th": "‡∏≠‡∏≤‡∏£‡πå‡∏°‡∏µ‡πÄ‡∏ô‡∏µ‡∏¢",
          "name:ti": "·ä†·à≠·àú·äí·ã´",
          "name:tk": "Ermenistan",
          "name:tl": "Armenya",
          "name:to": " ªƒÄminia",
          "name:tr": "Ermenistan",
          "name:ts": "Armenia",
          "name:tt": "”ò—Ä–º”ô–Ω—Å—Ç–∞–Ω",
          "name:tw": "Aminia",
          "name:ty": "ƒÄmenia",
          "name:ug": "ÿ¶€ïÿ±ŸÖ€êŸÜŸâŸä€ï",
          "name:uk": "–í—ñ—Ä–º–µÃÅ–Ω—ñ—è",
          "name:ur": "ÿ¢ÿ±ŸÖ€åŸÜ€åÿß",
          "name:uz": "Armaniston",
          "name:vi": "Armenia",
          "name:vo": "Larmeniy√§n",
          "name:wo": "Armeeni",
          "name:yi": "◊ê÷∑◊®◊û◊¢◊†◊ô◊¢",
          "name:yo": "Arm√©n√≠√†",
          "name:za": "Armenia",
          "name:zh": "‰∫öÁæéÂ∞º‰∫ö / ‰∫ûÁæéÂ∞º‰∫û",
          "name:zu": "i-Armenia",
          "boundary": "administrative",
          "int_name": "Armenia",
          "name:ace": "Armenia",
          "name:ady": "–ê—Ä–º–µ–Ω–∏–µ",
          "name:als": "Armenie",
          "name:ang": "Armenia",
          "name:arc": "‹ê‹™‹°‹¢‹ù‹ê",
          "name:arz": "ÿ£ÿ±ŸÖŸäŸÜŸäÿß",
          "name:ast": "Armenia",
          "name:azb": "ÿßÿ¶ÿ±ŸÖŸÜ€åÿ≥ÿ™ÿßŸÜ",
          "name:bar": "Armenien",
          "name:bcl": "Armenya",
          "name:bpy": "‡¶Ü‡¶∞‡ßç‡¶Æ‡ßá‡¶®‡¶ø‡¶Ø‡¶º‡¶æ",
          "name:bxr": "–ê—Ä–º–µ–Ω–∏",
          "name:cdo": "ƒÄ-mƒ´-n√†Ã§-ƒÅ",
          "name:ceb": "Armenya",
          "name:chr": "·é†·é∫·èÇ·è±",
          "name:ckb": "ÿ¶€ïÿ±ŸÖ€ïŸÜÿ≥ÿ™ÿßŸÜ",
          "name:crh": "Ermenistan",
          "name:csb": "Armenij√¥",
          "name:diq": "Ermenƒ±stan",
          "name:dsb": "Arme≈Ñska",
          "name:dty": "‡§Ü‡§∞‡•ç‡§Æ‡•Ä‡§®‡§ø‡§Ø‡§æ",
          "name:eml": "Arm√®gna",
          "name:ext": "Arm√©nia",
          "name:frp": "Arm√®nie",
          "name:frr": "Armeenien",
          "name:fur": "Armenie",
          "name:gag": "Armeniya",
          "name:glk": "Arm”©n”©ston",
          "name:gom": "‡§Ö‡§∞‡•ç‡§Æ‡•á‡§®‡§ø‡§Ø‡§æ",
          "name:hak": "√Ç-m√Æ-n√¨-√¢",
          "name:haw": "‚ÄòƒÄmƒìnia",
          "name:hif": "Armenia",
          "name:hsb": "Armenska",
          "name:ilo": "Armenia",
          "name:jam": "Aamiinia",
          "name:jbo": "xaiastan",
          "name:kaa": "Armeniya",
          "name:kab": "Arminya",
          "name:kbp": "Armenii",
          "name:krc": "–≠—Ä–º–µ–Ω–∏—è",
          "name:ksh": "Arrmeenije",
          "name:lad": "Armenia",
          "name:lez": "–≠—Ä–º–µ–Ω–∏—Å—Ç–∞–Ω",
          "name:lij": "Armenia",
          "name:lmo": "Armenia",
          "name:lrc": "ÿ£ÿ±ŸÖŸÜÿ≥ÿ™ÿßŸÜ",
          "name:ltg": "Armeneja",
          "name:lzh": "‰∫ûÁæéÂ∞º‰∫û",
          "name:mai": "‡§Ö‡§∞‡•ç‡§Æ‡•á‡§®‡§ø‡§Ø‡§æ",
          "name:mdf": "–ê—Ä–º–µ–Ω–∏–µ",
          "name:mhr": "–ê—Ä–º–µÃÅ–Ω–∏–π",
          "name:min": "Armenia",
          "name:mrj": "–ê—Ä–º–µÃÅ–Ω–∏",
          "name:mwl": "Arm√©nia",
          "name:myv": "–ê—Ä–º–µ–Ω–∏—è –ú–∞—Å—Ç–æ—Ä",
          "name:mzn": "ÿßÿ±ŸÖŸÜÿ≥ÿ™ŸàŸÜ",
          "name:nah": "Armenia",
          "name:nan": "Hayastan",
          "name:nap": "Armenia",
          "name:nds": "Armenien",
          "name:new": "‡§Ü‡§∞‡•ç‡§Æ‡•á‡§®‡§ø‡§Ø‡§æ",
          "name:nov": "Armenia",
          "name:olo": "Armenii",
          "name:pag": "Hayastan",
          "name:pam": "Armenia",
          "name:pap": "Armenia",
          "name:pcd": "Arm√©nie",
          "name:pdc": "Armeni",
          "name:pih": "Aarmanya",
          "name:pms": "Armenia",
          "name:pnb": "ÿ¢ÿ±ŸÖ€åŸÜ€åÿß",
          "name:pnt": "ŒëœÅŒºŒµŒΩŒØŒ±",
          "name:rue": "–ê—Ä–º–µ–Ω—ñ—è",
          "name:sah": "–≠—Ä–º—ç—ç–Ω –°–∏—Ä—ç",
          "name:scn": "Armenia",
          "name:sco": "Armenie",
          "name:smn": "Armenia",
          "name:sms": "Armenia",
          "name:stq": "Armenien",
          "name:szl": "Armynij≈è",
          "name:tet": "Arm√©nia",
          "name:tok": "ma Aja",
          "name:tpi": "Armenia",
          "name:tum": "Armenia",
          "name:tzl": "Haiastan",
          "name:udm": "–ê—Ä–º–µ–Ω–∏—è",
          "name:vec": "Armenia",
          "name:vep": "Armenii",
          "name:vls": "Armeni√´",
          "name:vro": "Armeeni√§",
          "name:war": "Armenya",
          "name:wuu": "‰∫öÁæéÂ∞º‰∫ö",
          "name:xal": "–•–µ–º—à—É–¥–∏–Ω –û—Ä–Ω",
          "name:xmf": "·É°·Éù·Éõ·ÉÆ·Éî·Éó·Éò",
          "name:yue": "‰∫ûÁæéÂ∞º‰∫û",
          "name:zea": "Armeni√´",
          "timezone": "Asia/Yerevan",
          "way_area": "3.14657",
          "wikidata": "Q399",
          "ISO3166-1": "AM",
          "land_area": "administrative",
          "wikipedia": "hy:’Ä’°’µ’°’Ω’ø’°’∂",
          "admin_level": "2",
          "alt_name:av": "–≠—Ä–º–µ–Ω–∏—Å—Ç–∞–Ω",
          "alt_name:eo": "Armenujo",
          "alt_name:gd": "Arminia",
          "alt_name:gn": "Ayme√±a",
          "alt_name:jv": "Hayastan",
          "alt_name:kk": "”ò—Ä–º–µ–Ω—Å—Ç–∞–Ω;”ò—Ä–º–µ–Ω–∏—è",
          "alt_name:kn": "‡≤π‡≤Ø‡≤∏‡≥ç‡≤§‡≤æ‡≤®‡≤ø ‡≤π‡≤®‡≥ç‡≤∞‡≤™‡≥Ü‡≤§‡≥Å‡≤§‡≥ç‡≤Ø‡≥Å‡≤®‡≥ç",
          "alt_name:ku": "Flestan",
          "alt_name:lo": "‡∫õ‡∫∞‡ªÄ‡∫ó‡∫î‡∫Æ‡∫≤‡∫¢‡∫≤‡∫™‡∫∞‡∫ï‡∫≤‡∫ô",
          "alt_name:os": "–°–æ–º–∏—Ö",
          "alt_name:pt": "Arm√™nia",
          "alt_name:sh": "Armenija",
          "alt_name:te": "‡∞Ü‡∞∞‡±ç‡∞Æ‡±Ä‡∞®‡∞ø‡∞Ø‡∞æ",
          "alt_name:th": "‡∏≠‡∏≤‡∏£‡πå‡πÄ‡∏°‡πÄ‡∏ô‡∏µ‡∏¢",
          "alt_name:vi": "Acmeni",
          "name:nds-nl": "Armeni√´",
          "alt_name:ady": "–ï—Ä–º—ç–ª—ã–µ",
          "alt_name:ckb": "ÿ¶€ïÿ±ŸÖ€ïŸÜ€åÿßÿõÿ¶€ïÿ±ŸÖ€åŸÜ€åÿß",
          "alt_name:lad": "Ermenistan",
          "alt_name:lij": "√Ürminnia",
          "alt_name:rue": "–ê—Ä–º–µ–Ω—å—Å–∫–æ",
          "name:bat-smg": "Armienƒójƒó",
          "name:cbk-zam": "Armenia",
          "name:roa-rup": "Ermenia",
          "name:zh-Hans": "‰∫öÁæéÂ∞º‰∫ö",
          "name:zh-Hant": "‰∫ûÁæéÂ∞º‰∫û",
          "official_name": "’Ä’°’µ’°’Ω’ø’°’∂’´ ’Ä’°’∂÷Ä’°’∫’•’ø’∏÷Ç’©’µ’∏÷Ç’∂",
          "name:be-tarask": "–ê—Ä–º—çÃÅ–Ω—ñ—è",
          "name:zh_pinyin": "Y√†mƒõin√≠y√†",
          "ISO3166-1:alpha2": "AM",
          "ISO3166-1:alpha3": "ARM",
          "default_language": "hy",
          "official_name:ab": "–ï—Ä–º–∞–Ω—Ç”ô—ã–ª–∞ –ê“≥”ô—ã–Ω“≠“õ–∞—Ä—Ä–∞",
          "official_name:af": "Republiek van Armeni√´",
          "official_name:am": "·ã®·ä†·à≠·àú·äï·ã´ ·à™·çê·â•·àä·ä≠",
          "official_name:an": "Republica d'Armenia",
          "official_name:ar": "ÿ¨ŸÖŸáŸàÿ±Ÿäÿ© ÿ£ÿ±ŸÖŸäŸÜŸäÿß",
          "official_name:az": "Erm…ônistan Respublikasƒ±",
          "official_name:ba": "”ò—Ä–º”ô–Ω—Å—Ç–∞–Ω –†–µ—Å–ø—É–±–ª–∏–∫–∞“ª—ã",
          "official_name:be": "–†—ç—Å–ø—ÉÃÅ–±–ª—ñ–∫–∞ –ê—Ä–º–µÃÅ–Ω—ñ—è",
          "official_name:bg": "–†–µ–ø—É–±–ª–∏–∫–∞ –ê—Ä–º–µ–Ω–∏—è",
          "official_name:bh": "‡§Ü‡§∞‡•ç‡§Æ‡•Ä‡§®‡§ø‡§Ø‡§æ ‡§∞‡§ø‡§™‡§¨‡•ç‡§≤‡§ø‡§ï",
          "official_name:bn": "‡¶™‡ßç‡¶∞‡¶ú‡¶æ‡¶§‡¶®‡ßç‡¶§‡ßç‡¶∞‡ßÄ ‡¶Ü‡¶∞‡ßç‡¶Æ‡ßá‡¶®‡¶ø‡¶Ø‡¶º‡¶æ",
          "official_name:br": "Republik Armenia",
          "official_name:bs": "Republika Ermenija",
          "official_name:ca": "Rep√∫blica d'Arm√®nia",
          "official_name:co": "Republica di Armenia",
          "official_name:cs": "Arm√©nsk√° republika",
          "official_name:cu": "–ê—Ä–º—î–Ω—ñÃÅÍôó –î–∏–º–æ–∫—Ä–∞—Ç—ñÃÅÍôó",
          "official_name:cy": "Gweriniaeth Armenia",
          "official_name:da": "Republikken Armenien",
          "official_name:de": "Republik Armenien",
          "official_name:el": "ŒîŒ∑ŒºŒøŒ∫œÅŒ±œÑŒØŒ± œÑŒ∑œÇ ŒëœÅŒºŒµŒΩŒØŒ±œÇ",
          "official_name:en": "Republic of Armenia",
          "official_name:eo": "Respubliko Armenio",
          "official_name:es": "Rep√∫blica de Armenia",
          "official_name:et": "Armeenia Vabariik",
          "official_name:eu": "Armeniako Errepublika",
          "official_name:fa": "ÿ¨ŸÖŸáŸàÿ±€å ÿßÿ±ŸÖŸÜÿ≥ÿ™ÿßŸÜ",
          "official_name:ff": "Republik bu Armaaniya",
          "official_name:fi": "Armenian tasavalta",
          "official_name:fo": "L√Ω√∞veldi√∞ Armenia",
          "official_name:fr": "R√©publique d'Arm√©nie",
          "official_name:ga": "Poblacht na hAirm√©ine",
          "official_name:gd": "Poblachd Airmeinia",
          "official_name:gl": "Rep√∫blica de Armenia",
          "official_name:gn": "Tet√£ Armenia",
          "official_name:gu": "‡™Ü‡™∞‡´ç‡™Æ‡´á‡™®‡™ø‡™Ø‡™æ ‡™ó‡™£‡™∞‡™æ‡™ú‡´ç‡™Ø",
          "official_name:gv": "Pobblaght ny h-Armeain",
          "official_name:he": "◊®÷∂◊§÷º◊ï÷º◊ë÷∞÷º◊ú÷¥◊ô◊ß÷∑◊™ ◊ê÷∑◊®÷∞◊û÷∂◊†÷∞◊ô÷∏◊î",
          "official_name:hi": "‡§Ü‡§∞‡•ç‡§Æ‡•Ä‡§®‡§ø‡§Ø‡§æ ‡§ó‡§£‡§∞‡§æ‡§ú‡•ç‡§Ø",
          "official_name:hr": "Republika Armenija",
          "official_name:hu": "√ñrm√©ny K√∂zt√°rsas√°g",
          "official_name:hy": "’Ä’°’µ’°’Ω’ø’°’∂’´ ’Ä’°’∂÷Ä’°’∫’•’ø’∏÷Ç’©’µ’∏÷Ç’∂",
          "official_name:ia": "Republica de Armenia",
          "official_name:id": "Republik Armenia",
          "official_name:io": "Republiko Armenia",
          "official_name:is": "L√Ω√∞veldi√∞ Armen√≠a",
          "official_name:it": "Repubblica di Armenia",
          "official_name:ja": "„Ç¢„É´„É°„Éã„Ç¢ÂÖ±ÂíåÂõΩ",
          "official_name:ka": "·É°·Éù·Éõ·ÉÆ·Éî·Éó·Éò·É° ·É†·Éî·É°·Éû·É£·Éë·Éö·Éò·Éô·Éê",
          "official_name:kk": "–ê—Ä–º–µ–Ω–∏—è –†–µ—Å–ø—É–±–ª–∏–∫–∞—Å—ã",
          "official_name:km": "·ûü·û∂·ûí·û∂·ûö·ûé·ûö·ûä·üí·ûã·û¢·û∂·ûò·üÅ·ûì·û∏",
          "official_name:kn": "‡≤Ü‡≤∞‡≥ç‡≤Æ‡≥á‡≤®‡≤ø‡≤Ø ‡≤ó‡≤£‡≤∞‡≤æ‡≤ú‡≥ç‡≤Ø",
          "official_name:ko": "ÏïÑÎ•¥Î©îÎãàÏïÑ Í≥µÌôîÍµ≠",
          "official_name:ku": "Komara Ermenistan√™",
          "official_name:kv": "–ê—Ä–º–µ–Ω–∏—è –†–µ—Å–ø—É–±–ª–∏–∫–∞",
          "official_name:kw": "Repoblek Armeni",
          "official_name:ky": "–ê—Ä–º–µ–Ω–∏—è –†–µ—Å–ø—É–±–ª–∏–∫–∞—Å—ã",
          "official_name:la": "Res publica Armenia",
          "official_name:lb": "Republik Armenien",
          "official_name:li": "Rippebliek Armeni√´",
          "official_name:lt": "Armƒónijos Respublika",
          "official_name:lv": "Armƒìnijas Republika",
          "official_name:mk": "–†–µ–ø—É–±–ª–∏–∫–∞ –ï—Ä–º–µ–Ω–∏—ò–∞",
          "official_name:ml": "‡¥±‡¥ø‡¥™‡¥¨‡µç‡¥≤‡¥ø‡¥ï‡µç‡¥ï‡µç‚Äå ‡¥ì‡¥´‡µç‚Äå ‡¥Ö‡µº‡¥Æ‡µá‡¥®‡¥ø‡¥Ø",
          "official_name:mn": "–ë“Ø–≥–¥ –ù–∞–π—Ä–∞–º–¥–∞—Ö –ê—Ä–º–µ–Ω –£–ª—Å",
          "official_name:mr": "‡§Ü‡§∞‡•ç‡§Æ‡•á‡§®‡§ø‡§Ø‡§æ‡§ö‡•á ‡§™‡•ç‡§∞‡§ú‡§æ‡§∏‡§§‡•ç‡§§‡§æ‡§ï",
          "official_name:ms": "Republik Armenia",
          "official_name:mt": "Repubblika tal-Armenja",
          "official_name:my": "·Ä°·Ä¨·Äô·Ä±·Ä∏·Äî·ÄÆ·Ä∏·Äö·Ä¨·Ä∏ ·Äû·Äô·Äπ·Äô·Äê·Äî·Ä≠·ÄØ·ÄÑ·Ä∫·ÄÑ·Ä∂",
          "official_name:ne": "‡§Ü‡§∞‡•ç‡§Æ‡•Ä‡§®‡§ø‡§Ø‡§æ ‡§ó‡§£‡§∞‡§æ‡§ú‡•ç‡§Ø",
          "official_name:nl": "Republiek Armeni√´",
          "official_name:nn": "Republikk Armenia",
          "official_name:no": "Republikken Armenia",
          "official_name:oc": "Republica d'Armenia",
          "official_name:om": "Rippabliikii Armeeniyaa",
          "official_name:os": "–†–µ—Å–ø—É–±–ª–∏–∫√¶ –°–æ–º–∏—Ö",
          "official_name:pl": "Republika Armenii",
          "official_name:ps": "ÿßÿ±ŸÖŸÜÿ≥ÿ™ÿßŸÜ ÿ¨ŸÖŸáŸàÿ±Ÿäÿ™",
          "official_name:pt": "Rep√∫blica da Arm√™nia",
          "official_name:qu": "Arminya Ripuwlika",
          "official_name:ro": "Republica Armenia",
          "official_name:ru": "–†–µ—Å–ø—É–±–ª–∏–∫–∞ –ê—Ä–º–µ–Ω–∏—è",
          "official_name:se": "Armenia d√°ssev√°ldi",
          "official_name:sh": "Republika Jermenija",
          "official_name:si": "‡∂Ü‡∂ª‡∑ä‡∂∏‡∑ö‡∂±‡∑í‡∂∫‡∑è‡∂±‡∑î ‡∂¢‡∂±‡∂ª‡∂¢‡∂∫",
          "official_name:sk": "Arm√©nska republika",
          "official_name:sl": "Republika Armenija",
          "official_name:sm": "Lepulika o Amenia",
          "official_name:sq": "Republika e Armenis√´",
          "official_name:sr": "–†–µ–ø—É–±–ª–∏–∫–∞ –à–µ—Ä–º–µ–Ω–∏—ò–∞",
          "official_name:su": "R√©publik Arm√©nia",
          "official_name:sv": "Republiken Armenien",
          "official_name:sw": "Jamhuri ya Armenia",
          "official_name:ta": "‡ÆÜ‡Æ∞‡Øç‡ÆÆ‡ØÄ‡Æ©‡Æø‡ÆØ‡Æï‡Øç ‡Æï‡ØÅ‡Æü‡Æø‡ÆØ‡Æ∞‡Æö‡ØÅ",
          "official_name:te": "‡∞∞‡∞ø‡∞™‡∞¨‡±ç‡∞≤‡∞ø‡∞ï‡±ç ‡∞Ü‡∞´‡±ç ‡∞Ü‡∞∞‡±ç‡∞Æ‡±á‡∞®‡∞ø‡∞Ø‡∞æ",
          "official_name:th": "‡∏™‡∏≤‡∏ò‡∏≤‡∏£‡∏ì‡∏£‡∏±‡∏ê‡∏≠‡∏≤‡∏£‡πå‡∏°‡∏µ‡πÄ‡∏ô‡∏µ‡∏¢",
          "official_name:tk": "Ermenistan Respublikasy",
          "official_name:tl": "Republika ng Armenia",
          "official_name:tr": "Ermenistan Cumhuriyeti",
          "official_name:tt": "”ò—Ä–º”ô–Ω—Å—Ç–∞–Ω “ñ”©–º“ª“Ø—Ä–∏—è—Ç–µ",
          "official_name:ug": "ÿ¶ÿßÿ±ŸÖ€êŸÜŸâŸä€ï ÿ¨€áŸÖŸâ€áÿ±ŸâŸäŸâÿ™Ÿâ",
          "official_name:uk": "–†–µ—Å–ø—ÉÃÅ–±–ª—ñ–∫–∞ –í—ñ—Ä–º–µÃÅ–Ω—ñ—è",
          "official_name:ur": "ÿ¨ŸÖ€ÅŸàÿ±€å€Å ÿ¢ÿ±ŸÖ€åŸÜ€åÿß",
          "official_name:uz": "Armaniston Respublikasi",
          "official_name:vi": "C·ªông ho√† Armenia",
          "official_name:wo": "Republik bu Armeeni",
          "official_name:yi": "◊®◊¢◊§◊ï◊ë◊ú◊ô◊ß ◊§◊ï◊ü ◊ê◊®◊û◊¢◊†◊ô◊¢",
          "official_name:yo": "Republic of Armenia",
          "official_name:zh": "‰∫öÁæéÂ∞º‰∫öÂÖ±ÂíåÂõΩ / ‰∫ûÁæéÂ∞º‰∫ûÂÖ±ÂíåÂúã",
          "ISO3166-1:numeric": "051",
          "official_name:ady": "–†–µ—Å–ø—É–±–ª–∏–∫—ç—É –ê—Ä–º–µ–Ω–∏–µ",
          "official_name:als": "Republik Armenie",
          "official_name:arc": "‹©‹ò‹õ‹¢‹ù‹ò‹¨‹ê ‹ï‹ê‹™‹°‹¢‹ù‹ê",
          "official_name:arz": "ÿ¨ŸÖŸáŸàÿ±Ÿäÿ© ÿ£ÿ±ŸÖŸäŸÜŸäÿß",
          "official_name:ast": "Rep√∫blica d'Armenia",
          "official_name:azb": "ÿßÿ¶ÿ±ŸÖŸÜ€åÿ≥ÿ™ÿßŸÜ ÿ¨ŸàŸÖŸáŸàÿ±€åÿ™€å",
          "official_name:bar": "Republik Armenien",
          "official_name:bcl": "Republika nin Armenia",
          "official_name:bpy": "‡¶™‡ßç‡¶∞‡¶ú‡¶æ‡¶§‡¶®‡ßç‡¶§‡ßç‡¶∞‡¶ø ‡¶Ü‡¶∞‡ßç‡¶Æ‡ßá‡¶®‡¶ø‡¶Ø‡¶º‡¶æ",
          "official_name:bxr": "–ë“Ø–≥—ç–¥—ç –ù–∞–π—Ä–∞–º–¥–∞—Ö–∞ –ê—Ä–º–µ–Ω–∏ –£–ª–∞—Å",
          "official_name:chr": "·èç·é¶·èö·é© ·éæ·éø ·é†·éµ·éª·èÇ·é†",
          "official_name:ckb": "⁄©€ÜŸÖÿßÿ±€å ÿ¶€ïÿ±ŸÖ€ïŸÜÿ≥ÿ™ÿßŸÜ",
          "official_name:crh": "Ermenistan Cumhuriyeti",
          "official_name:diq": "Cumhuriyet√™ Ermenƒ±stani",
          "official_name:dsb": "Republika Arme≈Ñska",
          "official_name:dty": "‡§Ü‡§∞‡•ç‡§Æ‡•Ä‡§®‡§ø‡§Ø‡§æ ‡§ó‡§£‡§∞‡§æ‡§ú‡•ç‡§Ø",
          "official_name:eml": "Rep√πblica 'd Arm√®gna",
          "official_name:frr": "Republiik Armeenien",
          "official_name:gag": "Ermeniya Respublikasƒ±",
          "official_name:haw": "Lepupalika o  ªƒÄmƒìnia",
          "official_name:hsb": "Armenska republika",
          "official_name:ilo": "Republika ti Armenia",
          "official_name:jam": "Ripoblik a Aamiinia",
          "official_name:kab": "Tagduda n Arminya",
          "official_name:krc": "–≠—Ä–º–µ–Ω–∏—è –†–µ—Å–ø—É–±–ª–∏–∫–∞",
          "official_name:lad": "Repuvlika de Armenia",
          "official_name:lez": "–†–µ—Å–ø—É–±–ª–∏–∫–∞ –≠—Ä–º–µ–Ω–∏—Å—Ç–∞–Ω",
          "official_name:lrc": "⁄©€àŸÖÿ±ÿ£ ⁄§ŸàŸÑÿßÿ™ ÿ£ÿ±ŸÖŸÜÿ≥ÿ™ÿßŸÜ",
          "official_name:lzh": "‰∫ûÁæéÂ∞º‰∫ûÂÖ±ÂíåÂúã",
          "official_name:mai": "‡§Ö‡§∞‡•ç‡§Æ‡•á‡§®‡§ø‡§Ø‡§æ ‡§ó‡§£‡§§‡§®‡•ç‡§§‡•ç‡§∞",
          "official_name:mdf": "–ê—Ä–º–µ–Ω–∏–µ–Ω—å —Ä–µ—Å–ø—É–±–ª–∏–∫–∞—Å—å",
          "official_name:mhr": "–ê—Ä–º–µÃÅ–Ω–∏–π –†–µ—Å–ø—ÉÃÅ–±–ª–∏–∫",
          "official_name:mrj": "–ê—Ä–º–µÃÅ–Ω–∏ –†–µ—Å–ø—ÉÃÅ–±–ª–∏–∫–∞",
          "official_name:myv": "–ê—Ä–º–µ–Ω–∏—è–Ω—å –†–µ—Å–ø—É–±–ª–∏–∫–∞",
          "official_name:nah": "TlƒÅcatlahtohcƒÅy≈çtl Armenia",
          "official_name:nan": "Armenia Ki≈çng-h√¥-kok",
          "official_name:nap": "Repubbreca 'e Armenia",
          "official_name:nds": "Republik Armenien",
          "official_name:new": "‡§Ü‡§∞‡•ç‡§Æ‡•á‡§®‡§ø‡§Ø‡§æ ‡§ó‡§£‡§∞‡§æ‡§ú‡•ç‡§Ø",
          "official_name:olo": "Armenien tazavaldu",
          "official_name:pam": "Republika ning Armenia",
          "official_name:pap": "Republika di Armenia",
          "official_name:pcd": "R√©publique d'Arm√©nie",
          "official_name:rue": "–ê—Ä–º–µ–Ω—å—Å–∫–∞ —Ä–µ–ø—É–±–ª—ñ–∫–∞",
          "official_name:sah": "–≠—Ä–º—ç—ç–Ω –°–∏—Ä–∏–Ω –†–µ—Å–ø—É–±–ª–∏–∫–∞—Ç–∞",
          "official_name:sco": "Republic o Armenie",
          "official_name:stq": "Republik Armenien",
          "official_name:udm": "–ê—Ä–º—è–Ω –≠–ª—å–∫—É–Ω",
          "official_name:vec": "Republica de Armenia",
          "official_name:vep": "Armenijan Tazovaldkund",
          "official_name:vls": "Republiek Armeni√´",
          "official_name:vro": "Armeeni√§ Vabariik",
          "official_name:wuu": "‰∫öÁæéÂ∞º‰∫öÂÖ±ÂíåÂõΩ",
          "official_name:yue": "‰∫ûÁæéÂ∞º‰∫ûÂÖ±ÂíåÂúã",
          "official_name:zea": "Republiek Armeni√´",
          "official_name:nds-nl": "Reppubliek Armeni√´",
          "official_name:roa-rup": "Republia Ermenia",
          "official_name:zh-Hans": "‰∫öÁæéÂ∞º‰∫öÂÖ±ÂíåÂõΩ",
          "official_name:zh-Hant": "‰∫ûÁæéÂ∞º‰∫ûÂÖ±ÂíåÂúã",
          "official_name:be-tarask": "–†—ç—Å–ø—ÉÃÅ–±–ª—ñ–∫–∞ –ê—Ä–º—çÃÅ–Ω—ñ—è"
        }
      },
      "geometry": {
        "type": "Polygon",
        "coordinates": [
          [
            [
              44,
              40.02834911081538
            ],
            [
              44.0036143,
              40.0249608
            ],
            [
              44.0090803,
              40.0241972
            ],
            [
              44.0132566,
              40.0259267
            ],
            [
              44.016743,
              40.0275998
            ],
            [
              44.0200775,
              40.0275117
            ],
            [
              44.0215722,
              40.0285022
            ],
            [
              44.0225783,
              40.0286783
            ],
            [
              44.0248491,
              40.0274897
            ],
            [
              44.0262197,
              40.0270508
            ],
            [
              44.0282733,
              40.0270238
            ],
            [
              44.0320301,
              40.0277092
            ],
            [
              44.0374255,
              40.0274712
            ],
            [
              44.0428242,
              40.0291245
            ],
            [
              44.0444544,
              40.0285925
            ],
            [
              44.0463681,
              40.0282793
            ],
            [
              44.0483969,
              40.0275379
            ],
            [
              44.0502127,
              40.0270851
            ],
            [
              44.0564716,
              40.0274629
            ],
            [
              44.0617291,
              40.0287333
            ],
            [
              44.0640625,
              40.0295894
            ],
            [
              44.0650957,
              40.0306903
            ],
            [
              44.0665214,
              40.0315883
            ],
            [
              44.0689963,
              40.0322698
            ],
            [
              44.0779853,
              40.0326823
            ],
            [
              44.0795013,
              40.0322426
            ],
            [
              44.0806989,
              40.0322905
            ],
            [
              44.0840408,
              40.0332149
            ],
            [
              44.0893642,
              40.0340302
            ],
            [
              44.0990283,
              40.0323301
            ],
            [
              44.1014303,
              40.0313242
            ],
            [
              44.1034613,
              40.0308959
            ],
            [
              44.1055211,
              40.0300504
            ],
            [
              44.1070671,
              40.0299268
            ],
            [
              44.108959,
              40.030347
            ],
            [
              44.1139055,
              40.0320731
            ],
            [
              44.1148968,
              40.0340174
            ],
            [
              44.1159565,
              40.0347837
            ],
            [
              44.116959,
              40.0348298
            ],
            [
              44.1195389,
              40.034016
            ],
            [
              44.1230008,
              40.0340994
            ],
            [
              44.1269908,
              40.0320023
            ],
            [
              44.1296009,
              40.0292458
            ],
            [
              44.1312571,
              40.0282298
            ],
            [
              44.1333329,
              40.0278572
            ],
            [
              44.1354858,
              40.0282006
            ],
            [
              44.1357699,
              40.0289743
            ],
            [
              44.1362787,
              40.0296483
            ],
            [
              44.1378325,
              40.0312183
            ],
            [
              44.1380862,
              40.0321344
            ],
            [
              44.1389163,
              40.0327781
            ],
            [
              44.1411921,
              40.0330551
            ],
            [
              44.1433245,
              40.0328543
            ],
            [
              44.1468167,
              40.0332451
            ],
            [
              44.1481531,
              40.033088
            ],
            [
              44.151249,
              40.0313738
            ],
            [
              44.1565436,
              40.0304296
            ],
            [
              44.1605989,
              40.0306852
            ],
            [
              44.1621091,
              40.0311212
            ],
            [
              44.1629899,
              40.0318662
            ],
            [
              44.1651919,
              40.0323381
            ],
            [
              44.1662521,
              40.0319056
            ],
            [
              44.1677458,
              40.0298821
            ],
            [
              44.1686411,
              40.0293513
            ],
            [
              44.1701313,
              40.0274637
            ],
            [
              44.1707428,
              40.0272909
            ],
            [
              44.1730506,
              40.0272854
            ],
            [
              44.1742737,
              40.0275933
            ],
            [
              44.177282,
              40.0295834
            ],
            [
              44.1777434,
              40.0297352
            ],
            [
              44.1791331,
              40.0299455
            ],
            [
              44.1811965,
              40.0299336
            ],
            [
              44.1827357,
              40.0296284
            ],
            [
              44.1861105,
              40.0303577
            ],
            [
              44.1880004,
              40.0305916
            ],
            [
              44.1890221,
              40.0314971
            ],
            [
              44.189647,
              40.0327748
            ],
            [
              44.1895923,
              40.0340902
            ],
            [
              44.1884293,
              40.0362558
            ],
            [
              44.1884059,
              40.0369704
            ],
            [
              44.1892785,
              40.038557
            ],
            [
              44.1901406,
              40.0390648
            ],
            [
              44.1926468,
              40.0395434
            ],
            [
              44.1939491,
              40.0395963
            ],
            [
              44.1973143,
              40.0388832
            ],
            [
              44.1994082,
              40.0387661
            ],
            [
              44.2018386,
              40.0392528
            ],
            [
              44.2034263,
              40.0391358
            ],
            [
              44.2051625,
              40.0393441
            ],
            [
              44.2063658,
              40.0390722
            ],
            [
              44.2073351,
              40.0384841
            ],
            [
              44.2089055,
              40.0356744
            ],
            [
              44.2093734,
              40.0350984
            ],
            [
              44.2106172,
              40.0344635
            ],
            [
              44.2113687,
              40.0343643
            ],
            [
              44.213662,
              40.0335806
            ],
            [
              44.215748,
              40.0346437
            ],
            [
              44.217437,
              40.036087
            ],
            [
              44.2184572,
              40.0375138
            ],
            [
              44.2189272,
              40.0401664
            ],
            [
              44.2199455,
              40.0420063
            ],
            [
              44.2206512,
              40.0426737
            ],
            [
              44.2218122,
              40.042914
            ],
            [
              44.2231618,
              40.042605
            ],
            [
              44.225225,
              40.0429441
            ],
            [
              44.2262598,
              40.0426323
            ],
            [
              44.2272612,
              40.0420546
            ],
            [
              44.229213,
              40.0421348
            ],
            [
              44.2317802,
              40.04304
            ],
            [
              44.2324901,
              40.0438797
            ],
            [
              44.2329849,
              40.0450752
            ],
            [
              44.234359,
              40.0468207
            ],
            [
              44.2356016,
              40.0474993
            ],
            [
              44.2369479,
              40.0475913
            ],
            [
              44.2381931,
              40.0474259
            ],
            [
              44.2408945,
              40.0461951
            ],
            [
              44.2419285,
              40.0461265
            ],
            [
              44.2425547,
              40.046238
            ],
            [
              44.2454001,
              40.0484116
            ],
            [
              44.2483806,
              40.049075
            ],
            [
              44.2524597,
              40.0485494
            ],
            [
              44.2544296,
              40.048542
            ],
            [
              44.2611284,
              40.0465561
            ],
            [
              44.2639631,
              40.0466216
            ],
            [
              44.2704312,
              40.0488088
            ],
            [
              44.2721944,
              40.0492388
            ],
            [
              44.2743686,
              40.049423
            ],
            [
              44.2775819,
              40.0489314
            ],
            [
              44.2790501,
              40.0484154
            ],
            [
              44.280612,
              40.0475546
            ],
            [
              44.2833139,
              40.0450508
            ],
            [
              44.2842732,
              40.0439297
            ],
            [
              44.2850707,
              40.0434819
            ],
            [
              44.2874187,
              40.0433305
            ],
            [
              44.2903836,
              40.0441015
            ],
            [
              44.2928487,
              40.0443681
            ],
            [
              44.2938676,
              40.0440843
            ],
            [
              44.2945672,
              40.0434271
            ],
            [
              44.2947842,
              40.0407004
            ],
            [
              44.2955009,
              40.0393001
            ],
            [
              44.2961188,
              40.0370104
            ],
            [
              44.2966423,
              40.0363743
            ],
            [
              44.2977254,
              40.0361021
            ],
            [
              44.301569,
              40.0359658
            ],
            [
              44.3038787,
              40.0366184
            ],
            [
              44.3062524,
              40.0377484
            ],
            [
              44.3100875,
              40.0388938
            ],
            [
              44.311863,
              40.0392244
            ],
            [
              44.314038,
              40.0393001
            ],
            [
              44.3164166,
              40.0386745
            ],
            [
              44.3187169,
              40.0376152
            ],
            [
              44.3205878,
              40.0343043
            ],
            [
              44.3244684,
              40.031613
            ],
            [
              44.3266643,
              40.030862
            ],
            [
              44.3291094,
              40.0307312
            ],
            [
              44.3307391,
              40.0310281
            ],
            [
              44.3327738,
              40.0322828
            ],
            [
              44.3345614,
              40.0328094
            ],
            [
              44.3356255,
              40.0326889
            ],
            [
              44.3364829,
              40.0324681
            ],
            [
              44.3370854,
              40.0318749
            ],
            [
              44.3379462,
              40.0299635
            ],
            [
              44.3396391,
              40.0279202
            ],
            [
              44.3427666,
              40.0269096
            ],
            [
              44.3451727,
              40.026715
            ],
            [
              44.3481608,
              40.0269755
            ],
            [
              44.3502454,
              40.0274721
            ],
            [
              44.3510875,
              40.0274808
            ],
            [
              44.3525795,
              40.0268876
            ],
            [
              44.3545019,
              40.0250859
            ],
            [
              44.3554488,
              40.0231524
            ],
            [
              44.3561374,
              40.020977
            ],
            [
              44.3575721,
              40.0194169
            ],
            [
              44.3599119,
              40.017309
            ],
            [
              44.362482,
              40.0162816
            ],
            [
              44.3639511,
              40.0155222
            ],
            [
              44.3650345,
              40.0146221
            ],
            [
              44.365769,
              40.0136095
            ],
            [
              44.3705986,
              40.0092916
            ],
            [
              44.372839,
              40.0079975
            ],
            [
              44.3748302,
              40.0071107
            ],
            [
              44.3759056,
              40.0068582
            ],
            [
              44.377136,
              40.0053954
            ],
            [
              44.3778317,
              40.0051172
            ],
            [
              44.3788254,
              40.0041575
            ],
            [
              44.3802394,
              40.0034964
            ],
            [
              44.3820574,
              40.0034402
            ],
            [
              44.3838452,
              40.0037983
            ],
            [
              44.386079,
              40.0046217
            ],
            [
              44.3919553,
              40.0051141
            ],
            [
              44.3953367,
              40.0042769
            ],
            [
              44.3986229,
              40.0027609
            ],
            [
              44.4009106,
              40.0022286
            ],
            [
              44.4045428,
              40.0024359
            ],
            [
              44.4064023,
              40.0030963
            ],
            [
              44.4090251,
              40.002987
            ],
            [
              44.4156862,
              40.0014417
            ],
            [
              44.4185919,
              40.00039
            ],
            [
              44.419467287840675,
              40
            ],
            [
              45,
              40
            ],
            [
              45,
              41
            ],
            [
              44,
              41
            ],
            [
              44,
              40.02834911081538
            ]
          ]
        ]
      }
    },
    {
      "type": "Feature",
      "properties": {
        "osm_id": -174737,
        "boundary": "administrative",
        "admin_level": 2,
        "parents": null,
        "name": "Turkey",
        "local_name": "T√ºrkiye",
        "name_en": "Turkey",
        "all_tags": {
          "flag": "http://upload.wikimedia.org/wikipedia/commons/b/b4/Flag_of_Turkey.svg",
          "name": "T√ºrkiye",
          "name:aa": "Torusko",
          "name:ab": "“¨—ã—Ä“õ”ô—Ç”ô—ã–ª–∞",
          "name:af": "Turkye",
          "name:ak": "Turki",
          "name:am": "·â±·à≠·ä≠",
          "name:an": "Turqu√≠a",
          "name:ar": "ÿ™ÿ±ŸÉŸäÿß",
          "name:av": "–¢—É—Ä–∫–∏—è",
          "name:ay": "Turkiya",
          "name:az": "T√ºrkiy…ô",
          "name:ba": "–¢”©—Ä–∫–∏”ô",
          "name:be": "–¢—É—Ä—Ü—ã—è",
          "name:bg": "–¢—É—Ä—Ü–∏—è",
          "name:bi": "Turkey",
          "name:bn": "‡¶§‡ßÅ‡¶∞‡¶∏‡ßç‡¶ï",
          "name:bo": "‡Ωè‡Ω¥‡Ω¢‡ºã‡ΩÄ‡Ω≤‡ºç",
          "name:br": "Turkia",
          "name:bs": "Turska",
          "name:ca": "Turquia",
          "name:ce": "–¢—É—Ä–∫–æ–π—á–æ—å",
          "name:co": "Turchia",
          "name:cr": "·ëê·ïí·ë≠",
          "name:cs": "Turecko",
          "name:cu": "–¢—∑—Ä—Ü–∏",
          "name:cv": "–¢—É—Ä—Ü–∏",
          "name:cy": "Twrci",
          "name:da": "Tyrkiet",
          "name:de": "T√ºrkei",
          "name:dv": "ﬁåﬁ™ﬁÉﬁ™ﬁÜﬁ©ﬁàﬁ®ﬁçﬁßﬁåﬁ∞",
          "name:dz": "‡Ωñ‡æ±‡Ω†‡Ω≤‡ºã‡Ω¢‡Ω≤‡ΩÇ‡Ω¶‡ºã‡ΩÖ‡Ω≤‡ΩÇ",
          "name:ee": "Turkey",
          "name:el": "Œ§ŒøœÖœÅŒ∫ŒØŒ±",
          "name:en": "Turkey",
          "name:eo": "Turkio",
          "name:es": "Turqu√≠a",
          "name:et": "T√ºrgi",
          "name:eu": "Turkia",
          "name:fa": "ÿ™ÿ±⁄©€åŸá",
          "name:fi": "Turkki",
          "name:fo": "Turkaland",
          "name:fr": "Turquie",
          "name:fy": "Turkije",
          "name:ga": "An Tuirc",
          "name:gd": "An Tuirc",
          "name:gl": "Turqu√≠a",
          "name:gn": "Tuykia",
          "name:gu": "‡™§‡´Å‡™∞‡´ç‡™ï‡™∏‡´ç‡™§‡™æ‡™®",
          "name:gv": "Yn Turkee",
          "name:ha": "Turkiyya",
          "name:he": "◊ò◊ï◊®◊ß◊ô◊î",
          "name:hi": "‡§§‡•Å‡§∞‡•ç‡§ï‡•Ä",
          "name:hr": "Turska",
          "name:ht": "Tiki",
          "name:hu": "T√∂r√∂korsz√°g",
          "name:hy": "‘π’∏÷Ç÷Ä÷Ñ’´’°",
          "name:ia": "Turchia",
          "name:id": "Turki",
          "name:ie": "Turcia",
          "name:ik": "Turkey",
          "name:io": "Turkia",
          "name:is": "Tyrkland",
          "name:it": "Turchia",
          "name:ja": "„Éà„É´„Ç≥",
          "name:jv": "Turki",
          "name:ka": "·Éó·É£·É†·É•·Éî·Éó·Éò",
          "name:kg": "Turki",
          "name:ki": "Turkey",
          "name:kk": "–¢“Ø—Ä–∫–∏—è",
          "name:kl": "Tyrkia",
          "name:km": "·ûè·ûΩ·ûÄ·ûÇ·û∏",
          "name:kn": "‡≤ü‡≤∞‡≥ç‡≤ï‡≤ø",
          "name:ko": "ÌäÄÎ•¥ÌÇ§Ïòà",
          "name:ku": "Tirkiye",
          "name:kv": "–¢—É—Ä—Ü–∏—è",
          "name:kw": "Turki",
          "name:ky": "–¢“Ø—Ä–∫–∏—è",
          "name:la": "Turcia",
          "name:lb": "Tierkei",
          "name:lg": "Buturuki",
          "name:li": "Turkije",
          "name:ln": "Turk√≠",
          "name:lt": "Turkija",
          "name:lv": "Turcija",
          "name:mg": "Torkia",
          "name:mi": "TƒÅkei",
          "name:mk": "–¢—É—Ä—Ü–∏—ò–∞",
          "name:ml": "‡¥§‡µÅ‡µº‡¥ï‡µç‡¥ï‡¥ø",
          "name:mn": "–¢—É—Ä–∫",
          "name:mr": "‡§§‡•Å‡§∞‡•ç‡§ï‡§∏‡•ç‡§§‡§æ‡§®",
          "name:ms": "Turki",
          "name:mt": "Turkija",
          "name:my": "·Äê·Ä∞·Äõ·ÄÄ·ÄÆ·Äî·Ä≠·ÄØ·ÄÑ·Ä∫·ÄÑ·Ä∂",
          "name:na": "Terki",
          "name:ne": "‡§ü‡§∞‡•ç‡§ï‡•Ä",
          "name:nl": "Turkije",
          "name:nn": "Tyrkia",
          "name:no": "Tyrkia",
          "name:nv": "T º√≥ok Bik√©yah",
          "name:oc": "Turquia",
          "name:or": "‡¨§‡≠Å‡¨∞‡≠ç‡¨ï‡≠Ä",
          "name:os": "–¢—É—Ä–∫",
          "name:pa": "‡®§‡©Å‡®∞‡®ï‡©Ä",
          "name:pl": "Turcja",
          "name:ps": "ÿ™Ÿàÿ±⁄©ŸäŸá",
          "name:pt": "Turquia",
          "name:qu": "Turkiya",
          "name:rm": "Tirchia",
          "name:rn": "Turukiya",
          "name:ro": "Turcia",
          "name:ru": "–¢—É—Ä—Ü–∏—è",
          "name:rw": "Turukiya",
          "name:sa": "‡§§‡•Å‡§∞‡•ç‡§ï‡•Ä",
          "name:sc": "Turkia",
          "name:se": "Durka",
          "name:sh": "Turska",
          "name:si": "‡∂≠‡∑î‡∂ª‡∑ä‡∂ö‡∑í‡∂∫",
          "name:sk": "Turecko",
          "name:sl": "Turƒçija",
          "name:sm": "Take",
          "name:so": "Turkiga",
          "name:sq": "Turqia",
          "name:sr": "–¢—É—Ä—Å–∫–∞",
          "name:ss": "IThekhi",
          "name:su": "Turki",
          "name:sv": "Turkiet",
          "name:sw": "Uturuki",
          "name:ta": "‡Æ§‡ØÅ‡Æ∞‡ØÅ‡Æï‡Øç‡Æï‡Æø",
          "name:te": "‡∞ü‡∞∞‡±ç‡∞ï‡±Ä",
          "name:tg": "–¢—É—Ä–∫–∏—è",
          "name:th": "‡∏õ‡∏£‡∏∞‡πÄ‡∏ó‡∏®‡∏ï‡∏∏‡∏£‡∏Å‡∏µ",
          "name:ti": "·â±·à≠·ä™",
          "name:tk": "T√ºrki√Ωe",
          "name:tl": "Turkiya",
          "name:tr": "T√ºrkiye",
          "name:tt": "–¢”©—Ä–∫–∏—è",
          "name:tw": "Turkey",
          "name:ty": "Turiti",
          "name:ug": "ÿ™€àÿ±ŸÉŸâŸä€ï",
          "name:uk": "–¢—É—Ä–µ—á—á–∏–Ω–∞",
          "name:ur": "ÿ™ÿ±⁄©€å",
          "name:uz": "Turkiya",
          "name:vi": "Th·ªï Nhƒ© K·ª≥",
          "name:vo": "T√ºrk√§n",
          "name:wa": "Tourkeye",
          "name:wo": "Tirki",
          "name:xh": "ITurkiya",
          "name:yi": "◊ò◊¢◊®◊ß◊ô◊ô",
          "name:yo": "T√∫rk√¨",
          "name:za": "Dujwjgiz",
          "name:zh": "ÂúüËÄ≥ÂÖ∂",
          "name:zu": "ITheki",
          "boundary": "administrative",
          "int_name": "T√ºrkiye",
          "name:ace": "Turuki",
          "name:ady": "–¢—ã—Ä–∫—É–µ",
          "name:als": "T√ºrkei",
          "name:ang": "Turcland",
          "name:apc": "ÿ™ÿ±ŸÉŸäÿß",
          "name:arc": "‹õ‹ò‹™‹©‹ù‹ê",
          "name:ary": "ÿ£ŸÜŸÇÿßÿ±ÿß",
          "name:arz": "ÿ™Ÿàÿ±ŸÉŸäÿß",
          "name:ast": "Turqu√≠a",
          "name:azb": "ÿ™Ÿàÿ±⁄©€åŸá",
          "name:bar": "Tiakei",
          "name:bcl": "Turkiya",
          "name:bjn": "Turki",
          "name:bpy": "‡¶§‡ßÅ‡¶∞‡¶∏‡ßç‡¶ï",
          "name:bug": "Turki",
          "name:bxr": "–¢—é—Ä–∫ –£–ª–∞—Å",
          "name:cdo": "T≈´-ƒ´-g√¨",
          "name:ceb": "Turkiya",
          "name:chr": "·é¨·èÇ·è±",
          "name:chy": "Turkey",
          "name:ckb": "ÿ™Ÿàÿ±⁄©€åÿß",
          "name:cnr": "–¢—É—Ä—Å–∫–∞",
          "name:crh": "T√ºrkiye",
          "name:csb": "T√´reck√¥",
          "name:din": "Turkia",
          "name:diq": "Tƒ±rkiya",
          "name:dsb": "Turkojska",
          "name:eml": "Turch√Æ",
          "name:ext": "Turquia",
          "name:frp": "Turquie",
          "name:frr": "T√ºrkei",
          "name:fur": "Turchie",
          "name:gag": "T√ºrkiye",
          "name:gan": "ÂúüËÄ≥ÂÖ∂",
          "name:glk": "ÿ™€äÿ±⁄©ŸäŸá",
          "name:got": "êçÑêçÖêçÇêå∫êåæêå∞",
          "name:hak": "Th√∫-ng√≠-kh√¨",
          "name:haw": "Tureke",
          "name:hif": "Turkey",
          "name:hsb": "Turkowska",
          "name:hyw": "‘π’∏÷Ç÷Ä÷Ñ’´’°",
          "name:ilo": "Turkia",
          "name:inh": "–¢—É—Ä–∫–∏–π",
          "name:jbo": "turk",
          "name:kaa": "T√∫rkiya",
          "name:kab": "Tturk",
          "name:kbd": "–¢—ã—Ä–∫—É",
          "name:kiu": "Tƒ±rkiya",
          "name:koi": "–¢—é—Ä–∫–∏—è",
          "name:krc": "–¢—é—Ä–∫",
          "name:ksh": "T√ºrkei",
          "name:lad": "Turkia",
          "name:lbe": "–¢—É—Ä–∫–∏—è",
          "name:lez": "–¢—É—Ä—Ü–∏—è",
          "name:lij": "Turchia",
          "name:lmo": "T√ºrchia",
          "name:ltg": "Turceja",
          "name:lzh": "ÂúüËÄ≥ÂÖ∂",
          "name:mdf": "–¢—É—Ä–∫–∞–º–∞—Å—Ç–æ—Ä",
          "name:mhr": "–¢—É—Ä—Ü–∏–π",
          "name:mrj": "–¢—É—Ä—Ü–∏",
          "name:mwl": "Turquie",
          "name:mzn": "ÿ™ÿ±⁄©€åŸá",
          "name:nah": "Turquia",
          "name:nan": "T√ºrkiye",
          "name:nap": "Turchia",
          "name:nds": "T√∂rkie",
          "name:new": "‡§ü‡§∞‡•ç‡§ï‡•Ä",
          "name:nov": "Turkia",
          "name:nrm": "Turtchie",
          "name:nso": "Turkey",
          "name:pam": "Turkia",
          "name:pap": "Turkia",
          "name:pcd": "Turkie",
          "name:pdc": "Turkie",
          "name:pes": "ÿ™ÿ±⁄©€åŸá",
          "name:pfl": "Tirkei",
          "name:pih": "Turkii",
          "name:pms": "Turch√¨a",
          "name:pnb": "ÿ™ÿ±⁄©€å",
          "name:pnt": "Œ§ŒøœÖœÅŒ∫ŒØŒ±",
          "name:prs": "ÿ™ÿ±⁄©€åŸá",
          "name:rmy": "Turkiya",
          "name:rue": "–¢—É—Ä—Ü—ñ—è",
          "name:sah": "–¢“Ø—Ä–∫–∏–π—ç",
          "name:scn": "Turch√¨a",
          "name:sco": "Turkey",
          "name:smn": "Turkki",
          "name:sms": "Turkk",
          "name:srn": "Turkiyakondre",
          "name:stq": "Turk√§i",
          "name:szl": "Turcyj≈è",
          "name:tet": "Turkia",
          "name:tpi": "Teki",
          "name:tsd": "Œ§ŒøœÖœÅŒ∫ŒØŒ±",
          "name:tum": "Turkey",
          "name:tzl": "T√ºrchia",
          "name:udm": "–¢—É—Ä—Ü–∏—è",
          "name:vec": "Turchia",
          "name:vep": "Turcii",
          "name:vls": "Turkeye",
          "name:vro": "T√ºrg√º",
          "name:war": "Turkeya",
          "name:wuu": "ÂúüËÄ≥ÂÖ∂",
          "name:xal": "–¢“Ø—Ä–≥“Ø–¥–∏–Ω –û—Ä–Ω",
          "name:xmf": "·Éó·É£·É†·É•·Éî·Éó·Éò",
          "name:yue": "ÂúüËÄ≥ÂÖ∂",
          "name:zea": "Turkije",
          "name:zza": "Tƒ±rkiya",
          "timezone": "Europe/Istanbul",
          "way_area": "89.1987",
          "wikidata": "Q43",
          "ISO3166-1": "TR",
          "name:vlca": "Turquia",
          "wikipedia": "tr:T√ºrkiye",
          "population": "85279553",
          "admin_level": "2",
          "alt_name:ar": "ÿ™ÿ±ŸÉŸäÿß",
          "alt_name:eo": "Turkujo",
          "alt_name:vi": "Th·ªï Nhƒ© K√¨",
          "name:nds-nl": "Turkije",
          "old_name:ko": "ÌÑ∞ÌÇ§",
          "alt_name:haw": "Kuleke",
          "alt_name:lad": "Turkiya",
          "alt_name:tzl": "ma Tuki",
          "name:bat-smg": "Torkƒójƒó",
          "name:cbk-zam": "Turqu√≠a",
          "name:ks-Arab": "ÿ™Ÿèÿ±⁄©€å",
          "name:mn-Mong": "·†≤·†¶·†∑·†ª",
          "name:roa-rup": "Turchia",
          "name:zh-Hans": "ÂúüËÄ≥ÂÖ∂",
          "name:zh-Hant": "ÂúüËÄ≥ÂÖ∂",
          "name:cnr-Latn": "Turska",
          "name:lad-Hebr": "◊ò◊ï◊®◊ß◊≤◊î",
          "name:roa-tara": "Turchie",
          "official_name": "T√ºrkiye Cumhuriyeti",
          "name:be-tarask": "–¢—É—Ä—ç—á—á—ã–Ω–∞",
          "population:date": "2022",
          "ISO3166-1:alpha2": "TR",
          "ISO3166-1:alpha3": "TUR",
          "default_language": "tr",
          "official_name:ar": "ÿßŸÑÿ¨ŸÖŸáŸàÿ±Ÿäÿ© ÿßŸÑÿ™ÿ±ŸÉŸäÿ©",
          "official_name:cs": "Tureck√° republika",
          "official_name:de": "Republik Turkei",
          "official_name:el": "ŒîŒ∑ŒºŒøŒ∫œÅŒ±œÑŒØŒ± œÑŒ∑œÇ Œ§ŒøœÖœÅŒ∫ŒØŒ±œÇ",
          "official_name:en": "Republic of T√ºrkiye",
          "official_name:eo": "Turka Respubliko",
          "official_name:es": "Rep√∫blica de Turqu√≠a",
          "official_name:fi": "Turkin tasavalta",
          "official_name:fr": "R√©publique de Turquie",
          "official_name:he": "◊î◊®◊§◊ï◊ë◊ú◊ô◊ß◊î ◊î◊ò◊ï◊®◊ß◊ô◊™",
          "official_name:ko": "ÌäÄÎ•¥ÌÇ§Ïòà Í≥µÌôîÍµ≠",
          "official_name:ku": "Komara Tirkiyey√™",
          "official_name:ky": "–¢“Ø—Ä–∫–∏—è –†–µ—Å–ø—É–±–ª–∏–∫–∞—Å—ã",
          "official_name:ru": "–¢—É—Ä–µ—Ü–∫–∞—è –†–µ—Å–ø—É–±–ª–∏–∫–∞",
          "official_name:zh": "ÂúüËÄ≥ÂÖ∂ÂÖ±ÂíåÂúã / ÂúüËÄ≥ÂÖ∂ÂÖ±ÂíåÂõΩ",
          "ISO3166-1:numeric": "792",
          "official_name:xal": "–¢“Ø—Ä–≥“Ø–¥–∏–Ω –û—Ä–Ω",
          "official_name:zh-Hans": "ÂúüËÄ≥ÂÖ∂ÂÖ±ÂíåÂõΩ",
          "official_name:zh-Hant": "ÂúüËÄ≥ÂÖ∂ÂÖ±ÂíåÂúã"
        }
      },
      "geometry": {
        "type": "Polygon",
        "coordinates": [
          [
            [
              44,
              40
            ],
            [
              44.419467287840675,
              40
            ],
            [
              44.4185919,
              40.00039
            ],
            [
              44.4156862,
              40.0014417
            ],
            [
              44.4090251,
              40.002987
            ],
            [
              44.4064023,
              40.0030963
            ],
            [
              44.4045428,
              40.0024359
            ],
            [
              44.4009106,
              40.0022286
            ],
            [
              44.3986229,
              40.0027609
            ],
            [
              44.3953367,
              40.0042769
            ],
            [
              44.3919553,
              40.0051141
            ],
            [
              44.386079,
              40.0046217
            ],
            [
              44.3838452,
              40.0037983
            ],
            [
              44.3820574,
              40.0034402
            ],
            [
              44.3802394,
              40.0034964
            ],
            [
              44.3788254,
              40.0041575
            ],
            [
              44.3778317,
              40.0051172
            ],
            [
              44.377136,
              40.0053954
            ],
            [
              44.3759056,
              40.0068582
            ],
            [
              44.3748302,
              40.0071107
            ],
            [
              44.372839,
              40.0079975
            ],
            [
              44.3705986,
              40.0092916
            ],
            [
              44.365769,
              40.0136095
            ],
            [
              44.3650345,
              40.0146221
            ],
            [
              44.3639511,
              40.0155222
            ],
            [
              44.362482,
              40.0162816
            ],
            [
              44.3599119,
              40.017309
            ],
            [
              44.3575721,
              40.0194169
            ],
            [
              44.3561374,
              40.020977
            ],
            [
              44.3554488,
              40.0231524
            ],
            [
              44.3545019,
              40.0250859
            ],
            [
              44.3525795,
              40.0268876
            ],
            [
              44.3518267,
              40.0272172
            ],
            [
              44.3510875,
              40.0274808
            ],
            [
              44.3502454,
              40.0274721
            ],
            [
              44.3481608,
              40.0269755
            ],
            [
              44.3451727,
              40.026715
            ],
            [
              44.3427666,
              40.0269096
            ],
            [
              44.3396391,
              40.0279202
            ],
            [
              44.3379462,
              40.0299635
            ],
            [
              44.3370854,
              40.0318749
            ],
            [
              44.3364829,
              40.0324681
            ],
            [
              44.3356255,
              40.0326889
            ],
            [
              44.3345614,
              40.0328094
            ],
            [
              44.3327738,
              40.0322828
            ],
            [
              44.3307391,
              40.0310281
            ],
            [
              44.3291094,
              40.0307312
            ],
            [
              44.3266643,
              40.030862
            ],
            [
              44.3244684,
              40.031613
            ],
            [
              44.3205878,
              40.0343043
            ],
            [
              44.3187169,
              40.0376152
            ],
            [
              44.3164166,
              40.0386745
            ],
            [
              44.314038,
              40.0393001
            ],
            [
              44.311863,
              40.0392244
            ],
            [
              44.3100875,
              40.0388938
            ],
            [
              44.3062524,
              40.0377484
            ],
            [
              44.3038787,
              40.0366184
            ],
            [
              44.301569,
              40.0359658
            ],
            [
              44.2977254,
              40.0361021
            ],
            [
              44.2966423,
              40.0363743
            ],
            [
              44.2961188,
              40.0370104
            ],
            [
              44.2955009,
              40.0393001
            ],
            [
              44.2947842,
              40.0407004
            ],
            [
              44.2945672,
              40.0434271
            ],
            [
              44.2938676,
              40.0440843
            ],
            [
              44.2928487,
              40.0443681
            ],
            [
              44.2903836,
              40.0441015
            ],
            [
              44.2874187,
              40.0433305
            ],
            [
              44.2850707,
              40.0434819
            ],
            [
              44.2842732,
              40.0439297
            ],
            [
              44.2833139,
              40.0450508
            ],
            [
              44.280612,
              40.0475546
            ],
            [
              44.2790501,
              40.0484154
            ],
            [
              44.2775819,
              40.0489314
            ],
            [
              44.2743686,
              40.049423
            ],
            [
              44.2721944,
              40.0492388
            ],
            [
              44.2704312,
              40.0488088
            ],
            [
              44.2639631,
              40.0466216
            ],
            [
              44.2611284,
              40.0465561
            ],
            [
              44.2544296,
              40.048542
            ],
            [
              44.2524597,
              40.0485494
            ],
            [
              44.2483806,
              40.049075
            ],
            [
              44.2454001,
              40.0484116
            ],
            [
              44.2425547,
              40.046238
            ],
            [
              44.2419285,
              40.0461265
            ],
            [
              44.2408945,
              40.0461951
            ],
            [
              44.2381931,
              40.0474259
            ],
            [
              44.2369479,
              40.0475913
            ],
            [
              44.2356016,
              40.0474993
            ],
            [
              44.234359,
              40.0468207
            ],
            [
              44.2329849,
              40.0450752
            ],
            [
              44.2324901,
              40.0438797
            ],
            [
              44.2317802,
              40.04304
            ],
            [
              44.229213,
              40.0421348
            ],
            [
              44.2272612,
              40.0420546
            ],
            [
              44.2262598,
              40.0426323
            ],
            [
              44.225225,
              40.0429441
            ],
            [
              44.2231618,
              40.042605
            ],
            [
              44.2218122,
              40.042914
            ],
            [
              44.2206512,
              40.0426737
            ],
            [
              44.2199455,
              40.0420063
            ],
            [
              44.2189272,
              40.0401664
            ],
            [
              44.2184572,
              40.0375138
            ],
            [
              44.217437,
              40.036087
            ],
            [
              44.215748,
              40.0346437
            ],
            [
              44.213662,
              40.0335806
            ],
            [
              44.2113687,
              40.0343643
            ],
            [
              44.2106172,
              40.0344635
            ],
            [
              44.2093734,
              40.0350984
            ],
            [
              44.2089055,
              40.0356744
            ],
            [
              44.2073351,
              40.0384841
            ],
            [
              44.2063658,
              40.0390722
            ],
            [
              44.2051625,
              40.0393441
            ],
            [
              44.2034263,
              40.0391358
            ],
            [
              44.2018386,
              40.0392528
            ],
            [
              44.1994082,
              40.0387661
            ],
            [
              44.1973143,
              40.0388832
            ],
            [
              44.1939491,
              40.0395963
            ],
            [
              44.1926468,
              40.0395434
            ],
            [
              44.1901406,
              40.0390648
            ],
            [
              44.1892785,
              40.038557
            ],
            [
              44.1884059,
              40.0369704
            ],
            [
              44.1884293,
              40.0362558
            ],
            [
              44.1895923,
              40.0340902
            ],
            [
              44.189647,
              40.0327748
            ],
            [
              44.1890221,
              40.0314971
            ],
            [
              44.1880004,
              40.0305916
            ],
            [
              44.1861105,
              40.0303577
            ],
            [
              44.1827357,
              40.0296284
            ],
            [
              44.1811965,
              40.0299336
            ],
            [
              44.1791331,
              40.0299455
            ],
            [
              44.1777434,
              40.0297352
            ],
            [
              44.177282,
              40.0295834
            ],
            [
              44.1742737,
              40.0275933
            ],
            [
              44.1730506,
              40.0272854
            ],
            [
              44.1707428,
              40.0272909
            ],
            [
              44.1701313,
              40.0274637
            ],
            [
              44.1686411,
              40.0293513
            ],
            [
              44.1677458,
              40.0298821
            ],
            [
              44.1662521,
              40.0319056
            ],
            [
              44.1651919,
              40.0323381
            ],
            [
              44.1629899,
              40.0318662
            ],
            [
              44.1621091,
              40.0311212
            ],
            [
              44.1605989,
              40.0306852
            ],
            [
              44.1565436,
              40.0304296
            ],
            [
              44.151249,
              40.0313738
            ],
            [
              44.1481531,
              40.033088
            ],
            [
              44.1468167,
              40.0332451
            ],
            [
              44.1433245,
              40.0328543
            ],
            [
              44.1411921,
              40.0330551
            ],
            [
              44.1389163,
              40.0327781
            ],
            [
              44.1380862,
              40.0321344
            ],
            [
              44.1378325,
              40.0312183
            ],
            [
              44.1362787,
              40.0296483
            ],
            [
              44.1357699,
              40.0289743
            ],
            [
              44.1354858,
              40.0282006
            ],
            [
              44.1333329,
              40.0278572
            ],
            [
              44.1312571,
              40.0282298
            ],
            [
              44.1296009,
              40.0292458
            ],
            [
              44.1269908,
              40.0320023
            ],
            [
              44.1230008,
              40.0340994
            ],
            [
              44.1195389,
              40.034016
            ],
            [
              44.116959,
              40.0348298
            ],
            [
              44.1159565,
              40.0347837
            ],
            [
              44.1148968,
              40.0340174
            ],
            [
              44.1139055,
              40.0320731
            ],
            [
              44.108959,
              40.030347
            ],
            [
              44.1070671,
              40.0299268
            ],
            [
              44.1055211,
              40.0300504
            ],
            [
              44.1034613,
              40.0308959
            ],
            [
              44.1014303,
              40.0313242
            ],
            [
              44.0990283,
              40.0323301
            ],
            [
              44.0893642,
              40.0340302
            ],
            [
              44.0840408,
              40.0332149
            ],
            [
              44.0806989,
              40.0322905
            ],
            [
              44.0795013,
              40.0322426
            ],
            [
              44.0779853,
              40.0326823
            ],
            [
              44.0689963,
              40.0322698
            ],
            [
              44.0665214,
              40.0315883
            ],
            [
              44.0650957,
              40.0306903
            ],
            [
              44.0640625,
              40.0295894
            ],
            [
              44.0617291,
              40.0287333
            ],
            [
              44.0564716,
              40.0274629
            ],
            [
              44.0502127,
              40.0270851
            ],
            [
              44.0483969,
              40.0275379
            ],
            [
              44.0463681,
              40.0282793
            ],
            [
              44.0444544,
              40.0285925
            ],
            [
              44.0428242,
              40.0291245
            ],
            [
              44.0374255,
              40.0274712
            ],
            [
              44.0320301,
              40.0277092
            ],
            [
              44.0282733,
              40.0270238
            ],
            [
              44.0262197,
              40.0270508
            ],
            [
              44.0248491,
              40.0274897
            ],
            [
              44.0225783,
              40.0286783
            ],
            [
              44.0215722,
              40.0285022
            ],
            [
              44.0200775,
              40.0275117
            ],
            [
              44.016743,
              40.0275998
            ],
            [
              44.0132566,
              40.0259267
            ],
            [
              44.0090803,
              40.0241972
            ],
            [
              44.0036143,
              40.0249608
            ],
            [
              44,
              40.02834911081538
            ],
            [
              44,
              40
            ]
          ]
        ]
      }
    }
  ]
}