{
  "type": "FeatureCollection",
  "features": [
    {
      "type": "Feature",
      "properties": {
        "osm_id": -287668,
        "boundary": "administrative",
        "admin_level": 2,
        "parents": null,
        "name": "Panama",
        "local_name": "Panamá",
        "name_en": "Panama",
        "all_tags": {
          "flag": "http://upload.wikimedia.org/wikipedia/commons/a/ab/Flag_of_Panama.svg",
          "name": "Panamá",
          "name:af": "Panama",
          "name:am": "ፓናማ",
          "name:an": "Panamá",
          "name:ar": "بنما",
          "name:ay": "Panama",
          "name:az": "Panama",
          "name:ba": "Панама",
          "name:be": "Панама",
          "name:bg": "Панама",
          "name:bm": "Panama",
          "name:bn": "পানামা",
          "name:bo": "པ་ན་མ།",
          "name:br": "Panamá",
          "name:bs": "Panama",
          "name:ca": "Panamà",
          "name:ce": "Панама",
          "name:cs": "Panama",
          "name:cv": "Панама",
          "name:cy": "Panama",
          "name:da": "Panama",
          "name:de": "Panama",
          "name:dv": "ޕެނަމާ",
          "name:ee": "Panama",
          "name:el": "Παναμάς",
          "name:en": "Panama",
          "name:eo": "Panamo",
          "name:es": "Panamá",
          "name:et": "Panama",
          "name:eu": "Panama",
          "name:fa": "پاناما",
          "name:fi": "Panama",
          "name:fo": "Panama",
          "name:fr": "Panamá",
          "name:fy": "Panama",
          "name:ga": "Panama",
          "name:gd": "Panama",
          "name:gl": "Panamá",
          "name:gn": "Panama",
          "name:gu": "પનામા",
          "name:gv": "Yn Phanamaa",
          "name:he": "פנמה",
          "name:hi": "पनामा",
          "name:hr": "Panama",
          "name:ht": "Panama",
          "name:hu": "Panama",
          "name:hy": "Պանամա",
          "name:ia": "Panama",
          "name:id": "Panama",
          "name:ie": "Panamá",
          "name:io": "Panama",
          "name:is": "Panama",
          "name:it": "Panama",
          "name:ja": "パナマ",
          "name:jv": "Panama",
          "name:ka": "პანამა",
          "name:ki": "Panama",
          "name:kk": "Панама",
          "name:kn": "ಪನಾಮಾ",
          "name:ko": "파나마",
          "name:ku": "Panama",
          "name:kw": "Panama",
          "name:la": "Panama",
          "name:lb": "Panama",
          "name:li": "Panama",
          "name:ln": "Panama",
          "name:lt": "Panama",
          "name:lv": "Panama",
          "name:mg": "Panama",
          "name:mi": "Panama",
          "name:mk": "Панама",
          "name:ml": "പനാമ",
          "name:mn": "Панам",
          "name:mr": "पनामा",
          "name:ms": "Panama",
          "name:mt": "Panama",
          "name:my": "ပနားမားနိုင်ငံ",
          "name:ne": "पानामा",
          "name:nl": "Panama",
          "name:nn": "Panama",
          "name:no": "Panama",
          "name:oc": "Panamà",
          "name:or": "ପାନାମା",
          "name:os": "Панамæ",
          "name:pa": "ਪਨਾਮਾ",
          "name:pl": "Panama",
          "name:ps": "پاناما",
          "name:pt": "Panamá",
          "name:qu": "Panama",
          "name:ro": "Panama",
          "name:ru": "Панама",
          "name:rw": "Panama",
          "name:sa": "पानामा",
          "name:se": "Panama",
          "name:sh": "Panama",
          "name:sk": "Panama",
          "name:sl": "Panama",
          "name:so": "Banama",
          "name:sq": "Panamaja",
          "name:sr": "Панама",
          "name:ss": "IPhanama",
          "name:su": "Panama",
          "name:sv": "Panama",
          "name:sw": "Panama",
          "name:ta": "பனாமா",
          "name:te": "పనామా",
          "name:tg": "Панама",
          "name:th": "ประเทศปานามา",
          "name:tl": "Panama",
          "name:tr": "Panama",
          "name:tt": "Панама",
          "name:ug": "پاناما",
          "name:uk": "Панама",
          "name:ur": "پاناما",
          "name:uz": "Panama",
          "name:vi": "Panama",
          "name:vo": "Panamän",
          "name:wo": "Panamaa",
          "name:yi": "פאנאמא",
          "name:yo": "Panamá",
          "name:zh": "巴拿马 / 巴拿馬",
          "name:zu": "Panama",
          "boundary": "administrative",
          "name:ace": "Panama",
          "name:als": "Panama",
          "name:arz": "باناما",
          "name:ast": "Panamá",
          "name:bcl": "Panama",
          "name:bpy": "পানামা",
          "name:bxr": "Панама",
          "name:ceb": "Panama",
          "name:ckb": "پەنەما",
          "name:crh": "Panama",
          "name:diq": "Panama",
          "name:dsb": "Panama",
          "name:ext": "Panamá",
          "name:frp": "Panama",
          "name:frr": "Panama",
          "name:gag": "Panama",
          "name:hak": "Pâ-nâ-mâ",
          "name:haw": "Panamā",
          "name:hif": "Panama",
          "name:hsb": "Panama",
          "name:ilo": "Panama",
          "name:jbo": "panamas",
          "name:lad": "Panama",
          "name:lij": "Panamá",
          "name:lmo": "Panama",
          "name:lzh": "巴拿馬",
          "name:mhr": "Панаме",
          "name:mrj": "Панама",
          "name:nah": "Panama",
          "name:nan": "Panamá",
          "name:nds": "Panama",
          "name:new": "पनामा",
          "name:nov": "Panama",
          "name:nrm": "Panama",
          "name:pam": "Panama",
          "name:pap": "Panama",
          "name:pih": "Panama",
          "name:pms": "Panamà",
          "name:pnb": "پانامہ",
          "name:sah": "Панама",
          "name:scn": "Panamà",
          "name:sco": "Panama",
          "name:smn": "Panama",
          "name:sms": "Panama",
          "name:stq": "Panama",
          "name:szl": "Panama",
          "name:tpi": "Panama",
          "name:tzl": "Panamà",
          "name:vec": "Pànama",
          "name:vro": "Panama",
          "name:war": "Panamá",
          "name:wuu": "巴拿马",
          "name:xal": "Панамудин Орн",
          "name:yue": "巴拿馬",
          "timezone": "America/Panama",
          "way_area": "13.6506",
          "wikidata": "Q804",
          "ISO3166-1": "PA",
          "wikipedia": "es:Panamá",
          "admin_level": "2",
          "border_type": "nation",
          "name:simple": "Panama",
          "name:bat-smg": "Panama",
          "name:zh-Hans": "巴拿马",
          "name:zh-Hant": "巴拿馬",
          "name:be-tarask": "Панама",
          "ISO3166-1:alpha2": "PA",
          "ISO3166-1:alpha3": "PAN",
          "default_language": "es",
          "official_name:cs": "Panamská republika",
          "official_name:en": "Republic of Panama",
          "official_name:es": "República de Panamá",
          "official_name:ru": "Республика Панама",
          "ISO3166-1:numeric": "591"
        }
      },
      "geometry": {
        "type": "Polygon",
        "coordinates": [
          [
            [
              -80,
              7.006893774626792
            ],
            [
              -79,
              7.012110814036423
            ],
            [
              -79,
              8
            ],
            [
              -80,
              8
            ],
            [
              -80,
              7.006893774626792
            ]
          ]
        ]
      }
    }
  ]
}