{
  "type": "FeatureCollection",
  "features": [
    {
      "type": "Feature",
      "properties": {
        "osm_id": -555717,
        "boundary": "administrative",
        "admin_level": 2,
        "parents": null,
        "name": "Trinidad and Tobago",
        "local_name": "Trinidad and Tobago",
        "name_en": "Trinidad and Tobago",
        "all_tags": {
          "flag": "https://upload.wikimedia.org/wikipedia/commons/6/64/Flag_of_Trinidad_and_Tobago.svg",
          "name": "Trinidad and Tobago",
          "name:ar": "ترينيداد وتوباغو",
          "name:be": "Трынідад і Табага",
          "name:br": "Trinidad-ha-Tobago",
          "name:cs": "Trinidad a Tobago",
          "name:de": "Trinidad und Tobago",
          "name:en": "Trinidad and Tobago",
          "name:eo": "Trinidado kaj Tobago",
          "name:es": "Trinidad y Tobago",
          "name:fr": "Trinité-et-Tobago",
          "name:fy": "Trinidad en Tobago",
          "name:gn": "Trinidad ha Továgo",
          "name:hr": "Trinidad i Tobago",
          "name:it": "Trinidad e Tobago",
          "name:ja": "トリニダード・トバゴ",
          "name:ko": "트리니다드 토바고",
          "name:lt": "Trinidadas ir Tobagas",
          "name:nl": "Trinidad en Tobago",
          "name:no": "Trinidad og Tobago",
          "name:pa": "ਤ੍ਰਿਨੀਦਾਦ ਅਤੇ ਤੋਬਾਗੋ",
          "name:pl": "Trynidad i Tobago",
          "name:pt": "Trindade e Tobago",
          "name:ru": "Тринидад и Тобаго",
          "name:se": "Trinidad ja Tobago",
          "name:sk": "Trinidad a Tobago",
          "name:sl": "Trinidad in Tobago",
          "name:sr": "Тринидад и Тобаго",
          "name:sv": "Trinidad och Tobago",
          "name:ta": "டிரினிடாட் மற்றும் டொபாகோ",
          "name:tr": "Trinidad ve Tobago",
          "name:ug": "ترىنىداد ۋە توباگو",
          "name:uk": "Тринідад і Тобаго",
          "name:ur": "ٹرینیڈاڈ و ٹوباگو",
          "name:vo": "Trinidadeän e Tobageäns",
          "name:zh": "特立尼达和多巴哥 / 千里達及托巴哥",
          "boundary": "administrative",
          "name:ary": "طرينيضاض ؤ طوباݣو",
          "name:azb": "ترینیداد و توباقو",
          "name:grc": "Τριὰς καὶ Ταβάκον",
          "name:smn": "Trinidad já Tobago",
          "name:sms": "Trinidad da Tobago",
          "name:tzl": "Þriadia-es-Tobago",
          "timezone": "America/Port_of_Spain",
          "way_area": "1.79095",
          "wikidata": "Q754",
          "ISO3166-1": "TT",
          "wikipedia": "en:Trinidad and Tobago",
          "admin_level": "2",
          "driving_side": "left",
          "name:zh-Hans": "特立尼达和多巴哥",
          "name:zh-Hant": "千里達及托巴哥",
          "wikipedia:es": "Trinidad y Tobago",
          "name:be-tarask": "Трынідад і Табага",
          "ISO3166-1:alpha2": "TT",
          "ISO3166-1:alpha3": "TTO",
          "default_language": "en",
          "official_name:ar": "جمهورية ترينيداد وتوباغو",
          "official_name:be": "Рэспубліка Трынідад і Табага",
          "official_name:cs": "Republika Trinidad a Tobago",
          "official_name:de": "Republik Trinidad und Tobago",
          "official_name:en": "Republic of Trinidad and Tobago",
          "official_name:es": "República de Trinidad y Tobago",
          "official_name:fr": "République de Trinité-et-Tobago",
          "official_name:gn": "Tavakuairetã Trinidad ha Továgo",
          "official_name:lt": "Trinidado ir Tobago Respublika",
          "official_name:pt": "República de Trindade e Tobago",
          "official_name:ru": "Республика Тринидад и Тобаго",
          "ISO3166-1:numeric": "780",
          "official_name:grc": "Πολιτεία τῆς Τριάδος καὶ Ταβάκου"
        }
      },
      "geometry": {
        "type": "Polygon",
        "coordinates": [
          [
            [
              -61,
              10
            ],
            [
              -60.835771101314165,
              10
            ],
            [
              -60.8331385,
              10.0023791
            ],
            [
              -60.8115608,
              10.0301006
            ],
            [
              -60.7951639,
              10.0611132
            ],
            [
              -60.39763297670632,
              11
            ],
            [
              -61,
              11
            ],
            [
              -61,
              10
            ]
          ]
        ]
      }
    }
  ]
}