{
  "type": "FeatureCollection",
  "features": [
    {
      "type": "Feature",
      "properties": {
        "osm_id": -80500,
        "boundary": "administrative",
        "admin_level": 2,
        "parents": null,
        "name": "Australia",
        "local_name": "Australia",
        "name_en": "Australia",
        "all_tags": {
          "flag": "http://upload.wikimedia.org/wikipedia/commons/b/b9/Flag_of_Australia.svg",
          "name": "Australia",
          "name:ab": "Австралиа",
          "name:af": "Australië",
          "name:am": "አውስትራልያ",
          "name:an": "Australia",
          "name:ar": "أستراليا",
          "name:as": "অষ্ট্ৰেলিয়া",
          "name:ay": "Australla",
          "name:az": "Avstraliya",
          "name:ba": "Австралия",
          "name:be": "Аўстра́лія",
          "name:bg": "Австралия",
          "name:bh": "ऑस्ट्रेलिया",
          "name:bi": "Ostrelia",
          "name:bm": "Ostralia",
          "name:bn": "অস্ট্রেলিয়া",
          "name:bo": "ཨོ་སེ་ཐེ་ལི་ཡ།",
          "name:br": "Aostralia",
          "name:bs": "Australija",
          "name:ca": "Austràlia",
          "name:ce": "Австра́ли",
          "name:co": "Australia",
          "name:cs": "Austrálie",
          "name:cu": "Аѵстралїꙗ",
          "name:cv": "Австрали",
          "name:cy": "Awstralia",
          "name:da": "Australien",
          "name:de": "Australien",
          "name:dv": "އޮސްޓަރުލިޔާ",
          "name:dz": "ཨས་ཊེཡེ་ལི་ཡ",
          "name:ee": "Australia",
          "name:el": "Αυστραλία",
          "name:en": "Australia",
          "name:eo": "Aŭstralio",
          "name:es": "Australia",
          "name:et": "Austraalia",
          "name:eu": "Australia",
          "name:fa": "استرالیا",
          "name:fi": "Australia",
          "name:fo": "Avstralia",
          "name:fr": "Australie",
          "name:fy": "Austraalje",
          "name:ga": "Astráil",
          "name:gd": "Astràilia",
          "name:gl": "Australia",
          "name:gn": "Autaralia",
          "name:gu": "ઑસ્ટ્રેલિયા",
          "name:gv": "Austrail",
          "name:ha": "Asturaliya",
          "name:he": "אוסטרליה",
          "name:hi": "ऑस्ट्रेलिया",
          "name:hr": "Australija",
          "name:ht": "Ostrali",
          "name:hu": "Ausztrália",
          "name:hy": "Ավստրալիա",
          "name:ia": "Australia",
          "name:id": "Australia",
          "name:ie": "Australia",
          "name:ig": "Ostraliya",
          "name:io": "Australia",
          "name:is": "Ástralía",
          "name:it": "Australia",
          "name:iu": "ᐊᔅᑦᕌᓕᐊ",
          "name:ja": "オーストラリア",
          "name:jv": "Ostrali",
          "name:ka": "ავსტრალია",
          "name:kg": "Australia",
          "name:ki": "Australia",
          "name:kk": "Аустралия",
          "name:kl": "Australia",
          "name:km": "អូស្ត្រាលី",
          "name:kn": "ಆಸ್ಟ್ರೇಲಿಯ",
          "name:ko": "오스트레일리아",
          "name:ku": "Awistralya",
          "name:kv": "Австралия",
          "name:kw": "Ostrali",
          "name:ky": "Австралия",
          "name:la": "Australia",
          "name:lb": "Australien",
          "name:li": "Australië",
          "name:lo": "ປະເທດອົດສະຕາລີ",
          "name:lt": "Australija",
          "name:lv": "Austrālija",
          "name:mg": "Aostralia",
          "name:mi": "Ao Moemoeā",
          "name:mk": "Австралија",
          "name:ml": "ഓസ്ട്രേലിയ",
          "name:mn": "Австрали",
          "name:mr": "ऑस्ट्रेलिया",
          "name:ms": "Australia",
          "name:mt": "Awstralja",
          "name:my": "ဩစတြေးလျနိုင်ငံ",
          "name:na": "Otereiriya",
          "name:ne": "अष्ट्रेलिया",
          "name:nl": "Australië",
          "name:nn": "Australia",
          "name:no": "Australia",
          "name:nv": "Nahatʼeʼiitsoh Bikéyah",
          "name:oc": "Austràlia",
          "name:om": "Awustireliyaa",
          "name:or": "ଅଷ୍ଟ୍ରେଲିଆ",
          "name:os": "Австрали",
          "name:pa": "ਆਸਟ੍ਰੇਲੀਆ",
          "name:pi": "आस्ट्रेलिया",
          "name:pl": "Australia",
          "name:ps": "آسټراليا",
          "name:pt": "Austrália",
          "name:qu": "Awstralya",
          "name:rm": "Australia",
          "name:rn": "Australiya",
          "name:ro": "Australia",
          "name:ru": "Австралия",
          "name:rw": "Ositaraliya",
          "name:sa": "आस्ट्रेलिया",
          "name:sc": "Austràlia",
          "name:sd": "آسٽريليا",
          "name:se": "Australia",
          "name:sg": "Ostralïi",
          "name:sh": "Australija",
          "name:si": "ඕස්ට්‍රේලියාව",
          "name:sk": "Austrália",
          "name:sl": "Avstralija",
          "name:sm": "Ausetalia",
          "name:sn": "Australia",
          "name:so": "Australia",
          "name:sq": "Australia",
          "name:sr": "Аустралија",
          "name:su": "Australia",
          "name:sv": "Australien",
          "name:sw": "Australia",
          "name:ta": "ஆஸ்திரேலியா",
          "name:te": "ఆస్ట్రేలియా",
          "name:tg": "Австралия",
          "name:th": "ออสเตรเลีย",
          "name:ti": "ኣውስትራሊያ",
          "name:tk": "Awstraliýa",
          "name:tl": "Australya",
          "name:tr": "Avustralya",
          "name:tt": "Австралия",
          "name:tw": "Australia",
          "name:ty": "Autereraria",
          "name:ug": "ئاۋستىرالىيە",
          "name:uk": "Австра́лія",
          "name:ur": "آسٹریلیا",
          "name:uz": "Avstraliya",
          "name:vi": "Úc",
          "name:vo": "Laustralän",
          "name:wa": "Ostraleye",
          "name:wo": "Óstraali",
          "name:yi": "אויסטראַליע",
          "name:yo": "Austrálíà",
          "name:za": "Audaihleihya",
          "name:zh": "澳大利亚 / 澳洲",
          "name:zu": "I-Ostreliya",
          "website": "https://australia.gov.au",
          "boundary": "administrative",
          "int_name": "Australia",
          "name:ace": "Australia",
          "name:ady": "Аустралие",
          "name:als": "Australie",
          "name:ang": "Australia",
          "name:arc": "ܐܘܣܛܪܠܝܐ",
          "name:arz": "اوستراليا",
          "name:ast": "Australia",
          "name:azb": "استرالیا",
          "name:bar": "Australien",
          "name:bcl": "Australya",
          "name:bjn": "Australia",
          "name:bpy": "অস্ট্রেলিয়া",
          "name:bxr": "Австрали",
          "name:cdo": "Ó̤-ciŭ",
          "name:ceb": "Awstralya",
          "name:chr": "ᏒᎳᏗᏝ",
          "name:ckb": "ئوسترالیا",
          "name:crh": "Avstraliya",
          "name:diq": "Awıstralya",
          "name:dsb": "Awstralska",
          "name:dty": "अस्ट्रेलिया",
          "name:eml": "Austràglia",
          "name:ext": "Austrália",
          "name:frp": "Ôstralie",
          "name:frr": "Austraalien",
          "name:fur": "Australie",
          "name:gag": "Avstraliya",
          "name:gan": "澳大利亞",
          "name:gom": "ऑस्ट्रेलिया",
          "name:hak": "Àu-thai-li-â",
          "name:haw": "‘Aukekulelia",
          "name:hif": "Australia",
          "name:hsb": "Awstralska",
          "name:ilo": "Australia",
          "name:jam": "Aschrielia",
          "name:jbo": "sralygu'e",
          "name:kaa": "Avstraliya",
          "name:kab": "Usṭralya",
          "name:kbd": "Аустралиэ",
          "name:kbp": "Ositraalii",
          "name:krc": "Австралия",
          "name:ksh": "Australie",
          "name:lad": "Ostralya",
          "name:lez": "Австралия",
          "name:lij": "Australia",
          "name:lmo": "Aüstralia",
          "name:ltg": "Australeja",
          "name:lzh": "澳大利亞",
          "name:mai": "अस्ट्रेलिया",
          "name:mdf": "Австралие",
          "name:mhr": "Австралий",
          "name:min": "Australia",
          "name:mrj": "Австрали",
          "name:mwl": "Oustrália",
          "name:mzn": "استرالیا",
          "name:nah": "Australia",
          "name:nan": "Ò-chiu",
          "name:nap": "Australia",
          "name:nds": "Australien",
          "name:new": "अस्ट्रेलिया",
          "name:nov": "Australia",
          "name:nrm": "Australie",
          "name:nso": "Australia",
          "name:olo": "Avstrualii",
          "name:pam": "Australia",
          "name:pap": "Australia",
          "name:pcd": "Australie",
          "name:pdc": "Australie",
          "name:pih": "Ostrielya",
          "name:pms": "Australia",
          "name:pnb": "آسٹریلیا",
          "name:pnt": "Αυστραλία",
          "name:rue": "Австралія",
          "name:sah": "Аустралиа",
          "name:scn": "Australia",
          "name:sco": "Australie",
          "name:smn": "Australia",
          "name:sms": "Australia",
          "name:stq": "Australien",
          "name:szl": "Australijŏ",
          "name:tcy": "ಆಸ್ಟ್ರೇಲಿಯಾ",
          "name:tet": "Austrália",
          "name:tpi": "Ostrelia",
          "name:tum": "Australia",
          "name:tyv": "Австралия",
          "name:tzl": "Australia",
          "name:vec": "Austrałia",
          "name:vep": "Avstralii",
          "name:vls": "Australië",
          "name:vro": "Austraalia",
          "name:war": "Australya",
          "name:wuu": "澳大利亚",
          "name:xal": "Австралмудин Ниицән",
          "name:xmf": "ავსტრალია",
          "name:yue": "澳洲",
          "name:zea": "Australië",
          "way_area": "779.78",
          "wikidata": "Q408",
          "ISO3166-1": "AU",
          "wikipedia": "en:Australia",
          "population": "26473055",
          "admin_level": "2",
          "alt_name:af": "Gemenebes van Australië",
          "alt_name:ca": "Mancomunitat d'Austràlia",
          "alt_name:gn": "Auterália",
          "alt_name:mi": "Whenua Moemoeā",
          "alt_name:nv": "Bichʼáh Yiisdiisí Bikéyah",
          "alt_name:rw": "Australiya",
          "alt_name:sk": "Austrálske spoločenstvo",
          "alt_name:sv": "Samväldet Australien",
          "alt_name:ta": "அவுஸ்திரேலியா",
          "alt_name:zu": "I-Australiya",
          "name:nds-nl": "Australië",
          "name:simple": "Australia",
          "alt_name:arc": "ܐܘܣܬܪܠܝܐ",
          "alt_name:chr": "ᎡᎳᏗᏜ",
          "alt_name:hak": "Au-chû",
          "alt_name:kab": "Ostṛalya",
          "alt_name:war": "Australia",
          "capital_city": "Canberra",
          "driving_side": "left",
          "name:bat-smg": "Australėjė",
          "name:cbk-zam": "Australia",
          "name:zh-Hans": "澳大利亚",
          "name:zh-Hant": "澳洲",
          "name:roa-tara": "Australie",
          "official_name": "Commonwealth of Australia",
          "name:be-tarask": "Аўстра́лія",
          "population:date": "2023-03-31",
          "website:tourism": "https://www.australia.com",
          "ISO3166-1:alpha2": "AU",
          "ISO3166-1:alpha3": "AUS",
          "default_language": "en",
          "official_name:af": "Australiese Gemenebes",
          "official_name:am": "የአውስትራልያ ሉዓላዊ መንግስት",
          "official_name:an": "Mancomunidat d'Australia",
          "official_name:ar": "كومنولث أستراليا",
          "official_name:as": "কমনৱেল্‌থ অব অষ্ট্ৰেলিয়া",
          "official_name:ay": "Mancomunidad de Australia",
          "official_name:az": "Avstraliya İttifaqı",
          "official_name:be": "Аўстралі́йскі Саю́з",
          "official_name:bg": "Австралийският съюз",
          "official_name:bh": "ऑस्ट्रेलियाई राष्ट्रमंडल",
          "official_name:bi": "Komenwelth blong Ostrelia",
          "official_name:bn": "কমনওয়েলথ অব অস্ট্রেলিয়া",
          "official_name:br": "Kenglad Aostralia",
          "official_name:ca": "Commonwealth d'Austràlia",
          "official_name:cs": "Australské společenství",
          "official_name:cu": "Аѵстралі́искꙑи Съвѫ́ꙁъ",
          "official_name:cv": "Австрали Пĕрлешĕвĕ",
          "official_name:cy": "Cymanwlad Awstralia",
          "official_name:da": "Forbundsstaten Australien",
          "official_name:de": "Australischer Bund",
          "official_name:el": "Κοινοπολιτεία της Αυστραλίας",
          "official_name:en": "Commonwealth of Australia",
          "official_name:eo": "Komunejo de Aŭstralio",
          "official_name:es": "Mancomunidad de Australia",
          "official_name:et": "Austraalia Ühendus",
          "official_name:eu": "Australiako Commonwealtha",
          "official_name:fa": "کشور مشترک‌المنافع استرالیا",
          "official_name:fi": "Australian liittovaltio",
          "official_name:fo": "Samveldið Avstralia",
          "official_name:fr": "Commonwealth d'Australie",
          "official_name:fy": "Mienebêst Austraalje",
          "official_name:ga": "Comhlathas na hAstráile",
          "official_name:gl": "Mancomunidade de Australia",
          "official_name:gn": "Tetã Autaralia",
          "official_name:gu": "કોમનવેલ્થ ઓફ ઑસ્ટ્રેલિયા",
          "official_name:gv": "Co-unnaneys ny h-Austrail",
          "official_name:ha": "Commonwealh na Asturaliya",
          "official_name:he": "קהיליית אוסטרליה",
          "official_name:hi": "ऑस्ट्रेलियाई राष्ट्रमंडल",
          "official_name:hu": "Ausztrál Államszövetség",
          "official_name:hy": "Ավստրալական Միություն",
          "official_name:id": "Persemakmuran Australia",
          "official_name:ie": "Comunalité de Australia",
          "official_name:is": "Samveldið Ástralía",
          "official_name:it": "Commonwealth dell'Australia",
          "official_name:ja": "オーストラリア連邦",
          "official_name:ka": "ავსტრალიის კავშირი",
          "official_name:kk": "Аустралия Одағы",
          "official_name:kl": "Kunngeqarfik Australia",
          "official_name:km": "ចក្រភពអូស្រ្តាលី",
          "official_name:ko": "오스트레일리아 연방",
          "official_name:kv": "Австралияса Öтувъябур",
          "official_name:ky": "Австралиялык Биримдик",
          "official_name:lb": "Commonwealth of Australia",
          "official_name:lo": "ເຄືອລັດອົດສະຕະຣາລີ",
          "official_name:lt": "Australijos Sandrauga",
          "official_name:lv": "Austrālijas Savienība",
          "official_name:mg": "Commonwealth an'i Aostralia",
          "official_name:mi": "Whakaminenga o Ahitereiria",
          "official_name:mk": "Државна заедница Австралија",
          "official_name:ml": "കോമൺവെൽത്ത് ഓഫ് ഓസ്ട്രേലിയ",
          "official_name:mn": "Үндэстнүүдийн холбооны Австрали улс",
          "official_name:mr": "ऑस्ट्रेलियाचे राष्ट्रकुल",
          "official_name:ms": "Komanwel Australia",
          "official_name:mt": "Commonwealth tal-Awstralja",
          "official_name:my": "ဩစတြေးလျ ဓနသဟာယနိုင်ငံ",
          "official_name:ne": "अस्ट्रेलियाली राष्ट्रमंडल",
          "official_name:nl": "Gemenebest Australië",
          "official_name:oc": "Commonwealth d'Austràlia",
          "official_name:os": "Австралийы Цæдис",
          "official_name:pa": "ਕੌਮਨਵੈਲਥ ਔਵ ਔਸਟ੍ਰੇਲੀਆ",
          "official_name:pl": "Związek Australijski",
          "official_name:pt": "Comunidade da Austrália",
          "official_name:qu": "Awstralya Llaqta Tanta",
          "official_name:rm": "Communitad d'Australia",
          "official_name:ro": "Uniunea Australiei",
          "official_name:ru": "Австралийский Союз",
          "official_name:sc": "Commonwealth de Australia",
          "official_name:sd": "فيڊريشن آف آسٽريليا",
          "official_name:se": "Australia stáhtaidovttastupmi",
          "official_name:sh": "Commonwealth Australija",
          "official_name:si": "ඕස්ට්‍රේලියා පොදුරාජ්‍යමණ්ඩලීය රාජ්‍යය",
          "official_name:sk": "Austrálsky zväz",
          "official_name:sl": "Avstralska zveza",
          "official_name:sm": "Taupulega o Ausetalia",
          "official_name:sq": "Federata e Australisë",
          "official_name:sr": "Комонвелт Аустралија",
          "official_name:su": "Persemakmuran Australia",
          "official_name:sv": "Australiska statsförbundet",
          "official_name:sw": "Jumuiya ya Australia",
          "official_name:ta": "பொதுநலவாய ஆஸ்திரேலியா",
          "official_name:te": "కామన్వెల్త్ అఫ్ ఆస్ట్రేలియా",
          "official_name:th": "เครือรัฐออสเตรเลีย",
          "official_name:tk": "Awstraliýa Soýuzy",
          "official_name:tl": "Komonwelt ng Australia",
          "official_name:tr": "Avustralya Milletler Topluluğu",
          "official_name:tt": "Австралия Берлеге",
          "official_name:uk": "Австралі́йський Сою́з",
          "official_name:ur": "دولت مشترکہ آسٹریلیا",
          "official_name:uz": "Avstraliya Ittifoqi",
          "official_name:vi": "Thịnh vượng chung Úc",
          "official_name:yi": "קאמאנוועלט פון אויסטראליע",
          "official_name:yo": "Orílẹ̀-èdè Àjọni ilẹ̀ Austrálíà",
          "official_name:za": "Audaihleihya Lienzbangh",
          "official_name:zh": "澳大利亚联邦 / 澳大利亞聯邦",
          "official_name:zu": "lase-Ostreliya",
          "ISO3166-1:numeric": "036",
          "official_name:ace": "Аустралиэ Зэгуэт",
          "official_name:als": "Commonwealth von Australien",
          "official_name:ang": "Australie Cynewise",
          "official_name:arc": "ܗܘܦܪܟܝܐ ܕܐܘܣܛܪܠܝܐ",
          "official_name:azb": "اوستورالیا بیرلیگی",
          "official_name:bar": "Commonwealth vu Australien",
          "official_name:bjn": "Nagara Pasamakmuran Australia",
          "official_name:bpy": "কমনৱেলথ অস্ট্রেলিয়া",
          "official_name:bxr": "Австралиин Хамтын Нүхэрлэл",
          "official_name:cdo": "Ó̤-ciŭ Lièng-băng",
          "official_name:ceb": "Komonwelt sa Awstralya",
          "official_name:chr": "ᏂᎦᏓᎤᎾᏤᎵ ᎾᎿ ᎡᎳᏗᏜ",
          "official_name:ckb": "یەکیەتیی هاوقازانجی ئوسترالیا",
          "official_name:crh": "Avstraliya Birligi",
          "official_name:dsb": "Zjadnośeństwo Awstralskeje",
          "official_name:dty": "अस्ट्रेलियाली राष्ट्रमंडल",
          "official_name:ext": "Mancomuniá d'Austrália",
          "official_name:frr": "Commonwealth faan Austraalien",
          "official_name:fur": "Commonwealth of Australia",
          "official_name:gan": "澳大利亞聯邦",
          "official_name:hak": "Au-thai-li-â lièn-pâng",
          "official_name:hif": "Commonwealth of Australia",
          "official_name:ilo": "Mankomunidad iti Australia",
          "official_name:jam": "Kamanwelt a Aschrielia",
          "official_name:krc": "Австралия Бирлик",
          "official_name:lad": "Mankomunidad de Ostralia",
          "official_name:lez": "Австралиядин галкӀ",
          "official_name:ltg": "Australejis Sadraudzeiba",
          "official_name:lzh": "澳大利亞聯邦",
          "official_name:mai": "अस्ट्रेलियाली राष्ट्रमण्डल",
          "official_name:mhr": "Австралий Ушем",
          "official_name:min": "Nagara Persemakmuran Australia",
          "official_name:mwl": "Quemunidade de la Oustrália",
          "official_name:mzn": "استرالیای ِمشترک‌المنافع",
          "official_name:nah": "Cemāxcātlatquiyōtl Australia",
          "official_name:nan": "Ò-tāi-lī-a Liân-pang",
          "official_name:nap": "Commonwealth 'e ll'Australia",
          "official_name:pam": "Commonwealth ning Australia",
          "official_name:pap": "Commonwealth di Australia",
          "official_name:pcd": "Commonwealth d’Australie",
          "official_name:rue": "Австральскій Союз",
          "official_name:sah": "Аустралиа Доҕордоhуута",
          "official_name:scn": "Commonwealth of Australia",
          "official_name:sco": "Commonweel o Australie",
          "official_name:szl": "Ferajn Australijski",
          "official_name:tet": "Komunidade Austrália nian",
          "official_name:tyv": "Австралия Эвилели",
          "official_name:vec": "Comunità indipendente de ła Austrałia",
          "official_name:vep": "Avstralijan Ühtištuz",
          "official_name:vro": "Austraalia Ütisõs",
          "official_name:wuu": "澳大利亚联邦",
          "official_name:xal": "Австралмудин Ниицән",
          "official_name:xmf": "ავსტრალიაშ რსხუ",
          "official_name:yue": "澳大利亞聯邦",
          "official_name:nds-nl": "Gemenebest van Australië",
          "official_name:bat-smg": "Australijės Sondrauga",
          "official_name:zh-Hans": "澳大利亚联邦",
          "official_name:zh-Hant": "澳大利亞聯邦",
          "official_name:roa-tara": "Commonwealth de ll'Australie",
          "official_name:be-tarask": "Аўстралійскі Саюз"
        }
      },
      "geometry": {
        "type": "Polygon",
        "coordinates": [
          [
            [
              141.1660069,
              -15.9160995
            ],
            [
              141.1661114,
              -15.9264831
            ],
            [
              141.1665211,
              -15.9338576
            ],
            [
              141.1672107,
              -15.9412125
            ],
            [
              141.1681794,
              -15.9485379
            ],
            [
              141.1694383,
              -15.9560416
            ],
            [
              141.1709898,
              -15.9634938
            ],
            [
              141.1727981,
              -15.9708456
            ],
            [
              141.1748912,
              -15.9781264
            ],
            [
              141.1785582,
              -15.9888918
            ],
            [
              141.1811136,
              -15.9954994
            ],
            [
              141.1830431389292,
              -16
            ],
            [
              142,
              -16
            ],
            [
              142,
              -15
            ],
            [
              141.4273207856458,
              -15
            ],
            [
              141.4293252,
              -15.0052917
            ],
            [
              141.4321903,
              -15.012081
            ],
            [
              141.4280009,
              -15.0219022
            ],
            [
              141.4241274,
              -15.031908
            ],
            [
              141.4208069,
              -15.0421
            ],
            [
              141.4147348,
              -15.0487249
            ],
            [
              141.4098103,
              -15.0545556
            ],
            [
              141.402854,
              -15.0636281
            ],
            [
              141.3964339,
              -15.0730667
            ],
            [
              141.3905704,
              -15.0828413
            ],
            [
              141.3855778,
              -15.0921598
            ],
            [
              141.3810932,
              -15.1017191
            ],
            [
              141.3771287,
              -15.111493
            ],
            [
              141.3747802,
              -15.118115
            ],
            [
              141.3717227,
              -15.1278371
            ],
            [
              141.3699673,
              -15.1343965
            ],
            [
              141.3684406,
              -15.1410097
            ],
            [
              141.3671444,
              -15.1476692
            ],
            [
              141.3654951,
              -15.1585908
            ],
            [
              141.3643881,
              -15.1699768
            ],
            [
              141.3639682,
              -15.177531
            ],
            [
              141.3638415,
              -15.1850952
            ],
            [
              141.3641301,
              -15.1966316
            ],
            [
              141.3646488,
              -15.2041331
            ],
            [
              141.3654563,
              -15.2116105
            ],
            [
              141.3675484,
              -15.2254708
            ],
            [
              141.3631792,
              -15.2316174
            ],
            [
              141.3590478,
              -15.2379172
            ],
            [
              141.3533096,
              -15.2476354
            ],
            [
              141.3497978,
              -15.2542802
            ],
            [
              141.3465427,
              -15.2610471
            ],
            [
              141.3421511,
              -15.2714059
            ],
            [
              141.3395567,
              -15.2784369
            ],
            [
              141.3372332,
              -15.2855566
            ],
            [
              141.3342629,
              -15.2963809
            ],
            [
              141.3319186,
              -15.3073492
            ],
            [
              141.3302078,
              -15.3184271
            ],
            [
              141.3289759,
              -15.3292466
            ],
            [
              141.328309,
              -15.3403699
            ],
            [
              141.319767,
              -15.3607329
            ],
            [
              141.3154938,
              -15.3722798
            ],
            [
              141.3129966,
              -15.3784916
            ],
            [
              141.3084528,
              -15.38466
            ],
            [
              141.3041515,
              -15.3909901
            ],
            [
              141.2981683,
              -15.4007691
            ],
            [
              141.2927647,
              -15.4108608
            ],
            [
              141.2870852,
              -15.4232942
            ],
            [
              141.283084,
              -15.4336704
            ],
            [
              141.2796783,
              -15.4442449
            ],
            [
              141.277744,
              -15.4513887
            ],
            [
              141.2753531,
              -15.4622217
            ],
            [
              141.2704116,
              -15.4778084
            ],
            [
              141.2604903,
              -15.5128258
            ],
            [
              141.2583415,
              -15.5221787
            ],
            [
              141.2557935,
              -15.5315034
            ],
            [
              141.2535531,
              -15.5409554
            ],
            [
              141.2504177,
              -15.5510294
            ],
            [
              141.2459722,
              -15.5681491
            ],
            [
              141.2443759,
              -15.5752973
            ],
            [
              141.2414975,
              -15.5817029
            ],
            [
              141.2388506,
              -15.5882017
            ],
            [
              141.2353212,
              -15.5981073
            ],
            [
              141.2332664,
              -15.6048043
            ],
            [
              141.2313447,
              -15.6119076
            ],
            [
              141.2296921,
              -15.6190742
            ],
            [
              141.2283108,
              -15.6262945
            ],
            [
              141.2272027,
              -15.633559
            ],
            [
              141.2263694,
              -15.6408578
            ],
            [
              141.2258119,
              -15.6481813
            ],
            [
              141.225498,
              -15.6606955
            ],
            [
              141.224915,
              -15.6644838
            ],
            [
              141.2235272,
              -15.6711391
            ],
            [
              141.2223724,
              -15.677836
            ],
            [
              141.2192857,
              -15.6961135
            ],
            [
              141.2183848,
              -15.7027723
            ],
            [
              141.2166191,
              -15.7203277
            ],
            [
              141.2158483,
              -15.7324495
            ],
            [
              141.2148891,
              -15.7414306
            ],
            [
              141.2142965,
              -15.7513872
            ],
            [
              141.2141894,
              -15.759826
            ],
            [
              141.2138736,
              -15.7656306
            ],
            [
              141.2124339,
              -15.784647
            ],
            [
              141.2116752,
              -15.7913183
            ],
            [
              141.2058355,
              -15.7987357
            ],
            [
              141.1993061,
              -15.8079512
            ],
            [
              141.1933157,
              -15.8175038
            ],
            [
              141.189662,
              -15.8239714
            ],
            [
              141.1862558,
              -15.8305644
            ],
            [
              141.1816203,
              -15.8406697
            ],
            [
              141.1788519,
              -15.847537
            ],
            [
              141.1763457,
              -15.8544981
            ],
            [
              141.1730849,
              -15.8650948
            ],
            [
              141.1712478,
              -15.8722488
            ],
            [
              141.1696831,
              -15.8794632
            ],
            [
              141.1678513,
              -15.8903769
            ],
            [
              141.1669761,
              -15.8976997
            ],
            [
              141.1663791,
              -15.9050487
            ],
            [
              141.1660069,
              -15.9160995
            ]
          ]
        ]
      }
    }
  ]
}