{
  "type": "FeatureCollection",
  "features": [
    {
      "type": "Feature",
      "properties": {
        "osm_id": -304751,
        "boundary": "administrative",
        "admin_level": 2,
        "parents": null,
        "name": "Indonesia",
        "local_name": "Indonesia",
        "name_en": "Indonesia",
        "all_tags": {
          "ref": "ID",
          "flag": "http://upload.wikimedia.org/wikipedia/commons/9/9f/Flag_of_Indonesia.svg",
          "name": "Indonesia",
          "name:af": "Indonesië",
          "name:ak": "Indonesia",
          "name:am": "ኢንዶኔዥያ",
          "name:an": "Indonesia",
          "name:ar": "إندونيسيا",
          "name:ay": "Indunisya",
          "name:az": "İndoneziya",
          "name:ba": "Индонезия",
          "name:be": "Інданезія",
          "name:bg": "Индонезия",
          "name:bi": "Indonesia",
          "name:bn": "ইন্দোনেশিয়া",
          "name:bo": "ཨིན་རྡུ་ནི་ཤིས་ཡ།",
          "name:br": "Indonezia",
          "name:bs": "Indonezija",
          "name:ca": "Indonèsia",
          "name:ce": "Индонези",
          "name:ch": "Indonesia",
          "name:co": "Indunesia",
          "name:cs": "Indonésie",
          "name:cu": "Їндонисїꙗ",
          "name:cv": "Индонези",
          "name:cy": "Indonesia",
          "name:da": "Indonesien",
          "name:de": "Indonesien",
          "name:dv": "އިންޑޮނޭޝިޔާ",
          "name:el": "Ινδονησία",
          "name:en": "Indonesia",
          "name:eo": "Indonezio",
          "name:es": "Indonesia",
          "name:et": "Indoneesia",
          "name:eu": "Indonesia",
          "name:fa": "اندونزی",
          "name:fi": "Indonesia",
          "name:fo": "Indonesia",
          "name:fr": "Indonésie",
          "name:fy": "Yndoneezje",
          "name:ga": "An Indinéis",
          "name:gd": "An Innd-Innse",
          "name:gl": "Indonesia",
          "name:gn": "Indonesia",
          "name:gu": "ઈંડોનેશિયા",
          "name:gv": "Yn Indoneesh",
          "name:he": "אינדונזיה",
          "name:hi": "इंडोनेशिया",
          "name:hr": "Indonezija",
          "name:ht": "Endonezi",
          "name:hu": "Indonézia",
          "name:hy": "Ինդոնեզիա",
          "name:ia": "Indonesia",
          "name:id": "Indonesia",
          "name:ie": "Indonesia",
          "name:io": "Indonezia",
          "name:is": "Indónesía",
          "name:it": "Indonesia",
          "name:iu": "ᐄᓅᓯᐊ",
          "name:ja": "インドネシア",
          "name:jv": "Indonésia",
          "name:ka": "ინდონეზია",
          "name:ki": "Indonesia",
          "name:kk": "Индонезия",
          "name:kl": "Indonesia",
          "name:km": "ឥណ្ឌូនេស៊ី",
          "name:kn": "ಇಂಡೋನೇಷ್ಯಾ",
          "name:ko": "인도네시아",
          "name:ku": "Îndonezya",
          "name:kv": "Индонезия",
          "name:kw": "Indonesi",
          "name:ky": "Индонезия",
          "name:la": "Indonesia",
          "name:lb": "Indonesien",
          "name:li": "Indonesië",
          "name:ln": "Indonezí",
          "name:lt": "Indonezija",
          "name:lv": "Indonēzija",
          "name:mg": "Indonezia",
          "name:mi": "Initonīhia",
          "name:mk": "Индонезија",
          "name:ml": "ഇന്തോനേഷ്യ",
          "name:mn": "Индонез",
          "name:mr": "इंडोनेशिया",
          "name:ms": "Indonesia",
          "name:mt": "Indoneżja",
          "name:my": "အင်ဒိုနီးရှားနိုင်ငံ",
          "name:na": "Indonitsiya",
          "name:ne": "इण्डोनेशिया",
          "name:nl": "Indonesië",
          "name:nn": "Indonesia",
          "name:no": "Indonesia",
          "name:nv": "Indoníízha",
          "name:oc": "Indonesia",
          "name:om": "Indoneeshiyaa",
          "name:or": "ଇଣ୍ଡୋନେସିଆ",
          "name:os": "Индонези",
          "name:pa": "ਇੰਡੋਨੇਸ਼ੀਆ",
          "name:pl": "Indonezja",
          "name:ps": "اندونيزيا",
          "name:pt": "Indonésia",
          "name:qu": "Indunisya",
          "name:rm": "Indonesia",
          "name:ro": "Indonezia",
          "name:ru": "Индонезия",
          "name:rw": "Indonesiya",
          "name:sa": "इण्डोनेशिया",
          "name:se": "Indonesia",
          "name:sg": "Ênndonezïi",
          "name:sh": "Indonezija",
          "name:si": "ඉන්දුනීසියාව",
          "name:sk": "Indonézia",
          "name:sl": "Indonezija",
          "name:sm": "Indyunisia",
          "name:so": "Indunisiya",
          "name:sq": "Indonezia",
          "name:sr": "Индонезија",
          "name:ss": "INdonesiya",
          "name:su": "Indonésia",
          "name:sv": "Indonesien",
          "name:sw": "Indonesia",
          "name:ta": "இந்தோனேசியா",
          "name:te": "ఇండోనేషియా",
          "name:tg": "Индонезия",
          "name:th": "ประเทศอินโดนีเซีย",
          "name:tk": "Indoneziýa",
          "name:tl": "Indonesya",
          "name:tr": "Endonezya",
          "name:tt": "Индонезия",
          "name:ug": "ھىندونېزىيە",
          "name:uk": "Індонезія",
          "name:ur": "انڈونیشیا",
          "name:uz": "Indoneziya",
          "name:vi": "Indonesia",
          "name:vo": "Lindäna-Seänuäns",
          "name:wa": "Indonezeye",
          "name:wo": "Endoneesi",
          "name:yi": "אינדאנעזיע",
          "name:yo": "Indonésíà",
          "name:za": "Yindunizsihya",
          "name:zh": "印度尼西亚 / 印度尼西亞",
          "alt_name": "Negara Kesatuan Republik Indonesia",
          "boundary": "administrative",
          "name:als": "Indonesien",
          "name:ang": "Indonesia",
          "name:arz": "اندونيسيا",
          "name:ast": "Indonesia",
          "name:bar": "Indonesien",
          "name:bcl": "Indonesya",
          "name:bjn": "Indunisia",
          "name:bpy": "ইন্দোনেশিয়া",
          "name:bug": "Indonesia",
          "name:bxr": "Индонези",
          "name:ceb": "Indonesia",
          "name:chr": "ᎢᏂᏙᏂᏍᏯ",
          "name:ckb": "ئیندۆنیزیا",
          "name:crh": "İndoneziya",
          "name:csb": "Jindonezjô",
          "name:diq": "İndonezya",
          "name:dsb": "Indoneziska",
          "name:ext": "Indonésia",
          "name:frp": "Endonèsie",
          "name:frr": "Indoneesien",
          "name:fur": "Indonesie",
          "name:gag": "İndoneziya",
          "name:gan": "印度尼西亞",
          "name:hak": "Yin-thu-nì-sî-â",
          "name:haw": "‘Inidonesia",
          "name:hif": "Indonesia",
          "name:hsb": "Indoneska",
          "name:ilo": "Indonesia",
          "name:jbo": "bidgu'e",
          "name:kbd": "Индонезиэ",
          "name:lez": "Индонезия",
          "name:lij": "Indonexia",
          "name:lmo": "Indunesia",
          "name:lrc": "ٱندونزی",
          "name:lzh": "印度尼西亞",
          "name:mhr": "Индонезий",
          "name:min": "Indonesia",
          "name:mrj": "Индонези",
          "name:mzn": "اندونزی",
          "name:nah": "Indonesia",
          "name:nan": "Ìn-nî",
          "name:nap": "Indonesia",
          "name:nds": "Indonesien",
          "name:new": "इन्दोनेसिया",
          "name:nov": "Indonesia",
          "name:pag": "Indonesiya",
          "name:pam": "Indonesia",
          "name:pap": "Indonesia",
          "name:pih": "Endonesya",
          "name:pms": "Indonesia",
          "name:pnb": "انڈونیشیا",
          "name:rue": "Індонезія",
          "name:sah": "Индонезия",
          "name:scn": "Indunesia",
          "name:sco": "Indonesie",
          "name:smn": "Indonesia",
          "name:sms": "Indonesia",
          "name:srn": "Indonesikondre",
          "name:stq": "Indonesien",
          "name:szl": "Indōnezyjŏ",
          "name:tet": "Indonézia",
          "name:tok": "ma Intonesija",
          "name:tpi": "Indonisia",
          "name:tzl": "Indonesía",
          "name:udm": "Индонезия",
          "name:vec": "Indonexia",
          "name:vep": "Indonezii",
          "name:vro": "Indoneesiä",
          "name:war": "Indonesia",
          "name:wuu": "印度尼西亚",
          "name:xal": "Эндонесин Орн",
          "name:yue": "印尼",
          "name:zea": "Indonesië",
          "way_area": "428.9",
          "wikidata": "Q252",
          "ISO3166-1": "ID",
          "wikipedia": "id:Indonesia",
          "population": "270203917",
          "short_name": "NKRI",
          "admin_level": "2",
          "border_type": "nation",
          "name:nds-nl": "Indonezie",
          "name:simple": "Indonesia",
          "driving_side": "left",
          "name:bat-smg": "Induonezėjė",
          "name:cbk-zam": "Indonesia",
          "name:map-bms": "Indonesia",
          "name:zh-Hans": "印度尼西亚",
          "name:zh-Hant": "印度尼西亞",
          "name:roa-tara": "Indonesie",
          "official_name": "Republik Indonesia",
          "name:be-tarask": "Інданэзія",
          "ISO3166-1:alpha2": "ID",
          "ISO3166-1:alpha3": "IDN",
          "default_language": "id",
          "official_name:ar": "جمهورية إندونيسيا",
          "official_name:cs": "Indonéská republika",
          "official_name:de": "Republik Indonesien",
          "official_name:en": "Republic of Indonesia",
          "official_name:es": "República de Indonesia",
          "official_name:fa": "جمهوری اندونزی",
          "official_name:ku": "Komara Îndonezya",
          "official_name:ru": "Республика Индонезия",
          "official_name:ur": "جمہوریہ انڈونیشیا",
          "official_name:zh": "印度尼西亚共和国 / 印度尼西亞共和國",
          "ISO3166-1:numeric": "360",
          "official_name:bjn": "Ripublik Indunisia",
          "official_name:ckb": "کۆماری ئیندۆنیزیا",
          "official_name:zh-Hans": "印度尼西亚共和国",
          "official_name:zh-Hant": "印度尼西亞共和國",
          "population:census:2020": "https://en.wikipedia.org/wiki/Indonesia#cite_note-2020census-8"
        }
      },
      "geometry": {
        "type": "Polygon",
        "coordinates": [
          [
            [
              141,
              -9
            ],
            [
              141.01944437582816,
              -9
            ],
            [
              141.01944419751132,
              -8
            ],
            [
              141,
              -8
            ],
            [
              141,
              -9
            ]
          ]
        ]
      }
    },
    {
      "type": "Feature",
      "properties": {
        "osm_id": -307866,
        "boundary": "administrative",
        "admin_level": 2,
        "parents": null,
        "name": "Papua New Guinea",
        "local_name": "Papua Niugini",
        "name_en": "Papua New Guinea",
        "all_tags": {
          "flag": "http://upload.wikimedia.org/wikipedia/commons/e/e3/Flag_of_Papua_New_Guinea.svg",
          "name": "Papua Niugini",
          "name:af": "Papoea-Nieu-Guinee",
          "name:am": "ፓፑዋ ኒው ጊኒ",
          "name:an": "Papua y Nueva Guinea",
          "name:ar": "بابوا غينيا الجديدة",
          "name:az": "Papua-Yeni Qvineya",
          "name:ba": "Папуа — Яңы Гвинея",
          "name:be": "Папуа — Новая Гвінея",
          "name:bg": "Папуа Нова Гвинея",
          "name:bi": "Papua New Guinea",
          "name:bn": "পাপুয়া নিউ গিনি",
          "name:bo": "པ་པུ་འ་ནིའུ་གི་ནེ།",
          "name:br": "Papoua Ginea-Nevez",
          "name:bs": "Papua Nova Gvineja",
          "name:ca": "Papua Nova Guinea",
          "name:ce": "Папуа — Керла Гвине",
          "name:cs": "Papua Nová Guinea",
          "name:cu": "Папоуа · Нова Гвинєꙗ",
          "name:cy": "Papua Guinea Newydd",
          "name:da": "Papua Ny Guinea",
          "name:de": "Papua-Neuguinea",
          "name:dv": "ޕަޕުއާ ނިއު ގިނީ",
          "name:el": "Παπούα Νέα Γουινέα",
          "name:en": "Papua New Guinea",
          "name:eo": "Papuo-Nov-Gvineo",
          "name:es": "Papua-Nueva Guinea",
          "name:et": "Paapua Uus-Guinea",
          "name:eu": "Papua Ginea Berria",
          "name:fa": "پاپوآ گینه نو",
          "name:fi": "Papua-Uusi-Guinea",
          "name:fo": "Papua Nýguinea",
          "name:fr": "Papouasie-Nouvelle-Guinée",
          "name:fy": "Papoea Nij-Guineä",
          "name:ga": "Nua-Ghuine Phapua",
          "name:gd": "Gini Nuadh Phaputhach",
          "name:gl": "Papúa Nova Guinea",
          "name:gn": "Papúa Ginéa Pyahu",
          "name:gv": "Papooey Guinea Noa",
          "name:he": "פפואה גינאה החדשה",
          "name:hi": "पापुआ न्यू गिनी",
          "name:hr": "Papua Nova Gvineja",
          "name:ht": "Papwazi-Nouvèl-Gine",
          "name:hu": "Pápua Új-Guinea",
          "name:hy": "Պապուա Նոր Գվինեա",
          "name:ia": "Papua Nove Guinea",
          "name:id": "Papua Nugini",
          "name:io": "Papua-Nova-Guinea",
          "name:is": "Papúa Nýja-Gínea",
          "name:it": "Papua Nuova Guinea",
          "name:ja": "パプアニューギニア",
          "name:jv": "Papua Nugini",
          "name:ka": "პაპუა-ახალი გვინეა",
          "name:kk": "Папуа Жаңа Гвинея",
          "name:kn": "ಪಾಪುಅ ನ್ಯೂ ಗಿನಿ",
          "name:ko": "파푸아 뉴기니",
          "name:ku": "Papua Gîneya Nû",
          "name:ky": "Папуа-Жаӊы-Гвинея.",
          "name:la": "Papua Nova Guinea",
          "name:lb": "Papua-Neiguinea",
          "name:li": "Papoea-Nui-Guinea",
          "name:lt": "Papua Naujoji Gvinėja",
          "name:lv": "Papua-Jaungvineja",
          "name:mi": "Papua Nūkini",
          "name:mk": "Папуа Нова Гвинеја",
          "name:ml": "പാപുവ ന്യൂ ഗിനിയ",
          "name:mr": "पापुआ न्यू गिनी",
          "name:ms": "Papua New Guinea",
          "name:mt": "Papwa Gwinea l-Ġdida",
          "name:my": "ပါပူအာနယူးဂီနီနိုင်ငံ",
          "name:na": "Papua New Guinea",
          "name:nl": "Papoea-Nieuw-Guinea",
          "name:nn": "Papua Ny-Guinea",
          "name:no": "Papua Ny-Guinea",
          "name:nv": "Páápowa Bigíní Ániidí",
          "name:oc": "Papoa-Nòva Guinèa",
          "name:os": "Папуæ — Ног Гвиней",
          "name:pa": "ਪਾਪੂਆ ਨਿਊ ਗਿਨੀ",
          "name:pl": "Papua-Nowa Gwinea",
          "name:pt": "Papua-Nova Guiné",
          "name:qu": "Papwa Ñukini",
          "name:ro": "Papua Noua Guinee",
          "name:ru": "Папуа — Новая Гвинея",
          "name:rw": "Papuwa Nuveli Gineya",
          "name:sa": "पपुवा न्यू गिनी",
          "name:se": "Papua-Ođđa-Guinea",
          "name:sg": "Papû Finî Ginëe",
          "name:sh": "Papua Nova Gvineja",
          "name:sk": "Papua-Nová Guinea",
          "name:sl": "Papua Nova Gvineja",
          "name:sm": "Papua",
          "name:sq": "Papua Guinea e Re",
          "name:sr": "Папуа Нова Гвинеја",
          "name:su": "Papua Nugini",
          "name:sv": "Papua Nya Guinea",
          "name:sw": "Papua Guinea Mpya",
          "name:ta": "பப்புவா நியூ கினி",
          "name:th": "ประเทศปาปัวนิวกินี",
          "name:tl": "Papua Bagong Ginea",
          "name:tr": "Papua Yeni Gine",
          "name:tt": "Папуа — Яңа Гвинея",
          "name:ug": "پاپۇئا يېڭى گۋىنېيە",
          "name:uk": "Папуа Нова Ґвінея",
          "name:ur": "پاپوا نیو گنی",
          "name:uz": "Papua Yangi Gvineya",
          "name:vi": "Papua New Guinea",
          "name:vo": "Papuveän Nula-Gineyän",
          "name:wo": "Papuwaasi-Gine-Gu-Bees",
          "name:yo": "Papua Guinea Titun",
          "name:zh": "巴布亚新几内亚 / 巴布亞紐幾內亞 / 巴布亞新畿內亞",
          "boundary": "administrative",
          "int_name": "Papua New Guinea",
          "name:ace": "Papua New Guinea",
          "name:als": "Papua-Neuguinea",
          "name:arz": "بابوا نيو جينيا",
          "name:ast": "Papúa Nueva Guinea",
          "name:bar": "Papua-Neuguinea",
          "name:bcl": "Papua Bagong Guineya",
          "name:bpy": "পাপুয়া নিউগিনি",
          "name:bxr": "Папуа-Шэнэ Гвинея",
          "name:ceb": "Papua New Guinea",
          "name:ckb": "پاپوا گینێی نوێ",
          "name:crh": "Papua Yañı Gvineya",
          "name:diq": "Papua Gineya Newiye",
          "name:dsb": "Papua-Neuguinea",
          "name:ext": "Papua Nueva Guinea",
          "name:frp": "Papoasie-Novèla-Guinê",
          "name:hak": "Pâ-pu-â Néu-kí-nui-â",
          "name:hif": "Papua New Guinea",
          "name:hsb": "Papuwa-Nowa Gineja",
          "name:ilo": "Papua Baro a Guinea",
          "name:lij": "Papua Neuva Guinea",
          "name:lmo": "Papua Növa Guinea",
          "name:mrj": "Папуа — У Гвиней",
          "name:nah": "Papua Yancuīc Guinea",
          "name:nan": "Papua Sin Guinea",
          "name:nds": "Papua-Niegguinea",
          "name:pam": "Papua New Guinea",
          "name:pih": "Papua Nyuu Gini",
          "name:pms": "Papua Neuva Guinea",
          "name:pnb": "پاپوانیوگنی",
          "name:sah": "Папуа Саҥа Гуинея",
          "name:sco": "Papua New Guinea",
          "name:smn": "Papua-Uđđâ-Guinea",
          "name:sms": "Papua-Ođđ-Guinea",
          "name:szl": "Papua-Nowŏ Gwinyjŏ",
          "name:tpi": "Papua Niugini",
          "name:vec": "Papua Nova Guinea",
          "name:vro": "Paapua Vahtsõnõ Ginea",
          "name:war": "Papúa Nueva Guinea",
          "name:xal": "Папуһасин болн Шин Гвинемудин Орн",
          "name:yue": "巴布亞新畿內亞",
          "way_area": "97.9129",
          "wikidata": "Q691",
          "ISO3166-1": "PG",
          "wikipedia": "en:Papua New Guinea",
          "admin_level": "2",
          "alt_name:vi": "Papua Tân Guinea;Pa-pua Niu Ghi-nê",
          "border_type": "nation",
          "name:simple": "Papua New Guinea",
          "driving_side": "left",
          "name:bat-smg": "Papua Naujuojė Gvėniejė",
          "name:zh-Hans": "巴布亚新几内亚",
          "name:zh-Hant": "巴布亞紐幾內亞 / 巴布亞新畿內亞",
          "name:be-tarask": "Папуа-Новая Гвінэя",
          "name:zh-Hant-tw": "巴布亞紐幾內亞",
          "ISO3166-1:alpha2": "PG",
          "ISO3166-1:alpha3": "PNG",
          "official_name:cs": "Nezávislý stát Papua Nová Guinea",
          "official_name:de": "Unabhängiger Staat Papua-Neuguinea",
          "official_name:en": "Independent State of Papua New Guinea",
          "official_name:es": "Estado Independiente de Papúa Nueva Guinea",
          "official_name:gn": "Tetã Hekosãsóva Papúa Ginéa Pyahu",
          "official_name:pt": "Estado Independente da Papua-Nova Guiné",
          "official_name:ru": "Независимое Государство Папуа — Новая Гвинея",
          "official_name:uk": "Незалежна Держава Папуа Нова Ґвінея",
          "ISO3166-1:numeric": "598"
        }
      },
      "geometry": {
        "type": "Polygon",
        "coordinates": [
          [
            [
              141.01944419751132,
              -8
            ],
            [
              141.01944437582816,
              -9
            ],
            [
              142,
              -9
            ],
            [
              142,
              -8
            ],
            [
              141.01944419751132,
              -8
            ]
          ]
        ]
      }
    }
  ]
}