{
  "type": "FeatureCollection",
  "features": [
    {
      "type": "Feature",
      "properties": {
        "osm_id": -49915,
        "boundary": "administrative",
        "admin_level": 2,
        "parents": null,
        "name": "Vietnam",
        "local_name": "Việt Nam",
        "name_en": "Vietnam",
        "all_tags": {
          "flag": "http://upload.wikimedia.org/wikipedia/commons/2/21/Flag_of_Vietnam.svg",
          "name": "Việt Nam",
          "name:af": "Viëtnam",
          "name:ak": "Vietnam",
          "name:am": "ቬት ናም",
          "name:an": "Vietnam",
          "name:ar": "فيتنام",
          "name:av": "Вьетнам",
          "name:ay": "Vietnam",
          "name:az": "Vyetnam",
          "name:ba": "Вьетнам",
          "name:be": "В'етнам",
          "name:bg": "Виетнам",
          "name:bi": "Vietnam",
          "name:bm": "Vietnam",
          "name:bn": "ভিয়েতনাম",
          "name:bo": "ཝི་ཏི་ནམ།",
          "name:br": "Viêt Nam",
          "name:bs": "Vijetnam",
          "name:ca": "Vietnam",
          "name:ce": "Вьетнам",
          "name:ch": "Vietnam",
          "name:cs": "Vietnam",
          "name:cv": "Вьетнам",
          "name:cy": "Fietnam",
          "name:da": "Vietnam",
          "name:de": "Vietnam",
          "name:dv": "ވިއެޓުނާމު",
          "name:ee": "Vietnam",
          "name:el": "Βιετνάμ",
          "name:en": "Vietnam",
          "name:eo": "Vjetnamio",
          "name:es": "Vietnam",
          "name:et": "Vietnam",
          "name:eu": "Vietnam",
          "name:fa": "ویتنام",
          "name:ff": "Vietnam",
          "name:fi": "Vietnam",
          "name:fo": "Vjetnam",
          "name:fr": "Viêt Nam",
          "name:fy": "Fjetnam",
          "name:ga": "Vítneam",
          "name:gd": "Bhiet-Nam",
          "name:gl": "Vietnam",
          "name:gn": "Vietnam",
          "name:gu": "વિયેતનામ",
          "name:gv": "Yn Vietnam",
          "name:he": "וייטנאם",
          "name:hi": "वियतनाम",
          "name:hr": "Vijetnam",
          "name:ht": "Vyetnam",
          "name:hu": "Vietnám",
          "name:hy": "Վիետնամ",
          "name:ia": "Vietnam",
          "name:id": "Vietnam",
          "name:ie": "Viet-Nam",
          "name:ik": "Vietnam",
          "name:io": "Vietnam",
          "name:is": "Víetnam",
          "name:it": "Vietnam",
          "name:ja": "ベトナム",
          "name:jv": "Viètnam",
          "name:ka": "ვიეტნამი",
          "name:kg": "Vietnam",
          "name:ki": "Vietnam",
          "name:kk": "Вьетнам",
          "name:kl": "Vietnam",
          "name:km": "វៀតណាម",
          "name:kn": "ವಿಯೆಟ್ನಾಮ್",
          "name:ko": "베트남",
          "name:ku": "Viyetnam",
          "name:kv": "Вьетнам",
          "name:kw": "Vietnam",
          "name:ky": "Вьетнам",
          "name:la": "Vietnamia",
          "name:lb": "Vietnam",
          "name:li": "Vietnam",
          "name:ln": "Vietnami",
          "name:lo": "ປະເທດຫວຽດນາມ",
          "name:lt": "Vietnamas",
          "name:lv": "Vjetnama",
          "name:mg": "Vietnam",
          "name:mi": "Witināma",
          "name:mk": "Виетнам",
          "name:ml": "വിയറ്റ്നാം",
          "name:mn": "Вьетнам",
          "name:mr": "व्हियेतनाम",
          "name:ms": "Vietnam",
          "name:mt": "Vjetnam",
          "name:my": "ဗီယက်နမ်နိုင်ငံ",
          "name:na": "Bitinam",
          "name:ne": "भियतनाम",
          "name:nl": "Vietnam",
          "name:nn": "Vietnam",
          "name:no": "Vietnam",
          "name:nv": "Biʼednam",
          "name:oc": "Vietnam",
          "name:om": "Veetinaam",
          "name:or": "ଭିଏତନାମ",
          "name:os": "Вьетнам",
          "name:pa": "ਵੀਅਤਨਾਮ",
          "name:pl": "Wietnam",
          "name:pt": "Vietname",
          "name:qu": "Witnam",
          "name:rm": "Vietnam",
          "name:rn": "Vietnam",
          "name:ro": "Vietnam",
          "name:ru": "Вьетнам",
          "name:rw": "Viyetinamu",
          "name:sa": "चम्पादेश",
          "name:sc": "Vietnam",
          "name:se": "Vietnam",
          "name:sh": "Vijetnam",
          "name:si": "වියට්නාමය",
          "name:sk": "Vietnam",
          "name:sl": "Vietnam",
          "name:sm": "Vietnam",
          "name:sn": "Vietnam",
          "name:so": "Fiyetnam",
          "name:sq": "Vietnami",
          "name:sr": "Вијетнам",
          "name:ss": "IViyethina",
          "name:st": "Vietnam",
          "name:su": "Viétnam",
          "name:sv": "Vietnam",
          "name:sw": "Vietnam",
          "name:ta": "வியட்நாம்",
          "name:te": "వియత్నాం",
          "name:tg": "Ветнам",
          "name:th": "ประเทศเวียดนาม",
          "name:tk": "Wýetnam",
          "name:tl": "Vietnam",
          "name:tr": "Vietnam",
          "name:tt": "Вьетнам",
          "name:tw": "Vietnam",
          "name:ug": "ۋيېتنام",
          "name:uk": "В'єтнам",
          "name:ur": "ویتنام",
          "name:uz": "Vyetnam",
          "name:ve": "Viëtnam",
          "name:vi": "Việt Nam",
          "name:vo": "Vietnamän",
          "name:wa": "Vietnam",
          "name:wo": "Wiyetnaam",
          "name:yi": "וויעטנאם",
          "name:yo": "Fiẹtnám",
          "name:za": "Yiednamz",
          "name:zh": "越南",
          "name:zu": "IViyetnami",
          "boundary": "administrative",
          "int_name": "Viet Nam",
          "name:ace": "Viètnam",
          "name:als": "Vietnam",
          "name:ang": "Fietnam",
          "name:arz": "فييتنام",
          "name:ast": "Vietnam",
          "name:bar": "Vietnam",
          "name:bcl": "Bietnam",
          "name:bjn": "Vietnam",
          "name:bpy": "ভিয়েতনাম",
          "name:bug": "Vietnam",
          "name:bxr": "Вьетнам",
          "name:cdo": "Yue Nam",
          "name:ceb": "Vietnam",
          "name:chy": "Vietnam",
          "name:ckb": "ڤیێتنام",
          "name:crh": "Vyetnam",
          "name:csb": "Wietnam",
          "name:diq": "Vietnam",
          "name:dsb": "Vietnam",
          "name:eml": "Vietnam",
          "name:ext": "Vietnam",
          "name:frp": "Viêt Nam",
          "name:frr": "Vietnam",
          "name:fur": "Vietnam",
          "name:gag": "Vyetnam",
          "name:gan": "越南",
          "name:hak": "Ye̍t-nàm",
          "name:haw": "Wiekanama",
          "name:hif": "Vietnam",
          "name:hsb": "Vietnam",
          "name:ilo": "Bietnam",
          "name:jbo": "gugdrvietnama",
          "name:kaa": "Vietnam",
          "name:kab": "Vietnam",
          "name:kbd": "Виетнам",
          "name:krc": "Вьетнам",
          "name:ksh": "Vietnam",
          "name:lad": "Vietnam",
          "name:lez": "Вьетнам",
          "name:lij": "Vietnam",
          "name:lmo": "Vietnam",
          "name:ltg": "Vjetnams",
          "name:lzh": "越南",
          "name:mdf": "Виетнам",
          "name:mhr": "Вьетнам",
          "name:mtq": "Viêt Nam",
          "name:mwl": "Bietname",
          "name:mzn": "ویتنام",
          "name:nah": "Vietnam",
          "name:nan": "Oa̍t-lâm",
          "name:nap": "Vietnam",
          "name:nds": "Vietnam",
          "name:nov": "Vietnam",
          "name:nrm": "Vietnam",
          "name:nso": "Vietnam",
          "name:pag": "Vietnam",
          "name:pam": "Vietnam",
          "name:pap": "Vietnam",
          "name:pcd": "Vietnam",
          "name:pdc": "Vietnam",
          "name:pfl": "Vietnam",
          "name:pih": "Wiyetnaam",
          "name:pms": "Vietnam",
          "name:pnb": "ویتنام",
          "name:pnt": "Βιετνάμ",
          "name:rue": "Вєтнам",
          "name:sah": "Вьетнам",
          "name:scn": "Vietnam",
          "name:sco": "Vietnam",
          "name:smn": "Vietnam",
          "name:sms": "Vietnaam",
          "name:srn": "Vi-etnam",
          "name:stq": "Vietnam",
          "name:szl": "Wietnam",
          "name:tet": "Vietname",
          "name:tok": "ma Wije",
          "name:tpi": "Vietnam",
          "name:tum": "Vietnam",
          "name:tzl": "Vietnam",
          "name:udm": "Вьетнам",
          "name:vec": "Vietnam",
          "name:vep": "Vjetnam",
          "name:vls": "Vietnam",
          "name:vro": "Vietnam",
          "name:war": "Vietnam",
          "name:wuu": "越南",
          "name:xal": "Вьетдин Орн",
          "name:yue": "越南",
          "name:zea": "Vietnam",
          "way_area": "43.0053",
          "wikidata": "Q881",
          "ISO3166-1": "VN",
          "wikipedia": "vi:Việt Nam",
          "admin_level": "2",
          "alt_name:eo": "Vjetnamujo",
          "name:nds-nl": "Vietnam",
          "name:bat-smg": "Vietnams",
          "name:cbk-zam": "Vietnam",
          "name:map-bms": "Vietnam",
          "name:roa-rup": "Vietnam",
          "name:vi-Hani": "越南",
          "name:za-Hani": "越南",
          "name:zh-Hans": "越南",
          "name:zh-Hant": "越南",
          "name:roa-tara": "Vietnam",
          "official_name": "Cộng Hòa Xã Hội Chủ Nghĩa Việt Nam",
          "name:be-tarask": "Віетнам",
          "ISO3166-1:alpha2": "VN",
          "ISO3166-1:alpha3": "VNM",
          "default_language": "vi",
          "official_name:cs": "Vietnamská socialistická republika",
          "official_name:en": "Socialist Republic of Vietnam",
          "official_name:eo": "Socialista Respubliko de Vjetnamio",
          "official_name:es": "República Socialista de Vietnam",
          "official_name:ru": "Социалистическая Республика Вьетнам",
          "official_name:vi": "Cộng Hòa Xã Hội Chủ Nghĩa Việt Nam",
          "official_name:zh": "越南社会主义共和国 / 越南社會主義共和國",
          "ISO3166-1:numeric": "704",
          "official_name:vi-Hani": "共和社會主義越南",
          "official_name:zh-Hans": "越南社会主义共和国",
          "official_name:zh-Hant": "越南社會主義共和國"
        }
      },
      "geometry": {
        "type": "Polygon",
        "coordinates": [
          [
            [
              106,
              18
            ],
            [
              106.8640696347267,
              18
            ],
            [
              106.858723,
              18.0102915
            ],
            [
              106.8495488,
              18.0247507
            ],
            [
              106.839123,
              18.0384319
            ],
            [
              106.6726332,
              18.216763
            ],
            [
              106.528599,
              18.3148632
            ],
            [
              106.3400906,
              18.4225928
            ],
            [
              106.3274137,
              18.4389191
            ],
            [
              106.3155736,
              18.4515526
            ],
            [
              106.3035176,
              18.4624859
            ],
            [
              106.2907046,
              18.4723969
            ],
            [
              106.2771034,
              18.4813264
            ],
            [
              106.2619905,
              18.489629
            ],
            [
              106.2463044,
              18.4966696
            ],
            [
              106.2300515,
              18.5024568
            ],
            [
              106.2133434,
              18.506948
            ],
            [
              106.1961867,
              18.5101254
            ],
            [
              106.1790848,
              18.5119234
            ],
            [
              106.1553867,
              18.5120451
            ],
            [
              106.0813061,
              18.6223499
            ],
            [
              106.1011701,
              18.6362319
            ],
            [
              106.1147514,
              18.6481026
            ],
            [
              106.1268492,
              18.6605781
            ],
            [
              106.1380103,
              18.6742581
            ],
            [
              106.1478848,
              18.6887893
            ],
            [
              106.1564035,
              18.7040626
            ],
            [
              106.1635075,
              18.7199645
            ],
            [
              106.1691478,
              18.736378
            ],
            [
              106.1732858,
              18.7531834
            ],
            [
              106.1758933,
              18.7702587
            ],
            [
              106.1769523,
              18.7874806
            ],
            [
              106.1763504,
              18.8094988
            ],
            [
              106.1744334,
              18.8257478
            ],
            [
              106.1711326,
              18.841799
            ],
            [
              106.1664675,
              18.857548
            ],
            [
              106.1620806,
              18.8693638
            ],
            [
              106.1575202,
              18.8796895
            ],
            [
              106.1496931,
              18.8945149
            ],
            [
              106.140597,
              18.9086858
            ],
            [
              106.1302899,
              18.9221042
            ],
            [
              106.1118839,
              18.9414488
            ],
            [
              106.0985193,
              18.9530905
            ],
            [
              106.085183,
              18.9633369
            ],
            [
              106.0702237,
              18.9731188
            ],
            [
              106.0426471,
              18.9874862
            ],
            [
              106.0255823,
              18.9942594
            ],
            [
              106.0079466,
              18.9995872
            ],
            [
              106.00600315954142,
              19
            ],
            [
              106,
              19
            ],
            [
              106,
              18
            ]
          ]
        ]
      }
    }
  ]
}