{
  "type": "FeatureCollection",
  "features": [
    {
      "type": "Feature",
      "properties": {
        "osm_id": -62273,
        "boundary": "administrative",
        "admin_level": 2,
        "parents": null,
        "name": "Ireland",
        "local_name": "√âire / Ireland",
        "name_en": "Ireland",
        "all_tags": {
          "flag": "http://upload.wikimedia.org/wikipedia/commons/4/45/Flag_of_Ireland.svg",
          "name": "√âire / Ireland",
          "name:ab": "–ò—Ä–ª–∞–Ω–¥–∏–∞",
          "name:af": "Ierland",
          "name:ak": "Aereland",
          "name:am": "·ä†·ã®·à≠·àã·äï·ãµ",
          "name:an": "Irlanda",
          "name:ar": "ÿ£Ÿäÿ±ŸÑŸÜÿØÿß",
          "name:av": "–ò—Ä–ª–∞–Ω–¥–∏—è",
          "name:ay": "Irlandiya",
          "name:az": "ƒ∞rlandiya",
          "name:ba": "–ò—Ä–ª–∞–Ω–¥–∏—è",
          "name:be": "–Ü—Ä–ª–∞–Ω–¥—ã—è",
          "name:bg": "–ò—Ä–ª–∞–Ω–¥–∏—è",
          "name:bh": "‡§Ü‡§Ø‡§∞‡§≤‡•à‡§Ç‡§° ‡§∞‡§ø‡§™‡§¨‡•ç‡§≤‡§ø‡§ï",
          "name:bi": "Ireland",
          "name:bm": "Irilandi",
          "name:bn": "‡¶Ü‡¶Ø‡¶º‡¶æ‡¶∞‡¶≤‡ßç‡¶Ø‡¶æ‡¶®‡ßç‡¶°",
          "name:bo": "‡Ω®‡ºã‡Ω°‡Ω¢‡ºã‡Ω£‡Ωì‡Ωå‡ºç",
          "name:br": "Iwerzhon",
          "name:bs": "Irska",
          "name:ca": "Irlanda",
          "name:ce": "–ò—Ä–ª–∞–Ω–¥–∏",
          "name:ch": "Irlanda",
          "name:co": "Irlanda",
          "name:cs": "Irsko",
          "name:cu": "–Ñ–∏—Ä—å",
          "name:cv": "–ò—Ä–ª–∞–Ω–¥–∏ –†–µ—Å–ø—É–±–ª–∏–∫–∏",
          "name:cy": "Iwerddon",
          "name:da": "Irland",
          "name:de": "Irland",
          "name:dv": "ﬁáﬁ¶ﬁîﬁ¶ﬁçﬁ≠ﬁÇﬁ∞ﬁëﬁ™ﬁéﬁ¨ ﬁñﬁ™ﬁâﬁ∞ﬁÄﬁ´ﬁÉﬁ®ﬁáﬁ∞ﬁîﬁß",
          "name:dz": "‡Ω®‡Ω±‡ºã‡Ω°‡ºã‡Ω£‡Ω∫‡Ωì‡Ωå",
          "name:ee": "Ireland nutome",
          "name:el": "ŒôœÅŒªŒ±ŒΩŒ¥ŒØŒ±",
          "name:en": "Ireland",
          "name:eo": "Irlando",
          "name:es": "Irlanda",
          "name:et": "Iirimaa",
          "name:eu": "Irlanda",
          "name:fa": "ÿß€åÿ±ŸÑŸÜÿØ",
          "name:ff": "Irlannda",
          "name:fi": "Irlanti",
          "name:fo": "√çrland",
          "name:fr": "Irlande",
          "name:fy": "Ierl√¢n",
          "name:ga": "√âire",
          "name:gd": "√àirinn",
          "name:gl": "Irlanda",
          "name:gn": "Ilandia",
          "name:gu": "‡™Ü‡™Ø‡™∞‡´ç‡™≤‡´á‡™Ç‡™°",
          "name:gv": "Nerin",
          "name:ha": "Ayalan",
          "name:he": "◊ê◊ô◊®◊ú◊†◊ì",
          "name:hi": "‡§Ü‡§Ø‡§∞‡§≤‡•à‡§Ç‡§°",
          "name:hr": "Irska",
          "name:ht": "Ilann",
          "name:hu": "√çrorsz√°g",
          "name:hy": "‘ª’º’¨’°’∂’§’´’°",
          "name:ia": "Irlanda",
          "name:id": "Irlandia",
          "name:ie": "Irland",
          "name:ig": "Ireland",
          "name:io": "Irlando",
          "name:is": "√çrland",
          "name:it": "Irlanda",
          "name:ja": "„Ç¢„Ç§„É´„É©„É≥„Éâ",
          "name:jv": "Republik Irlandia",
          "name:ka": "·Éò·É†·Éö·Éê·Éú·Éì·Éò·Éê",
          "name:ki": "Ayalandi",
          "name:kk": "–ò—Ä–ª–∞–Ω–¥–∏—è",
          "name:kl": "Irlandi",
          "name:km": "·û¢·üÄ·ûö·û°·ûÑ·üã",
          "name:kn": "‡≤ê‡≤∞‡≥ç‡≤≤‡≥Ü‡≤Ç‡≤°‡≥ç",
          "name:ko": "ÏïÑÏùºÎûúÎìú",
          "name:ks": "ÿßŸé€åŸéÿ±ŸÑ€åŸÜŸõ⁄ë",
          "name:ku": "√érland",
          "name:kv": "–ò—Ä–ª–∞–Ω–¥–∏—è",
          "name:kw": "Repoblek Iwerdhon",
          "name:ky": "–ò—Ä–ª–∞–Ω–¥–∏—è",
          "name:la": "Hibernia",
          "name:lb": "Irland",
          "name:lg": "Ayalandi",
          "name:li": "Ierland",
          "name:ln": "Ireland…õ",
          "name:lo": "‡ªÑ‡∫≠‡ªÅ‡∫•‡∫ô",
          "name:lt": "Airija",
          "name:lv": "ƒ™rija",
          "name:mg": "Irlandy",
          "name:mi": "Airangi",
          "name:mk": "–ò—Ä—Å–∫–∞",
          "name:ml": "‡¥Ö‡¥Ø‡µº‡¥≤‡¥æ‡µª‡¥°‡µç",
          "name:mn": "–ò—Ä–ª–∞–Ω–¥",
          "name:mr": "‡§Ü‡§Ø‡§∞‡•ç‡§≤‡§Ç‡§°",
          "name:ms": "Ireland",
          "name:mt": "Irlanda",
          "name:my": "·Ä°·Ä≠·ÄØ·ÄÑ·Ä∫·Äö·Ä¨·Äú·Äî·Ä∫",
          "name:na": "Ripubrikit Airerand",
          "name:ne": "‡§Ü‡§á‡§∞‡§≤‡•ç‡§Ø‡§æ‡§£‡•ç‡§°",
          "name:nl": "Ierland",
          "name:nn": "Irland",
          "name:no": "Irland",
          "name:nv": "Bitsiigha º ≈Åich√≠√≠ º√≠ Bik√©yah",
          "name:oc": "Republica d'Irlanda",
          "name:om": "Aayerlaandi",
          "name:or": "‡¨Ü‡≠ü‡¨∞‡¨≤‡≠ç‡≠ü‡¨æ‡¨£‡≠ç‡¨°",
          "name:os": "–ò—Ä–ª–∞–Ω–¥–∏",
          "name:pa": "‡®Ü‡®á‡®∞‡®≤‡©à‡®Ç‡®° ‡®ó‡®£‡®∞‡®æ‡®ú",
          "name:pl": "Irlandia",
          "name:ps": "ÿØ ÿ¢Ÿäÿ±ŸÑ€êŸÜ⁄â ÿ¨ŸÖŸáŸàÿ±Ÿäÿ™",
          "name:pt": "Irlanda",
          "name:qu": "Ilanda",
          "name:rm": "Irlanda",
          "name:rn": "Irilandi",
          "name:ro": "Irlanda",
          "name:ru": "–ò—Ä–ª–∞–Ω–¥–∏—è",
          "name:rw": "Irilande",
          "name:sa": "‡§ê‡§∞‡•ç‡§≤‡•á‡§£‡•ç‡§°‡•ç ‡§ó‡§£‡§∞‡§æ‡§ú‡•ç‡§Ø‡§Æ‡•ç",
          "name:sc": "Irlanda",
          "name:sd": "ÿ¨ŸÖ⁄æŸàÿ±Ÿäÿß ÿ¢ÿ¶ÿ±ŸÑŸäŸÜ⁄ä",
          "name:se": "Irl√°nda",
          "name:sg": "Irl√¢nde",
          "name:sh": "Irska",
          "name:si": "‡∂Ö‡∂∫‡∂ª‡∑ä‡∂Ω‡∂±‡∑ä‡∂≠‡∂∫",
          "name:sk": "√çrsko",
          "name:sl": "Irska",
          "name:sm": "Ripapelika o Aialani",
          "name:sn": "Ireland",
          "name:so": "Ayrlaand",
          "name:sq": "Irland√´",
          "name:sr": "–ò—Ä—Å–∫–∞",
          "name:ss": "IYalendi",
          "name:sv": "Irland",
          "name:sw": "Ayalandi",
          "name:ta": "‡ÆÖ‡ÆØ‡Æ∞‡Øç‡Æ≤‡Ææ‡Æ®‡Øç‡Æ§‡ØÅ",
          "name:te": "‡∞ê‡∞∞‡±ç ‡∞≤‡∞æ‡∞Ç‡∞°‡±ç",
          "name:tg": "“∂—É–º“≥—É—Ä–∏–∏ –ò—Ä–ª–∞–Ω–¥–∏—è",
          "name:th": "‡∏™‡∏≤‡∏ò‡∏≤‡∏£‡∏ì‡∏£‡∏±‡∏ê‡πÑ‡∏≠‡∏£‡πå‡πÅ‡∏•‡∏ô‡∏î‡πå",
          "name:ti": "·ä†·ã®·à≠·àã·äï·ãµ",
          "name:tk": "Irlandi√Ωa",
          "name:tl": "Irlanda",
          "name:to": " ªAealani",
          "name:tr": "ƒ∞rlanda",
          "name:ts": "Ireland",
          "name:tt": "–ò—Ä–ª–∞–Ω–¥–∏—è",
          "name:uk": "–Ü—Ä–ª–∞–Ω–¥—ñ—è",
          "name:ur": "ÿ¢ÿ¶ÿ±ŸÑ€åŸÜ⁄à",
          "name:uz": "Irlandiya",
          "name:ve": "Ireland",
          "name:vi": "Ai-len",
          "name:vo": "Lirey√§n",
          "name:wa": "Irlande",
          "name:wo": "Irlaand",
          "name:yi": "◊ê◊ô◊®◊ú◊ê◊†◊ì",
          "name:yo": "Or√≠l·∫πÃÅ√®de Ailandi",
          "name:za": "Aiwjlanz Gunghozgoz",
          "name:zh": "Áà±Â∞îÂÖ∞ / ÊÑõÁàæËò≠",
          "name:zu": "i-Ireland",
          "alt_name": "Republic of Ireland",
          "boundary": "administrative",
          "currency": "EUR",
          "int_name": "Ireland",
          "name:ace": "Irlandia",
          "name:ady": "–ò—Ä–ª–∞–Ω–¥–∏–µ",
          "name:als": "Irland",
          "name:ang": "ƒ™rland Cynewƒ´se",
          "name:arc": "‹©‹ò‹õ‹¢‹ù‹ò‹¨‹ê ‹ï‹ê‹ù‹™‹†‹¢‹ï",
          "name:ary": "ÿ•ÿ±ŸÑÿßŸÜÿØÿß",
          "name:arz": "ÿ¨ŸÖŸáŸàÿ±Ÿäÿ© ÿßŸäÿ±ŸÑÿßŸÜÿØÿß",
          "name:ast": "Rep√∫blica d'Irlanda",
          "name:avk": "Eirea",
          "name:awa": "‡§Ü‡§Ø‡§∞‡§≤‡•à‡§Ç‡§° ‡§ó‡§£‡§∞‡§æ‡§ú‡•ç‡§Ø",
          "name:azb": "ÿß€åÿ±ŸÑŸÜÿØ",
          "name:ban": "Irlandia",
          "name:bar": "Irland",
          "name:bcl": "Irlandya",
          "name:bpy": "‡¶Ü‡¶Ø‡¶º‡¶æ‡¶∞‡¶≤‡ßç‡¶Ø‡¶æ‡¶®‡ßç‡¶°",
          "name:bug": "Irlandia",
          "name:bxr": "–ò—Ä–ª–∞–Ω–¥",
          "name:cdo": "√Åi-ƒ´-l√†ng",
          "name:ceb": "Irlanda",
          "name:chr": "·é†·é¢·é¥·èÇ·èó",
          "name:chy": "Ireland",
          "name:ckb": "ÿ¶€åÿ±ŸÑ€ïŸÜÿØ",
          "name:crh": "ƒ∞rlandiya",
          "name:csb": "Irland√´j√¥",
          "name:diq": "Cumhuriyet√™ ƒ∞rlanda",
          "name:dsb": "Irska",
          "name:dty": "‡§ó‡§£‡§§‡§®‡•ç‡§§‡•ç‡§∞ ‡§Ü‡§Ø‡§∞‡§≤‡•ç‡§Ø‡§æ‡§®‡•ç‡§°",
          "name:eml": "Irl√†nda",
          "name:ext": "Irlanda",
          "name:frp": "Irlande",
          "name:frr": "Irl√∂nj",
          "name:fur": "Irlande",
          "name:gag": "ƒ∞rlandiya",
          "name:gan": "ÊÑõÁàæËò≠",
          "name:gcr": "Irlann",
          "name:gom": "‡§Ü‡§Ø‡§∞‡•ç‡§≤‡§Ç‡§°",
          "name:got": "êå¥êåπêçÇêå∞êåªêå∞êåΩêå≥",
          "name:hak": "Ireland",
          "name:haw": "‚ÄòIlelani",
          "name:hif": "Republic of Ireland",
          "name:hsb": "Irska",
          "name:hyw": "‘ª÷Ä’¨’°’∂’ø’°",
          "name:ilo": "Republika iti Irl√°nda",
          "name:jam": "Ripoblik a Airilan",
          "name:jbo": "airland",
          "name:kaa": "ƒ∞rlandiya",
          "name:kab": "Lirlund",
          "name:kbd": "–ò—Ä–ª—ç–Ω–¥",
          "name:koi": "–ò—Ä–º—É",
          "name:krc": "–ò—Ä–ª–∞–Ω–¥–∏—è",
          "name:ksh": "Irrland",
          "name:lad": "Irlanda",
          "name:lez": "–ò—Ä–ª–∞–Ω–¥–∏—è",
          "name:lij": "√âire",
          "name:lld": "Irlanda",
          "name:lmo": "Irlanda",
          "name:ltg": "Eireja",
          "name:lzh": "ÊÑõÁàæËò≠ÂÖ±ÂíåÂúã",
          "name:mad": "Republik Irlandia",
          "name:mdf": "–ò—Ä–ª–∞–Ω–¥–∏—è –º–∞—Å—Ç–æ—Ä",
          "name:mhr": "–ò—Ä–ª–∞–Ω–¥–∏–π",
          "name:mrj": "–ò—Ä–ª–∞–Ω–¥–∏",
          "name:mwl": "Irlanda",
          "name:myv": "–ò—Ä–ª–∞–Ω–¥–∏—è –ú–∞—Å—Ç–æ—Ä",
          "name:mzn": "ÿß€åÿ±ŸÑŸÜÿØ ÿ¨ŸÖŸáŸàÿ±€å",
          "name:nah": "IrtlƒÅlpan",
          "name:nan": "√âire",
          "name:nds": "Irland",
          "name:new": "‡§ó‡§£‡§§‡§®‡•ç‡§§‡•ç‡§∞ ‡§Ü‡§Ø‡§∞‡§≤‡•ç‡§Ø‡§æ‡§®‡•ç‡§¶",
          "name:nov": "Republike de Irlande",
          "name:nrm": "R√©publyique d'Irlande",
          "name:nso": "Ireland",
          "name:pag": "Irlanda",
          "name:pam": "Irlanda",
          "name:pap": "Irlandia",
          "name:pcd": "Irlinde",
          "name:pdc": "Irland",
          "name:pih": "Repablik o' Airiland",
          "name:pms": "Irlanda",
          "name:pnb": "ŸÑŸà⁄©ÿ±ÿßÿ¨ ÿ¢ÿ¶ÿ±ŸÑ€åŸÜ⁄à",
          "name:pnt": "ŒôœÅŒªŒ±ŒΩŒ¥ŒØŒ±",
          "name:rmy": "Republika Irland",
          "name:rue": "–Ü—Ä—å—Å–∫–æ",
          "name:sah": "–ò—Ä–ª–∞–Ω–¥–∏—è –†–µ—Å–ø—É–±–ª–∏–∫–∞—Ç–∞",
          "name:sat": "·±ü·±≠·±ü·±®·±û·±Æ·±±·±∞ ·±®·±Æ·±±·±ü·±ú ·±ü·±π·±Ø·±±·±ü·±π·±õ",
          "name:scn": "Irlanda",
          "name:sco": "Republic o Ireland",
          "name:shn": "·Äô·Ä≠·Ä∞·ÄÑ·Ä∫·Ä∏·Ä¢·Å¢·ÇÜ·Çá·Äö·ÇÉ·Çá·Äú·ÇÖ·Åº·Ä∫·Çá",
          "name:smn": "Irland",
          "name:sms": "Irlantt",
          "name:srn": "Irikondre",
          "name:stq": "Irlound",
          "name:szl": "Irlandyj≈è",
          "name:tet": "Irlanda",
          "name:tok": "ma Alan",
          "name:tpi": "Ripablik bilong Aialan",
          "name:tzl": "Oira",
          "name:udm": "–ò—Ä–ª–∞–Ω–¥–∏—è",
          "name:vec": "Irlanda",
          "name:vep": "Irlandii",
          "name:vls": "Republiek Ierland",
          "name:vro": "Iirimaa",
          "name:war": "Republika han Irlanda",
          "name:wuu": "Áà±Â∞îÂÖ∞",
          "name:xal": "–ì”ô”ô–ª–≥“Ø–¥–∏–Ω –û—Ä–Ω",
          "name:xmf": "·Éò·É†·Éö·Éê·Éú·Éì·Éò·Éê",
          "name:yue": "ÊÑõÁàæËò≠ÂÖ±ÂíåÂúã",
          "name:zea": "Ierland",
          "timezone": "Europe/Dublin",
          "way_area": "14.613",
          "wikidata": "Q27",
          "ISO3166-1": "IE",
          "wikipedia": "en:Republic of Ireland",
          "population": "5123536",
          "ref:nuts:1": "IE0",
          "admin_level": "2",
          "alt_name:vi": "Ireland;√Åi Nhƒ© Lan",
          "description": "Republic of Ireland",
          "geonames:id": "2963597",
          "is_in:ocean": "Atlantic",
          "name:nds-nl": "Ierlaand",
          "capital_city": "Dublin",
          "driving_side": "left",
          "name:bat-smg": "Airƒójƒó",
          "name:roa-rup": "Irlanda",
          "name:zh-Hans": "Áà±Â∞îÂÖ∞",
          "name:zh-Hant": "ÊÑõÁàæËò≠",
          "name:roa-tara": "Irlanne",
          "official_name": "√âire",
          "name:be-tarask": "–Ü—Ä–ª—è–Ω–¥—ã—è",
          "name:zh_pinyin": "√Äiƒõrl√°n",
          "name:zh-min-nan": "√Äi-n√≠-l√¢n",
          "population:date": "2022",
          "ISO3166-1:alpha2": "IE",
          "ISO3166-1:alpha3": "IRL",
          "default_language": "en",
          "official_name:cs": "Irsk√° republika",
          "official_name:en": "Ireland",
          "official_name:eo": "Respubliko de Irlando",
          "official_name:fi": "Irlannin tasavalta",
          "official_name:ga": "√âire",
          "official_name:io": "Republiko di Irlando",
          "official_name:la": "Hibernia",
          "official_name:pt": "Rep√∫blica da Irlanda",
          "ISO3166-1:numeric": "372",
          "country_code_fips": "EI"
        }
      },
      "geometry": {
        "type": "Polygon",
        "coordinates": [
          [
            [
              -11,
              51.9677692045782
            ],
            [
              -10.9982011,
              51.964
            ],
            [
              -10.9949463,
              51.958
            ],
            [
              -10.9913444,
              51.952
            ],
            [
              -10.9873829,
              51.946
            ],
            [
              -10.9830475,
              51.94
            ],
            [
              -10.9783215,
              51.934
            ],
            [
              -10.9731856,
              51.928
            ],
            [
              -10.9676174,
              51.922
            ],
            [
              -10.9615905,
              51.916
            ],
            [
              -10.9561956,
              51.911
            ],
            [
              -10.9492435,
              51.905
            ],
            [
              -10.9430225,
              51.9
            ],
            [
              -10.9363819,
              51.895
            ],
            [
              -10.9292871,
              51.89
            ],
            [
              -10.9216967,
              51.885
            ],
            [
              -10.9135608,
              51.88
            ],
            [
              -10.9048179,
              51.875
            ],
            [
              -10.8973356,
              51.871
            ],
            [
              -10.8893675,
              51.867
            ],
            [
              -10.8808531,
              51.863
            ],
            [
              -10.8717166,
              51.859
            ],
            [
              -10.8618597,
              51.855
            ],
            [
              -10.8511517,
              51.851
            ],
            [
              -10.8424561,
              51.848
            ],
            [
              -10.8433846,
              51.846
            ],
            [
              -10.8459476,
              51.842
            ],
            [
              -10.8494942,
              51.836
            ],
            [
              -10.8516654,
              51.832
            ],
            [
              -10.8546404,
              51.826
            ],
            [
              -10.858871,
              51.816
            ],
            [
              -10.8609856,
              51.81
            ],
            [
              -10.8627905,
              51.804
            ],
            [
              -10.8651246,
              51.794
            ],
            [
              -10.8661273,
              51.788
            ],
            [
              -10.8668352,
              51.782
            ],
            [
              -10.8673656,
              51.772
            ],
            [
              -10.8672956,
              51.766
            ],
            [
              -10.8669346,
              51.76
            ],
            [
              -10.8662817,
              51.754
            ],
            [
              -10.8653352,
              51.748
            ],
            [
              -10.8630981,
              51.738
            ],
            [
              -10.8613542,
              51.732
            ],
            [
              -10.8593033,
              51.726
            ],
            [
              -10.8551861,
              51.716
            ],
            [
              -10.8523178,
              51.71
            ],
            [
              -10.8491942,
              51.704
            ],
            [
              -10.8457293,
              51.698
            ],
            [
              -10.8432239,
              51.694
            ],
            [
              -10.8391628,
              51.688
            ],
            [
              -10.8362469,
              51.684
            ],
            [
              -10.8323588,
              51.679
            ],
            [
              -10.8281901,
              51.674
            ],
            [
              -10.8199385,
              51.665
            ],
            [
              -10.810649,
              51.656
            ],
            [
              -10.8002095,
              51.647
            ],
            [
              -10.7898472,
              51.639
            ],
            [
              -10.7783265,
              51.631
            ],
            [
              -10.7671558,
              51.624
            ],
            [
              -10.7547998,
              51.617
            ],
            [
              -10.7410369,
              51.61
            ],
            [
              -10.7278831,
              51.604
            ],
            [
              -10.7131716,
              51.598
            ],
            [
              -10.6994063,
              51.593
            ],
            [
              -10.6838466,
              51.588
            ],
            [
              -10.6696651,
              51.584
            ],
            [
              -10.6533039,
              51.58
            ],
            [
              -10.6389382,
              51.577
            ],
            [
              -10.6217007,
              51.574
            ],
            [
              -10.6197559,
              51.564
            ],
            [
              -10.6170285,
              51.554
            ],
            [
              -10.6134511,
              51.544
            ],
            [
              -10.609958,
              51.536
            ],
            [
              -10.6047712,
              51.526
            ],
            [
              -10.5999363,
              51.518
            ],
            [
              -10.59446,
              51.51
            ],
            [
              -10.5874869,
              51.501
            ],
            [
              -10.5805169,
              51.493
            ],
            [
              -10.5727628,
              51.485
            ],
            [
              -10.5641557,
              51.477
            ],
            [
              -10.5546092,
              51.469
            ],
            [
              -10.5440127,
              51.461
            ],
            [
              -10.5337675,
              51.454
            ],
            [
              -10.5224824,
              51.447
            ],
            [
              -10.511856,
              51.441
            ],
            [
              -10.5042111,
              51.437
            ],
            [
              -10.4960566,
              51.433
            ],
            [
              -10.4803491,
              51.426
            ],
            [
              -10.4650888,
              51.42
            ],
            [
              -10.4480347,
              51.414
            ],
            [
              -10.4375853,
              51.409
            ],
            [
              -10.4261718,
              51.404
            ],
            [
              -10.4135964,
              51.399
            ],
            [
              -10.4025112,
              51.395
            ],
            [
              -10.3934652,
              51.392
            ],
            [
              -10.3836541,
              51.389
            ],
            [
              -10.3728994,
              51.386
            ],
            [
              -10.365079,
              51.384
            ],
            [
              -10.3473261,
              51.38
            ],
            [
              -10.3369781,
              51.378
            ],
            [
              -10.3251435,
              51.376
            ],
            [
              -10.3110031,
              51.374
            ],
            [
              -10.3025319,
              51.373
            ],
            [
              -10.2924547,
              51.372
            ],
            [
              -10.279303,
              51.371
            ],
            [
              -10.2510413,
              51.37
            ],
            [
              -10.2429187,
              51.37
            ],
            [
              -10.214657,
              51.371
            ],
            [
              -10.2015053,
              51.372
            ],
            [
              -10.1829569,
              51.374
            ],
            [
              -10.1688165,
              51.376
            ],
            [
              -10.1569819,
              51.378
            ],
            [
              -10.1418776,
              51.381
            ],
            [
              -10.1293892,
              51.382
            ],
            [
              -10.1212231,
              51.382
            ],
            [
              -10.1175501,
              51.376
            ],
            [
              -10.1149026,
              51.372
            ],
            [
              -10.1106222,
              51.366
            ],
            [
              -10.1075554,
              51.362
            ],
            [
              -10.1034726,
              51.357
            ],
            [
              -10.0991014,
              51.352
            ],
            [
              -10.0904616,
              51.343
            ],
            [
              -10.080745,
              51.334
            ],
            [
              -10.0748371,
              51.329
            ],
            [
              -10.0698268,
              51.325
            ],
            [
              -10.0589808,
              51.317
            ],
            [
              -10.046902,
              51.309
            ],
            [
              -10.0333817,
              51.301
            ],
            [
              -10.0201411,
              51.294
            ],
            [
              -10.0052907,
              51.287
            ],
            [
              -10,
              51.284784108280924
            ],
            [
              -10,
              52
            ],
            [
              -11,
              52
            ],
            [
              -11,
              51.9677692045782
            ]
          ]
        ]
      }
    }
  ]
}