{
  "type": "FeatureCollection",
  "features": [
    {
      "type": "Feature",
      "properties": {
        "osm_id": -192784,
        "boundary": "administrative",
        "admin_level": 2,
        "parents": null,
        "name": "Benin",
        "local_name": "Bénin",
        "name_en": "Benin",
        "all_tags": {
          "flag": "http://upload.wikimedia.org/wikipedia/commons/0/0a/Flag_of_Benin.svg",
          "name": "Bénin",
          "name:af": "Benin",
          "name:ak": "Bɛnin",
          "name:am": "ቤኒን",
          "name:an": "Benín",
          "name:ar": "بنين",
          "name:az": "Benin",
          "name:ba": "Бенин",
          "name:be": "Бені́н",
          "name:bg": "Бенин",
          "name:bh": "बेनिन",
          "name:bm": "Benɛn",
          "name:bn": "বেনিন",
          "name:bo": "བེ་ནིན།",
          "name:br": "Benin",
          "name:bs": "Benin",
          "name:ca": "Benín",
          "name:ce": "Бени́н",
          "name:cs": "Benin",
          "name:cv": "Бенин",
          "name:cy": "Benin",
          "name:da": "Benin",
          "name:de": "Benin",
          "name:dv": "ބެނީން",
          "name:dz": "བཱེ་ནིན།",
          "name:ee": "Benɛ̃",
          "name:el": "Μπενίν",
          "name:en": "Benin",
          "name:eo": "Benino",
          "name:es": "Benín",
          "name:et": "Benin",
          "name:eu": "Benin",
          "name:fa": "بنین",
          "name:ff": "Benen",
          "name:fi": "Benin",
          "name:fo": "Benin",
          "name:fr": "Bénin",
          "name:fy": "Benyn",
          "name:ga": "Beinin",
          "name:gd": "Beinin",
          "name:gl": "Benin",
          "name:gn": "Mbenĩ",
          "name:gu": "બેનિન",
          "name:gv": "Benin",
          "name:ha": "Benin",
          "name:he": "בנין",
          "name:hi": "बेनिन",
          "name:hr": "Benin",
          "name:ht": "Benen",
          "name:hu": "Benin",
          "name:hy": "Բենին",
          "name:ia": "Benin",
          "name:id": "Benin",
          "name:ie": "Benin",
          "name:ig": "Benin",
          "name:io": "Benin",
          "name:is": "Benín",
          "name:it": "Benin",
          "name:ja": "ベナン",
          "name:jv": "Bénin",
          "name:ka": "ბენინი",
          "name:kg": "Benin",
          "name:ki": "Benin",
          "name:kk": "Бени́н",
          "name:kl": "Benin",
          "name:km": "បេណាំង",
          "name:kn": "ಬೆನಿನ್",
          "name:ko": "베냉",
          "name:ks": "بِنِن",
          "name:ku": "Bênîn",
          "name:kw": "Benin",
          "name:ky": "Бени́н",
          "name:la": "Beninum",
          "name:lb": "Benin",
          "name:lg": "Benin",
          "name:li": "Benin",
          "name:ln": "Benin",
          "name:lo": "ເບນິນ",
          "name:lt": "Beninas",
          "name:lv": "Benina",
          "name:mg": "Benina",
          "name:mi": "Pēnina",
          "name:mk": "Бенин",
          "name:ml": "ബെനിൻ",
          "name:mn": "Бенин",
          "name:mr": "बेनिन",
          "name:ms": "Benin",
          "name:mt": "Benin",
          "name:my": "ဘီနင်နိုင်ငံ",
          "name:na": "Benin",
          "name:ne": "बेनिन",
          "name:nl": "Benin",
          "name:nn": "Benin",
          "name:no": "Benin",
          "name:oc": "Benin",
          "name:om": "Beeniin",
          "name:or": "ବେନିନ",
          "name:os": "Бенин",
          "name:pa": "ਬੇਨਿਨ",
          "name:pi": "बेनिन",
          "name:pl": "Benin",
          "name:ps": "بېنين",
          "name:pt": "Benim",
          "name:qu": "Binin",
          "name:rm": "Benin",
          "name:rn": "Bene",
          "name:ro": "Benin",
          "name:ru": "Бенин",
          "name:rw": "Bene",
          "name:sa": "बेनिन्",
          "name:sc": "Benin",
          "name:sd": "بينن",
          "name:se": "Benin",
          "name:sg": "Benëen",
          "name:sh": "Benin",
          "name:si": "බෙනින්",
          "name:sk": "Benin",
          "name:sl": "Benin",
          "name:sn": "Benin",
          "name:so": "Benin",
          "name:sq": "Benini",
          "name:sr": "Бенин",
          "name:ss": "iBhenini",
          "name:st": "Benin",
          "name:su": "Bénin",
          "name:sv": "Benin",
          "name:sw": "Benin",
          "name:ta": "பெனின்",
          "name:te": "బెనిన్",
          "name:tg": "Бенѝн",
          "name:th": "เบนิน",
          "name:ti": "ቤኒን",
          "name:tk": "Benin",
          "name:tl": "Benin",
          "name:to": "Penini",
          "name:tr": "Benin",
          "name:ts": "Benin",
          "name:tt": "Бени́н",
          "name:ug": "بېنىن",
          "name:uk": "Бені́н",
          "name:ur": "بینن",
          "name:uz": "Benin",
          "name:vi": "Bénin",
          "name:vo": "Beninän",
          "name:wo": "Bene",
          "name:yi": "בענין",
          "name:yo": "Benin",
          "name:zh": "贝宁 / 貝南",
          "name:zu": "IBenini",
          "boundary": "administrative",
          "currency": "XOF",
          "int_name": "Benin",
          "name:ace": "Benin",
          "name:ady": "Бенин",
          "name:als": "Benin",
          "name:arz": "بينين",
          "name:ast": "Benín",
          "name:azb": "بنین",
          "name:bar": "Benin",
          "name:bcl": "Benin",
          "name:bjn": "Benin",
          "name:bpy": "বেনিন",
          "name:bxr": "Бенин",
          "name:cdo": "Benin",
          "name:ceb": "Benin",
          "name:chr": "ᏆᏂᎢᏂ",
          "name:ckb": "بێنین",
          "name:crh": "Benin",
          "name:diq": "Benin",
          "name:dsb": "Benin",
          "name:dty": "बेनिन",
          "name:ext": "Benín",
          "name:frp": "Bènin",
          "name:frr": "Beniin",
          "name:fur": "Benin",
          "name:gag": "Benin",
          "name:hak": "Bénin",
          "name:hif": "Benin",
          "name:hsb": "Benin",
          "name:ilo": "Benin",
          "name:jam": "Benin",
          "name:jbo": "benin",
          "name:kaa": "Benin",
          "name:kab": "Benin",
          "name:kbp": "Peenɛɛ",
          "name:ksh": "dä Benin",
          "name:lad": "Benin",
          "name:lij": "Benin",
          "name:lmo": "Benin",
          "name:lrc": "بئنین",
          "name:lzh": "貝寧",
          "name:mai": "बेनिन",
          "name:min": "Benin",
          "name:mrj": "Бенин",
          "name:mzn": "بنین",
          "name:nah": "Benin",
          "name:nan": "Benin",
          "name:nds": "Benin",
          "name:new": "बेनिन",
          "name:nov": "Benin",
          "name:nso": "Benin",
          "name:olo": "Benin",
          "name:pam": "Benin",
          "name:pap": "Benin",
          "name:pdc": "Benin",
          "name:pih": "Benin",
          "name:pms": "Benin",
          "name:pnb": "بنین",
          "name:rue": "Бенін",
          "name:sah": "Бенин",
          "name:scn": "Benin",
          "name:sco": "Benin",
          "name:smn": "Benin",
          "name:sms": "Beniin",
          "name:stq": "Benin",
          "name:szl": "Byńin",
          "name:tok": "ma Penen",
          "name:tzl": "Benin",
          "name:udm": "Бенин",
          "name:vec": "Benin",
          "name:vep": "Benin",
          "name:vro": "Benin",
          "name:war": "Benin",
          "name:wuu": "贝宁",
          "name:xal": "Бенинмудин Орн",
          "name:xmf": "ბენინი",
          "name:yue": "貝寧",
          "name:zea": "Benin",
          "old_name": "Dahomey",
          "way_area": "9.7132",
          "wikidata": "Q962",
          "ISO3166-1": "BJ",
          "wikipedia": "fr:Bénin",
          "admin_level": "2",
          "alt_name:ar": "بنن",
          "alt_name:cs": "Republika Benin",
          "alt_name:gd": "Benin",
          "name:nds-nl": "Benin",
          "old_name:af": "Dahomey",
          "old_name:ar": "داهومي",
          "old_name:az": "Daqomeya",
          "old_name:bg": "Дахомей",
          "old_name:br": "Dahomey",
          "old_name:bs": "Dahomey",
          "old_name:ca": "Dahomey",
          "old_name:ce": "Дагоме́я",
          "old_name:cs": "Dahome",
          "old_name:da": "Dahomey",
          "old_name:de": "Dahomey",
          "old_name:ee": "Dahomey",
          "old_name:el": "Βασίλειο της Δαχομέης",
          "old_name:en": "Dahomey",
          "old_name:eo": "Dahomeo",
          "old_name:es": "Dahomey",
          "old_name:et": "Dahomee",
          "old_name:eu": "Dahomey",
          "old_name:fa": "داهومی",
          "old_name:fi": "Dahomey",
          "old_name:fo": "Dahomey",
          "old_name:fr": "Dahomey",
          "old_name:fy": "Dahomey",
          "old_name:gd": "Dahomey",
          "old_name:gl": "Dahomey",
          "old_name:gn": "Dahomey",
          "old_name:he": "דהומיי",
          "old_name:hr": "Dahomej",
          "old_name:hu": "Dahomey",
          "old_name:ia": "Dahomey",
          "old_name:id": "Dahomey",
          "old_name:ie": "Dahomey",
          "old_name:io": "Dahome",
          "old_name:is": "Dahómey",
          "old_name:it": "Dahomey",
          "old_name:ja": "ダオメー",
          "old_name:jv": "Dahomey",
          "old_name:ka": "დაჰომეა",
          "old_name:kk": "Дагомея",
          "old_name:kw": "Dahomey",
          "old_name:ky": "Дагоме́я",
          "old_name:lb": "Dahomey",
          "old_name:li": "Dahomey",
          "old_name:lt": "Dahomėja",
          "old_name:lv": "Dahomeja",
          "old_name:ml": "ദഹൊമെയ്",
          "old_name:ms": "Dahomey",
          "old_name:nl": "Dahomey",
          "old_name:nn": "Dahomey",
          "old_name:no": "Dahomania",
          "old_name:oc": "Dahomey",
          "old_name:pa": "ਦਾਹੋਮੀ",
          "old_name:pl": "Dahomej",
          "old_name:pt": "Dahomey",
          "old_name:ro": "Dahomey",
          "old_name:ru": "Дагомея",
          "old_name:sh": "Dahomej",
          "old_name:sk": "Dahome",
          "old_name:sl": "Dahomej",
          "old_name:sq": "Dahomei",
          "old_name:sr": "Дахомеј",
          "old_name:su": "Dahomey",
          "old_name:sv": "Dahomey",
          "old_name:sw": "Dahomey",
          "old_name:ta": "டாகோமே",
          "old_name:te": "దహోమీ",
          "old_name:tg": "Догомея",
          "old_name:th": "ดาโฮมีย์",
          "old_name:tl": "Dahomey",
          "old_name:tr": "Dahomey",
          "old_name:tt": "Дагоме́я",
          "old_name:uk": "Дагомея",
          "old_name:ur": "داهومی",
          "old_name:uz": "Dagomeya",
          "old_name:vi": "Dahomey",
          "old_name:yi": "דאַהאמי",
          "old_name:yo": "Dahomey",
          "old_name:zh": "达荷美 / 達荷美",
          "name:bat-smg": "Benins",
          "name:cbk-zam": "Benín",
          "name:roa-rup": "Benin",
          "name:zh-Hans": "贝宁",
          "name:zh-Hant": "貝南",
          "old_name:als": "Dahomey",
          "old_name:ast": "Dahomey",
          "old_name:azb": "داهومی",
          "old_name:bar": "Dahomey",
          "old_name:bjn": "Dahomey",
          "old_name:ckb": "داهۆمی",
          "old_name:frr": "Dahomey",
          "old_name:hak": "Dahomey",
          "old_name:hif": "Dahomey",
          "old_name:ilo": "Dahomey",
          "old_name:kbp": "Ɖahʊma",
          "old_name:lij": "Dahomey",
          "old_name:lmo": "Dahomey",
          "old_name:lrc": "Dahomey",
          "old_name:min": "Dahomey",
          "old_name:nan": "Dahomey",
          "old_name:nds": "Dahomey",
          "old_name:pms": "Dahomey",
          "old_name:rue": "Дагоме",
          "old_name:sco": "Dahomey",
          "old_name:szl": "Dahomej",
          "old_name:vec": "Dahomey",
          "old_name:vep": "Dagomei",
          "old_name:xmf": "დაჰომეა",
          "old_name:yue": "達荷美",
          "old_name:zea": "Dahomey",
          "official_name": "République du Bénin",
          "name:be-tarask": "Бэні́н",
          "name:zh_pinyin": "Bèiníng",
          "old_name:nds-nl": "Dahomey",
          "ISO3166-1:alpha2": "BJ",
          "ISO3166-1:alpha3": "BEN",
          "default_language": "fr",
          "official_name:af": "Republiek van Benin",
          "official_name:am": "የቤኒን ሪፐብሊክ",
          "official_name:an": "Republica de Benín",
          "official_name:ar": "جمهورية بنين",
          "official_name:az": "Benin Respublikası",
          "official_name:ba": "Бенин Республикаһы",
          "official_name:be": "Рэспу́бліка Бені́н",
          "official_name:bg": "Република Бенин",
          "official_name:bn": "বেনিন প্রজাতন্ত্র",
          "official_name:br": "Republik Benin",
          "official_name:bs": "Republika Benin",
          "official_name:ca": "República de Benín",
          "official_name:ce": "Бени́н Респу́блик",
          "official_name:cs": "Beninská republika",
          "official_name:cv": "Бенин республики",
          "official_name:cy": "Gweriniaeth Benin",
          "official_name:da": "Republikken Benin",
          "official_name:de": "Republik Benin",
          "official_name:el": "Δημοκρατία του Μπενίν",
          "official_name:en": "Republic of Benin",
          "official_name:eo": "Benina Respubliko",
          "official_name:es": "República de Benín",
          "official_name:et": "Benini Vabariik",
          "official_name:eu": "Beningo Errepublika",
          "official_name:fa": "جمهوری بنین",
          "official_name:fi": "Beninin tasavalta",
          "official_name:fo": "Tjóðveldið Benin",
          "official_name:fr": "République du Bénin",
          "official_name:gd": "Poblachd Bheinin",
          "official_name:gl": "República de Benin",
          "official_name:gn": "Tavakuairetã Mbenĩ",
          "official_name:gu": "બેનિન ગણતંત્ર",
          "official_name:gv": "Pobblaght Venin",
          "official_name:ha": "Jamhuriyar Benin",
          "official_name:he": "רפובליקת בנין",
          "official_name:hi": "बेनिन गणराज्य",
          "official_name:hr": "Republika Benin",
          "official_name:hu": "Benini Köztársaság",
          "official_name:ia": "Republica de Benin",
          "official_name:id": "Republik Benin",
          "official_name:io": "Republiko di Benin",
          "official_name:is": "Lýðveldið Benín",
          "official_name:it": "Repubblica del Benin",
          "official_name:ja": "ベナン共和国",
          "official_name:ka": "ბენინის რესპუბლიკა",
          "official_name:kg": "Repubilika ya Benin",
          "official_name:kk": "Бенин Республикасы",
          "official_name:kn": "ಬೆನಿನ್ ಗಣರಾಜ್ಯ",
          "official_name:ko": "베냉 공화국",
          "official_name:ku": "Komara Bênînê",
          "official_name:ky": "Бени́н Респу́бликасы",
          "official_name:lb": "Republik Benin",
          "official_name:li": "Rippubliek Benin",
          "official_name:ln": "Republíki ya Benin",
          "official_name:lt": "Benino Respublika",
          "official_name:lv": "Beninas Republika",
          "official_name:mk": "Република Бенин",
          "official_name:ml": "റിപ്പബ്ലിക് ഓഫ് ബെനിൻ",
          "official_name:mn": "Бүгд Найрамдах Бенин Улс",
          "official_name:mr": "बेनिनचे प्रजासत्ताक",
          "official_name:ms": "Republik Benin",
          "official_name:mt": "Ir-Repubblika tal-Benin",
          "official_name:my": "ဘီနင်သမ္မတနိုင်ငံ",
          "official_name:ne": "बेनिन गणतन्त्र",
          "official_name:nl": "Republiek Benin",
          "official_name:nn": "Republikk Benin",
          "official_name:no": "Republikken Benin",
          "official_name:om": "Riippabiliika Beeniin",
          "official_name:os": "Республикæ Бенин",
          "official_name:pa": "ਬੇਨਿਨ ਦਾ ਗਣਰਾਜ",
          "official_name:pl": "Republika Beninu",
          "official_name:ps": "د بېنين جمهوريت",
          "official_name:pt": "República do Benim",
          "official_name:qu": "Binin Ripuwlika",
          "official_name:ro": "Republica Benin",
          "official_name:ru": "Республика Бенин",
          "official_name:se": "Benina dásseváldi",
          "official_name:sg": "Benëen Ködörösêse",
          "official_name:sh": "Republika Benin",
          "official_name:sk": "Beninská republika",
          "official_name:sl": "Republika Benin",
          "official_name:so": "Jamhuuriyadda Benin",
          "official_name:sq": "Republika e Beninit",
          "official_name:sr": "Република Бенин",
          "official_name:su": "Républik Bénin",
          "official_name:sv": "Republiken Benin",
          "official_name:sw": "Jamhuri ya Benin",
          "official_name:ta": "பெனின் குடியரசு",
          "official_name:te": "రిపబ్లిక్ ఆఫ్ బెనిన్",
          "official_name:tg": "Ҷумҳурии Бенин",
          "official_name:th": "สาธารณรัฐเบนิน",
          "official_name:tk": "Benin Respublikasy",
          "official_name:tl": "Republika ng Benin",
          "official_name:tr": "Benin Cumhuriyeti",
          "official_name:tt": "Бени́н Җөмһүрияте́",
          "official_name:uk": "Респу́бліка Бені́н",
          "official_name:ur": "جمہوریہ بینن",
          "official_name:uz": "Benin Respublikasi",
          "official_name:vi": "Cộng hoà Bénin",
          "official_name:wo": "Réewum Benin",
          "official_name:yi": "רעפובליק פון בענין",
          "official_name:yo": "Orílẹ̀-èdè Olómìnira ilẹ̀ Benin",
          "official_name:zh": "贝宁共和国 / 貝南共和國",
          "official_name:zu": "IRiphabliki yaseBenini",
          "old_name:zh-Hans": "达荷美",
          "old_name:zh-Hant": "達荷美",
          "ISO3166-1:numeric": "204",
          "official_name:ady": "Республикэу Бенин",
          "official_name:als": "Republik Benin",
          "official_name:ast": "República de Benín",
          "official_name:bar": "Republik Benin",
          "official_name:bjn": "Republik Benin",
          "official_name:bpy": "প্রজাতন্ত্রি বেনিন",
          "official_name:chr": "ᏍᎦᏚᎩ ᎾᎿ ᏆᏂᎢᏂ",
          "official_name:ckb": "کۆماری بێنین",
          "official_name:dsb": "Republika Benin",
          "official_name:ext": "Repúbrica de Benín",
          "official_name:frr": "Republiik faan Beniin",
          "official_name:hak": "Bénin Khiung-fò-koet",
          "official_name:hsb": "Republika Benin",
          "official_name:ilo": "Republika ti Benin",
          "official_name:jam": "Ripoblik a Benin",
          "official_name:lmo": "Repübliga Benin",
          "official_name:lzh": "貝寧共和國",
          "official_name:mai": "बेनिन गणतन्त्र",
          "official_name:min": "Republik Benin",
          "official_name:nah": "Tlācatlahtohcāyōtl in Benin",
          "official_name:nan": "Benin Kiōng-hô-Kok",
          "official_name:nds": "Republiek Benin",
          "official_name:new": "गणतन्त्र बेनिन",
          "official_name:nso": "Repabliki ya Benin",
          "official_name:olo": "Beninan Tazavaldu",
          "official_name:pap": "Republika Benin",
          "official_name:pnb": "ریپبلک آف بنین",
          "official_name:rue": "Беніньска републіка",
          "official_name:sah": "Бенин Республиката",
          "official_name:scn": "Rippublicca du Benin",
          "official_name:sco": "Republic o Benin",
          "official_name:stq": "Republik fon Benin",
          "official_name:szl": "Republika Byńinu",
          "official_name:vec": "Republica del Benin",
          "official_name:vep": "Beninan Tazovaldkund",
          "official_name:vro": "Benini Vabariik",
          "official_name:war": "Republika han Benin",
          "official_name:xmf": "ბენინიშ რესუბლიკა",
          "official_name:yue": "貝寧共和國",
          "old_name:be-tarask": "Дагамэі",
          "official_name:nds-nl": "Reppubliek Benin",
          "official_name:roa-rup": "Republica Benin",
          "official_name:zh-Hans": "贝宁共和国",
          "official_name:zh-Hant": "貝南共和國"
        }
      },
      "geometry": {
        "type": "Polygon",
        "coordinates": [
          [
            [
              2,
              7
            ],
            [
              2.7253924352365417,
              7
            ],
            [
              2.7255736,
              7.0003345
            ],
            [
              2.7265886,
              7.0026425
            ],
            [
              2.7282656,
              7.0119115
            ],
            [
              2.7289276,
              7.0167995
            ],
            [
              2.7318956,
              7.0190695
            ],
            [
              2.7379886,
              7.0243115
            ],
            [
              2.7422066,
              7.0281455
            ],
            [
              2.7484156,
              7.0333875
            ],
            [
              2.7503686,
              7.0353045
            ],
            [
              2.7538846,
              7.0365955
            ],
            [
              2.7601736,
              7.0400785
            ],
            [
              2.7614226,
              7.0433635
            ],
            [
              2.7595416,
              7.0628005
            ],
            [
              2.7595796,
              7.0670635
            ],
            [
              2.7594226,
              7.0684715
            ],
            [
              2.7581326,
              7.0715215
            ],
            [
              2.7526986,
              7.0813355
            ],
            [
              2.7487496,
              7.0891565
            ],
            [
              2.7444496,
              7.0970155
            ],
            [
              2.7404616,
              7.1049525
            ],
            [
              2.7728036,
              7.1330055
            ],
            [
              2.7719416,
              7.1408665
            ],
            [
              2.7715076,
              7.1480063
            ],
            [
              2.7704106,
              7.1561413
            ],
            [
              2.7690416,
              7.1621405
            ],
            [
              2.761557,
              7.216738
            ],
            [
              2.759319,
              7.237504
            ],
            [
              2.7583,
              7.243174
            ],
            [
              2.75775,
              7.24904
            ],
            [
              2.757291,
              7.251467
            ],
            [
              2.749892,
              7.25677
            ],
            [
              2.749539,
              7.257434
            ],
            [
              2.744995,
              7.281294
            ],
            [
              2.744242,
              7.412115
            ],
            [
              2.743965,
              7.413562
            ],
            [
              2.74484,
              7.424327
            ],
            [
              2.747771,
              7.424961
            ],
            [
              2.749332,
              7.426453
            ],
            [
              2.758123,
              7.429295
            ],
            [
              2.770639,
              7.427686
            ],
            [
              2.778187,
              7.427472
            ],
            [
              2.791947,
              7.429271
            ],
            [
              2.793901,
              7.429746
            ],
            [
              2.793665,
              7.430528
            ],
            [
              2.793859,
              7.430959
            ],
            [
              2.794523,
              7.431391
            ],
            [
              2.794757,
              7.431783
            ],
            [
              2.795261,
              7.43382
            ],
            [
              2.794828,
              7.435306
            ],
            [
              2.795335,
              7.435855
            ],
            [
              2.795725,
              7.436013
            ],
            [
              2.796034,
              7.43797
            ],
            [
              2.795601,
              7.43926
            ],
            [
              2.794192,
              7.440157
            ],
            [
              2.793995,
              7.440391
            ],
            [
              2.793916,
              7.4409
            ],
            [
              2.794422,
              7.441879
            ],
            [
              2.794185,
              7.443366
            ],
            [
              2.793675,
              7.443834
            ],
            [
              2.793869,
              7.444696
            ],
            [
              2.793671,
              7.445517
            ],
            [
              2.793866,
              7.44583
            ],
            [
              2.794764,
              7.44642
            ],
            [
              2.79445,
              7.447006
            ],
            [
              2.794645,
              7.447633
            ],
            [
              2.794368,
              7.448728
            ],
            [
              2.794876,
              7.449277
            ],
            [
              2.794327,
              7.449706
            ],
            [
              2.794365,
              7.450058
            ],
            [
              2.794873,
              7.45049
            ],
            [
              2.794912,
              7.450725
            ],
            [
              2.794402,
              7.451272
            ],
            [
              2.794205,
              7.451897
            ],
            [
              2.794517,
              7.452446
            ],
            [
              2.794164,
              7.452602
            ],
            [
              2.794046,
              7.453188
            ],
            [
              2.793576,
              7.453305
            ],
            [
              2.793537,
              7.4535
            ],
            [
              2.79377,
              7.454127
            ],
            [
              2.793495,
              7.454831
            ],
            [
              2.793963,
              7.455223
            ],
            [
              2.794041,
              7.455497
            ],
            [
              2.793688,
              7.455927
            ],
            [
              2.794039,
              7.456319
            ],
            [
              2.793569,
              7.456827
            ],
            [
              2.793957,
              7.457845
            ],
            [
              2.793761,
              7.458119
            ],
            [
              2.793798,
              7.459215
            ],
            [
              2.794228,
              7.459529
            ],
            [
              2.79368,
              7.459567
            ],
            [
              2.793523,
              7.459723
            ],
            [
              2.793599,
              7.461014
            ],
            [
              2.793087,
              7.462617
            ],
            [
              2.793164,
              7.46297
            ],
            [
              2.792733,
              7.463399
            ],
            [
              2.793005,
              7.464065
            ],
            [
              2.792807,
              7.46516
            ],
            [
              2.793511,
              7.465436
            ],
            [
              2.7939,
              7.466064
            ],
            [
              2.793625,
              7.466611
            ],
            [
              2.794133,
              7.466925
            ],
            [
              2.793779,
              7.467864
            ],
            [
              2.793856,
              7.468372
            ],
            [
              2.794754,
              7.469275
            ],
            [
              2.794751,
              7.47041
            ],
            [
              2.795102,
              7.470724
            ],
            [
              2.795061,
              7.471742
            ],
            [
              2.794865,
              7.472015
            ],
            [
              2.795099,
              7.472485
            ],
            [
              2.794627,
              7.473423
            ],
            [
              2.795054,
              7.474872
            ],
            [
              2.794701,
              7.475458
            ],
            [
              2.7947,
              7.476124
            ],
            [
              2.794267,
              7.477062
            ],
            [
              2.794148,
              7.477766
            ],
            [
              2.794734,
              7.478041
            ],
            [
              2.794655,
              7.478433
            ],
            [
              2.79442,
              7.478549
            ],
            [
              2.79442,
              7.478823
            ],
            [
              2.795631,
              7.479296
            ],
            [
              2.79567,
              7.479609
            ],
            [
              2.795354,
              7.480861
            ],
            [
              2.795158,
              7.481056
            ],
            [
              2.79426,
              7.480467
            ],
            [
              2.794064,
              7.480583
            ],
            [
              2.793946,
              7.481014
            ],
            [
              2.793399,
              7.480816
            ],
            [
              2.793005,
              7.481911
            ],
            [
              2.792378,
              7.482653
            ],
            [
              2.791709,
              7.484412
            ],
            [
              2.791864,
              7.484921
            ],
            [
              2.792646,
              7.485158
            ],
            [
              2.792644,
              7.486176
            ],
            [
              2.793191,
              7.486295
            ],
            [
              2.793308,
              7.486608
            ],
            [
              2.792603,
              7.486802
            ],
            [
              2.792446,
              7.487036
            ],
            [
              2.792445,
              7.487506
            ],
            [
              2.792874,
              7.487898
            ],
            [
              2.792834,
              7.488368
            ],
            [
              2.79205,
              7.489501
            ],
            [
              2.792049,
              7.489892
            ],
            [
              2.792322,
              7.490245
            ],
            [
              2.792713,
              7.490285
            ],
            [
              2.792908,
              7.490521
            ],
            [
              2.79228,
              7.491458
            ],
            [
              2.792473,
              7.492476
            ],
            [
              2.791845,
              7.493414
            ],
            [
              2.792039,
              7.49451
            ],
            [
              2.792467,
              7.49545
            ],
            [
              2.792307,
              7.496741
            ],
            [
              2.792384,
              7.497407
            ],
            [
              2.791797,
              7.497718
            ],
            [
              2.789725,
              7.497204
            ],
            [
              2.789177,
              7.497281
            ],
            [
              2.788825,
              7.497436
            ],
            [
              2.788252,
              7.498349
            ],
            [
              2.788425,
              7.499853
            ],
            [
              2.788922,
              7.500524
            ],
            [
              2.78823,
              7.501175
            ],
            [
              2.788092,
              7.502806
            ],
            [
              2.787523,
              7.503644
            ],
            [
              2.78706,
              7.503835
            ],
            [
              2.787117,
              7.504242
            ],
            [
              2.786716,
              7.504441
            ],
            [
              2.787263,
              7.505689
            ],
            [
              2.786461,
              7.505738
            ],
            [
              2.786546,
              7.50616
            ],
            [
              2.786155,
              7.507409
            ],
            [
              2.785627,
              7.507907
            ],
            [
              2.785492,
              7.508402
            ],
            [
              2.784279,
              7.509177
            ],
            [
              2.784144,
              7.509477
            ],
            [
              2.783266,
              7.5098
            ],
            [
              2.783169,
              7.51051
            ],
            [
              2.782159,
              7.511418
            ],
            [
              2.782248,
              7.511762
            ],
            [
              2.782837,
              7.512543
            ],
            [
              2.783104,
              7.513601
            ],
            [
              2.782878,
              7.51449
            ],
            [
              2.78248,
              7.515048
            ],
            [
              2.782946,
              7.515537
            ],
            [
              2.782908,
              7.515887
            ],
            [
              2.783218,
              7.516535
            ],
            [
              2.782916,
              7.516908
            ],
            [
              2.782839,
              7.517407
            ],
            [
              2.782381,
              7.517643
            ],
            [
              2.782252,
              7.518575
            ],
            [
              2.781757,
              7.518803
            ],
            [
              2.781128,
              7.519475
            ],
            [
              2.780678,
              7.519525
            ],
            [
              2.780351,
              7.519747
            ],
            [
              2.779489,
              7.519801
            ],
            [
              2.778899,
              7.519219
            ],
            [
              2.777044,
              7.518553
            ],
            [
              2.776701,
              7.518119
            ],
            [
              2.776267,
              7.517931
            ],
            [
              2.775699,
              7.517822
            ],
            [
              2.775197,
              7.518046
            ],
            [
              2.774534,
              7.518011
            ],
            [
              2.774145,
              7.518169
            ],
            [
              2.773284,
              7.518064
            ],
            [
              2.772895,
              7.518477
            ],
            [
              2.772365,
              7.518491
            ],
            [
              2.771902,
              7.518757
            ],
            [
              2.771184,
              7.519687
            ],
            [
              2.770782,
              7.519961
            ],
            [
              2.770618,
              7.52064
            ],
            [
              2.769833,
              7.521248
            ],
            [
              2.769149,
              7.521206
            ],
            [
              2.768698,
              7.52138
            ],
            [
              2.768243,
              7.521886
            ],
            [
              2.767691,
              7.52192
            ],
            [
              2.767517,
              7.522526
            ],
            [
              2.766741,
              7.52215
            ],
            [
              2.766102,
              7.522421
            ],
            [
              2.765795,
              7.522725
            ],
            [
              2.765413,
              7.522448
            ],
            [
              2.765071,
              7.522447
            ],
            [
              2.76493,
              7.522615
            ],
            [
              2.764868,
              7.523337
            ],
            [
              2.764427,
              7.523917
            ],
            [
              2.764374,
              7.525939
            ],
            [
              2.764181,
              7.526091
            ],
            [
              2.762578,
              7.526096
            ],
            [
              2.762354,
              7.526311
            ],
            [
              2.762041,
              7.526259
            ],
            [
              2.761673,
              7.527184
            ],
            [
              2.761827,
              7.527867
            ],
            [
              2.760985,
              7.528869
            ],
            [
              2.760495,
              7.529028
            ],
            [
              2.760101,
              7.529663
            ],
            [
              2.759484,
              7.530068
            ],
            [
              2.759348,
              7.530497
            ],
            [
              2.758673,
              7.531129
            ],
            [
              2.758492,
              7.531693
            ],
            [
              2.757965,
              7.532141
            ],
            [
              2.756912,
              7.53219
            ],
            [
              2.755999,
              7.532807
            ],
            [
              2.752843,
              7.533185
            ],
            [
              2.751484,
              7.534155
            ],
            [
              2.749817,
              7.534492
            ],
            [
              2.749337,
              7.535079
            ],
            [
              2.74775,
              7.535054
            ],
            [
              2.747353,
              7.536004
            ],
            [
              2.745808,
              7.538308
            ],
            [
              2.745809,
              7.538608
            ],
            [
              2.74621,
              7.538756
            ],
            [
              2.746311,
              7.539006
            ],
            [
              2.746263,
              7.539505
            ],
            [
              2.745964,
              7.539806
            ],
            [
              2.74286,
              7.540316
            ],
            [
              2.741758,
              7.54032
            ],
            [
              2.740707,
              7.540724
            ],
            [
              2.739859,
              7.541626
            ],
            [
              2.739361,
              7.542527
            ],
            [
              2.739116,
              7.544026
            ],
            [
              2.738817,
              7.544377
            ],
            [
              2.737916,
              7.54473
            ],
            [
              2.736768,
              7.545633
            ],
            [
              2.736476,
              7.548232
            ],
            [
              2.734879,
              7.549986
            ],
            [
              2.734731,
              7.550536
            ],
            [
              2.734783,
              7.551185
            ],
            [
              2.735187,
              7.552033
            ],
            [
              2.735239,
              7.552483
            ],
            [
              2.734391,
              7.553435
            ],
            [
              2.734593,
              7.553934
            ],
            [
              2.734752,
              7.556381
            ],
            [
              2.734955,
              7.55718
            ],
            [
              2.734857,
              7.557829
            ],
            [
              2.735059,
              7.558328
            ],
            [
              2.734961,
              7.558828
            ],
            [
              2.735516,
              7.559975
            ],
            [
              2.735518,
              7.560575
            ],
            [
              2.735971,
              7.561273
            ],
            [
              2.735476,
              7.562873
            ],
            [
              2.73563,
              7.563922
            ],
            [
              2.73518,
              7.564323
            ],
            [
              2.735081,
              7.564623
            ],
            [
              2.735085,
              7.565722
            ],
            [
              2.734738,
              7.566822
            ],
            [
              2.734694,
              7.568471
            ],
            [
              2.734348,
              7.569921
            ],
            [
              2.733901,
              7.571072
            ],
            [
              2.733404,
              7.572023
            ],
            [
              2.732755,
              7.572824
            ],
            [
              2.732657,
              7.573274
            ],
            [
              2.732815,
              7.575672
            ],
            [
              2.733621,
              7.576718
            ],
            [
              2.733777,
              7.578466
            ],
            [
              2.733081,
              7.580117
            ],
            [
              2.732283,
              7.581019
            ],
            [
              2.731733,
              7.581271
            ],
            [
              2.730889,
              7.583671
            ],
            [
              2.73059,
              7.584022
            ],
            [
              2.730296,
              7.585871
            ],
            [
              2.729749,
              7.586972
            ],
            [
              2.729701,
              7.587772
            ],
            [
              2.730614,
              7.590816
            ],
            [
              2.731024,
              7.593613
            ],
            [
              2.730826,
              7.594213
            ],
            [
              2.730829,
              7.595062
            ],
            [
              2.730136,
              7.597462
            ],
            [
              2.73014,
              7.598761
            ],
            [
              2.729552,
              7.60251
            ],
            [
              2.729958,
              7.604107
            ],
            [
              2.728761,
              7.60556
            ],
            [
              2.72661,
              7.606517
            ],
            [
              2.726261,
              7.607117
            ],
            [
              2.725561,
              7.607319
            ],
            [
              2.724161,
              7.608273
            ],
            [
              2.71701,
              7.612144
            ],
            [
              2.716882,
              7.618539
            ],
            [
              2.717047,
              7.622784
            ],
            [
              2.716642,
              7.636474
            ],
            [
              2.71726,
              7.641268
            ],
            [
              2.717836,
              7.64886
            ],
            [
              2.718447,
              7.651655
            ],
            [
              2.718819,
              7.657899
            ],
            [
              2.721109,
              7.683519
            ],
            [
              2.726377,
              7.730962
            ],
            [
              2.726899,
              7.737305
            ],
            [
              2.728033,
              7.746943
            ],
            [
              2.7284,
              7.751788
            ],
            [
              2.728963,
              7.755383
            ],
            [
              2.730275,
              7.758177
            ],
            [
              2.73159,
              7.761869
            ],
            [
              2.73356,
              7.766559
            ],
            [
              2.733264,
              7.767859
            ],
            [
              2.727246,
              7.782116
            ],
            [
              2.724611,
              7.788719
            ],
            [
              2.724364,
              7.789719
            ],
            [
              2.724473,
              7.792466
            ],
            [
              2.725558,
              7.802704
            ],
            [
              2.725311,
              7.803654
            ],
            [
              2.722218,
              7.808459
            ],
            [
              2.72112,
              7.809811
            ],
            [
              2.716774,
              7.814321
            ],
            [
              2.712726,
              7.81823
            ],
            [
              2.711478,
              7.819782
            ],
            [
              2.69697,
              7.844704
            ],
            [
              2.689988,
              7.856215
            ],
            [
              2.684252,
              7.865474
            ],
            [
              2.682355,
              7.868027
            ],
            [
              2.678314,
              7.874433
            ],
            [
              2.677718,
              7.876233
            ],
            [
              2.677126,
              7.879482
            ],
            [
              2.676932,
              7.88158
            ],
            [
              2.677292,
              7.884477
            ],
            [
              2.679427,
              7.894461
            ],
            [
              2.680282,
              7.895358
            ],
            [
              2.68139,
              7.897053
            ],
            [
              2.681343,
              7.898003
            ],
            [
              2.680445,
              7.899454
            ],
            [
              2.679245,
              7.900756
            ],
            [
              2.678048,
              7.902758
            ],
            [
              2.678153,
              7.904406
            ],
            [
              2.678709,
              7.905953
            ],
            [
              2.679464,
              7.9068
            ],
            [
              2.681119,
              7.907195
            ],
            [
              2.685731,
              7.907132
            ],
            [
              2.687236,
              7.907427
            ],
            [
              2.688893,
              7.908321
            ],
            [
              2.689899,
              7.909418
            ],
            [
              2.690808,
              7.911613
            ],
            [
              2.692821,
              7.914305
            ],
            [
              2.69278,
              7.917202
            ],
            [
              2.691633,
              7.919404
            ],
            [
              2.69089,
              7.922153
            ],
            [
              2.690292,
              7.923454
            ],
            [
              2.689945,
              7.924754
            ],
            [
              2.690049,
              7.926152
            ],
            [
              2.690805,
              7.927249
            ],
            [
              2.691659,
              7.928096
            ],
            [
              2.695471,
              7.928734
            ],
            [
              2.696877,
              7.92933
            ],
            [
              2.697832,
              7.930276
            ],
            [
              2.698438,
              7.931673
            ],
            [
              2.699544,
              7.932619
            ],
            [
              2.7001,
              7.934216
            ],
            [
              2.699603,
              7.935516
            ],
            [
              2.697054,
              7.938221
            ],
            [
              2.695956,
              7.939873
            ],
            [
              2.695409,
              7.941423
            ],
            [
              2.695614,
              7.942821
            ],
            [
              2.69682,
              7.943817
            ],
            [
              2.699883,
              7.945357
            ],
            [
              2.700689,
              7.946753
            ],
            [
              2.701145,
              7.948151
            ],
            [
              2.701304,
              7.951147
            ],
            [
              2.701759,
              7.952395
            ],
            [
              2.703827,
              7.956635
            ],
            [
              2.705087,
              7.95878
            ],
            [
              2.705997,
              7.961375
            ],
            [
              2.705655,
              7.964373
            ],
            [
              2.706217,
              7.967919
            ],
            [
              2.708335,
              7.971809
            ],
            [
              2.708641,
              7.973557
            ],
            [
              2.708805,
              7.978302
            ],
            [
              2.71007,
              7.981945
            ],
            [
              2.709873,
              7.983245
            ],
            [
              2.709877,
              7.984593
            ],
            [
              2.712003,
              7.991182
            ],
            [
              2.712264,
              7.994728
            ],
            [
              2.713427,
              7.998221
            ],
            [
              2.713231,
              7.999671
            ],
            [
              2.7129693855421686,
              8
            ],
            [
              2,
              8
            ],
            [
              2,
              7
            ]
          ]
        ]
      }
    },
    {
      "type": "Feature",
      "properties": {
        "osm_id": -192787,
        "boundary": "administrative",
        "admin_level": 2,
        "parents": null,
        "name": "Nigeria",
        "local_name": "Nigeria",
        "name_en": "Nigeria",
        "all_tags": {
          "flag": "http://upload.wikimedia.org/wikipedia/commons/7/79/Flag_of_Nigeria.svg",
          "name": "Nigeria",
          "name:af": "Nigerië",
          "name:ak": "Nigeria",
          "name:am": "ናይጄሪያ",
          "name:an": "Nicheria",
          "name:ar": "نيجيريا",
          "name:az": "Nigeriya",
          "name:ba": "Нигерия",
          "name:be": "Нігерыя",
          "name:bg": "Нигерия",
          "name:bm": "Nijeria",
          "name:bn": "নাইজেরিয়া",
          "name:bo": "ནི་ཇི་རི་ཡ།",
          "name:br": "Nigeria",
          "name:bs": "Nigerija",
          "name:ca": "Nigèria",
          "name:ce": "Нигери",
          "name:cs": "Nigérie",
          "name:cv": "Нигери",
          "name:cy": "Nigeria",
          "name:da": "Nigeria",
          "name:de": "Nigeria",
          "name:dv": "ނައިޖީރިއާ",
          "name:ee": "Nigeria",
          "name:el": "Νιγηρία",
          "name:en": "Nigeria",
          "name:eo": "Niĝerio",
          "name:es": "Nigeria",
          "name:et": "Nigeeria",
          "name:eu": "Nigeria",
          "name:fa": "نیجریه",
          "name:ff": "Niiseriya",
          "name:fi": "Nigeria",
          "name:fo": "Nigeria",
          "name:fr": "Nigéria",
          "name:fy": "Nigearia",
          "name:ga": "An Nigéir",
          "name:gd": "Nìgeiria",
          "name:gl": "Nixeria",
          "name:gn": "Niheria",
          "name:gu": "નાઈજેરિયા",
          "name:gv": "Yn Naigeer",
          "name:ha": "Nijeriya",
          "name:he": "ניגריה",
          "name:hi": "नाईजीरिया",
          "name:hr": "Nigerija",
          "name:ht": "Nijerya",
          "name:hu": "Nigéria",
          "name:hy": "Նիգերիա",
          "name:ia": "Nigeria",
          "name:id": "Nigeria",
          "name:ie": "Nigeria",
          "name:ig": "Naigeria",
          "name:io": "Nigeria",
          "name:is": "Nígería",
          "name:it": "Nigeria",
          "name:ja": "ナイジェリア",
          "name:jv": "Nigeria",
          "name:ka": "ნიგერია",
          "name:kg": "Nizeria",
          "name:kk": "Нигерия",
          "name:kn": "ನೈಜೀರಿಯ",
          "name:ko": "나이지리아",
          "name:ks": "نایجیرِیا",
          "name:ku": "Nîjerya",
          "name:kw": "Nijeri",
          "name:la": "Nigeria",
          "name:lb": "Nigeria",
          "name:li": "Nigeria",
          "name:ln": "Nizeria",
          "name:lt": "Nigerija",
          "name:lv": "Nigērija",
          "name:mg": "Nizeria",
          "name:mi": "Ngāitiria",
          "name:mk": "Нигерија",
          "name:ml": "നൈജീരിയ",
          "name:mn": "Нигери",
          "name:mr": "नायजेरिया",
          "name:ms": "Nigeria",
          "name:mt": "Niġerja",
          "name:my": "နိုင်ဂျီးရီးယားနိုင်ငံ",
          "name:ne": "नाइजेरिया",
          "name:nl": "Nigeria",
          "name:nn": "Nigeria",
          "name:no": "Nigeria",
          "name:oc": "Nigèria",
          "name:or": "ନାଇଜେରିଆ",
          "name:os": "Нигери",
          "name:pa": "ਨਾਈਜੀਰੀਆ",
          "name:pl": "Nigeria",
          "name:ps": "نايجېريا",
          "name:pt": "Nigéria",
          "name:qu": "Niqirya",
          "name:ro": "Nigeria",
          "name:ru": "Нигерия",
          "name:rw": "Nijeriya",
          "name:sa": "नैजीरिया",
          "name:sc": "Nigéria",
          "name:se": "Nigeria",
          "name:sg": "Nizerïa",
          "name:sh": "Nigerija",
          "name:sk": "Nigéria",
          "name:sl": "Nigerija",
          "name:sn": "Nigeria",
          "name:so": "Nayjeeriya",
          "name:sq": "Nigeria",
          "name:sr": "Нигерија",
          "name:ss": "INayijeriya",
          "name:su": "Nigeria",
          "name:sv": "Nigeria",
          "name:sw": "Nigeria",
          "name:ta": "நைஜீரியா",
          "name:te": "నైజీరియా",
          "name:tg": "Ниҷерия",
          "name:th": "ประเทศไนจีเรีย",
          "name:ti": "ናይጂሪያ",
          "name:tk": "Nigeriýa",
          "name:tl": "Nigerya",
          "name:tr": "Nijerya",
          "name:ts": "Nigeria",
          "name:tt": "Нигерия",
          "name:ug": "نىگېرىيە",
          "name:uk": "Нігерія",
          "name:ur": "نائجیریا",
          "name:uz": "Nigeriya",
          "name:vi": "Nigeria",
          "name:vo": "Nigeriyän",
          "name:wa": "Nidjeria",
          "name:xh": "INigeria",
          "name:yi": "ניגעריע",
          "name:yo": "Nàìjíríà",
          "name:za": "Nizywlihya",
          "name:zh": "尼日利亚 / 奈及利亞",
          "name:zu": "INigeria",
          "boundary": "administrative",
          "name:als": "Nigeria",
          "name:ang": "Nigeria",
          "name:arz": "نايجيريا",
          "name:ast": "Nixeria",
          "name:bar": "Nigeria",
          "name:bcl": "Nigerya",
          "name:bjn": "Nigeria",
          "name:bpy": "নাইজেরিয়া",
          "name:bxr": "Нигери",
          "name:ceb": "Nigeria",
          "name:ckb": "نێجیریا",
          "name:crh": "Nigeriya",
          "name:din": "Naijeria",
          "name:diq": "Nicerya",
          "name:dsb": "Nigerija",
          "name:ext": "Nigéria",
          "name:frp": "Nig·èria",
          "name:gag": "Nigeriya",
          "name:gan": "尼日利亞",
          "name:hak": "Nai-khi̍p-li-â",
          "name:hif": "Nigeria",
          "name:hsb": "Nigerija",
          "name:ilo": "Nigeria",
          "name:jbo": "gugdrnaidjiria",
          "name:lad": "Nijeria",
          "name:lez": "Нигерия",
          "name:lij": "Nigeria",
          "name:lmo": "Nigeria",
          "name:ltg": "Nigereja",
          "name:lzh": "尼日利亞",
          "name:mrj": "Нигери",
          "name:nah": "Nigeria",
          "name:nan": "Nigeria",
          "name:nds": "Nigeria",
          "name:nov": "Nigeria",
          "name:nso": "Nigeria",
          "name:pam": "Nigeria",
          "name:pap": "Nigeria",
          "name:pih": "Niijiirya",
          "name:pms": "Nigeria",
          "name:pnb": "نائیجیریا",
          "name:rue": "Ніґерія",
          "name:sah": "Нигерия",
          "name:scn": "Nigeria",
          "name:sco": "Nigerie",
          "name:smn": "Nigeria",
          "name:sms": "Nigeria",
          "name:stq": "Nigeria",
          "name:szl": "Ńigeryjo",
          "name:tpi": "Naijiria",
          "name:tzl": "Nigeria",
          "name:vec": "Nigeria",
          "name:vro": "Nigeeriä",
          "name:war": "Nigerya",
          "name:wuu": "尼日利亚",
          "name:xal": "Нигермудин Ниицәтә Орн",
          "name:yue": "尼日利亞",
          "timezone": "Africa/Lagos",
          "way_area": "76.459",
          "wikidata": "Q1033",
          "ISO3166-1": "NG",
          "wikipedia": "en:Nigeria",
          "admin_level": "2",
          "name:simple": "Nigeria",
          "name:bat-smg": "Nigerėjė",
          "name:zh-Hans": "尼日利亚",
          "name:zh-Hant": "奈及利亞",
          "name:roa-tara": "Nigerie",
          "name:be-tarask": "Нігерыя",
          "ISO3166-1:alpha2": "NG",
          "ISO3166-1:alpha3": "NGA",
          "default_language": "en",
          "official_name:ar": "جمهورية نيجيريا الاتحادية",
          "official_name:cs": "Nigerijská federativní republika",
          "official_name:en": "Federal Republic of Nigeria",
          "official_name:fa": "جمهوری فدرال نیجریه",
          "ISO3166-1:numeric": "566"
        }
      },
      "geometry": {
        "type": "Polygon",
        "coordinates": [
          [
            [
              2.676932,
              7.88158
            ],
            [
              2.677126,
              7.879482
            ],
            [
              2.677718,
              7.876233
            ],
            [
              2.678314,
              7.874433
            ],
            [
              2.682355,
              7.868027
            ],
            [
              2.684252,
              7.865474
            ],
            [
              2.689988,
              7.856215
            ],
            [
              2.69697,
              7.844704
            ],
            [
              2.711478,
              7.819782
            ],
            [
              2.712726,
              7.81823
            ],
            [
              2.716774,
              7.814321
            ],
            [
              2.72112,
              7.809811
            ],
            [
              2.722218,
              7.808459
            ],
            [
              2.725311,
              7.803654
            ],
            [
              2.725558,
              7.802704
            ],
            [
              2.724473,
              7.792466
            ],
            [
              2.724364,
              7.789719
            ],
            [
              2.724611,
              7.788719
            ],
            [
              2.727246,
              7.782116
            ],
            [
              2.733264,
              7.767859
            ],
            [
              2.73356,
              7.766559
            ],
            [
              2.73159,
              7.761869
            ],
            [
              2.730275,
              7.758177
            ],
            [
              2.728963,
              7.755383
            ],
            [
              2.7284,
              7.751788
            ],
            [
              2.728033,
              7.746943
            ],
            [
              2.726899,
              7.737305
            ],
            [
              2.726377,
              7.730962
            ],
            [
              2.721109,
              7.683519
            ],
            [
              2.718819,
              7.657899
            ],
            [
              2.718447,
              7.651655
            ],
            [
              2.717836,
              7.64886
            ],
            [
              2.71726,
              7.641268
            ],
            [
              2.716642,
              7.636474
            ],
            [
              2.717047,
              7.622784
            ],
            [
              2.716882,
              7.618539
            ],
            [
              2.71701,
              7.612144
            ],
            [
              2.724161,
              7.608273
            ],
            [
              2.725561,
              7.607319
            ],
            [
              2.726261,
              7.607117
            ],
            [
              2.72661,
              7.606517
            ],
            [
              2.728761,
              7.60556
            ],
            [
              2.729958,
              7.604107
            ],
            [
              2.729552,
              7.60251
            ],
            [
              2.73014,
              7.598761
            ],
            [
              2.730136,
              7.597462
            ],
            [
              2.730829,
              7.595062
            ],
            [
              2.730826,
              7.594213
            ],
            [
              2.731024,
              7.593613
            ],
            [
              2.730614,
              7.590816
            ],
            [
              2.729701,
              7.587772
            ],
            [
              2.729749,
              7.586972
            ],
            [
              2.730296,
              7.585871
            ],
            [
              2.73059,
              7.584022
            ],
            [
              2.730889,
              7.583671
            ],
            [
              2.731733,
              7.581271
            ],
            [
              2.732283,
              7.581019
            ],
            [
              2.733081,
              7.580117
            ],
            [
              2.733777,
              7.578466
            ],
            [
              2.733621,
              7.576718
            ],
            [
              2.732815,
              7.575672
            ],
            [
              2.732657,
              7.573274
            ],
            [
              2.732755,
              7.572824
            ],
            [
              2.733404,
              7.572023
            ],
            [
              2.733901,
              7.571072
            ],
            [
              2.734348,
              7.569921
            ],
            [
              2.734694,
              7.568471
            ],
            [
              2.734738,
              7.566822
            ],
            [
              2.735085,
              7.565722
            ],
            [
              2.735081,
              7.564623
            ],
            [
              2.73518,
              7.564323
            ],
            [
              2.73563,
              7.563922
            ],
            [
              2.735476,
              7.562873
            ],
            [
              2.735971,
              7.561273
            ],
            [
              2.735518,
              7.560575
            ],
            [
              2.735516,
              7.559975
            ],
            [
              2.734961,
              7.558828
            ],
            [
              2.735059,
              7.558328
            ],
            [
              2.734857,
              7.557829
            ],
            [
              2.734955,
              7.55718
            ],
            [
              2.734752,
              7.556381
            ],
            [
              2.734593,
              7.553934
            ],
            [
              2.734391,
              7.553435
            ],
            [
              2.735239,
              7.552483
            ],
            [
              2.735187,
              7.552033
            ],
            [
              2.734783,
              7.551185
            ],
            [
              2.734731,
              7.550536
            ],
            [
              2.734879,
              7.549986
            ],
            [
              2.736476,
              7.548232
            ],
            [
              2.736768,
              7.545633
            ],
            [
              2.737916,
              7.54473
            ],
            [
              2.738817,
              7.544377
            ],
            [
              2.739116,
              7.544026
            ],
            [
              2.739361,
              7.542527
            ],
            [
              2.740358,
              7.540975
            ],
            [
              2.741157,
              7.540472
            ],
            [
              2.741758,
              7.54032
            ],
            [
              2.74286,
              7.540316
            ],
            [
              2.745964,
              7.539806
            ],
            [
              2.746263,
              7.539505
            ],
            [
              2.746311,
              7.539006
            ],
            [
              2.74621,
              7.538756
            ],
            [
              2.745809,
              7.538608
            ],
            [
              2.745808,
              7.538308
            ],
            [
              2.747353,
              7.536004
            ],
            [
              2.74775,
              7.535054
            ],
            [
              2.749337,
              7.535079
            ],
            [
              2.749817,
              7.534492
            ],
            [
              2.751484,
              7.534155
            ],
            [
              2.752843,
              7.533185
            ],
            [
              2.755999,
              7.532807
            ],
            [
              2.756912,
              7.53219
            ],
            [
              2.757965,
              7.532141
            ],
            [
              2.758492,
              7.531693
            ],
            [
              2.758673,
              7.531129
            ],
            [
              2.759348,
              7.530497
            ],
            [
              2.759484,
              7.530068
            ],
            [
              2.760101,
              7.529663
            ],
            [
              2.760495,
              7.529028
            ],
            [
              2.760985,
              7.528869
            ],
            [
              2.761827,
              7.527867
            ],
            [
              2.761673,
              7.527184
            ],
            [
              2.762041,
              7.526259
            ],
            [
              2.762354,
              7.526311
            ],
            [
              2.762578,
              7.526096
            ],
            [
              2.764181,
              7.526091
            ],
            [
              2.764374,
              7.525939
            ],
            [
              2.764427,
              7.523917
            ],
            [
              2.764868,
              7.523337
            ],
            [
              2.76493,
              7.522615
            ],
            [
              2.765071,
              7.522447
            ],
            [
              2.765413,
              7.522448
            ],
            [
              2.765795,
              7.522725
            ],
            [
              2.766102,
              7.522421
            ],
            [
              2.766741,
              7.52215
            ],
            [
              2.767517,
              7.522526
            ],
            [
              2.767691,
              7.52192
            ],
            [
              2.768243,
              7.521886
            ],
            [
              2.768698,
              7.52138
            ],
            [
              2.769149,
              7.521206
            ],
            [
              2.769833,
              7.521248
            ],
            [
              2.770618,
              7.52064
            ],
            [
              2.770782,
              7.519961
            ],
            [
              2.771184,
              7.519687
            ],
            [
              2.771902,
              7.518757
            ],
            [
              2.772365,
              7.518491
            ],
            [
              2.772895,
              7.518477
            ],
            [
              2.773284,
              7.518064
            ],
            [
              2.774145,
              7.518169
            ],
            [
              2.774534,
              7.518011
            ],
            [
              2.775197,
              7.518046
            ],
            [
              2.775699,
              7.517822
            ],
            [
              2.776267,
              7.517931
            ],
            [
              2.776701,
              7.518119
            ],
            [
              2.777044,
              7.518553
            ],
            [
              2.778899,
              7.519219
            ],
            [
              2.779489,
              7.519801
            ],
            [
              2.780351,
              7.519747
            ],
            [
              2.780678,
              7.519525
            ],
            [
              2.781128,
              7.519475
            ],
            [
              2.781757,
              7.518803
            ],
            [
              2.782252,
              7.518575
            ],
            [
              2.782381,
              7.517643
            ],
            [
              2.782839,
              7.517407
            ],
            [
              2.782916,
              7.516908
            ],
            [
              2.783218,
              7.516535
            ],
            [
              2.782908,
              7.515887
            ],
            [
              2.782946,
              7.515537
            ],
            [
              2.78248,
              7.515048
            ],
            [
              2.782878,
              7.51449
            ],
            [
              2.783104,
              7.513601
            ],
            [
              2.782837,
              7.512543
            ],
            [
              2.782248,
              7.511762
            ],
            [
              2.782159,
              7.511418
            ],
            [
              2.783169,
              7.51051
            ],
            [
              2.783266,
              7.5098
            ],
            [
              2.784144,
              7.509477
            ],
            [
              2.784279,
              7.509177
            ],
            [
              2.785492,
              7.508402
            ],
            [
              2.785627,
              7.507907
            ],
            [
              2.786155,
              7.507409
            ],
            [
              2.786546,
              7.50616
            ],
            [
              2.786461,
              7.505738
            ],
            [
              2.787263,
              7.505689
            ],
            [
              2.786716,
              7.504441
            ],
            [
              2.787117,
              7.504242
            ],
            [
              2.78706,
              7.503835
            ],
            [
              2.787523,
              7.503644
            ],
            [
              2.788092,
              7.502806
            ],
            [
              2.78823,
              7.501175
            ],
            [
              2.788922,
              7.500524
            ],
            [
              2.788425,
              7.499853
            ],
            [
              2.788252,
              7.498349
            ],
            [
              2.788825,
              7.497436
            ],
            [
              2.789177,
              7.497281
            ],
            [
              2.789725,
              7.497204
            ],
            [
              2.791797,
              7.497718
            ],
            [
              2.792384,
              7.497407
            ],
            [
              2.792307,
              7.496741
            ],
            [
              2.792467,
              7.49545
            ],
            [
              2.792039,
              7.49451
            ],
            [
              2.791845,
              7.493414
            ],
            [
              2.792473,
              7.492476
            ],
            [
              2.79228,
              7.491458
            ],
            [
              2.792908,
              7.490521
            ],
            [
              2.792713,
              7.490285
            ],
            [
              2.792322,
              7.490245
            ],
            [
              2.792049,
              7.489892
            ],
            [
              2.79205,
              7.489501
            ],
            [
              2.792834,
              7.488368
            ],
            [
              2.792874,
              7.487898
            ],
            [
              2.792445,
              7.487506
            ],
            [
              2.792446,
              7.487036
            ],
            [
              2.792603,
              7.486802
            ],
            [
              2.793308,
              7.486608
            ],
            [
              2.793191,
              7.486295
            ],
            [
              2.792644,
              7.486176
            ],
            [
              2.792646,
              7.485158
            ],
            [
              2.791864,
              7.484921
            ],
            [
              2.791709,
              7.484412
            ],
            [
              2.792378,
              7.482653
            ],
            [
              2.793005,
              7.481911
            ],
            [
              2.793399,
              7.480816
            ],
            [
              2.793946,
              7.481014
            ],
            [
              2.794064,
              7.480583
            ],
            [
              2.79426,
              7.480467
            ],
            [
              2.795158,
              7.481056
            ],
            [
              2.795354,
              7.480861
            ],
            [
              2.79567,
              7.479609
            ],
            [
              2.795631,
              7.479296
            ],
            [
              2.79442,
              7.478823
            ],
            [
              2.79442,
              7.478549
            ],
            [
              2.794655,
              7.478433
            ],
            [
              2.794734,
              7.478041
            ],
            [
              2.794148,
              7.477766
            ],
            [
              2.794267,
              7.477062
            ],
            [
              2.7947,
              7.476124
            ],
            [
              2.794701,
              7.475458
            ],
            [
              2.795054,
              7.474872
            ],
            [
              2.794627,
              7.473423
            ],
            [
              2.795099,
              7.472485
            ],
            [
              2.794865,
              7.472015
            ],
            [
              2.795061,
              7.471742
            ],
            [
              2.795102,
              7.470724
            ],
            [
              2.794751,
              7.47041
            ],
            [
              2.794754,
              7.469275
            ],
            [
              2.793856,
              7.468372
            ],
            [
              2.793779,
              7.467864
            ],
            [
              2.794133,
              7.466925
            ],
            [
              2.793625,
              7.466611
            ],
            [
              2.7939,
              7.466064
            ],
            [
              2.793511,
              7.465436
            ],
            [
              2.792807,
              7.46516
            ],
            [
              2.793005,
              7.464065
            ],
            [
              2.792733,
              7.463399
            ],
            [
              2.793164,
              7.46297
            ],
            [
              2.793087,
              7.462617
            ],
            [
              2.793599,
              7.461014
            ],
            [
              2.793523,
              7.459723
            ],
            [
              2.79368,
              7.459567
            ],
            [
              2.794228,
              7.459529
            ],
            [
              2.793798,
              7.459215
            ],
            [
              2.793761,
              7.458119
            ],
            [
              2.793957,
              7.457845
            ],
            [
              2.793569,
              7.456827
            ],
            [
              2.794039,
              7.456319
            ],
            [
              2.793688,
              7.455927
            ],
            [
              2.794041,
              7.455497
            ],
            [
              2.793963,
              7.455223
            ],
            [
              2.793495,
              7.454831
            ],
            [
              2.79377,
              7.454127
            ],
            [
              2.793537,
              7.4535
            ],
            [
              2.793576,
              7.453305
            ],
            [
              2.794046,
              7.453188
            ],
            [
              2.794164,
              7.452602
            ],
            [
              2.794517,
              7.452446
            ],
            [
              2.794205,
              7.451897
            ],
            [
              2.794402,
              7.451272
            ],
            [
              2.794912,
              7.450725
            ],
            [
              2.794873,
              7.45049
            ],
            [
              2.794365,
              7.450058
            ],
            [
              2.794327,
              7.449706
            ],
            [
              2.794876,
              7.449277
            ],
            [
              2.794368,
              7.448728
            ],
            [
              2.794645,
              7.447633
            ],
            [
              2.79445,
              7.447006
            ],
            [
              2.794764,
              7.44642
            ],
            [
              2.793866,
              7.44583
            ],
            [
              2.793671,
              7.445517
            ],
            [
              2.793869,
              7.444696
            ],
            [
              2.793675,
              7.443834
            ],
            [
              2.794185,
              7.443366
            ],
            [
              2.794422,
              7.441879
            ],
            [
              2.793916,
              7.4409
            ],
            [
              2.793995,
              7.440391
            ],
            [
              2.794192,
              7.440157
            ],
            [
              2.795601,
              7.43926
            ],
            [
              2.796034,
              7.43797
            ],
            [
              2.795725,
              7.436013
            ],
            [
              2.795335,
              7.435855
            ],
            [
              2.794828,
              7.435306
            ],
            [
              2.795261,
              7.43382
            ],
            [
              2.794757,
              7.431783
            ],
            [
              2.794523,
              7.431391
            ],
            [
              2.793859,
              7.430959
            ],
            [
              2.793665,
              7.430528
            ],
            [
              2.793901,
              7.429746
            ],
            [
              2.791947,
              7.429271
            ],
            [
              2.778187,
              7.427472
            ],
            [
              2.770639,
              7.427686
            ],
            [
              2.758123,
              7.429295
            ],
            [
              2.749332,
              7.426453
            ],
            [
              2.747771,
              7.424961
            ],
            [
              2.74484,
              7.424327
            ],
            [
              2.743965,
              7.413562
            ],
            [
              2.744242,
              7.412115
            ],
            [
              2.744995,
              7.281294
            ],
            [
              2.749539,
              7.257434
            ],
            [
              2.749892,
              7.25677
            ],
            [
              2.757291,
              7.251467
            ],
            [
              2.75775,
              7.24904
            ],
            [
              2.7583,
              7.243174
            ],
            [
              2.759319,
              7.237504
            ],
            [
              2.761557,
              7.216738
            ],
            [
              2.7690416,
              7.1621405
            ],
            [
              2.7704106,
              7.1561413
            ],
            [
              2.7715076,
              7.1480063
            ],
            [
              2.7719416,
              7.1408665
            ],
            [
              2.7728036,
              7.1330055
            ],
            [
              2.7404616,
              7.1049525
            ],
            [
              2.7444496,
              7.0970155
            ],
            [
              2.7487496,
              7.0891565
            ],
            [
              2.7526986,
              7.0813355
            ],
            [
              2.7581326,
              7.0715215
            ],
            [
              2.7594226,
              7.0684715
            ],
            [
              2.7595796,
              7.0670635
            ],
            [
              2.7595416,
              7.0628005
            ],
            [
              2.7614226,
              7.0433635
            ],
            [
              2.7601736,
              7.0400785
            ],
            [
              2.7538846,
              7.0365955
            ],
            [
              2.7503686,
              7.0353045
            ],
            [
              2.7484156,
              7.0333875
            ],
            [
              2.7422066,
              7.0281455
            ],
            [
              2.7379886,
              7.0243115
            ],
            [
              2.7318956,
              7.0190695
            ],
            [
              2.7289276,
              7.0167995
            ],
            [
              2.7282656,
              7.0119115
            ],
            [
              2.7265886,
              7.0026425
            ],
            [
              2.7255736,
              7.0003345
            ],
            [
              2.7253924352365417,
              7
            ],
            [
              3,
              7
            ],
            [
              3,
              8
            ],
            [
              2.7129693855421686,
              8
            ],
            [
              2.713231,
              7.999671
            ],
            [
              2.713427,
              7.998221
            ],
            [
              2.712264,
              7.994728
            ],
            [
              2.712003,
              7.991182
            ],
            [
              2.709877,
              7.984593
            ],
            [
              2.709873,
              7.983245
            ],
            [
              2.71007,
              7.981945
            ],
            [
              2.708805,
              7.978302
            ],
            [
              2.708641,
              7.973557
            ],
            [
              2.708335,
              7.971809
            ],
            [
              2.706217,
              7.967919
            ],
            [
              2.705655,
              7.964373
            ],
            [
              2.705997,
              7.961375
            ],
            [
              2.705087,
              7.95878
            ],
            [
              2.703827,
              7.956635
            ],
            [
              2.701759,
              7.952395
            ],
            [
              2.701304,
              7.951147
            ],
            [
              2.701145,
              7.948151
            ],
            [
              2.700689,
              7.946753
            ],
            [
              2.699883,
              7.945357
            ],
            [
              2.69682,
              7.943817
            ],
            [
              2.695614,
              7.942821
            ],
            [
              2.695409,
              7.941423
            ],
            [
              2.695956,
              7.939873
            ],
            [
              2.697054,
              7.938221
            ],
            [
              2.699603,
              7.935516
            ],
            [
              2.7001,
              7.934216
            ],
            [
              2.699544,
              7.932619
            ],
            [
              2.698438,
              7.931673
            ],
            [
              2.697832,
              7.930276
            ],
            [
              2.696877,
              7.92933
            ],
            [
              2.695471,
              7.928734
            ],
            [
              2.691659,
              7.928096
            ],
            [
              2.690805,
              7.927249
            ],
            [
              2.690049,
              7.926152
            ],
            [
              2.689945,
              7.924754
            ],
            [
              2.690292,
              7.923454
            ],
            [
              2.69089,
              7.922153
            ],
            [
              2.691633,
              7.919404
            ],
            [
              2.69278,
              7.917202
            ],
            [
              2.692821,
              7.914305
            ],
            [
              2.690808,
              7.911613
            ],
            [
              2.689899,
              7.909418
            ],
            [
              2.688893,
              7.908321
            ],
            [
              2.687236,
              7.907427
            ],
            [
              2.685731,
              7.907132
            ],
            [
              2.681119,
              7.907195
            ],
            [
              2.679464,
              7.9068
            ],
            [
              2.678709,
              7.905953
            ],
            [
              2.678153,
              7.904406
            ],
            [
              2.678048,
              7.902758
            ],
            [
              2.679245,
              7.900756
            ],
            [
              2.680445,
              7.899454
            ],
            [
              2.681343,
              7.898003
            ],
            [
              2.68139,
              7.897053
            ],
            [
              2.680282,
              7.895358
            ],
            [
              2.679427,
              7.894461
            ],
            [
              2.677292,
              7.884477
            ],
            [
              2.676932,
              7.88158
            ]
          ]
        ]
      }
    }
  ]
}