{
  "type": "FeatureCollection",
  "features": [
    {
      "type": "Feature",
      "properties": {
        "osm_id": -184843,
        "boundary": "administrative",
        "admin_level": 2,
        "parents": null,
        "name": "Lebanon",
        "local_name": "لبنان",
        "name_en": "Lebanon",
        "all_tags": {
          "flag": "http://upload.wikimedia.org/wikipedia/commons/5/59/Flag_of_Lebanon.svg",
          "name": "لبنان",
          "name:af": "Libanon",
          "name:am": "ሊባኖስ",
          "name:an": "Liban",
          "name:ar": "لبنان",
          "name:az": "Livan",
          "name:ba": "Ливан",
          "name:be": "Ліван",
          "name:bg": "Ливан",
          "name:bm": "Lubenan",
          "name:bn": "লেবানন",
          "name:bo": "ལེ་པ་ནོན།",
          "name:br": "Liban",
          "name:bs": "Liban",
          "name:ca": "Líban",
          "name:ce": "Ливан",
          "name:cs": "Libanon",
          "name:cv": "Ливан",
          "name:cy": "Libanus",
          "name:da": "Libanon",
          "name:de": "Libanon",
          "name:dv": "ލުބުނާން",
          "name:dz": "ལེ་བཱ་ནཱོན་",
          "name:el": "Λίβανος",
          "name:en": "Lebanon",
          "name:eo": "Libano",
          "name:es": "Líbano",
          "name:et": "Liibanon",
          "name:eu": "Libano",
          "name:fa": "لبنان",
          "name:fi": "Libanon",
          "name:fo": "Libanon",
          "name:fr": "Liban",
          "name:fy": "Libanon",
          "name:ga": "An Liobáin",
          "name:gd": "Leabanon",
          "name:gl": "Líbano",
          "name:gn": "Lívano",
          "name:gu": "લેબેનાન",
          "name:gv": "Yn Livaan",
          "name:he": "לבנון",
          "name:hi": "लेबनान",
          "name:hr": "Libanon",
          "name:ht": "Liban",
          "name:hu": "Libanon",
          "name:hy": "Լիբանան",
          "name:ia": "Libano",
          "name:id": "Lebanon",
          "name:ie": "Libano",
          "name:io": "Libano",
          "name:is": "Líbanon",
          "name:it": "Libano",
          "name:ja": "レバノン",
          "name:jv": "Libanon",
          "name:ka": "ლიბანი",
          "name:kk": "Ливан",
          "name:kl": "Lebanon",
          "name:km": "លីបង់",
          "name:ko": "레바논",
          "name:ku": "Libnan",
          "name:kv": "Ливан",
          "name:kw": "Lebnon",
          "name:ky": "Ливан",
          "name:la": "Libanus",
          "name:lb": "Libanon",
          "name:li": "Libanon",
          "name:lt": "Libanas",
          "name:lv": "Libāna",
          "name:mi": "Repanona",
          "name:mk": "Либан",
          "name:ml": "ലെബനാൻ",
          "name:mn": "Ливан",
          "name:mr": "लेबेनॉन",
          "name:ms": "Lubnan",
          "name:mt": "Libanu",
          "name:my": "လက်ဘနွန်နိုင်ငံ",
          "name:na": "Ribanon",
          "name:nl": "Libanon",
          "name:nn": "Libanon",
          "name:no": "Libanon",
          "name:nv": "Łíbanoo",
          "name:oc": "Liban",
          "name:or": "ଲେବନାନ",
          "name:os": "Ливан",
          "name:pa": "ਲਿਬਨਾਨ",
          "name:pl": "Liban",
          "name:ps": "لېبنان",
          "name:pt": "Líbano",
          "name:qu": "Libanu",
          "name:ro": "Liban",
          "name:ru": "Ливан",
          "name:rw": "Libani",
          "name:sa": "लेबनान",
          "name:se": "Libanon",
          "name:sh": "Libanon",
          "name:sk": "Libanon",
          "name:sl": "Libanon",
          "name:so": "Lubnaan",
          "name:sq": "Libani",
          "name:sr": "Либан",
          "name:ss": "ILibhanoni",
          "name:su": "Libanon",
          "name:sv": "Libanon",
          "name:sw": "Lebanoni",
          "name:ta": "லெபனான்",
          "name:te": "లెబనాన్",
          "name:tg": "Лубнон",
          "name:th": "ประเทศเลบานอน",
          "name:tk": "Liwan",
          "name:tl": "Libano",
          "name:tr": "Lübnan",
          "name:tt": "Ливан",
          "name:ug": "لىۋان",
          "name:uk": "Ліван",
          "name:ur": "لبنان",
          "name:uz": "Livan",
          "name:vi": "Liban",
          "name:vo": "Libanän",
          "name:wo": "Libaa",
          "name:yi": "לבנון",
          "name:yo": "Lẹ́bánọ́nì",
          "name:zh": "黎巴嫩",
          "boundary": "administrative",
          "int_name": "Lebanon",
          "name:ace": "Lebanon",
          "name:als": "Libanon",
          "name:ang": "Libanus",
          "name:arc": "ܠܒܢܢ",
          "name:arz": "لبنان",
          "name:ast": "El Líbanu",
          "name:bar": "Libanon",
          "name:bcl": "Lebanon",
          "name:bpy": "লেবানন",
          "name:bug": "Lebanon",
          "name:bxr": "Ливан",
          "name:cdo": "Lé-bă-nâung",
          "name:ceb": "Libano",
          "name:ckb": "لوبنان",
          "name:crh": "Lübnan",
          "name:csb": "Liban",
          "name:diq": "Lubnan",
          "name:dsb": "Libanon",
          "name:ext": "Líbanu",
          "name:frp": "Liban",
          "name:gag": "Livan",
          "name:hak": "Lì-pâ-nun",
          "name:haw": "Lepanona",
          "name:hif": "Lebanon",
          "name:hsb": "Libanon",
          "name:ilo": "Lebanon",
          "name:jbo": "lu'orgu'e",
          "name:kab": "Lubnan",
          "name:kbd": "Ливан",
          "name:lad": "Levanon",
          "name:lez": "Ливан",
          "name:lij": "Libano",
          "name:lmo": "Liban",
          "name:lrc": "لوبنان",
          "name:mdf": "Ливан",
          "name:mhr": "Ливан",
          "name:nah": "Libano",
          "name:nan": "Lī-pa-lùn",
          "name:nap": "Libbano",
          "name:nds": "Libanon",
          "name:new": "लेबानन",
          "name:nov": "Liban",
          "name:pam": "Libano",
          "name:pap": "Líbano",
          "name:pih": "Lebanon",
          "name:pms": "Lìban",
          "name:pnb": "لبنان",
          "name:pnt": "Λίβανος",
          "name:sah": "Либан",
          "name:scn": "Lìbbanu",
          "name:sco": "Lebanon",
          "name:smn": "Libanon",
          "name:sms": "Libanoon",
          "name:szl": "Liban",
          "name:tet": "Líbanu",
          "name:tzl": "Libnun",
          "name:udm": "Ливан",
          "name:vec": "Libano",
          "name:vro": "Liibanon",
          "name:war": "Libano",
          "name:wuu": "黎巴嫩",
          "name:xal": "Лебанмудин Орн",
          "name:yue": "黎巴嫩",
          "timezone": "Asia/Beirut",
          "way_area": "1.44724",
          "wikidata": "Q822",
          "ISO3166-1": "LB",
          "wikipedia": "ar:لبنان",
          "admin_level": "2",
          "name:simple": "Lebanon",
          "name:bat-smg": "Lėbans",
          "name:ku-Arab": "لبنان",
          "name:zh-Hans": "黎巴嫩",
          "name:zh-Hant": "黎巴嫩",
          "official_name": "الجمهورية اللبنانية",
          "name:be-tarask": "Лібан",
          "ISO3166-1:alpha2": "LB",
          "ISO3166-1:alpha3": "LBN",
          "default_language": "ar",
          "official_name:ar": "الجمهورية اللبنانية",
          "official_name:cs": "Libanonská republika",
          "official_name:de": "Libanesische Republik",
          "official_name:en": "Lebanese Republic",
          "official_name:es": "República Libanesa",
          "official_name:fa": "جمهوری لبنان",
          "official_name:ru": "Ливанская Республика",
          "official_name:ur": "لبنانی جمہوریہ",
          "ISO3166-1:numeric": "422"
        }
      },
      "geometry": {
        "type": "Polygon",
        "coordinates": [
          [
            [
              35.260625231555274,
              34
            ],
            [
              36,
              34
            ],
            [
              36,
              34.64355707821142
            ],
            [
              35.9986474,
              34.6432685
            ],
            [
              35.9965145,
              34.6425293
            ],
            [
              35.99513,
              34.6426356
            ],
            [
              35.994524,
              34.6429056
            ],
            [
              35.9935754,
              34.6444275
            ],
            [
              35.9931795,
              34.6446049
            ],
            [
              35.9928131,
              34.6444539
            ],
            [
              35.9926715,
              34.6430704
            ],
            [
              35.9924075,
              34.6426723
            ],
            [
              35.9913523,
              34.6427402
            ],
            [
              35.9899372,
              34.6433683
            ],
            [
              35.9895735,
              34.6437606
            ],
            [
              35.9897516,
              34.644807
            ],
            [
              35.9894866,
              34.6463556
            ],
            [
              35.9896969,
              34.6468305
            ],
            [
              35.9908363,
              34.6479465
            ],
            [
              35.9911281,
              34.6484876
            ],
            [
              35.9912123,
              34.6493852
            ],
            [
              35.9910809,
              34.6499642
            ],
            [
              35.9906727,
              34.6504028
            ],
            [
              35.9899265,
              34.6506072
            ],
            [
              35.9889067,
              34.6500895
            ],
            [
              35.9883708,
              34.6496359
            ],
            [
              35.9877013,
              34.6496045
            ],
            [
              35.9872073,
              34.6493693
            ],
            [
              35.9868983,
              34.6489364
            ],
            [
              35.9868087,
              34.6483733
            ],
            [
              35.9864198,
              34.6481795
            ],
            [
              35.9851387,
              34.6485074
            ],
            [
              35.9841495,
              34.6493592
            ],
            [
              35.983428,
              34.649266
            ],
            [
              35.9815601,
              34.6497947
            ],
            [
              35.9809727,
              34.6497846
            ],
            [
              35.9804991,
              34.6494854
            ],
            [
              35.9803413,
              34.6488843
            ],
            [
              35.9804615,
              34.6482585
            ],
            [
              35.9813804,
              34.6459518
            ],
            [
              35.9814035,
              34.6451301
            ],
            [
              35.9811744,
              34.6445983
            ],
            [
              35.9803252,
              34.6440938
            ],
            [
              35.9783849,
              34.6442787
            ],
            [
              35.9769119,
              34.6441587
            ],
            [
              35.9762172,
              34.6437964
            ],
            [
              35.975795,
              34.6431198
            ],
            [
              35.9758358,
              34.6424503
            ],
            [
              35.9765144,
              34.6409705
            ],
            [
              35.976929,
              34.6387174
            ],
            [
              35.9780011,
              34.6360352
            ],
            [
              35.9780084,
              34.6348214
            ],
            [
              35.9776766,
              34.634361
            ],
            [
              35.9770556,
              34.634077
            ],
            [
              35.9754717,
              34.6338937
            ],
            [
              35.8396111,
              34.6006667
            ],
            [
              35.8218889,
              34.6164722
            ],
            [
              35.7996667,
              34.6326667
            ],
            [
              35.7763889,
              34.6487778
            ],
            [
              35.7541111,
              34.6618056
            ],
            [
              35.7227278,
              34.6712222
            ],
            [
              35.6745056,
              34.6859694
            ],
            [
              35.6579037,
              34.6803222
            ],
            [
              35.6244671,
              34.6649974
            ],
            [
              35.5912303,
              34.6430081
            ],
            [
              35.5643272,
              34.6176354
            ],
            [
              35.5412092,
              34.586467
            ],
            [
              35.5259217,
              34.5536047
            ],
            [
              35.5178006,
              34.5188289
            ],
            [
              35.5172119,
              34.4834128
            ],
            [
              35.5202596,
              34.4675098
            ],
            [
              35.5124101,
              34.4561265
            ],
            [
              35.4791748,
              34.4247528
            ],
            [
              35.443122,
              34.3836728
            ],
            [
              35.4254156,
              34.3530948
            ],
            [
              35.4141959,
              34.3204758
            ],
            [
              35.409778,
              34.2867535
            ],
            [
              35.410765,
              34.2723471
            ],
            [
              35.3962244,
              34.2356067
            ],
            [
              35.390476,
              34.1997699
            ],
            [
              35.3897645,
              34.1853161
            ],
            [
              35.3868941,
              34.1736454
            ],
            [
              35.3859779,
              34.1315196
            ],
            [
              35.3947562,
              34.0961191
            ],
            [
              35.3928989,
              34.0910271
            ],
            [
              35.3682795,
              34.0826235
            ],
            [
              35.3401587,
              34.0696586
            ],
            [
              35.3240769,
              34.0603452
            ],
            [
              35.3077695,
              34.0492387
            ],
            [
              35.2922304,
              34.0364062
            ],
            [
              35.2799851,
              34.0245677
            ],
            [
              35.2660154,
              34.0081329
            ],
            [
              35.260625231555274,
              34
            ]
          ]
        ]
      }
    },
    {
      "type": "Feature",
      "properties": {
        "osm_id": -184840,
        "boundary": "administrative",
        "admin_level": 2,
        "parents": null,
        "name": "Syria",
        "local_name": "سوريا",
        "name_en": "Syria",
        "all_tags": {
          "flag": "http://upload.wikimedia.org/wikipedia/commons/5/53/Flag_of_Syria.svg",
          "name": "سوريا",
          "name:af": "Sirië",
          "name:am": "ሶርያ",
          "name:an": "Siria",
          "name:ar": "سوريا",
          "name:av": "Сирия",
          "name:az": "Suriya",
          "name:ba": "Сирия",
          "name:be": "Сірыя",
          "name:bg": "Сирия",
          "name:bm": "Suriya",
          "name:bn": "সিরিয়া",
          "name:bo": "སི་རི་ཡ།",
          "name:br": "Siria",
          "name:bs": "Sirija",
          "name:ca": "República Àrab Siriana",
          "name:ce": "Шема",
          "name:cs": "Sýrie",
          "name:cu": "Сѷрїꙗ",
          "name:cv": "Сири",
          "name:cy": "Syria",
          "name:da": "Syrien",
          "name:de": "Syrien",
          "name:dv": "ސޫރިޔާ",
          "name:el": "Συρία",
          "name:en": "Syria",
          "name:eo": "Sirio",
          "name:es": "Siria",
          "name:et": "Süüria",
          "name:eu": "Siria",
          "name:fa": "سوریه",
          "name:fi": "Syyria",
          "name:fo": "Sýria",
          "name:fr": "Syrie",
          "name:fy": "Syrje",
          "name:ga": "An tSiria",
          "name:gd": "Siria",
          "name:gl": "Siria - سورية",
          "name:gn": "Síria",
          "name:gu": "સિરિયા",
          "name:gv": "Yn Teer",
          "name:he": "סוריה",
          "name:hi": "सीरिया",
          "name:hr": "Sirija",
          "name:ht": "Siri",
          "name:hu": "Szíria",
          "name:hy": "Սիրիա",
          "name:ia": "Syria",
          "name:id": "Suriah",
          "name:ie": "Siria",
          "name:io": "Siria",
          "name:is": "Sýrland",
          "name:it": "Siria",
          "name:ja": "シリア",
          "name:jv": "Suriah",
          "name:ka": "სირია",
          "name:ki": "Syria",
          "name:kk": "Сирия",
          "name:kl": "Syria",
          "name:kn": "ಸಿರಿಯಾ",
          "name:ko": "시리아",
          "name:ku": "Sûrî",
          "name:kv": "Сирия",
          "name:kw": "Syri",
          "name:ky": "Сирия",
          "name:la": "Syria",
          "name:lb": "Syrien",
          "name:li": "Syrië",
          "name:ln": "Sirí",
          "name:lt": "Sirija",
          "name:lv": "Sīrija",
          "name:mg": "Siria",
          "name:mi": "Hiria",
          "name:mk": "Сирија",
          "name:ml": "സിറിയ",
          "name:mn": "Сири",
          "name:mr": "सीरिया",
          "name:ms": "Syria",
          "name:my": "ဆီးရီးယားနိုင်ငံ",
          "name:na": "Syria",
          "name:ne": "सीरिया",
          "name:nl": "Syrië",
          "name:nn": "Syria",
          "name:no": "Syria",
          "name:nv": "Sííwiya",
          "name:oc": "Siria",
          "name:or": "ସିରିଆ",
          "name:os": "Сири",
          "name:pa": "ਸੀਰੀਆ",
          "name:pl": "Syria",
          "name:ps": "سوريه",
          "name:pt": "Síria",
          "name:qu": "Sirya",
          "name:ro": "Siria",
          "name:ru": "Сирия",
          "name:rw": "Siriya",
          "name:sa": "सिरिया",
          "name:sc": "Siria",
          "name:sd": "شام",
          "name:se": "Syria",
          "name:sh": "Sirija",
          "name:sk": "Sýria",
          "name:sl": "Sirija",
          "name:so": "Suuriya",
          "name:sq": "Siria",
          "name:sr": "Сирија",
          "name:ss": "ISiriya",
          "name:su": "Suriah",
          "name:sv": "Syrien",
          "name:sw": "Syria",
          "name:ta": "சிரியா",
          "name:te": "సిరియా",
          "name:tg": "Сурия",
          "name:th": "ประเทศซีเรีย",
          "name:tk": "Siriýa",
          "name:tl": "Sirya",
          "name:tr": "Suriye",
          "name:tt": "Сүрия",
          "name:ug": "سۇرىيە",
          "name:uk": "Сирія",
          "name:ur": "شام",
          "name:uz": "Suriya",
          "name:vi": "Syria",
          "name:vo": "Süriyän",
          "name:wa": "Sireye",
          "name:wo": "Siri",
          "name:yi": "סיריע",
          "name:yo": "Síríà",
          "name:zh": "叙利亚 / 敘利亞",
          "alt_name": "سورية",
          "boundary": "administrative",
          "int_name": "Syria",
          "name:ace": "Suriyah",
          "name:als": "Syrien",
          "name:ang": "Syria",
          "name:arc": "ܣܘܪܝܐ",
          "name:arz": "سوريا",
          "name:ast": "Siria",
          "name:azb": "سوریه",
          "name:bar": "Syrien",
          "name:bcl": "Sirya",
          "name:bpy": "সিরিয়া",
          "name:bug": "Suriah",
          "name:bxr": "Сири",
          "name:cdo": "Sṳ̆-lê-ā",
          "name:ceb": "Siria",
          "name:ckb": "سووریا",
          "name:crh": "Suriye",
          "name:diq": "Suriya",
          "name:dsb": "Syriska",
          "name:ext": "Síria",
          "name:frp": "Sirie",
          "name:gag": "Siriya",
          "name:glk": "سوری",
          "name:hak": "Si-li-â",
          "name:haw": "Suria",
          "name:hif": "Syria",
          "name:hsb": "Syriska",
          "name:ilo": "Siria",
          "name:jbo": "sixygu'e",
          "name:kab": "Surya",
          "name:kbd": "Шам",
          "name:lez": "Сирия",
          "name:lij": "Sciria",
          "name:lmo": "Siria",
          "name:lrc": "سۊریٱ",
          "name:mdf": "Сирие",
          "name:mhr": "Сирий",
          "name:mzn": "سوریه",
          "name:nah": "Siria",
          "name:nan": "Su-lī-a",
          "name:nds": "Syrien",
          "name:nov": "Siria",
          "name:pam": "Siria",
          "name:pih": "Siriya",
          "name:pms": "Siria",
          "name:pnb": "شام",
          "name:pnt": "Συρία",
          "name:sah": "Сирия",
          "name:scn": "Siria",
          "name:sco": "Sirie",
          "name:smn": "Syyria",
          "name:sms": "Syyria",
          "name:szl": "Syryjŏ",
          "name:tzl": "Süria",
          "name:udm": "Сирия",
          "name:vro": "Süüria",
          "name:war": "Sirya",
          "name:wuu": "叙利亚",
          "name:xal": "Сирмудин Араб Орн",
          "name:yue": "敘利亞",
          "name:zea": "Syrië",
          "timezone": "Asia/Damascus",
          "way_area": "18.8046",
          "wikidata": "Q858",
          "ISO3166-1": "SY",
          "wikipedia": "ar:سوريا",
          "population": "17951639",
          "admin_level": "2",
          "alt_name:ar": "سورية",
          "name:nds-nl": "Syrië",
          "name:simple": "Syria",
          "alt_name:cdo": "Sê̤ṳ-lé-ā",
          "name:bat-smg": "Sėrėjė",
          "name:ku-Arab": "سووری",
          "name:zh-Hans": "叙利亚",
          "name:zh-Hant": "敘利亞",
          "official_name": "الجمهورية العربية السورية",
          "name:be-tarask": "Сырыя",
          "population:date": "2014",
          "ISO3166-1:alpha2": "SY",
          "ISO3166-1:alpha3": "SYR",
          "default_language": "ar",
          "official_name:ar": "الجمهورية العربية السورية",
          "official_name:cs": "Syrská arabská republika",
          "official_name:en": "Syrian Arab Republic",
          "official_name:fa": "جمهوری عربی سوریه",
          "official_name:fr": "République arabe syrienne",
          "official_name:gn": "Tavakuairetã Árave Síria",
          "official_name:pt": "República Árabe Síria",
          "official_name:ru": "Сирийская Арабская Республика",
          "ISO3166-1:numeric": "760"
        }
      },
      "geometry": {
        "type": "Polygon",
        "coordinates": [
          [
            [
              35.6111927,
              34.9106453
            ],
            [
              35.6143146,
              34.8802932
            ],
            [
              35.6129843,
              34.8492805
            ],
            [
              35.6144494,
              34.8357069
            ],
            [
              35.6196331,
              34.810553
            ],
            [
              35.6323174,
              34.7778136
            ],
            [
              35.6402452,
              34.7652816
            ],
            [
              35.6438228,
              34.7567966
            ],
            [
              35.6557853,
              34.7196431
            ],
            [
              35.6745056,
              34.6859694
            ],
            [
              35.7227278,
              34.6712222
            ],
            [
              35.7541111,
              34.6618056
            ],
            [
              35.7763889,
              34.6487778
            ],
            [
              35.7996667,
              34.6326667
            ],
            [
              35.8218889,
              34.6164722
            ],
            [
              35.8396111,
              34.6006667
            ],
            [
              35.9754717,
              34.6338937
            ],
            [
              35.9770556,
              34.634077
            ],
            [
              35.9776766,
              34.634361
            ],
            [
              35.9780084,
              34.6348214
            ],
            [
              35.9780011,
              34.6360352
            ],
            [
              35.976929,
              34.6387174
            ],
            [
              35.9765144,
              34.6409705
            ],
            [
              35.9758358,
              34.6424503
            ],
            [
              35.975795,
              34.6431198
            ],
            [
              35.9762172,
              34.6437964
            ],
            [
              35.9769119,
              34.6441587
            ],
            [
              35.9783849,
              34.6442787
            ],
            [
              35.9803252,
              34.6440938
            ],
            [
              35.9811744,
              34.6445983
            ],
            [
              35.9814035,
              34.6451301
            ],
            [
              35.9813804,
              34.6459518
            ],
            [
              35.9804615,
              34.6482585
            ],
            [
              35.9803413,
              34.6488843
            ],
            [
              35.9804991,
              34.6494854
            ],
            [
              35.9809727,
              34.6497846
            ],
            [
              35.9815601,
              34.6497947
            ],
            [
              35.983428,
              34.649266
            ],
            [
              35.9841495,
              34.6493592
            ],
            [
              35.9851387,
              34.6485074
            ],
            [
              35.9864198,
              34.6481795
            ],
            [
              35.9868087,
              34.6483733
            ],
            [
              35.9868983,
              34.6489364
            ],
            [
              35.9872073,
              34.6493693
            ],
            [
              35.9877013,
              34.6496045
            ],
            [
              35.9883708,
              34.6496359
            ],
            [
              35.9889067,
              34.6500895
            ],
            [
              35.9899265,
              34.6506072
            ],
            [
              35.9906727,
              34.6504028
            ],
            [
              35.9910809,
              34.6499642
            ],
            [
              35.9912123,
              34.6493852
            ],
            [
              35.9911281,
              34.6484876
            ],
            [
              35.9908363,
              34.6479465
            ],
            [
              35.9896969,
              34.6468305
            ],
            [
              35.9894866,
              34.6463556
            ],
            [
              35.9897516,
              34.644807
            ],
            [
              35.9895735,
              34.6437606
            ],
            [
              35.9899372,
              34.6433683
            ],
            [
              35.9913523,
              34.6427402
            ],
            [
              35.9924075,
              34.6426723
            ],
            [
              35.9926715,
              34.6430704
            ],
            [
              35.9928131,
              34.6444539
            ],
            [
              35.9931795,
              34.6446049
            ],
            [
              35.9935754,
              34.6444275
            ],
            [
              35.994524,
              34.6429056
            ],
            [
              35.99513,
              34.6426356
            ],
            [
              35.9965145,
              34.6425293
            ],
            [
              35.9986474,
              34.6432685
            ],
            [
              36,
              34.64355707821142
            ],
            [
              36,
              35
            ],
            [
              35.62777081744284,
              35
            ],
            [
              35.6262032,
              34.9793052
            ],
            [
              35.6148085,
              34.9448111
            ],
            [
              35.6111927,
              34.9106453
            ]
          ]
        ]
      }
    }
  ]
}