{
  "type": "FeatureCollection",
  "features": [
    {
      "type": "Feature",
      "properties": {
        "osm_id": -174737,
        "boundary": "administrative",
        "admin_level": 2,
        "parents": null,
        "name": "Turkey",
        "local_name": "TÃ¼rkiye",
        "name_en": "Turkey",
        "all_tags": {
          "flag": "http://upload.wikimedia.org/wikipedia/commons/b/b4/Flag_of_Turkey.svg",
          "name": "TÃ¼rkiye",
          "name:aa": "Torusko",
          "name:ab": "Ò¬Ñ‹Ñ€Ò›Ó™Ñ‚Ó™Ñ‹Ğ»Ğ°",
          "name:af": "Turkye",
          "name:ak": "Turki",
          "name:am": "á‰±áˆ­áŠ­",
          "name:an": "TurquÃ­a",
          "name:ar": "ØªØ±ÙƒÙŠØ§",
          "name:av": "Ğ¢ÑƒÑ€ĞºĞ¸Ñ",
          "name:ay": "Turkiya",
          "name:az": "TÃ¼rkiyÉ™",
          "name:ba": "Ğ¢Ó©Ñ€ĞºĞ¸Ó™",
          "name:be": "Ğ¢ÑƒÑ€Ñ†Ñ‹Ñ",
          "name:bg": "Ğ¢ÑƒÑ€Ñ†Ğ¸Ñ",
          "name:bi": "Turkey",
          "name:bn": "à¦¤à§à¦°à¦¸à§à¦•",
          "name:bo": "à½à½´à½¢à¼‹à½€à½²à¼",
          "name:br": "Turkia",
          "name:bs": "Turska",
          "name:ca": "Turquia",
          "name:ce": "Ğ¢ÑƒÑ€ĞºĞ¾Ğ¹Ñ‡Ğ¾ÑŒ",
          "name:co": "Turchia",
          "name:cr": "á‘á•’á‘­",
          "name:cs": "Turecko",
          "name:cu": "Ğ¢Ñ·Ñ€Ñ†Ğ¸",
          "name:cv": "Ğ¢ÑƒÑ€Ñ†Ğ¸",
          "name:cy": "Twrci",
          "name:da": "Tyrkiet",
          "name:de": "TÃ¼rkei",
          "name:dv": "ŞŒŞªŞƒŞªŞ†Ş©ŞˆŞ¨ŞŞ§ŞŒŞ°",
          "name:dz": "à½–à¾±à½ à½²à¼‹à½¢à½²à½‚à½¦à¼‹à½…à½²à½‚",
          "name:ee": "Turkey",
          "name:el": "Î¤Î¿Ï…ÏÎºÎ¯Î±",
          "name:en": "Turkey",
          "name:eo": "Turkio",
          "name:es": "TurquÃ­a",
          "name:et": "TÃ¼rgi",
          "name:eu": "Turkia",
          "name:fa": "ØªØ±Ú©ÛŒÙ‡",
          "name:fi": "Turkki",
          "name:fo": "Turkaland",
          "name:fr": "Turquie",
          "name:fy": "Turkije",
          "name:ga": "An Tuirc",
          "name:gd": "An Tuirc",
          "name:gl": "TurquÃ­a",
          "name:gn": "Tuykia",
          "name:gu": "àª¤à«àª°à«àª•àª¸à«àª¤àª¾àª¨",
          "name:gv": "Yn Turkee",
          "name:ha": "Turkiyya",
          "name:he": "×˜×•×¨×§×™×”",
          "name:hi": "à¤¤à¥à¤°à¥à¤•à¥€",
          "name:hr": "Turska",
          "name:ht": "Tiki",
          "name:hu": "TÃ¶rÃ¶korszÃ¡g",
          "name:hy": "Ô¹Õ¸Ö‚Ö€Ö„Õ«Õ¡",
          "name:ia": "Turchia",
          "name:id": "Turki",
          "name:ie": "Turcia",
          "name:ik": "Turkey",
          "name:io": "Turkia",
          "name:is": "Tyrkland",
          "name:it": "Turchia",
          "name:ja": "ãƒˆãƒ«ã‚³",
          "name:jv": "Turki",
          "name:ka": "áƒ—áƒ£áƒ áƒ¥áƒ”áƒ—áƒ˜",
          "name:kg": "Turki",
          "name:ki": "Turkey",
          "name:kk": "Ğ¢Ò¯Ñ€ĞºĞ¸Ñ",
          "name:kl": "Tyrkia",
          "name:km": "áá½á€á‚á¸",
          "name:kn": "à²Ÿà²°à³à²•à²¿",
          "name:ko": "íŠ€ë¥´í‚¤ì˜ˆ",
          "name:ku": "Tirkiye",
          "name:kv": "Ğ¢ÑƒÑ€Ñ†Ğ¸Ñ",
          "name:kw": "Turki",
          "name:ky": "Ğ¢Ò¯Ñ€ĞºĞ¸Ñ",
          "name:la": "Turcia",
          "name:lb": "Tierkei",
          "name:lg": "Buturuki",
          "name:li": "Turkije",
          "name:ln": "TurkÃ­",
          "name:lt": "Turkija",
          "name:lv": "Turcija",
          "name:mg": "Torkia",
          "name:mi": "TÄkei",
          "name:mk": "Ğ¢ÑƒÑ€Ñ†Ğ¸Ñ˜Ğ°",
          "name:ml": "à´¤àµàµ¼à´•àµà´•à´¿",
          "name:mn": "Ğ¢ÑƒÑ€Ğº",
          "name:mr": "à¤¤à¥à¤°à¥à¤•à¤¸à¥à¤¤à¤¾à¤¨",
          "name:ms": "Turki",
          "name:mt": "Turkija",
          "name:my": "á€á€°á€›á€€á€®á€”á€­á€¯á€„á€ºá€„á€¶",
          "name:na": "Terki",
          "name:ne": "à¤Ÿà¤°à¥à¤•à¥€",
          "name:nl": "Turkije",
          "name:nn": "Tyrkia",
          "name:no": "Tyrkia",
          "name:nv": "TÊ¼Ã³ok BikÃ©yah",
          "name:oc": "Turquia",
          "name:or": "à¬¤à­à¬°à­à¬•à­€",
          "name:os": "Ğ¢ÑƒÑ€Ğº",
          "name:pa": "à¨¤à©à¨°à¨•à©€",
          "name:pl": "Turcja",
          "name:ps": "ØªÙˆØ±Ú©ÙŠÙ‡",
          "name:pt": "Turquia",
          "name:qu": "Turkiya",
          "name:rm": "Tirchia",
          "name:rn": "Turukiya",
          "name:ro": "Turcia",
          "name:ru": "Ğ¢ÑƒÑ€Ñ†Ğ¸Ñ",
          "name:rw": "Turukiya",
          "name:sa": "à¤¤à¥à¤°à¥à¤•à¥€",
          "name:sc": "Turkia",
          "name:se": "Durka",
          "name:sh": "Turska",
          "name:si": "à¶­à·”à¶»à·Šà¶šà·’à¶º",
          "name:sk": "Turecko",
          "name:sl": "TurÄija",
          "name:sm": "Take",
          "name:so": "Turkiga",
          "name:sq": "Turqia",
          "name:sr": "Ğ¢ÑƒÑ€ÑĞºĞ°",
          "name:ss": "IThekhi",
          "name:su": "Turki",
          "name:sv": "Turkiet",
          "name:sw": "Uturuki",
          "name:ta": "à®¤à¯à®°à¯à®•à¯à®•à®¿",
          "name:te": "à°Ÿà°°à±à°•à±€",
          "name:tg": "Ğ¢ÑƒÑ€ĞºĞ¸Ñ",
          "name:th": "à¸›à¸£à¸°à¹€à¸—à¸¨à¸•à¸¸à¸£à¸à¸µ",
          "name:ti": "á‰±áˆ­áŠª",
          "name:tk": "TÃ¼rkiÃ½e",
          "name:tl": "Turkiya",
          "name:tr": "TÃ¼rkiye",
          "name:tt": "Ğ¢Ó©Ñ€ĞºĞ¸Ñ",
          "name:tw": "Turkey",
          "name:ty": "Turiti",
          "name:ug": "ØªÛˆØ±ÙƒÙ‰ÙŠÛ•",
          "name:uk": "Ğ¢ÑƒÑ€ĞµÑ‡Ñ‡Ğ¸Ğ½Ğ°",
          "name:ur": "ØªØ±Ú©ÛŒ",
          "name:uz": "Turkiya",
          "name:vi": "Thá»• NhÄ© Ká»³",
          "name:vo": "TÃ¼rkÃ¤n",
          "name:wa": "Tourkeye",
          "name:wo": "Tirki",
          "name:xh": "ITurkiya",
          "name:yi": "×˜×¢×¨×§×™×™",
          "name:yo": "TÃºrkÃ¬",
          "name:za": "Dujwjgiz",
          "name:zh": "åœŸè€³å…¶",
          "name:zu": "ITheki",
          "boundary": "administrative",
          "int_name": "TÃ¼rkiye",
          "name:ace": "Turuki",
          "name:ady": "Ğ¢Ñ‹Ñ€ĞºÑƒĞµ",
          "name:als": "TÃ¼rkei",
          "name:ang": "Turcland",
          "name:apc": "ØªØ±ÙƒÙŠØ§",
          "name:arc": "Ü›Ü˜ÜªÜ©ÜÜ",
          "name:ary": "Ø£Ù†Ù‚Ø§Ø±Ø§",
          "name:arz": "ØªÙˆØ±ÙƒÙŠØ§",
          "name:ast": "TurquÃ­a",
          "name:azb": "ØªÙˆØ±Ú©ÛŒÙ‡",
          "name:bar": "Tiakei",
          "name:bcl": "Turkiya",
          "name:bjn": "Turki",
          "name:bpy": "à¦¤à§à¦°à¦¸à§à¦•",
          "name:bug": "Turki",
          "name:bxr": "Ğ¢ÑÑ€Ğº Ğ£Ğ»Ğ°Ñ",
          "name:cdo": "TÅ«-Ä«-gÃ¬",
          "name:ceb": "Turkiya",
          "name:chr": "á¬á‚á±",
          "name:chy": "Turkey",
          "name:ckb": "ØªÙˆØ±Ú©ÛŒØ§",
          "name:cnr": "Ğ¢ÑƒÑ€ÑĞºĞ°",
          "name:crh": "TÃ¼rkiye",
          "name:csb": "TÃ«reckÃ´",
          "name:din": "Turkia",
          "name:diq": "TÄ±rkiya",
          "name:dsb": "Turkojska",
          "name:eml": "TurchÃ®",
          "name:ext": "Turquia",
          "name:frp": "Turquie",
          "name:frr": "TÃ¼rkei",
          "name:fur": "Turchie",
          "name:gag": "TÃ¼rkiye",
          "name:gan": "åœŸè€³å…¶",
          "name:glk": "ØªÛŠØ±Ú©ÙŠÙ‡",
          "name:got": "ğ„ğ…ğ‚ğŒºğŒ¾ğŒ°",
          "name:hak": "ThÃº-ngÃ­-khÃ¬",
          "name:haw": "Tureke",
          "name:hif": "Turkey",
          "name:hsb": "Turkowska",
          "name:hyw": "Ô¹Õ¸Ö‚Ö€Ö„Õ«Õ¡",
          "name:ilo": "Turkia",
          "name:inh": "Ğ¢ÑƒÑ€ĞºĞ¸Ğ¹",
          "name:jbo": "turk",
          "name:kaa": "TÃºrkiya",
          "name:kab": "Tturk",
          "name:kbd": "Ğ¢Ñ‹Ñ€ĞºÑƒ",
          "name:kiu": "TÄ±rkiya",
          "name:koi": "Ğ¢ÑÑ€ĞºĞ¸Ñ",
          "name:krc": "Ğ¢ÑÑ€Ğº",
          "name:ksh": "TÃ¼rkei",
          "name:lad": "Turkia",
          "name:lbe": "Ğ¢ÑƒÑ€ĞºĞ¸Ñ",
          "name:lez": "Ğ¢ÑƒÑ€Ñ†Ğ¸Ñ",
          "name:lij": "Turchia",
          "name:lmo": "TÃ¼rchia",
          "name:ltg": "Turceja",
          "name:lzh": "åœŸè€³å…¶",
          "name:mdf": "Ğ¢ÑƒÑ€ĞºĞ°Ğ¼Ğ°ÑÑ‚Ğ¾Ñ€",
          "name:mhr": "Ğ¢ÑƒÑ€Ñ†Ğ¸Ğ¹",
          "name:mrj": "Ğ¢ÑƒÑ€Ñ†Ğ¸",
          "name:mwl": "Turquie",
          "name:mzn": "ØªØ±Ú©ÛŒÙ‡",
          "name:nah": "Turquia",
          "name:nan": "TÃ¼rkiye",
          "name:nap": "Turchia",
          "name:nds": "TÃ¶rkie",
          "name:new": "à¤Ÿà¤°à¥à¤•à¥€",
          "name:nov": "Turkia",
          "name:nrm": "Turtchie",
          "name:nso": "Turkey",
          "name:pam": "Turkia",
          "name:pap": "Turkia",
          "name:pcd": "Turkie",
          "name:pdc": "Turkie",
          "name:pes": "ØªØ±Ú©ÛŒÙ‡",
          "name:pfl": "Tirkei",
          "name:pih": "Turkii",
          "name:pms": "TurchÃ¬a",
          "name:pnb": "ØªØ±Ú©ÛŒ",
          "name:pnt": "Î¤Î¿Ï…ÏÎºÎ¯Î±",
          "name:prs": "ØªØ±Ú©ÛŒÙ‡",
          "name:rmy": "Turkiya",
          "name:rue": "Ğ¢ÑƒÑ€Ñ†Ñ–Ñ",
          "name:sah": "Ğ¢Ò¯Ñ€ĞºĞ¸Ğ¹Ñ",
          "name:scn": "TurchÃ¬a",
          "name:sco": "Turkey",
          "name:smn": "Turkki",
          "name:sms": "Turkk",
          "name:srn": "Turkiyakondre",
          "name:stq": "TurkÃ¤i",
          "name:szl": "TurcyjÅ",
          "name:tet": "Turkia",
          "name:tpi": "Teki",
          "name:tsd": "Î¤Î¿Ï…ÏÎºÎ¯Î±",
          "name:tum": "Turkey",
          "name:tzl": "TÃ¼rchia",
          "name:udm": "Ğ¢ÑƒÑ€Ñ†Ğ¸Ñ",
          "name:vec": "Turchia",
          "name:vep": "Turcii",
          "name:vls": "Turkeye",
          "name:vro": "TÃ¼rgÃ¼",
          "name:war": "Turkeya",
          "name:wuu": "åœŸè€³å…¶",
          "name:xal": "Ğ¢Ò¯Ñ€Ğ³Ò¯Ğ´Ğ¸Ğ½ ĞÑ€Ğ½",
          "name:xmf": "áƒ—áƒ£áƒ áƒ¥áƒ”áƒ—áƒ˜",
          "name:yue": "åœŸè€³å…¶",
          "name:zea": "Turkije",
          "name:zza": "TÄ±rkiya",
          "timezone": "Europe/Istanbul",
          "way_area": "89.1987",
          "wikidata": "Q43",
          "ISO3166-1": "TR",
          "name:vlca": "Turquia",
          "wikipedia": "tr:TÃ¼rkiye",
          "population": "85279553",
          "admin_level": "2",
          "alt_name:ar": "ØªØ±ÙƒÙŠØ§",
          "alt_name:eo": "Turkujo",
          "alt_name:vi": "Thá»• NhÄ© KÃ¬",
          "name:nds-nl": "Turkije",
          "old_name:ko": "í„°í‚¤",
          "alt_name:haw": "Kuleke",
          "alt_name:lad": "Turkiya",
          "alt_name:tzl": "ma Tuki",
          "name:bat-smg": "TorkÄ—jÄ—",
          "name:cbk-zam": "TurquÃ­a",
          "name:ks-Arab": "ØªÙØ±Ú©ÛŒ",
          "name:mn-Mong": "á ²á ¦á ·á »",
          "name:roa-rup": "Turchia",
          "name:zh-Hans": "åœŸè€³å…¶",
          "name:zh-Hant": "åœŸè€³å…¶",
          "name:cnr-Latn": "Turska",
          "name:lad-Hebr": "×˜×•×¨×§×²×”",
          "name:roa-tara": "Turchie",
          "official_name": "TÃ¼rkiye Cumhuriyeti",
          "name:be-tarask": "Ğ¢ÑƒÑ€ÑÑ‡Ñ‡Ñ‹Ğ½Ğ°",
          "population:date": "2022",
          "ISO3166-1:alpha2": "TR",
          "ISO3166-1:alpha3": "TUR",
          "default_language": "tr",
          "official_name:ar": "Ø§Ù„Ø¬Ù…Ù‡ÙˆØ±ÙŠØ© Ø§Ù„ØªØ±ÙƒÙŠØ©",
          "official_name:cs": "TureckÃ¡ republika",
          "official_name:de": "Republik Turkei",
          "official_name:el": "Î”Î·Î¼Î¿ÎºÏÎ±Ï„Î¯Î± Ï„Î·Ï‚ Î¤Î¿Ï…ÏÎºÎ¯Î±Ï‚",
          "official_name:en": "Republic of TÃ¼rkiye",
          "official_name:eo": "Turka Respubliko",
          "official_name:es": "RepÃºblica de TurquÃ­a",
          "official_name:fi": "Turkin tasavalta",
          "official_name:fr": "RÃ©publique de Turquie",
          "official_name:he": "×”×¨×¤×•×‘×œ×™×§×” ×”×˜×•×¨×§×™×ª",
          "official_name:ko": "íŠ€ë¥´í‚¤ì˜ˆ ê³µí™”êµ­",
          "official_name:ku": "Komara TirkiyeyÃª",
          "official_name:ky": "Ğ¢Ò¯Ñ€ĞºĞ¸Ñ Ğ ĞµÑĞ¿ÑƒĞ±Ğ»Ğ¸ĞºĞ°ÑÑ‹",
          "official_name:ru": "Ğ¢ÑƒÑ€ĞµÑ†ĞºĞ°Ñ Ğ ĞµÑĞ¿ÑƒĞ±Ğ»Ğ¸ĞºĞ°",
          "official_name:zh": "åœŸè€³å…¶å…±å’Œåœ‹ / åœŸè€³å…¶å…±å’Œå›½",
          "ISO3166-1:numeric": "792",
          "official_name:xal": "Ğ¢Ò¯Ñ€Ğ³Ò¯Ğ´Ğ¸Ğ½ ĞÑ€Ğ½",
          "official_name:zh-Hans": "åœŸè€³å…¶å…±å’Œå›½",
          "official_name:zh-Hant": "åœŸè€³å…¶å…±å’Œåœ‹"
        }
      },
      "geometry": {
        "type": "Polygon",
        "coordinates": [
          [
            [
              35,
              41
            ],
            [
              36,
              41
            ],
            [
              36,
              41.9329339031339
            ],
            [
              35.9994432,
              41.933
            ],
            [
              35.9884485,
              41.934
            ],
            [
              35.9648204,
              41.935
            ],
            [
              35.9573568,
              41.935
            ],
            [
              35.9337288,
              41.934
            ],
            [
              35.922734,
              41.933
            ],
            [
              35.9065709,
              41.931
            ],
            [
              35.8932723,
              41.929
            ],
            [
              35.8825393,
              41.927
            ],
            [
              35.8733285,
              41.925
            ],
            [
              35.8613775,
              41.922
            ],
            [
              35.8477691,
              41.918
            ],
            [
              35.8331793,
              41.913
            ],
            [
              35.8201041,
              41.908
            ],
            [
              35.8103635,
              41.904
            ],
            [
              35.8021722,
              41.901
            ],
            [
              35.7764698,
              41.891
            ],
            [
              35.7367321,
              41.877
            ],
            [
              35.6941425,
              41.864
            ],
            [
              35.6685145,
              41.857
            ],
            [
              35.6582339,
              41.854
            ],
            [
              35.6262319,
              41.846
            ],
            [
              35.5913098,
              41.837
            ],
            [
              35.586612,
              41.837
            ],
            [
              35.5780508,
              41.842
            ],
            [
              35.5706473,
              41.846
            ],
            [
              35.5626696,
              41.85
            ],
            [
              35.5562504,
              41.853
            ],
            [
              35.5493974,
              41.856
            ],
            [
              35.5395696,
              41.86
            ],
            [
              35.5316106,
              41.863
            ],
            [
              35.5198275,
              41.867
            ],
            [
              35.5098402,
              41.87
            ],
            [
              35.5024508,
              41.872
            ],
            [
              35.4898397,
              41.875
            ],
            [
              35.4743605,
              41.878
            ],
            [
              35.4610725,
              41.88
            ],
            [
              35.4560324,
              41.881
            ],
            [
              35.4533496,
              41.882
            ],
            [
              35.4496871,
              41.888
            ],
            [
              35.4449974,
              41.895
            ],
            [
              35.4406009,
              41.901
            ],
            [
              35.4358353,
              41.907
            ],
            [
              35.4363713,
              41.908
            ],
            [
              35.4422303,
              41.915
            ],
            [
              35.4482945,
              41.923
            ],
            [
              35.4530859,
              41.93
            ],
            [
              35.4580106,
              41.938
            ],
            [
              35.4623803,
              41.946
            ],
            [
              35.4662233,
              41.954
            ],
            [
              35.4695629,
              41.962
            ],
            [
              35.4710501,
              41.966
            ],
            [
              35.4736693,
              41.974
            ],
            [
              35.4758264,
              41.982
            ],
            [
              35.4778894,
              41.992
            ],
            [
              35.47900652,
              42
            ],
            [
              35,
              42
            ],
            [
              35,
              41
            ]
          ]
        ]
      }
    }
  ]
}