{
  "type": "FeatureCollection",
  "features": [
    {
      "type": "Feature",
      "properties": {
        "osm_id": -174737,
        "boundary": "administrative",
        "admin_level": 2,
        "parents": null,
        "name": "Turkey",
        "local_name": "Türkiye",
        "name_en": "Turkey",
        "all_tags": {
          "flag": "http://upload.wikimedia.org/wikipedia/commons/b/b4/Flag_of_Turkey.svg",
          "name": "Türkiye",
          "name:aa": "Torusko",
          "name:ab": "Ҭырқәтәыла",
          "name:af": "Turkye",
          "name:ak": "Turki",
          "name:am": "ቱርክ",
          "name:an": "Turquía",
          "name:ar": "تركيا",
          "name:av": "Туркия",
          "name:ay": "Turkiya",
          "name:az": "Türkiyə",
          "name:ba": "Төркиә",
          "name:be": "Турцыя",
          "name:bg": "Турция",
          "name:bi": "Turkey",
          "name:bn": "তুরস্ক",
          "name:bo": "ཏུར་ཀི།",
          "name:br": "Turkia",
          "name:bs": "Turska",
          "name:ca": "Turquia",
          "name:ce": "Туркойчоь",
          "name:co": "Turchia",
          "name:cr": "ᑐᕒᑭ",
          "name:cs": "Turecko",
          "name:cu": "Тѷрци",
          "name:cv": "Турци",
          "name:cy": "Twrci",
          "name:da": "Tyrkiet",
          "name:de": "Türkei",
          "name:dv": "ތުރުކީވިލާތް",
          "name:dz": "བྱའི་རིགས་ཅིག",
          "name:ee": "Turkey",
          "name:el": "Τουρκία",
          "name:en": "Turkey",
          "name:eo": "Turkio",
          "name:es": "Turquía",
          "name:et": "Türgi",
          "name:eu": "Turkia",
          "name:fa": "ترکیه",
          "name:fi": "Turkki",
          "name:fo": "Turkaland",
          "name:fr": "Turquie",
          "name:fy": "Turkije",
          "name:ga": "An Tuirc",
          "name:gd": "An Tuirc",
          "name:gl": "Turquía",
          "name:gn": "Tuykia",
          "name:gu": "તુર્કસ્તાન",
          "name:gv": "Yn Turkee",
          "name:ha": "Turkiyya",
          "name:he": "טורקיה",
          "name:hi": "तुर्की",
          "name:hr": "Turska",
          "name:ht": "Tiki",
          "name:hu": "Törökország",
          "name:hy": "Թուրքիա",
          "name:ia": "Turchia",
          "name:id": "Turki",
          "name:ie": "Turcia",
          "name:ik": "Turkey",
          "name:io": "Turkia",
          "name:is": "Tyrkland",
          "name:it": "Turchia",
          "name:ja": "トルコ",
          "name:jv": "Turki",
          "name:ka": "თურქეთი",
          "name:kg": "Turki",
          "name:ki": "Turkey",
          "name:kk": "Түркия",
          "name:kl": "Tyrkia",
          "name:km": "តួកគី",
          "name:kn": "ಟರ್ಕಿ",
          "name:ko": "튀르키예",
          "name:ku": "Tirkiye",
          "name:kv": "Турция",
          "name:kw": "Turki",
          "name:ky": "Түркия",
          "name:la": "Turcia",
          "name:lb": "Tierkei",
          "name:lg": "Buturuki",
          "name:li": "Turkije",
          "name:ln": "Turkí",
          "name:lt": "Turkija",
          "name:lv": "Turcija",
          "name:mg": "Torkia",
          "name:mi": "Tākei",
          "name:mk": "Турција",
          "name:ml": "തുർക്കി",
          "name:mn": "Турк",
          "name:mr": "तुर्कस्तान",
          "name:ms": "Turki",
          "name:mt": "Turkija",
          "name:my": "တူရကီနိုင်ငံ",
          "name:na": "Terki",
          "name:ne": "टर्की",
          "name:nl": "Turkije",
          "name:nn": "Tyrkia",
          "name:no": "Tyrkia",
          "name:nv": "Tʼóok Bikéyah",
          "name:oc": "Turquia",
          "name:or": "ତୁର୍କୀ",
          "name:os": "Турк",
          "name:pa": "ਤੁਰਕੀ",
          "name:pl": "Turcja",
          "name:ps": "تورکيه",
          "name:pt": "Turquia",
          "name:qu": "Turkiya",
          "name:rm": "Tirchia",
          "name:rn": "Turukiya",
          "name:ro": "Turcia",
          "name:ru": "Турция",
          "name:rw": "Turukiya",
          "name:sa": "तुर्की",
          "name:sc": "Turkia",
          "name:se": "Durka",
          "name:sh": "Turska",
          "name:si": "තුර්කිය",
          "name:sk": "Turecko",
          "name:sl": "Turčija",
          "name:sm": "Take",
          "name:so": "Turkiga",
          "name:sq": "Turqia",
          "name:sr": "Турска",
          "name:ss": "IThekhi",
          "name:su": "Turki",
          "name:sv": "Turkiet",
          "name:sw": "Uturuki",
          "name:ta": "துருக்கி",
          "name:te": "టర్కీ",
          "name:tg": "Туркия",
          "name:th": "ประเทศตุรกี",
          "name:ti": "ቱርኪ",
          "name:tk": "Türkiýe",
          "name:tl": "Turkiya",
          "name:tr": "Türkiye",
          "name:tt": "Төркия",
          "name:tw": "Turkey",
          "name:ty": "Turiti",
          "name:ug": "تۈركىيە",
          "name:uk": "Туреччина",
          "name:ur": "ترکی",
          "name:uz": "Turkiya",
          "name:vi": "Thổ Nhĩ Kỳ",
          "name:vo": "Türkän",
          "name:wa": "Tourkeye",
          "name:wo": "Tirki",
          "name:xh": "ITurkiya",
          "name:yi": "טערקיי",
          "name:yo": "Túrkì",
          "name:za": "Dujwjgiz",
          "name:zh": "土耳其",
          "name:zu": "ITheki",
          "boundary": "administrative",
          "int_name": "Türkiye",
          "name:ace": "Turuki",
          "name:ady": "Тыркуе",
          "name:als": "Türkei",
          "name:ang": "Turcland",
          "name:apc": "تركيا",
          "name:arc": "ܛܘܪܩܝܐ",
          "name:ary": "أنقارا",
          "name:arz": "توركيا",
          "name:ast": "Turquía",
          "name:azb": "تورکیه",
          "name:bar": "Tiakei",
          "name:bcl": "Turkiya",
          "name:bjn": "Turki",
          "name:bpy": "তুরস্ক",
          "name:bug": "Turki",
          "name:bxr": "Тюрк Улас",
          "name:cdo": "Tū-ī-gì",
          "name:ceb": "Turkiya",
          "name:chr": "ᎬᏂᏱ",
          "name:chy": "Turkey",
          "name:ckb": "تورکیا",
          "name:cnr": "Турска",
          "name:crh": "Türkiye",
          "name:csb": "Tëreckô",
          "name:din": "Turkia",
          "name:diq": "Tırkiya",
          "name:dsb": "Turkojska",
          "name:eml": "Turchî",
          "name:ext": "Turquia",
          "name:frp": "Turquie",
          "name:frr": "Türkei",
          "name:fur": "Turchie",
          "name:gag": "Türkiye",
          "name:gan": "土耳其",
          "name:glk": "تۊرکيه",
          "name:got": "𐍄𐍅𐍂𐌺𐌾𐌰",
          "name:hak": "Thú-ngí-khì",
          "name:haw": "Tureke",
          "name:hif": "Turkey",
          "name:hsb": "Turkowska",
          "name:hyw": "Թուրքիա",
          "name:ilo": "Turkia",
          "name:inh": "Туркий",
          "name:jbo": "turk",
          "name:kaa": "Túrkiya",
          "name:kab": "Tturk",
          "name:kbd": "Тырку",
          "name:kiu": "Tırkiya",
          "name:koi": "Тюркия",
          "name:krc": "Тюрк",
          "name:ksh": "Türkei",
          "name:lad": "Turkia",
          "name:lbe": "Туркия",
          "name:lez": "Турция",
          "name:lij": "Turchia",
          "name:lmo": "Türchia",
          "name:ltg": "Turceja",
          "name:lzh": "土耳其",
          "name:mdf": "Туркамастор",
          "name:mhr": "Турций",
          "name:mrj": "Турци",
          "name:mwl": "Turquie",
          "name:mzn": "ترکیه",
          "name:nah": "Turquia",
          "name:nan": "Türkiye",
          "name:nap": "Turchia",
          "name:nds": "Törkie",
          "name:new": "टर्की",
          "name:nov": "Turkia",
          "name:nrm": "Turtchie",
          "name:nso": "Turkey",
          "name:pam": "Turkia",
          "name:pap": "Turkia",
          "name:pcd": "Turkie",
          "name:pdc": "Turkie",
          "name:pes": "ترکیه",
          "name:pfl": "Tirkei",
          "name:pih": "Turkii",
          "name:pms": "Turchìa",
          "name:pnb": "ترکی",
          "name:pnt": "Τουρκία",
          "name:prs": "ترکیه",
          "name:rmy": "Turkiya",
          "name:rue": "Турція",
          "name:sah": "Түркийэ",
          "name:scn": "Turchìa",
          "name:sco": "Turkey",
          "name:smn": "Turkki",
          "name:sms": "Turkk",
          "name:srn": "Turkiyakondre",
          "name:stq": "Turkäi",
          "name:szl": "Turcyjŏ",
          "name:tet": "Turkia",
          "name:tpi": "Teki",
          "name:tsd": "Τουρκία",
          "name:tum": "Turkey",
          "name:tzl": "Türchia",
          "name:udm": "Турция",
          "name:vec": "Turchia",
          "name:vep": "Turcii",
          "name:vls": "Turkeye",
          "name:vro": "Türgü",
          "name:war": "Turkeya",
          "name:wuu": "土耳其",
          "name:xal": "Түргүдин Орн",
          "name:xmf": "თურქეთი",
          "name:yue": "土耳其",
          "name:zea": "Turkije",
          "name:zza": "Tırkiya",
          "timezone": "Europe/Istanbul",
          "way_area": "89.1987",
          "wikidata": "Q43",
          "ISO3166-1": "TR",
          "name:vlca": "Turquia",
          "wikipedia": "tr:Türkiye",
          "population": "85279553",
          "admin_level": "2",
          "alt_name:ar": "تركيا",
          "alt_name:eo": "Turkujo",
          "alt_name:vi": "Thổ Nhĩ Kì",
          "name:nds-nl": "Turkije",
          "old_name:ko": "터키",
          "alt_name:haw": "Kuleke",
          "alt_name:lad": "Turkiya",
          "alt_name:tzl": "ma Tuki",
          "name:bat-smg": "Torkėjė",
          "name:cbk-zam": "Turquía",
          "name:ks-Arab": "تُرکی",
          "name:mn-Mong": "ᠲᠦᠷᠻ",
          "name:roa-rup": "Turchia",
          "name:zh-Hans": "土耳其",
          "name:zh-Hant": "土耳其",
          "name:cnr-Latn": "Turska",
          "name:lad-Hebr": "טורקײה",
          "name:roa-tara": "Turchie",
          "official_name": "Türkiye Cumhuriyeti",
          "name:be-tarask": "Турэччына",
          "population:date": "2022",
          "ISO3166-1:alpha2": "TR",
          "ISO3166-1:alpha3": "TUR",
          "default_language": "tr",
          "official_name:ar": "الجمهورية التركية",
          "official_name:cs": "Turecká republika",
          "official_name:de": "Republik Turkei",
          "official_name:el": "Δημοκρατία της Τουρκίας",
          "official_name:en": "Republic of Türkiye",
          "official_name:eo": "Turka Respubliko",
          "official_name:es": "República de Turquía",
          "official_name:fi": "Turkin tasavalta",
          "official_name:fr": "République de Turquie",
          "official_name:he": "הרפובליקה הטורקית",
          "official_name:ko": "튀르키예 공화국",
          "official_name:ku": "Komara Tirkiyeyê",
          "official_name:ky": "Түркия Республикасы",
          "official_name:ru": "Турецкая Республика",
          "official_name:zh": "土耳其共和國 / 土耳其共和国",
          "ISO3166-1:numeric": "792",
          "official_name:xal": "Түргүдин Орн",
          "official_name:zh-Hans": "土耳其共和国",
          "official_name:zh-Hant": "土耳其共和國"
        }
      },
      "geometry": {
        "type": "Polygon",
        "coordinates": [
          [
            [
              35,
              42
            ],
            [
              35.47900652,
              42
            ],
            [
              35.4792858,
              42.002
            ],
            [
              35.479672,
              42.006
            ],
            [
              35.48012,
              42.014
            ],
            [
              35.4800738,
              42.024
            ],
            [
              35.4795515,
              42.032
            ],
            [
              35.4782876,
              42.042
            ],
            [
              35.4767813,
              42.05
            ],
            [
              35.4748267,
              42.058
            ],
            [
              35.4724136,
              42.066
            ],
            [
              35.4695289,
              42.074
            ],
            [
              35.4661566,
              42.082
            ],
            [
              35.4622767,
              42.09
            ],
            [
              35.4578839,
              42.098
            ],
            [
              35.4529833,
              42.106
            ],
            [
              35.4496226,
              42.111
            ],
            [
              35.4437398,
              42.119
            ],
            [
              35.4371916,
              42.127
            ],
            [
              35.43365,
              42.131
            ],
            [
              35.4269894,
              42.138
            ],
            [
              35.419621,
              42.147
            ],
            [
              35.4142362,
              42.153
            ],
            [
              35.4053261,
              42.162
            ],
            [
              35.3999029,
              42.167
            ],
            [
              35.39175,
              42.174
            ],
            [
              35.3828243,
              42.181
            ],
            [
              35.3744391,
              42.187
            ],
            [
              35.3652724,
              42.193
            ],
            [
              35.3569431,
              42.198
            ],
            [
              35.3478793,
              42.203
            ],
            [
              35.3379447,
              42.208
            ],
            [
              35.3269475,
              42.213
            ],
            [
              35.3171981,
              42.217
            ],
            [
              35.3034596,
              42.222
            ],
            [
              35.2907812,
              42.226
            ],
            [
              35.2758778,
              42.23
            ],
            [
              35.2624076,
              42.233
            ],
            [
              35.251623,
              42.235
            ],
            [
              35.2382603,
              42.237
            ],
            [
              35.2297959,
              42.238
            ],
            [
              35.2187484,
              42.239
            ],
            [
              35.2051659,
              42.24
            ],
            [
              35.1981546,
              42.241
            ],
            [
              35.190452,
              42.246
            ],
            [
              35.1803639,
              42.252
            ],
            [
              35.1691809,
              42.258
            ],
            [
              35.1609926,
              42.262
            ],
            [
              35.1497433,
              42.267
            ],
            [
              35.1370716,
              42.272
            ],
            [
              35.1224679,
              42.277
            ],
            [
              35.1124162,
              42.28
            ],
            [
              35.096764,
              42.284
            ],
            [
              35.0823402,
              42.287
            ],
            [
              35.0704546,
              42.289
            ],
            [
              35.054862,
              42.291
            ],
            [
              35.0438052,
              42.292
            ],
            [
              35.0200438,
              42.293
            ],
            [
              35.0049784,
              42.294
            ],
            [
              35,
              42.294450232423536
            ],
            [
              35,
              42
            ]
          ]
        ]
      }
    }
  ]
}