{
  "type": "FeatureCollection",
  "features": [
    {
      "type": "Feature",
      "properties": {
        "osm_id": -59470,
        "boundary": "administrative",
        "admin_level": 2,
        "parents": null,
        "name": "Brazil",
        "local_name": "Brasil",
        "name_en": "Brazil",
        "all_tags": {
          "flag": "http://upload.wikimedia.org/wikipedia/commons/0/05/Flag_of_Brazil.svg",
          "name": "Brasil",
          "name:aa": "Brazil",
          "name:af": "BrasiliÃ«",
          "name:ak": "Brazil",
          "name:am": "á‰¥áˆ«á‹šáˆ",
          "name:an": "Brasil",
          "name:ar": "Ø§Ù„Ø¨ÙØ±ÙØ§Ø²ÙÙŠÙ„",
          "name:as": "à¦¬à§à§°à¦¾à¦œà¦¿à¦²",
          "name:ay": "Wrasil",
          "name:az": "Braziliya",
          "name:ba": "Ğ‘Ñ€Ğ°Ğ·Ğ¸ÌĞ»Ğ¸Ñ",
          "name:be": "Ğ‘Ñ€Ğ°Ğ·Ñ–ÌĞ»Ñ–Ñ",
          "name:bg": "Ğ‘Ñ€Ğ°Ğ·Ğ¸Ğ»Ğ¸Ñ",
          "name:bh": "à¤¬à¥à¤°à¤¾à¤œà¤¼à¥€à¤²",
          "name:bi": "Brazil",
          "name:bm": "Brazil",
          "name:bn": "à¦¬à§à¦°à¦¾à¦œà¦¿à¦²",
          "name:bo": "à½”à½´à¼‹à½¢à½´à¼‹à½Ÿà½²à½£à¼",
          "name:br": "Brazil",
          "name:bs": "Brazil",
          "name:ca": "Brasil",
          "name:ce": "Ğ‘Ñ€Ğ°Ğ·Ğ¸ÌĞ»Ğ¸",
          "name:ch": "Brazil",
          "name:co": "Brasile",
          "name:cs": "BrazÃ­lie",
          "name:cu": "Ğ‘Ñ€Ğ°ê™Ñ—Ğ»Ñ–Ìê™—",
          "name:cv": "Ğ‘Ñ€Ğ°Ğ·Ğ¸Ğ»Ğ¸",
          "name:cy": "Brasil",
          "name:da": "Brasilien",
          "name:de": "Brasilien",
          "name:dv": "Ş„ŞªŞƒŞ¬Ş’Ş¨ŞŞ°",
          "name:dz": "à½–à½±à½¢à½±à¼‹à½›à½²à½£à¼‹",
          "name:ee": "Brazil",
          "name:el": "Î’ÏÎ±Î¶Î¹Î»Î¯Î±",
          "name:en": "Brazil",
          "name:eo": "Brazilo",
          "name:es": "Brasil",
          "name:et": "Brasiilia",
          "name:eu": "Brasil",
          "name:fa": "Ø¨Ø±Ø²ÛŒÙ„",
          "name:ff": "Barazil",
          "name:fi": "Brasilia",
          "name:fj": "Brazil",
          "name:fo": "Brasilia",
          "name:fr": "BrÃ©sil",
          "name:fy": "Brazylje",
          "name:ga": "an BhrasaÃ­l",
          "name:gd": "Braisil",
          "name:gl": "Brasil",
          "name:gn": "PindorÃ¡ma",
          "name:gu": "àª¬à«àª°àª¾àªàª¿àª²",
          "name:gv": "yn Vrasseel",
          "name:ha": "Brazil",
          "name:he": "×‘×¨×–×™×œ",
          "name:hi": "à¤¬à¥à¤°à¤¾à¤¸à¤¼à¥€à¤²",
          "name:hr": "Brazil",
          "name:ht": "Brezil",
          "name:hu": "BrazÃ­lia",
          "name:hy": "Ô²Ö€Õ¡Õ¦Õ«Õ¬Õ«Õ¡",
          "name:ia": "Brasil",
          "name:id": "Brasil",
          "name:ie": "Brasil",
          "name:ig": "Brazil",
          "name:ii": "ê€ ê‘­",
          "name:io": "Brazilia",
          "name:is": "BrasilÃ­a",
          "name:it": "Brasile",
          "name:ja": "ãƒ–ãƒ©ã‚¸ãƒ«",
          "name:jv": "Brasil",
          "name:ka": "áƒ‘áƒ áƒáƒ–áƒ˜áƒšáƒ˜áƒ",
          "name:kg": "Brazilia",
          "name:ki": "Brazil",
          "name:kk": "Ğ‘Ñ€Ğ°Ğ·Ğ¸Ğ»Ğ¸Ñ",
          "name:kl": "Brazil",
          "name:km": "á”áŸ’ášáŸáŸáŸŠá¸á›",
          "name:kn": "à²¬à³à²°à³†à²œà²¿à²²à³",
          "name:ko": "ë¸Œë¼ì§ˆ",
          "name:ks": "Ø¨Ø±Ù›Ø§Ø²ÙÙ„",
          "name:ku": "BrazÃ®l",
          "name:kv": "Ğ‘Ñ€Ğ°Ğ·Ğ¸Ğ»Ğ¸Ñ",
          "name:kw": "Brasil",
          "name:ky": "Ğ‘Ñ€Ğ°Ğ·Ğ¸Ğ»Ğ¸Ñ",
          "name:la": "Brasilia",
          "name:lb": "Brasilien",
          "name:lg": "Buraziiri",
          "name:li": "Braziel",
          "name:ln": "Brazil",
          "name:lo": "àºšàº°à»€àº£àºŠàº´àº™",
          "name:lt": "Brazilija",
          "name:lv": "BrazÄ«lija",
          "name:mg": "Brazila",
          "name:mi": "ParÄ«hi",
          "name:mk": "Ğ‘Ñ€Ğ°Ğ·Ğ¸Ğ»",
          "name:ml": "à´¬àµà´°à´¸àµ€àµ½",
          "name:mn": "Ğ‘Ñ€Ğ°Ğ·Ğ¸Ğ»",
          "name:mr": "à¤¬à¥à¤°à¤¾à¤à¥€à¤²",
          "name:ms": "Brazil",
          "name:mt": "BraÅ¼il",
          "name:my": "á€˜á€›á€¬á€‡á€®á€¸á€”á€­á€¯á€„á€ºá€„á€¶",
          "name:na": "Bradir",
          "name:ne": "à¤¬à¥à¤°à¤¾à¤œà¤¿à¤²",
          "name:nl": "BraziliÃ«",
          "name:nn": "Brasil",
          "name:no": "Brasil",
          "name:nv": "BwazÃ­Ã­l",
          "name:oc": "Brasil",
          "name:om": "Biraazil",
          "name:or": "à¬¬à­à¬°à¬¾à¬œà¬¿à¬²",
          "name:os": "Ğ‘Ñ€Ğ°Ğ·Ğ¸Ğ»Ğ¸",
          "name:pa": "à¨¬à©à¨°à¨¾à¨œà¨¼à©€à¨²",
          "name:pi": "à¤¬à¥à¤°à¤¾à¤¸à¥€à¤²",
          "name:pl": "Brazylia",
          "name:ps": "Ø¨Ø±Ø§Ø²ÛŒÙ„",
          "name:pt": "Brasil",
          "name:qu": "Prasil",
          "name:rm": "Brasilia",
          "name:rn": "Brazil",
          "name:ro": "Brazilia",
          "name:ru": "Ğ‘Ñ€Ğ°Ğ·Ğ¸Ğ»Ğ¸Ñ",
          "name:rw": "Burezile",
          "name:sa": "à¤¬à¥à¤°à¤¾à¤¸à¥€à¤²",
          "name:sc": "Brasile",
          "name:sd": "Ø¨Ø±Ø§Ø²ÙŠÙ„",
          "name:se": "Brasilia",
          "name:sh": "Brazil",
          "name:si": "à¶¶à·Šà¶»à·ƒà·“à¶½à¶º",
          "name:sk": "BrazÃ­lia",
          "name:sl": "Brazilija",
          "name:sm": "Pasila",
          "name:sn": "Brazil",
          "name:so": "Barasiil",
          "name:sq": "Brazili",
          "name:sr": "Ğ‘Ñ€Ğ°Ğ·Ğ¸Ğ»",
          "name:st": "Brazil",
          "name:su": "Brasil",
          "name:sv": "Brasilien",
          "name:sw": "Brazil",
          "name:ta": "à®ªà®¿à®°à¯‡à®šà®¿à®²à¯",
          "name:te": "à°¬à±à°°à±†à°œà°¿à°²à±",
          "name:tg": "Ğ‘Ñ€Ğ°Ğ·Ğ¸Ğ»Ğ¸Ñ",
          "name:th": "à¸šà¸£à¸²à¸‹à¸´à¸¥",
          "name:ti": "á‰¥áˆ«á‹šáˆ",
          "name:tk": "BraziliÃ½a",
          "name:tl": "Brasil",
          "name:to": "PalÄsili",
          "name:tr": "Brezilya",
          "name:tt": "Ğ‘Ñ€Ğ°Ğ·Ğ¸ÌĞ»Ğ¸Ñ",
          "name:tw": "Brazil",
          "name:ty": "ParÄ«ihi",
          "name:ug": "Ø¨Ø±Ø§Ø²Ù‰Ù„Ù‰ÙŠÛ•",
          "name:uk": "Ğ‘Ñ€Ğ°Ğ·Ğ¸ÌĞ»Ñ–Ñ",
          "name:ur": "Ø¨Ø±Ø§Ø²ÛŒÙ„",
          "name:uz": "Braziliya",
          "name:ve": "Brazil",
          "name:vi": "Brasil",
          "name:vo": "BrasilÃ¤n",
          "name:wa": "Braezi",
          "name:wo": "Breesil",
          "name:xh": "Brasil",
          "name:yi": "×‘×¨×Ö·×–×™×œ",
          "name:yo": "Brasil",
          "name:za": "Bahsih",
          "name:zh": "å·´è¥¿",
          "name:zu": "IBrazili",
          "boundary": "administrative",
          "currency": "BRL",
          "int_name": "Brazil",
          "name:ace": "Brasil",
          "name:ady": "Ğ‘Ñ€Ğ°Ğ·Ğ¸Ğ»Ğ¸Ğµ",
          "name:als": "Brasilie",
          "name:ang": "Brasil",
          "name:arc": "Ü’ÜªÜÜ™ÜÜ ",
          "name:arz": "Ø§Ù„Ø¨Ø±Ø§Ø²ÙŠÙ„",
          "name:ast": "Brasil",
          "name:azb": "Ø¨Ø±Ø²ÛŒÙ„",
          "name:bar": "Brasilien",
          "name:bcl": "Brasil",
          "name:bpy": "à¦¬à§à¦°à¦¾à¦œà¦¿à¦²",
          "name:brx": "à¤¬à¥à¤°à¤¾à¤œà¤¼à¥€à¤²",
          "name:bxr": "Ğ‘Ñ€Ğ°Ğ·Ğ¸Ğ»",
          "name:cdo": "BÄƒ-sÄƒÌ¤",
          "name:ceb": "Brasil",
          "name:chr": "á†ááµ",
          "name:chy": "Brazil",
          "name:ckb": "Ø¨Û•Ú•Ø§Ø²ÛŒÙ„",
          "name:crh": "Brazil",
          "name:csb": "BrazylskÃ´",
          "name:diq": "Brezilya",
          "name:dsb": "Brazilska",
          "name:dty": "à¤¬à¥à¤°à¤¾à¤œà¤¿à¤²",
          "name:eml": "Braá¹¡il",
          "name:ext": "Brasil",
          "name:frp": "BrÃ¨sil",
          "name:frr": "Brasiilien",
          "name:fur": "BrasÃ®l",
          "name:gag": "Braziliya",
          "name:gan": "å·´è¥¿",
          "name:glk": "Ø¨Ø±Ø²ÙŠÙ„",
          "name:gom": "à¤¬à¥à¤°à¤¾à¤à¥€à¤²",
          "name:got": "ğŒ±ğŒ±ğ‚ğŒ±ğ‚ğŒ°ğŒ±ğ‚ğŒ°ğŒ¶ğŒ±ğ‚ğŒ°ğŒ¶ğŒ¹ğŒ±ğ‚ğŒ°ğŒ¶ğŒ¹ğŒ»",
          "name:hak": "PÃ¢-sÃ®",
          "name:haw": "Palakila",
          "name:hif": "Brazil",
          "name:hsb": "Brazilska",
          "name:ilo": "Brasil",
          "name:jam": "Brazil",
          "name:jbo": "razgu'e",
          "name:kaa": "Braziliya",
          "name:kab": "Brazil",
          "name:kbd": "Ğ‘Ñ€Ğ°Ğ·Ğ¸Ğ»",
          "name:kbp": "Piresiili",
          "name:krc": "Ğ‘Ñ€Ğ°Ğ·Ğ¸Ğ»Ğ¸Ñ",
          "name:ksh": "Brasilije",
          "name:lad": "Brasil",
          "name:lez": "Ğ‘Ñ€Ğ°Ğ·Ğ¸Ğ»Ğ¸Ñ",
          "name:lij": "BraxÃ®",
          "name:lmo": "Brasil",
          "name:lrc": "Ø¨Ø±Ø²ÙŠÙ„",
          "name:ltg": "Brazileja",
          "name:lzh": "å·´è¥¿",
          "name:mai": "à¤¬à¥à¤°à¤¾à¤œà¤¿à¤²",
          "name:mdf": "Ğ‘Ñ€Ğ°Ğ·Ğ¸Ğ»Ğ¸Ğµ",
          "name:mhr": "Ğ‘Ñ€Ğ°Ğ·Ğ¸Ğ»Ğ¸Ğ¹",
          "name:min": "Brasil",
          "name:mrj": "Ğ‘Ñ€Ğ°Ğ·Ğ¸Ğ»Ğ¸",
          "name:mwl": "Brasil",
          "name:myv": "Ğ‘Ñ€Ğ°Ğ·Ğ¸Ğ»Ğ¸Ñ",
          "name:mzn": "Ø¨Ø±Ø²ÛŒÙ„",
          "name:nah": "Brasil",
          "name:nan": "Pa-se",
          "name:nap": "Brasile",
          "name:nds": "Brasilien",
          "name:new": "à¤¬à¥à¤°à¤¾à¤œà¤¿à¤²",
          "name:nov": "Brasilia",
          "name:nrm": "BrÃ©si",
          "name:nso": "Brazil",
          "name:olo": "Braziilii",
          "name:pag": "Brazil",
          "name:pam": "Brazil",
          "name:pap": "Brazil",
          "name:pcd": "BrÃ©sil",
          "name:pdc": "Brasilien",
          "name:pfl": "Brasilje",
          "name:pih": "Bresel",
          "name:pms": "Brasil",
          "name:pnb": "Ø¨Ø±Ø§Ø²ÛŒÙ„",
          "name:rmy": "Brazil",
          "name:rue": "Ğ‘Ñ€Ğ°Ğ·Ñ–Ğ»Ñ–Ñ",
          "name:sah": "Ğ‘Ñ€Ğ°Ğ·Ğ¸Ğ»Ğ¸Ñ",
          "name:scn": "Brasili",
          "name:sco": "Brazil",
          "name:smn": "Brasilia",
          "name:sms": "Brasilia",
          "name:srn": "Brasilkondre",
          "name:stq": "Brasilien",
          "name:szl": "BrazylijÅ",
          "name:tet": "BrazÃ­l",
          "name:tok": "ma Pasila",
          "name:tpi": "Brasil",
          "name:tum": "Brazil",
          "name:tyv": "Ğ‘Ñ€Ğ°Ğ·Ğ¸Ğ»Ğ¸Ñ",
          "name:tzl": "Brasil",
          "name:vec": "Braxil",
          "name:vep": "Brazilii",
          "name:vls": "BraziliÃ«",
          "name:vro": "Brasiilia",
          "name:war": "Brasil",
          "name:wuu": "å·´è¥¿",
          "name:xal": "Ğ‘Ñ€Ğ°Ğ·Ğ¸Ğ»Ğ¼ÑƒĞ´Ğ¸Ğ½",
          "name:xmf": "áƒ‘áƒ áƒáƒ–áƒ˜áƒšáƒ˜áƒ",
          "name:yue": "å·´è¥¿",
          "name:zea": "BreziliÃ«",
          "way_area": "728.951",
          "wikidata": "Q155",
          "ISO3166-1": "BR",
          "wikipedia": "pt:Brasil",
          "admin_level": "2",
          "alt_name:fo": "Brasil",
          "alt_name:gd": "Brasil",
          "alt_name:hi": "à¤¬à¥à¤°à¤¾à¤œà¤¼à¥€à¤²",
          "alt_name:ie": "Brazil",
          "alt_name:vi": "Brazil;Bra-xin",
          "name:nds-nl": "BraziliÃ«",
          "old_name:vi": "Ba TÃ¢y",
          "alt_name:csb": "BrazylÃ«jÃ´",
          "alt_name:nan": "Peh-laÌt-se-nÃ­",
          "driving_side": "right",
          "name:bat-smg": "BrazilÄ—jÄ—",
          "name:cbk-zam": "Brasil",
          "name:map-bms": "Brasil",
          "name:zh-Hans": "å·´è¥¿",
          "name:zh-Hant": "å·´è¥¿",
          "name:roa-tara": "Brasile",
          "official_name": "RepÃºblica Federativa do Brasil",
          "name:be-tarask": "Ğ‘Ñ€Ğ°Ğ·Ñ‹ÌĞ»Ñ–Ñ",
          "ISO3166-1:alpha2": "BR",
          "ISO3166-1:alpha3": "BRA",
          "default_language": "pt",
          "official_name:af": "Federale Republiek BrasiliÃ«",
          "official_name:am": "á‹¨á‰¥áˆ«á‹šáˆ áŒá‹´áˆ«áˆ‹á‹Š áˆªáá‰¥áˆŠáŠ­",
          "official_name:an": "RepÃºblica Federativa do Brasil",
          "official_name:ar": "Ø¬ÙÙ…Ù’Ù‡ÙÙˆØ±ÙÙŠÙÙ‘Ø© Ø§Ù„Ø¨ÙØ±ÙØ§Ø²ÙÙŠÙ„ Ø§Ù„Ø§ØªÙÙ‘Ø­Ø§Ø¯ÙÙŠÙÙ‘Ø©",
          "official_name:as": "à¦«à§‡à¦¡à¦¾à§°à§‡à¦Ÿà¦¿à¦­ à§°à¦¿à¦ªà¦¾à¦¬à§à¦²à¦¿à¦• à¦…à¦«à§ à¦¬à§à§°à¦¾à¦œà¦¿à¦²",
          "official_name:ay": "Tantasqa Republika Wrasil",
          "official_name:az": "Braziliya Federativ RespublikasÄ±",
          "official_name:ba": "Ğ‘Ñ€Ğ°Ğ·Ğ¸ÌĞ»Ğ¸Ñ Ğ¤ĞµĞ´ĞµÑ€Ğ°Ñ‚Ğ¸ÌĞ² Ğ ĞµÑĞ¿ÑƒĞ±Ğ»Ğ¸ĞºĞ°ÌÒ»Ñ‹",
          "official_name:be": "Ğ¤ĞµĞ´ÑÑ€Ğ°Ñ‚Ñ‹ÌÑĞ½Ğ°Ñ Ğ ÑÑĞ¿ÑƒÌĞ±Ğ»Ñ–ĞºĞ° Ğ‘Ñ€Ğ°Ğ·Ñ–ÌĞ»Ñ–Ñ",
          "official_name:bg": "Ğ¤ĞµĞ´ĞµÑ€Ğ°Ñ‚Ğ¸Ğ²Ğ½Ğ° Ñ€ĞµĞ¿ÑƒĞ±Ğ»Ğ¸ĞºĞ° Ğ‘Ñ€Ğ°Ğ·Ğ¸Ğ»Ğ¸Ñ",
          "official_name:bn": "à¦¸à¦‚à¦¯à§à¦•à§à¦¤ à¦ªà§à¦°à¦œà¦¾à¦¤à¦¨à§à¦¤à§à¦°à§€ à¦¬à§à¦°à¦¾à¦œà¦¿à¦²",
          "official_name:br": "Republik Kevreel Brazil",
          "official_name:bs": "Federativna republika Brazil",
          "official_name:ca": "RepÃºblica Federal del Brasil",
          "official_name:ce": "Ğ¤ĞµĞ´ĞµÑ€Ğ°Ñ‚Ğ¸ÌĞ²Ğ½Ğ¸ Ğ ĞµÑĞ¿ÑƒÌĞ±Ğ»Ğ¸ĞºĞ° Ğ‘Ñ€Ğ°Ğ·Ğ¸ÌĞ»Ğ¸",
          "official_name:co": "Republica Federale di u Brasile",
          "official_name:cs": "BrazilskÃ¡ federativnÃ­ republika",
          "official_name:cu": "Ğ‘Ñ€Ğ°ê™Ñ–ÌĞ»ÑŒÑĞºĞ° Ğ¡ÑŠĞ²Ñ«Ìê™ÑŒĞ½Ğ° Ğ”Ğ¸Ğ¼Ğ¾ĞºÑ€Ğ°Ñ‚Ñ–Ìê™—",
          "official_name:cv": "Ğ‘Ñ€Ğ°Ğ·Ğ¸Ğ»Ğ¸ Ğ¤ĞµĞ´ĞµÑ€Ğ°Ñ‚Ğ¸Ğ²Ğ»Äƒ Ğ ĞµÑĞ¿ÑƒĞ±Ğ»Ğ¸ĞºĞ¸",
          "official_name:cy": "Gweriniaeth Ffederal Brasil",
          "official_name:da": "Den FÃ¸derative Republik Brasilien",
          "official_name:de": "FÃ¶derative Republik Brasilien",
          "official_name:el": "ÎŸÎ¼Î¿ÏƒÏ€Î¿Î½Î´Î¹Î±ÎºÎ® Î”Î·Î¼Î¿ÎºÏÎ±Ï„Î¯Î± Ï„Î·Ï‚ Î’ÏÎ±Î¶Î¹Î»Î¯Î±Ï‚",
          "official_name:en": "Federative Republic of Brazil",
          "official_name:eo": "Federacia Respubliko Brazilo",
          "official_name:es": "RepÃºblica Federativa de Brasil",
          "official_name:et": "Brasiilia Liitvabariik",
          "official_name:eu": "Brasilgo Errepublika Federala",
          "official_name:fa": "Ø¬Ù…Ù‡ÙˆØ±ÛŒ ÙØ¯Ø±Ø§Ù„ Ø¨Ø±Ø²ÛŒÙ„",
          "official_name:fi": "Brasilian liittotasavalta",
          "official_name:fo": "Samveldis LÃ½Ã°veldiÃ° Brasil",
          "official_name:fr": "RÃ©publique fÃ©dÃ©rative du BrÃ©sil",
          "official_name:fy": "Federative Republyk Brazylje",
          "official_name:ga": "Poblacht ChÃ³naidhmitheach na BrasaÃ­le",
          "official_name:gl": "RepÃºblica Federativa do Brasil",
          "official_name:gn": "TetÃ£ Joaty PindorÃ¡ma",
          "official_name:gu": "àª¬à«àª°àª¾àªà«€àª²àª¨à«àª‚ àª¸àª‚àª˜à«€àª¯ àª—àª£àª°àª¾àªœà«àª¯",
          "official_name:gv": "Pobblaght Chonastagh ny Brasseel",
          "official_name:ha": "Jamhuriyar Brazil",
          "official_name:he": "×”×¨×¤×•×‘×œ×™×§×” ×”×¤×“×¨×œ×™×ª ×©×œ ×‘×¨×–×™×œ",
          "official_name:hi": "à¤¬à¥à¤°à¤¾à¤œà¤¼à¥€à¤² à¤•à¤¾ à¤¸à¤‚à¤˜à¥€à¤¯ à¤—à¤£à¤°à¤¾à¤œà¥à¤¯",
          "official_name:hr": "Savezna Republika Brazil",
          "official_name:hu": "Brazil SzÃ¶vetsÃ©gi KÃ¶ztÃ¡rsasÃ¡g",
          "official_name:hy": "Ô²Ö€Õ¡Õ¦Õ«Õ¬Õ«Õ¡ÕµÕ« Ô´Õ¡Õ·Õ¶Õ¡ÕµÕ«Õ¶ Õ€Õ¡Õ¶Ö€Õ¡ÕºÕ¥Õ¿Õ¸Ö‚Õ©ÕµÕ¸Ö‚Õ¶",
          "official_name:ia": "Republica Federative de Brasil",
          "official_name:id": "Republik Federal Brasil",
          "official_name:is": "SambandslÃ½Ã°veldiÃ° BrasilÃ­a",
          "official_name:it": "Repubblica Federale del Brasile",
          "official_name:ja": "ãƒ–ãƒ©ã‚¸ãƒ«é€£é‚¦å…±å’Œå›½",
          "official_name:jv": "RÃ©publik Federal Brasil",
          "official_name:ka": "áƒ‘áƒ áƒáƒ–áƒ˜áƒšáƒ˜áƒ˜áƒ¡ áƒ¤áƒ”áƒ“áƒ”áƒ áƒáƒªáƒ˜áƒ£áƒšáƒ˜ áƒ áƒ”áƒ¡áƒáƒ£áƒ‘áƒšáƒ˜áƒ™áƒ",
          "official_name:kk": "Ğ‘Ñ€Ğ°Ğ·Ğ¸Ğ»Ğ¸Ñ Ğ¤ĞµĞ´ĞµÑ€Ğ°Ñ‚Ğ¸Ğ²Ñ‚Ñ–Ğº Ğ ĞµÑĞ¿ÑƒĞ±Ğ»Ğ¸ĞºĞ°ÑÑ‹",
          "official_name:kl": "Kunngiitsuuffik Brazil",
          "official_name:km": "áŸá¶á’á¶ášáášáŠáŸ’á‹â€‹áŸá á–áŸá“áŸ’á’â€‹á”áŸ’ášáŸáŸáŸŠá¸á›",
          "official_name:kn": "à²¬à³à²°à³†à²œà²¿à²²à³ à²¸à²‚à²¯à³à²•à³à²¤ à²—à²£à²°à²¾à²œà³à²¯",
          "official_name:ko": "ë¸Œë¼ì§ˆ ì—°ë°© ê³µí™”êµ­",
          "official_name:ku": "Komara Federal a BrazÃ®lÃª",
          "official_name:kv": "Ğ¤ĞµĞ´ĞµÑ€Ğ°Ñ‚Ğ¸Ğ² Ğ‘Ñ€Ğ°Ğ·Ğ¸Ğ»Ğ¸Ñ Ğ ĞµÑĞ¿ÑƒĞ±Ğ»Ğ¸ĞºĞ°",
          "official_name:ky": "Ğ‘Ñ€Ğ°Ğ·Ğ¸Ğ»Ğ¸Ñ Ğ¤ĞµĞ´ĞµÑ€Ğ°Ñ†Ğ¸Ñ Ğ ĞµÑĞ¿ÑƒĞ±Ğ»Ğ¸ĞºĞ°ÑÑ‹",
          "official_name:la": "Respublica Foederativa Brasiliae",
          "official_name:li": "Federaol Rippubliek BraziliÃ«",
          "official_name:ln": "RepublÃ­ki Fedelali ya Brazil",
          "official_name:lo": "àºªàº°àº«àº°àºàº±àº™àºªàº²àº—àº²àº°àº¥àº°àº™àº°àº¥àº±àº”àºšàº°à»€àº£àºŠàº´àº™",
          "official_name:lt": "Brazilijos FederacinÄ— Respublika",
          "official_name:lv": "BrazÄ«lijas FederatÄ«vÄ Republika",
          "official_name:mg": "Repoblika federalin'i Brazila",
          "official_name:mi": "Whenua TÅ« Wehe o ParÄ«hi",
          "official_name:mk": "Ğ¤ĞµĞ´ĞµÑ€Ğ°Ñ‚Ğ¸Ğ²Ğ½Ğ° Ğ ĞµĞ¿ÑƒĞ±Ğ»Ğ¸ĞºĞ° Ğ‘Ñ€Ğ°Ğ·Ğ¸Ğ»",
          "official_name:ml": "à´«àµ†à´¡à´±àµ‡à´±àµà´±à´¿à´µàµ à´±à´¿à´ªàµà´ªà´¬àµà´²à´¿à´•àµà´•àµ à´“à´«àµ à´¬àµà´°à´¸àµ€àµ½",
          "official_name:mn": "Ğ¥Ğ¾Ğ»Ğ±Ğ¾Ğ¾Ğ½Ñ‹ Ğ‘Ò¯Ğ³Ğ´ ĞĞ°Ğ¹Ñ€Ğ°Ğ¼Ğ´Ğ°Ñ… Ğ‘Ñ€Ğ°Ğ·Ğ¸Ğ» Ğ£Ğ»Ñ",
          "official_name:ms": "Republik Persekutuan Brazil",
          "official_name:mt": "Repubblika Federattiva tal-BraÅ¼il",
          "official_name:my": "á€˜á€›á€¬á€‡á€®á€¸ á€–á€€á€ºá€’á€›á€šá€º á€á€™á€¹á€™á€á€”á€­á€¯á€„á€ºá€„á€¶",
          "official_name:ne": "à¤¸à¤‚à¤˜à¥€à¤¯ à¤—à¤£à¤¤à¤¨à¥à¤¤à¥à¤° à¤¬à¥à¤°à¤¾à¤œà¤¿à¤²",
          "official_name:nl": "Federale Republiek van BraziliÃ«",
          "official_name:no": "Forbundsrepublikken Brasil",
          "official_name:nv": "KintaaÊ¼anÃ©hÃ© DineÊ¼Ã© BikÃ©yah",
          "official_name:oc": "Republica Federala de Brasil",
          "official_name:os": "Ğ¤ĞµĞ´ĞµÑ€Ğ°Ñ‚Ğ¸Ğ²Ğ¾Ğ½ Ğ ĞµÑĞ¿ÑƒĞ±Ğ»Ğ¸ĞºÃ¦ Ğ‘Ñ€Ğ°Ğ·Ğ¸Ğ»Ğ¸",
          "official_name:pa": "à¨¬à©à¨°à¨¾à¨œà¨¼à©€à¨² à¨¦à¨¾ à¨¸à©°à¨˜à©€ à¨—à¨£à¨°à¨¾à¨œ",
          "official_name:pl": "Federacyjna Republika Brazylii",
          "official_name:ps": "Ø¯ Ø¨Ø±Ø§Ø²ÛŒÙ„ ÙØ¯Ø±Ø§ØªÛŒÙ ÙˆÙ„Ø³Ù…Ø´Ø±ÛŒØ²Ù‡",
          "official_name:pt": "RepÃºblica Federativa do Brasil",
          "official_name:qu": "Brasil Tantasqa Ripuwlika",
          "official_name:rm": "Republica federal da Brasilia",
          "official_name:ro": "Republica FederativÄƒ a Braziliei",
          "official_name:ru": "Ğ¤ĞµĞ´ĞµÑ€Ğ°Ñ‚Ğ¸Ğ²Ğ½Ğ°Ñ Ğ ĞµÑĞ¿ÑƒĞ±Ğ»Ğ¸ĞºĞ° Ğ‘Ñ€Ğ°Ğ·Ğ¸Ğ»Ğ¸Ñ",
          "official_name:sd": "ÙˆÙØ§Ù‚ÙŠ Ø¬Ù…Ù‡ÙˆØ±ÙŠÙ‡ Ø¨Ø±Ø§Ø²ÙŠÙ„",
          "official_name:se": "Brasilia lihttodÃ¡ssevÃ¡ldi",
          "official_name:sh": "Federativna Republika Brazil",
          "official_name:si": "à¶¶à·Šà¶»à·ƒà·’à¶½ à·ƒà¶¸à·”à·„à·à¶«à·Šà¶©à·” à·ƒà¶‚à·€à·’à¶°à·à¶±à¶º",
          "official_name:sk": "BrazÃ­lska federatÃ­vna republika",
          "official_name:sl": "Federativna republika Brazilija",
          "official_name:sm": "Ripapelika feterale o Pasila",
          "official_name:sq": "Republika Federative e Brazilit",
          "official_name:sr": "Ğ¡Ğ°Ğ²ĞµĞ·Ğ½Ğ° Ğ ĞµĞ¿ÑƒĞ±Ğ»Ğ¸ĞºĞ° Ğ‘Ñ€Ğ°Ğ·Ğ¸Ğ»",
          "official_name:su": "RÃ©publik FÃ©derasi Brasil",
          "official_name:sv": "FÃ¶rbundsrepubliken Brasilien",
          "official_name:sw": "Shirikisho la Jamhuri ya Brazil",
          "official_name:ta": "à®ªà®¿à®°à¯‡à®šà®¿à®²à¯ à®•à¯‚à®Ÿà¯à®Ÿà®¾à®Ÿà¯à®šà®¿à®•à¯ à®•à¯à®Ÿà®¿à®¯à®°à®šà¯",
          "official_name:te": "à°«à±†à°¡à°°à±‡à°Ÿà°¿à°µà± à°°à°¿à°ªà°¬à±à°²à°¿à°•à± à°†à°«à± à°¬à±à°°à±†à°œà°¿à°²à±",
          "official_name:th": "à¸ªà¸«à¸à¸±à¸™à¸˜à¹Œà¸ªà¸²à¸˜à¸²à¸£à¸“à¸£à¸±à¸à¸šà¸£à¸²à¸‹à¸´à¸¥",
          "official_name:tk": "BraziliÃ½a Federatiw Respublikasy",
          "official_name:tl": "Pederatibong Republika ng Brasil",
          "official_name:tr": "Brezilya Federal Cumhuriyeti",
          "official_name:tt": "Ğ‘Ñ€Ğ°Ğ·Ğ¸ÌĞ»Ğ¸Ñ Ğ¤ĞµĞ´ĞµÑ€Ğ°Ñ‚Ğ¸ÌĞ² Ğ ĞµÑĞ¿ÑƒÌĞ±Ğ»Ğ¸ĞºĞ°ÑÑ‹",
          "official_name:uk": "Ğ¤ĞµĞ´ĞµÑ€Ğ°Ñ‚Ğ¸ÌĞ²Ğ½Ğ° Ğ ĞµÑĞ¿ÑƒÌĞ±Ğ»Ñ–ĞºĞ° Ğ‘Ñ€Ğ°Ğ·Ğ¸ÌĞ»Ñ–Ñ",
          "official_name:ur": "ÙˆÙØ§Ù‚ÛŒ Ø¬Ù…ÛÙˆØ±ÛŒÛ Ø¨Ø±Ø§Ø²ÛŒÙ„",
          "official_name:uz": "Braziliya Federativ Respublikasi",
          "official_name:vi": "Cá»™ng hÃ²a LiÃªn bang Brasil",
          "official_name:wo": "RÃ©ewum Breesil",
          "official_name:yi": "×¤Ö¿×¢×“×¢×¨×Ö·×˜×™×°×¢ ×¨×¢×¤×•×‘×œ×™×§ ×¤Ö¿×•×Ÿ ×‘×¨×Ö·×–×™×œ",
          "official_name:yo": "OrÃ­láº¹Ì€-Ã¨dÃ¨ OlÃ³mÃ¬nira Aparapá»Ì€ iláº¹Ì€ BrÃ sÃ­l",
          "official_name:za": "Bahsih Lienzbangh Gunghozgoz",
          "official_name:zh": "å·´è¥¿è”é‚¦å…±å’Œå›½ / å·´è¥¿è¯é‚¦å…±å’Œåœ‹",
          "ISO3166-1:numeric": "076",
          "official_name:als": "FÃ¶derative Republik Brasilien",
          "official_name:arc": "Ü©Ü˜Ü›Ü¢ÜÜ˜Ü¬Ü Ü¦Ü•ÜªÜ ÜÜ¬Ü Ü•Ü’ÜªÜÜ™ÜÜ ",
          "official_name:arz": "Ø¬Ù…Ù‡ÙˆØ±ÙŠØ© Ø§Ù„Ø¨Ø±Ø§Ø²ÙŠÙ„ Ø§Ù„Ø§ØªØ­Ø§Ø¯ÙŠÙ‡",
          "official_name:ast": "RepÃºblica Federativa do Brasil",
          "official_name:azb": "Ø¨Ø±Ø²ÛŒÙ„ ÙØ¯Ø±Ø§ØªÛŒÙˆ Ø¬ÙˆÙ…Ù‡ÙˆØ±ÛŒØªÛŒ",
          "official_name:bpy": "à¦•à§‡à¦¨à§à¦¦à§à¦°à§€à¦¯à¦¼ à¦ªà§à¦°à¦œà¦¾à¦¤à¦¨à§à¦¤à§à¦°à¦¿ à¦¬à§à¦°à¦¾à¦œà¦¿à¦²",
          "official_name:bxr": "Ğ¥Ğ¾Ğ»Ğ±Ğ¾Ğ¾Ğ½Ğ¾Ğ¹ Ğ‘Ò¯Ğ³ÑĞ´Ñ ĞĞ°Ğ¹Ñ€Ğ°Ğ¼Ğ´Ğ°Ñ…Ğ° Ğ‘Ñ€Ğ°Ğ·Ğ¸Ğ» Ğ£Ğ»Ğ°Ñ",
          "official_name:ceb": "Pederatibong Republika sa Brasil",
          "official_name:chr": "á á°áŸ áá¦ášá© á¾á¿ á†ááµ",
          "official_name:ckb": "Ú©Û†Ù…Ø§Ø±ÛŒ ÙÛŒØ¯Ø±Ø§ÚµÛŒ Ø¨Û•Ú•Ø§Ø²ÛŒÙ„",
          "official_name:crh": "Brazil Federativ Cumhuriyeti",
          "official_name:diq": "CumhuriyetÃª Breziyayo Federal",
          "official_name:dsb": "Brazilska federatiwna republika",
          "official_name:dty": "à¤¸à¤‚à¤˜à¥€à¤¯ à¤—à¤£à¤¤à¤¨à¥à¤¤à¥à¤° à¤¬à¥à¤°à¤¾à¤œà¤¿à¤²",
          "official_name:eml": "Repubblica Federativa del Brasile",
          "official_name:ext": "RepÃºbrica Federativa del Brasil",
          "official_name:frr": "FÃ¶Ã¶deratiif Republiik faan Brasiilien",
          "official_name:gag": "Braziliya Federal RespublikasÄ±",
          "official_name:gan": "å·´è¥¿è¯é‚¦å…±å’Œåœ‹",
          "official_name:hsb": "Brazilska federatiwna republika",
          "official_name:ilo": "Pederatibo a Republika ti Brasil",
          "official_name:jbo": "razgu'e gumgu'e gubyseltru",
          "official_name:kbd": "Ğ¤ĞµĞ´ĞµÑ€Ğ°Ñ†Ğ¸ÑĞ¼ Ğ ĞµÑĞ¿ÑƒĞ±Ğ»Ğ¸ĞºÑ Ğ‘Ñ€Ğ°Ğ·Ğ¸Ğ»",
          "official_name:krc": "Ğ¤ĞµĞ´ĞµÑ€Ğ°Ñ‚Ğ¸Ğ² Ğ‘Ñ€Ğ°Ğ·Ğ¸Ğ»Ğ¸Ñ Ğ ĞµÑĞ¿ÑƒĞ±Ğ»Ğ¸ĞºĞ°",
          "official_name:lad": "Republika Federala del Brasil",
          "official_name:lez": "Ğ‘Ñ€Ğ°Ğ·Ğ¸Ğ»Ğ¸Ñ Ğ¤ĞµĞ´ĞµÑ€Ğ°Ñ‚Ğ¸Ğ²Ğ´Ğ¸Ğ½ Ğ ĞµÑĞ¿ÑƒĞ±Ğ»Ğ¸ĞºĞ°",
          "official_name:lmo": "RepÃºblica Federativa do Brasil",
          "official_name:lrc": "Ú©ÙˆÙ…Ø±Ù‡ ÙˆÙ„Ø§Øª ÙØ¯Ø±Ø§ØªÛŒÙˆ Ø¨Ø±Ø²ÛŒÙ„",
          "official_name:ltg": "Brazilejis Federativuo Republika",
          "official_name:lzh": "å·´è¥¿è¯é‚¦å…±å’Œåœ‹",
          "official_name:mai": "à¤¸à¤™à¥à¤˜à¥€à¤¯ à¤—à¤£à¤¤à¤¨à¥à¤¤à¥à¤° à¤¬à¥à¤°à¤¾à¤œà¤¿à¤²",
          "official_name:min": "RepÃºblica Federativa do Brasil",
          "official_name:mwl": "RepÃºblica Federativa do Brasil",
          "official_name:myv": "Ğ¤ĞµĞ´ĞµÑ€Ğ°Ñ‚Ğ¸ÌĞ²Ğ½Ğ°Ñ Ğ ĞµÑĞ¿ÑƒÌĞ±Ğ»Ğ¸ĞºĞ° Ğ‘Ñ€Ğ°Ğ·Ğ¸ÌĞ»Ğ¸Ñ",
          "official_name:mzn": "Ø¨Ø±Ø²ÛŒÙ„ ÙØ¯Ø±Ø§ØªÛŒÙˆ Ø¬Ù…Ù‡ÙˆØ±ÛŒ",
          "official_name:nah": "Nenahuatiliztlacatlahtohcayotl Brasil",
          "official_name:nan": "Pa-se LiÃ¢n-pang KiÅng-hÃ´-kok",
          "official_name:nap": "Repubbreca Federativa d'o Brasile",
          "official_name:nds": "Bundsrepubliek Brasilien",
          "official_name:olo": "Braziilien federatiivine tazavaldu",
          "official_name:pag": "Federative Republic na Brazil",
          "official_name:pam": "Federatibung Republica ning Brazil",
          "official_name:pap": "RepÃºblika Federativa di Brazil",
          "official_name:pcd": "RÃ©publike fÃ©dÃ©rative du BrÃ©sil",
          "official_name:pdc": "Bunnes-Republik Brasilien",
          "official_name:pfl": "Federadivi Republik Brasilje",
          "official_name:pih": "Federativii Repablik o' Bresel",
          "official_name:rmy": "Federalni Republika la Braziliyaki",
          "official_name:rue": "Ğ‘Ñ€Ğ°Ğ·Ñ–Ğ»ÑŒÑĞºĞ° Ñ„ĞµĞ´ĞµÑ€Ğ°Ñ‚Ñ–Ğ²Ğ½Ğ° Ñ€ĞµĞ¿ÑƒĞ±Ğ»Ñ–ĞºĞ°",
          "official_name:sah": "Ğ‘Ñ€Ğ°Ğ·Ğ¸Ğ»Ğ¸Ñ Ğ¤ĞµĞ´ĞµÑ€Ğ°Ñ‚Ğ¸Ğ² Ğ ĞµÑĞ¿ÑƒĞ±Ğ»Ğ¸ĞºĞ°Ñ‚Ğ°",
          "official_name:sco": "Federative Republic o Brazil",
          "official_name:srn": "Ripoliku Brasilkondre",
          "official_name:tet": "RepÃºblika Federativa BrazÃ­l nian",
          "official_name:tyv": "Ğ¤ĞµĞ´ĞµÑ€Ğ°Ñ‚Ğ¸Ğ²Ñ‚Ğ¸Ğ³ Ğ‘Ñ€Ğ°Ğ·Ğ¸Ğ»Ğ¸Ñ Ğ ĞµÑĞ¿ÑƒĞ±Ğ»Ğ¸ĞºĞ°Ğ·Ñ‹",
          "official_name:vec": "RepÃ¹blica FederaÅ‚e de Braxil",
          "official_name:vep": "Brazilijan Federativine Tazovaldkund",
          "official_name:vls": "Federoale Republiek BraziliÃ«",
          "official_name:vro": "Brasiilia Vabariik",
          "official_name:war": "Republika Federativa han Brasil",
          "official_name:wuu": "å·´è¥¿è”é‚¦å…±å’Œå›½",
          "official_name:xal": "ĞĞ¸Ğ¸Ñ†Ó™Ñ‚Ó™ Ğ‘Ñ€Ğ°Ğ·Ğ¸Ğ»Ğ¼ÑƒĞ´Ğ¸Ğ½ ĞÑ€Ğ½",
          "official_name:yue": "å·´è¥¿è¯é‚¦å…±å’Œåœ‹",
          "official_name:nds-nl": "Federale Reppubliek BraziliÃ«",
          "official_name:cbk-zam": "Republica Federativa del Brazil",
          "official_name:zh-Hans": "å·´è¥¿è”é‚¦å…±å’Œå›½",
          "official_name:zh-Hant": "å·´è¥¿è¯é‚¦å…±å’Œåœ‹",
          "official_name:roa-tara": "Repubbleche Federative d'u Brasile"
        }
      },
      "geometry": {
        "type": "Polygon",
        "coordinates": [
          [
            [
              -73,
              -8.917339986022656
            ],
            [
              -72.9993066,
              -8.9177811
            ],
            [
              -72.9983749,
              -8.9191504
            ],
            [
              -72.9931329,
              -8.928877
            ],
            [
              -72.9916231,
              -8.9311641
            ],
            [
              -72.9874414,
              -8.9358419
            ],
            [
              -72.9856954,
              -8.9386992
            ],
            [
              -72.9842911,
              -8.9429316
            ],
            [
              -72.9826905,
              -8.9507056
            ],
            [
              -72.982198,
              -8.95233
            ],
            [
              -72.980296,
              -8.9555845
            ],
            [
              -72.977744,
              -8.9582617
            ],
            [
              -72.9770507,
              -8.9596406
            ],
            [
              -72.9767619,
              -8.961253
            ],
            [
              -72.9767189,
              -8.965558
            ],
            [
              -72.9760731,
              -8.9675814
            ],
            [
              -72.9718541,
              -8.9731777
            ],
            [
              -72.9688837,
              -8.9799367
            ],
            [
              -72.9679796,
              -8.981013
            ],
            [
              -72.9661716,
              -8.9827351
            ],
            [
              -72.9652245,
              -8.9832516
            ],
            [
              -72.9641912,
              -8.9835962
            ],
            [
              -72.9623789,
              -8.9837619
            ],
            [
              -72.9530571,
              -8.9816105
            ],
            [
              -72.9511275,
              -8.9813079
            ],
            [
              -72.9468519,
              -8.9813457
            ],
            [
              -72.9439384,
              -8.9823295
            ],
            [
              -72.9424627,
              -8.983124
            ],
            [
              -72.9416682,
              -8.9837671
            ],
            [
              -72.9409115,
              -8.9849402
            ],
            [
              -72.9407222,
              -8.9868321
            ],
            [
              -72.9416304,
              -8.9895185
            ],
            [
              -72.942879,
              -8.9915239
            ],
            [
              -72.9463979,
              -8.9942481
            ],
            [
              -72.951014,
              -8.9971615
            ],
            [
              -72.9570679,
              -8.9997724
            ],
            [
              -72.9573010608819,
              -9
            ],
            [
              -72,
              -9
            ],
            [
              -72,
              -8
            ],
            [
              -73,
              -8
            ],
            [
              -73,
              -8.917339986022656
            ]
          ]
        ]
      }
    },
    {
      "type": "Feature",
      "properties": {
        "osm_id": -288247,
        "boundary": "administrative",
        "admin_level": 2,
        "parents": null,
        "name": "Peru",
        "local_name": "PerÃº",
        "name_en": "Peru",
        "all_tags": {
          "flag": "http://upload.wikimedia.org/wikipedia/commons/c/cf/Flag_of_Peru.svg",
          "name": "PerÃº",
          "name:ab": "ĞŸĞµÑ€Ñƒ",
          "name:af": "Peru",
          "name:ak": "Peru",
          "name:am": "á”áˆ©",
          "name:an": "PerÃº",
          "name:ar": "Ø¨ÙŠØ±Ùˆ",
          "name:ay": "Piruw",
          "name:az": "Peru",
          "name:ba": "ĞŸĞµÑ€Ñƒ",
          "name:be": "ĞŸĞµÑ€Ñƒ",
          "name:bg": "ĞŸĞµÑ€Ñƒ",
          "name:bi": "Peru",
          "name:bm": "Peru",
          "name:bn": "à¦ªà§‡à¦°à§",
          "name:bo": "à½”à½ºà¼‹à½¢à½´à¼",
          "name:br": "Perou",
          "name:bs": "Peru",
          "name:ca": "PerÃº",
          "name:ce": "ĞŸĞµÑ€Ñƒ",
          "name:ch": "PerÃº",
          "name:co": "PerÃ¹",
          "name:cs": "Peru",
          "name:cv": "ĞŸĞµÑ€Ñƒ",
          "name:cy": "Periw",
          "name:da": "Peru",
          "name:de": "Peru",
          "name:dv": "Ş•Ş¬ŞƒŞ«",
          "name:ee": "Peru",
          "name:el": "Î ÎµÏÎ¿Ï",
          "name:en": "Peru",
          "name:eo": "Peruo",
          "name:es": "PerÃº",
          "name:et": "Peruu",
          "name:eu": "Peru",
          "name:fa": "Ù¾Ø±Ùˆ",
          "name:ff": "Peru",
          "name:fi": "Peru",
          "name:fo": "Peru",
          "name:fr": "PÃ©rou",
          "name:fy": "PerÃ»",
          "name:ga": "PeiriÃº",
          "name:gd": "PearÃ¹",
          "name:gl": "PerÃº",
          "name:gn": "PerÅ©",
          "name:gu": "àªªà«‡àª°à«",
          "name:gv": "Yn Pheroo",
          "name:he": "×¤×¨×•",
          "name:hi": "à¤ªà¥‡à¤°à¥‚",
          "name:hr": "Peru",
          "name:ht": "Pewou",
          "name:hu": "Peru",
          "name:hy": "ÕŠÕ¥Ö€Õ¸Ö‚",
          "name:ia": "Peru",
          "name:id": "Peru",
          "name:ie": "PerÃº",
          "name:io": "Peru",
          "name:is": "PerÃº",
          "name:it": "PerÃ¹",
          "name:iu": "á±á•‰",
          "name:ja": "ãƒšãƒ«ãƒ¼",
          "name:jv": "Peru",
          "name:ka": "áƒáƒ”áƒ áƒ£",
          "name:ki": "Peru",
          "name:kk": "ĞŸĞµÑ€Ñƒ",
          "name:kl": "Peru",
          "name:kn": "à²ªà³†à²°à³",
          "name:ko": "í˜ë£¨",
          "name:ku": "PerÃ»",
          "name:kv": "ĞŸĞµÑ€Ñƒ",
          "name:kw": "Perou",
          "name:ky": "ĞŸĞµÑ€Ñƒ",
          "name:la": "Peruvia",
          "name:lb": "Peru",
          "name:li": "Peru",
          "name:ln": "Peru",
          "name:lt": "Peru",
          "name:lv": "Peru",
          "name:mi": "PerÅ«",
          "name:mk": "ĞŸĞµÑ€Ñƒ",
          "name:ml": "à´ªàµ†à´±àµ",
          "name:mn": "ĞŸĞµÑ€Ñƒ",
          "name:mr": "à¤ªà¥‡à¤°à¥‚",
          "name:ms": "Peru",
          "name:mt": "PerÃ¹",
          "name:my": "á€•á€®á€›á€°á€¸á€”á€­á€¯á€„á€ºá€„á€¶",
          "name:na": "Peru",
          "name:ne": "à¤ªà¥‡à¤°à¥‚",
          "name:nl": "Peru",
          "name:nn": "Peru",
          "name:no": "Peru",
          "name:oc": "PerÃ³",
          "name:or": "à¬ªà­‡à¬°à­",
          "name:os": "ĞŸĞµÑ€Ñƒ",
          "name:pa": "à¨ªà©‡à¨°à©‚",
          "name:pl": "Peru",
          "name:ps": "Ù¾ÙŠØ±Ùˆ",
          "name:pt": "Peru",
          "name:qu": "Piruw",
          "name:rm": "Peru",
          "name:ro": "Peru",
          "name:ru": "ĞŸĞµÑ€Ñƒ",
          "name:rw": "Peru",
          "name:sa": "à¤ªà¥‡à¤°à¥",
          "name:se": "Peru",
          "name:sh": "Peru",
          "name:si": "à¶´à·šà¶»à·–",
          "name:sk": "Peru",
          "name:sl": "Peru",
          "name:sn": "Peru",
          "name:so": "Peru",
          "name:sq": "Peruja",
          "name:sr": "ĞŸĞµÑ€Ñƒ",
          "name:ss": "IPheru",
          "name:su": "PÃ©ru",
          "name:sv": "Peru",
          "name:sw": "Peru",
          "name:ta": "à®ªà¯†à®°à¯",
          "name:te": "à°ªà±†à°°à±‚",
          "name:tg": "ĞŸĞµÑ€Ñƒ",
          "name:th": "à¸›à¸£à¸°à¹€à¸—à¸¨à¹€à¸›à¸£à¸¹",
          "name:tk": "Peru",
          "name:tl": "Peru",
          "name:tr": "Peru",
          "name:tt": "ĞŸĞµÑ€Ñƒ",
          "name:ug": "Ù¾ÛØ±Û‡",
          "name:uk": "ĞŸĞµÑ€Ñƒ",
          "name:ur": "Ù¾ÛŒØ±Ùˆ",
          "name:uz": "Peru",
          "name:vi": "Peru",
          "name:vo": "PeruvÃ¤n",
          "name:wo": "Peru",
          "name:yi": "×¤×¢×¨×•",
          "name:yo": "PerÃº",
          "name:zh": "ç§˜é²",
          "name:zu": "Peru",
          "boundary": "administrative",
          "int_name": "Peru",
          "name:ace": "PÃ¨ru",
          "name:als": "Peru",
          "name:ang": "Peru",
          "name:arz": "Ø¨ÙŠØ±Ùˆ",
          "name:ast": "PerÃº",
          "name:bar": "Peru",
          "name:bcl": "Peru",
          "name:bpy": "à¦ªà§‡à¦°à§",
          "name:ceb": "Peru",
          "name:ckb": "Ù¾ÛØ±ÙˆÙˆ",
          "name:crh": "Peru",
          "name:diq": "Peru",
          "name:dsb": "Peru",
          "name:ext": "PerÃº",
          "name:frp": "PÃ¨rou",
          "name:frr": "Peruu",
          "name:gag": "Peru",
          "name:hak": "Pi-lÃ»",
          "name:hif": "Peru",
          "name:hsb": "Peru",
          "name:ilo": "Peru",
          "name:jbo": "perus",
          "name:kaa": "Peru",
          "name:lad": "Peru",
          "name:lez": "ĞŸĞµÑ€Ñƒ",
          "name:lij": "PerÃ¹",
          "name:lmo": "PerÃ¹",
          "name:ltg": "Peru",
          "name:lzh": "ç¥•é­¯",
          "name:mhr": "ĞŸĞµÑ€Ñƒ",
          "name:mrj": "ĞŸĞµÑ€Ñƒ",
          "name:mwl": "Peru",
          "name:nah": "Peru",
          "name:nan": "PerÃº",
          "name:nap": "PerÃ¹",
          "name:nds": "Peru",
          "name:new": "à¤ªà¥‡à¤°à¥",
          "name:nov": "Peru",
          "name:nrm": "PÃ©rou",
          "name:pam": "Peru",
          "name:pap": "Peru",
          "name:pih": "Peruu",
          "name:pms": "PerÃ¹",
          "name:pnb": "Ù¾ÛŒØ±Ùˆ",
          "name:rmy": "Peru",
          "name:rue": "ĞŸĞµÑ€Ñƒ",
          "name:sah": "ĞŸĞµÑ€Ñƒ",
          "name:scn": "PerÃ¹",
          "name:sco": "Peru",
          "name:smn": "Peru",
          "name:sms": "Peru",
          "name:szl": "Peru",
          "name:tet": "PerÃº",
          "name:tzl": "PerÃ¹",
          "name:vec": "PerÃ¹",
          "name:vro": "Peruu",
          "name:war": "PerÃº",
          "name:wuu": "ç§˜é²",
          "name:xal": "ĞŸĞµÑ€ÑƒĞ¼ÑƒĞ´Ğ¸Ğ½ ĞÑ€Ğ½",
          "name:xmf": "áƒáƒ”áƒ áƒ£",
          "name:yue": "ç§˜é­¯",
          "name:zea": "Peru",
          "timezone": "America/Lima",
          "way_area": "177.554",
          "wikidata": "Q419",
          "ISO3166-1": "PE",
          "wikipedia": "es:PerÃº",
          "admin_level": "2",
          "name:simple": "Peru",
          "name:bat-smg": "PerÅ«",
          "name:cbk-zam": "Peru",
          "name:zh-Hans": "ç§˜é­¯",
          "name:zh-Hant": "ç§˜é­¯",
          "official_name": "RepÃºblica del PerÃº",
          "name:be-tarask": "ĞŸÑÑ€Ñƒ",
          "ISO3166-1:alpha2": "PE",
          "ISO3166-1:alpha3": "PER",
          "official_name:cs": "PeruÃ¡nskÃ¡ republika",
          "official_name:el": "Î”Î·Î¼Î¿ÎºÏÎ±Ï„Î¯Î± Ï„Î¿Ï… Î ÎµÏÎ¿Ï",
          "official_name:en": "Republic of Peru",
          "official_name:eo": "Perua Respubliko",
          "official_name:es": "RepÃºblica del PerÃº",
          "official_name:et": "Peruu Vabariik",
          "official_name:eu": "Peruko Errepublika",
          "official_name:fr": "RÃ©publique du PÃ©rou",
          "official_name:id": "Republik Peru",
          "official_name:lb": "Republik Peru",
          "official_name:lt": "Peru Respublika",
          "official_name:lv": "Peru Republika",
          "official_name:ro": "Republica Peru",
          "official_name:ru": "Ğ ĞµÑĞ¿ÑƒĞ±Ğ»Ğ¸ĞºĞ° ĞŸĞµÑ€Ñƒ",
          "official_name:sk": "PeruÃ¡nska republika",
          "official_name:sv": "Republiken Peru",
          "official_name:vi": "Cá»™ng hÃ²a Peru",
          "ISO3166-1:numeric": "604"
        }
      },
      "geometry": {
        "type": "Polygon",
        "coordinates": [
          [
            [
              -73,
              -9
            ],
            [
              -72.9573010608819,
              -9
            ],
            [
              -72.9570679,
              -8.9997724
            ],
            [
              -72.951014,
              -8.9971615
            ],
            [
              -72.9463979,
              -8.9942481
            ],
            [
              -72.942879,
              -8.9915239
            ],
            [
              -72.9416304,
              -8.9895185
            ],
            [
              -72.9407222,
              -8.9868321
            ],
            [
              -72.9409115,
              -8.9849402
            ],
            [
              -72.9416682,
              -8.9837671
            ],
            [
              -72.9424627,
              -8.983124
            ],
            [
              -72.9439384,
              -8.9823295
            ],
            [
              -72.9468519,
              -8.9813457
            ],
            [
              -72.9511275,
              -8.9813079
            ],
            [
              -72.9530571,
              -8.9816105
            ],
            [
              -72.9623789,
              -8.9837619
            ],
            [
              -72.9641912,
              -8.9835962
            ],
            [
              -72.9652245,
              -8.9832516
            ],
            [
              -72.9661716,
              -8.9827351
            ],
            [
              -72.9679796,
              -8.981013
            ],
            [
              -72.9688837,
              -8.9799367
            ],
            [
              -72.9718541,
              -8.9731777
            ],
            [
              -72.9760731,
              -8.9675814
            ],
            [
              -72.9767189,
              -8.965558
            ],
            [
              -72.9767619,
              -8.961253
            ],
            [
              -72.9770507,
              -8.9596406
            ],
            [
              -72.977744,
              -8.9582617
            ],
            [
              -72.980296,
              -8.9555845
            ],
            [
              -72.982198,
              -8.95233
            ],
            [
              -72.9826905,
              -8.9507056
            ],
            [
              -72.9842911,
              -8.9429316
            ],
            [
              -72.9856954,
              -8.9386992
            ],
            [
              -72.9874414,
              -8.9358419
            ],
            [
              -72.9916231,
              -8.9311641
            ],
            [
              -72.9931329,
              -8.928877
            ],
            [
              -72.9983749,
              -8.9191504
            ],
            [
              -72.9993066,
              -8.9177811
            ],
            [
              -73,
              -8.917339986022656
            ],
            [
              -73,
              -9
            ]
          ]
        ]
      }
    }
  ]
}