{
  "type": "FeatureCollection",
  "features": [
    {
      "type": "Feature",
      "properties": {
        "osm_id": -547469,
        "boundary": "administrative",
        "admin_level": 2,
        "parents": null,
        "name": "The Bahamas",
        "local_name": "The Bahamas",
        "name_en": "The Bahamas",
        "all_tags": {
          "flag": "http://upload.wikimedia.org/wikipedia/commons/9/93/Flag_of_the_Bahamas.svg",
          "name": "The Bahamas",
          "place": "archipelago",
          "name:af": "Bahamas",
          "name:ak": "Bahama",
          "name:am": "ባሃማስ",
          "name:an": "Bahamas",
          "name:ar": "باهاماس",
          "name:ay": "Bahamas",
          "name:az": "Bahamalar",
          "name:ba": "Багама утрауҙары",
          "name:be": "Бага́мскія Астравы́",
          "name:bg": "Бахамските острови",
          "name:bm": "Bahamasi",
          "name:bn": "বাহামা দ্বীপপুঞ্জ",
          "name:bo": "བ་ཧ་མཱ་སི།",
          "name:br": "Bahamas",
          "name:bs": "Bahami",
          "name:ca": "Bahames",
          "name:ce": "Багама",
          "name:cs": "Bahamy",
          "name:cv": "Пахамсем",
          "name:cy": "Y Bahamas",
          "name:da": "Bahamas",
          "name:de": "Die Bahamas",
          "name:dv": "ބަހާމަސް",
          "name:dz": "བཱ་ཧ་མས྄།",
          "name:ee": "Bahamas",
          "name:el": "Μπαχάμες",
          "name:en": "The Bahamas",
          "name:eo": "La Bahamoj",
          "name:es": "Las Bahamas",
          "name:et": "Bahama",
          "name:eu": "Bahamak",
          "name:fa": "باهاما",
          "name:ff": "Bahamaas",
          "name:fi": "Bahama",
          "name:fo": "Bahamaoyggjar",
          "name:fr": "Les Bahamas",
          "name:fy": "De Bahama's",
          "name:ga": "na Bahámaí",
          "name:gd": "na Bahàmas",
          "name:gl": "Bahamas",
          "name:gn": "Vaamakuéra",
          "name:gu": "બહામાસ",
          "name:gv": "ny Bahamaghyn",
          "name:he": "איי בהאמה",
          "name:hi": "बहामस",
          "name:hr": "Bahami",
          "name:ht": "Il Bahamas",
          "name:hu": "Bahama-szigetek",
          "name:hy": "Բահամները",
          "name:ia": "Bahamas",
          "name:id": "Bahama",
          "name:io": "Bahama",
          "name:is": "Bahamaeyjar",
          "name:it": "Le Bahamas",
          "name:ja": "バハマ",
          "name:jv": "Bahama",
          "name:ka": "ბაჰამის კუნძულები",
          "name:ki": "Bahama",
          "name:kk": "Багам аралдары",
          "name:km": "បាហាម៉ា",
          "name:kn": "ಬಹಾಮಾಸ್",
          "name:ko": "바하마",
          "name:ks": "بَہامَس",
          "name:ku": "Bahama",
          "name:kw": "Ynysow Bahama",
          "name:ky": "Багама аралдары",
          "name:la": "Bahamanae",
          "name:lb": "D'Bahamas",
          "name:lg": "Bahamasi",
          "name:li": "De Bahama's",
          "name:ln": "Bahamasɛ",
          "name:lo": "ບາຮາມມາສ",
          "name:lt": "Bahamos",
          "name:lv": "Bahamas",
          "name:mg": "Bahamasy",
          "name:mk": "Бахами",
          "name:ml": "ബഹാമാസ്",
          "name:mn": "Багамын Арлууд",
          "name:mr": "बहामास",
          "name:ms": "Bahamas",
          "name:mt": "Il-Baħamas",
          "name:my": "ဘဟားမားနိုင်ငံ",
          "name:na": "Bahamat",
          "name:ne": "बहामस",
          "name:nl": "Bahama's",
          "name:nn": "Bahamas",
          "name:no": "Bahamas",
          "name:oc": "Las Bahamas",
          "name:om": "Bahamaas",
          "name:or": "ବାହାମା",
          "name:os": "Багамтæ",
          "name:pa": "ਬਹਾਮਾਸ",
          "name:pi": "बहामास",
          "name:pl": "Bahamy",
          "name:pt": "Bahamas",
          "name:qu": "Bahamakuna",
          "name:rm": "Bahamas",
          "name:rn": "Bahamasi",
          "name:ro": "Bahamas",
          "name:ru": "Багамские Острова",
          "name:rw": "Bahamasi",
          "name:sa": "बहामास",
          "name:se": "Bahamasullot",
          "name:sg": "Bahâmasa",
          "name:sh": "Bahami",
          "name:si": "බහාමාස්",
          "name:sk": "Bahamy",
          "name:sl": "Bahami",
          "name:sn": "The Bahamas",
          "name:so": "Bahamas",
          "name:sq": "Bahamet",
          "name:sr": "Бахаме",
          "name:ss": "iBhahamasi",
          "name:su": "Bahama",
          "name:sv": "Bahamas",
          "name:sw": "Bahamas",
          "name:ta": "பாகாமாசு",
          "name:te": "బహామాస్",
          "name:tg": "Баҳамас",
          "name:th": "ประเทศบาฮามาส",
          "name:ti": "ባሃማስ",
          "name:tk": "Bagama Adalary",
          "name:tl": "Bahamas",
          "name:to": "Pahama",
          "name:tr": "Bahamalar",
          "name:tt": "Багамалар",
          "name:ug": "باھاما",
          "name:uk": "Багамські Острови",
          "name:ur": "بہاماس",
          "name:uz": "Bagam orollari",
          "name:vi": "Bahamas",
          "name:vo": "Bahamuäns",
          "name:wo": "Bahamas",
          "name:yi": "די באַהאַמאַס",
          "name:yo": "Àwọn Bàhámà",
          "name:za": "Bahamas",
          "name:zh": "巴哈马 / 巴哈馬",
          "name:zu": "i-Bahamas",
          "alt_name": "Bahamas",
          "boundary": "administrative",
          "int_name": "Bahamas",
          "name:ace": "Bahama",
          "name:als": "Bahamas",
          "name:arz": "الباهاماس",
          "name:ast": "Les Bahames",
          "name:bar": "De Bahamas",
          "name:bcl": "An Bahamas",
          "name:bpy": "বাহামা",
          "name:bxr": "Бахамын аралууд",
          "name:cdo": "Bahamas",
          "name:ceb": "Bahamas",
          "name:chr": "ᎾᏍᎩ ᏆᎭᎹᏍ",
          "name:ckb": "بەهاما",
          "name:crh": "Bahamalar",
          "name:diq": "Bahama",
          "name:dsb": "Bahamy",
          "name:dty": "बहामस",
          "name:ext": "Las Baamas",
          "name:frp": "Bahamas",
          "name:frr": "A Bahaamas",
          "name:gag": "Bahamalar",
          "name:gom": "बहामाज",
          "name:hak": "Bahamas",
          "name:hif": "The Bahamas",
          "name:hsb": "Bahamy",
          "name:ilo": "Ti Bahamas",
          "name:jam": "Ba'aamaz",
          "name:jbo": "ba'am",
          "name:kab": "Bahamas",
          "name:ksh": "de Bahamas",
          "name:lad": "Bahamas",
          "name:lij": "Bahamas",
          "name:lmo": "I Bahamas",
          "name:mai": "द बहामस",
          "name:mhr": "Багама",
          "name:mrj": "Багамвлӓ",
          "name:mwl": "Las Bahamas",
          "name:mzn": "باهاما",
          "name:nah": "Bahamas",
          "name:nan": "Bahamas",
          "name:nds": "De Bahamas",
          "name:new": "बहामास",
          "name:nov": "Bahamas",
          "name:olo": "Bagaman suaret",
          "name:pam": "Bahamas",
          "name:pap": "Bahamas",
          "name:pih": "Bahaamas",
          "name:pms": "Le Bahamas",
          "name:pnb": "باہاما",
          "name:rue": "Багамы",
          "name:sah": "Багама Холбоһуга",
          "name:scn": "Li Bahamas",
          "name:sco": "The Bahamas",
          "name:smn": "Bahamasuolluuh",
          "name:sms": "Bahama",
          "name:stq": "Do Bahamas",
          "name:szl": "Bahamy",
          "name:tet": "Bahamas",
          "name:tok": "ma Pawama",
          "name:tzl": "Bahamas",
          "name:vec": "Łe Bahamas",
          "name:vep": "Bagaman Sared",
          "name:vro": "Bahama",
          "name:war": "Bahamas",
          "name:wuu": "巴哈馬",
          "name:xal": "Багамуд Арлин Ниицән",
          "name:xmf": "ბაჰამიშ კოკეფი",
          "name:yue": "巴哈馬",
          "name:zea": "De Bahama's",
          "timezone": "America/Nassau",
          "way_area": "26.7565",
          "wikidata": "Q778",
          "ISO3166-1": "BS",
          "wikipedia": "en:The Bahamas",
          "admin_level": "2",
          "alt_name:ar": "باهاماس",
          "alt_name:az": "Baham adaları",
          "alt_name:be": "Бага́мы",
          "alt_name:bo": "བྷ་ཧ་མ་སུ།",
          "alt_name:cy": "Bahamas",
          "alt_name:de": "Bahamas",
          "alt_name:en": "Bahamas",
          "alt_name:eo": "Bahama Insularo",
          "alt_name:es": "Bahamas",
          "alt_name:fr": "Bahamas",
          "alt_name:fy": "Bahama's",
          "alt_name:ga": "Bahámaí",
          "alt_name:gd": "Bahàmas",
          "alt_name:gv": "Bahamaghyn",
          "alt_name:he": "בהאמה",
          "alt_name:ht": "Bahamas",
          "alt_name:hy": "Բահամյան Կղզիներ",
          "alt_name:it": "Bahama",
          "alt_name:lb": "Bahamas",
          "alt_name:li": "Bahama's",
          "alt_name:mk": "Бахамски Острови",
          "alt_name:mn": "Бахам",
          "alt_name:mt": "Baħamas",
          "alt_name:oc": "Bahamas",
          "alt_name:pt": "Baamas",
          "alt_name:sn": "Bahamas",
          "alt_name:sq": "Ishujt Bahamas",
          "alt_name:tt": "Баһамалар",
          "alt_name:uz": "Bagamalar",
          "alt_name:vi": "Quần đảo Bahamas",
          "alt_name:yi": "באַהאַמאַס",
          "alt_name:arz": "باهاماس",
          "alt_name:ast": "Bahames",
          "alt_name:bar": "Bahamas",
          "alt_name:bcl": "Bahamas",
          "alt_name:ckb": "باهاما",
          "alt_name:ext": "Baamas",
          "alt_name:frr": "Bahaamas",
          "alt_name:hif": "Bahamas",
          "alt_name:ilo": "Bahamas",
          "alt_name:lmo": "Bahamas",
          "alt_name:mai": "बहामस",
          "alt_name:mwl": "Baamas",
          "alt_name:nds": "Bahamas",
          "alt_name:olo": "Bagamat",
          "alt_name:pms": "Bahamas",
          "alt_name:sah": "Багама арыылара",
          "alt_name:scn": "Bahamas",
          "alt_name:sco": "Bahamas",
          "alt_name:stq": "Bahamas",
          "alt_name:vec": "Bahamas",
          "alt_name:zea": "Bahama's",
          "driving_side": "left",
          "name:bat-smg": "Bahamas",
          "name:cbk-zam": "Bahamas",
          "name:roa-rup": "Bahamas",
          "name:zh-Hans": "巴哈马",
          "name:zh-Hant": "巴哈馬",
          "official_name": "Commonwealth of The Bahamas",
          "name:be-tarask": "Багамы",
          "ISO3166-1:alpha2": "BS",
          "ISO3166-1:alpha3": "BHS",
          "alt_name:bat-smg": "Bahamā",
          "default_language": "en",
          "official_name:af": "Gemenebes van die Bahamas",
          "official_name:am": "የባሃማስ የጋራ ሀገር",
          "official_name:an": "Mancomunidat d'as Bahamas",
          "official_name:ar": "كومنولث جزر البهاما",
          "official_name:az": "Baham Adaları Birliyi",
          "official_name:ba": "Багама Утрауҙар Берлеге",
          "official_name:be": "Садру́жнасць Бага́мскіх Астраво́ў",
          "official_name:bg": "Дружество Бахамски острови",
          "official_name:bm": "Forobanafolo Bahamasi",
          "official_name:bn": "বাহামা দ্বীপপুঞ্জের কমনওয়েলথ",
          "official_name:br": "Kenglad ar Bahamas",
          "official_name:ce": "Багаман гlайренаш",
          "official_name:cs": "Bahamské společenství",
          "official_name:cv": "Пахам Утравĕсен Пĕрлешӳлĕхĕ",
          "official_name:cy": "Cymanwlad y Bahamas",
          "official_name:de": "Commonwealth der Bahamas",
          "official_name:el": "Κοινοπολιτεία των Μπαχαμών",
          "official_name:en": "Commonwealth of The Bahamas",
          "official_name:eo": "Komunumo de Bahamaj Insuloj",
          "official_name:es": "Mancomunidad de las Bahamas",
          "official_name:et": "Bahama Ühendus",
          "official_name:fa": "قلمرو همسود باهاما",
          "official_name:fi": "Bahaman liittovaltio",
          "official_name:fo": "Samveldið Bahamaoyggjar",
          "official_name:fr": "Commonwealth des Bahamas",
          "official_name:fy": "Mienebêst fan de Bahama's",
          "official_name:ga": "Comhlathas na mBahámaí",
          "official_name:gd": "na h-Eileanan Bhathama",
          "official_name:gl": "Mancomunidade das Bahamas",
          "official_name:gn": "Tetã Va'ama",
          "official_name:gv": "Co-unnaneys ny Bahamaghyn",
          "official_name:he": "קהיליית איי בהאמה",
          "official_name:hi": "बहामस राष्ट्रमण्डल",
          "official_name:hr": "Zajednica Bahamâ",
          "official_name:hu": "Bahamai Közösség",
          "official_name:hy": "Բահամյան Կղզիների Ընկերակցությունը",
          "official_name:ia": "Commonwealth del Bahamas",
          "official_name:id": "Persemakmuran Bahama",
          "official_name:is": "Samveldi Bahamaeyja",
          "official_name:it": "Commonwealth delle Bahamas",
          "official_name:ja": "バハマ国",
          "official_name:ka": "ბაჰამის კუნძულების თანამეგობრობა",
          "official_name:kk": "Багам аралдары достастығы",
          "official_name:kn": "ಬಹಾಮಾಸ್ ಕಾಮನ್ವೆಲ್ತ್",
          "official_name:ko": "바하마 연방",
          "official_name:ku": "Federasyona Bahamayan",
          "official_name:ky": "Багама Аралдары Ынтымактыгы",
          "official_name:la": "Insulae Bahamenses",
          "official_name:li": "Gemaenebes van de Bahama's",
          "official_name:lt": "Bahamų Sandrauga",
          "official_name:lv": "Bahamu Sadraudzība",
          "official_name:mg": "Commonwealth an'i Bahamasy",
          "official_name:mk": "Државна Заедница Бахами",
          "official_name:ml": "കോമൺവെൽത്ത് ഓഫ് ബഹാമാസ്",
          "official_name:mr": "बहामासचे राष्ट्रकुल",
          "official_name:ms": "Komanwel Bahamas",
          "official_name:mt": "Commonwealth tal-Baħamas",
          "official_name:my": "ဘဟားမားစ် ဓနသဟာယ နိုင်ငံ",
          "official_name:nl": "Gemenebest van de Bahama's",
          "official_name:nn": "Bahamassambandet",
          "official_name:no": "Bahamassambandet",
          "official_name:os": "Багамы Сакъадæхты Æмбалад",
          "official_name:pa": "ਬਹਾਮਾਸ ਦਾ ਰਾਸ਼ਟਰਮੰਡਲ",
          "official_name:pl": "Wspólnota Bahamów",
          "official_name:pt": "Comunidade das Bahamas",
          "official_name:qu": "Bahamakunap Llaqta Tanta",
          "official_name:ro": "Comunitatea Bahamas",
          "official_name:ru": "Содружество Багамских Островов",
          "official_name:se": "Bahama riikkaidlihttu",
          "official_name:sh": "Commonwealth Bahama",
          "official_name:si": "බහාමාස් පොදු රාජ්‍යය",
          "official_name:sk": "Bahamské spoločenstvo",
          "official_name:sl": "Zveza Bahami",
          "official_name:so": "Dalka Bahamas",
          "official_name:sr": "Комновелт Бахама",
          "official_name:su": "Pasamakmuran Bahama",
          "official_name:sv": "Samväldet Bahamas",
          "official_name:sw": "Jumuiya ya Bahamas",
          "official_name:ta": "பகமாசு பொதுநலவாயம்",
          "official_name:te": "కామన్వెల్త్ ఆఫ్ ది బహామాస్",
          "official_name:tg": "Ҷазираҳои Багам",
          "official_name:th": "เครือรัฐบาฮามาส",
          "official_name:tl": "Komonwelt ng Bahamas",
          "official_name:tr": "Bahama Milletler Topluluğu",
          "official_name:uk": "Співдру́жність Бага́мських Острові́в",
          "official_name:ur": "دولتِ مشترکہ بہاماس",
          "official_name:uz": "Bagama Orollari Hamdo‘stligi",
          "official_name:vi": "Thịnh vượng chung Bahamas",
          "official_name:wo": "Commonwealth bu Bahamas",
          "official_name:yo": "Orílẹ̀-èdè Àjọni ilẹ̀ awọn Bàhámà",
          "official_name:zh": "巴哈馬聯邦",
          "ISO3166-1:numeric": "044",
          "official_name:ace": "Peusema'muran Bahama",
          "official_name:als": "Commonwealth der Bahamas",
          "official_name:arz": "كومونويلث الباهاماس",
          "official_name:ast": "Mancomunidá de Les Bahames",
          "official_name:bar": "Commonwealth der Bahamas",
          "official_name:bpy": "কমনৱেলথ বাহামা",
          "official_name:bxr": "Бахамын Нүхэрлэл",
          "official_name:ckb": "یەکیەتیی هاوقازانجی بەهاما",
          "official_name:dsb": "Zjadnośeństwo Bahamow",
          "official_name:ext": "Mancomuniá de las Baamas",
          "official_name:frr": "Commonwealth faan a Bahaamas",
          "official_name:hif": "Commonwealth of The Bahamas",
          "official_name:hsb": "Commonwealth Bahamow",
          "official_name:ilo": "Mankomunidad ti Bahamas",
          "official_name:jam": "Kamanwelt a di Ba'aamaz",
          "official_name:mai": "बहामस राष्ट्रमण्डल",
          "official_name:mhr": "Багамысе отро-влак",
          "official_name:mzn": "باهامای مشترک‌المنافع سامون",
          "official_name:nan": "Bahamas Kok",
          "official_name:olo": "Bagaman suarin yhtymy",
          "official_name:pap": "Commonwealth di Bahamas",
          "official_name:rue": "Багамскы островы",
          "official_name:sco": "Commonweel o the Bahamas",
          "official_name:szl": "Spůlnota Bahamůw",
          "official_name:vec": "Commonwealth dełe Bahamas",
          "official_name:vep": "Bagaman Sariden Ühtnend",
          "official_name:vro": "Bahama Ütisüs",
          "official_name:wuu": "巴哈馬國",
          "official_name:xal": "Багамуд Арлин Ниицән",
          "official_name:xmf": "ბაჰამიშ კოკეფიშ წორომაჸალობა",
          "official_name:yue": "巴哈馬係",
          "official_name:bat-smg": "Bahamu Sondrauga",
          "official_name:roa-rup": "Commonwealth ali Bahamile",
          "official_name:be-tarask": "Садружнасьць Багамаў"
        }
      },
      "geometry": {
        "type": "Polygon",
        "coordinates": [
          [
            [
              -73,
              20.82737349362348
            ],
            [
              -72.9930055,
              20.8361506
            ],
            [
              -72.88578539521899,
              21
            ],
            [
              -73,
              21
            ],
            [
              -73,
              20.82737349362348
            ]
          ]
        ]
      }
    },
    {
      "type": "Feature",
      "properties": {
        "osm_id": -307828,
        "boundary": "administrative",
        "admin_level": 2,
        "parents": null,
        "name": "Dominican Republic",
        "local_name": "República Dominicana",
        "name_en": "Dominican Republic",
        "all_tags": {
          "flag": "http://upload.wikimedia.org/wikipedia/commons/9/9f/Flag_of_the_Dominican_Republic.svg",
          "name": "República Dominicana",
          "name:af": "Dominikaanse Republiek",
          "name:am": "ዶሚኒካን ሪፐብሊክ",
          "name:an": "Republica Dominicana",
          "name:ar": "جمهورية الدومينيكان",
          "name:ay": "Republika Duminikana",
          "name:az": "Dominikan Respublikası",
          "name:be": "Дамініканская Рэспубліка",
          "name:bg": "Доминиканска република",
          "name:bn": "ডোমিনিকান প্রজাতন্ত্র",
          "name:bo": "ཌོ་མི་ནི་ཀན་སྤྱི་མཐུན་རྒྱལ་ཁབ།",
          "name:br": "Republik Dominikan",
          "name:bs": "Dominikanska Republika",
          "name:ca": "República Dominicana",
          "name:ce": "Доминикан Пачхьалкх",
          "name:cs": "Dominikánská republika",
          "name:cy": "Gweriniaeth Dominica",
          "name:da": "Dominikanske Republik",
          "name:de": "Dominikanische Republik",
          "name:dv": "ޑޮމިނިކަން ޖުމްހޫރިއްޔާ",
          "name:ee": "Dominican Republic",
          "name:el": "Δομινικανή Δημοκρατία",
          "name:en": "Dominican Republic",
          "name:eo": "Domingo",
          "name:es": "República Dominicana",
          "name:et": "Dominikaani Vabariik",
          "name:eu": "Dominikar Errepublika",
          "name:fa": "جمهوری دومینیکن",
          "name:fi": "Dominikaaninen tasavalta",
          "name:fo": "Dominikanalýðveldið",
          "name:fr": "République dominicaine",
          "name:fy": "Dominikaanske Republyk",
          "name:ga": "An Phoblacht Dhoiminiceach",
          "name:gd": "Poblachd Dhoiminicia",
          "name:gl": "República Dominicana",
          "name:gn": "Tavakuairetã Ndominikagua",
          "name:gv": "Yn Phobblaght Ghominicagh",
          "name:he": "הרפובליקה הדומיניקנית",
          "name:hi": "डोमिनिकन गणराज्य",
          "name:hr": "Dominikanska Republika",
          "name:ht": "Repiblik Dominikèn",
          "name:hu": "Dominikai Köztársaság",
          "name:hy": "Դոմինիկյան Հանրապետություն",
          "name:ia": "Republica Dominican",
          "name:id": "Republik Dominika",
          "name:io": "Dominikana Republiko",
          "name:is": "Dóminíska lýðveldið",
          "name:it": "Repubblica Dominicana",
          "name:ja": "ドミニカ共和国",
          "name:jv": "Republik Dominika",
          "name:ka": "დომინიკელთა რესპუბლიკა",
          "name:kk": "Доминикан Республикасы",
          "name:kn": "ಡೊಮಿನಿಕ ಗಣರಾಜ್ಯ",
          "name:ko": "도미니카 공화국",
          "name:ku": "Komara Domînîk",
          "name:kw": "Repoblek Dhominikanek",
          "name:la": "Respublica Dominicana",
          "name:lb": "Dominikanesch Republik",
          "name:li": "Dominicaanse Rippubliek",
          "name:ln": "Republiki Dominikani",
          "name:lt": "Dominikos Respublika",
          "name:lv": "Dominikāna",
          "name:mi": "Te Whenua Tominika",
          "name:mk": "Доминиканска Република",
          "name:ml": "ഡൊമനിക്കൻ റിപ്പബ്ലിക്",
          "name:mr": "डॉमिनिकन प्रजासत्ताक",
          "name:ms": "Republik Dominika",
          "name:mt": "Repubblika Dominikana",
          "name:my": "ဒိုမီနီကန်သမ္မတနိုင်ငံ",
          "name:na": "Ripubrikin Dominika",
          "name:ne": "डोमिनिकन गणतन्त्र",
          "name:nl": "Dominicaanse Republiek",
          "name:nn": "Den dominikanske republikken",
          "name:no": "Den dominikanske republikk",
          "name:nv": "Domingo Bikéyah",
          "name:oc": "Republica Dominicana",
          "name:or": "ଡୋମେନିକାନ ରିପବ୍ଲିକ",
          "name:os": "Доминиканæйы Республикæ",
          "name:pa": "ਡੋਮਿਨਿਕਾਈ ਗਣਰਾਜ",
          "name:pl": "Dominikana",
          "name:ps": "ډومنيکان جمهوريت",
          "name:pt": "República Dominicana",
          "name:qu": "Duminikana",
          "name:ro": "Republica Dominicană",
          "name:ru": "Доминиканская Республика",
          "name:rw": "Repubulika ya Dominikani",
          "name:sa": "डोमोनिकन रिपब्लिक",
          "name:se": "Dominikána dásseváldi",
          "name:sh": "Dominikanska Republika",
          "name:sk": "Dominikánska republika",
          "name:sl": "Dominikanska republika",
          "name:sq": "Republika Dominikane",
          "name:sr": "Доминиканска Република",
          "name:ss": "Tibuse weDomonokha",
          "name:su": "Républik Dominika",
          "name:sv": "Dominikanska Republiken",
          "name:sw": "Jamhuri ya Dominika",
          "name:ta": "டொமினிக்கன் குடியரசு",
          "name:te": "డొమెనికన్ రిపబ్లిక్",
          "name:tg": "Ҷумҳурии Доминикана",
          "name:th": "สาธารณรัฐโดมินิกัน",
          "name:tl": "Republikang Dominikano",
          "name:tr": "Dominik Cumhuriyeti",
          "name:tt": "Доминикан Җөмһүрияте",
          "name:ug": "دومىنىكان جۇمھۇرىيەتى",
          "name:uk": "Домініканська Республіка",
          "name:ur": "جمہوریہ ڈومینیکن",
          "name:uz": "Dominika Respublikasi",
          "name:vi": "Cộng hòa Dominica",
          "name:vo": "Sandominän",
          "name:wo": "Réewum Dominik",
          "name:yi": "דאמיניקאנישע רעפובליק",
          "name:yo": "Orílẹ̀òmìnira Dómíníkì",
          "name:zh": "多明尼加",
          "boundary": "administrative",
          "name:als": "Dominikanische Republik",
          "name:arz": "جمهورية الدومينيكان",
          "name:ast": "República Dominicana",
          "name:azb": "دومینیکن جومهوریتی",
          "name:bcl": "Dominikanang Republika",
          "name:bpy": "ডোমিনিকান প্রজাতন্ত্র",
          "name:bxr": "Доминикана Бүгэдэ Найрамдаха Улас",
          "name:ceb": "Republikang Dominikano",
          "name:ckb": "کۆماری دۆمینیکا",
          "name:crh": "Dominikan Cumhuriyeti",
          "name:diq": "Cumhuriyetê Dominika",
          "name:dsb": "Dominikańska republika",
          "name:ext": "Repúbrica Dominicana",
          "name:frp": "Rèpublica domeniquêna",
          "name:frr": "Dominikaans Republiik",
          "name:gag": "Dominikan Respublikası",
          "name:gcf": "Sendomeng",
          "name:grc": "Δομινικανὴ Πολιτεία",
          "name:hak": "Tô-mí-nì-kâ Khiung-fò-koet",
          "name:hif": "Dominican Republic",
          "name:hsb": "Dominikanska republika",
          "name:ilo": "Republica Dominicana",
          "name:lij": "Repubbrica Dominicann-a",
          "name:lmo": "Repübliga Dominicana",
          "name:mzn": "دومینیکن",
          "name:nah": "Dominicanatlācatlahtohcāyōtl",
          "name:nan": "Dominic Kiōng-hô-kok",
          "name:nds": "Dominikaansche Republiek",
          "name:nov": "Dominikal Republike",
          "name:pag": "Republika na Dominikana",
          "name:pam": "Dominikana Republika",
          "name:pap": "Republika Dominikano",
          "name:pih": "Dominikan Repablik",
          "name:pms": "Repùblica Duminican-a",
          "name:pnb": "ڈومینیکن",
          "name:sah": "Доминика Республиката",
          "name:scn": "Ripùbbrica Duminicana",
          "name:sco": "Dominican Republic",
          "name:smn": "Dominikaanisâš täsiväldi",
          "name:sms": "Dominikaanlaž tääʹssväʹldd",
          "name:szl": "Dōminikana",
          "name:vec": "Repùblica Dominicana",
          "name:vro": "Dominikaani Vabariik",
          "name:war": "Republika Dominicana",
          "name:xal": "Доминиканмудин Орн",
          "name:yue": "多明尼加",
          "timezone": "America/Santo_Domingo",
          "way_area": "10.5359",
          "wikidata": "Q786",
          "ISO3166-1": "DO",
          "wikipedia": "es:República Dominicana",
          "population": "10464474",
          "short_name": "R.D.",
          "admin_level": "2",
          "border_type": "nation",
          "name:nds-nl": "Dominikaanse Reppubliek",
          "alt_name:grc": "Δομηνικανὴ Πολιτεία",
          "name:bat-smg": "Duomėnėkas Respoblėka",
          "name:zh-Hans": "多明尼加",
          "name:zh-Hant": "多明尼加",
          "official_name": "República Dominicana",
          "short_name:en": "D.R.",
          "name:be-tarask": "Дамініканская Рэспубліка",
          "ISO3166-1:alpha2": "DO",
          "ISO3166-1:alpha3": "DOM",
          "default_language": "es",
          "official_name:ar": "جمهورية الدومينيكان",
          "official_name:be": "Дамініканская Рэспубліка",
          "official_name:de": "Dominikanische Republik",
          "official_name:en": "Republica Dominicana",
          "official_name:eo": "Dominika Respubliko",
          "official_name:es": "República Dominicana",
          "official_name:pa": "ਦੋਮੀਨੀਕਾਨਾ ਗਣਰਾਜ",
          "official_name:pl": "Republika Dominikany",
          "official_name:sr": "Доминиканска Република",
          "official_name:ug": "دومىنىكان جۇمھۇرىيەتى",
          "official_name:ur": "جمہوریہ ڈومینیکن",
          "official_name:zh": "多明尼加共和國",
          "ISO3166-1:numeric": "214",
          "official_name:azb": "دومینیکن جومهوریتی",
          "official_name:grc": "Δομινικανὴ Πολιτεία",
          "official_name:be-tarask": "Дамініканская Рэспубліка"
        }
      },
      "geometry": {
        "type": "Polygon",
        "coordinates": [
          [
            [
              -72.02957865241862,
              20
            ],
            [
              -72,
              20
            ],
            [
              -72,
              20.03412188572857
            ],
            [
              -72.0294134,
              20.0002137
            ],
            [
              -72.02957865241862,
              20
            ]
          ]
        ]
      }
    },
    {
      "type": "Feature",
      "properties": {
        "osm_id": -307829,
        "boundary": "administrative",
        "admin_level": 2,
        "parents": null,
        "name": "Haiti",
        "local_name": "Ayiti",
        "name_en": "Haiti",
        "all_tags": {
          "flag": "http://upload.wikimedia.org/wikipedia/commons/5/56/Flag_of_Haiti.svg",
          "name": "Ayiti",
          "name:af": "Haïti",
          "name:am": "ሃይቲ",
          "name:an": "Haití",
          "name:ar": "هايتي",
          "name:ay": "Ayti",
          "name:az": "Haiti Respublikası",
          "name:be": "Гаіці",
          "name:bg": "Хаити",
          "name:bm": "Ayiti",
          "name:bn": "হাইতি",
          "name:bo": "ཧའི་ཏི།",
          "name:br": "Republik Haiti",
          "name:bs": "Haiti",
          "name:ca": "Haití",
          "name:ce": "Гаити Пачхьалкх",
          "name:co": "Haiti",
          "name:cs": "Haiti",
          "name:cv": "Гаити",
          "name:cy": "Haiti",
          "name:da": "Haiti",
          "name:de": "Haiti",
          "name:dv": "ހެއިޓީ",
          "name:ee": "Haiti",
          "name:el": "Αϊτή",
          "name:en": "Haiti",
          "name:eo": "Haitio",
          "name:es": "Haití",
          "name:et": "Haiti",
          "name:eu": "Haiti",
          "name:fa": "هائیتی",
          "name:fi": "Haiti",
          "name:fo": "Haiti",
          "name:fr": "Haïti",
          "name:fy": "Haïty",
          "name:ga": "Háítí",
          "name:gd": "Haiti",
          "name:gl": "Haití - Haïti",
          "name:gn": "Haiti",
          "name:gu": "હૈતી",
          "name:gv": "Haiti",
          "name:he": "האיטי",
          "name:hi": "हैती",
          "name:hr": "Haiti",
          "name:ht": "Ayiti",
          "name:hu": "Haiti",
          "name:hy": "Հաիթի",
          "name:ia": "Haiti",
          "name:id": "Haiti",
          "name:io": "Haiti",
          "name:is": "Haítí",
          "name:it": "Haiti",
          "name:ja": "ハイチ",
          "name:jv": "Haiti",
          "name:ka": "ჰაიტი",
          "name:kg": "Ayiti",
          "name:ki": "Haiti",
          "name:kk": "Гаити",
          "name:ko": "아이티",
          "name:ku": "Haîtî",
          "name:kw": "Hayti",
          "name:la": "Haitia",
          "name:lb": "Haiti",
          "name:li": "Haïti",
          "name:ln": "Ayiti",
          "name:lt": "Haitis",
          "name:lv": "Haiti",
          "name:mg": "Haiti",
          "name:mk": "Хаити",
          "name:ml": "ഹെയ്റ്റി",
          "name:mn": "Гайти",
          "name:mr": "हैती",
          "name:ms": "Haiti",
          "name:mt": "Ħaiti",
          "name:my": "ဟေတီနိုင်ငံ",
          "name:na": "Aiti",
          "name:ne": "हाइटी",
          "name:nl": "Haïti",
          "name:nn": "Haiti",
          "name:no": "Haiti",
          "name:nv": "Héítii",
          "name:oc": "Haití (estat)",
          "name:or": "ହିଟି",
          "name:os": "Гаити",
          "name:pa": "ਹੈਤੀ",
          "name:pl": "Haiti",
          "name:ps": "هایتي",
          "name:pt": "Haiti",
          "name:qu": "Ayti (mama llaqta)",
          "name:ro": "Haiti",
          "name:ru": "Гаити",
          "name:rw": "Hayiti",
          "name:se": "Haiti",
          "name:sh": "Haiti",
          "name:si": "හෙයිටි",
          "name:sk": "Haiti",
          "name:sl": "Haiti",
          "name:so": "Haiti",
          "name:sq": "Haitia",
          "name:sr": "Хаити",
          "name:ss": "IHayithi",
          "name:su": "Haiti",
          "name:sv": "Haiti",
          "name:sw": "Haiti",
          "name:ta": "எயிட்டி",
          "name:th": "ประเทศเฮติ",
          "name:tl": "Hayti",
          "name:tr": "Haiti",
          "name:tt": "Гаити",
          "name:ug": "ھايتى",
          "name:uk": "Гаїті",
          "name:ur": "ہیٹی",
          "name:uz": "Gaiti",
          "name:vi": "Haiti",
          "name:vo": "Haitiyän",
          "name:wa": "Ayiti",
          "name:wo": "Ayiti",
          "name:yi": "האיטי",
          "name:yo": "Hàítì",
          "name:zh": "海地",
          "boundary": "administrative",
          "name:als": "Haiti",
          "name:arz": "هاييتى",
          "name:ast": "Haití",
          "name:azb": "هائیتی",
          "name:bcl": "Haiti",
          "name:bjn": "Haiti",
          "name:bpy": "হাইতি",
          "name:bxr": "Һаити Улас",
          "name:ceb": "Haiti",
          "name:ckb": "هایتی",
          "name:crh": "Haiti",
          "name:diq": "Haiti",
          "name:dsb": "Haiti",
          "name:ext": "Aití",
          "name:frp": "Hayiti",
          "name:frr": "Haiti",
          "name:gag": "Haiti",
          "name:grc": "Ἁϊτή",
          "name:hak": "Hói-thi",
          "name:haw": "Heiti",
          "name:hif": "Haiti",
          "name:hsb": "Haiti",
          "name:ilo": "Haiti",
          "name:jbo": "aitas",
          "name:lad": "Ayti",
          "name:lij": "Haiti",
          "name:lmo": "Haiti",
          "name:lzh": "海地",
          "name:mhr": "Гаити",
          "name:mrj": "Гаити",
          "name:nah": "Haiti",
          "name:nan": "Haiti",
          "name:nds": "Haiti",
          "name:new": "हेइटी",
          "name:nov": "Haiti",
          "name:pam": "Haiti",
          "name:pap": "Haiti",
          "name:pih": "Haiti",
          "name:pms": "Haiti",
          "name:pnb": "ہیٹی",
          "name:sah": "Хаити",
          "name:scn": "Aiti",
          "name:sco": "Haiti",
          "name:smn": "Haiti",
          "name:sms": "Haiti",
          "name:szl": "Hajiti",
          "name:tok": "ma Awisi",
          "name:tzl": "Haïtì",
          "name:vec": "Haiti",
          "name:vro": "Haiti",
          "name:war": "Haiti",
          "name:yue": "海地",
          "timezone": "America/Port-au-Prince",
          "way_area": "4.72135",
          "wikidata": "Q790",
          "ISO3166-1": "HT",
          "wikipedia": "ht:Ayiti",
          "admin_level": "2",
          "border_type": "nation",
          "name:nds-nl": "Haïti",
          "name:bat-smg": "Haitės",
          "name:zh-Hans": "海地",
          "name:zh-Hant": "海地",
          "official_name": "République d'Haïti",
          "name:be-tarask": "Гаіці",
          "ISO3166-1:alpha2": "HT",
          "ISO3166-1:alpha3": "HTI",
          "official_name:cs": "Republika Haiti",
          "official_name:de": "Republik Haiti",
          "official_name:en": "Republic of Haiti",
          "official_name:eo": "Haitia Respubliko",
          "official_name:es": "República de Haití",
          "official_name:fr": "République d'Haïti",
          "official_name:gn": "Tavakuairetã Haiti",
          "official_name:ht": "Repiblik Ayiti",
          "official_name:pl": "Republika Haiti",
          "official_name:pt": "República do Haiti",
          "official_name:sk": "Haitská republika",
          "official_name:sr": "Република Хаити",
          "official_name:zh": "海地共和国 / 海地共和國",
          "ISO3166-1:numeric": "332",
          "official_name:ast": "República d'Haití",
          "official_name:grc": "Πολιτεία τῆς Ἁϊτῆς",
          "official_name:zh-Hans": "海地共和国",
          "official_name:zh-Hant": "海地共和國"
        }
      },
      "geometry": {
        "type": "Polygon",
        "coordinates": [
          [
            [
              -73,
              20
            ],
            [
              -72.28943145054615,
              20
            ],
            [
              -72.2952095,
              20.0025291
            ],
            [
              -72.3040898,
              20.0059691
            ],
            [
              -72.3152734,
              20.0094913
            ],
            [
              -72.324202,
              20.0118547
            ],
            [
              -72.3332314,
              20.0138473
            ],
            [
              -72.3400685,
              20.0151097
            ],
            [
              -72.3504205,
              20.016568
            ],
            [
              -72.3597076,
              20.0197523
            ],
            [
              -72.3686484,
              20.0223835
            ],
            [
              -72.3780613,
              20.0248065
            ],
            [
              -72.3881601,
              20.0270414
            ],
            [
              -72.3979214,
              20.02881
            ],
            [
              -72.4103085,
              20.0303827
            ],
            [
              -72.4119091,
              20.038435
            ],
            [
              -72.4140038,
              20.0469727
            ],
            [
              -72.4151986,
              20.0512071
            ],
            [
              -72.4178801,
              20.0595969
            ],
            [
              -72.4201539,
              20.0658727
            ],
            [
              -72.4232292,
              20.0733856
            ],
            [
              -72.4273614,
              20.0823062
            ],
            [
              -72.4311454,
              20.0895914
            ],
            [
              -72.4387948,
              20.1031131
            ],
            [
              -72.445175,
              20.1128877
            ],
            [
              -72.4492855,
              20.1186204
            ],
            [
              -72.4543357,
              20.1253806
            ],
            [
              -72.4616426,
              20.1345303
            ],
            [
              -72.4733472,
              20.1480139
            ],
            [
              -72.4817054,
              20.1568839
            ],
            [
              -72.4869035,
              20.1619336
            ],
            [
              -72.4935648,
              20.1680746
            ],
            [
              -72.5016006,
              20.1750058
            ],
            [
              -72.5075253,
              20.1798176
            ],
            [
              -72.5154887,
              20.1858471
            ],
            [
              -72.5205873,
              20.1894249
            ],
            [
              -72.5319285,
              20.1966983
            ],
            [
              -72.5414092,
              20.2022295
            ],
            [
              -72.5453097,
              20.204815
            ],
            [
              -72.5530811,
              20.2096093
            ],
            [
              -72.5590743,
              20.2130187
            ],
            [
              -72.5692523,
              20.2182147
            ],
            [
              -72.5867394,
              20.2260843
            ],
            [
              -72.5986359,
              20.2308682
            ],
            [
              -72.6097569,
              20.2346283
            ],
            [
              -72.622133,
              20.238068
            ],
            [
              -72.6344621,
              20.2417236
            ],
            [
              -72.6442579,
              20.2443128
            ],
            [
              -72.6555901,
              20.248154
            ],
            [
              -72.6648599,
              20.2519213
            ],
            [
              -72.6713814,
              20.2542918
            ],
            [
              -72.6782492,
              20.2565108
            ],
            [
              -72.6933567,
              20.2625512
            ],
            [
              -72.7052804,
              20.2687217
            ],
            [
              -72.7136521,
              20.2725162
            ],
            [
              -72.7265194,
              20.2775524
            ],
            [
              -72.73528,
              20.2804633
            ],
            [
              -72.7486529,
              20.2841461
            ],
            [
              -72.757698,
              20.2861387
            ],
            [
              -72.7645471,
              20.2874011
            ],
            [
              -72.7709703,
              20.2883649
            ],
            [
              -72.7795911,
              20.289376
            ],
            [
              -72.7817381,
              20.2894182
            ],
            [
              -72.7903326,
              20.2903361
            ],
            [
              -72.795265,
              20.2906133
            ],
            [
              -72.8123981,
              20.2911852
            ],
            [
              -72.8170416,
              20.2910895
            ],
            [
              -72.8374229,
              20.2901225
            ],
            [
              -72.8506793,
              20.2887633
            ],
            [
              -72.8618542,
              20.2889368
            ],
            [
              -72.8711377,
              20.2886497
            ],
            [
              -72.8803991,
              20.2879803
            ],
            [
              -72.8917892,
              20.2866146
            ],
            [
              -72.9083848,
              20.28501
            ],
            [
              -72.9168123,
              20.2840123
            ],
            [
              -72.9230916,
              20.2830678
            ],
            [
              -72.9344745,
              20.2808557
            ],
            [
              -72.9507602,
              20.2771548
            ],
            [
              -72.9596977,
              20.2759465
            ],
            [
              -72.9695774,
              20.2742572
            ],
            [
              -72.9833622,
              20.2713666
            ],
            [
              -72.9917021,
              20.2691738
            ],
            [
              -73,
              20.26675240955135
            ],
            [
              -73,
              20
            ]
          ]
        ]
      }
    }
  ]
}