{
  "type": "FeatureCollection",
  "features": [
    {
      "type": "Feature",
      "properties": {
        "osm_id": -192756,
        "boundary": "administrative",
        "admin_level": 2,
        "parents": null,
        "name": "Algeria",
        "local_name": "Algérie ⵍⵣⵣⴰⵢⴻⵔ الجزائر",
        "name_en": "Algeria",
        "all_tags": {
          "flag": "http://upload.wikimedia.org/wikipedia/commons/7/77/Flag_of_Algeria.svg",
          "name": "Algérie ⵍⵣⵣⴰⵢⴻⵔ الجزائر",
          "name:af": "Algerië",
          "name:ak": "Algeria",
          "name:am": "አልጄሪያ",
          "name:an": "Alcheria",
          "name:ar": "الجزائر",
          "name:as": "আলজেৰিয়া",
          "name:ay": "Alhirya",
          "name:az": "Əlcəzair",
          "name:ba": "Алжи́р",
          "name:be": "Алжыр",
          "name:bg": "Алжѝр",
          "name:bh": "अल्जीरिया",
          "name:bm": "Algeri",
          "name:bn": "আলজেরিয়া",
          "name:bo": "ཨཱལ་ཇི་རི་ཡ།",
          "name:br": "Aljeria",
          "name:bs": "Alžir",
          "name:ca": "Algèria",
          "name:ce": "Алжи́р",
          "name:cs": "Alžírsko",
          "name:cv": "Алжир",
          "name:cy": "Algeria",
          "name:da": "Algeriet",
          "name:de": "Algerien",
          "name:dv": "ޖަޒާއިރު",
          "name:dz": "ཨཱལ་ཇི་རི་ཡ",
          "name:ee": "Ɔldzeria",
          "name:el": "Αλγερία",
          "name:en": "Algeria",
          "name:eo": "Alĝerio",
          "name:es": "Argelia",
          "name:et": "Alžeeria",
          "name:eu": "Aljeria",
          "name:fa": "الجزایر",
          "name:ff": "Aljeri",
          "name:fi": "Algeria",
          "name:fo": "Algeria",
          "name:fr": "Algérie",
          "name:fy": "Algerije",
          "name:ga": "An Ailgéir",
          "name:gd": "Aildiria",
          "name:gl": "Alxeria",
          "name:gn": "Ayhelia",
          "name:gu": "અલ્જીરિયા",
          "name:gv": "Yn Algear",
          "name:ha": "Aljeriya",
          "name:he": "אלג'יריה",
          "name:hi": "अल्जीरिया",
          "name:hr": "Alžir",
          "name:ht": "Aljeri",
          "name:hu": "Algéria",
          "name:hy": "Ալժիր",
          "name:ia": "Algeria",
          "name:id": "Aljazair",
          "name:ie": "Algeria",
          "name:ig": "Algeria",
          "name:io": "Aljeria",
          "name:is": "Alsír",
          "name:it": "Algeria",
          "name:ja": "アルジェリア",
          "name:jv": "Aljazair",
          "name:ka": "ალჟირი",
          "name:kg": "Algeria",
          "name:ki": "Algeria",
          "name:kk": "Алжир",
          "name:kl": "Algeriet",
          "name:km": "ប្រទេសអាល់ហ្សេរី",
          "name:kn": "ಅಲ್ಜೀರಿಯ",
          "name:ko": "알제리",
          "name:ks": "اٮ۪لجیرِیا",
          "name:ku": "Cezayir",
          "name:kw": "Aljeri",
          "name:ky": "Алжир",
          "name:la": "Algerium",
          "name:lb": "Algerien",
          "name:lg": "Algeria",
          "name:li": "Algerieë",
          "name:ln": "Aljeria",
          "name:lo": "ແອລຈິເລຍ",
          "name:lt": "Alžyras",
          "name:lv": "Alžīrija",
          "name:mg": "Aljeria",
          "name:mi": "Aratiria",
          "name:mk": "Алжир",
          "name:ml": "അൾജീറിയ",
          "name:mn": "Алжир",
          "name:mr": "अल्जीरिया",
          "name:ms": "Algeria",
          "name:mt": "Alġerija",
          "name:my": "အယ်လ်ဂျီးရီးယားနိုင်ငံ",
          "name:na": "Ardjiriya",
          "name:ne": "अल्जेरिया",
          "name:nl": "Algerije",
          "name:nn": "Algerie",
          "name:no": "Algerie",
          "name:nv": "Aljííya",
          "name:ny": "Algeria",
          "name:oc": "Argeria",
          "name:om": "Aljeeriyaa",
          "name:or": "ଆଲଜେରିଆ",
          "name:os": "Алжир",
          "name:pa": "ਅਲਜੀਰੀਆ",
          "name:pi": "अल्जीरिया",
          "name:pl": "Algieria",
          "name:ps": "الجزاير",
          "name:pt": "Argélia",
          "name:qu": "Alhirya",
          "name:rm": "Algeria",
          "name:rn": "Alijeriya",
          "name:ro": "Algeria",
          "name:ru": "Алжир",
          "name:rw": "Aligeriya",
          "name:sa": "अल्जीरिया",
          "name:sc": "Algerìa",
          "name:sd": "الجزائر",
          "name:se": "Algeria",
          "name:sg": "Alazëri",
          "name:sh": "Alžir",
          "name:si": "ඇල්ජීරියාව",
          "name:sk": "Alžírsko",
          "name:sl": "Alžirija",
          "name:sm": "Algeria",
          "name:sn": "Algeria",
          "name:so": "Aljeeriya",
          "name:sq": "Algjeria",
          "name:sr": "Алжир",
          "name:ss": "i-Alijeriya",
          "name:st": "Algeria",
          "name:su": "Aljazair",
          "name:sv": "Algeriet",
          "name:sw": "Algeria",
          "name:ta": "அல்சீரியா",
          "name:te": "అల్జీరియా",
          "name:tg": "Алҷазоир",
          "name:th": "ประเทศแอลจีเรีย",
          "name:ti": "አልጀሪያ",
          "name:tk": "Alžir",
          "name:tl": "Arhelya",
          "name:to": "ʻAisilia",
          "name:tr": "Cezayir",
          "name:ts": "Algeriya",
          "name:tt": "Әлҗәзаи́р",
          "name:tw": "Algeria",
          "name:ug": "ئالجىرىيە",
          "name:uk": "Алжир",
          "name:ur": "الجزائر",
          "name:uz": "Jazoir",
          "name:vi": "Algérie",
          "name:vo": "Laljerän",
          "name:wa": "Aldjereye",
          "name:wo": "Alseeri",
          "name:xh": "I-Algeria",
          "name:yi": "אַלזשיר",
          "name:yo": "Àlgéríà",
          "name:za": "Algeria",
          "name:zh": "阿尔及利亚 / 阿爾及利亞",
          "name:zu": "iAljiriya",
          "alt_name": "El Djazaïr",
          "boundary": "administrative",
          "currency": "DZD",
          "name:ace": "Aljazair",
          "name:ady": "Алжир",
          "name:als": "Algerie",
          "name:ang": "Algeria",
          "name:arc": "ܓܙܐܐܪ",
          "name:ary": "الجزائر",
          "name:arz": "الجزاير",
          "name:ast": "Arxelia",
          "name:avk": "Jazaira",
          "name:azb": "اَلجَزاییر",
          "name:ban": "Aljazair",
          "name:bar": "Algerien",
          "name:bcl": "Algerya",
          "name:ber": "ⵍⵣⵣⴰⵢⴻⵔ",
          "name:bjn": "Aljajair",
          "name:bpy": "আলজেরিয়া",
          "name:bug": "Aljazair",
          "name:bxr": "Алжир",
          "name:cdo": "Algeria",
          "name:ceb": "Arhelya",
          "name:chr": "ᎠᎵᏥᎵᏯ",
          "name:ckb": "جەزائیر",
          "name:crh": "Cezair",
          "name:csb": "Algieriô",
          "name:din": "Algeria",
          "name:diq": "Cezayir",
          "name:dsb": "Algeriska",
          "name:dty": "अल्जेरिया",
          "name:ext": "Argélia",
          "name:frp": "Alg·èrie",
          "name:frr": "Algeerien",
          "name:fur": "Alzerie",
          "name:gag": "Aljir",
          "name:gcr": "Laljéri",
          "name:gom": "आल्जेरिया",
          "name:gor": "Aljazair",
          "name:grc": "Νουμιδία",
          "name:hak": "Algeria",
          "name:haw": "ʻAlekelia",
          "name:hif": "Algeria",
          "name:hsb": "Algeriska",
          "name:hyw": "Ալճերիա",
          "name:ilo": "Arhelia",
          "name:inh": "Алжир",
          "name:jam": "Aljiiria",
          "name:jbo": "gugdeduzu",
          "name:kaa": "Aljir",
          "name:kab": "Dzayer",
          "name:kbd": "Алджазаир",
          "name:krc": "Алжи́р",
          "name:ksh": "Alljeerije",
          "name:lad": "Arjelia",
          "name:lez": "Алжир",
          "name:lfn": "Jazair",
          "name:lij": "Algerîa",
          "name:lld": "Algeria",
          "name:lmo": "Algeria",
          "name:lzh": "阿爾及利亞",
          "name:mai": "अल्जेरिया",
          "name:mdf": "Алжир",
          "name:mhr": "Алжи́р",
          "name:min": "Aljazair",
          "name:mrj": "Алжир",
          "name:myv": "Алжи́р",
          "name:mzn": "الجزایر",
          "name:nah": "Argelia",
          "name:nan": "Algeria",
          "name:nds": "Algerien",
          "name:new": "अल्जेरिया",
          "name:nov": "Algeria",
          "name:nso": "Algeria",
          "name:olo": "Alžir",
          "name:pam": "Algeria",
          "name:pap": "Algeria",
          "name:pcd": "Algérie",
          "name:pdc": "Altschieri",
          "name:pih": "Algeria",
          "name:pms": "Algerìa",
          "name:pnb": "الجزائر",
          "name:rue": "Алжір",
          "name:sah": "Алжир",
          "name:sat": "ᱟᱞᱡᱮᱹᱨᱤᱭᱟ",
          "name:scn": "Algirìa",
          "name:sco": "Algerie",
          "name:shn": "မိူင်းဢႄးၵျီးရီးယႃး",
          "name:smn": "Algeria",
          "name:sms": "Algeria",
          "name:stq": "Algerien",
          "name:szl": "Algeryjŏ",
          "name:szy": "Algeria",
          "name:tok": "ma Sasali",
          "name:tzl": "Eschaieir",
          "name:udm": "Алжир",
          "name:vec": "Algeria",
          "name:vep": "Alžir",
          "name:vls": "Algereye",
          "name:vro": "Alžeeriä",
          "name:war": "Alherya",
          "name:wuu": "阿尔及利亚",
          "name:xal": "Алҗирмудин Улс Орн",
          "name:xmf": "ალჟირი",
          "name:yue": "阿爾及利亞",
          "name:zea": "Alherije",
          "name:zgh": "ⴷⵥⴰⵢⴻⵔ",
          "timezone": "Africa/Algiers",
          "way_area": "215.64",
          "wikidata": "Q262",
          "ISO3166-1": "DZ",
          "wikipedia": "fr:Algérie",
          "short_name": "RADP",
          "admin_level": "2",
          "alt_name:fr": "El Djazaïr",
          "alt_name:qu": "Arhilya",
          "alt_name:sc": "Jasìria",
          "alt_name:so": "Jasaa'ir",
          "border_type": "nation",
          "alt_name:ceb": "Arhelya",
          "alt_name:ckb": "جەزایر",
          "alt_name:csb": "Algierskô",
          "alt_name:ilo": "Demokrata ken Popular a Republika ti Arhelia",
          "alt_name:kab": "Dzayer",
          "name:bat-smg": "Alžīrs",
          "name:cbk-zam": "Argelia",
          "name:map-bms": "Aljazair",
          "name:roa-rup": "Algheria",
          "name:zh-Hans": "阿尔及利亚",
          "name:zh-Hant": "阿爾及利亞",
          "name:roa-tara": "Algerie",
          "official_name": "République algérienne démocratique et populaire",
          "short_name:br": "R.A.D.P.",
          "short_name:fr": "RADP",
          "short_name:ru": "АНДР",
          "name:be-tarask": "Альжыр",
          "name:zh_pinyin": "Āěrjílìyà",
          "short_name:inh": "АХДР",
          "short_name:myv": "АРДР",
          "ISO3166-1:alpha2": "DZ",
          "ISO3166-1:alpha3": "DZA",
          "default_language": "ar",
          "official_name:af": "Demokratiese Volksrepubliek van Algerië",
          "official_name:am": "የአልጄሪያ ሕዝባዊ ዲሞክራሲያዊ ሪፐብሊክ",
          "official_name:ar": "الجمهورية الجزائرية الديمقراطية الشعبية",
          "official_name:az": "Əlcəzair Xalq Demokratik Respublikası",
          "official_name:ba": "Алжир Халыҡ Демократик Республикаһы",
          "official_name:be": "Алжырская Народная Дэмакратычная Рэспубліка",
          "official_name:bg": "Алжирска народно-демократична република",
          "official_name:bh": "पीपल्स डेमोक्रेटिक रिपब्लिक ऑफ अल्जीरिया",
          "official_name:bm": "Alizeri ka Foroba Bɛjɛfanga Fasojamana",
          "official_name:bn": "গণপ্রজাতন্ত্রী আলজেরিয়া",
          "official_name:br": "Republik Aljerian Demokratel ha Poblel",
          "official_name:bs": "Narodna Demokratska Republika Alžir",
          "official_name:ca": "República Democràtica Popular d'Algèria",
          "official_name:ce": "Алжир Халкъа куьйгаллийца йолу Пачхьалкх",
          "official_name:cs": "Alžírská demokratická a lidová republika",
          "official_name:cy": "Gweriniaeth Ddemocrataidd Pobl Algeria",
          "official_name:da": "Den Demokratiske Folkerepublik Algeriet",
          "official_name:de": "Demokratische Volksrepublik Algerien",
          "official_name:el": "Λαϊκή Δημοκρατία της Αλγερίας",
          "official_name:en": "People's Democratic Republic of Algeria",
          "official_name:eo": "Demokrata Popolrespubliko Alĝerio",
          "official_name:es": "República Argelina Democrática y Popular",
          "official_name:et": "Alžeeria Demokraatlik Rahvavabariik",
          "official_name:eu": "Aljeriako Herri Errepublika Demokratikoa",
          "official_name:fa": "جمهوری دموکراتیک خلق الجزایر",
          "official_name:fi": "Algerian demokraattinen kansantasavalta",
          "official_name:fr": "République algérienne démocratique et populaire",
          "official_name:fy": "Demokratyske Folksrepublyk Algerije",
          "official_name:ga": "Daonphoblacht Dhaonlathach na hAilgéire",
          "official_name:gd": "Sluagh-phoblachd Dheamocratach Aildiria",
          "official_name:gl": "República Democrática e Popular de Alxeria",
          "official_name:gn": "Tavakuairetã Ahélia Tekoha ha Jekopytyjojáva",
          "official_name:gu": "અલ્જીરિયાનું લોકતાંત્રિક ગણરાજ્ય",
          "official_name:gv": "Deynphobblaght Gheynlagh ny h-Algear",
          "official_name:ha": "Jamhuriyar aljeriya",
          "official_name:he": "הרפובליקה האלג'יראית הדמוקרטית העממית",
          "official_name:hi": "अल्जीरिया का जन-लोकतंत्रीय गणराज्य",
          "official_name:hr": "Alžirska Narodna Demokratska Republika",
          "official_name:hu": "Algériai Népi Demokratikus Köztársaság",
          "official_name:hy": "Ալժիրի Ժողովրդական Ժողովրդավարական Հանրապետություն",
          "official_name:id": "Republik Demokratik Rakyat Aljazair",
          "official_name:ie": "Republica Algerian Democratic e Popular de",
          "official_name:io": "Populala Demokratiala Republio di Aljeria",
          "official_name:is": "Alþýðulýðveldið Alsír",
          "official_name:it": "Repubblica Algerina Democratica e Popolare",
          "official_name:ja": "アルジェリア民主人民共和国",
          "official_name:jv": "Républik Démokratik Rakyat Aljazair",
          "official_name:ka": "ალჟირის სახალხო დემოკრატიული რესპუბლიკა",
          "official_name:kk": "Алжир Халық Демократиялық Республикасы",
          "official_name:kn": "ಅಲ್ಜೀರಿಯ ಜನ ಪ್ರಜಾತಾಂತ್ರಿಕ ಗಣರಾಜ್ಯ",
          "official_name:ko": "알제리 인민민주공화국",
          "official_name:ku": "Komara Cezayira Demokratîk a Xelk",
          "official_name:ky": "Алжир Эл Демократиялык Республикасы",
          "official_name:la": "Res Publica Popularis Democratica Algerii",
          "official_name:lb": "Demokratesch Volleksrepublik Algerien",
          "official_name:lt": "Alžyro Liaudies Demokratinė Respublika",
          "official_name:lv": "Alžīrijas Tautas Demokrātiskā Republika",
          "official_name:mg": "Repoblika Aljeriana demôkratika sy entim-bahoaka",
          "official_name:mk": "Народна Демократска Република Алжир",
          "official_name:ml": "പീപ്പിൾസ് ഡെമോക്രാറ്റിക്ക് റിപ്പബ്ലിക്ക് ഓഫ് അൾജീരിയ",
          "official_name:mn": "Бүгд Найрамдах Ардчилсан Алжир Ард Улс",
          "official_name:mr": "अल्जीरियाचे जनतेचे प्रजासत्ताक",
          "official_name:ms": "Republik Demokratik Rakyat Algeria",
          "official_name:mt": "Repubblika Demokratika Popolari tal-Alġerija",
          "official_name:my": "အယ်လ်ဂျီးရီးယား ဒီမိုကရက်တစ် ပြည်သူ့သမ္မတ နိုင်ငံ",
          "official_name:ne": "जनवादी प्रजातान्त्रिक गणतन्त्र अल्जेरिया",
          "official_name:nl": "Democratische Volksrepubliek Algerije",
          "official_name:nn": "Den demokratiske folkerepublikken Algerie",
          "official_name:no": "Den demokratiske folkerepublikk Algerie",
          "official_name:nv": "Ghą́ą́ʼaskʼidii Biłikahii Bikéyah Ntsaaígíí",
          "official_name:ny": "Jamhuri ya Muungano wa Algeriais",
          "official_name:oc": "Republica Argeriana Democratica e Populara",
          "official_name:os": "Алжиры Адæмон Демократион Республикæ",
          "official_name:pa": "ਅਲਜੀਰੀਆ ਦਾ ਜਨ-ਲੋਕਤੰਤਰੀ ਗਣਰਾਜ",
          "official_name:pl": "Algierska Republika Ludowo-Demokratyczna",
          "official_name:ps": "الجزاير د خلکو ډيموکراټيک جمهوريت",
          "official_name:pt": "República Argelina Democrática e Popular",
          "official_name:qu": "Runallaqtap Runakamay Kaq Alhirya Ripuwlika",
          "official_name:ro": "Republica Algeriană Democratică și Populară",
          "official_name:ru": "Алжирская Народная Демократическая Республика",
          "official_name:sc": "Repùbrica Populare Democràtiga Jasira",
          "official_name:sd": "پيپلز ڊيموڪريٽڪ ريپبلڪ آف الجيريا",
          "official_name:se": "Algeria demokráhtalaš álbmotdásseváldi",
          "official_name:sg": "Alazëri Ködörösêse",
          "official_name:sh": "Narodna Demokratska Republika Alžir",
          "official_name:si": "ඇල්ජිරියා ප්‍රජාතන්ත්‍රවාදි මහජන සමූහාණ්ඩුව",
          "official_name:sk": "Alžírska demokratická a ľudová republika",
          "official_name:sl": "Ljudska demokratična republika Alžirija",
          "official_name:sm": "Sha’bīyah République Algérienne Démocratique et Populaire",
          "official_name:so": "Jamhuuriyadda Dadweynaha ee Aljeeriya",
          "official_name:sr": "Народна Демократска Република Алжир",
          "official_name:su": "Républik Démokratik Rahayat Aljazair",
          "official_name:sv": "Demokratiska folkrepubliken Algeriet",
          "official_name:sw": "Jamhuri ya kidemokrasia ya watu wa Algeria",
          "official_name:ta": "அல்ஜீரிய மக்கள் சனநாயக குடியரசு",
          "official_name:te": "ప్రజాస్వామ్య గణతంత్ర్య అల్జీరియా",
          "official_name:tg": "Ҷумҳурии Халқии Демократии Алҷазоир",
          "official_name:th": "สาธารณรัฐประชาธิปไตยประชาชนแอลจีเรีย",
          "official_name:tk": "Alžir Halk Demokratik Respublikasy",
          "official_name:tl": "Demokratikong Republikang Bayan ng Algeria",
          "official_name:tr": "Cezayir Demokratik Halk Cumhuriyeti",
          "official_name:tt": "Әлҗәзаи́р Халы́к Демократи́к Җөмһүрия́те",
          "official_name:ug": "ئالجىرىيە دىموكراتىك خەلق جۇمھۇرىيىتى",
          "official_name:uk": "Алжи́рська Наро́дна Демократи́чна Респу́бліка",
          "official_name:ur": "عوامی جمہوری جمہوریہ الجزائر",
          "official_name:uz": "Jazoir Demokratik va Xalq Respublikasi",
          "official_name:vi": "Cộng hoà Dân chủ Nhân dân Algérie",
          "official_name:wa": "Republike Aldjeryinne Democratike et Populaire",
          "official_name:wo": "Republik Popileer Demokaraatik bu Alseeri",
          "official_name:xh": "urhulumente olawulwa sisininzi sabantu base-Algeria",
          "official_name:yi": "פֿאָלקס דעמאקראטישע רעפובליק פֿון אלזשיר",
          "official_name:yo": "Orile-ede Olominira Toseluarailu awon Eniyan ile Algeria",
          "official_name:zh": "阿爾及利亞人民民主共和國",
          "official_name:zu": "IRiphabliki Labantu yase-Aljiriya",
          "ISO3166-1:numeric": "012",
          "official_name:ace": "Republik Demokratik Rakyat Aljazair",
          "official_name:ady": "Алжир Республикэ",
          "official_name:als": "Demokratischi Volksrepublik Algerie",
          "official_name:arc": "ܩܘܛܢܝܘܬܐ ܓܙܐܐܪܝܬܐ ܕܝܡܘܩܪܛܝܬܐ ܥܡܡܝܬܐ",
          "official_name:ary": "الجمهورية الجزائرية الديموقراطية الشعبية",
          "official_name:arz": "الجمهورية الجزائرية الديموقراطية الشعبية",
          "official_name:ast": "República Democrática Popular d'Arxelia",
          "official_name:ban": "Republik Demokratik Rakyat Aljazair",
          "official_name:bar": "Demokratische Volksrepublik Algerien",
          "official_name:ber": "ⵜⴰⴳⴷⵓⴷⴰ ⵜⴰⵎⴻⴳⴷⴰⵢⵜ ⵜⴰⵖⴻⵔⴼⴰⵏⵜ ⵜⴰⵣⵣⴰⵢⵔⵉⵜ",
          "official_name:bpy": "গণ-গনতান্ত্রিক প্রজাতন্ত্রি আলজেরিয়া",
          "official_name:bxr": "Бүгэдэ Найрамдаха Арадшалаһан Алжир Арад Улас",
          "official_name:cdo": "Algeria Ìng-mìng Mìng-ciō Gê̤ṳng-huò-guók",
          "official_name:chr": "ᏴᏫ ᎤᎾᏤᎵ ᏥᏈᏍᏗ ᎠᎾᏓᏅᏖᏒᎬ ᏍᎦᏚᎩ ᏀᎿ ᎠᎵᏥᎵᏯ",
          "official_name:ckb": "کۆماری دیموکراتیی گەلی جەزائیر",
          "official_name:din": "Paankɔc Ciɛl de Algeria",
          "official_name:dsb": "Algeriska ludowa demokratiska republika",
          "official_name:ext": "Repúbrica Argelina Democrática i Populal",
          "official_name:frp": "Rèpublica alg·èrièna dèmocratica et populèra",
          "official_name:frr": "Demokraatisk Fulksrepubliik faan Algeerien",
          "official_name:gcr": "répiblik aljéryen démokratik ké popilèr",
          "official_name:hak": "Algeria Ngìn-mìn Mìn-chú Khiung-fò-koet",
          "official_name:haw": "Lepupalika Kemokalaka o ka Poʻe o ʻAlekelia",
          "official_name:hif": "People's Democratic Republic of Algeria",
          "official_name:hsb": "Algeriska demokratiska a ludowa republika",
          "official_name:hyw": "Ալճերիոյ Ժողովրդական Ժողովրդավարական Հանրապետութիւն",
          "official_name:ilo": "Demokratiko a Republika ti Tattao ti Arhelia",
          "official_name:inh": "Алжи́рий Халкъан Демократи́чески Респу́блика",
          "official_name:jam": "Piipl Dimokratik Ripoblik a hAljiiria",
          "official_name:jbo": "jerxo prenu bo roltrusi'o gubyseltru",
          "official_name:kab": "Tagduda tamegdayt taɣerfant tazzayrit",
          "official_name:kbd": "Алджазаир Джылэр Демократ Республикэ",
          "official_name:krc": "Алжир Халкъ Демократ Республика",
          "official_name:lad": "Repuvlika Popular i Demokratika de Arjelia",
          "official_name:lez": "Алжирдин Халкьдин Демократиядин Республика",
          "official_name:lfn": "Republica de Jazair Democratal e Popular",
          "official_name:lzh": "阿爾及利亞民主人民共和國",
          "official_name:mai": "अल्जेरिया कऽ जन-लोकतन्त्रीय गणराज्य",
          "official_name:mhr": "Алжи́р Ка‘лык Демокра́тий Респу́блик",
          "official_name:myv": "Алжиронь Раськень Демократиянь Республикась",
          "official_name:mzn": "الجمهورية الجزائرية الديمقراطية الشّعبية",
          "official_name:nah": "Argeliatlācatlahtohcāyōtl Tlācatēpacholiztli īhuān Āltepēhuahcāyōtl",
          "official_name:nan": "Algeria Jîn-bîn Bîn-chú Kiōng-hô-kok",
          "official_name:nds": "Demokraatsche Volksrepublik Algerien",
          "official_name:new": "प्रजातान्त्रिक व लोकंह्वागु गणतन्त्र अल्जेरिया",
          "official_name:nso": "People's Democratic Republiki ya Algeria",
          "official_name:olo": "Alžiran Rahvahan Demokrattine Tazavaldu",
          "official_name:pam": "Ing Pangmaldang Democraticung Republica ning Algeria",
          "official_name:pcd": "Républike algérienne démocratike pi populoère",
          "official_name:pnb": "الجمهورية الجزائرية الديمقراطية الشعبية",
          "official_name:rue": "Алжірска демократічна і людова републіка",
          "official_name:sah": "Алжир Дьон Демократ Республиката",
          "official_name:sco": "Fowkdemocratic Republic o Algerie",
          "official_name:shn": "မိူင်းၸွမ်ပွင်ၸိုင်ႈ ၵူၼ်းမိူင်း တီႇမူဝ်ႇၵရႅတ်ႉတိတ်ႉ ဢႄးၵျီးရီးယႃး",
          "official_name:smn": "Algeria demokraatlâš aalmugtäsiväldi",
          "official_name:stq": "Demokratiske Foulksrepublik Algerien",
          "official_name:szl": "Algerskŏ Republika Ludowo-Dymokratycznŏ",
          "official_name:udm": "Алжир Калык Демократи Республика",
          "official_name:vec": "Republica Popolare Democratica de l'Algeria",
          "official_name:vep": "Alžiran Rahvahaline Demokratine Tazovaldkund",
          "official_name:vls": "Democratische Volksrepubliek Algereye",
          "official_name:vro": "Alžeeriä Demokraatlinõ Rahvavabariik",
          "official_name:xmf": "ალჟირიშ ჯარალუაშ დემოკრატიული რესპუბლიკა",
          "official_name:yue": "阿爾及利亞人民民主共和國",
          "official_name:bat-smg": "Alžīra Demuokratėnė Liaudėis Respoblėka",
          "official_name:cbk-zam": "República Argelina Democrática y Popular",
          "official_name:roa-rup": "Republica Popularã Democraticã Algheria",
          "official_name:roa-tara": "Repubbleche Democrateche Populare de Algerie",
          "official_name:be-tarask": "Народная Дэмакратычная Рэспубліка Альжыр"
        }
      },
      "geometry": {
        "type": "Polygon",
        "coordinates": [
          [
            [
              1.162584,
              20.758388
            ],
            [
              1.162797,
              20.751117
            ],
            [
              1.163439,
              20.743098
            ],
            [
              1.16408,
              20.738607
            ],
            [
              1.16515,
              20.736148
            ],
            [
              1.169106,
              20.732192
            ],
            [
              1.176162,
              20.72738
            ],
            [
              1.178301,
              20.726311
            ],
            [
              1.180118,
              20.72599
            ],
            [
              1.182043,
              20.725883
            ],
            [
              1.18664,
              20.726525
            ],
            [
              1.192628,
              20.726953
            ],
            [
              1.202251,
              20.726632
            ],
            [
              1.208453,
              20.726311
            ],
            [
              1.214226,
              20.725776
            ],
            [
              1.222566,
              20.724814
            ],
            [
              1.226522,
              20.724066
            ],
            [
              1.22973,
              20.723745
            ],
            [
              1.234434,
              20.7246
            ],
            [
              1.236573,
              20.72567
            ],
            [
              1.238177,
              20.727487
            ],
            [
              1.244592,
              20.733796
            ],
            [
              1.24812,
              20.735934
            ],
            [
              1.251221,
              20.73711
            ],
            [
              1.258278,
              20.738607
            ],
            [
              1.260737,
              20.738607
            ],
            [
              1.262448,
              20.738073
            ],
            [
              1.264159,
              20.736896
            ],
            [
              1.266939,
              20.73572
            ],
            [
              1.269184,
              20.734972
            ],
            [
              1.271322,
              20.734972
            ],
            [
              1.272819,
              20.7354
            ],
            [
              1.275813,
              20.738179
            ],
            [
              1.277631,
              20.740211
            ],
            [
              1.279448,
              20.741066
            ],
            [
              1.281587,
              20.741173
            ],
            [
              1.282977,
              20.740959
            ],
            [
              1.284367,
              20.740425
            ],
            [
              1.285971,
              20.739463
            ],
            [
              1.290461,
              20.736041
            ],
            [
              1.293348,
              20.73262
            ],
            [
              1.294631,
              20.731871
            ],
            [
              1.296984,
              20.731657
            ],
            [
              1.302223,
              20.732192
            ],
            [
              1.305216,
              20.733475
            ],
            [
              1.306927,
              20.734758
            ],
            [
              1.308852,
              20.73679
            ],
            [
              1.310456,
              20.739142
            ],
            [
              1.312059,
              20.740318
            ],
            [
              1.314626,
              20.740746
            ],
            [
              1.31655,
              20.740211
            ],
            [
              1.319651,
              20.73679
            ],
            [
              1.330665,
              20.725883
            ],
            [
              1.335369,
              20.72182
            ],
            [
              1.33986,
              20.715725
            ],
            [
              1.340715,
              20.713694
            ],
            [
              1.340929,
              20.71209
            ],
            [
              1.33986,
              20.708134
            ],
            [
              1.339967,
              20.706531
            ],
            [
              1.340501,
              20.705034
            ],
            [
              1.341998,
              20.702468
            ],
            [
              1.342854,
              20.70065
            ],
            [
              1.343388,
              20.69787
            ],
            [
              1.344992,
              20.695945
            ],
            [
              1.347344,
              20.6937
            ],
            [
              1.351194,
              20.68953
            ],
            [
              1.352156,
              20.687392
            ],
            [
              1.35269,
              20.679693
            ],
            [
              1.353225,
              20.67702
            ],
            [
              1.354401,
              20.67563
            ],
            [
              1.356005,
              20.674133
            ],
            [
              1.357609,
              20.673171
            ],
            [
              1.360068,
              20.672209
            ],
            [
              1.370439,
              20.670284
            ],
            [
              1.371936,
              20.669749
            ],
            [
              1.374502,
              20.667825
            ],
            [
              1.375464,
              20.666435
            ],
            [
              1.376533,
              20.664083
            ],
            [
              1.378137,
              20.661623
            ],
            [
              1.379955,
              20.659378
            ],
            [
              1.383804,
              20.656598
            ],
            [
              1.385515,
              20.655743
            ],
            [
              1.387119,
              20.655422
            ],
            [
              1.390433,
              20.655636
            ],
            [
              1.391396,
              20.65617
            ],
            [
              1.392892,
              20.657347
            ],
            [
              1.395458,
              20.66173
            ],
            [
              1.396848,
              20.662372
            ],
            [
              1.398025,
              20.662479
            ],
            [
              1.400377,
              20.661944
            ],
            [
              1.405723,
              20.660233
            ],
            [
              1.41,
              20.657881
            ],
            [
              1.415025,
              20.656063
            ],
            [
              1.42112,
              20.654567
            ],
            [
              1.447957,
              20.649114
            ],
            [
              1.450416,
              20.648472
            ],
            [
              1.465279,
              20.641522
            ],
            [
              1.471587,
              20.639491
            ],
            [
              1.474474,
              20.638208
            ],
            [
              1.478751,
              20.635962
            ],
            [
              1.480782,
              20.634358
            ],
            [
              1.483455,
              20.632755
            ],
            [
              1.48538,
              20.631365
            ],
            [
              1.488267,
              20.630082
            ],
            [
              1.496072,
              20.625805
            ],
            [
              1.503663,
              20.62249
            ],
            [
              1.507406,
              20.621314
            ],
            [
              1.512645,
              20.620245
            ],
            [
              1.514463,
              20.620245
            ],
            [
              1.516066,
              20.620459
            ],
            [
              1.521733,
              20.620138
            ],
            [
              1.523765,
              20.619389
            ],
            [
              1.527614,
              20.618427
            ],
            [
              1.531035,
              20.617893
            ],
            [
              1.533067,
              20.617358
            ],
            [
              1.535419,
              20.616396
            ],
            [
              1.540017,
              20.615006
            ],
            [
              1.542797,
              20.615006
            ],
            [
              1.544508,
              20.614578
            ],
            [
              1.545577,
              20.614043
            ],
            [
              1.546539,
              20.61244
            ],
            [
              1.548036,
              20.61105
            ],
            [
              1.548998,
              20.610622
            ],
            [
              1.550923,
              20.610515
            ],
            [
              1.553061,
              20.611798
            ],
            [
              1.554131,
              20.61276
            ],
            [
              1.555414,
              20.613295
            ],
            [
              1.556162,
              20.613188
            ],
            [
              1.557017,
              20.61244
            ],
            [
              1.558194,
              20.61105
            ],
            [
              1.559477,
              20.608483
            ],
            [
              1.562257,
              20.606024
            ],
            [
              1.564502,
              20.605597
            ],
            [
              1.568992,
              20.605062
            ],
            [
              1.5722,
              20.604421
            ],
            [
              1.574766,
              20.603672
            ],
            [
              1.576263,
              20.602496
            ],
            [
              1.579043,
              20.601534
            ],
            [
              1.580647,
              20.60132
            ],
            [
              1.584175,
              20.601748
            ],
            [
              1.587169,
              20.601641
            ],
            [
              1.589307,
              20.601106
            ],
            [
              1.591125,
              20.600358
            ],
            [
              1.594547,
              20.597471
            ],
            [
              1.595402,
              20.596401
            ],
            [
              1.596471,
              20.595974
            ],
            [
              1.598075,
              20.596295
            ],
            [
              1.599572,
              20.596081
            ],
            [
              1.601283,
              20.594156
            ],
            [
              1.602245,
              20.592552
            ],
            [
              1.603421,
              20.591162
            ],
            [
              1.603421,
              20.589879
            ],
            [
              1.602245,
              20.588489
            ],
            [
              1.600748,
              20.587313
            ],
            [
              1.599358,
              20.585816
            ],
            [
              1.599037,
              20.584854
            ],
            [
              1.599037,
              20.583891
            ],
            [
              1.599679,
              20.583036
            ],
            [
              1.60556,
              20.579722
            ],
            [
              1.608661,
              20.57769
            ],
            [
              1.613793,
              20.575979
            ],
            [
              1.615397,
              20.575872
            ],
            [
              1.617108,
              20.5763
            ],
            [
              1.619674,
              20.5763
            ],
            [
              1.621919,
              20.576086
            ],
            [
              1.624592,
              20.57491
            ],
            [
              1.626303,
              20.573734
            ],
            [
              1.627479,
              20.572664
            ],
            [
              1.630259,
              20.568388
            ],
            [
              1.631756,
              20.566463
            ],
            [
              1.633894,
              20.565501
            ],
            [
              1.638064,
              20.564325
            ],
            [
              1.639989,
              20.563041
            ],
            [
              1.642448,
              20.559834
            ],
            [
              1.645762,
              20.551387
            ],
            [
              1.647259,
              20.548821
            ],
            [
              1.647901,
              20.546683
            ],
            [
              1.648542,
              20.545613
            ],
            [
              1.649291,
              20.545079
            ],
            [
              1.650467,
              20.544972
            ],
            [
              1.651964,
              20.545186
            ],
            [
              1.653354,
              20.545079
            ],
            [
              1.655599,
              20.544117
            ],
            [
              1.657417,
              20.542727
            ],
            [
              1.660624,
              20.538557
            ],
            [
              1.66458,
              20.535028
            ],
            [
              1.666505,
              20.532462
            ],
            [
              1.667574,
              20.530003
            ],
            [
              1.667467,
              20.528292
            ],
            [
              1.666826,
              20.527116
            ],
            [
              1.665863,
              20.526902
            ],
            [
              1.664473,
              20.526902
            ],
            [
              1.66287,
              20.526475
            ],
            [
              1.661373,
              20.525405
            ],
            [
              1.659983,
              20.523908
            ],
            [
              1.659234,
              20.521556
            ],
            [
              1.6587,
              20.518883
            ],
            [
              1.6587,
              20.517279
            ],
            [
              1.659662,
              20.515996
            ],
            [
              1.663511,
              20.512682
            ],
            [
              1.663939,
              20.511185
            ],
            [
              1.663725,
              20.509581
            ],
            [
              1.66287,
              20.50755
            ],
            [
              1.662014,
              20.50616
            ],
            [
              1.660197,
              20.504128
            ],
            [
              1.659234,
              20.501883
            ],
            [
              1.659341,
              20.5006
            ],
            [
              1.660197,
              20.499851
            ],
            [
              1.661907,
              20.499103
            ],
            [
              1.664367,
              20.498568
            ],
            [
              1.666398,
              20.497927
            ],
            [
              1.666933,
              20.496857
            ],
            [
              1.667681,
              20.494505
            ],
            [
              1.66875,
              20.493008
            ],
            [
              1.67014,
              20.491725
            ],
            [
              1.674952,
              20.48948
            ],
            [
              1.675486,
              20.488731
            ],
            [
              1.6757,
              20.487876
            ],
            [
              1.675166,
              20.484027
            ],
            [
              1.675059,
              20.479643
            ],
            [
              1.674417,
              20.478146
            ],
            [
              1.673562,
              20.477505
            ],
            [
              1.671316,
              20.476542
            ],
            [
              1.670675,
              20.47558
            ],
            [
              1.669926,
              20.472693
            ],
            [
              1.669926,
              20.470662
            ],
            [
              1.663511,
              20.457724
            ],
            [
              1.662014,
              20.454303
            ],
            [
              1.661693,
              20.452806
            ],
            [
              1.662014,
              20.451202
            ],
            [
              1.662549,
              20.449919
            ],
            [
              1.663511,
              20.449063
            ],
            [
              1.66736,
              20.447246
            ],
            [
              1.669178,
              20.445856
            ],
            [
              1.670247,
              20.44468
            ],
            [
              1.67153,
              20.442755
            ],
            [
              1.672706,
              20.438585
            ],
            [
              1.673027,
              20.435377
            ],
            [
              1.672599,
              20.433667
            ],
            [
              1.671851,
              20.431849
            ],
            [
              1.670782,
              20.430352
            ],
            [
              1.66736,
              20.42832
            ],
            [
              1.666612,
              20.42693
            ],
            [
              1.666612,
              20.422975
            ],
            [
              1.666933,
              20.420515
            ],
            [
              1.668643,
              20.416559
            ],
            [
              1.668643,
              20.413245
            ],
            [
              1.667895,
              20.410144
            ],
            [
              1.667788,
              20.408112
            ],
            [
              1.668216,
              20.406402
            ],
            [
              1.669285,
              20.405119
            ],
            [
              1.673027,
              20.402445
            ],
            [
              1.678159,
              20.400414
            ],
            [
              1.679656,
              20.399452
            ],
            [
              1.683078,
              20.399024
            ],
            [
              1.684468,
              20.398062
            ],
            [
              1.687034,
              20.395282
            ],
            [
              1.693556,
              20.391753
            ],
            [
              1.695588,
              20.39047
            ],
            [
              1.698475,
              20.385338
            ],
            [
              1.699972,
              20.383948
            ],
            [
              1.701362,
              20.382986
            ],
            [
              1.703928,
              20.382023
            ],
            [
              1.706067,
              20.380954
            ],
            [
              1.709167,
              20.37796
            ],
            [
              1.714406,
              20.371438
            ],
            [
              1.716224,
              20.369834
            ],
            [
              1.719859,
              20.368231
            ],
            [
              1.725419,
              20.36652
            ],
            [
              1.727772,
              20.365558
            ],
            [
              1.731727,
              20.362563
            ],
            [
              1.733224,
              20.360852
            ],
            [
              1.735149,
              20.357003
            ],
            [
              1.735683,
              20.355079
            ],
            [
              1.736325,
              20.354009
            ],
            [
              1.737073,
              20.353903
            ],
            [
              1.739105,
              20.354223
            ],
            [
              1.740495,
              20.354972
            ],
            [
              1.744772,
              20.356469
            ],
            [
              1.746376,
              20.356148
            ],
            [
              1.749476,
              20.354651
            ],
            [
              1.750118,
              20.353689
            ],
            [
              1.750759,
              20.352085
            ],
            [
              1.751936,
              20.350053
            ],
            [
              1.757175,
              20.345456
            ],
            [
              1.761238,
              20.342997
            ],
            [
              1.766584,
              20.340217
            ],
            [
              1.768508,
              20.338934
            ],
            [
              1.769898,
              20.338506
            ],
            [
              1.773534,
              20.338078
            ],
            [
              1.775031,
              20.337223
            ],
            [
              1.776634,
              20.334443
            ],
            [
              1.777062,
              20.332198
            ],
            [
              1.777062,
              20.330594
            ],
            [
              1.776528,
              20.328348
            ],
            [
              1.776314,
              20.325889
            ],
            [
              1.776421,
              20.324392
            ],
            [
              1.777169,
              20.321612
            ],
            [
              1.778239,
              20.320436
            ],
            [
              1.780591,
              20.318298
            ],
            [
              1.783906,
              20.316373
            ],
            [
              1.785082,
              20.315197
            ],
            [
              1.785937,
              20.3137
            ],
            [
              1.788075,
              20.308782
            ],
            [
              1.788931,
              20.307713
            ],
            [
              1.79,
              20.306857
            ],
            [
              1.792139,
              20.305895
            ],
            [
              1.794598,
              20.302367
            ],
            [
              1.795132,
              20.301084
            ],
            [
              1.797805,
              20.297876
            ],
            [
              1.799409,
              20.296914
            ],
            [
              1.801441,
              20.296165
            ],
            [
              1.809139,
              20.294882
            ],
            [
              1.815019,
              20.293492
            ],
            [
              1.821328,
              20.291033
            ],
            [
              1.823894,
              20.290498
            ],
            [
              1.825818,
              20.289857
            ],
            [
              1.828705,
              20.290071
            ],
            [
              1.830309,
              20.290605
            ],
            [
              1.836297,
              20.293599
            ],
            [
              1.840681,
              20.295524
            ],
            [
              1.846562,
              20.297449
            ],
            [
              1.849235,
              20.29809
            ],
            [
              1.851266,
              20.29809
            ],
            [
              1.857254,
              20.297021
            ],
            [
              1.859927,
              20.2967
            ],
            [
              1.8626,
              20.297021
            ],
            [
              1.864952,
              20.297555
            ],
            [
              1.867305,
              20.297555
            ],
            [
              1.869015,
              20.297235
            ],
            [
              1.87094,
              20.296165
            ],
            [
              1.872544,
              20.294775
            ],
            [
              1.873827,
              20.294027
            ],
            [
              1.875324,
              20.293813
            ],
            [
              1.876714,
              20.294241
            ],
            [
              1.879814,
              20.296059
            ],
            [
              1.881418,
              20.297342
            ],
            [
              1.882274,
              20.297235
            ],
            [
              1.883236,
              20.296593
            ],
            [
              1.883771,
              20.295845
            ],
            [
              1.884198,
              20.294669
            ],
            [
              1.884519,
              20.290499
            ],
            [
              1.885267,
              20.28558
            ],
            [
              1.886016,
              20.283121
            ],
            [
              1.887192,
              20.28141
            ],
            [
              1.8904,
              20.277882
            ],
            [
              1.89072,
              20.275636
            ],
            [
              1.890293,
              20.271145
            ],
            [
              1.8904,
              20.269221
            ],
            [
              1.890934,
              20.267082
            ],
            [
              1.893714,
              20.263233
            ],
            [
              1.895639,
              20.261522
            ],
            [
              1.898847,
              20.259919
            ],
            [
              1.900771,
              20.257673
            ],
            [
              1.901412,
              20.256711
            ],
            [
              1.900771,
              20.255428
            ],
            [
              1.897777,
              20.252007
            ],
            [
              1.896814,
              20.25051
            ],
            [
              1.89628,
              20.248799
            ],
            [
              1.896173,
              20.247088
            ],
            [
              1.896708,
              20.24495
            ],
            [
              1.897563,
              20.243025
            ],
            [
              1.899167,
              20.241635
            ],
            [
              1.900984,
              20.240566
            ],
            [
              1.903123,
              20.239604
            ],
            [
              1.905154,
              20.238214
            ],
            [
              1.906437,
              20.236717
            ],
            [
              1.908683,
              20.233616
            ],
            [
              1.909752,
              20.232654
            ],
            [
              1.91157,
              20.231371
            ],
            [
              1.918092,
              20.227629
            ],
            [
              1.922476,
              20.224314
            ],
            [
              1.923759,
              20.224207
            ],
            [
              1.924508,
              20.224528
            ],
            [
              1.925684,
              20.225383
            ],
            [
              1.930816,
              20.23073
            ],
            [
              1.933061,
              20.232547
            ],
            [
              1.936697,
              20.236289
            ],
            [
              1.940974,
              20.241956
            ],
            [
              1.942684,
              20.245271
            ],
            [
              1.944502,
              20.249868
            ],
            [
              1.945357,
              20.253825
            ],
            [
              1.945678,
              20.256818
            ],
            [
              1.946854,
              20.259812
            ],
            [
              1.948565,
              20.260454
            ],
            [
              1.95049,
              20.260561
            ],
            [
              1.952521,
              20.260026
            ],
            [
              1.958616,
              20.257353
            ],
            [
              1.961182,
              20.256818
            ],
            [
              1.96332,
              20.256818
            ],
            [
              1.966314,
              20.257888
            ],
            [
              1.969736,
              20.259919
            ],
            [
              1.974975,
              20.264196
            ],
            [
              1.977541,
              20.266655
            ],
            [
              1.978931,
              20.266976
            ],
            [
              1.980428,
              20.266548
            ],
            [
              1.980855,
              20.2658
            ],
            [
              1.981818,
              20.261095
            ],
            [
              1.982673,
              20.258208
            ],
            [
              1.98417,
              20.255108
            ],
            [
              1.988554,
              20.249441
            ],
            [
              1.991227,
              20.246875
            ],
            [
              1.994969,
              20.244843
            ],
            [
              1.999862,
              20.242941
            ],
            [
              2,
              20.242913070752774
            ],
            [
              2,
              21
            ],
            [
              1.1920195445783133,
              21
            ],
            [
              1.192021,
              20.99998
            ],
            [
              1.191132,
              20.997144
            ],
            [
              1.189955,
              20.99105
            ],
            [
              1.188672,
              20.986666
            ],
            [
              1.185572,
              20.98132
            ],
            [
              1.185251,
              20.979288
            ],
            [
              1.185251,
              20.972338
            ],
            [
              1.185358,
              20.969344
            ],
            [
              1.186213,
              20.966243
            ],
            [
              1.190811,
              20.95801
            ],
            [
              1.192735,
              20.952344
            ],
            [
              1.193484,
              20.947853
            ],
            [
              1.193591,
              20.943255
            ],
            [
              1.192308,
              20.930425
            ],
            [
              1.191452,
              20.923902
            ],
            [
              1.188138,
              20.90487
            ],
            [
              1.178836,
              20.848736
            ],
            [
              1.17798,
              20.842642
            ],
            [
              1.177018,
              20.837509
            ],
            [
              1.175949,
              20.83366
            ],
            [
              1.171886,
              20.821899
            ],
            [
              1.167288,
              20.811528
            ],
            [
              1.165791,
              20.80554
            ],
            [
              1.164615,
              20.797521
            ],
            [
              1.163867,
              20.790464
            ],
            [
              1.162584,
              20.758388
            ]
          ]
        ]
      }
    },
    {
      "type": "Feature",
      "properties": {
        "osm_id": -192785,
        "boundary": "administrative",
        "admin_level": 2,
        "parents": null,
        "name": "Mali",
        "local_name": "Mali",
        "name_en": "Mali",
        "all_tags": {
          "flag": "http://upload.wikimedia.org/wikipedia/commons/9/92/Flag_of_Mali.svg",
          "name": "Mali",
          "name:af": "Mali",
          "name:am": "ማሊ",
          "name:an": "Mali",
          "name:ar": "مالي",
          "name:az": "Mali",
          "name:ba": "Мали",
          "name:be": "Малі",
          "name:bg": "Мали",
          "name:bm": "Mali",
          "name:bn": "মালি",
          "name:bo": "མ་ལི།",
          "name:br": "Mali",
          "name:bs": "Mali",
          "name:ca": "Mali",
          "name:ce": "Мали",
          "name:cs": "Mali",
          "name:cv": "Мали",
          "name:cy": "Mali",
          "name:da": "Mali",
          "name:de": "Mali",
          "name:dv": "މާލީ",
          "name:ee": "Mali",
          "name:el": "Μάλι",
          "name:en": "Mali",
          "name:eo": "Malio",
          "name:es": "Malí",
          "name:et": "Mali",
          "name:eu": "Mali",
          "name:fa": "مالی",
          "name:ff": "Maali",
          "name:fi": "Mali",
          "name:fo": "Mali",
          "name:fr": "Mali",
          "name:fy": "Maly",
          "name:ga": "Mailí",
          "name:gd": "Màili",
          "name:gl": "Malí",
          "name:gn": "Mali",
          "name:gv": "Malee",
          "name:ha": "Mali",
          "name:he": "מאלי",
          "name:hi": "माली",
          "name:hr": "Mali",
          "name:ht": "Mali",
          "name:hu": "Mali",
          "name:hy": "Մալի",
          "name:ia": "Mali",
          "name:id": "Mali",
          "name:ie": "Mali",
          "name:io": "Mali",
          "name:is": "Malí",
          "name:it": "Mali",
          "name:ja": "マリ共和国",
          "name:jv": "Mali",
          "name:ka": "მალი",
          "name:kg": "Mali",
          "name:kk": "Мали",
          "name:kn": "ಮಾಲಿ",
          "name:ko": "말리",
          "name:ku": "Malî",
          "name:kw": "Mali",
          "name:la": "Malium",
          "name:lb": "Mali",
          "name:li": "Mali",
          "name:ln": "Mali",
          "name:lt": "Malis",
          "name:lv": "Mali",
          "name:mi": "Māri",
          "name:mk": "Мали",
          "name:ml": "മാലി",
          "name:mn": "Мали",
          "name:mr": "माली",
          "name:ms": "Mali",
          "name:mt": "Mali",
          "name:my": "မာလီနိုင်ငံ",
          "name:nl": "Mali",
          "name:nn": "Mali",
          "name:no": "Mali",
          "name:oc": "Mali",
          "name:or": "ମାଲି",
          "name:os": "Мали",
          "name:pa": "ਮਾਲੀ",
          "name:pl": "Mali",
          "name:ps": "مالي",
          "name:pt": "Mali",
          "name:qu": "Mali",
          "name:ro": "Mali",
          "name:ru": "Мали",
          "name:rw": "Mali",
          "name:sa": "माली",
          "name:sc": "Mali",
          "name:se": "Mali",
          "name:sg": "Malïi",
          "name:sh": "Mali",
          "name:si": "මාලි",
          "name:sk": "Mali",
          "name:sl": "Mali",
          "name:sn": "Mali",
          "name:so": "Maali",
          "name:sq": "Mali",
          "name:sr": "Мали",
          "name:ss": "IMali",
          "name:st": "Mali",
          "name:su": "Mali",
          "name:sv": "Mali",
          "name:sw": "Mali",
          "name:ta": "மாலி",
          "name:tg": "Малӣ",
          "name:th": "ประเทศมาลี",
          "name:ti": "ማሊ",
          "name:tk": "Mali",
          "name:tl": "Mali",
          "name:tr": "Mali",
          "name:ts": "Mali",
          "name:tt": "Мали",
          "name:ug": "مالى",
          "name:uk": "Малі",
          "name:ur": "مالی",
          "name:uz": "Mali",
          "name:vi": "Mali",
          "name:vo": "Maliyän",
          "name:wa": "Mali",
          "name:wo": "Mali",
          "name:yi": "מאלי",
          "name:yo": "Málì",
          "name:zh": "马里 / 馬利",
          "name:zu": "IMali",
          "boundary": "administrative",
          "currency": "XOF",
          "name:ace": "Mali",
          "name:als": "Mali",
          "name:arc": "ܡܠܝ",
          "name:arz": "مالى",
          "name:ast": "Malí",
          "name:bcl": "Mali",
          "name:ber": "ⵎⴰⵍⵉ",
          "name:bjn": "Mali",
          "name:bpy": "মালি",
          "name:bxr": "Мали",
          "name:ceb": "Mali",
          "name:ckb": "مالی",
          "name:crh": "Mali",
          "name:diq": "Mali",
          "name:dsb": "Mali",
          "name:ext": "Mali",
          "name:frp": "Mali",
          "name:gag": "Mali",
          "name:hif": "Mali",
          "name:hsb": "Mali",
          "name:ilo": "Mali",
          "name:jbo": "malis",
          "name:kab": "Mali",
          "name:lij": "Mali",
          "name:lmo": "Mali",
          "name:min": "Mali",
          "name:mrj": "Мали",
          "name:nah": "Mali",
          "name:nan": "Mali",
          "name:nds": "Mali",
          "name:new": "माली गाविस",
          "name:nov": "Mali",
          "name:nso": "Mali",
          "name:pam": "Mali",
          "name:pap": "Mali",
          "name:pih": "Maali",
          "name:pms": "Mali",
          "name:pnb": "مالی",
          "name:sah": "Мали",
          "name:scn": "Mali",
          "name:sco": "Mali",
          "name:smn": "Mali",
          "name:sms": "Mali",
          "name:stq": "Mali",
          "name:szl": "Mali",
          "name:tzl": "Mali",
          "name:vec": "Małì",
          "name:vls": "Mali",
          "name:vro": "Mali",
          "name:war": "Mali",
          "name:wuu": "马里",
          "name:xal": "Малудин Орн",
          "name:yue": "馬里",
          "name:zgh": "ⵎⴰⵍⵉ",
          "timezone": "Africa/Bamako",
          "way_area": "106.663",
          "wikidata": "Q912",
          "ISO3166-1": "ML",
          "wikipedia": "fr:Mali",
          "population": "14517176",
          "admin_level": "2",
          "name:nds-nl": "Mali",
          "name:bat-smg": "Malis",
          "name:roa-rup": "Mali",
          "name:zh-Hans": "马里",
          "name:zh-Hant": "馬利",
          "name:be-tarask": "Малі",
          "ISO3166-1:alpha2": "ML",
          "ISO3166-1:alpha3": "MLI",
          "default_language": "fr",
          "official_name:ar": "جمهورية مالي",
          "official_name:de": "Republik Mali",
          "official_name:en": "Republic of Mali",
          "official_name:es": "República de Malí",
          "official_name:fr": "République du Mali",
          "official_name:gn": "Tavakuairetã Mali",
          "official_name:pt": "República do Mali",
          "official_name:ru": "Республика Мали",
          "official_name:zh": "马里共和国 / 馬利共和國",
          "ISO3166-1:numeric": "466",
          "official_name:ckb": "کۆماری مالی",
          "official_name:zh-Hans": "马里共和国",
          "official_name:zh-Hant": "馬利共和國"
        }
      },
      "geometry": {
        "type": "Polygon",
        "coordinates": [
          [
            [
              1,
              20
            ],
            [
              2,
              20
            ],
            [
              2,
              20.242913070752774
            ],
            [
              1.999862,
              20.242941
            ],
            [
              1.994969,
              20.244843
            ],
            [
              1.991227,
              20.246875
            ],
            [
              1.988554,
              20.249441
            ],
            [
              1.98417,
              20.255108
            ],
            [
              1.982673,
              20.258208
            ],
            [
              1.981818,
              20.261095
            ],
            [
              1.980855,
              20.2658
            ],
            [
              1.980428,
              20.266548
            ],
            [
              1.978931,
              20.266976
            ],
            [
              1.977541,
              20.266655
            ],
            [
              1.974975,
              20.264196
            ],
            [
              1.969736,
              20.259919
            ],
            [
              1.966314,
              20.257888
            ],
            [
              1.96332,
              20.256818
            ],
            [
              1.961182,
              20.256818
            ],
            [
              1.958616,
              20.257353
            ],
            [
              1.952521,
              20.260026
            ],
            [
              1.95049,
              20.260561
            ],
            [
              1.948565,
              20.260454
            ],
            [
              1.946854,
              20.259812
            ],
            [
              1.945678,
              20.256818
            ],
            [
              1.945357,
              20.253825
            ],
            [
              1.944502,
              20.249868
            ],
            [
              1.942684,
              20.245271
            ],
            [
              1.940974,
              20.241956
            ],
            [
              1.936697,
              20.236289
            ],
            [
              1.933061,
              20.232547
            ],
            [
              1.930816,
              20.23073
            ],
            [
              1.925684,
              20.225383
            ],
            [
              1.924508,
              20.224528
            ],
            [
              1.923759,
              20.224207
            ],
            [
              1.922476,
              20.224314
            ],
            [
              1.918092,
              20.227629
            ],
            [
              1.91157,
              20.231371
            ],
            [
              1.909752,
              20.232654
            ],
            [
              1.908683,
              20.233616
            ],
            [
              1.906437,
              20.236717
            ],
            [
              1.905154,
              20.238214
            ],
            [
              1.903123,
              20.239604
            ],
            [
              1.900984,
              20.240566
            ],
            [
              1.899167,
              20.241635
            ],
            [
              1.897563,
              20.243025
            ],
            [
              1.896708,
              20.24495
            ],
            [
              1.896173,
              20.247088
            ],
            [
              1.89628,
              20.248799
            ],
            [
              1.896814,
              20.25051
            ],
            [
              1.897777,
              20.252007
            ],
            [
              1.900771,
              20.255428
            ],
            [
              1.901412,
              20.256711
            ],
            [
              1.900771,
              20.257673
            ],
            [
              1.898847,
              20.259919
            ],
            [
              1.895639,
              20.261522
            ],
            [
              1.893714,
              20.263233
            ],
            [
              1.890934,
              20.267082
            ],
            [
              1.8904,
              20.269221
            ],
            [
              1.890293,
              20.271145
            ],
            [
              1.89072,
              20.275636
            ],
            [
              1.8904,
              20.277882
            ],
            [
              1.887192,
              20.28141
            ],
            [
              1.886016,
              20.283121
            ],
            [
              1.885267,
              20.28558
            ],
            [
              1.884519,
              20.290499
            ],
            [
              1.884198,
              20.294669
            ],
            [
              1.883771,
              20.295845
            ],
            [
              1.883236,
              20.296593
            ],
            [
              1.882274,
              20.297235
            ],
            [
              1.881418,
              20.297342
            ],
            [
              1.879814,
              20.296059
            ],
            [
              1.876714,
              20.294241
            ],
            [
              1.875324,
              20.293813
            ],
            [
              1.873827,
              20.294027
            ],
            [
              1.872544,
              20.294775
            ],
            [
              1.87094,
              20.296165
            ],
            [
              1.869015,
              20.297235
            ],
            [
              1.867305,
              20.297555
            ],
            [
              1.864952,
              20.297555
            ],
            [
              1.8626,
              20.297021
            ],
            [
              1.859927,
              20.2967
            ],
            [
              1.857254,
              20.297021
            ],
            [
              1.851266,
              20.29809
            ],
            [
              1.849235,
              20.29809
            ],
            [
              1.846562,
              20.297449
            ],
            [
              1.840681,
              20.295524
            ],
            [
              1.836297,
              20.293599
            ],
            [
              1.830309,
              20.290605
            ],
            [
              1.828705,
              20.290071
            ],
            [
              1.825818,
              20.289857
            ],
            [
              1.823894,
              20.290498
            ],
            [
              1.821328,
              20.291033
            ],
            [
              1.815019,
              20.293492
            ],
            [
              1.809139,
              20.294882
            ],
            [
              1.801441,
              20.296165
            ],
            [
              1.799409,
              20.296914
            ],
            [
              1.797805,
              20.297876
            ],
            [
              1.795132,
              20.301084
            ],
            [
              1.794598,
              20.302367
            ],
            [
              1.792139,
              20.305895
            ],
            [
              1.79,
              20.306857
            ],
            [
              1.788931,
              20.307713
            ],
            [
              1.788075,
              20.308782
            ],
            [
              1.785937,
              20.3137
            ],
            [
              1.785082,
              20.315197
            ],
            [
              1.783906,
              20.316373
            ],
            [
              1.780591,
              20.318298
            ],
            [
              1.778239,
              20.320436
            ],
            [
              1.777169,
              20.321612
            ],
            [
              1.776421,
              20.324392
            ],
            [
              1.776314,
              20.325889
            ],
            [
              1.776528,
              20.328348
            ],
            [
              1.777062,
              20.330594
            ],
            [
              1.777062,
              20.332198
            ],
            [
              1.776634,
              20.334443
            ],
            [
              1.775031,
              20.337223
            ],
            [
              1.773534,
              20.338078
            ],
            [
              1.769898,
              20.338506
            ],
            [
              1.768508,
              20.338934
            ],
            [
              1.766584,
              20.340217
            ],
            [
              1.761238,
              20.342997
            ],
            [
              1.757175,
              20.345456
            ],
            [
              1.751936,
              20.350053
            ],
            [
              1.750759,
              20.352085
            ],
            [
              1.750118,
              20.353689
            ],
            [
              1.749476,
              20.354651
            ],
            [
              1.746376,
              20.356148
            ],
            [
              1.744772,
              20.356469
            ],
            [
              1.740495,
              20.354972
            ],
            [
              1.739105,
              20.354223
            ],
            [
              1.737073,
              20.353903
            ],
            [
              1.736325,
              20.354009
            ],
            [
              1.735683,
              20.355079
            ],
            [
              1.735149,
              20.357003
            ],
            [
              1.733224,
              20.360852
            ],
            [
              1.731727,
              20.362563
            ],
            [
              1.727772,
              20.365558
            ],
            [
              1.725419,
              20.36652
            ],
            [
              1.719859,
              20.368231
            ],
            [
              1.716224,
              20.369834
            ],
            [
              1.714406,
              20.371438
            ],
            [
              1.709167,
              20.37796
            ],
            [
              1.706067,
              20.380954
            ],
            [
              1.703928,
              20.382023
            ],
            [
              1.701362,
              20.382986
            ],
            [
              1.699972,
              20.383948
            ],
            [
              1.698475,
              20.385338
            ],
            [
              1.695588,
              20.39047
            ],
            [
              1.693556,
              20.391753
            ],
            [
              1.687034,
              20.395282
            ],
            [
              1.684468,
              20.398062
            ],
            [
              1.683078,
              20.399024
            ],
            [
              1.679656,
              20.399452
            ],
            [
              1.678159,
              20.400414
            ],
            [
              1.673027,
              20.402445
            ],
            [
              1.669285,
              20.405119
            ],
            [
              1.668216,
              20.406402
            ],
            [
              1.667788,
              20.408112
            ],
            [
              1.667895,
              20.410144
            ],
            [
              1.668643,
              20.413245
            ],
            [
              1.668643,
              20.416559
            ],
            [
              1.666933,
              20.420515
            ],
            [
              1.666612,
              20.422975
            ],
            [
              1.666612,
              20.42693
            ],
            [
              1.66736,
              20.42832
            ],
            [
              1.670782,
              20.430352
            ],
            [
              1.671851,
              20.431849
            ],
            [
              1.672599,
              20.433667
            ],
            [
              1.673027,
              20.435377
            ],
            [
              1.672706,
              20.438585
            ],
            [
              1.67153,
              20.442755
            ],
            [
              1.670247,
              20.44468
            ],
            [
              1.669178,
              20.445856
            ],
            [
              1.66736,
              20.447246
            ],
            [
              1.663511,
              20.449063
            ],
            [
              1.662549,
              20.449919
            ],
            [
              1.662014,
              20.451202
            ],
            [
              1.661693,
              20.452806
            ],
            [
              1.662014,
              20.454303
            ],
            [
              1.663511,
              20.457724
            ],
            [
              1.669926,
              20.470662
            ],
            [
              1.669926,
              20.472693
            ],
            [
              1.670675,
              20.47558
            ],
            [
              1.671316,
              20.476542
            ],
            [
              1.673562,
              20.477505
            ],
            [
              1.674417,
              20.478146
            ],
            [
              1.675059,
              20.479643
            ],
            [
              1.675166,
              20.484027
            ],
            [
              1.6757,
              20.487876
            ],
            [
              1.675486,
              20.488731
            ],
            [
              1.674952,
              20.48948
            ],
            [
              1.67014,
              20.491725
            ],
            [
              1.66875,
              20.493008
            ],
            [
              1.667681,
              20.494505
            ],
            [
              1.666933,
              20.496857
            ],
            [
              1.666398,
              20.497927
            ],
            [
              1.664367,
              20.498568
            ],
            [
              1.661907,
              20.499103
            ],
            [
              1.660197,
              20.499851
            ],
            [
              1.659341,
              20.5006
            ],
            [
              1.659234,
              20.501883
            ],
            [
              1.660197,
              20.504128
            ],
            [
              1.662014,
              20.50616
            ],
            [
              1.66287,
              20.50755
            ],
            [
              1.663725,
              20.509581
            ],
            [
              1.663939,
              20.511185
            ],
            [
              1.663511,
              20.512682
            ],
            [
              1.659662,
              20.515996
            ],
            [
              1.6587,
              20.517279
            ],
            [
              1.6587,
              20.518883
            ],
            [
              1.659234,
              20.521556
            ],
            [
              1.659983,
              20.523908
            ],
            [
              1.661373,
              20.525405
            ],
            [
              1.66287,
              20.526475
            ],
            [
              1.664473,
              20.526902
            ],
            [
              1.665863,
              20.526902
            ],
            [
              1.666826,
              20.527116
            ],
            [
              1.667467,
              20.528292
            ],
            [
              1.667574,
              20.530003
            ],
            [
              1.666505,
              20.532462
            ],
            [
              1.66458,
              20.535028
            ],
            [
              1.660624,
              20.538557
            ],
            [
              1.657417,
              20.542727
            ],
            [
              1.655599,
              20.544117
            ],
            [
              1.653354,
              20.545079
            ],
            [
              1.651964,
              20.545186
            ],
            [
              1.650467,
              20.544972
            ],
            [
              1.649291,
              20.545079
            ],
            [
              1.648542,
              20.545613
            ],
            [
              1.647901,
              20.546683
            ],
            [
              1.647259,
              20.548821
            ],
            [
              1.645762,
              20.551387
            ],
            [
              1.642448,
              20.559834
            ],
            [
              1.639989,
              20.563041
            ],
            [
              1.638064,
              20.564325
            ],
            [
              1.633894,
              20.565501
            ],
            [
              1.631756,
              20.566463
            ],
            [
              1.630259,
              20.568388
            ],
            [
              1.627479,
              20.572664
            ],
            [
              1.626303,
              20.573734
            ],
            [
              1.624592,
              20.57491
            ],
            [
              1.621919,
              20.576086
            ],
            [
              1.619674,
              20.5763
            ],
            [
              1.617108,
              20.5763
            ],
            [
              1.615397,
              20.575872
            ],
            [
              1.613793,
              20.575979
            ],
            [
              1.608661,
              20.57769
            ],
            [
              1.60556,
              20.579722
            ],
            [
              1.599679,
              20.583036
            ],
            [
              1.599037,
              20.583891
            ],
            [
              1.599037,
              20.584854
            ],
            [
              1.599358,
              20.585816
            ],
            [
              1.600748,
              20.587313
            ],
            [
              1.602245,
              20.588489
            ],
            [
              1.603421,
              20.589879
            ],
            [
              1.603421,
              20.591162
            ],
            [
              1.602245,
              20.592552
            ],
            [
              1.601283,
              20.594156
            ],
            [
              1.599572,
              20.596081
            ],
            [
              1.598075,
              20.596295
            ],
            [
              1.596471,
              20.595974
            ],
            [
              1.595402,
              20.596401
            ],
            [
              1.594547,
              20.597471
            ],
            [
              1.591125,
              20.600358
            ],
            [
              1.589307,
              20.601106
            ],
            [
              1.587169,
              20.601641
            ],
            [
              1.584175,
              20.601748
            ],
            [
              1.580647,
              20.60132
            ],
            [
              1.579043,
              20.601534
            ],
            [
              1.576263,
              20.602496
            ],
            [
              1.574766,
              20.603672
            ],
            [
              1.5722,
              20.604421
            ],
            [
              1.568992,
              20.605062
            ],
            [
              1.564502,
              20.605597
            ],
            [
              1.562257,
              20.606024
            ],
            [
              1.559477,
              20.608483
            ],
            [
              1.558194,
              20.61105
            ],
            [
              1.557017,
              20.61244
            ],
            [
              1.556162,
              20.613188
            ],
            [
              1.555414,
              20.613295
            ],
            [
              1.554131,
              20.61276
            ],
            [
              1.553061,
              20.611798
            ],
            [
              1.550923,
              20.610515
            ],
            [
              1.548998,
              20.610622
            ],
            [
              1.548036,
              20.61105
            ],
            [
              1.546539,
              20.61244
            ],
            [
              1.545577,
              20.614043
            ],
            [
              1.544508,
              20.614578
            ],
            [
              1.542797,
              20.615006
            ],
            [
              1.540017,
              20.615006
            ],
            [
              1.535419,
              20.616396
            ],
            [
              1.533067,
              20.617358
            ],
            [
              1.531035,
              20.617893
            ],
            [
              1.527614,
              20.618427
            ],
            [
              1.523765,
              20.619389
            ],
            [
              1.521733,
              20.620138
            ],
            [
              1.516066,
              20.620459
            ],
            [
              1.514463,
              20.620245
            ],
            [
              1.512645,
              20.620245
            ],
            [
              1.507406,
              20.621314
            ],
            [
              1.503663,
              20.62249
            ],
            [
              1.496072,
              20.625805
            ],
            [
              1.488267,
              20.630082
            ],
            [
              1.48538,
              20.631365
            ],
            [
              1.483455,
              20.632755
            ],
            [
              1.480782,
              20.634358
            ],
            [
              1.478751,
              20.635962
            ],
            [
              1.474474,
              20.638208
            ],
            [
              1.471587,
              20.639491
            ],
            [
              1.465279,
              20.641522
            ],
            [
              1.450416,
              20.648472
            ],
            [
              1.447957,
              20.649114
            ],
            [
              1.42112,
              20.654567
            ],
            [
              1.415025,
              20.656063
            ],
            [
              1.41,
              20.657881
            ],
            [
              1.405723,
              20.660233
            ],
            [
              1.400377,
              20.661944
            ],
            [
              1.398025,
              20.662479
            ],
            [
              1.396848,
              20.662372
            ],
            [
              1.395458,
              20.66173
            ],
            [
              1.392892,
              20.657347
            ],
            [
              1.391396,
              20.65617
            ],
            [
              1.390433,
              20.655636
            ],
            [
              1.387119,
              20.655422
            ],
            [
              1.385515,
              20.655743
            ],
            [
              1.383804,
              20.656598
            ],
            [
              1.379955,
              20.659378
            ],
            [
              1.378137,
              20.661623
            ],
            [
              1.376533,
              20.664083
            ],
            [
              1.375464,
              20.666435
            ],
            [
              1.374502,
              20.667825
            ],
            [
              1.371936,
              20.669749
            ],
            [
              1.370439,
              20.670284
            ],
            [
              1.360068,
              20.672209
            ],
            [
              1.357609,
              20.673171
            ],
            [
              1.356005,
              20.674133
            ],
            [
              1.354401,
              20.67563
            ],
            [
              1.353225,
              20.67702
            ],
            [
              1.35269,
              20.679693
            ],
            [
              1.352156,
              20.687392
            ],
            [
              1.351194,
              20.68953
            ],
            [
              1.347344,
              20.6937
            ],
            [
              1.344992,
              20.695945
            ],
            [
              1.343388,
              20.69787
            ],
            [
              1.342854,
              20.70065
            ],
            [
              1.341998,
              20.702468
            ],
            [
              1.340501,
              20.705034
            ],
            [
              1.339967,
              20.706531
            ],
            [
              1.33986,
              20.708134
            ],
            [
              1.340929,
              20.71209
            ],
            [
              1.340715,
              20.713694
            ],
            [
              1.33986,
              20.715725
            ],
            [
              1.335369,
              20.72182
            ],
            [
              1.330665,
              20.725883
            ],
            [
              1.319651,
              20.73679
            ],
            [
              1.31655,
              20.740211
            ],
            [
              1.314626,
              20.740746
            ],
            [
              1.312059,
              20.740318
            ],
            [
              1.310456,
              20.739142
            ],
            [
              1.308852,
              20.73679
            ],
            [
              1.306927,
              20.734758
            ],
            [
              1.305216,
              20.733475
            ],
            [
              1.302223,
              20.732192
            ],
            [
              1.296984,
              20.731657
            ],
            [
              1.294631,
              20.731871
            ],
            [
              1.293348,
              20.73262
            ],
            [
              1.290461,
              20.736041
            ],
            [
              1.285971,
              20.739463
            ],
            [
              1.284367,
              20.740425
            ],
            [
              1.282977,
              20.740959
            ],
            [
              1.281587,
              20.741173
            ],
            [
              1.279448,
              20.741066
            ],
            [
              1.277631,
              20.740211
            ],
            [
              1.275813,
              20.738179
            ],
            [
              1.272819,
              20.7354
            ],
            [
              1.271322,
              20.734972
            ],
            [
              1.269184,
              20.734972
            ],
            [
              1.266939,
              20.73572
            ],
            [
              1.264159,
              20.736896
            ],
            [
              1.262448,
              20.738073
            ],
            [
              1.260737,
              20.738607
            ],
            [
              1.258278,
              20.738607
            ],
            [
              1.251221,
              20.73711
            ],
            [
              1.24812,
              20.735934
            ],
            [
              1.244592,
              20.733796
            ],
            [
              1.238177,
              20.727487
            ],
            [
              1.236573,
              20.72567
            ],
            [
              1.234434,
              20.7246
            ],
            [
              1.22973,
              20.723745
            ],
            [
              1.226522,
              20.724066
            ],
            [
              1.222566,
              20.724814
            ],
            [
              1.214226,
              20.725776
            ],
            [
              1.208453,
              20.726311
            ],
            [
              1.202251,
              20.726632
            ],
            [
              1.192628,
              20.726953
            ],
            [
              1.18664,
              20.726525
            ],
            [
              1.182043,
              20.725883
            ],
            [
              1.180118,
              20.72599
            ],
            [
              1.178301,
              20.726311
            ],
            [
              1.176162,
              20.72738
            ],
            [
              1.169106,
              20.732192
            ],
            [
              1.16515,
              20.736148
            ],
            [
              1.16408,
              20.738607
            ],
            [
              1.163439,
              20.743098
            ],
            [
              1.162797,
              20.751117
            ],
            [
              1.162584,
              20.758388
            ],
            [
              1.163867,
              20.790464
            ],
            [
              1.164615,
              20.797521
            ],
            [
              1.165791,
              20.80554
            ],
            [
              1.167288,
              20.811528
            ],
            [
              1.171886,
              20.821899
            ],
            [
              1.175949,
              20.83366
            ],
            [
              1.177018,
              20.837509
            ],
            [
              1.17798,
              20.842642
            ],
            [
              1.178836,
              20.848736
            ],
            [
              1.188138,
              20.90487
            ],
            [
              1.191452,
              20.923902
            ],
            [
              1.192308,
              20.930425
            ],
            [
              1.193591,
              20.943255
            ],
            [
              1.193484,
              20.947853
            ],
            [
              1.192735,
              20.952344
            ],
            [
              1.190811,
              20.95801
            ],
            [
              1.186213,
              20.966243
            ],
            [
              1.185358,
              20.969344
            ],
            [
              1.185251,
              20.972338
            ],
            [
              1.185251,
              20.979288
            ],
            [
              1.185572,
              20.98132
            ],
            [
              1.188672,
              20.986666
            ],
            [
              1.189955,
              20.99105
            ],
            [
              1.191132,
              20.997144
            ],
            [
              1.192021,
              20.99998
            ],
            [
              1.1920195445783133,
              21
            ],
            [
              1,
              21
            ],
            [
              1,
              20
            ]
          ]
        ]
      }
    }
  ]
}