{
  "type": "FeatureCollection",
  "features": [
    {
      "type": "Feature",
      "properties": {
        "osm_id": -2202162,
        "boundary": "administrative",
        "admin_level": 2,
        "parents": null,
        "name": "France",
        "local_name": "France",
        "name_en": "France",
        "all_tags": {
          "flag": "http://upload.wikimedia.org/wikipedia/commons/c/c3/Flag_of_France.svg",
          "name": "France",
          "name:af": "Frankryk",
          "name:ak": "Frɛnkyeman",
          "name:am": "ፈረንሣይ",
          "name:an": "Francia",
          "name:ar": "فرنسا",
          "name:as": "ফ্ৰান্স",
          "name:ay": "Phransiya",
          "name:az": "Fransa",
          "name:ba": "Франция",
          "name:be": "Францыя",
          "name:bg": "Франция",
          "name:bi": "Franis",
          "name:bm": "France",
          "name:bn": "ফ্রান্স",
          "name:bo": "ཧྥ་རན་སི།",
          "name:br": "Bro-C'hall",
          "name:bs": "Francuska",
          "name:ca": "França",
          "name:ce": "Франци",
          "name:co": "Francia",
          "name:cs": "Francie",
          "name:cu": "Франкїꙗ",
          "name:cv": "Франци",
          "name:cy": "Ffrainc",
          "name:da": "Frankrig",
          "name:de": "Frankreich",
          "name:dv": "ފަރަންސޭސިވިލާތް",
          "name:dz": "ཕརཱནསི་",
          "name:ee": "France",
          "name:el": "Γαλλία",
          "name:en": "France",
          "name:eo": "Francio",
          "name:es": "Francia",
          "name:et": "Prantsusmaa",
          "name:eu": "Frantzia",
          "name:fa": "فرانسه",
          "name:ff": "Faransi",
          "name:fi": "Ranska",
          "name:fo": "Frakland",
          "name:fr": "France",
          "name:fy": "Frankryk",
          "name:ga": "An Fhrainc",
          "name:gd": "An Fhraing",
          "name:gl": "Francia",
          "name:gn": "Hyãsia",
          "name:gu": "ફ્રાન્સ",
          "name:gv": "Yn Rank",
          "name:ha": "Faransa",
          "name:he": "צרפת",
          "name:hi": "फ़्रान्स",
          "name:hr": "Francuska",
          "name:ht": "Frans",
          "name:hu": "Franciaország",
          "name:hy": "Ֆրանսիա",
          "name:ia": "Francia",
          "name:id": "Perancis",
          "name:ie": "Francia",
          "name:ii": "ꃔꇩ",
          "name:io": "Francia",
          "name:is": "Frakkland",
          "name:it": "Francia",
          "name:ja": "フランス",
          "name:jv": "Prancis",
          "name:ka": "საფრანგეთი",
          "name:kg": "Fwalansa",
          "name:ki": "Ubaranja",
          "name:kk": "Франция",
          "name:kl": "Frankrigi",
          "name:km": "បារាំង",
          "name:kn": "ಫ್ರಾನ್ಸ್",
          "name:ko": "프랑스",
          "name:ks": "فرٛانس",
          "name:ku": "Fransa",
          "name:kv": "Франция",
          "name:kw": "Pow Frynk",
          "name:ky": "Франция",
          "name:la": "Francia",
          "name:lb": "Frankräich",
          "name:lg": "Bufalansa",
          "name:li": "Frankriek",
          "name:ln": "Falansia",
          "name:lo": "ປະເທດຝະລັ່ງ",
          "name:lt": "Prancūzija",
          "name:lv": "Francija",
          "name:mg": "Frantsa",
          "name:mi": "Wīwī",
          "name:mk": "Франција",
          "name:ml": "ഫ്രാൻസ്",
          "name:mn": "Франц",
          "name:mo": "Франца",
          "name:mr": "फ्रान्स",
          "name:ms": "Perancis",
          "name:mt": "Franza",
          "name:my": "ပြင်သစ်နိုင်ငံ",
          "name:na": "Prant",
          "name:ne": "फ्रान्स",
          "name:nl": "Frankrijk",
          "name:nn": "Frankrike",
          "name:no": "Frankrike",
          "name:nv": "Dáághahii Dineʼé Bikéyah",
          "name:oc": "França",
          "name:or": "ଫ୍ରାନ୍ସ",
          "name:os": "Франц",
          "name:pa": "ਫ੍ਰਾਂਸ",
          "name:pl": "Francja",
          "name:ps": "فرانسه",
          "name:pt": "França",
          "name:qu": "Ransiya",
          "name:rm": "Frantscha",
          "name:rn": "Francia",
          "name:ro": "Franța",
          "name:ru": "Франция",
          "name:rw": "Ubufaransa",
          "name:sa": "फ्रान्सदेशः",
          "name:sc": "Frantza",
          "name:se": "Frankriika",
          "name:sg": "Farânzi",
          "name:sh": "Francuska",
          "name:si": "ප්රංශය",
          "name:sk": "Francúzsko",
          "name:sl": "Francija",
          "name:sm": "Farani",
          "name:so": "Faransiiska",
          "name:sq": "Franca",
          "name:sr": "Француска",
          "name:ss": "IFulansi",
          "name:st": "Fora",
          "name:su": "Perancis",
          "name:sv": "Frankrike",
          "name:sw": "Ufaransa",
          "name:ta": "பிரான்சு",
          "name:te": "ఫ్రాన్స్",
          "name:tg": "Фаронса",
          "name:th": "ประเทศฝรั่งเศส",
          "name:ti": "ፈረንሳይ",
          "name:tk": "Fransiýa",
          "name:tl": "Pransiya",
          "name:to": "Falanisē",
          "name:tr": "Fransa",
          "name:tt": "Франция",
          "name:ty": "Farāni",
          "name:ug": "فرانسىيە",
          "name:uk": "Франція",
          "name:ur": "فرانس",
          "name:uz": "Fransiya",
          "name:vi": "Pháp",
          "name:vo": "Fransän",
          "name:wa": "France",
          "name:wo": "Faraas",
          "name:yi": "פראנקרייך",
          "name:yo": "Fránsì",
          "name:za": "Fazgoz",
          "name:zh": "法国/法國",
          "name:zu": "IFulansi",
          "boundary": "administrative",
          "currency": "EUR",
          "int_name": "France",
          "name:ace": "Peurancih",
          "name:ang": "Francland",
          "name:arc": "ܦܪܢܣܐ",
          "name:arz": "فرنسا",
          "name:ast": "Francia",
          "name:bar": "Frankreich",
          "name:bcl": "Pransya",
          "name:bjn": "Parancis",
          "name:bpy": "ফ্রান্স",
          "name:bug": "Perancis",
          "name:bxr": "Франци",
          "name:cdo": "Huák-guók",
          "name:ceb": "Pransiya",
          "name:chr": "ᎦᎸᏥᏱ",
          "name:chy": "France",
          "name:ckb": "فەڕەنسا",
          "name:crh": "Frenkistan",
          "name:csb": "Francëjô",
          "name:diq": "Fransa",
          "name:dsb": "Francojska",
          "name:eml": "Franza",
          "name:ext": "Fráncia",
          "name:frp": "France",
          "name:frr": "Frånkrik",
          "name:fur": "France",
          "name:gag": "Franțiya",
          "name:gan": "法國",
          "name:grc": "Γαλλία",
          "name:gsw": "Frankreich",
          "name:hak": "Fap-koet",
          "name:haw": "Palani",
          "name:hif": "France",
          "name:hsb": "Francoska",
          "name:ilo": "Pransia",
          "name:jbo": "fasygu'e'Eyn",
          "name:kaa": "Frantsiya",
          "name:kab": "Fransa",
          "name:kbd": "Фрэндж",
          "name:koi": "Франс",
          "name:krc": "Франция",
          "name:ksh": "Frankreich",
          "name:lad": "Fransia",
          "name:lez": "Франция",
          "name:lfn": "Frans",
          "name:lij": "Fransa",
          "name:lmo": "Frància",
          "name:ltg": "Praņceja",
          "name:lzh": "法國",
          "name:mdf": "Кранцмастор",
          "name:mhr": "Франций",
          "name:min": "Parancih",
          "name:mwl": "Fráncia",
          "name:myv": "Франция Мастор",
          "name:mzn": "فرانسه",
          "name:nah": "Francia",
          "name:nan": "Hoat-kok",
          "name:nap": "Franza",
          "name:nds": "Frankriek",
          "name:nov": "Fransia",
          "name:nrm": "France",
          "name:nso": "Fora",
          "name:pag": "Fransia",
          "name:pam": "Pransiya",
          "name:pap": "Fransia",
          "name:pcd": "Franche",
          "name:pdc": "Frankreich",
          "name:pfl": "Frongraisch",
          "name:pih": "France",
          "name:pms": "Fransa",
          "name:pnb": "فرانس",
          "name:pnt": "Γαλλία",
          "name:rmy": "Franchiya",
          "name:rue": "Франція",
          "name:sah": "Франция",
          "name:scn": "Francia",
          "name:sco": "Fraunce",
          "name:sje": "Frankrijjka",
          "name:smn": "Ránská",
          "name:sms": "Franskkjânnam",
          "name:srn": "Franskondre",
          "name:stq": "Frankriek",
          "name:szl": "Francyjŏ",
          "name:tet": "Fransa",
          "name:tok": "ma Kanse",
          "name:tpi": "Frens",
          "name:tzl": "França",
          "name:udm": "Франция",
          "name:vec": "Fransa",
          "name:vep": "Francii",
          "name:vls": "Vrankryk",
          "name:vro": "Prantsusmaa",
          "name:war": "Fransya",
          "name:wuu": "法国",
          "name:xal": "Пранцсин Орн",
          "name:xmf": "საფრანგეთი",
          "name:yue": "法國",
          "name:zea": "Frankriek",
          "way_area": "124.365",
          "wikidata": "Q142",
          "ISO3166-1": "FR",
          "wikipedia": "fr:France",
          "euro_const": "FR",
          "population": "67852556",
          "admin_level": "2",
          "alt_name:eo": "Francujo",
          "alt_name:zh": "法兰西/法蘭西",
          "border_type": "territorial",
          "name:nds-nl": "Frankriek",
          "name:bat-smg": "Prancūzėjė",
          "name:cbk-zam": "Francia",
          "name:zh-Hans": "法国",
          "name:zh-Hant": "法國",
          "name:roa-tara": "Frange",
          "official_name": "République française",
          "name:be-tarask": "Францыя",
          "name:zh_pinyin": "Fǎguó",
          "ISO3166-1:alpha2": "FR",
          "ISO3166-1:alpha3": "FRA",
          "alt_name:zh-Hans": "法兰西",
          "alt_name:zh-Hant": "法蘭西",
          "default_language": "fr",
          "official_name:ar": "الجمهورية الفرنسية",
          "official_name:be": "Рэспубліка Францыя",
          "official_name:br": "Republik Frañs",
          "official_name:ca": "República Francesa",
          "official_name:cs": "Francouzská republika",
          "official_name:el": "Γαλλική Δημοκρατία",
          "official_name:en": "French Republic",
          "official_name:eo": "Franca Respubliko",
          "official_name:es": "República francesa",
          "official_name:et": "Prantsuse Vabariik",
          "official_name:eu": "Frantziako Errepublika",
          "official_name:fa": "جمهوری فرانسه",
          "official_name:fr": "République française",
          "official_name:gd": "Poblachd na Frainge",
          "official_name:id": "Republik Perancis",
          "official_name:it": "Repubblica francese",
          "official_name:ku": "Komara Fransayê",
          "official_name:lb": "Franséisch Republik",
          "official_name:lt": "Prancūzijos Respublika",
          "official_name:mo": "Република Франчезэ",
          "official_name:nl": "Franse Republiek",
          "official_name:ps": "د فرانسې جمهوریت",
          "official_name:pt": "República Francesa",
          "official_name:ru": "Французская Республика",
          "official_name:sk": "Francúzska republika",
          "official_name:sl": "Francoska republika",
          "official_name:sr": "Република Француска",
          "official_name:sv": "Republiken Frankrike",
          "official_name:ug": "فرانسىيە جۇمھۇرىيىتى",
          "official_name:ur": "جمہوریہ فرانس",
          "official_name:uz": "Fransiya Respublikasi",
          "official_name:vi": "Cộng hòa Pháp",
          "official_name:zh": "法兰西共和国/法蘭西共和國",
          "ISO3166-1:numeric": "250",
          "official_name:azb": "فرانسه جومهوریتی",
          "official_name:ckb": "کۆماری فەڕەنسا",
          "official_name:vls": "Fransche Republik",
          "official_name:zh-Hans": "法兰西共和国",
          "official_name:zh-Hant": "法蘭西共和國",
          "official_name:be-tarask": "Рэспубліка Францыя"
        }
      },
      "geometry": {
        "type": "Polygon",
        "coordinates": [
          [
            [
              1.4652774666248316,
              51
            ],
            [
              2,
              51
            ],
            [
              2,
              51.21642906253351
            ],
            [
              1.9974067,
              51.2154827
            ],
            [
              1.987714,
              51.2115997
            ],
            [
              1.9690477,
              51.2031445
            ],
            [
              1.9545887,
              51.2037471
            ],
            [
              1.9446232,
              51.2038459
            ],
            [
              1.918147,
              51.2031493
            ],
            [
              1.8900335,
              51.2008846
            ],
            [
              1.7239442,
              51.0985805
            ],
            [
              1.5466944,
              51.03775
            ],
            [
              1.4652774666248316,
              51
            ]
          ]
        ]
      }
    },
    {
      "type": "Feature",
      "properties": {
        "osm_id": -62149,
        "boundary": "administrative",
        "admin_level": 2,
        "parents": null,
        "name": "United Kingdom",
        "local_name": "United Kingdom",
        "name_en": "United Kingdom",
        "all_tags": {
          "flag": "https://upload.wikimedia.org/wikipedia/commons/a/ae/Flag_of_the_United_Kingdom.svg",
          "name": "United Kingdom",
          "name:ab": "Британиа Ду",
          "name:af": "Verenigde Koninkryk",
          "name:ak": "United Kingdom",
          "name:am": "ዩናይትድ ኪንግደም",
          "name:an": "Reino Unito",
          "name:ar": "المملكة المتحدة",
          "name:as": "যুক্তৰাজ্য",
          "name:av": "Кӏудабиритан",
          "name:az": "Böyük Britaniya",
          "name:ba": "Бөйөк Британия",
          "name:be": "Вялікабрытанія",
          "name:bg": "Обединено кралство Великобритания и Северна Ирландия",
          "name:bh": "यूनाइटेड किंगडम",
          "name:bi": "Unaeted Kingdom",
          "name:bn": "যুক্তরাজ্য",
          "name:bo": "དབྱིན་ཇི་མཉམ་འབྲེལ།",
          "name:br": "Rouantelezh-Unanet",
          "name:bs": "Ujedinjeno Kraljevstvo Velike Britanije i Sjeverne Irske",
          "name:ca": "Regne Unit",
          "name:ce": "Йоккха Британи",
          "name:ch": "Reinu Unidu",
          "name:co": "Regnu Unitu",
          "name:cs": "Spojené království",
          "name:cu": "Вєлика Британїꙗ",
          "name:cv": "Аслă Британи",
          "name:cy": "Deyrnas Unedig",
          "name:da": "Storbritannien",
          "name:de": "Vereinigtes Königreich",
          "name:dv": "ޔުނައިޓެޑް ކިންގްޑަމް",
          "name:dz": "ཡུ་ནའི་ཊེཊ་ཀིང་ཌམ",
          "name:ee": "United Kingdom",
          "name:el": "Ηνωμένο Βασίλειο",
          "name:en": "United Kingdom",
          "name:eo": "Unuiĝinta Reĝlando",
          "name:es": "Reino Unido",
          "name:et": "Suurbritannia",
          "name:eu": "Erresuma Batua",
          "name:fa": "بریتانیا",
          "name:ff": "Biritaani-Mawndi",
          "name:fi": "Yhdistynyt kuningaskunta",
          "name:fj": "Matanitu Cokovata",
          "name:fo": "Stóra Bretland",
          "name:fr": "Royaume-Uni",
          "name:fy": "Feriene Keninkryk",
          "name:ga": "An Ríocht Aontaithe",
          "name:gd": "An Rìoghachd Aonaichte",
          "name:gl": "Reino Unido",
          "name:gn": "Tavetã Joaju",
          "name:gu": "યુનાઇટેડ કિંગડમ",
          "name:gv": "Reeriaght Unnaneysit",
          "name:ha": "Birtaniya",
          "name:he": "הממלכה המאוחדת",
          "name:hi": "यूनाइटेड किंगडम",
          "name:hr": "Ujedinjeno Kraljevstvo",
          "name:ht": "Wayòm Ini",
          "name:hu": "Egyesült Királyság",
          "name:hy": "Միացյալ Թագավորություն",
          "name:ia": "Regno Unite",
          "name:id": "Britania Raya",
          "name:ie": "Reyatu Unit",
          "name:ig": "Obodoézè Nà Ofú",
          "name:ik": "Tannapta Umialgutia",
          "name:io": "Unionita Rejio",
          "name:is": "Bretland",
          "name:it": "Regno Unito",
          "name:iu": "ᑐᓗᐃᑦ ᓄᓈᑦ",
          "name:ja": "イギリス",
          "name:jv": "Britania Raya",
          "name:ka": "გაერთიანებული სამეფო",
          "name:kg": "Royaume-Uni",
          "name:ki": "United Kingdom",
          "name:kk": "Ұлыбритания",
          "name:kl": "Tuluit Nunaat",
          "name:km": "រាជាណាចក្ររួម",
          "name:kn": "ಯುನೈಟೆಡ್ ಕಿಂಗ್‌ಡಂ",
          "name:ko": "영국",
          "name:ku": "Keyaniya Yekbûyî",
          "name:kv": "Ыджыд Британия",
          "name:kw": "Ruvaneth Unys",
          "name:ky": "Улуу Британия жана Түндүк Ирландия",
          "name:la": "Britanniarum Regnum",
          "name:lb": "Groussbritannien an Nordirland",
          "name:li": "Vereineg Keuninkriek",
          "name:ln": "Ingɛlɛ́tɛlɛ",
          "name:lo": "ສະຫະຣາຊອານາຈັກ",
          "name:lt": "Jungtinė Karalystė",
          "name:lv": "Apvienotā Karaliste",
          "name:mg": "Fanjakana Mitambatra",
          "name:mi": "Kīngitanga Kotahi",
          "name:mk": "Обединето Кралство",
          "name:ml": "യുണൈറ്റഡ് കിങ്ഡം",
          "name:mn": "Их Британи",
          "name:mr": "युनायटेड किंग्डम",
          "name:ms": "United Kingdom",
          "name:mt": "Renju Unit",
          "name:my": "ယူနိုက်တက်ကင်းဒမ်းနိုင်ငံ",
          "name:na": "Ingerand",
          "name:ne": "संयुक्त अधिराज्य",
          "name:nl": "Verenigd Koninkrijk",
          "name:nn": "Storbritannia",
          "name:no": "Storbritannia",
          "name:nv": "Tótaʼ Dineʼé Bikéyah",
          "name:ny": "United Kingdom",
          "name:oc": "Reialme Unit",
          "name:om": "Yunaayitid Kingidem",
          "name:or": "ଯୁକ୍ତରାଜ୍ୟ",
          "name:os": "Стыр Британи",
          "name:pa": "ਸੰਯੁਕਤ ਬਾਦਸ਼ਾਹੀ",
          "name:pl": "Wielka Brytania",
          "name:ps": "بريتانيا",
          "name:pt": "Reino Unido",
          "name:qu": "Hukllachasqa Qhapaq Suyu",
          "name:rm": "Reginavel Unì",
          "name:ro": "Regatul Unit al Marii Britanii și al Irlandei de Nord",
          "name:ru": "Великобритания",
          "name:rw": "Ubwongereza",
          "name:sa": "संयुक्त अधिराज्य",
          "name:sc": "Rennu Auniadu",
          "name:sd": "گڏيل بادشاھت",
          "name:se": "Ovttastuvvan gonagasriika",
          "name:sh": "Ujedinjeno Kraljevstvo",
          "name:si": "එක්සත් රාජධානිය",
          "name:sk": "Spojené kráľovstvo",
          "name:sl": "Združeno kraljestvo",
          "name:sm": "Peretānia",
          "name:sn": "United Kingdom",
          "name:so": "Midowga boqortooyada Britan",
          "name:sq": "Mbretëria e Bashkuar e Britanisë dhe Irlandës së Veriut",
          "name:sr": "Уједињено Краљевство",
          "name:ss": "United Kingdom",
          "name:su": "Britania",
          "name:sv": "Storbritannien",
          "name:sw": "Ufalme wa Muungano",
          "name:ta": "ஐக்கிய இராச்சியம்",
          "name:te": "యునైటెడ్ కింగ్‌డమ్",
          "name:tg": "Подшоҳии Муттаҳида",
          "name:th": "สหราชอาณาจักร",
          "name:tk": "Birleşen Patyşalyk",
          "name:tl": "Nagkakaisang Kaharian",
          "name:to": "Pilitānia",
          "name:tr": "Birleşik Krallık",
          "name:ts": "United Kingdom",
          "name:tt": "Бөекбритания",
          "name:tw": "United Kingdom",
          "name:ty": "Paratāne",
          "name:ug": "بۈيۈك بېرىتانىيە",
          "name:uk": "Велика Британія",
          "name:ur": "برطانیہ",
          "name:uz": "Birlashgan Qirollik",
          "name:vi": "Vương quốc Anh",
          "name:vo": "Regän Pebalöl",
          "name:wa": "Rweyåme-Uni",
          "name:wo": "Nguur-Yu-Bennoo",
          "name:yi": "פאראייניגטע קעניגרייך",
          "name:yo": "Ilẹ̀ọba Aṣọ̀kan",
          "name:za": "Yinghgoz",
          "name:zh": "英国 / 英國",
          "name:zu": "Umbuso Ohlangeneyo",
          "ref:gss": "K02000001",
          "boundary": "administrative",
          "currency": "GBP",
          "int_name": "United Kingdom",
          "name:ace": "Keurajeuën Inggréh",
          "name:ady": "Британиешхо Пачъыхьыгъо",
          "name:als": "Vereinigtes Königreich",
          "name:ang": "Geāned Cynerīce",
          "name:arc": "ܡܠܟܘܬܐ ܡܚܝܕܬܐ",
          "name:ary": "لمملكة لمتحدة",
          "name:arz": "المملكه المتحده",
          "name:ast": "Reinu Xuníu",
          "name:avk": "Tanaragazaxo",
          "name:awa": "यूनाइटेड किंगडम",
          "name:azb": "بیرلشمیش شاهلیق",
          "name:ban": "Britania Agung",
          "name:bar": "Vaeinigts Kinireich",
          "name:bcl": "Reyno Unido",
          "name:bjn": "Britania Raya",
          "name:bpy": "তিলপারাজ্য",
          "name:bug": "United Kingdom",
          "name:bxr": "Нэгдсэн Вант Улс",
          "name:cdo": "Ĭng-guók",
          "name:ceb": "Hiniusang Gingharian",
          "name:chr": "ᎡᎵᏏᎯ",
          "name:chy": "United Kingdom",
          "name:ckb": "شانشینی یەکگرتوو",
          "name:crh": "Büyük Britaniya",
          "name:csb": "Wiôlgô Britanijô",
          "name:din": "Amatnhom Mäcŋaknhom",
          "name:diq": "Qraliya Yewbiyayiye",
          "name:dsb": "Wjelika Britaniska",
          "name:dty": "संयुक्त अधिराज्य",
          "name:eml": "Régn Unî",
          "name:ext": "Réinu Uniu",
          "name:frp": "Royômo-Uni",
          "name:frr": "Feriind Kiningrik",
          "name:fur": "Ream Unît",
          "name:gag": "Büük Britaniya",
          "name:gan": "英國",
          "name:gcr": "Rwéyonm-Ini",
          "name:gom": "युनायटेड किंगडम",
          "name:hak": "Yîn-koet",
          "name:haw": "Aupuni Mōʻī Hui Pū ʻia",
          "name:hif": "United Kingdom",
          "name:hsb": "Zjednoćene kralestwo",
          "name:ilo": "Nagkaykaysa a Pagarian",
          "name:inh": "Великобритани",
          "name:jam": "Yunaitid Kindom",
          "name:jbo": "ritygu'e",
          "name:kaa": "Ullı Britaniya",
          "name:kab": "Legliz",
          "name:kbd": "Британиэшхуэ",
          "name:koi": "Ыджыт Бритму",
          "name:krc": "Уллу Британия",
          "name:ksh": "Jrußbritannie",
          "name:lad": "Reyno Unido",
          "name:lez": "ЧIехибритания",
          "name:lij": "Regno Unïo",
          "name:lmo": "Regn Ünì",
          "name:ltg": "Lelbrytaneja",
          "name:lzh": "英國",
          "name:mad": "Britania Raya",
          "name:mai": "संयुक्त अधिराज्य",
          "name:mdf": "Оцю Британия",
          "name:mhr": "Ушымо Королевстве",
          "name:min": "Baritania Rayo",
          "name:mni": "ꯌꯨꯅꯥꯢꯇꯦꯗ ꯀꯤꯡꯗꯝ",
          "name:mrj": "Кого Британи",
          "name:mwl": "Reino Ounido",
          "name:myv": "Инебритания Мастор",
          "name:mzn": "بریتانیا",
          "name:nah": "Tlacetilīlli Huēyitlahtohcāyōtl",
          "name:nan": "Liân-ha̍p Ông-kok",
          "name:nap": "Gran Vretagna",
          "name:nds": "Vereenigt Königriek vun Grootbritannien un Noordirland",
          "name:new": "संयुक्त अधिराज्य",
          "name:nov": "Unionati Regia",
          "name:nqo": "ߡߊ߲߬ߛߊ߬ߟߊ߫ ߘߍ߬ߣߍ߲",
          "name:nrm": "Rouoyaume Unni",
          "name:nso": "United Kingdom",
          "name:pag": "Reino Unido",
          "name:pam": "Pisanmetung a Ka-arian",
          "name:pap": "Reino Uni",
          "name:pcd": "Roéyôme-Uni",
          "name:pih": "Yunitid Kingdum",
          "name:pms": "Regn Unì",
          "name:pnb": "برطانیہ",
          "name:pnt": "Ηνωμένο Βασίλειο",
          "name:rmy": "Phandlo Thagaripen la Bare Britaniyako thai le Nordutne Irlandesko",
          "name:rue": "Велика Брітанія",
          "name:sah": "Холбоhуктаах Хоруоллук",
          "name:sat": "ᱥᱮᱞᱮᱫ ᱫᱤᱥᱚᱢ",
          "name:scn": "Regnu Unitu",
          "name:sco": "Unitit Kinrick",
          "name:shi": "Briṭanya",
          "name:shn": "မိူင်းႁူမ်ႈတုမ်ႁေႃၶမ်း ပရိတ်ႈတဵၼ်ႇ",
          "name:skr": "برطانیہ",
          "name:smn": "Ovtâstum kunâgâskodde",
          "name:sms": "Õhttõõvvâm koonǥõskåʹdd",
          "name:srn": "Ingriskondre",
          "name:stq": "Fereeniged Köönichriek fon Groot-Britannien un Noudirlound",
          "name:szl": "Wielgŏ Brytanijŏ",
          "name:tcy": "ಯುನೈಟೆಡ್ ಕಿಂಗ್ಡಮ್",
          "name:tet": "Reinu Naklibur",
          "name:tok": "ma Juke",
          "name:tpi": "Yunaitet Kingdom",
          "name:trv": "United Kingdom",
          "name:tzl": "Regipäts Viensiçat",
          "name:udm": "Великобритания",
          "name:vec": "Regno Unìo",
          "name:vep": "Sur' Britanii",
          "name:vls": "Verênigd Keunienkryk",
          "name:vro": "Ütiskuningriik",
          "name:war": "Reino Unido",
          "name:wuu": "英国",
          "name:xal": "Ик Бритишин болн Ар Гәәлгүдин Ниицәтә Нутг",
          "name:xmf": "გოართოიანაფილი ომაფე",
          "name:yue": "英國",
          "name:zea": "Vereênigd Konienkriek",
          "timezone": "Europe/London",
          "way_area": "56.5151",
          "wikidata": "Q145",
          "ISO3166-1": "GB",
          "wikipedia": "en:United Kingdom",
          "short_name": "UK",
          "admin_level": "2",
          "alt_name:be": "Вялікая Брытанія;Брытанія;Злучанае Каралеўства",
          "alt_name:eo": "Britio;Britujo",
          "name:nds-nl": "Verienigd Keuninkriek",
          "native_name": "United Kingdom of Great Britain and Northern Ireland",
          "driving_side": "left",
          "name:bat-smg": "Jongtėnė Karalīstė",
          "name:cbk-zam": "Reinos Unidos de Gran Britania y Norte Irelandia",
          "name:roa-rup": "Britania Mari",
          "name:zh-Hans": "英国",
          "name:zh-Hant": "英國",
          "name:roa-tara": "Regne Aunìte",
          "official_name": "United Kingdom of Great Britain and Northern Ireland",
          "short_name:el": "ΗΒ",
          "short_name:fr": "RU",
          "short_name:nl": "VK",
          "short_name:vo": "Britän",
          "short_name:wa": "RU",
          "name:be-tarask": "Вялікабрытанія",
          "native_name:da": "Det Forenede Kongerige Storbritannien og Nordirland",
          "native_name:es": "Reino Unido de Gran Bretaña e Irlanda del Norte",
          "native_name:vi": "Vương quốc Liên hiệp Anh và Bắc Ireland",
          "short_name:pcd": "RU",
          "short_name:vls": "VK",
          "ISO3166-1:alpha2": "GB",
          "ISO3166-1:alpha3": "GBR",
          "official_name:be": "Злучанае Каралеўства Вялікабрытаніі і Паўночнай Ірландыі",
          "official_name:ca": "Regne Unit de Gran Bretanya i Irlanda del Nord",
          "official_name:cs": "Spojené království Velké Británie a Severního Irska",
          "official_name:de": "Vereinigtes Königreich Großbritannien und Nordirland",
          "official_name:el": "Ηνωμένο Βασίλειο της Μεγάλης Βρετανίας και της Βόρειας Ιρλανδίας",
          "official_name:en": "United Kingdom of Great Britain and Northern Ireland",
          "official_name:eo": "Unuiĝinta Reĝlando de Granda Britio kaj Nord-Irlando",
          "official_name:fr": "Royaume-Uni de Grande-Bretagne et d'Irlande du Nord",
          "official_name:hr": "Ujedinjeno Kraljevstvo Velike Britanije i Sjeverne Irske",
          "official_name:is": "Sameinaða konungsveldi Stóra-Bretlands og Norður-Írlands",
          "official_name:it": "Regno Unito di Gran Bretagna e Irlanda del Nord",
          "official_name:la": "Coniunctum Britanniae Maioris et Hiberniae Septentrionalis Regnum",
          "official_name:nl": "Verenigd Koninkrijk van Groot-Brittannië en Noord-Ierland",
          "official_name:pl": "Zjednoczone Królestwo Wielkiej Brytanii i Irlandii Północnej",
          "official_name:ru": "Соединённое королевство Великобритании и Северной Ирландии",
          "official_name:sk": "Spojené kráľovstvo Veľkej Británie a Severného Írska",
          "official_name:sl": "Združeno kraljestvo Velike Britanije in Severne Irske",
          "official_name:wa": "Roéyôme-uni éd Grande-Bretagne pi d'Irlinde-du-Nord",
          "official_name:zh": "大不列顛暨北愛爾蘭聯合王國/大不列颠及北爱尔兰联合王国",
          "ISO3166-1:numeric": "826",
          "official_name:din": "Amatnhom Mäcŋaknhom në Britain Dït ku Parut Ireland",
          "official_name:pcd": "Rweyåme-Uni di Grande Burtaegne et d' Irlande do Nôr",
          "official_name:vls": "Verênigd Keunienkryk van Grôot-Brittannië en Nôord-Ierland",
          "official_name:zh-Hans": "大不列颠及北爱尔兰联合王国",
          "official_name:zh-Hant": "大不列顛暨北愛爾蘭聯合王國"
        }
      },
      "geometry": {
        "type": "Polygon",
        "coordinates": [
          [
            [
              1,
              51
            ],
            [
              1.4652774666248316,
              51
            ],
            [
              1.5466944,
              51.03775
            ],
            [
              1.7239442,
              51.0985805
            ],
            [
              1.8875556,
              51.1993611
            ],
            [
              1.732551,
              51.265
            ],
            [
              1.7375708,
              51.272
            ],
            [
              1.7426948,
              51.28
            ],
            [
              1.7466668,
              51.287
            ],
            [
              1.7506462,
              51.295
            ],
            [
              1.7540498,
              51.303
            ],
            [
              1.7593731,
              51.317
            ],
            [
              1.7613389,
              51.323
            ],
            [
              1.7660639,
              51.339
            ],
            [
              1.7683356,
              51.349
            ],
            [
              1.7698104,
              51.357
            ],
            [
              1.7708022,
              51.365
            ],
            [
              1.7712872,
              51.373
            ],
            [
              1.7713152,
              51.381
            ],
            [
              1.77083,
              51.389
            ],
            [
              1.769829,
              51.397
            ],
            [
              1.768307,
              51.405
            ],
            [
              1.7662563,
              51.413
            ],
            [
              1.7636661,
              51.421
            ],
            [
              1.7605226,
              51.429
            ],
            [
              1.7563031,
              51.438
            ],
            [
              1.7513305,
              51.447
            ],
            [
              1.742019,
              51.462
            ],
            [
              1.737322,
              51.469
            ],
            [
              1.7328871,
              51.475
            ],
            [
              1.7272107,
              51.482
            ],
            [
              1.7209615,
              51.489
            ],
            [
              1.7140994,
              51.496
            ],
            [
              1.7065763,
              51.503
            ],
            [
              1.6983331,
              51.51
            ],
            [
              1.6906398,
              51.516
            ],
            [
              1.6823078,
              51.522
            ],
            [
              1.6732673,
              51.528
            ],
            [
              1.6651297,
              51.533
            ],
            [
              1.656376,
              51.538
            ],
            [
              1.6469265,
              51.543
            ],
            [
              1.6387979,
              51.547
            ],
            [
              1.6300921,
              51.551
            ],
            [
              1.6207236,
              51.555
            ],
            [
              1.6105807,
              51.559
            ],
            [
              1.5995117,
              51.563
            ],
            [
              1.5904767,
              51.566
            ],
            [
              1.5681435,
              51.573
            ],
            [
              1.5577354,
              51.576
            ],
            [
              1.5462174,
              51.579
            ],
            [
              1.5332252,
              51.582
            ],
            [
              1.5234505,
              51.584
            ],
            [
              1.5124286,
              51.586
            ],
            [
              1.4995852,
              51.588
            ],
            [
              1.4836713,
              51.59
            ],
            [
              1.4735907,
              51.591
            ],
            [
              1.4604337,
              51.592
            ],
            [
              1.4321584,
              51.593
            ],
            [
              1.3809251,
              51.593
            ],
            [
              1.3526499,
              51.592
            ],
            [
              1.3394928,
              51.591
            ],
            [
              1.3209386,
              51.589
            ],
            [
              1.3067958,
              51.587
            ],
            [
              1.2881551,
              51.584
            ],
            [
              1.2852703,
              51.584
            ],
            [
              1.2879965,
              51.592
            ],
            [
              1.2904154,
              51.601
            ],
            [
              1.2912085,
              51.602
            ],
            [
              1.3023444,
              51.606
            ],
            [
              1.3125517,
              51.61
            ],
            [
              1.329133,
              51.617
            ],
            [
              1.3399985,
              51.622
            ],
            [
              1.3426559,
              51.623
            ],
            [
              1.3640791,
              51.63
            ],
            [
              1.375142,
              51.634
            ],
            [
              1.3828802,
              51.637
            ],
            [
              1.4042939,
              51.646
            ],
            [
              1.4174599,
              51.652
            ],
            [
              1.4332619,
              51.66
            ],
            [
              1.4500418,
              51.669
            ],
            [
              1.4622304,
              51.676
            ],
            [
              1.4747488,
              51.684
            ],
            [
              1.4888121,
              51.691
            ],
            [
              1.4998246,
              51.697
            ],
            [
              1.5066392,
              51.701
            ],
            [
              1.5146294,
              51.706
            ],
            [
              1.5206356,
              51.71
            ],
            [
              1.527702,
              51.715
            ],
            [
              1.534316,
              51.72
            ],
            [
              1.5417037,
              51.726
            ],
            [
              1.548539,
              51.732
            ],
            [
              1.554863,
              51.738
            ],
            [
              1.5607102,
              51.744
            ],
            [
              1.5661098,
              51.75
            ],
            [
              1.5710866,
              51.756
            ],
            [
              1.5763868,
              51.763
            ],
            [
              1.579854,
              51.768
            ],
            [
              1.5836787,
              51.774
            ],
            [
              1.5865951,
              51.779
            ],
            [
              1.5897802,
              51.785
            ],
            [
              1.594381,
              51.795
            ],
            [
              1.5987334,
              51.803
            ],
            [
              1.602111,
              51.81
            ],
            [
              1.6054824,
              51.818
            ],
            [
              1.609323,
              51.829
            ],
            [
              1.6100695,
              51.83
            ],
            [
              1.6213351,
              51.838
            ],
            [
              1.6315044,
              51.846
            ],
            [
              1.6456619,
              51.854
            ],
            [
              1.6555985,
              51.86
            ],
            [
              1.6648929,
              51.866
            ],
            [
              1.6750346,
              51.873
            ],
            [
              1.6831419,
              51.879
            ],
            [
              1.6906531,
              51.885
            ],
            [
              1.6976046,
              51.891
            ],
            [
              1.7074721,
              51.9
            ],
            [
              1.7257834,
              51.906
            ],
            [
              1.7369948,
              51.91
            ],
            [
              1.7573754,
              51.918
            ],
            [
              1.7711062,
              51.924
            ],
            [
              1.7854501,
              51.931
            ],
            [
              1.7984689,
              51.938
            ],
            [
              1.8102075,
              51.945
            ],
            [
              1.8224177,
              51.953
            ],
            [
              1.8334177,
              51.961
            ],
            [
              1.8433236,
              51.969
            ],
            [
              1.853401,
              51.978
            ],
            [
              1.8614495,
              51.986
            ],
            [
              1.8695405,
              51.995
            ],
            [
              1.8735122272727283,
              52
            ],
            [
              1,
              52
            ],
            [
              1,
              51
            ]
          ]
        ]
      }
    }
  ]
}