{
  "type": "FeatureCollection",
  "features": [
    {
      "type": "Feature",
      "properties": {
        "osm_id": -270056,
        "boundary": "administrative",
        "admin_level": 2,
        "parents": null,
        "name": "China",
        "local_name": "ä¸­å›½",
        "name_en": "China",
        "all_tags": {
          "flag": "http://upload.wikimedia.org/wikipedia/commons/f/fa/Flag_of_the_People%27s_Republic_of_China.svg",
          "name": "ä¸­å›½",
          "name:aa": "China",
          "name:ab": "Ğ§Ñ‹Ğ½Ò­",
          "name:af": "China",
          "name:ak": "China",
          "name:am": "á‹¨á‰»á‹­áŠ“",
          "name:an": "China",
          "name:ar": "Ø§Ù„ØµÙŠÙ†",
          "name:as": "à¦šà§€à¦¨",
          "name:av": "Ğ§Ğ¸Ğ½",
          "name:ay": "China",
          "name:az": "Ã‡in",
          "name:ba": "Ò Ñ‹Ñ‚Ğ°Ğ¹",
          "name:be": "ĞšÑ–Ñ‚Ğ°Ğ¹",
          "name:bg": "ĞšĞ¸Ñ‚Ğ°Ğ¹",
          "name:bh": "à¤šà¥€à¤¨",
          "name:bi": "Jaena",
          "name:bm": "China",
          "name:bn": "à¦—à¦£à¦šà§€à¦¨",
          "name:bo": "à½€à¾²à½´à½„à¼‹à½‚à½¼à¼",
          "name:br": "Sina",
          "name:bs": "Kina",
          "name:ca": "Xina",
          "name:ce": "Ğ¦Ğ¸Ğ¹Ğ½-Ğ¼Ğ¾Ñ…Ğº",
          "name:ch": "China",
          "name:co": "China",
          "name:cs": "ÄŒÃ­na",
          "name:cu": "Ğ¡Ñ€Ñ£Ğ´Ğ¸Ğ½ê™—Ğ½Ñ”",
          "name:cv": "ĞšĞ¸Ñ‚Ğ°Ğ¹",
          "name:cy": "Tsieina",
          "name:da": "Kina",
          "name:de": "China",
          "name:dv": "ŞŞ©Ş‚ŞªŞ†Ş¦ŞƒŞ¦",
          "name:dz": "à½¢à¾’à¾±à¼‹à½“à½‚",
          "name:ee": "China",
          "name:el": "ÎšÎ¯Î½Î±",
          "name:en": "China",
          "name:eo": "Äˆinio",
          "name:es": "China",
          "name:et": "Hiina",
          "name:eu": "Txina",
          "name:fa": "Ú†ÛŒÙ†",
          "name:ff": "Ciina",
          "name:fi": "Kiina",
          "name:fj": "Jaina",
          "name:fo": "Kina",
          "name:fr": "Chine",
          "name:fy": "Sina",
          "name:ga": "SÃ­ne",
          "name:gd": "SÃ¬ona",
          "name:gl": "China",
          "name:gn": "ChÃ­na",
          "name:gu": "àªšà«€àª¨",
          "name:gv": "Sheen",
          "name:ha": "Sin",
          "name:he": "×¡×™×Ÿ",
          "name:hi": "à¤šà¥€à¤¨à¥€",
          "name:hr": "Kina",
          "name:ht": "Chin",
          "name:hu": "KÃ­na",
          "name:hy": "Õ‰Õ«Õ¶Õ¡Õ½Õ¿Õ¡Õ¶",
          "name:ia": "China",
          "name:id": "Tiongkok",
          "name:ie": "China",
          "name:ig": "Chaina",
          "name:ii": "êê‡©",
          "name:ik": "China",
          "name:io": "Chinia",
          "name:is": "KÃ­na",
          "name:it": "Cina",
          "name:iu": "á“´áƒá“‡",
          "name:ja": "ä¸­å›½",
          "name:jv": "Cina",
          "name:ka": "áƒ©áƒ˜áƒœáƒ”áƒ—áƒ˜",
          "name:kg": "Sina",
          "name:ki": "China",
          "name:kk": "ÒšÑ‹Ñ‚Ğ°Ğ¹",
          "name:kl": "Kina",
          "name:km": "á…á·á“",
          "name:kn": "à²šà³€à²¨à²¿",
          "name:ko": "ì¤‘êµ­",
          "name:ks": "Ú†ÛŒÙ–Ù†",
          "name:ku": "Ã‡Ã®n",
          "name:kv": "ĞšĞ¸Ñ‚Ğ°Ğ¹",
          "name:kw": "China",
          "name:ky": "ĞšÑ‹Ñ‚Ğ°Ğ¹",
          "name:la": "Sinae",
          "name:lb": "China",
          "name:lg": "Cayina",
          "name:li": "China",
          "name:ln": "SÃ­na",
          "name:lo": "àº›àº°à»€àº—àº”àºˆàºµàº™",
          "name:lt": "Kinija",
          "name:lv": "Ä¶Ä«na",
          "name:mg": "Sina",
          "name:mi": "Haina",
          "name:mk": "ĞšĞ¸Ğ½Ğ°",
          "name:ml": "à´šàµ€à´¨",
          "name:mn": "Ğ¥ÑÑ‚Ğ°Ğ´",
          "name:mr": "à¤šà¥€à¤¨",
          "name:ms": "China",
          "name:mt": "ÄŠina",
          "name:my": "á€á€›á€¯á€á€º",
          "name:na": "Tsiene",
          "name:nb": "Kina",
          "name:ne": "à¤šà¥€à¤¨",
          "name:nl": "China",
          "name:nn": "Kina",
          "name:no": "Kina",
          "name:nv": "TsiiÊ¼yishbizhÃ­ DineÊ¼Ã© BikÃ©yah",
          "name:ny": "China",
          "name:oc": "China",
          "name:om": "Chaayinaan",
          "name:or": "à¬šà­€à¬¨",
          "name:os": "ĞšĞ¸Ñ‚Ğ°Ğ¹",
          "name:pa": "à¨šà©€à¨¨",
          "name:pl": "Chiny",
          "name:ps": "Ú†ÙŠÙ†",
          "name:pt": "China",
          "name:qu": "Chunkuk",
          "name:rm": "China",
          "name:rn": "Ubushinwa",
          "name:ro": "China",
          "name:ru": "ĞšĞ¸Ñ‚Ğ°Ğ¹",
          "name:rw": "Ubushinwa",
          "name:sc": "Cina",
          "name:sd": "Ú†ÙŠÙ†",
          "name:se": "KiinnÃ¡",
          "name:sg": "SÃ®nÃ¤",
          "name:sh": "Kina",
          "name:si": "à¶ à·“à¶±à¶º",
          "name:sk": "ÄŒÃ­na",
          "name:sl": "KitÃ¡jska",
          "name:sm": "Saina",
          "name:sn": "China",
          "name:so": "Shiinaha",
          "name:sq": "Kina",
          "name:sr": "ĞšĞ¸Ğ½Ğ°",
          "name:ss": "iShayina",
          "name:st": "Tjhaena",
          "name:su": "Tiongkok",
          "name:sv": "Kina",
          "name:sw": "China",
          "name:ta": "à®šà¯€à®©à®¾",
          "name:te": "à°šà±ˆà°¨à°¾",
          "name:tg": "Ğ¥Ğ¸Ñ‚Ğ¾ÌĞ¹",
          "name:th": "à¸›à¸£à¸°à¹€à¸—à¸¨à¸ˆà¸µà¸™",
          "name:ti": "á‹¨á‰»á‹­áŠ“",
          "name:tk": "HytaÃ½",
          "name:tl": "Tsina",
          "name:tn": "China",
          "name:to": "Siaina",
          "name:tr": "Ã‡in",
          "name:ts": "Chayina",
          "name:tt": "ĞšÑ‹Ñ‚Ğ°Ğ¹",
          "name:tw": "China",
          "name:ty": "TinitÅ",
          "name:ug": "Ø¬Û‡Ú­Ø®Û‡Ø§ Ø®Û•Ù„Ù‚ Ø¬Û‡Ù…Ú¾Û‡Ø±Ù‰ÙŠÙ‰ØªÙ‰",
          "name:uk": "ĞšĞ¸Ñ‚Ğ°Ğ¹",
          "name:ur": "Ú†ÛŒÙ†",
          "name:uz": "Xitoy",
          "name:ve": "China",
          "name:vi": "Trung Quá»‘c",
          "name:vo": "TsyinÃ¤n",
          "name:wo": "Siin",
          "name:xh": "IShayina",
          "name:yi": "×›×™× ×¢",
          "name:yo": "á¹¢Ã¡Ã­nÃ ",
          "name:za": "Cunghgoz",
          "name:zh": "ä¸­å›½",
          "name:zu": "IShayina",
          "website": "https://www.gov.cn",
          "boundary": "administrative",
          "int_name": "China",
          "name:ace": "Cina",
          "name:ady": "ĞšĞ¸Ñ‚Ğ°Ğ¹",
          "name:als": "China",
          "name:ang": "CÄ«na",
          "name:arc": "Ü•Ü¨ÜÜ¢",
          "name:arz": "Ø§Ù„ØµÙŠÙ†",
          "name:ast": "China",
          "name:azb": "Ú†ÛŒÙ†",
          "name:bar": "Kina",
          "name:bcl": "Tsina",
          "name:bjn": "Cina",
          "name:bpy": "à¦—à¦£à¦šà§€à¦¨",
          "name:bxr": "Ğ¥Ğ¸Ñ‚Ğ°Ğ´ Ğ£Ğ»Ğ°Ñ",
          "name:cal": "Siila",
          "name:ceb": "Tsina",
          "name:chr": "á¥á¾",
          "name:chy": "China",
          "name:ckb": "Ú†ÛŒÙ†",
          "name:crh": "Ã‡in",
          "name:csb": "ChiÅ„skÃ´ LÃ«dowÃ´ RepÃ¹blika",
          "name:diq": "Ã‡in",
          "name:dsb": "Chinska",
          "name:dty": "à¤šà¥€à¤¨",
          "name:eml": "Cina",
          "name:ext": "China",
          "name:frp": "ChÂ·ina",
          "name:frr": "Sina",
          "name:fur": "Cine",
          "name:gag": "Kitay",
          "name:gan": "ä¸­åœ‹",
          "name:gom": "à¤šà¥€à¤¨",
          "name:hak": "ChÃ»ng-fÃ ",
          "name:haw": "Kina",
          "name:hif": "China",
          "name:hsb": "China",
          "name:ilo": "TsÃ­na",
          "name:jam": "Chaina",
          "name:jbo": "jugygu'e",
          "name:kaa": "QÄ±tay",
          "name:kab": "Ccinwa",
          "name:kbd": "Ğ¥ÑŠÑƒÑ‚ĞµĞ¹",
          "name:kbp": "Siini",
          "name:koi": "ĞšĞ¸Ğ½Ğ°",
          "name:krc": "ĞšÑŠÑ‹Ñ‚Ğ°Ğ¹",
          "name:ksh": "Schiina",
          "name:lad": "Kina",
          "name:lez": "ĞšĞ¸Ñ‚Ğ°Ğ¹",
          "name:lmo": "Cina",
          "name:lrc": "Ú†ÛŒÙ†",
          "name:lzh": "ä¸­åœ‹",
          "name:mai": "à¤šà¥€à¤¨",
          "name:mdf": "ĞšĞ¸Ñ‚Ğ°Ğ¹",
          "name:mhr": "ĞšĞ¸Ñ‚Ğ°Ğ¹",
          "name:min": "Cino",
          "name:mwl": "China",
          "name:myv": "ĞšĞ¸Ñ‚Ğ°Ğ¹",
          "name:mzn": "Ú†ÛŒÙ†",
          "name:nah": "China",
          "name:nan": "Tiong-kok",
          "name:nap": "Cina",
          "name:nds": "Kina",
          "name:new": "à¤šà¥€à¤¨",
          "name:nov": "China",
          "name:nrm": "Chinne",
          "name:nso": "TÅ¡haena",
          "name:olo": "Kitai",
          "name:pag": "Jhina",
          "name:pam": "Tsina",
          "name:pap": "ZhÅngguÃ³",
          "name:pcd": "Kine",
          "name:pih": "Shiina",
          "name:pms": "Cin-a",
          "name:pnb": "Ú†ÛŒÙ†",
          "name:pnt": "ÎšÎ¯Î½Î±",
          "name:rmy": "Shin",
          "name:rue": "ĞšÑ–Ñ‚Ğ°Ğ¹ÑĞºĞ°",
          "name:sah": "ĞšÑ‹Ñ‚Ğ°Ğ¹",
          "name:scn": "Cina",
          "name:sco": "Cheenae",
          "name:smn": "Kiina",
          "name:sms": "Ç¨iina",
          "name:srn": "Sneysa",
          "name:stq": "China",
          "name:szl": "China",
          "name:tet": "Xina",
          "name:tok": "ma Sonko",
          "name:tpi": "Saina",
          "name:tum": "China",
          "name:tyv": "ĞšÑ‹Ğ´Ğ°Ñ‚",
          "name:tzl": "Cina",
          "name:udm": "ĞšĞ¸Ñ‚Ğ°ÌĞ¹",
          "name:vec": "Cina",
          "name:vep": "Kitai",
          "name:vls": "China",
          "name:vro": "Hiina",
          "name:war": "Tsina",
          "name:wuu": "ä¸­å›½",
          "name:xal": "ĞšĞ¸Ñ‚Ğ´Ğ¸Ğ½ Ğ£Ğ»Ñ ĞÑ€Ğ½",
          "name:xmf": "áƒ©áƒ˜áƒœáƒ”áƒ—áƒ˜",
          "name:yue": "ä¸­åœ‹",
          "name:zea": "China",
          "way_area": "987.772",
          "wikidata": "Q148",
          "ISO3166-1": "CN",
          "name:Zsye": "ğŸ‡¨ğŸ‡³",
          "wikipedia": "zh:ä¸­åäººæ°‘å…±å’Œå›½",
          "name:UN:ar": "Ø§Ù„ØµÙŠÙ†",
          "name:UN:en": "China",
          "name:UN:es": "China",
          "name:UN:fr": "Chine (la)",
          "name:UN:ru": "ĞšĞ¸Ñ‚Ğ°Ğ¹",
          "name:UN:zh": "ä¸­å›½",
          "population": "1411778724",
          "admin_level": "2",
          "alt_name:af": "Rooi-China",
          "alt_name:av": "Ğ¥Ğ°Ñ‚Ğ°Ğ¹-Ğ¥ÑƒÑ‚Ğ°Ğ¹",
          "alt_name:be": "Ğ§Ğ¶ÑƒĞ½Ğ³Ğ¾",
          "alt_name:cy": "Tseina",
          "alt_name:en": "P.R. China",
          "alt_name:eo": "Äˆinujo",
          "alt_name:gd": "An t-SÃ¬n",
          "alt_name:jv": "Tiongkok",
          "alt_name:la": "Terra Serica",
          "alt_name:ln": "ShÃ­na",
          "alt_name:qu": "Chunwakuk",
          "alt_name:ru": "ĞšĞ¸Ñ‚Ğ°Ğ¹",
          "alt_name:sl": "LR Kitajska",
          "alt_name:sr": "ĞĞ  ĞšĞ¸Ğ½Ğ°",
          "alt_name:su": "Tjina",
          "alt_name:sw": "Uchina;Sina",
          "alt_name:za": "CuÅ‹Æ…vaÆ¨ YinÆ¨minÆ¨ GuÅ‹hoÆ¨goÆ¨",
          "alt_name:zh": "ä¸­å›½",
          "name:nan-HJ": "ä¸­å›½",
          "name:nan-TL": "Tiong-kok",
          "name:nds-nl": "China",
          "old_name:eo": "Ä¤inujo",
          "alt_name:als": "Rotchina",
          "alt_name:chr": "á“á¶á‚á¨áá›",
          "alt_name:crh": "QÄ±tay",
          "alt_name:jbo": ".djunguos.",
          "alt_name:koi": "Ğ”Ğ¶ÑƒĞ½Ğ³Ğ¾",
          "alt_name:lez": "Ğ§Ğ¸Ğ½",
          "alt_name:min": "Tiongkok",
          "alt_name:nan": "Tiong-kok",
          "alt_name:nds": "Schina",
          "alt_name:nrm": "Chinne;ChÃ¨ne",
          "alt_name:rmy": "China",
          "alt_name:tpi": "China",
          "name:cbk-zam": "China",
          "name:ko-Hani": "ä¸­åœ‹",
          "name:nan-POJ": "Tiong-kok",
          "name:za-Hani": "ä¸­è¯äººæ°‘å…±å’Œåœ‹",
          "name:zh-Hans": "ä¸­å›½",
          "name:zh-Hant": "ä¸­åœ‹",
          "name:roa-tara": "Cine",
          "official_name": "ä¸­åäººæ°‘å…±å’Œå›½",
          "short_name:ab": "Ğ§Ğ–Ğ ",
          "short_name:av": "Ğ§Ğ¥Ğ–",
          "short_name:az": "Ã‡XR",
          "short_name:ba": "Ò Ğ¥Ğ ",
          "short_name:be": "ĞšĞĞ ",
          "short_name:ce": "Ğ¦Ğ¥Ğ ",
          "short_name:cs": "ÄŒLR",
          "short_name:cv": "ĞšĞ¥Ğ ",
          "short_name:cy": "GPT",
          "short_name:en": "PRC",
          "short_name:et": "Hiina RV",
          "short_name:fr": "RPC",
          "short_name:ga": "DPS",
          "short_name:hy": "Õ‰ÔºÕ€",
          "short_name:id": "RRT",
          "short_name:jv": "RRC",
          "short_name:mk": "ĞĞ  ĞšĞ¸Ğ½Ğ°",
          "short_name:ml": "PRC",
          "short_name:ms": "RRC",
          "short_name:mt": "RPÄŠ",
          "short_name:ne": "PRC",
          "short_name:pl": "ChRL",
          "short_name:pt": "RPC",
          "short_name:ru": "ĞšĞĞ ",
          "short_name:sl": "LRK",
          "short_name:sr": "ĞĞ Ğš",
          "short_name:su": "RRT",
          "short_name:tg": "Ò¶Ğ¥Ğ§",
          "short_name:tk": "HHR",
          "short_name:tr": "Ã‡HC",
          "short_name:tt": "ĞšĞ¥Ò–",
          "short_name:uz": "XXR",
          "short_name:zh": "ä¸­å›½",
          "name:be-tarask": "ĞšÑ–Ñ‚Ğ°Ğ¹",
          "short_name:ang": "PRC",
          "short_name:bjn": "RRC",
          "short_name:ceb": "RPT",
          "short_name:dty": "PRC",
          "short_name:ilo": "PRC",
          "short_name:krc": "ĞšÑŠĞ¥Ğ ",
          "short_name:min": "RRC",
          "short_name:mwl": "RPC",
          "short_name:nan": "Tiong-kok",
          "short_name:sco": "FRC",
          "short_name:szl": "CHLR",
          "short_name:vec": "PRC",
          "alt_name:nan-HJ": "ä¸­å›½",
          "alt_name:nan-TL": "Tiong-kok",
          "population:date": "2020",
          "ISO3166-1:alpha2": "CN",
          "ISO3166-1:alpha3": "CHN",
          "alt_name:nan-POJ": "Tiong-kok",
          "alt_name:zh-Hans": "ä¸­å›½",
          "alt_name:zh-Hant": "ä¸­åœ‹",
          "default_language": "zh",
          "official_name:ab": "ĞÑ‡Ñ‹Ğ½Ò­Ğ°Ñ‚Ó™Ğ¸ ĞĞ¶Ó™Ğ»Ğ°Ñ€Ñ‚Ó™ Ğ ĞµÑĞ¿ÑƒĞ±Ğ»Ğ¸ĞºĞ°",
          "official_name:af": "Volksrepubliek van Sjina",
          "official_name:am": "á‹¨á‰»á‹­áŠ“ áˆ•á‹á‰£á‹Š áˆ¬á‘á‰¥áˆŠáŠ­",
          "official_name:an": "Republica Popular de China",
          "official_name:ar": "Ø¬Ù…Ù‡ÙˆØ±ÙŠØ© Ø§Ù„ØµÙŠÙ† Ø§Ù„Ø´Ø¹Ø¨ÙŠØ©",
          "official_name:as": "à¦—à¦£à¦ªà§à§°à¦œà¦¾à¦¤à¦¨à§à¦¤à§à§°à§€ à¦šà§€à¦¨",
          "official_name:av": "Ğ§Ğ¸Ğ½Ğ°Ğ»ÑŠÑƒĞ» Ğ¥Ğ°Ğ»ĞºÑŠĞ¸ÑĞ± Ğ–ÑƒĞ¼Ğ³ÑŒÑƒÑ€Ğ¸ÑÑ‚",
          "official_name:ay": "Markani Republika China",
          "official_name:az": "Ã‡in Xalq RespublikasÄ±",
          "official_name:ba": "Ò Ñ‹Ñ‚Ğ°Ğ¹ Ğ¥Ğ°Ğ»Ñ‹Ò¡ Ğ ĞµÑĞ¿ÑƒĞ±Ğ»Ğ¸ĞºĞ°Ò»Ñ‹",
          "official_name:be": "ĞšÑ–Ñ‚Ğ°Ğ¹ÑĞºĞ°Ñ ĞĞ°Ñ€Ğ¾Ğ´Ğ½Ğ°Ñ Ğ ÑÑĞ¿ÑƒĞ±Ğ»Ñ–ĞºĞ°",
          "official_name:bg": "ĞšĞ¸Ñ‚Ğ°Ğ¹ÑĞºĞ°Ñ‚Ğ° Ğ½Ğ°Ñ€Ğ¾Ğ´Ğ½Ğ° Ñ€ĞµĞ¿ÑƒĞ±Ğ»Ğ¸ĞºĞ°",
          "official_name:bh": "à¤šà¥€à¤¨ à¤•à¥‡ à¤œà¤¨à¤µà¤¾à¤¦à¥€ à¤ªà¥à¤°à¤œà¤¾à¤¤à¤‚à¤¤à¥à¤°",
          "official_name:bm": "China ka Foroba Fasojamana",
          "official_name:bn": "à¦—à¦£à¦ªà§à¦°à¦œà¦¾à¦¤à¦¨à§à¦¤à§à¦°à§€ à¦šà§€à¦¨",
          "official_name:bo": "à½€à¾²à½´à½„à¼‹à½§à¾­à¼‹à½˜à½²à¼‹à½‘à½˜à½„à½¦à¼‹à½¦à¾¤à¾±à½²à¼‹à½˜à½à½´à½“à¼‹à½¢à¾’à¾±à½£à¼‹à½à½–à¼",
          "official_name:br": "Republik Poblel Sina",
          "official_name:bs": "Narodna Republika Kina",
          "official_name:ca": "RepÃºblica Popular de la Xina",
          "official_name:ce": "Ğ¦Ğ¸Ğ¹Ğ½ Ğ¥Ğ°Ğ»ĞºÑŠĞ°Ğ½ Ğ ĞµÑĞ¿ÑƒÌĞ±Ğ»Ğ¸ĞºĞ°",
          "official_name:co": "Republica Pupulare Chinesa",
          "official_name:cs": "ÄŒÃ­nskÃ¡ lidovÃ¡ republika",
          "official_name:cu": "Ğ¡Ñ€Ñ£Ğ´Ğ¸Ğ½ÑŒÑĞºĞ° ĞĞ°Ñ€Ğ¾Ğ´ÑŒĞ½Ğ° Ğ”Ğ¸Ğ¼Ğ¾ĞºÑ€Ğ°Ñ‚Ñ–Ìê™—",
          "official_name:cv": "ĞšĞ¸Ñ‚Ğ°Ğ¹ Ğ¥Ğ°Ğ»ÄƒÑ… Ğ ĞµÑĞ¿ÑƒĞ±Ğ»Ğ¸ĞºĞ¸",
          "official_name:cy": "Gweriniaeth Pobl Tsieina",
          "official_name:da": "Folkerepublikken Kina",
          "official_name:de": "Volksrepublik China",
          "official_name:el": "Î›Î±ÏŠÎºÎ® Î”Î·Î¼Î¿ÎºÏÎ±Ï„Î¯Î± Ï„Î·Ï‚ ÎšÎ¯Î½Î±Ï‚",
          "official_name:en": "People's Republic of China",
          "official_name:eo": "Äˆina Popola Respubliko",
          "official_name:es": "RepÃºblica Popular China",
          "official_name:et": "Hiina Rahvavabariik",
          "official_name:eu": "Txinako Herri Errepublika",
          "official_name:fa": "Ø¬Ù…Ù‡ÙˆØ±ÛŒ Ø®Ù„Ù‚ Ú†ÛŒÙ†",
          "official_name:fi": "Kiinan kansantasavalta",
          "official_name:fo": "FÃ³lkalÃ½Ã°veldiÃ° Kina",
          "official_name:fr": "RÃ©publique populaire de Chine",
          "official_name:fy": "Folksrepublyk Sina",
          "official_name:ga": "Daon-Phoblacht na SÃ­ne",
          "official_name:gd": "Sluagh-phoblachd na SÃ¬ne",
          "official_name:gl": "RepÃºblica Popular da China",
          "official_name:gn": "ChÃ­na TetarÃ£ RetÃ£",
          "official_name:gu": "àªšà«€àª¨à«€ àªœàª¨àªµàª¾àª¦à«€ àª—àª£àª°àª¾àªœà«àª¯",
          "official_name:gv": "Deynphobblaght ny Sheen",
          "official_name:ha": "Jamhuriyar jama'ar Sin",
          "official_name:he": "×”×¨×¤×•×‘×œ×™×§×” ×”×¢×××™×ª ×©×œ ×¡×™×Ÿ",
          "official_name:hi": "à¤šà¥€à¤¨à¥€ à¤œà¤¨à¤µà¤¾à¤¦à¥€ à¤—à¤£à¤°à¤¾à¤œà¥à¤¯",
          "official_name:hr": "Narodna Republika Kina",
          "official_name:hu": "KÃ­nai NÃ©pkÃ¶ztÃ¡rsasÃ¡g",
          "official_name:hy": "Õ‰Õ«Õ¶Õ¡Õ½Õ¿Õ¡Õ¶Õ« ÔºÕ¸Õ²Õ¸Õ¾Ö€Õ¤Õ¡Õ¯Õ¡Õ¶ Õ€Õ¡Õ¶Ö€Õ¡ÕºÕ¥Õ¿Õ¸Ö‚Õ©ÕµÕ¸Ö‚Õ¶",
          "official_name:ia": "Republica Popular de China",
          "official_name:id": "Republik Rakyat Tiongkok",
          "official_name:io": "Populala Republiko di Chinia",
          "official_name:is": "AlÃ¾Ã½Ã°ulÃ½Ã°veldiÃ° KÃ­na",
          "official_name:it": "Repubblica Popolare Cinese",
          "official_name:ja": "ä¸­è¯äººæ°‘å…±å’Œå›½",
          "official_name:jv": "RÃ©publik Rakyat Cina",
          "official_name:ka": "áƒ©áƒ˜áƒœáƒ”áƒ—áƒ˜áƒ¡ áƒ¡áƒáƒ®áƒáƒšáƒ®áƒ áƒ áƒ”áƒ¡áƒáƒ£áƒ‘áƒšáƒ˜áƒ™áƒ",
          "official_name:kg": "Repubilika ya Bantu ya Sina",
          "official_name:ki": "RÅ©thiomi rwa kÄ© China",
          "official_name:kk": "ÒšÑ‹Ñ‚Ğ°Ğ¹ Ğ¥Ğ°Ğ»Ñ‹Ò› Ğ ĞµÑĞ¿ÑƒĞ±Ğ»Ğ¸ĞºĞ°ÑÑ‹",
          "official_name:kl": "Innuttaasut Kunngiitsuuffik Kina",
          "official_name:km": "áŸá¶á’á¶ášáášáŠáŸ’á‹á”áŸ’ášá‡á¶á˜á¶á“á·áá…á·á“",
          "official_name:kn": "à²šà³€à²¨à²¿ à²œà²¨à²° à²—à²£à²°à²¾à²œà³à²¯",
          "official_name:ko": "ì¤‘í™”ì¸ë¯¼ê³µí™”êµ­",
          "official_name:ku": "Komara Gel a Ã‡Ã®nistanÃª",
          "official_name:kw": "Repoblek an Werin China",
          "official_name:ky": "ĞšÑ‹Ñ‚Ğ°Ğ¹ Ğ­Ğ» Ğ ĞµÑĞ¿ÑƒĞ±Ğ»Ğ¸ĞºĞ°ÑÑ‹",
          "official_name:la": "Res publica popularis Sinarum",
          "official_name:lb": "Volleksrepublik China",
          "official_name:li": "Volksrippebliek China",
          "official_name:lo": "àºªàº²àº—àº²àº¥àº°àº™àº°àº¥àº±àº”àº›àº°àºŠàº²àºŠàº»àº™àºˆàºµàº™",
          "official_name:lt": "Kinijos Liaudies Respublika",
          "official_name:lv": "Ä¶Ä«nas Tautas Republika",
          "official_name:mg": "Repoblika Entim-bahoakan'i Sina",
          "official_name:mi": "TÅ«wehe-Ä-Iwi o Haina",
          "official_name:mk": "ĞĞ°Ñ€Ğ¾Ğ´Ğ½Ğ° Ğ ĞµĞ¿ÑƒĞ±Ğ»Ğ¸ĞºĞ° ĞšĞ¸Ğ½Ğ°",
          "official_name:ml": "à´ªàµ€à´ªàµà´ªà´¿àµ¾à´¸àµâ€Œ à´±à´¿à´ªàµà´ªà´¬àµà´²à´¿à´•àµà´•àµ à´“à´«àµâ€Œ à´šàµˆà´¨",
          "official_name:mn": "Ğ‘Ò¯Ğ³Ğ´ ĞĞ°Ğ¹Ñ€Ğ°Ğ¼Ğ´Ğ°Ñ… Ğ¥ÑÑ‚Ğ°Ğ´ ĞÑ€Ğ´ Ğ£Ğ»Ñ",
          "official_name:mr": "à¤šà¥€à¤¨à¤šà¥‡ à¤œà¤¨à¤¤à¥‡à¤šà¥‡ à¤ªà¥à¤°à¤œà¤¾à¤¸à¤¤à¥à¤¤à¤¾à¤•",
          "official_name:ms": "Republik Rakyat China",
          "official_name:mt": "Repubblika Popolari taÄ‹-ÄŠina",
          "official_name:my": "á€á€›á€¯á€á€ºá€•á€¼á€Šá€ºá€á€°á€·á€á€™á€¹á€™á€á€”á€­á€¯á€„á€ºá€„á€¶",
          "official_name:ne": "à¤œà¤¨à¤µà¤¾à¤¦à¥€ à¤—à¤£à¤¤à¤¨à¥à¤¤à¥à¤° à¤šà¥€à¤¨",
          "official_name:nl": "Volksrepubliek China",
          "official_name:nn": "Folkerepublikken Kina",
          "official_name:no": "Folkerepublikken Kina",
          "official_name:oc": "Republica Populara de China",
          "official_name:om": "Riippabiliika Ummataa Chaayina",
          "official_name:os": "ĞšĞ¸Ñ‚Ğ°Ğ¹Ñ‹ ĞĞ´Ã¦Ğ¼Ğ¾Ğ½ Ğ ĞµÑĞ¿ÑƒĞ±Ğ»Ğ¸ĞºÃ¦",
          "official_name:pa": "à¨šà©€à¨¨ à¨¦à¨¾ à¨²à©‹à¨•à¨°à¨¾à¨œà©€ à¨—à¨£à¨¤à©°à¨¤à¨°",
          "official_name:pl": "ChiÅ„ska Republika Ludowa",
          "official_name:ps": "Ú†ÙŠÙ† Ø¯ Ø®Ù„Ú©Ùˆ Ø¬Ù…Ù‡ÙˆØ±ÙŠØª",
          "official_name:pt": "RepÃºblica Popular da China",
          "official_name:qu": "Chunwa Runallaqta Ripuwlika",
          "official_name:ro": "Republica PopularÄƒ ChinezÄƒ",
          "official_name:ru": "ĞšĞ¸Ñ‚Ğ°Ğ¹ÑĞºĞ°Ñ ĞĞ°Ñ€Ğ¾Ğ´Ğ½Ğ°Ñ Ğ ĞµÑĞ¿ÑƒĞ±Ğ»Ğ¸ĞºĞ°",
          "official_name:sd": "Ø¹ÙˆØ§Ù…ÙŠ Ø¬Ù…Ù‡ÙˆØ±ÙŠÙ‡ Ú†ÙŠÙ†",
          "official_name:se": "KiinnÃ¡ Ã¡lbmotdÃ¡ssevÃ¡ldi",
          "official_name:sg": "HalÃ«zo KÃ¶dÃ¶rÃ¶sÃªse tÃ® SÃ®nÃ¤",
          "official_name:sh": "Narodna Republika Kina",
          "official_name:si": "à¶ à·“à¶± à¶¸à·„à¶¢à¶± à·ƒà¶¸à·–à·„à·à¶«à·Šà¶©à·”à·€",
          "official_name:sk": "ÄŒÃ­nska Ä¾udovÃ¡ republika",
          "official_name:sl": "LjÃºdska repÃºblika KitÃ¡jska",
          "official_name:sm": "Tagata o le Ripapelika o Saina",
          "official_name:sq": "Republika Popullore e KinÃ«s",
          "official_name:sr": "ĞĞ°Ñ€Ğ¾Ğ´Ğ½Ğ° Ğ ĞµĞ¿ÑƒĞ±Ğ»Ğ¸ĞºĞ° ĞšĞ¸Ğ½Ğ°",
          "official_name:su": "RÃ©publik Rahayat Tiongkok",
          "official_name:sv": "Folkrepubliken Kina",
          "official_name:sw": "Jamhuri ya Watu wa China",
          "official_name:ta": "à®šà¯€à®© à®®à®•à¯à®•à®³à¯ à®•à¯à®Ÿà®¿à®¯à®°à®šà¯",
          "official_name:te": "à°ªà±€à°ªà±à°²à±à°¸à± à°°à°¿à°ªà°¬à±à°²à°¿à°•à± à°†à°«à± à°šà±ˆà°¨à°¾",
          "official_name:tg": "Ò¶ÑƒĞ¼Ò³ÑƒÑ€Ğ¸ÌĞ¸ Ğ¥Ğ°Ğ»Ò›Ğ¸ÌĞ¸ Ğ§Ğ¸Ğ½",
          "official_name:th": "à¸ªà¸²à¸˜à¸²à¸£à¸“à¸£à¸±à¸à¸›à¸£à¸°à¸Šà¸²à¸Šà¸™à¸ˆà¸µà¸™",
          "official_name:ti": "á‹¨á‰»á‹­áŠ“ áˆ…á‹á‰¦á‰½ áˆªáá‰¥áˆŠáŠ­",
          "official_name:tk": "HytaÃ½ Halk Respublikasy",
          "official_name:tl": "Republikang Bayan ng Tsina",
          "official_name:tr": "Ã‡in Halk Cumhuriyeti",
          "official_name:tt": "ĞšÑ‹Ñ‚Ğ°Ğ¹ Ğ¥Ğ°Ğ»Ñ‹Ğº Ò–Ó©Ğ¼Ò»Ò¯Ñ€Ğ¸ÑÑ‚Ğµ",
          "official_name:ug": "Ø¬Û‡Ú­Ø®Û‡Ø§ Ø®Û•Ù„Ù‚ Ø¬Û‡Ù…Ú¾Û‡Ø±Ù‰ÙŠÙ‰ØªÙ‰",
          "official_name:uk": "ĞšĞ¸Ñ‚Ğ°ÌĞ¹ÑÑŒĞºĞ° ĞĞ°Ñ€Ğ¾ÌĞ´Ğ½Ğ° Ğ ĞµÑĞ¿ÑƒÌĞ±Ğ»Ñ–ĞºĞ°",
          "official_name:ur": "Ø¹ÙˆØ§Ù…ÛŒ Ø¬Ù…ÛÙˆØ±ÛŒÛ Ú†ÛŒÙ†",
          "official_name:uz": "Xitoy Xalq Respublikasi",
          "official_name:vi": "Cá»™ng hÃ²a NhÃ¢n dÃ¢n Trung Hoa",
          "official_name:wo": "Republik Popileer bu Ciin",
          "official_name:yi": "××¢× ×˜×©× ×¡ ×¨×¢×¤×•×‘×œ×™×§ ×¤×•×Ÿ ×›×™× ×¢",
          "official_name:yo": "OrÃ­láº¹Ì€-Ã¨dÃ¨ OlÃ³mÃ¬nira Ã wá»n ArÃ¡ iláº¹Ì€ á¹¢Ã¡Ã­nÃ ",
          "official_name:za": "Cunghvaz Yinzminz Gunghozgoz",
          "official_name:zh": "ä¸­åäººæ°‘å…±å’Œå›½",
          "ISO3166-1:numeric": "156",
          "official_name:ace": "RÃ¨publik Rakyat Cina",
          "official_name:als": "Volksrepublik China",
          "official_name:ang": "CÄ«nan Folclice CynewÄ«se",
          "official_name:arc": "Ü©Ü˜Ü›Ü¢ÜÜ˜Ü¬Ü Ü¥Ü¡Ü¡ÜÜ¬Ü Ü•Ü¨ÜÜ¢",
          "official_name:arz": "Ø¬Ù…Ù‡ÙˆØ±ÙŠØ© Ø§Ù„ØµÙŠÙ† Ø§Ù„Ø´Ø¹Ø¨ÙŠØ©",
          "official_name:ast": "RepÃºblica Popular de China",
          "official_name:azb": "Ú†ÛŒÙ† Ø®Ø§Ù„Ù‚ Ø¬ÙˆÙ…Ù‡ÙˆØ±ÛŒØªÛŒ",
          "official_name:bar": "Voiksrepublik Kina",
          "official_name:bcl": "Republikang Popular kan Tsina",
          "official_name:bjn": "Ripublik Rakyat Cina",
          "official_name:bpy": "à¦—à¦£ à¦ªà§à¦°à¦œà¦¾à¦¤à¦¨à§à¦¤à§à¦°à¦¿ à¦šà§€à¦¨",
          "official_name:bxr": "Ğ‘Ò¯Ğ³ÑĞ´Ñ ĞĞ°Ğ¹Ñ€Ğ°Ğ¼Ğ´Ğ°Ñ…Ğ° Ğ¥Ğ¸Ñ‚Ğ°Ğ´ ĞÑ€Ğ°Ğ´ Ğ£Ğ»Ğ°Ñ",
          "official_name:cdo": "Dá¹³Ì†ng-huÃ  ÃŒng-mÃ¬ng GÃªÌ¤á¹³ng-huÃ²-guÃ³k",
          "official_name:ceb": "Pangmasang Republika sa Tsina",
          "official_name:chr": "á´á« á¤á¾á¤áµáá¦ášá© á¾á¿ á“á¶á‚á¨áá›",
          "official_name:ckb": "Ú©Û†Ù…Ø§Ø±ÛŒ Ø®Û•ÚµÚ©ÛŒ Ú†ÛŒÙ†",
          "official_name:crh": "Ã‡in Halq Cumhuriyeti",
          "official_name:csb": "ChiÅ„skÃ´ LÃ«dowÃ´ RepÃ¹blika",
          "official_name:diq": "CumhuriyetÃª ÅariÃª Ã‡ini",
          "official_name:dsb": "Chinska ludowa republika",
          "official_name:dty": "à¤œà¤¨à¤µà¤¾à¤¦à¥€ à¤—à¤£à¤¤à¤¨à¥à¤¤à¥à¤° à¤šà¥€à¤¨",
          "official_name:eml": "RepÃ³blica populÃ¨ra dla Cina",
          "official_name:ext": "RepÃºbrica Populal China",
          "official_name:frp": "RÃ¨publica populÃ¨ra de ChÂ·ina",
          "official_name:frr": "FÃ¶ljksrepubliik Sina",
          "official_name:gag": "Kitay Halk RespublikasÄ±",
          "official_name:gan": "ä¸­è¯äººæ°‘å…±å’Œåœ‹",
          "official_name:hak": "ChÃ»ng-fÃ  NgÃ¬n-mÃ¬n Khiung-fÃ²-koet",
          "official_name:hif": "People's Republic of China",
          "official_name:hsb": "Chinska ludowa republika",
          "official_name:ilo": "Republika ti Tattao iti Tsina",
          "official_name:jam": "Piiplz Ripoblik a Chaina",
          "official_name:jbo": "jungo ke prenu gubyseltru",
          "official_name:kbd": "Ğ¥ÑŠÑƒÑ‚ĞµĞ¹ Ğ–Ñ‹Ğ»Ñ Ğ ĞµÑĞ¿ÑƒĞ±Ğ»Ğ¸ĞºÑ",
          "official_name:koi": "ĞšĞ¸Ñ‚Ğ°Ğ¹ Ğ¾Ñ‚Ğ¸Ñ€ Ñ€ĞµÑĞ¿ÑƒĞ±Ğ»Ğ¸ĞºĞ°",
          "official_name:krc": "ĞšÑŠÑ‹Ñ‚Ğ°Ğ¹ Ğ¥Ğ°Ğ»ĞºÑŠ Ğ ĞµÑĞ¿ÑƒĞ±Ğ»Ğ¸ĞºĞ°",
          "official_name:lad": "Repuvlika Popular de Kina",
          "official_name:lez": "ĞšĞ¸Ñ‚Ğ°Ğ¹Ğ´Ğ¸Ğ½ Ğ¥Ğ°Ğ»ĞºÑŒĞ´Ğ¸Ğ½ Ğ ĞµÑĞ¿ÑƒĞ±Ğ»Ğ¸ĞºĞ°",
          "official_name:lmo": "RepÃ¼bliga Pupulara de la Cina",
          "official_name:lrc": "Ú©ÙˆÙ™Ù…Ø£Ø±Û• Ú¤ÙˆÙ„Ø§Øª Ø®Ø£Ù„Ú© Ú†ÛŒÙ†",
          "official_name:lzh": "ä¸­è¯äººæ°‘å…±å’Œåœ‹",
          "official_name:mai": "à¤œà¤¨à¤¬à¤¾à¤¦à¥€ à¤—à¤£à¤¤à¤¨à¥à¤¤à¥à¤° à¤šà¥€à¤¨",
          "official_name:mdf": "ĞšĞ¸Ñ‚Ğ°Ğ¹ ĞšĞ°Ğ»ĞºĞ¾Ğ½ÑŒ Ğ ĞµÑĞ¿ÑƒĞ±Ğ»Ğ¸ĞºÑÑŒ",
          "official_name:min": "Republik Rakyaik Cino",
          "official_name:mwl": "RepÃºblica Popular de la China",
          "official_name:myv": "ĞšĞ¸Ñ‚Ğ°ĞµĞ½ÑŒ Ğ Ğ°ÑÑŒĞºĞµĞ½ÑŒ Ğ ĞµÑĞ¿ÑƒĞ±Ğ»Ğ¸ĞºĞ°ÑÑŒ",
          "official_name:mzn": "Ú†ÛŒÙ† Ù…Ø±Ø¯Ù… Ø¬Ù…Ù‡ÙˆØ±ÛŒ",
          "official_name:nah": "TlÄcatlahtocÄyÅtl Ä€ltepÄ“huahcÄyÅtl China",
          "official_name:nan": "Tiong-hoÃ¢ JÃ®n-bÃ®n KiÅng-hÃ´-kok",
          "official_name:nap": "Repubbreca Populare Cinese",
          "official_name:nds": "Volksrepubliek China",
          "official_name:new": "à¤œà¤¨à¤µà¤¾à¤¦à¥€ à¤—à¤£à¤¤à¤¨à¥à¤¤à¥à¤° à¤šà¥€à¤¨",
          "official_name:nov": "Populen Republike de China",
          "official_name:nrm": "RÃ©publyique du Peupl'ye d'la Chinne",
          "official_name:nso": "Repabliki ya Batho ya TÅ¡haena",
          "official_name:olo": "Kitain Rahvahan tazavaldu",
          "official_name:pag": "Republika ya Too na Zhongguo",
          "official_name:pam": "Maldang Republica ning Tsina",
          "official_name:pap": "Republika di Pueblo di China",
          "official_name:pcd": "RÃ©publique populoÃ¨re Kine",
          "official_name:pih": "Piopel's Repablik o' Shiina",
          "official_name:pnt": "Î›Î±ÏŠÎºÏŒÎ½ Î· Î”Î·Î¼Î¿ÎºÏÎ±Ï„Î¯Î±Î½ Ï„Î· ÎšÎ¯Î½Î±Ï‚",
          "official_name:rue": "ĞšÑ–Ñ‚Ğ°Ğ¹ÑĞºĞ° ĞĞ°Ñ€Ğ¾Ğ´Ğ½Ğ° Ğ ĞµĞ¿ÑƒĞ±Ğ»Ñ–ĞºĞ°",
          "official_name:sah": "ĞšÑ‹Ñ‚Ğ°Ğ¹ Ğ”ÑŒĞ¾Ğ½ Ó¨Ñ€Ó©ÑĞ¿Ò¯Ò¯Ğ±Ò¯Ğ»Ò¯ĞºÑÑ‚Ñ",
          "official_name:scn": "RipÃ¹bblica Pupulari CinÃ¬sa",
          "official_name:sco": "Fowkrepublic o Cheenae",
          "official_name:srn": "Pipel Republiki Sneysa",
          "official_name:stq": "Foulksrepublik China",
          "official_name:szl": "ChiÅ„skÅ LudowÅ Republika",
          "official_name:tet": "RepÃºblika PopulÃ¡r Xina nian",
          "official_name:tpi": "Republik bilong Manmeri bilong Saina",
          "official_name:udm": "ĞšĞ¸Ñ‚Ğ°ÌĞ¹ ĞšĞ°Ğ»Ñ‹ÌĞº Ğ ĞµÑĞ¿ÑƒÌĞ±Ğ»Ğ¸ĞºĞ°",
          "official_name:vec": "Republica PopoÅ‚are Cinexe",
          "official_name:vep": "Kitain Rahvahaline Tazovaldkund",
          "official_name:vls": "Volksrepubliek China",
          "official_name:vro": "Hiina Rahvavabariik",
          "official_name:war": "Kanan Katawhan Republika han Tsina",
          "official_name:wuu": "ä¸­åäººæ°‘å…±å’Œå›½",
          "official_name:xmf": "áƒ©áƒ˜áƒœáƒ”áƒ—áƒ˜áƒ¨ áƒáƒ™áƒáƒ—áƒ” áƒ áƒ”áƒ¡áƒáƒ£áƒ‘áƒšáƒ˜áƒ™áƒ",
          "official_name:yue": "ä¸­è¯äººæ°‘å…±å’Œåœ‹",
          "official_name:zea": "Volksrepubliek China",
          "short_name:nan-HJ": "ä¸­å›½",
          "short_name:nan-TL": "Tiong-kok",
          "short_name:bat-smg": "KÄ—nÄ—jÄ—s LR",
          "short_name:nan-POJ": "Tiong-kok",
          "short_name:zh-Hans": "ä¸­å›½",
          "short_name:zh-Hant": "ä¸­åœ‹",
          "name:zh-Latn-pinyin": "ZhÅngguÃ³",
          "official_name:nan-HJ": "ä¸­åäººæ°‘å…±å’Œå›½",
          "official_name:nan-TL": "Tiong-huÃ¢ JÃ®n-bÃ®n KiÅng-hÃ´-kok",
          "official_name:nds-nl": "Volksrippebliek China",
          "official_name:bat-smg": "KÄ—nÄ—jÄ—s LiaudÄ—is RespoblÄ—ka",
          "official_name:cbk-zam": "RepÃºblica Popular China",
          "official_name:ko-Hani": "ä¸­è¯äººæ°‘å…±å’Œåœ‹",
          "official_name:nan-POJ": "Tiong-hoÃ¢ JÃ®n-bÃ®n KiÅng-hÃ´-kok",
          "official_name:zh-Hans": "ä¸­åäººæ°‘å…±å’Œå›½",
          "official_name:zh-Hant": "ä¸­è¯äººæ°‘å…±å’Œåœ‹",
          "official_name:roa-tara": "Repubbleche Populare Cenise",
          "official_name:be-tarask": "ĞšÑ–Ñ‚Ğ°Ğ¹ÑĞºĞ°Ñ ĞĞ°Ñ€Ğ¾Ğ´Ğ½Ğ°Ñ Ğ ÑÑĞ¿ÑƒĞ±Ğ»Ñ–ĞºĞ°"
        }
      },
      "geometry": {
        "type": "Polygon",
        "coordinates": [
          [
            [
              113.8719498,
              10.9067576
            ],
            [
              113.8721775,
              10.8969657
            ],
            [
              113.8728943,
              10.8871962
            ],
            [
              113.8740983,
              10.8774727
            ],
            [
              113.8757868,
              10.8678186
            ],
            [
              113.8779556,
              10.8582572
            ],
            [
              113.8805994,
              10.8488115
            ],
            [
              113.883239,
              10.8408246
            ],
            [
              113.8867474,
              10.831654
            ],
            [
              113.8907098,
              10.8226632
            ],
            [
              113.8951166,
              10.813874
            ],
            [
              113.8999571,
              10.8053075
            ],
            [
              113.9052198,
              10.7969844
            ],
            [
              113.9108918,
              10.7889248
            ],
            [
              113.9169596,
              10.781148
            ],
            [
              113.9224645,
              10.7747216
            ],
            [
              113.9292278,
              10.7675195
            ],
            [
              113.9363427,
              10.7606519
            ],
            [
              113.9437921,
              10.7541353
            ],
            [
              113.9515579,
              10.7479856
            ],
            [
              113.9596215,
              10.7422175
            ],
            [
              113.9679635,
              10.7368451
            ],
            [
              113.9765638,
              10.7318811
            ],
            [
              113.9854016,
              10.7273377
            ],
            [
              113.9931498,
              10.7237863
            ],
            [
              114,
              10.721012600753625
            ],
            [
              114,
              11
            ],
            [
              113.89420809723184,
              11
            ],
            [
              113.8934758,
              10.9982612
            ],
            [
              113.8854356,
              10.9778898
            ],
            [
              113.8830003,
              10.9713164
            ],
            [
              113.8799883,
              10.9619811
            ],
            [
              113.8771222,
              10.9511494
            ],
            [
              113.8748793,
              10.9401764
            ],
            [
              113.8732665,
              10.9290969
            ],
            [
              113.872289,
              10.9179456
            ],
            [
              113.8719498,
              10.9067576
            ]
          ]
        ]
      }
    },
    {
      "type": "Feature",
      "properties": {
        "osm_id": -49915,
        "boundary": "administrative",
        "admin_level": 2,
        "parents": null,
        "name": "Vietnam",
        "local_name": "Viá»‡t Nam",
        "name_en": "Vietnam",
        "all_tags": {
          "flag": "http://upload.wikimedia.org/wikipedia/commons/2/21/Flag_of_Vietnam.svg",
          "name": "Viá»‡t Nam",
          "name:af": "ViÃ«tnam",
          "name:ak": "Vietnam",
          "name:am": "á‰¬á‰µ áŠ“áˆ",
          "name:an": "Vietnam",
          "name:ar": "ÙÙŠØªÙ†Ø§Ù…",
          "name:av": "Ğ’ÑŒĞµÑ‚Ğ½Ğ°Ğ¼",
          "name:ay": "Vietnam",
          "name:az": "Vyetnam",
          "name:ba": "Ğ’ÑŒĞµÑ‚Ğ½Ğ°Ğ¼",
          "name:be": "Ğ’'ĞµÑ‚Ğ½Ğ°Ğ¼",
          "name:bg": "Ğ’Ğ¸ĞµÑ‚Ğ½Ğ°Ğ¼",
          "name:bi": "Vietnam",
          "name:bm": "Vietnam",
          "name:bn": "à¦­à¦¿à¦¯à¦¼à§‡à¦¤à¦¨à¦¾à¦®",
          "name:bo": "à½à½²à¼‹à½à½²à¼‹à½“à½˜à¼",
          "name:br": "ViÃªt Nam",
          "name:bs": "Vijetnam",
          "name:ca": "Vietnam",
          "name:ce": "Ğ’ÑŒĞµÑ‚Ğ½Ğ°Ğ¼",
          "name:ch": "Vietnam",
          "name:cs": "Vietnam",
          "name:cv": "Ğ’ÑŒĞµÑ‚Ğ½Ğ°Ğ¼",
          "name:cy": "Fietnam",
          "name:da": "Vietnam",
          "name:de": "Vietnam",
          "name:dv": "ŞˆŞ¨Ş‡Ş¬Ş“ŞªŞ‚Ş§Ş‰Şª",
          "name:ee": "Vietnam",
          "name:el": "Î’Î¹ÎµÏ„Î½Î¬Î¼",
          "name:en": "Vietnam",
          "name:eo": "Vjetnamio",
          "name:es": "Vietnam",
          "name:et": "Vietnam",
          "name:eu": "Vietnam",
          "name:fa": "ÙˆÛŒØªÙ†Ø§Ù…",
          "name:ff": "Vietnam",
          "name:fi": "Vietnam",
          "name:fo": "Vjetnam",
          "name:fr": "ViÃªt Nam",
          "name:fy": "Fjetnam",
          "name:ga": "VÃ­tneam",
          "name:gd": "Bhiet-Nam",
          "name:gl": "Vietnam",
          "name:gn": "Vietnam",
          "name:gu": "àªµàª¿àª¯à«‡àª¤àª¨àª¾àª®",
          "name:gv": "Yn Vietnam",
          "name:he": "×•×™×™×˜× ××",
          "name:hi": "à¤µà¤¿à¤¯à¤¤à¤¨à¤¾à¤®",
          "name:hr": "Vijetnam",
          "name:ht": "Vyetnam",
          "name:hu": "VietnÃ¡m",
          "name:hy": "ÕÕ«Õ¥Õ¿Õ¶Õ¡Õ´",
          "name:ia": "Vietnam",
          "name:id": "Vietnam",
          "name:ie": "Viet-Nam",
          "name:ik": "Vietnam",
          "name:io": "Vietnam",
          "name:is": "VÃ­etnam",
          "name:it": "Vietnam",
          "name:ja": "ãƒ™ãƒˆãƒŠãƒ ",
          "name:jv": "ViÃ¨tnam",
          "name:ka": "áƒ•áƒ˜áƒ”áƒ¢áƒœáƒáƒ›áƒ˜",
          "name:kg": "Vietnam",
          "name:ki": "Vietnam",
          "name:kk": "Ğ’ÑŒĞµÑ‚Ğ½Ğ°Ğ¼",
          "name:kl": "Vietnam",
          "name:km": "áœáŸ€ááá¶á˜",
          "name:kn": "à²µà²¿à²¯à³†à²Ÿà³à²¨à²¾à²®à³",
          "name:ko": "ë² íŠ¸ë‚¨",
          "name:ku": "Viyetnam",
          "name:kv": "Ğ’ÑŒĞµÑ‚Ğ½Ğ°Ğ¼",
          "name:kw": "Vietnam",
          "name:ky": "Ğ’ÑŒĞµÑ‚Ğ½Ğ°Ğ¼",
          "name:la": "Vietnamia",
          "name:lb": "Vietnam",
          "name:li": "Vietnam",
          "name:ln": "Vietnami",
          "name:lo": "àº›àº°à»€àº—àº”àº«àº§àº½àº”àº™àº²àº¡",
          "name:lt": "Vietnamas",
          "name:lv": "Vjetnama",
          "name:mg": "Vietnam",
          "name:mi": "WitinÄma",
          "name:mk": "Ğ’Ğ¸ĞµÑ‚Ğ½Ğ°Ğ¼",
          "name:ml": "à´µà´¿à´¯à´±àµà´±àµà´¨à´¾à´‚",
          "name:mn": "Ğ’ÑŒĞµÑ‚Ğ½Ğ°Ğ¼",
          "name:mr": "à¤µà¥à¤¹à¤¿à¤¯à¥‡à¤¤à¤¨à¤¾à¤®",
          "name:ms": "Vietnam",
          "name:mt": "Vjetnam",
          "name:my": "á€—á€®á€šá€€á€ºá€”á€™á€ºá€”á€­á€¯á€„á€ºá€„á€¶",
          "name:na": "Bitinam",
          "name:ne": "à¤­à¤¿à¤¯à¤¤à¤¨à¤¾à¤®",
          "name:nl": "Vietnam",
          "name:nn": "Vietnam",
          "name:no": "Vietnam",
          "name:nv": "BiÊ¼ednam",
          "name:oc": "Vietnam",
          "name:om": "Veetinaam",
          "name:or": "à¬­à¬¿à¬à¬¤à¬¨à¬¾à¬®",
          "name:os": "Ğ’ÑŒĞµÑ‚Ğ½Ğ°Ğ¼",
          "name:pa": "à¨µà©€à¨…à¨¤à¨¨à¨¾à¨®",
          "name:pl": "Wietnam",
          "name:pt": "Vietname",
          "name:qu": "Witnam",
          "name:rm": "Vietnam",
          "name:rn": "Vietnam",
          "name:ro": "Vietnam",
          "name:ru": "Ğ’ÑŒĞµÑ‚Ğ½Ğ°Ğ¼",
          "name:rw": "Viyetinamu",
          "name:sa": "à¤šà¤®à¥à¤ªà¤¾à¤¦à¥‡à¤¶",
          "name:sc": "Vietnam",
          "name:se": "Vietnam",
          "name:sh": "Vijetnam",
          "name:si": "à·€à·’à¶ºà¶§à·Šà¶±à·à¶¸à¶º",
          "name:sk": "Vietnam",
          "name:sl": "Vietnam",
          "name:sm": "Vietnam",
          "name:sn": "Vietnam",
          "name:so": "Fiyetnam",
          "name:sq": "Vietnami",
          "name:sr": "Ğ’Ğ¸Ñ˜ĞµÑ‚Ğ½Ğ°Ğ¼",
          "name:ss": "IViyethina",
          "name:st": "Vietnam",
          "name:su": "ViÃ©tnam",
          "name:sv": "Vietnam",
          "name:sw": "Vietnam",
          "name:ta": "à®µà®¿à®¯à®Ÿà¯à®¨à®¾à®®à¯",
          "name:te": "à°µà°¿à°¯à°¤à±à°¨à°¾à°‚",
          "name:tg": "Ğ’ĞµÑ‚Ğ½Ğ°Ğ¼",
          "name:th": "à¸›à¸£à¸°à¹€à¸—à¸¨à¹€à¸§à¸µà¸¢à¸”à¸™à¸²à¸¡",
          "name:tk": "WÃ½etnam",
          "name:tl": "Vietnam",
          "name:tr": "Vietnam",
          "name:tt": "Ğ’ÑŒĞµÑ‚Ğ½Ğ°Ğ¼",
          "name:tw": "Vietnam",
          "name:ug": "Û‹ÙŠÛØªÙ†Ø§Ù…",
          "name:uk": "Ğ’'Ñ”Ñ‚Ğ½Ğ°Ğ¼",
          "name:ur": "ÙˆÛŒØªÙ†Ø§Ù…",
          "name:uz": "Vyetnam",
          "name:ve": "ViÃ«tnam",
          "name:vi": "Viá»‡t Nam",
          "name:vo": "VietnamÃ¤n",
          "name:wa": "Vietnam",
          "name:wo": "Wiyetnaam",
          "name:yi": "×•×•×™×¢×˜× ××",
          "name:yo": "Fiáº¹tnÃ¡m",
          "name:za": "Yiednamz",
          "name:zh": "è¶Šå—",
          "name:zu": "IViyetnami",
          "boundary": "administrative",
          "int_name": "Viet Nam",
          "name:ace": "ViÃ¨tnam",
          "name:als": "Vietnam",
          "name:ang": "Fietnam",
          "name:arz": "ÙÙŠÙŠØªÙ†Ø§Ù…",
          "name:ast": "Vietnam",
          "name:bar": "Vietnam",
          "name:bcl": "Bietnam",
          "name:bjn": "Vietnam",
          "name:bpy": "à¦­à¦¿à¦¯à¦¼à§‡à¦¤à¦¨à¦¾à¦®",
          "name:bug": "Vietnam",
          "name:bxr": "Ğ’ÑŒĞµÑ‚Ğ½Ğ°Ğ¼",
          "name:cdo": "Yue Nam",
          "name:ceb": "Vietnam",
          "name:chy": "Vietnam",
          "name:ckb": "Ú¤ÛŒÛØªÙ†Ø§Ù…",
          "name:crh": "Vyetnam",
          "name:csb": "Wietnam",
          "name:diq": "Vietnam",
          "name:dsb": "Vietnam",
          "name:eml": "Vietnam",
          "name:ext": "Vietnam",
          "name:frp": "ViÃªt Nam",
          "name:frr": "Vietnam",
          "name:fur": "Vietnam",
          "name:gag": "Vyetnam",
          "name:gan": "è¶Šå—",
          "name:hak": "YeÌt-nÃ m",
          "name:haw": "Wiekanama",
          "name:hif": "Vietnam",
          "name:hsb": "Vietnam",
          "name:ilo": "Bietnam",
          "name:jbo": "gugdrvietnama",
          "name:kaa": "Vietnam",
          "name:kab": "Vietnam",
          "name:kbd": "Ğ’Ğ¸ĞµÑ‚Ğ½Ğ°Ğ¼",
          "name:krc": "Ğ’ÑŒĞµÑ‚Ğ½Ğ°Ğ¼",
          "name:ksh": "Vietnam",
          "name:lad": "Vietnam",
          "name:lez": "Ğ’ÑŒĞµÑ‚Ğ½Ğ°Ğ¼",
          "name:lij": "Vietnam",
          "name:lmo": "Vietnam",
          "name:ltg": "Vjetnams",
          "name:lzh": "è¶Šå—",
          "name:mdf": "Ğ’Ğ¸ĞµÑ‚Ğ½Ğ°Ğ¼",
          "name:mhr": "Ğ’ÑŒĞµÑ‚Ğ½Ğ°Ğ¼",
          "name:mtq": "ViÃªt Nam",
          "name:mwl": "Bietname",
          "name:mzn": "ÙˆÛŒØªÙ†Ø§Ù…",
          "name:nah": "Vietnam",
          "name:nan": "OaÌt-lÃ¢m",
          "name:nap": "Vietnam",
          "name:nds": "Vietnam",
          "name:nov": "Vietnam",
          "name:nrm": "Vietnam",
          "name:nso": "Vietnam",
          "name:pag": "Vietnam",
          "name:pam": "Vietnam",
          "name:pap": "Vietnam",
          "name:pcd": "Vietnam",
          "name:pdc": "Vietnam",
          "name:pfl": "Vietnam",
          "name:pih": "Wiyetnaam",
          "name:pms": "Vietnam",
          "name:pnb": "ÙˆÛŒØªÙ†Ø§Ù…",
          "name:pnt": "Î’Î¹ÎµÏ„Î½Î¬Î¼",
          "name:rue": "Ğ’Ñ”Ñ‚Ğ½Ğ°Ğ¼",
          "name:sah": "Ğ’ÑŒĞµÑ‚Ğ½Ğ°Ğ¼",
          "name:scn": "Vietnam",
          "name:sco": "Vietnam",
          "name:smn": "Vietnam",
          "name:sms": "Vietnaam",
          "name:srn": "Vi-etnam",
          "name:stq": "Vietnam",
          "name:szl": "Wietnam",
          "name:tet": "Vietname",
          "name:tok": "ma Wije",
          "name:tpi": "Vietnam",
          "name:tum": "Vietnam",
          "name:tzl": "Vietnam",
          "name:udm": "Ğ’ÑŒĞµÑ‚Ğ½Ğ°Ğ¼",
          "name:vec": "Vietnam",
          "name:vep": "Vjetnam",
          "name:vls": "Vietnam",
          "name:vro": "Vietnam",
          "name:war": "Vietnam",
          "name:wuu": "è¶Šå—",
          "name:xal": "Ğ’ÑŒĞµÑ‚Ğ´Ğ¸Ğ½ ĞÑ€Ğ½",
          "name:yue": "è¶Šå—",
          "name:zea": "Vietnam",
          "way_area": "43.0053",
          "wikidata": "Q881",
          "ISO3166-1": "VN",
          "wikipedia": "vi:Viá»‡t Nam",
          "admin_level": "2",
          "alt_name:eo": "Vjetnamujo",
          "name:nds-nl": "Vietnam",
          "name:bat-smg": "Vietnams",
          "name:cbk-zam": "Vietnam",
          "name:map-bms": "Vietnam",
          "name:roa-rup": "Vietnam",
          "name:vi-Hani": "è¶Šå—",
          "name:za-Hani": "è¶Šå—",
          "name:zh-Hans": "è¶Šå—",
          "name:zh-Hant": "è¶Šå—",
          "name:roa-tara": "Vietnam",
          "official_name": "Cá»™ng HÃ²a XÃ£ Há»™i Chá»§ NghÄ©a Viá»‡t Nam",
          "name:be-tarask": "Ğ’Ñ–ĞµÑ‚Ğ½Ğ°Ğ¼",
          "ISO3166-1:alpha2": "VN",
          "ISO3166-1:alpha3": "VNM",
          "default_language": "vi",
          "official_name:cs": "VietnamskÃ¡ socialistickÃ¡ republika",
          "official_name:en": "Socialist Republic of Vietnam",
          "official_name:eo": "Socialista Respubliko de Vjetnamio",
          "official_name:es": "RepÃºblica Socialista de Vietnam",
          "official_name:ru": "Ğ¡Ğ¾Ñ†Ğ¸Ğ°Ğ»Ğ¸ÑÑ‚Ğ¸Ñ‡ĞµÑĞºĞ°Ñ Ğ ĞµÑĞ¿ÑƒĞ±Ğ»Ğ¸ĞºĞ° Ğ’ÑŒĞµÑ‚Ğ½Ğ°Ğ¼",
          "official_name:vi": "Cá»™ng HÃ²a XÃ£ Há»™i Chá»§ NghÄ©a Viá»‡t Nam",
          "official_name:zh": "è¶Šå—ç¤¾ä¼šä¸»ä¹‰å…±å’Œå›½ / è¶Šå—ç¤¾æœƒä¸»ç¾©å…±å’Œåœ‹",
          "ISO3166-1:numeric": "704",
          "official_name:vi-Hani": "å…±å’Œç¤¾æœƒä¸»ç¾©è¶Šå—",
          "official_name:zh-Hans": "è¶Šå—ç¤¾ä¼šä¸»ä¹‰å…±å’Œå›½",
          "official_name:zh-Hant": "è¶Šå—ç¤¾æœƒä¸»ç¾©å…±å’Œåœ‹"
        }
      },
      "geometry": {
        "type": "Polygon",
        "coordinates": [
          [
            [
              113.6422392,
              10.012864
            ],
            [
              113.6423472,
              10.0058565
            ],
            [
              113.6426137,
              10.0002557
            ],
            [
              113.64263410593665,
              10
            ],
            [
              114,
              10
            ],
            [
              114,
              10.242507405627371
            ],
            [
              113.9963003,
              10.2460268
            ],
            [
              113.9898957,
              10.2515855
            ],
            [
              113.9821306,
              10.2577278
            ],
            [
              113.9752372,
              10.2626881
            ],
            [
              113.9681375,
              10.267358
            ],
            [
              113.960844,
              10.2717291
            ],
            [
              113.9521074,
              10.2764409
            ],
            [
              113.9431458,
              10.2807242
            ],
            [
              113.9353019,
              10.2840466
            ],
            [
              113.9273226,
              10.2870407
            ],
            [
              113.9192221,
              10.2897011
            ],
            [
              113.9110148,
              10.2920232
            ],
            [
              113.9013242,
              10.2942991
            ],
            [
              113.8929358,
              10.2958747
            ],
            [
              113.8844874,
              10.2971009
            ],
            [
              113.874575,
              10.2980871
            ],
            [
              113.8660481,
              10.2985498
            ],
            [
              113.8560857,
              10.2986421
            ],
            [
              113.8475515,
              10.2983374
            ],
            [
              113.8390379,
              10.297679
            ],
            [
              113.8291516,
              10.2964654
            ],
            [
              113.8207346,
              10.2950455
            ],
            [
              113.8110021,
              10.2929495
            ],
            [
              113.8027519,
              10.2907798
            ],
            [
              113.7946019,
              10.2882699
            ],
            [
              113.7865667,
              10.2854242
            ],
            [
              113.7773565,
              10.2816864
            ],
            [
              113.7683442,
              10.2775075
            ],
            [
              113.7607935,
              10.273582
            ],
            [
              113.7546343,
              10.2700739
            ],
            [
              113.7474142,
              10.2655862
            ],
            [
              113.7403929,
              10.2608029
            ],
            [
              113.7335827,
              10.2557326
            ],
            [
              113.7280775,
              10.2512945
            ],
            [
              113.7216856,
              10.2457216
            ],
            [
              113.7155382,
              10.2398884
            ],
            [
              113.7096461,
              10.2338052
            ],
            [
              113.7040198,
              10.2274828
            ],
            [
              113.6986693,
              10.2209326
            ],
            [
              113.6936042,
              10.214166
            ],
            [
              113.6896078,
              10.2083706
            ],
            [
              113.6858207,
              10.2024406
            ],
            [
              113.6815592,
              10.195157
            ],
            [
              113.6782487,
              10.1889565
            ],
            [
              113.6745715,
              10.1813703
            ],
            [
              113.67018,
              10.1710308
            ],
            [
              113.6659541,
              10.1591291
            ],
            [
              113.6628461,
              10.1483473
            ],
            [
              113.6600916,
              10.1360339
            ],
            [
              113.6443043,
              10.0408005
            ],
            [
              113.6434144,
              10.0338477
            ],
            [
              113.6427731,
              10.0268683
            ],
            [
              113.6423812,
              10.0198709
            ],
            [
              113.6422392,
              10.012864
            ]
          ]
        ]
      }
    }
  ]
}