{
  "type": "FeatureCollection",
  "features": [
    {
      "type": "Feature",
      "properties": {
        "osm_id": -214665,
        "boundary": "administrative",
        "admin_level": 2,
        "parents": null,
        "name": "Kazakhstan",
        "local_name": "Қазақстан",
        "name_en": "Kazakhstan",
        "all_tags": {
          "flag": "http://upload.wikimedia.org/wikipedia/commons/d/d3/Flag_of_Kazakhstan.svg",
          "name": "Қазақстан",
          "int_ref": "KZ",
          "name:ab": "Ҟазаҟсҭан",
          "name:af": "Kasakstan",
          "name:am": "ካዛክስታን",
          "name:an": "Cazaquistán",
          "name:ar": "كازاخستان",
          "name:av": "Хъазахъистан",
          "name:az": "Qazaxıstan",
          "name:ba": "Ҡаҙағстан",
          "name:be": "Казахстан",
          "name:bg": "Казахстан",
          "name:bi": "Kazakhstan",
          "name:bn": "কাজাখস্তান",
          "name:bo": "ཀཛ་ཀིསུ་གཏན།",
          "name:br": "Kazakstan",
          "name:bs": "Kazahstan",
          "name:ca": "Kazakhstan",
          "name:ce": "Кхазакхстан",
          "name:cs": "Kazachstán",
          "name:cu": "Каꙁахстанъ",
          "name:cv": "Казахстан",
          "name:cy": "Kazakstan",
          "name:da": "Kasakhstan",
          "name:de": "Kasachstan",
          "name:dv": "ކަޒަކިސްތާން",
          "name:ee": "Kazakhstan",
          "name:el": "Καζακστάν",
          "name:en": "Kazakhstan",
          "name:eo": "Kazaĥio",
          "name:es": "Kazajistán",
          "name:et": "Kasahstan",
          "name:eu": "Kazakhstan",
          "name:fa": "قزاقستان",
          "name:fi": "Kazakstan",
          "name:fo": "Kasakstan",
          "name:fr": "Kazakhstan",
          "name:fy": "Kazakstan",
          "name:ga": "An Chasacstáin",
          "name:gd": "Casachstàn",
          "name:gl": "Casaquistán",
          "name:gn": "Kazajistán",
          "name:gu": "કઝાકિસ્તાન",
          "name:gv": "Yn Chassaghstaan",
          "name:he": "קזחסטן",
          "name:hi": "कज़ाख़िस्तान",
          "name:hr": "Kazahstan",
          "name:ht": "Kazakstan",
          "name:hu": "Kazahsztán",
          "name:hy": "Ղազախստան",
          "name:ia": "Kazakhstan",
          "name:id": "Kazakhstan",
          "name:ie": "Kazakstan",
          "name:io": "Kazakstan",
          "name:is": "Kasakstan",
          "name:it": "Kazakistan",
          "name:ja": "カザフスタン",
          "name:jv": "Kazakhstan",
          "name:ka": "ყაზახეთი",
          "name:kg": "Kazakhstan",
          "name:kk": "Қазақстан",
          "name:kl": "Kasakhstani",
          "name:km": "កាសាក់ស្ថាន",
          "name:kn": "ಕಜಾಕಸ್ಥಾನ್",
          "name:ko": "카자흐스탄",
          "name:ku": "Qazaxistan",
          "name:kv": "Казахстан",
          "name:kw": "Pow Kazagh",
          "name:ky": "Казакстан Республикасы",
          "name:la": "Kazachstania",
          "name:lb": "Kasachstan",
          "name:li": "Kazachstan",
          "name:ln": "Kazakstáni",
          "name:lt": "Kazachstanas",
          "name:lv": "Kazahstāna",
          "name:mg": "Kazakstàna",
          "name:mi": "Katatānga",
          "name:mk": "Казахстан",
          "name:ml": "ഖസാഖ്സ്ഥാൻ",
          "name:mn": "Казахстан",
          "name:mr": "कझाकस्तान",
          "name:ms": "Kazakhstan",
          "name:mt": "Każakistan",
          "name:my": "ကာဇက်စတန်နိုင်ငံ",
          "name:na": "Kadaketan",
          "name:nl": "Kazachstan",
          "name:nn": "Kasakhstan",
          "name:no": "Kasakhstan",
          "name:nv": "Kʼazah Bikéyah",
          "name:oc": "Cazacstan",
          "name:or": "କାଜାଖସ୍ତାନ",
          "name:os": "Хъазахстан",
          "name:pa": "ਕਜਾਖਸਤਾਨ",
          "name:pl": "Kazachstan",
          "name:ps": "قزاقستان",
          "name:pt": "Cazaquistão",
          "name:qu": "Qasaqsuyu",
          "name:rm": "Kasachstan",
          "name:ro": "Kazahstan",
          "name:ru": "Казахстан",
          "name:rw": "Kazakisitani",
          "name:sa": "कजाकस्थान",
          "name:se": "Kazakstan",
          "name:sh": "Kazahstan",
          "name:si": "කසක්ස්තානය",
          "name:sk": "Kazachstan",
          "name:sl": "Kazahstan",
          "name:so": "Kasakhstan",
          "name:sq": "Kazakistani",
          "name:sr": "Казахстан",
          "name:ss": "IKhazakhi",
          "name:su": "Kazastan",
          "name:sv": "Kazakstan",
          "name:sw": "Kazakhstan",
          "name:ta": "கசக்ஸ்தான்",
          "name:te": "కజకస్తాన్",
          "name:tg": "Қазоқистон",
          "name:th": "ประเทศคาซัคสถาน",
          "name:tk": "Gazagystan",
          "name:tl": "Kazakhstan",
          "name:tr": "Kazakistan",
          "name:tt": "Казакъстан",
          "name:ug": "قازاقىستان",
          "name:uk": "Казахстан",
          "name:ur": "قازقستان",
          "name:uz": "Qozogʻiston",
          "name:vi": "Kazakhstan",
          "name:vo": "Kazakistän",
          "name:wo": "Kasakistaan",
          "name:yi": "קאזאכסטאן",
          "name:yo": "Kàsàkstán",
          "name:za": "Hahsazgwswhdanj",
          "name:zh": "哈萨克斯坦",
          "boundary": "administrative",
          "int_name": "Kazakhstan",
          "name:ace": "Kazakhstan",
          "name:als": "Kasachstan",
          "name:ang": "Casahstan",
          "name:arc": "ܩܙܩܣܛܐܢ",
          "name:arz": "كازاخستان",
          "name:ast": "Kazakstán",
          "name:bar": "Kasachstan",
          "name:bcl": "Kasahistan",
          "name:bpy": "কাজাখস্তান",
          "name:bug": "Kazakhstan",
          "name:bxr": "Казахстан",
          "name:ceb": "Kasahistan",
          "name:chr": "ᎧᏌᎩᏍᏔᏂ",
          "name:ckb": "کازاخستان",
          "name:crh": "Qazahistan",
          "name:csb": "Kazachstan",
          "name:diq": "Qazaxıstan",
          "name:dsb": "Kazachstan",
          "name:ext": "Cazastán",
          "name:frp": "Kazacstan",
          "name:frr": "Kasachstan",
          "name:gag": "Kazahstan",
          "name:hak": "Hâ-sat-khiet-sṳ̂-thán",
          "name:haw": "Kasakana",
          "name:hif": "Kazakhstan",
          "name:hsb": "Kazachstan",
          "name:ilo": "Kazakstan",
          "name:jbo": "kazaksTAN",
          "name:kaa": "Qazaqstan",
          "name:kbd": "Къазахъстэн",
          "name:koi": "Казахстан",
          "name:krc": "Къазакъстан",
          "name:lad": "Kazakistan",
          "name:lez": "Къазакъстан",
          "name:lij": "Kazakistan",
          "name:lmo": "Kazakistan",
          "name:ltg": "Kazaheja",
          "name:lzh": "哈薩克",
          "name:mdf": "Казахстан",
          "name:mhr": "Казахстан",
          "name:min": "Kazakhstan",
          "name:mzn": "قزاقئون",
          "name:nah": "Cazactlālpan",
          "name:nan": "Kazakhstan",
          "name:nds": "Kasachstan",
          "name:new": "कजाख्स्तान",
          "name:nov": "Kasakstan",
          "name:pam": "Kazastan",
          "name:pap": "Kazachstan",
          "name:pih": "Kazakstaan",
          "name:pms": "Kazakistan",
          "name:pnb": "قازقستان",
          "name:rue": "Казахстан",
          "name:sah": "Казахстаан",
          "name:scn": "Kazakistan",
          "name:sco": "Kazakhstan",
          "name:smn": "Kazakstan",
          "name:sms": "Kazakstaan",
          "name:srn": "Kazachstan",
          "name:stq": "Kasachstan",
          "name:szl": "Kazachstōn",
          "name:udm": "Казахстан",
          "name:vec": "Kazakistan",
          "name:vep": "Kazahstan",
          "name:vro": "Kasastan",
          "name:war": "Kasahistan",
          "name:wuu": "哈萨克斯坦",
          "name:xal": "Хасгудин Орн",
          "name:xmf": "ყაზახეთი",
          "name:yue": "哈薩克",
          "name:zea": "Kazachstan",
          "way_area": "333.001",
          "wikidata": "Q232",
          "ISO3166-1": "KZ",
          "wikipedia": "kk:Қазақстан",
          "admin_level": "2",
          "alt_name:ar": "قزخستان;قزاقستان",
          "alt_name:eo": "Kazaĥujo;Kazaĥstano",
          "alt_name:vi": "Ca-dắc-xtan",
          "name:nds-nl": "Kazakstan",
          "name:bat-smg": "Kazakstans",
          "name:roa-rup": "Kazahstan",
          "name:zh-Hans": "哈萨克斯坦",
          "name:zh-Hant": "哈薩克",
          "name:roa-tara": "Kazakistan",
          "name:be-tarask": "Казахстан",
          "ISO3166-1:alpha2": "KZ",
          "ISO3166-1:alpha3": "KAZ",
          "official_name:ar": "جمهورية كازاخستان",
          "official_name:cs": "Republika Kazachstán",
          "official_name:en": "Republic of Kazakhstan",
          "official_name:eo": "Respubliko Kazaĥio",
          "official_name:es": "República de Kazajistán",
          "official_name:ru": "Республика Казахстан",
          "official_name:zh": "哈萨克斯坦共和国",
          "ISO3166-1:numeric": "398",
          "official_name:zh-Hans": "哈萨克斯坦共和国",
          "official_name:zh-Hant": "哈薩克共和國"
        }
      },
      "geometry": {
        "type": "Polygon",
        "coordinates": [
          [
            [
              59,
              50
            ],
            [
              60,
              50
            ],
            [
              60,
              50.8032383169833
            ],
            [
              59.9727453,
              50.7686995
            ],
            [
              59.9975098,
              50.6748481
            ],
            [
              59.9609108,
              50.6609442
            ],
            [
              59.9292854,
              50.6459427
            ],
            [
              59.9098443,
              50.6363294
            ],
            [
              59.9061992,
              50.6338697
            ],
            [
              59.9053641,
              50.6330134
            ],
            [
              59.8706882,
              50.6068972
            ],
            [
              59.8668428,
              50.6037946
            ],
            [
              59.862003,
              50.598881
            ],
            [
              59.8131772,
              50.535508
            ],
            [
              59.7761413,
              50.5409505
            ],
            [
              59.6152544,
              50.5307781
            ],
            [
              59.509517,
              50.4953129
            ],
            [
              59.5166784,
              50.5282698
            ],
            [
              59.4573533,
              50.543418
            ],
            [
              59.4571817,
              50.5437016
            ],
            [
              59.4572461,
              50.544513
            ],
            [
              59.4575143,
              50.5451743
            ],
            [
              59.4574714,
              50.5459584
            ],
            [
              59.4570851,
              50.5472946
            ],
            [
              59.4577181,
              50.5479832
            ],
            [
              59.4585979,
              50.5484672
            ],
            [
              59.4598853,
              50.5487331
            ],
            [
              59.4606149,
              50.5491217
            ],
            [
              59.4607437,
              50.5496398
            ],
            [
              59.4605935,
              50.5504101
            ],
            [
              59.4607758,
              50.5511873
            ],
            [
              59.4627821,
              50.5536209
            ],
            [
              59.4624925,
              50.5542753
            ],
            [
              59.462986,
              50.5554886
            ],
            [
              59.4622457,
              50.5562111
            ],
            [
              59.4625568,
              50.5568587
            ],
            [
              59.4623101,
              50.5574585
            ],
            [
              59.4627392,
              50.5582287
            ],
            [
              59.4635975,
              50.5611867
            ],
            [
              59.465239,
              50.5628769
            ],
            [
              59.4650674,
              50.5644035
            ],
            [
              59.4667411,
              50.566816
            ],
            [
              59.4668698,
              50.5678791
            ],
            [
              59.4675765,
              50.568777
            ],
            [
              59.4674063,
              50.56961
            ],
            [
              59.466784,
              50.5702641
            ],
            [
              59.4630344,
              50.5726981
            ],
            [
              59.4628787,
              50.573494
            ],
            [
              59.4631791,
              50.574516
            ],
            [
              59.463973,
              50.5757833
            ],
            [
              59.4638443,
              50.5765056
            ],
            [
              59.4630289,
              50.5770097
            ],
            [
              59.4628143,
              50.5777864
            ],
            [
              59.463222,
              50.5786449
            ],
            [
              59.4629216,
              50.5792853
            ],
            [
              59.46172,
              50.5798576
            ],
            [
              59.46172,
              50.5805934
            ],
            [
              59.4627714,
              50.5816289
            ],
            [
              59.463222,
              50.5827461
            ],
            [
              59.4629293,
              50.5842828
            ],
            [
              59.5688208,
              50.5734895
            ],
            [
              59.569011,
              50.5742128
            ],
            [
              59.568598,
              50.5747589
            ],
            [
              59.567699,
              50.575443
            ],
            [
              59.5665832,
              50.5756338
            ],
            [
              59.5661969,
              50.5765604
            ],
            [
              59.5664973,
              50.5775142
            ],
            [
              59.567699,
              50.5789314
            ],
            [
              59.5693276,
              50.581354
            ],
            [
              59.5691988,
              50.5818172
            ],
            [
              59.568126,
              50.583207
            ],
            [
              59.5678277,
              50.5843542
            ],
            [
              59.5682976,
              50.5856594
            ],
            [
              59.5675273,
              50.5863978
            ],
            [
              59.566154,
              50.5873242
            ],
            [
              59.5642657,
              50.5877601
            ],
            [
              59.5629783,
              50.5874332
            ],
            [
              59.5622895,
              50.5867493
            ],
            [
              59.5610471,
              50.586752
            ],
            [
              59.5589421,
              50.5875667
            ],
            [
              59.5584292,
              50.5886865
            ],
            [
              59.5566246,
              50.5907
            ],
            [
              59.5538802,
              50.5917108
            ],
            [
              59.5520778,
              50.5935633
            ],
            [
              59.5520756,
              50.5956856
            ],
            [
              59.5501466,
              50.5971593
            ],
            [
              59.548387,
              50.5974045
            ],
            [
              59.5476553,
              50.5984369
            ],
            [
              59.5467134,
              50.5992024
            ],
            [
              59.5441813,
              50.6033972
            ],
            [
              59.5429797,
              50.6041326
            ],
            [
              59.5419497,
              50.6044594
            ],
            [
              59.5407052,
              50.6045684
            ],
            [
              59.5378728,
              50.6065839
            ],
            [
              59.5368728,
              50.608267
            ],
            [
              59.537074,
              50.6086449
            ],
            [
              59.537685,
              50.6089108
            ],
            [
              59.5025928,
              50.6122159
            ],
            [
              59.4792952,
              50.6414793
            ],
            [
              59.4644743,
              50.6423064
            ],
            [
              59.4638497,
              50.6426674
            ],
            [
              59.4633223,
              50.6424737
            ],
            [
              59.4624871,
              50.6424508
            ],
            [
              59.4614729,
              50.6427027
            ],
            [
              59.4615043,
              50.6436177
            ],
            [
              59.4610011,
              50.6440248
            ],
            [
              59.460346,
              50.6442855
            ],
            [
              59.4588876,
              50.6443037
            ],
            [
              59.4578815,
              50.6444892
            ],
            [
              59.4557227,
              50.6454549
            ],
            [
              59.4530759,
              50.6453049
            ],
            [
              59.4518486,
              50.64568
            ],
            [
              59.4510233,
              50.645644
            ],
            [
              59.4478711,
              50.6445829
            ],
            [
              59.4457769,
              50.6445963
            ],
            [
              59.444747,
              50.6442833
            ],
            [
              59.444071,
              50.6433036
            ],
            [
              59.4433169,
              50.6429514
            ],
            [
              59.4418073,
              50.6427729
            ],
            [
              59.4407451,
              50.642215
            ],
            [
              59.4395006,
              50.6418612
            ],
            [
              59.4381165,
              50.642249
            ],
            [
              59.437226,
              50.6419905
            ],
            [
              59.4368505,
              50.6410243
            ],
            [
              59.4356489,
              50.6403507
            ],
            [
              59.4333422,
              50.6399697
            ],
            [
              59.4312394,
              50.6391192
            ],
            [
              59.4295978,
              50.6389559
            ],
            [
              59.4270229,
              50.6395274
            ],
            [
              59.426229,
              50.6393437
            ],
            [
              59.424684,
              50.6394253
            ],
            [
              59.4224417,
              50.6385748
            ],
            [
              59.4214976,
              50.6378263
            ],
            [
              59.4180107,
              50.6367308
            ],
            [
              59.4169493,
              50.6367646
            ],
            [
              59.4150359,
              50.6380909
            ],
            [
              59.4134188,
              50.6378672
            ],
            [
              59.4123227,
              50.6379218
            ],
            [
              59.4109511,
              50.6383367
            ],
            [
              59.4102577,
              50.6393541
            ],
            [
              59.4095886,
              50.6394458
            ],
            [
              59.4082189,
              50.6391618
            ],
            [
              59.4069537,
              50.6394801
            ],
            [
              59.4054365,
              50.6392348
            ],
            [
              59.4035348,
              50.6393872
            ],
            [
              59.4019067,
              50.6390647
            ],
            [
              59.3998644,
              50.6398645
            ],
            [
              59.3987776,
              50.6406287
            ],
            [
              59.3970895,
              50.6400717
            ],
            [
              59.3963492,
              50.6401466
            ],
            [
              59.3961239,
              50.6404596
            ],
            [
              59.3956089,
              50.6405072
            ],
            [
              59.3954801,
              50.640133
            ],
            [
              59.3950724,
              50.6398064
            ],
            [
              59.3934545,
              50.6400661
            ],
            [
              59.3920791,
              50.6405854
            ],
            [
              59.3909094,
              50.6406451
            ],
            [
              59.3900567,
              50.6409665
            ],
            [
              59.389413,
              50.6410311
            ],
            [
              59.3889977,
              50.6407977
            ],
            [
              59.298401,
              50.6529714
            ],
            [
              59.2785761,
              50.6335546
            ],
            [
              59.2342445,
              50.6641675
            ],
            [
              59.2062744,
              50.6674537
            ],
            [
              59.1930538,
              50.6727431
            ],
            [
              59.1616881,
              50.6681185
            ],
            [
              59.1138938,
              50.6830592
            ],
            [
              59.0885825,
              50.6771134
            ],
            [
              59.04191,
              50.6898294
            ],
            [
              59.03133,
              50.6881047
            ],
            [
              59,
              50.690768194808996
            ],
            [
              59,
              50
            ]
          ]
        ]
      }
    },
    {
      "type": "Feature",
      "properties": {
        "osm_id": -60189,
        "boundary": "administrative",
        "admin_level": 2,
        "parents": null,
        "name": "Russia",
        "local_name": "Россия",
        "name_en": "Russia",
        "all_tags": {
          "flag": "https://upload.wikimedia.org/wikipedia/commons/f/f3/Flag_of_Russia.svg",
          "name": "Россия",
          "int_ref": "RU",
          "name:ab": "Урыстәыла",
          "name:af": "Rusland",
          "name:ak": "Russia",
          "name:am": "ሩሲያ",
          "name:an": "Rusia",
          "name:ar": "روسيا",
          "name:as": "ৰুশিযা",
          "name:av": "Россиялъул Федерация",
          "name:ay": "Rusiya",
          "name:az": "Rusiya",
          "name:ba": "Рәсәй",
          "name:be": "Расія",
          "name:bg": "Русия",
          "name:bi": "Rusia",
          "name:bm": "Risila",
          "name:bn": "রাশিয়া",
          "name:bo": "ཨུ་རུ་སུ།",
          "name:br": "Rusia",
          "name:bs": "Rusija",
          "name:ca": "Rússia",
          "name:ce": "Росси",
          "name:ch": "Russia",
          "name:co": "Russia",
          "name:cs": "Rusko",
          "name:cu": "Рѡсїꙗ",
          "name:cv": "Раççей Патшалăхĕ",
          "name:cy": "Rwsia",
          "name:da": "Rusland",
          "name:de": "Russland",
          "name:dv": "ރޫސީވިލާތް",
          "name:dz": "ར་ཤི་ཡཱན་ཕེ་ཌི་རེ་ཤཱན",
          "name:ee": "Russia",
          "name:el": "Ρωσία",
          "name:en": "Russia",
          "name:eo": "Rusio",
          "name:es": "Rusia",
          "name:et": "Venemaa",
          "name:eu": "Errusia",
          "name:fa": "روسیه",
          "name:ff": "Roosiya",
          "name:fi": "Venäjä",
          "name:fo": "Russland",
          "name:fr": "Russie",
          "name:fy": "Ruslân",
          "name:ga": "An Rúis",
          "name:gd": "An Ruis",
          "name:gl": "Rusia",
          "name:gn": "Rrúsia",
          "name:gu": "રશિયા",
          "name:gv": "Yn Roosh",
          "name:ha": "Rasha",
          "name:he": "רוסיה",
          "name:hi": "रूस",
          "name:hr": "Ruska Federacija",
          "name:ht": "Risi",
          "name:hu": "Oroszország",
          "name:hy": "Ռուսաստան",
          "name:ia": "Russia",
          "name:id": "Rusia",
          "name:ie": "Russia",
          "name:ig": "Mpaghara Russia",
          "name:ik": "Russia",
          "name:io": "Rusia",
          "name:is": "Rússland",
          "name:it": "Russia",
          "name:iu": "ᐅᓛᓴ",
          "name:ja": "ロシア",
          "name:jv": "Rusia",
          "name:ka": "რუსეთი",
          "name:kg": "Rusia",
          "name:ki": "Russia",
          "name:kk": "Ресей",
          "name:kl": "Ruslandi",
          "name:km": "រុស្ស៊ី",
          "name:kn": "ರಷ್ಯಾ",
          "name:ko": "러시아",
          "name:ks": "روٗس",
          "name:ku": "Rûsya",
          "name:kv": "Рочму",
          "name:kw": "Russi",
          "name:ky": "Орусия",
          "name:la": "Russia",
          "name:lb": "Russland",
          "name:lg": "Rwasha",
          "name:li": "Rusland",
          "name:ln": "Rusí",
          "name:lo": "ລັດເຊັຽ",
          "name:lt": "Rusija",
          "name:lv": "Krievija",
          "name:mg": "Rosia",
          "name:mi": "Ruhia",
          "name:mk": "Русија",
          "name:ml": "റഷ്യ",
          "name:mn": "Оросын Холбооны Улс",
          "name:mo": "Русия",
          "name:mr": "रशिया",
          "name:ms": "Rusia",
          "name:mt": "Russja",
          "name:my": "ရုရှားနိုင်ငံ",
          "name:na": "Ratsiya",
          "name:ne": "रुस",
          "name:nl": "Rusland",
          "name:nn": "Russland",
          "name:no": "Russland",
          "name:nv": "Biʼééʼ Łichííʼí Bikéyah",
          "name:ny": "Russia",
          "name:oc": "Russia",
          "name:om": "Raashiyaa",
          "name:or": "ଋଷିଆ",
          "name:os": "Уæрæсе",
          "name:pa": "ਰੂਸ",
          "name:pl": "Rosja",
          "name:ps": "روسیه",
          "name:pt": "Rússia",
          "name:qu": "Rusiya",
          "name:rm": "Russia",
          "name:rn": "Uburusiya",
          "name:ro": "Rusia",
          "name:ru": "Россия",
          "name:rw": "Uburusiya",
          "name:sc": "Rùssia",
          "name:sd": "روس",
          "name:se": "Ruošša",
          "name:sg": "Rusïi",
          "name:sh": "Rusija",
          "name:si": "රුසියාව",
          "name:sk": "Rusko",
          "name:sl": "Rusija",
          "name:sm": "Lusia",
          "name:sn": "Russia",
          "name:so": "Ruushka",
          "name:sq": "Rusia",
          "name:sr": "Русија",
          "name:ss": "IRashiya",
          "name:st": "Russia",
          "name:su": "Rusia",
          "name:sv": "Ryssland",
          "name:sw": "Shirikisho la Urusi",
          "name:ta": "உருசியா",
          "name:te": "రష్యా",
          "name:tg": "Русия",
          "name:th": "ประเทศรัสเซีย",
          "name:ti": "ራሻ",
          "name:tk": "Russiýa",
          "name:tl": "Pederasyong Ruso",
          "name:to": "Lūsia",
          "name:tr": "Rusya Federasyonu",
          "name:ts": "Russia",
          "name:tt": "Русия",
          "name:tw": "Russia",
          "name:ty": "Rūtia",
          "name:ug": "روسىيە",
          "name:uk": "Росія",
          "name:ur": "روس",
          "name:uz": "Rossiya Federatsiyasi",
          "name:ve": "Rashia",
          "name:vi": "Liên bang Nga",
          "name:vo": "Rusän",
          "name:wa": "Federåcion d' Rûsseye",
          "name:wo": "Federaasioŋ bu Riisi",
          "name:xh": "IRashiya",
          "name:yi": "רוסלאנד",
          "name:yo": "Rọ́síà",
          "name:za": "Ezlozswh Lienzbangh",
          "name:zh": "俄罗斯",
          "name:zu": "IRashiya",
          "boundary": "administrative",
          "currency": "RUB",
          "int_name": "Russia",
          "name:ace": "Rusia",
          "name:als": "Russland",
          "name:ang": "Russland",
          "name:arc": "ܪܘܣܝܐ",
          "name:arz": "روسيا",
          "name:ast": "Rusia",
          "name:bar": "Russland",
          "name:bcl": "Rusya",
          "name:bjn": "Rusia",
          "name:bpy": "রাশিয়া",
          "name:bug": "Russia",
          "name:bxr": "Ородой Холбооной Улас",
          "name:cdo": "Ngò̤-lò̤-sṳ̆",
          "name:ceb": "Rusya",
          "name:chr": "ᏲᏂᏱ",
          "name:chy": "Russia",
          "name:ckb": "ڕووسیا",
          "name:crh": "Rusiye",
          "name:csb": "Ruskô",
          "name:diq": "Rusya",
          "name:dsb": "Rusojska",
          "name:eml": "Rossia",
          "name:ext": "Russia",
          "name:frp": "Russie",
          "name:frr": "Ruslönj",
          "name:fur": "Russie",
          "name:gag": "Rusiya",
          "name:gan": "俄羅斯",
          "name:hak": "Ngò-lò-sṳ̂",
          "name:haw": "Rūsia",
          "name:hif": "Russia",
          "name:hsb": "Ruska federacija",
          "name:ilo": "Rusia",
          "name:jbo": "rukygu'e",
          "name:kaa": "Rossiya",
          "name:kab": "Rrus",
          "name:kbd": "Урысей",
          "name:koi": "Рочму",
          "name:krc": "Россия Федерация",
          "name:lad": "Rusia",
          "name:lbe": "Аьрасат",
          "name:lez": "Урусат",
          "name:lij": "Ruscia",
          "name:lmo": "Rüssia",
          "name:ltg": "Krīveja",
          "name:lzh": "俄羅斯",
          "name:mdf": "Рузмастор",
          "name:mhr": "Россий",
          "name:min": "Rusia",
          "name:mrj": "Россий",
          "name:mwl": "Rússia",
          "name:myv": "Россия Мастор",
          "name:mzn": "ئوروسیا",
          "name:nah": "Rusia",
          "name:nan": "Lō͘-se-a",
          "name:nap": "Russia",
          "name:nds": "Russ'sche Föderatschoon",
          "name:new": "रुस",
          "name:nov": "Rusia",
          "name:nrm": "Russie",
          "name:nso": "Russia",
          "name:pag": "Rusia",
          "name:pam": "Rusia",
          "name:pap": "Rusia",
          "name:pcd": "Russie",
          "name:pdc": "Russland",
          "name:pfl": "Russlond",
          "name:pih": "Rusha",
          "name:pms": "Russia",
          "name:pnb": "روس",
          "name:pnt": "Ρουσία",
          "name:rmy": "Rusiya",
          "name:rue": "Росія",
          "name:sah": "Арассыыйа",
          "name:scn": "Russia",
          "name:sco": "Roushie",
          "name:smn": "Ruoššâ",
          "name:sms": "Ruõššjânnam",
          "name:srn": "Rusland",
          "name:stq": "Ruslound",
          "name:szl": "Rusyjŏ",
          "name:tet": "Rúsia",
          "name:tok": "ma Losi",
          "name:tpi": "Rasia",
          "name:tum": "Russia",
          "name:tzl": "Rußía",
          "name:udm": "Россия",
          "name:vec": "Rusia",
          "name:vep": "Venäma",
          "name:vls": "Rusland",
          "name:vro": "Vinnemaa",
          "name:war": "Rusya",
          "name:wuu": "俄罗斯",
          "name:xal": "Орсн Орн Нутг",
          "name:xmf": "რუსეთი",
          "name:yue": "俄羅斯",
          "name:zea": "Rusland",
          "old_name": "Московия;Русское Царство;Российская Империя;Российская Советская Федеративная Социалистическая Республика",
          "way_area": "3241.56",
          "wikidata": "Q159",
          "ISO3166-1": "RU",
          "wikipedia": "ru:Россия",
          "name:UN:ar": "الاتحاد الروسي",
          "name:UN:en": "Russian Federation (the)",
          "name:UN:es": "Federación de Rusia (la)",
          "name:UN:fr": "Fédération de Russie (la)",
          "name:UN:ru": "Российская Федерация",
          "name:UN:zh": "俄罗斯联邦",
          "population": "146447424",
          "short_name": "РФ",
          "admin_level": "2",
          "alt_name:eo": "Rusujo;Ruslando",
          "border_type": "nation",
          "name:nds-nl": "Ruslaand",
          "name:bat-smg": "Rosėjė",
          "name:cbk-zam": "Rusia",
          "name:map-bms": "Rusia",
          "name:roa-rup": "Arusia",
          "name:zh-Hans": "俄罗斯",
          "name:zh-Hant": "俄羅斯",
          "name:roa-tara": "Russie",
          "official_name": "Российская Федерация",
          "short_name:ru": "РФ",
          "name:be-tarask": "Расея",
          "old_short_name": "РСФСР",
          "according_to:RU": "yes",
          "according_to:UA": "no",
          "population:date": "2023-01-01",
          "ISO3166-1:alpha2": "RU",
          "ISO3166-1:alpha3": "RUS",
          "default_language": "ru",
          "official_name:ar": "الاتحاد الروسي",
          "official_name:be": "Расійская Федэрацыя",
          "official_name:cs": "Ruská federace",
          "official_name:de": "Russische Föderation",
          "official_name:en": "Russian Federation",
          "official_name:eo": "Rusa Federacio",
          "official_name:es": "Federación Rusa",
          "official_name:et": "Venemaa Föderatsioon",
          "official_name:fi": "Venäjän Federaatio",
          "official_name:fr": "Fédération de Russie",
          "official_name:nl": "Russische Federatie",
          "official_name:pl": "Federacja Rosyjska",
          "official_name:pt": "Federação Russa",
          "official_name:ru": "Российская Федерация",
          "official_name:sk": "Ruská federácia",
          "official_name:sl": "Ruska federacija",
          "official_name:sv": "Ryska Federationen",
          "official_name:uk": "Російська Федерація",
          "official_name:yi": "רוסישע פֿעדעראַציע",
          "official_name:zh": "俄罗斯联邦",
          "ISO3166-1:numeric": "643",
          "official_name:ast": "Federación Rusa",
          "old_short_name:en": "RSFSR",
          "old_short_name:ru": "РСФСР",
          "official_name:zh-Hans": "俄罗斯联邦",
          "official_name:zh-Hant": "俄羅斯聯邦"
        }
      },
      "geometry": {
        "type": "Polygon",
        "coordinates": [
          [
            [
              59,
              50.690768194808996
            ],
            [
              59.03133,
              50.6881047
            ],
            [
              59.04191,
              50.6898294
            ],
            [
              59.0885825,
              50.6771134
            ],
            [
              59.1138938,
              50.6830592
            ],
            [
              59.1616881,
              50.6681185
            ],
            [
              59.1930538,
              50.6727431
            ],
            [
              59.2062744,
              50.6674537
            ],
            [
              59.2342445,
              50.6641675
            ],
            [
              59.2785761,
              50.6335546
            ],
            [
              59.298401,
              50.6529714
            ],
            [
              59.3889977,
              50.6407977
            ],
            [
              59.389413,
              50.6410311
            ],
            [
              59.3900567,
              50.6409665
            ],
            [
              59.3909094,
              50.6406451
            ],
            [
              59.3920791,
              50.6405854
            ],
            [
              59.3934545,
              50.6400661
            ],
            [
              59.3950724,
              50.6398064
            ],
            [
              59.3954801,
              50.640133
            ],
            [
              59.3956089,
              50.6405072
            ],
            [
              59.3961239,
              50.6404596
            ],
            [
              59.3963492,
              50.6401466
            ],
            [
              59.3970895,
              50.6400717
            ],
            [
              59.3987776,
              50.6406287
            ],
            [
              59.3998644,
              50.6398645
            ],
            [
              59.4019067,
              50.6390647
            ],
            [
              59.4035348,
              50.6393872
            ],
            [
              59.4054365,
              50.6392348
            ],
            [
              59.4069537,
              50.6394801
            ],
            [
              59.4082189,
              50.6391618
            ],
            [
              59.4095886,
              50.6394458
            ],
            [
              59.4102577,
              50.6393541
            ],
            [
              59.4109511,
              50.6383367
            ],
            [
              59.4123227,
              50.6379218
            ],
            [
              59.4134188,
              50.6378672
            ],
            [
              59.4150359,
              50.6380909
            ],
            [
              59.4169493,
              50.6367646
            ],
            [
              59.4180107,
              50.6367308
            ],
            [
              59.4214976,
              50.6378263
            ],
            [
              59.4224417,
              50.6385748
            ],
            [
              59.424684,
              50.6394253
            ],
            [
              59.426229,
              50.6393437
            ],
            [
              59.4270229,
              50.6395274
            ],
            [
              59.4295978,
              50.6389559
            ],
            [
              59.4312394,
              50.6391192
            ],
            [
              59.4333422,
              50.6399697
            ],
            [
              59.4356489,
              50.6403507
            ],
            [
              59.4368505,
              50.6410243
            ],
            [
              59.437226,
              50.6419905
            ],
            [
              59.4381165,
              50.642249
            ],
            [
              59.4395006,
              50.6418612
            ],
            [
              59.4407451,
              50.642215
            ],
            [
              59.4418073,
              50.6427729
            ],
            [
              59.4433169,
              50.6429514
            ],
            [
              59.444071,
              50.6433036
            ],
            [
              59.444747,
              50.6442833
            ],
            [
              59.4457769,
              50.6445963
            ],
            [
              59.4478711,
              50.6445829
            ],
            [
              59.4510233,
              50.645644
            ],
            [
              59.4518486,
              50.64568
            ],
            [
              59.4530759,
              50.6453049
            ],
            [
              59.4557227,
              50.6454549
            ],
            [
              59.4578815,
              50.6444892
            ],
            [
              59.4588876,
              50.6443037
            ],
            [
              59.460346,
              50.6442855
            ],
            [
              59.4610011,
              50.6440248
            ],
            [
              59.4615043,
              50.6436177
            ],
            [
              59.4614729,
              50.6427027
            ],
            [
              59.4624871,
              50.6424508
            ],
            [
              59.4633223,
              50.6424737
            ],
            [
              59.4638497,
              50.6426674
            ],
            [
              59.4644743,
              50.6423064
            ],
            [
              59.4792952,
              50.6414793
            ],
            [
              59.5025928,
              50.6122159
            ],
            [
              59.537685,
              50.6089108
            ],
            [
              59.537074,
              50.6086449
            ],
            [
              59.5368728,
              50.608267
            ],
            [
              59.5378728,
              50.6065839
            ],
            [
              59.5407052,
              50.6045684
            ],
            [
              59.5419497,
              50.6044594
            ],
            [
              59.5429797,
              50.6041326
            ],
            [
              59.5441813,
              50.6033972
            ],
            [
              59.5467134,
              50.5992024
            ],
            [
              59.5476553,
              50.5984369
            ],
            [
              59.548387,
              50.5974045
            ],
            [
              59.5501466,
              50.5971593
            ],
            [
              59.5520756,
              50.5956856
            ],
            [
              59.5520778,
              50.5935633
            ],
            [
              59.5538802,
              50.5917108
            ],
            [
              59.5566246,
              50.5907
            ],
            [
              59.5584292,
              50.5886865
            ],
            [
              59.5589421,
              50.5875667
            ],
            [
              59.5610471,
              50.586752
            ],
            [
              59.5622895,
              50.5867493
            ],
            [
              59.5629783,
              50.5874332
            ],
            [
              59.5642657,
              50.5877601
            ],
            [
              59.566154,
              50.5873242
            ],
            [
              59.5675273,
              50.5863978
            ],
            [
              59.5682976,
              50.5856594
            ],
            [
              59.5678277,
              50.5843542
            ],
            [
              59.568126,
              50.583207
            ],
            [
              59.5691988,
              50.5818172
            ],
            [
              59.5693276,
              50.581354
            ],
            [
              59.567699,
              50.5789314
            ],
            [
              59.5664973,
              50.5775142
            ],
            [
              59.5661969,
              50.5765604
            ],
            [
              59.5665832,
              50.5756338
            ],
            [
              59.567699,
              50.575443
            ],
            [
              59.568598,
              50.5747589
            ],
            [
              59.569011,
              50.5742128
            ],
            [
              59.5688208,
              50.5734895
            ],
            [
              59.4629293,
              50.5842828
            ],
            [
              59.463222,
              50.5827461
            ],
            [
              59.4627714,
              50.5816289
            ],
            [
              59.46172,
              50.5805934
            ],
            [
              59.46172,
              50.5798576
            ],
            [
              59.4629216,
              50.5792853
            ],
            [
              59.463222,
              50.5786449
            ],
            [
              59.4628143,
              50.5777864
            ],
            [
              59.4630289,
              50.5770097
            ],
            [
              59.4638443,
              50.5765056
            ],
            [
              59.463973,
              50.5757833
            ],
            [
              59.4631791,
              50.574516
            ],
            [
              59.4628787,
              50.573494
            ],
            [
              59.4630344,
              50.5726981
            ],
            [
              59.466784,
              50.5702641
            ],
            [
              59.4674063,
              50.56961
            ],
            [
              59.4675765,
              50.568777
            ],
            [
              59.4668698,
              50.5678791
            ],
            [
              59.4667411,
              50.566816
            ],
            [
              59.4650674,
              50.5644035
            ],
            [
              59.465239,
              50.5628769
            ],
            [
              59.4635975,
              50.5611867
            ],
            [
              59.4627392,
              50.5582287
            ],
            [
              59.4623101,
              50.5574585
            ],
            [
              59.4625568,
              50.5568587
            ],
            [
              59.4622457,
              50.5562111
            ],
            [
              59.462986,
              50.5554886
            ],
            [
              59.4624925,
              50.5542753
            ],
            [
              59.4627821,
              50.5536209
            ],
            [
              59.4607758,
              50.5511873
            ],
            [
              59.4605935,
              50.5504101
            ],
            [
              59.4607437,
              50.5496398
            ],
            [
              59.4606149,
              50.5491217
            ],
            [
              59.4598853,
              50.5487331
            ],
            [
              59.4585979,
              50.5484672
            ],
            [
              59.4577181,
              50.5479832
            ],
            [
              59.4570851,
              50.5472946
            ],
            [
              59.4574714,
              50.5459584
            ],
            [
              59.4575143,
              50.5451743
            ],
            [
              59.4572461,
              50.544513
            ],
            [
              59.4571817,
              50.5437016
            ],
            [
              59.4573533,
              50.543418
            ],
            [
              59.5166784,
              50.5282698
            ],
            [
              59.509517,
              50.4953129
            ],
            [
              59.6152544,
              50.5307781
            ],
            [
              59.7761413,
              50.5409505
            ],
            [
              59.8131772,
              50.535508
            ],
            [
              59.862003,
              50.598881
            ],
            [
              59.8668428,
              50.6037946
            ],
            [
              59.8706882,
              50.6068972
            ],
            [
              59.9053641,
              50.6330134
            ],
            [
              59.9061992,
              50.6338697
            ],
            [
              59.9098443,
              50.6363294
            ],
            [
              59.9292854,
              50.6459427
            ],
            [
              59.9609108,
              50.6609442
            ],
            [
              59.9975098,
              50.6748481
            ],
            [
              59.9727453,
              50.7686995
            ],
            [
              60,
              50.8032383169833
            ],
            [
              60,
              51
            ],
            [
              59,
              51
            ],
            [
              59,
              50.690768194808996
            ]
          ]
        ]
      }
    }
  ]
}