{
  "type": "FeatureCollection",
  "features": [
    {
      "type": "Feature",
      "properties": {
        "osm_id": -1311341,
        "boundary": "administrative",
        "admin_level": 2,
        "parents": null,
        "name": "Spain",
        "local_name": "España",
        "name_en": "Spain",
        "all_tags": {
          "flag": "http://upload.wikimedia.org/wikipedia/commons/3/32/Flag_of_Spain_%28Civil%29.svg",
          "name": "España",
          "name:af": "Spanje",
          "name:am": "እስፓንያ",
          "name:an": "Espanya",
          "name:ar": "إسبانيا",
          "name:ay": "Ispaña",
          "name:az": "İspaniya",
          "name:ba": "Испания",
          "name:be": "Іспанія",
          "name:bg": "Испания",
          "name:bi": "Spain",
          "name:bn": "স্পেন",
          "name:bo": "ཞི་པན་ཡ།",
          "name:br": "Spagn",
          "name:bs": "Španija",
          "name:ca": "Espanya",
          "name:ce": "Испани",
          "name:ch": "España",
          "name:co": "Spagna",
          "name:cs": "Španělsko",
          "name:cu": "Їспанїꙗ",
          "name:cv": "Испани",
          "name:cy": "Sbaen",
          "name:da": "Spanien",
          "name:de": "Spanien",
          "name:dv": "އިސްޕެއިން",
          "name:dz": "སིཔཱེན་",
          "name:ee": "Spain",
          "name:el": "Ισπανία",
          "name:en": "Spain",
          "name:eo": "Hispanio",
          "name:es": "España",
          "name:et": "Hispaania",
          "name:eu": "Espainia",
          "name:fa": "اسپانیا",
          "name:fi": "Espanja",
          "name:fo": "Spania",
          "name:fr": "Espagne",
          "name:fy": "Spanje",
          "name:ga": "An Spáinn",
          "name:gd": "An Spàinn",
          "name:gl": "España",
          "name:gn": "España",
          "name:gu": "સ્પેન",
          "name:gv": "Yn Spaainey",
          "name:he": "ספרד",
          "name:hi": "स्पेन",
          "name:hr": "Španjolska",
          "name:ht": "Espay",
          "name:hu": "Spanyolország",
          "name:hy": "Իսպանիա",
          "name:ia": "Espania",
          "name:id": "Spanyol",
          "name:ie": "Hispania",
          "name:ig": "Spain",
          "name:ik": "Spaña",
          "name:io": "Hispania",
          "name:is": "Spánn",
          "name:it": "Spagna",
          "name:iu": "ᓯᐸᐃᓐ",
          "name:ja": "スペイン",
          "name:jv": "Spanyol",
          "name:ka": "ესპანეთი",
          "name:kg": "Espania",
          "name:kk": "Испания",
          "name:kl": "Spania",
          "name:km": "អេស្ប៉ាញ",
          "name:kn": "ಸ್ಪೇನ್",
          "name:ko": "스페인",
          "name:ku": "Spanya",
          "name:kv": "Испания",
          "name:kw": "Spayn",
          "name:ky": "Испания",
          "name:la": "Hispania",
          "name:lb": "Spuenien",
          "name:li": "Spanje",
          "name:ln": "Espania",
          "name:lt": "Ispanija",
          "name:lv": "Spānija",
          "name:mg": "Espaina",
          "name:mi": "Peina",
          "name:mk": "Шпанија",
          "name:ml": "സ്പെയിൻ",
          "name:mn": "Испани",
          "name:mr": "स्पेन",
          "name:ms": "Sepanyol",
          "name:mt": "Spanja",
          "name:my": "စပိန်နိုင်ငံ",
          "name:na": "Pain",
          "name:ne": "स्पेन",
          "name:nl": "Spanje",
          "name:nn": "Spania",
          "name:no": "Spania",
          "name:nv": "Dibé Diníí Bikéyah",
          "name:oc": "Espanha",
          "name:or": "ସ୍ପେନ",
          "name:os": "Испани",
          "name:pa": "ਸਪੇਨ",
          "name:pl": "Hiszpania",
          "name:ps": "اسپانیا",
          "name:pt": "Espanha",
          "name:qu": "Ispaña",
          "name:rm": "Spagna",
          "name:rn": "Esipanye",
          "name:ro": "Spania",
          "name:ru": "Испания",
          "name:rw": "Esipanye",
          "name:sa": "स्पेन्",
          "name:sc": "Ispagna",
          "name:se": "Espánnja",
          "name:sh": "Španija",
          "name:sk": "Španielsko",
          "name:sl": "Španija",
          "name:sm": "Spania",
          "name:so": "Isbania",
          "name:sq": "Spanja",
          "name:sr": "Шпанија",
          "name:ss": "Sipeyini",
          "name:st": "Spain",
          "name:su": "Spanyol",
          "name:sv": "Spanien",
          "name:sw": "Hispania",
          "name:ta": "எசுப்பானியா",
          "name:te": "స్పెయిన్",
          "name:tg": "Испониё",
          "name:th": "ประเทศสเปน",
          "name:tk": "Ispaniýa",
          "name:tl": "Espanya",
          "name:to": "Sepeni",
          "name:tr": "İspanya",
          "name:ts": "Spaniya",
          "name:tt": "Испания",
          "name:ty": "Paniora",
          "name:ug": "ئىسپانىيە",
          "name:uk": "Іспанія",
          "name:ur": "ہسپانیہ",
          "name:uz": "Ispaniya",
          "name:vi": "Tây Ban Nha",
          "name:vo": "Spanyän",
          "name:wa": "Espagne",
          "name:wo": "Ispaañ",
          "name:yi": "שפאניע",
          "name:yo": "Spéìn",
          "name:za": "Sihbanhyaz",
          "name:zh": "西班牙",
          "name:zu": "ISpeyini",
          "boundary": "administrative",
          "currency": "EUR",
          "int_name": "Spain",
          "name:ace": "Seupanyo",
          "name:als": "Spanien",
          "name:ang": "Spēonland",
          "name:arc": "ܐܣܦܢܝܐ",
          "name:arz": "اسبانيا",
          "name:ast": "España",
          "name:bar": "Spanien",
          "name:bcl": "Espanya",
          "name:bpy": "স্পেন",
          "name:bug": "Spanyol",
          "name:bxr": "Испани",
          "name:cdo": "Să̤-băng-ngà",
          "name:ceb": "Espanya",
          "name:chr": "ᏍᏆᏂᏱ",
          "name:chy": "Spain",
          "name:ckb": "ئیسپانیا",
          "name:crh": "İspaniya",
          "name:csb": "Szpańskô",
          "name:diq": "İspanya",
          "name:dsb": "Špańska",
          "name:eml": "Spaggna",
          "name:ext": "España",
          "name:frp": "Èspagne",
          "name:frr": "Spaanien",
          "name:fur": "Spagne",
          "name:gag": "İspaniya",
          "name:gan": "西班牙",
          "name:glk": "ائسپانيا",
          "name:hak": "Sî-pân-ngà",
          "name:haw": "Sepania",
          "name:hif": "Spain",
          "name:hsb": "Španiska",
          "name:ilo": "España",
          "name:jbo": "sangu'e",
          "name:kaa": "İspaniya",
          "name:kab": "Spenyul",
          "name:kbd": "Эспаниэ",
          "name:koi": "Эспання",
          "name:krc": "Испания",
          "name:lad": "Espanya",
          "name:lez": "Испания",
          "name:lij": "Spagna",
          "name:lmo": "Spagna",
          "name:ltg": "Spaneja",
          "name:lzh": "西班牙",
          "name:mdf": "Испания",
          "name:mhr": "Испаний",
          "name:min": "Spanyol",
          "name:mwl": "Spanha",
          "name:mzn": "ایسپانیا",
          "name:nah": "Caxtillān",
          "name:nan": "Se-pan-gâ",
          "name:nap": "Spagna",
          "name:nds": "Spanien",
          "name:new": "स्पेन",
          "name:nov": "Spania",
          "name:nrm": "Espangne",
          "name:pag": "Espanya",
          "name:pam": "Espanya",
          "name:pap": "Spaña",
          "name:pcd": "Espanne",
          "name:pdc": "Schpaani",
          "name:pih": "Spain",
          "name:pms": "Spagna",
          "name:pnb": "سپین",
          "name:pnt": "Ισπανία",
          "name:rmy": "Spaniya",
          "name:rue": "Іспанія",
          "name:sah": "Испания",
          "name:scn": "Spagna",
          "name:sco": "Spain",
          "name:smn": "Espanja",
          "name:sms": "Espanja",
          "name:srn": "Spanyorokondre",
          "name:stq": "Spanien",
          "name:szl": "Szpanijŏ",
          "name:tet": "España",
          "name:tok": "ma Epanja",
          "name:tpi": "Spen",
          "name:tzl": "Espain",
          "name:udm": "Испания",
          "name:vec": "Spagna",
          "name:vep": "Ispanii",
          "name:vls": "Spanje",
          "name:vro": "Hispaania",
          "name:war": "Espanya",
          "name:wuu": "西班牙",
          "name:xal": "Эспанмудин Нутг",
          "name:xmf": "ესპანეთი",
          "name:yue": "西班牙",
          "name:zea": "Spanje",
          "way_area": "65.939",
          "wikidata": "Q29",
          "ISO3166-1": "ES",
          "wikipedia": "es:España",
          "admin_level": "2",
          "alt_name:eo": "Hispanujo",
          "alt_name:gl": "Espanha",
          "name:nds-nl": "Spanje",
          "name:bat-smg": "Ispanėjė",
          "name:cbk-zam": "España",
          "name:zh-Hans": "西班牙",
          "name:zh-Hant": "西班牙",
          "name:roa-tara": "Spagne",
          "official_name": "Reino de España",
          "name:be-tarask": "Гішпанія",
          "ISO3166-1:alpha2": "ES",
          "ISO3166-1:alpha3": "ESP",
          "official_name:ar": "مملكة إسبانيا",
          "official_name:be": "Каралеўства Іспанія",
          "official_name:cs": "Španělské království",
          "official_name:el": "Βασίλειο της Ισπανίας",
          "official_name:eo": "Reĝlando Hispanio",
          "official_name:fa": "پادشاهی اسپانیا",
          "official_name:gl": "Reino de España",
          "official_name:pt": "Reino de Espanha",
          "official_name:ur": "مملکت ہسپانیہ",
          "official_name:zh": "西班牙王国",
          "ISO3166-1:numeric": "724",
          "official_name:zh-Hans": "西班牙王国",
          "official_name:zh-Hant": "西班牙王國"
        }
      },
      "geometry": {
        "type": "Polygon",
        "coordinates": [
          [
            [
              -1,
              37.34193939454769
            ],
            [
              -0.9216755,
              37.3500146
            ],
            [
              -0.9110165,
              37.3498286
            ],
            [
              -0.8943775,
              37.3504066
            ],
            [
              -0.8778195,
              37.3518486
            ],
            [
              -0.8614155,
              37.3541506
            ],
            [
              -0.8449715,
              37.3573596
            ],
            [
              -0.8281665,
              37.3615506
            ],
            [
              -0.8126345,
              37.3663556
            ],
            [
              -0.8016525,
              37.3704296
            ],
            [
              -0.7983525,
              37.3705416
            ],
            [
              -0.7817885,
              37.3719706
            ],
            [
              -0.7653775,
              37.3742586
            ],
            [
              -0.7491865,
              37.3773956
            ],
            [
              -0.7416025,
              37.3791726
            ],
            [
              -0.7316065,
              37.3817766
            ],
            [
              -0.7160635,
              37.3865696
            ],
            [
              -0.7009445,
              37.3921606
            ],
            [
              -0.6838415,
              37.3997036
            ],
            [
              -0.6698515,
              37.4024556
            ],
            [
              -0.6604415,
              37.4046856
            ],
            [
              -0.6461355,
              37.4083316
            ],
            [
              -0.6305815,
              37.4131126
            ],
            [
              -0.6197915,
              37.4168496
            ],
            [
              -0.6046585,
              37.4224276
            ],
            [
              -0.5900145,
              37.4287826
            ],
            [
              -0.5759195,
              37.4358846
            ],
            [
              -0.5624345,
              37.4437056
            ],
            [
              -0.5496165,
              37.4522116
            ],
            [
              -0.5406965,
              37.4588456
            ],
            [
              -0.5346505,
              37.4635706
            ],
            [
              -0.5244475,
              37.4723706
            ],
            [
              -0.4783255,
              37.5046756
            ],
            [
              -0.4662125,
              37.5138226
            ],
            [
              -0.4548735,
              37.5235806
            ],
            [
              -0.4443575,
              37.5339066
            ],
            [
              -0.4347085,
              37.5447586
            ],
            [
              -0.4259685,
              37.5560876
            ],
            [
              -0.4181755,
              37.5678476
            ],
            [
              -0.4113635,
              37.5799886
            ],
            [
              -0.4055615,
              37.5924566
            ],
            [
              -0.4007945,
              37.6051996
            ],
            [
              -0.3970835,
              37.6181646
            ],
            [
              -0.3944465,
              37.6312936
            ],
            [
              -0.3928925,
              37.6445316
            ],
            [
              -0.3924395,
              37.6548136
            ],
            [
              -0.3891685,
              37.9212506
            ],
            [
              -0.3015122692514738,
              38
            ],
            [
              -1,
              38
            ],
            [
              -1,
              37.34193939454769
            ]
          ]
        ]
      }
    }
  ]
}