{
  "type": "FeatureCollection",
  "features": [
    {
      "type": "Feature",
      "properties": {
        "osm_id": -556706,
        "boundary": "administrative",
        "admin_level": 2,
        "parents": null,
        "name": "New Zealand",
        "local_name": "New Zealand / Aotearoa",
        "name_en": "New Zealand",
        "all_tags": {
          "flag": "http://upload.wikimedia.org/wikipedia/commons/3/3e/Flag_of_New_Zealand.svg",
          "name": "New Zealand / Aotearoa",
          "name:af": "Nieu-Seeland",
          "name:am": "·äí·ãç ·ãö·àã·äï·ãµ",
          "name:an": "Nueva Zelanda",
          "name:ar": "ŸÜŸäŸàÿ≤ŸäŸÑŸÜÿØÿß",
          "name:az": "Yeni Zelandiya",
          "name:ba": "–Ø“£—ã –ó–µ–ª–∞–Ω–¥–∏—è",
          "name:be": "–ù–æ–≤–∞—è –ó–µ–ª–∞–Ω–¥—ã—è",
          "name:bg": "–ù–æ–≤–∞ –ó–µ–ª–∞–Ω–¥–∏—è",
          "name:bh": "‡§®‡•ç‡§Ø‡•Ç‡§ú‡•Ä‡§≤‡•à‡§Ç‡§°",
          "name:bi": "Niu Zilan",
          "name:bm": "New Zealand",
          "name:bn": "‡¶®‡¶ø‡¶â‡¶ú‡¶ø‡¶≤‡ßç‡¶Ø‡¶æ‡¶®‡ßç‡¶°",
          "name:bo": "‡Ωì‡Ω≤‡Ω†‡Ω¥‡ºã‡Ωõ‡Ω≤‡ºã‡Ω£‡Ω∫‡Ωì‡ºã‡Ωå‡Ω≤‡ºç",
          "name:br": "Zeland-Nevez",
          "name:bs": "Novi Zeland",
          "name:ca": "Nova Zelanda",
          "name:ce": "–ö–µ—Ä–ª–∞ –ó–µ–ª–∞–Ω–¥–∏",
          "name:ch": "Nuebu Silan",
          "name:co": "Nova Zilanda",
          "name:cr": "·ìÇ·êÖ ·ìØ·êä·êß·ê£",
          "name:cs": "Nov√Ω Z√©land",
          "name:cu": "–ù–æ–≤—ä ÍôÄ—î–ª–∞–Ω–¥—ä",
          "name:cv": "√áƒï–Ωƒï –ó–µ–ª–∞–Ω–¥–∏",
          "name:cy": "Seland Newydd",
          "name:da": "New Zealand",
          "name:de": "Neuseeland",
          "name:dv": "ﬁÇﬁ®ﬁáﬁ™ﬁíﬁ®ﬁçﬁ≠ﬁÇﬁ∞ﬁëﬁ™",
          "name:dz": "‡Ωì‡Ω≤‡Ω†‡Ω¥‡ºã‡Ωõ‡Ω≤‡ºã‡Ω£‡Ω∫‡Ωì‡Ωå‡ºã",
          "name:ee": "New Zealand",
          "name:el": "ŒùŒ≠Œ± ŒñŒ∑ŒªŒ±ŒΩŒ¥ŒØŒ±",
          "name:en": "New Zealand",
          "name:eo": "Nov-Zelando",
          "name:es": "Nueva Zelanda",
          "name:et": "Uus-Meremaa",
          "name:eu": "Zeelanda Berria",
          "name:fa": "ŸÜ€åŸàÿ≤€åŸÑŸÜÿØ",
          "name:ff": "Niw-Zilannda",
          "name:fi": "Uusi-Seelanti",
          "name:fj": "Niusiladi",
          "name:fo": "N√Ωs√¶land",
          "name:fr": "Nouvelle-Z√©lande",
          "name:fy": "Nij-Seel√¢n",
          "name:ga": "An Nua-Sh√©alainn",
          "name:gd": "Sealainn Nuadh",
          "name:gl": "Nova Zelandia",
          "name:gn": "Sel√°nda Pyahu",
          "name:gu": "‡™®‡´ç‡™Ø‡´Ç‡™ù‡´Ä‡™≤‡´á‡™®‡´ç‡™°",
          "name:gv": "Yn Teelynn Noa",
          "name:ha": "Sabuwar Zelandiya",
          "name:he": "◊†◊ô◊ï ◊ñ◊ô◊ú◊†◊ì",
          "name:hi": "‡§®‡•ç‡§Ø‡•Ç‡§ú‡§º‡•Ä‡§≤‡•à‡§£‡•ç‡§°",
          "name:hr": "Novi Zeland",
          "name:ht": "Nouv√®l Zelann",
          "name:hu": "√öj-Z√©land",
          "name:hy": "’Ü’∏÷Ä ‘∂’•’¨’°’∂’§’´’°",
          "name:ia": "Nove Zelanda",
          "name:id": "Selandia Baru",
          "name:ie": "Nov-Zeland",
          "name:io": "Nova-Zelando",
          "name:is": "N√Ωja-Sj√°land",
          "name:it": "Nuova Zelanda",
          "name:iu": "·ìÇ·êÖ ·ì∞·ìö·ìê",
          "name:ja": "„Éã„É•„Éº„Ç∏„Éº„É©„É≥„Éâ",
          "name:jv": "S√©landia Anyar",
          "name:ka": "·Éê·ÉÆ·Éê·Éö·Éò ·Éñ·Éî·Éö·Éê·Éú·Éì·Éò·Éê",
          "name:kk": "–ñ–∞“£–∞ –ó–µ–ª–∞–Ω–¥–∏—è",
          "name:kl": "New Zealand",
          "name:km": "·ûì·ûº·ûú·üÇ·ûõ·ûü·üÅ·û°·ûÑ·üã",
          "name:kn": "‡≤®‡≥ç‡≤Ø‡≥Ç ‡≤ú‡≥Ä‡≤≤‡≥ç‡≤Ø‡≤æ‡≤Ç‡≤°‡≥ç",
          "name:ko": "Îâ¥ÏßàÎûúÎìú",
          "name:ku": "N√ª Zelenda",
          "name:kv": "–í—ã–ª—å –ó–µ–ª–∞–Ω–¥–∏—è",
          "name:kw": "Mordir Nowydh",
          "name:ky": "–ñ–∞“£—ã –ó–µ–ª–∞–Ω–¥–∏—è",
          "name:la": "Nova Zelandia",
          "name:lb": "Neis√©iland",
          "name:li": "Nui-Zieland",
          "name:lo": "‡∫õ‡∫∞‡ªÄ‡∫ó‡∫î‡∫ô‡∫π‡ªÅ‡∫ß‡∫ô ‡ªÄ‡∫ä‡∫•‡∫±‡∫á",
          "name:lt": "Naujoji Zelandija",
          "name:lv": "Jaunzƒìlande",
          "name:mg": "Zelandy Vaovao",
          "name:mi": "Aotearoa",
          "name:mk": "–ù–æ–≤ –ó–µ–ª–∞–Ω–¥",
          "name:ml": "‡¥®‡µç‡¥Ø‡µÇ‡¥∏‡µÄ‡¥≤‡µª‡¥°‡µç",
          "name:mn": "–®–∏–Ω—ç –ó–µ–ª–∞–Ω–¥",
          "name:mr": "‡§®‡•ç‡§Ø‡•Ç ‡§ù‡•Ä‡§≤‡§Å‡§°",
          "name:ms": "New Zealand",
          "name:mt": "New Zealand",
          "name:my": "·Äî·Äö·Ä∞·Ä∏·Äá·ÄÆ·Äú·Äî·Ä∫·Äî·Ä≠·ÄØ·ÄÑ·Ä∫·ÄÑ·Ä∂",
          "name:na": "Niu Djiran",
          "name:ne": "‡§®‡•ç‡§Ø‡•Ç ‡§ú‡•Ä‡§≤‡•ç‡§Ø‡§æ‡§£‡•ç‡§°",
          "name:nl": "Nieuw-Zeeland",
          "name:nn": "New Zealand",
          "name:no": "New Zealand",
          "name:oc": "N√≤va Zelanda",
          "name:or": "‡¨®‡¨ø‡¨â‡¨ú‡¨ø‡¨≤‡≠ç‡≠ü‡¨æ‡¨£‡≠ç‡¨°",
          "name:os": "–ù–æ–≥ –ó–µ–ª–∞–Ω–¥–∏",
          "name:pa": "‡®®‡®ø‡®ä‡®ú‡®º‡©Ä‡®≤‡©à‡®Ç‡®°",
          "name:pi": "‡§®‡•ç‡§Ø‡•Ç-‡§ú‡•Ä‡§≤‡•à‡§Ç‡§°",
          "name:pl": "Nowa Zelandia",
          "name:ps": "ŸÜ€åŸàÿ≤€åŸÑŸÜ⁄â",
          "name:pt": "Nova Zel√¢ndia",
          "name:qu": "Musuq Silanda",
          "name:rm": "Nova Zelanda",
          "name:rn": "Nouvelle-Z√©lande",
          "name:ro": "Noua ZeelandƒÉ",
          "name:ru": "–ù–æ–≤–∞—è –ó–µ–ª–∞–Ω–¥–∏—è",
          "name:rw": "Nuveli Zelande",
          "name:sa": "‡§®‡•ç‡§Ø‡•Ç-‡§ú‡•Ä‡§≤‡•à‡§Ç‡§°",
          "name:sc": "Noa Zelanda",
          "name:sd": "ŸÜŸäŸàÿ≤ŸäŸÑŸäŸÜ⁄ä",
          "name:se": "Aotearoa",
          "name:sh": "Novi Zeland",
          "name:si": "‡∂±‡∑Ä ‡∑É‡∑ì‡∂Ω‡∂±‡∑ä‡∂≠‡∂∫",
          "name:sk": "Nov√Ω Z√©land",
          "name:sl": "Nova Zelandija",
          "name:sm": "Niu Sila",
          "name:sn": "New Zealand",
          "name:so": "New Zealand",
          "name:sq": "Zelanda e Re",
          "name:sr": "–ù–æ–≤–∏ –ó–µ–ª–∞–Ω–¥",
          "name:su": "Selandia Anyar",
          "name:sv": "Nya Zeeland",
          "name:sw": "New Zealand",
          "name:ta": "‡Æ®‡Æø‡ÆØ‡ØÇ‡Æö‡Æø‡Æ≤‡Ææ‡Æ®‡Øç‡Æ§‡ØÅ",
          "name:te": "‡∞®‡±ç‡∞Ø‡±Ç‡∞ú‡±Ä‡∞≤‡∞æ‡∞Ç‡∞°‡±ç",
          "name:tg": "–ó–µ–ª–∞–Ω–¥–∏—è–∏ –ù–∞–≤",
          "name:th": "‡∏õ‡∏£‡∏∞‡πÄ‡∏ó‡∏®‡∏ô‡∏¥‡∏ß‡∏ã‡∏µ‡πÅ‡∏•‡∏ô‡∏î‡πå",
          "name:ti": "·äí·ãç ·ãò·ã≠·àã·äï·ãµ",
          "name:tk": "T√§ze Zelandi√Ωa",
          "name:tl": "New Zealand",
          "name:tr": "Yeni Zelanda",
          "name:tt": "–Ø“£–∞ –ó–µ–ª–∞–Ω–¥–∏—è",
          "name:ty": "Aotearoa",
          "name:ug": "Ÿä€ê⁄≠Ÿâ ÿ≤€êŸÑÿßŸÜÿØŸâŸä€ï",
          "name:uk": "–ù–æ–≤–∞ –ó–µ–ª–∞–Ω–¥—ñ—è",
          "name:ur": "ŸÜ€åŸàÿ≤€å ŸÑ€åŸÜ⁄à",
          "name:uz": "Yangi Zelandiya",
          "name:vi": "New Zealand",
          "name:vo": "Nula-Sele√§ns",
          "name:wa": "Nouve Zelande",
          "name:wo": "Seland-Gu-Bees",
          "name:yi": "◊†◊ô◊ï ◊ñ◊ô◊ú◊ê◊†◊ì",
          "name:yo": "New Zealand",
          "name:za": "Saen Saelanz",
          "name:zh": "Á¥êË•øËò≠/Êñ∞Ë•øÂÖ∞",
          "name:zu": "INyuzilandi",
          "website": "https://www.govt.nz/",
          "boundary": "administrative",
          "name:ace": "Seulandia Bar√¥",
          "name:als": "Neuseeland",
          "name:ang": "Nƒ´we S«£land",
          "name:arc": "‹¢‹ù‹ò ‹ô‹ù‹†‹¢‹ï",
          "name:arz": "ŸÜŸäŸàÿ≤ŸäŸÑÿßŸÜÿØÿß",
          "name:ast": "Nueva Zelanda",
          "name:ban": "Selandia Anyar",
          "name:bar": "Neiseeland",
          "name:bcl": "Nueva Zelanda",
          "name:bpy": "‡¶®‡¶ø‡¶â‡¶ú‡¶ø‡¶≤‡ßç‡¶Ø‡¶æ‡¶®‡ßç‡¶°",
          "name:bxr": "–®—ç–Ω—ç –ó–µ–ª–∞–Ω–¥",
          "name:cdo": "Sƒ≠ng-sƒÉÃ§-l√†ng",
          "name:ceb": "New Zealand",
          "name:chr": "·é¢·è§·èè·é¢·é¥·èÇ·èó",
          "name:chy": "New Zealand",
          "name:ckb": "ŸÜ€åŸàÿ≤€åŸÑÿßŸÜÿØ",
          "name:crh": "Ya√±ƒ± Zelandiya",
          "name:csb": "Now√¥ Zelandzk√¥",
          "name:din": "New Zealand",
          "name:diq": "Zelandaya Newiye",
          "name:dsb": "Nowoseelandska",
          "name:ext": "Nueva Zelanda",
          "name:frp": "Nov√®la-Z√®lande",
          "name:frr": "Nei-Sialun",
          "name:gag": "Eni Zelandiya",
          "name:gom": "‡§®‡•ç‡§Ø‡•Ç‡§ù‡•Ä‡§≤‡§Ç‡§°",
          "name:got": "êåΩêåπêåøêåæêåπêçÉ êçÉêå∞êåπêçÖêå∞êåªêå∞êåΩêå≥",
          "name:hak": "N√©u S√Æ-l√†n",
          "name:haw": "N≈´kilani",
          "name:hif": "New Zealand",
          "name:hsb": "Nowoseelandska",
          "name:ilo": "Baro a Selanda",
          "name:inh": "–ö–µ—Ä–¥–∞ –ó–µ–ª–∞–Ω–¥–∏",
          "name:jam": "Nyuu Ziilant",
          "name:jbo": "zis. poi cnino",
          "name:kaa": "Jan'a Zelandiya",
          "name:kab": "Ziland Tamaynut",
          "name:kbd": "–ó–µ–ª—ç–Ω–¥ –©”Ä—ç",
          "name:krc": "–î–∂–∞–Ω–≥—ã –ó–µ–ª–∞–Ω–¥–∏—è",
          "name:lad": "Mueva Zelanda",
          "name:lez": "–¶”Ä–∏–π–∏ –ó–µ–ª–∞–Ω–¥–∏—è",
          "name:lfn": "Zeland Nova",
          "name:lij": "Neuva Selanda",
          "name:lmo": "N√∂va Zelanda",
          "name:lzh": "Á¥êË•øËò≠",
          "name:mai": "‡§®‡•ç‡§Ø‡•Å‡§ú‡§ø‡§≤‡•ç‡§Ø‡§æ‡§®‡•ç‡§°",
          "name:mrj": "–£ –ó–µ–ª–∞–Ω–¥–∏",
          "name:myv": "–û–¥ –ó–µ–ª–∞–Ω–¥–∏—è",
          "name:mzn": "ŸÜ€åŸàÿ≤ŸÑŸÜÿØ",
          "name:nah": "Yancuƒ´c ZetlƒÅlpan",
          "name:nan": "Sin JiaÃçt-l√¢n-jia",
          "name:nap": "N√≤va Zelanna",
          "name:nds": "Niegseeland",
          "name:new": "‡§®‡•ç‡§Ø‡•Å ‡§ú‡§ø‡§≤‡•ç‡§Ø‡§æ‡§®‡•ç‡§¶",
          "name:nov": "Novi Selande",
          "name:nrm": "Nouvelle Z√©lande",
          "name:nso": "New Zealand",
          "name:pam": "New Zealand",
          "name:pap": "Nueva Zelandia",
          "name:pcd": "Nov√®le-Zilinde",
          "name:pih": "Nyuu Ziilan",
          "name:pms": "Neuva Zelanda",
          "name:pnb": "ŸÜ€åŸàÿ≤€å ŸÑ€åŸÜ⁄à",
          "name:pnt": "ŒùŒ≠Œ± ŒñŒ∑ŒªŒ±ŒΩŒ¥ŒØŒ±",
          "name:rue": "–ù–æ–≤—ã–π –ó–µ–ª–∞–Ω–¥",
          "name:sah": "–°–∞“•–∞ –ó–µ–ª–∞–Ω–¥–∏—è",
          "name:sat": "·±±·±§·±≠·±©·±°·±§·±û·±Æ·±±·±∞",
          "name:scn": "Nova Zilanna",
          "name:sco": "New Zealand",
          "name:shn": "·Äô·Ä≠·Ä∞·ÄÑ·Ä∫·Ä∏·Åº·Ä≠·Äù·Ä∫·Ä∏·Å∏·ÄÆ·Çá·Äú·ÇÖ·Åº·Ä∫·Çá",
          "name:smn": "Aotearoa",
          "name:sms": "Aotearoa",
          "name:stq": "N√§i-Seelound",
          "name:szl": "Now≈è Zelandyj≈è",
          "name:tcy": "‡≤®‡≥ç‡≤Ø‡≥Ç ‡≤ù‡≤ø‡≤≤‡≥Ü‡≤Ç‡≤°‡≥ç",
          "name:tok": "ma Nusilan",
          "name:tpi": "Niu Silan",
          "name:trv": "New Zealand",
          "name:tum": "New Zealand",
          "name:tzl": "Noveu Zaiph√§ts",
          "name:udm": "–í—ã–ª—å –ó–µ–ª–∞–Ω–¥–∏—è",
          "name:vec": "Nova Ze≈Çanda",
          "name:vep": "Uz' Zelandii",
          "name:vls": "Nieuw-Z√™eland",
          "name:vro": "Vahts√µn√µ Meremaa",
          "name:war": "New Zealand",
          "name:wuu": "Êñ∞Ë•øÂÖ∞",
          "name:xal": "–®–∏–Ω–∑–µ–ª–µ–Ω–¥–∏–Ω –û—Ä–Ω",
          "name:xmf": "·Éê·ÉÆ·Éê·Éö·Éò ·Éñ·Éî·Éö·Éê·Éú·Éì·Éò·Éê",
          "name:yue": "Á¥êË•øËò≠",
          "name:zea": "Nieuw-Ze√™land",
          "way_area": "48.7509",
          "wikidata": "Q664",
          "ISO3166-1": "NZ",
          "wikipedia": "en:New Zealand",
          "population": "5158113",
          "admin_level": "2",
          "alt_name:ko": "ÏïÑÏò§ÌÖåÏïÑÎ°úÏïÑ",
          "name:nan-HJ": "Êñ∞ÁÜ±Ëò≠ÈÅÆ",
          "name:nan-TL": "Sin JiaÃçt-l√¢n-jia",
          "name:nds-nl": "Ni'j-Zeelaand",
          "name:simple": "New Zealand",
          "driving_side": "left",
          "name:bat-smg": "Naujuojƒó Zelandƒójƒó",
          "name:nan-POJ": "Sin JiaÃçt-l√¢n-jia",
          "name:roa-rup": "Naua Zeelanda",
          "name:zh-Hans": "Êñ∞Ë•øÂÖ∞",
          "name:zh-Hant": "Á¥êË•øËò≠",
          "name:roa-tara": "Nu√®ve Zelanne",
          "name:be-tarask": "–ù–æ–≤–∞—è –ó—ç–ª—è–Ω–¥—ã—è",
          "website:tourism": "http://www.newzealand.com",
          "ISO3166-1:alpha2": "NZ",
          "ISO3166-1:alpha3": "NZL",
          "ISO3166-1:numeric": "554"
        }
      },
      "geometry": {
        "type": "Polygon",
        "coordinates": [
          [
            [
              -178.2108431,
              -29.2450933
            ],
            [
              -178.2104535,
              -29.2563493
            ],
            [
              -178.2097935,
              -29.2638349
            ],
            [
              -178.2088142,
              -29.2712937
            ],
            [
              -178.2075169,
              -29.278715
            ],
            [
              -178.2059035,
              -29.2860885
            ],
            [
              -178.2028953,
              -29.2970365
            ],
            [
              -178.2005019,
              -29.3042454
            ],
            [
              -178.1978019,
              -29.3113706
            ],
            [
              -178.1931853,
              -29.3218798
            ],
            [
              -178.1879017,
              -29.332145
            ],
            [
              -178.1819677,
              -29.3421338
            ],
            [
              -178.1798492,
              -29.3493592
            ],
            [
              -178.1774245,
              -29.3565104
            ],
            [
              -178.1746975,
              -29.3635776
            ],
            [
              -178.1716719,
              -29.370551
            ],
            [
              -178.1665826,
              -29.3808139
            ],
            [
              -178.1608466,
              -29.390812
            ],
            [
              -178.1544815,
              -29.400514
            ],
            [
              -178.1498982,
              -29.4068024
            ],
            [
              -178.1450504,
              -29.4129371
            ],
            [
              -178.1372973,
              -29.4218321
            ],
            [
              -178.1318181,
              -29.4275454
            ],
            [
              -178.1231526,
              -29.4357705
            ],
            [
              -178.1139749,
              -29.4435589
            ],
            [
              -178.1043139,
              -29.4508865
            ],
            [
              -178.0942442,
              -29.4577347
            ],
            [
              -178.0838435,
              -29.4640937
            ],
            [
              -178.0730552,
              -29.4699382
            ],
            [
              -178.0619126,
              -29.4752502
            ],
            [
              -178.05045,
              -29.4800134
            ],
            [
              -178.0387025,
              -29.484213
            ],
            [
              -178.0267065,
              -29.4878361
            ],
            [
              -178.0144989,
              -29.4908715
            ],
            [
              -178.0021174,
              -29.4933099
            ],
            [
              -178,
              -29.493637743515517
            ],
            [
              -178,
              -29.0379896649513
            ],
            [
              -178.0101356,
              -29.0392389
            ],
            [
              -178.0186191,
              -29.040646
            ],
            [
              -178.0312162,
              -29.0432819
            ],
            [
              -178.0436235,
              -29.0465403
            ],
            [
              -178.0517701,
              -29.0490534
            ],
            [
              -178.0637732,
              -29.0533253
            ],
            [
              -178.0754824,
              -29.0581876
            ],
            [
              -178.089713,
              -29.0646992
            ],
            [
              -178.0998211,
              -29.0699239
            ],
            [
              -178.1096115,
              -29.0755971
            ],
            [
              -178.1162956,
              -29.079771
            ],
            [
              -178.123144,
              -29.0843132
            ],
            [
              -178.1330414,
              -29.0915418
            ],
            [
              -178.1424606,
              -29.0992482
            ],
            [
              -178.1513717,
              -29.1074081
            ],
            [
              -178.1597463,
              -29.1159955
            ],
            [
              -178.165018,
              -29.1219447
            ],
            [
              -178.1700321,
              -29.1280634
            ],
            [
              -178.1770543,
              -29.1375406
            ],
            [
              -178.1834581,
              -29.1473499
            ],
            [
              -178.1873737,
              -29.1540586
            ],
            [
              -178.1909997,
              -29.1608917
            ],
            [
              -178.1958846,
              -29.1713533
            ],
            [
              -178.2000908,
              -29.1820398
            ],
            [
              -178.2036048,
              -29.1929173
            ],
            [
              -178.2064151,
              -29.2039511
            ],
            [
              -178.2078931,
              -29.2113767
            ],
            [
              -178.2090521,
              -29.2188457
            ],
            [
              -178.2098905,
              -29.2263476
            ],
            [
              -178.2105116,
              -29.2338359
            ],
            [
              -178.2108431,
              -29.2450933
            ]
          ]
        ]
      }
    }
  ]
}