{
  "type": "FeatureCollection",
  "features": [
    {
      "type": "Feature",
      "properties": {
        "osm_id": -270056,
        "boundary": "administrative",
        "admin_level": 2,
        "parents": null,
        "name": "China",
        "local_name": "‰∏≠ÂõΩ",
        "name_en": "China",
        "all_tags": {
          "flag": "http://upload.wikimedia.org/wikipedia/commons/f/fa/Flag_of_the_People%27s_Republic_of_China.svg",
          "name": "‰∏≠ÂõΩ",
          "name:aa": "China",
          "name:ab": "–ß—ã–Ω“≠",
          "name:af": "China",
          "name:ak": "China",
          "name:am": "·ã®·âª·ã≠·äì",
          "name:an": "China",
          "name:ar": "ÿßŸÑÿµŸäŸÜ",
          "name:as": "‡¶ö‡ßÄ‡¶®",
          "name:av": "–ß–∏–Ω",
          "name:ay": "China",
          "name:az": "√áin",
          "name:ba": "“†—ã—Ç–∞–π",
          "name:be": "–ö—ñ—Ç–∞–π",
          "name:bg": "–ö–∏—Ç–∞–π",
          "name:bh": "‡§ö‡•Ä‡§®",
          "name:bi": "Jaena",
          "name:bm": "China",
          "name:bn": "‡¶ó‡¶£‡¶ö‡ßÄ‡¶®",
          "name:bo": "‡ΩÄ‡æ≤‡Ω¥‡ΩÑ‡ºã‡ΩÇ‡Ωº‡ºç",
          "name:br": "Sina",
          "name:bs": "Kina",
          "name:ca": "Xina",
          "name:ce": "–¶–∏–π–Ω-–º–æ—Ö–∫",
          "name:ch": "China",
          "name:co": "China",
          "name:cs": "ƒå√≠na",
          "name:cu": "–°—Ä—£–¥–∏–ΩÍôó–Ω—î",
          "name:cv": "–ö–∏—Ç–∞–π",
          "name:cy": "Tsieina",
          "name:da": "Kina",
          "name:de": "China",
          "name:dv": "ﬁêﬁ©ﬁÇﬁ™ﬁÜﬁ¶ﬁÉﬁ¶",
          "name:dz": "‡Ω¢‡æí‡æ±‡ºã‡Ωì‡ΩÇ",
          "name:ee": "China",
          "name:el": "ŒöŒØŒΩŒ±",
          "name:en": "China",
          "name:eo": "ƒàinio",
          "name:es": "China",
          "name:et": "Hiina",
          "name:eu": "Txina",
          "name:fa": "⁄Ü€åŸÜ",
          "name:ff": "Ciina",
          "name:fi": "Kiina",
          "name:fj": "Jaina",
          "name:fo": "Kina",
          "name:fr": "Chine",
          "name:fy": "Sina",
          "name:ga": "S√≠ne",
          "name:gd": "S√¨ona",
          "name:gl": "China",
          "name:gn": "Ch√≠na",
          "name:gu": "‡™ö‡´Ä‡™®",
          "name:gv": "Sheen",
          "name:ha": "Sin",
          "name:he": "◊°◊ô◊ü",
          "name:hi": "‡§ö‡•Ä‡§®‡•Ä",
          "name:hr": "Kina",
          "name:ht": "Chin",
          "name:hu": "K√≠na",
          "name:hy": "’â’´’∂’°’Ω’ø’°’∂",
          "name:ia": "China",
          "name:id": "Tiongkok",
          "name:ie": "China",
          "name:ig": "Chaina",
          "name:ii": "ÍçèÍá©",
          "name:ik": "China",
          "name:io": "Chinia",
          "name:is": "K√≠na",
          "name:it": "Cina",
          "name:iu": "·ì¥·êÉ·ìá",
          "name:ja": "‰∏≠ÂõΩ",
          "name:jv": "Cina",
          "name:ka": "·É©·Éò·Éú·Éî·Éó·Éò",
          "name:kg": "Sina",
          "name:ki": "China",
          "name:kk": "“ö—ã—Ç–∞–π",
          "name:kl": "Kina",
          "name:km": "·ûÖ·û∑·ûì",
          "name:kn": "‡≤ö‡≥Ä‡≤®‡≤ø",
          "name:ko": "Ï§ëÍµ≠",
          "name:ks": "⁄Ü€åŸñŸÜ",
          "name:ku": "√á√Æn",
          "name:kv": "–ö–∏—Ç–∞–π",
          "name:kw": "China",
          "name:ky": "–ö—ã—Ç–∞–π",
          "name:la": "Sinae",
          "name:lb": "China",
          "name:lg": "Cayina",
          "name:li": "China",
          "name:ln": "S√≠na",
          "name:lo": "‡∫õ‡∫∞‡ªÄ‡∫ó‡∫î‡∫à‡∫µ‡∫ô",
          "name:lt": "Kinija",
          "name:lv": "ƒ∂ƒ´na",
          "name:mg": "Sina",
          "name:mi": "Haina",
          "name:mk": "–ö–∏–Ω–∞",
          "name:ml": "‡¥ö‡µÄ‡¥®",
          "name:mn": "–•—è—Ç–∞–¥",
          "name:mr": "‡§ö‡•Ä‡§®",
          "name:ms": "China",
          "name:mt": "ƒäina",
          "name:my": "·Äê·Äõ·ÄØ·Äê·Ä∫",
          "name:na": "Tsiene",
          "name:nb": "Kina",
          "name:ne": "‡§ö‡•Ä‡§®",
          "name:nl": "China",
          "name:nn": "Kina",
          "name:no": "Kina",
          "name:nv": "Tsii ºyishbizh√≠ Dine º√© Bik√©yah",
          "name:ny": "China",
          "name:oc": "China",
          "name:om": "Chaayinaan",
          "name:or": "‡¨ö‡≠Ä‡¨®",
          "name:os": "–ö–∏—Ç–∞–π",
          "name:pa": "‡®ö‡©Ä‡®®",
          "name:pl": "Chiny",
          "name:ps": "⁄ÜŸäŸÜ",
          "name:pt": "China",
          "name:qu": "Chunkuk",
          "name:rm": "China",
          "name:rn": "Ubushinwa",
          "name:ro": "China",
          "name:ru": "–ö–∏—Ç–∞–π",
          "name:rw": "Ubushinwa",
          "name:sc": "Cina",
          "name:sd": "⁄ÜŸäŸÜ",
          "name:se": "Kiinn√°",
          "name:sg": "S√Æn√§",
          "name:sh": "Kina",
          "name:si": "‡∂†‡∑ì‡∂±‡∂∫",
          "name:sk": "ƒå√≠na",
          "name:sl": "Kit√°jska",
          "name:sm": "Saina",
          "name:sn": "China",
          "name:so": "Shiinaha",
          "name:sq": "Kina",
          "name:sr": "–ö–∏–Ω–∞",
          "name:ss": "iShayina",
          "name:st": "Tjhaena",
          "name:su": "Tiongkok",
          "name:sv": "Kina",
          "name:sw": "China",
          "name:ta": "‡Æö‡ØÄ‡Æ©‡Ææ",
          "name:te": "‡∞ö‡±à‡∞®‡∞æ",
          "name:tg": "–•–∏—Ç–æÃÅ–π",
          "name:th": "‡∏õ‡∏£‡∏∞‡πÄ‡∏ó‡∏®‡∏à‡∏µ‡∏ô",
          "name:ti": "·ã®·âª·ã≠·äì",
          "name:tk": "Hyta√Ω",
          "name:tl": "Tsina",
          "name:tn": "China",
          "name:to": "Siaina",
          "name:tr": "√áin",
          "name:ts": "Chayina",
          "name:tt": "–ö—ã—Ç–∞–π",
          "name:tw": "China",
          "name:ty": "Tinit≈ç",
          "name:ug": "ÿ¨€á⁄≠ÿÆ€áÿß ÿÆ€ïŸÑŸÇ ÿ¨€áŸÖ⁄æ€áÿ±ŸâŸäŸâÿ™Ÿâ",
          "name:uk": "–ö–∏—Ç–∞–π",
          "name:ur": "⁄Ü€åŸÜ",
          "name:uz": "Xitoy",
          "name:ve": "China",
          "name:vi": "Trung Qu·ªëc",
          "name:vo": "Tsyin√§n",
          "name:wo": "Siin",
          "name:xh": "IShayina",
          "name:yi": "◊õ◊ô◊†◊¢",
          "name:yo": "·π¢√°√≠n√†",
          "name:za": "Cunghgoz",
          "name:zh": "‰∏≠ÂõΩ",
          "name:zu": "IShayina",
          "website": "https://www.gov.cn",
          "boundary": "administrative",
          "int_name": "China",
          "name:ace": "Cina",
          "name:ady": "–ö–∏—Ç–∞–π",
          "name:als": "China",
          "name:ang": "Cƒ´na",
          "name:arc": "‹ï‹®‹ù‹¢",
          "name:arz": "ÿßŸÑÿµŸäŸÜ",
          "name:ast": "China",
          "name:azb": "⁄Ü€åŸÜ",
          "name:bar": "Kina",
          "name:bcl": "Tsina",
          "name:bjn": "Cina",
          "name:bpy": "‡¶ó‡¶£‡¶ö‡ßÄ‡¶®",
          "name:bxr": "–•–∏—Ç–∞–¥ –£–ª–∞—Å",
          "name:cal": "Siila",
          "name:ceb": "Tsina",
          "name:chr": "·è•·éæ",
          "name:chy": "China",
          "name:ckb": "⁄Ü€åŸÜ",
          "name:crh": "√áin",
          "name:csb": "Chi≈Ñsk√¥ L√´dow√¥ Rep√πblika",
          "name:diq": "√áin",
          "name:dsb": "Chinska",
          "name:dty": "‡§ö‡•Ä‡§®",
          "name:eml": "Cina",
          "name:ext": "China",
          "name:frp": "Ch¬∑ina",
          "name:frr": "Sina",
          "name:fur": "Cine",
          "name:gag": "Kitay",
          "name:gan": "‰∏≠Âúã",
          "name:gom": "‡§ö‡•Ä‡§®",
          "name:hak": "Ch√ªng-f√†",
          "name:haw": "Kina",
          "name:hif": "China",
          "name:hsb": "China",
          "name:ilo": "Ts√≠na",
          "name:jam": "Chaina",
          "name:jbo": "jugygu'e",
          "name:kaa": "Qƒ±tay",
          "name:kab": "Ccinwa",
          "name:kbd": "–•—ä—É—Ç–µ–π",
          "name:kbp": "Siini",
          "name:koi": "–ö–∏–Ω–∞",
          "name:krc": "–ö—ä—ã—Ç–∞–π",
          "name:ksh": "Schiina",
          "name:lad": "Kina",
          "name:lez": "–ö–∏—Ç–∞–π",
          "name:lmo": "Cina",
          "name:lrc": "⁄Ü€åŸÜ",
          "name:lzh": "‰∏≠Âúã",
          "name:mai": "‡§ö‡•Ä‡§®",
          "name:mdf": "–ö–∏—Ç–∞–π",
          "name:mhr": "–ö–∏—Ç–∞–π",
          "name:min": "Cino",
          "name:mwl": "China",
          "name:myv": "–ö–∏—Ç–∞–π",
          "name:mzn": "⁄Ü€åŸÜ",
          "name:nah": "China",
          "name:nan": "Tiong-kok",
          "name:nap": "Cina",
          "name:nds": "Kina",
          "name:new": "‡§ö‡•Ä‡§®",
          "name:nov": "China",
          "name:nrm": "Chinne",
          "name:nso": "T≈°haena",
          "name:olo": "Kitai",
          "name:pag": "Jhina",
          "name:pam": "Tsina",
          "name:pap": "Zh≈çnggu√≥",
          "name:pcd": "Kine",
          "name:pih": "Shiina",
          "name:pms": "Cin-a",
          "name:pnb": "⁄Ü€åŸÜ",
          "name:pnt": "ŒöŒØŒΩŒ±",
          "name:rmy": "Shin",
          "name:rue": "–ö—ñ—Ç–∞–π—Å–∫–∞",
          "name:sah": "–ö—ã—Ç–∞–π",
          "name:scn": "Cina",
          "name:sco": "Cheenae",
          "name:smn": "Kiina",
          "name:sms": "«®iina",
          "name:srn": "Sneysa",
          "name:stq": "China",
          "name:szl": "China",
          "name:tet": "Xina",
          "name:tok": "ma Sonko",
          "name:tpi": "Saina",
          "name:tum": "China",
          "name:tyv": "–ö—ã–¥–∞—Ç",
          "name:tzl": "Cina",
          "name:udm": "–ö–∏—Ç–∞ÃÅ–π",
          "name:vec": "Cina",
          "name:vep": "Kitai",
          "name:vls": "China",
          "name:vro": "Hiina",
          "name:war": "Tsina",
          "name:wuu": "‰∏≠ÂõΩ",
          "name:xal": "–ö–∏—Ç–¥–∏–Ω –£–ª—Å –û—Ä–Ω",
          "name:xmf": "·É©·Éò·Éú·Éî·Éó·Éò",
          "name:yue": "‰∏≠Âúã",
          "name:zea": "China",
          "way_area": "987.772",
          "wikidata": "Q148",
          "ISO3166-1": "CN",
          "name:Zsye": "üá®üá≥",
          "wikipedia": "zh:‰∏≠Âçé‰∫∫Ê∞ëÂÖ±ÂíåÂõΩ",
          "name:UN:ar": "ÿßŸÑÿµŸäŸÜ",
          "name:UN:en": "China",
          "name:UN:es": "China",
          "name:UN:fr": "Chine (la)",
          "name:UN:ru": "–ö–∏—Ç–∞–π",
          "name:UN:zh": "‰∏≠ÂõΩ",
          "population": "1411778724",
          "admin_level": "2",
          "alt_name:af": "Rooi-China",
          "alt_name:av": "–•–∞—Ç–∞–π-–•—É—Ç–∞–π",
          "alt_name:be": "–ß–∂—É–Ω–≥–æ",
          "alt_name:cy": "Tseina",
          "alt_name:en": "P.R. China",
          "alt_name:eo": "ƒàinujo",
          "alt_name:gd": "An t-S√¨n",
          "alt_name:jv": "Tiongkok",
          "alt_name:la": "Terra Serica",
          "alt_name:ln": "Sh√≠na",
          "alt_name:qu": "Chunwakuk",
          "alt_name:ru": "–ö–∏—Ç–∞–π",
          "alt_name:sl": "LR Kitajska",
          "alt_name:sr": "–ù–† –ö–∏–Ω–∞",
          "alt_name:su": "Tjina",
          "alt_name:sw": "Uchina;Sina",
          "alt_name:za": "Cu≈ã∆Öva∆® Yin∆®min∆® Gu≈ãho∆®go∆®",
          "alt_name:zh": "‰∏≠ÂõΩ",
          "name:nan-HJ": "‰∏≠ÂõΩ",
          "name:nan-TL": "Tiong-kok",
          "name:nds-nl": "China",
          "old_name:eo": "ƒ§inujo",
          "alt_name:als": "Rotchina",
          "alt_name:chr": "·èì·é∂·èÇ·é®·èç·èõ",
          "alt_name:crh": "Qƒ±tay",
          "alt_name:jbo": ".djunguos.",
          "alt_name:koi": "–î–∂—É–Ω–≥–æ",
          "alt_name:lez": "–ß–∏–Ω",
          "alt_name:min": "Tiongkok",
          "alt_name:nan": "Tiong-kok",
          "alt_name:nds": "Schina",
          "alt_name:nrm": "Chinne;Ch√®ne",
          "alt_name:rmy": "China",
          "alt_name:tpi": "China",
          "name:cbk-zam": "China",
          "name:ko-Hani": "‰∏≠Âúã",
          "name:nan-POJ": "Tiong-kok",
          "name:za-Hani": "‰∏≠ËèØ‰∫∫Ê∞ëÂÖ±ÂíåÂúã",
          "name:zh-Hans": "‰∏≠ÂõΩ",
          "name:zh-Hant": "‰∏≠Âúã",
          "name:roa-tara": "Cine",
          "official_name": "‰∏≠Âçé‰∫∫Ê∞ëÂÖ±ÂíåÂõΩ",
          "short_name:ab": "–ß–ñ–†",
          "short_name:av": "–ß–•–ñ",
          "short_name:az": "√áXR",
          "short_name:ba": "“†–•–†",
          "short_name:be": "–ö–ù–†",
          "short_name:ce": "–¶–•–†",
          "short_name:cs": "ƒåLR",
          "short_name:cv": "–ö–•–†",
          "short_name:cy": "GPT",
          "short_name:en": "PRC",
          "short_name:et": "Hiina RV",
          "short_name:fr": "RPC",
          "short_name:ga": "DPS",
          "short_name:hy": "’â‘∫’Ä",
          "short_name:id": "RRT",
          "short_name:jv": "RRC",
          "short_name:mk": "–ù–† –ö–∏–Ω–∞",
          "short_name:ml": "PRC",
          "short_name:ms": "RRC",
          "short_name:mt": "RPƒä",
          "short_name:ne": "PRC",
          "short_name:pl": "ChRL",
          "short_name:pt": "RPC",
          "short_name:ru": "–ö–ù–†",
          "short_name:sl": "LRK",
          "short_name:sr": "–ù–†–ö",
          "short_name:su": "RRT",
          "short_name:tg": "“∂–•–ß",
          "short_name:tk": "HHR",
          "short_name:tr": "√áHC",
          "short_name:tt": "–ö–•“ñ",
          "short_name:uz": "XXR",
          "short_name:zh": "‰∏≠ÂõΩ",
          "name:be-tarask": "–ö—ñ—Ç–∞–π",
          "short_name:ang": "PRC",
          "short_name:bjn": "RRC",
          "short_name:ceb": "RPT",
          "short_name:dty": "PRC",
          "short_name:ilo": "PRC",
          "short_name:krc": "–ö—ä–•–†",
          "short_name:min": "RRC",
          "short_name:mwl": "RPC",
          "short_name:nan": "Tiong-kok",
          "short_name:sco": "FRC",
          "short_name:szl": "CHLR",
          "short_name:vec": "PRC",
          "alt_name:nan-HJ": "‰∏≠ÂõΩ",
          "alt_name:nan-TL": "Tiong-kok",
          "population:date": "2020",
          "ISO3166-1:alpha2": "CN",
          "ISO3166-1:alpha3": "CHN",
          "alt_name:nan-POJ": "Tiong-kok",
          "alt_name:zh-Hans": "‰∏≠ÂõΩ",
          "alt_name:zh-Hant": "‰∏≠Âúã",
          "default_language": "zh",
          "official_name:ab": "–ê—á—ã–Ω“≠–∞—Ç”ô–∏ –ê–∂”ô–ª–∞—Ä—Ç”ô –†–µ—Å–ø—É–±–ª–∏–∫–∞",
          "official_name:af": "Volksrepubliek van Sjina",
          "official_name:am": "·ã®·âª·ã≠·äì ·àï·ãù·â£·ãä ·à¨·çë·â•·àä·ä≠",
          "official_name:an": "Republica Popular de China",
          "official_name:ar": "ÿ¨ŸÖŸáŸàÿ±Ÿäÿ© ÿßŸÑÿµŸäŸÜ ÿßŸÑÿ¥ÿπÿ®Ÿäÿ©",
          "official_name:as": "‡¶ó‡¶£‡¶™‡ßç‡ß∞‡¶ú‡¶æ‡¶§‡¶®‡ßç‡¶§‡ßç‡ß∞‡ßÄ ‡¶ö‡ßÄ‡¶®",
          "official_name:av": "–ß–∏–Ω–∞–ª—ä—É–ª –•–∞–ª–∫—ä–∏—è–± –ñ—É–º–≥—å—É—Ä–∏—è—Ç",
          "official_name:ay": "Markani Republika China",
          "official_name:az": "√áin Xalq Respublikasƒ±",
          "official_name:ba": "“†—ã—Ç–∞–π –•–∞–ª—ã“° –†–µ—Å–ø—É–±–ª–∏–∫–∞“ª—ã",
          "official_name:be": "–ö—ñ—Ç–∞–π—Å–∫–∞—è –ù–∞—Ä–æ–¥–Ω–∞—è –†—ç—Å–ø—É–±–ª—ñ–∫–∞",
          "official_name:bg": "–ö–∏—Ç–∞–π—Å–∫–∞—Ç–∞ –Ω–∞—Ä–æ–¥–Ω–∞ —Ä–µ–ø—É–±–ª–∏–∫–∞",
          "official_name:bh": "‡§ö‡•Ä‡§® ‡§ï‡•á ‡§ú‡§®‡§µ‡§æ‡§¶‡•Ä ‡§™‡•ç‡§∞‡§ú‡§æ‡§§‡§Ç‡§§‡•ç‡§∞",
          "official_name:bm": "China ka Foroba Fasojamana",
          "official_name:bn": "‡¶ó‡¶£‡¶™‡ßç‡¶∞‡¶ú‡¶æ‡¶§‡¶®‡ßç‡¶§‡ßç‡¶∞‡ßÄ ‡¶ö‡ßÄ‡¶®",
          "official_name:bo": "‡ΩÄ‡æ≤‡Ω¥‡ΩÑ‡ºã‡Ωß‡æ≠‡ºã‡Ωò‡Ω≤‡ºã‡Ωë‡Ωò‡ΩÑ‡Ω¶‡ºã‡Ω¶‡æ§‡æ±‡Ω≤‡ºã‡Ωò‡Ωê‡Ω¥‡Ωì‡ºã‡Ω¢‡æí‡æ±‡Ω£‡ºã‡ΩÅ‡Ωñ‡ºç",
          "official_name:br": "Republik Poblel Sina",
          "official_name:bs": "Narodna Republika Kina",
          "official_name:ca": "Rep√∫blica Popular de la Xina",
          "official_name:ce": "–¶–∏–π–Ω –•–∞–ª–∫—ä–∞–Ω –†–µ—Å–ø—ÉÃÅ–±–ª–∏–∫–∞",
          "official_name:co": "Republica Pupulare Chinesa",
          "official_name:cs": "ƒå√≠nsk√° lidov√° republika",
          "official_name:cu": "–°—Ä—£–¥–∏–Ω—å—Å–∫–∞ –ù–∞—Ä–æ–¥—å–Ω–∞ –î–∏–º–æ–∫—Ä–∞—Ç—ñÃÅÍôó",
          "official_name:cv": "–ö–∏—Ç–∞–π –•–∞–ªƒÉ—Ö –†–µ—Å–ø—É–±–ª–∏–∫–∏",
          "official_name:cy": "Gweriniaeth Pobl Tsieina",
          "official_name:da": "Folkerepublikken Kina",
          "official_name:de": "Volksrepublik China",
          "official_name:el": "ŒõŒ±œäŒ∫ŒÆ ŒîŒ∑ŒºŒøŒ∫œÅŒ±œÑŒØŒ± œÑŒ∑œÇ ŒöŒØŒΩŒ±œÇ",
          "official_name:en": "People's Republic of China",
          "official_name:eo": "ƒàina Popola Respubliko",
          "official_name:es": "Rep√∫blica Popular China",
          "official_name:et": "Hiina Rahvavabariik",
          "official_name:eu": "Txinako Herri Errepublika",
          "official_name:fa": "ÿ¨ŸÖŸáŸàÿ±€å ÿÆŸÑŸÇ ⁄Ü€åŸÜ",
          "official_name:fi": "Kiinan kansantasavalta",
          "official_name:fo": "F√≥lkal√Ω√∞veldi√∞ Kina",
          "official_name:fr": "R√©publique populaire de Chine",
          "official_name:fy": "Folksrepublyk Sina",
          "official_name:ga": "Daon-Phoblacht na S√≠ne",
          "official_name:gd": "Sluagh-phoblachd na S√¨ne",
          "official_name:gl": "Rep√∫blica Popular da China",
          "official_name:gn": "Ch√≠na Tetar√£ Ret√£",
          "official_name:gu": "‡™ö‡´Ä‡™®‡´Ä ‡™ú‡™®‡™µ‡™æ‡™¶‡´Ä ‡™ó‡™£‡™∞‡™æ‡™ú‡´ç‡™Ø",
          "official_name:gv": "Deynphobblaght ny Sheen",
          "official_name:ha": "Jamhuriyar jama'ar Sin",
          "official_name:he": "◊î◊®◊§◊ï◊ë◊ú◊ô◊ß◊î ◊î◊¢◊û◊û◊ô◊™ ◊©◊ú ◊°◊ô◊ü",
          "official_name:hi": "‡§ö‡•Ä‡§®‡•Ä ‡§ú‡§®‡§µ‡§æ‡§¶‡•Ä ‡§ó‡§£‡§∞‡§æ‡§ú‡•ç‡§Ø",
          "official_name:hr": "Narodna Republika Kina",
          "official_name:hu": "K√≠nai N√©pk√∂zt√°rsas√°g",
          "official_name:hy": "’â’´’∂’°’Ω’ø’°’∂’´ ‘∫’∏’≤’∏’æ÷Ä’§’°’Ø’°’∂ ’Ä’°’∂÷Ä’°’∫’•’ø’∏÷Ç’©’µ’∏÷Ç’∂",
          "official_name:ia": "Republica Popular de China",
          "official_name:id": "Republik Rakyat Tiongkok",
          "official_name:io": "Populala Republiko di Chinia",
          "official_name:is": "Al√æ√Ω√∞ul√Ω√∞veldi√∞ K√≠na",
          "official_name:it": "Repubblica Popolare Cinese",
          "official_name:ja": "‰∏≠ËèØ‰∫∫Ê∞ëÂÖ±ÂíåÂõΩ",
          "official_name:jv": "R√©publik Rakyat Cina",
          "official_name:ka": "·É©·Éò·Éú·Éî·Éó·Éò·É° ·É°·Éê·ÉÆ·Éê·Éö·ÉÆ·Éù ·É†·Éî·É°·Éû·É£·Éë·Éö·Éò·Éô·Éê",
          "official_name:kg": "Repubilika ya Bantu ya Sina",
          "official_name:ki": "R≈©thiomi rwa kƒ© China",
          "official_name:kk": "“ö—ã—Ç–∞–π –•–∞–ª—ã“õ –†–µ—Å–ø—É–±–ª–∏–∫–∞—Å—ã",
          "official_name:kl": "Innuttaasut Kunngiitsuuffik Kina",
          "official_name:km": "·ûü·û∂·ûí·û∂·ûö·ûé·ûö·ûä·üí·ûã·ûî·üí·ûö·ûá·û∂·ûò·û∂·ûì·û∑·ûè·ûÖ·û∑·ûì",
          "official_name:kn": "‡≤ö‡≥Ä‡≤®‡≤ø ‡≤ú‡≤®‡≤∞ ‡≤ó‡≤£‡≤∞‡≤æ‡≤ú‡≥ç‡≤Ø",
          "official_name:ko": "Ï§ëÌôîÏù∏ÎØºÍ≥µÌôîÍµ≠",
          "official_name:ku": "Komara Gel a √á√Ænistan√™",
          "official_name:kw": "Repoblek an Werin China",
          "official_name:ky": "–ö—ã—Ç–∞–π –≠–ª –†–µ—Å–ø—É–±–ª–∏–∫–∞—Å—ã",
          "official_name:la": "Res publica popularis Sinarum",
          "official_name:lb": "Volleksrepublik China",
          "official_name:li": "Volksrippebliek China",
          "official_name:lo": "‡∫™‡∫≤‡∫ó‡∫≤‡∫•‡∫∞‡∫ô‡∫∞‡∫•‡∫±‡∫î‡∫õ‡∫∞‡∫ä‡∫≤‡∫ä‡∫ª‡∫ô‡∫à‡∫µ‡∫ô",
          "official_name:lt": "Kinijos Liaudies Respublika",
          "official_name:lv": "ƒ∂ƒ´nas Tautas Republika",
          "official_name:mg": "Repoblika Entim-bahoakan'i Sina",
          "official_name:mi": "T≈´wehe-ƒÅ-Iwi o Haina",
          "official_name:mk": "–ù–∞—Ä–æ–¥–Ω–∞ –†–µ–ø—É–±–ª–∏–∫–∞ –ö–∏–Ω–∞",
          "official_name:ml": "‡¥™‡µÄ‡¥™‡µç‡¥™‡¥ø‡µæ‡¥∏‡µç‚Äå ‡¥±‡¥ø‡¥™‡µç‡¥™‡¥¨‡µç‡¥≤‡¥ø‡¥ï‡µç‡¥ï‡µç ‡¥ì‡¥´‡µç‚Äå ‡¥ö‡µà‡¥®",
          "official_name:mn": "–ë“Ø–≥–¥ –ù–∞–π—Ä–∞–º–¥–∞—Ö –•—è—Ç–∞–¥ –ê—Ä–¥ –£–ª—Å",
          "official_name:mr": "‡§ö‡•Ä‡§®‡§ö‡•á ‡§ú‡§®‡§§‡•á‡§ö‡•á ‡§™‡•ç‡§∞‡§ú‡§æ‡§∏‡§§‡•ç‡§§‡§æ‡§ï",
          "official_name:ms": "Republik Rakyat China",
          "official_name:mt": "Repubblika Popolari taƒã-ƒäina",
          "official_name:my": "·Äê·Äõ·ÄØ·Äê·Ä∫·Äï·Äº·Ää·Ä∫·Äû·Ä∞·Ä∑·Äû·Äô·Äπ·Äô·Äê·Äî·Ä≠·ÄØ·ÄÑ·Ä∫·ÄÑ·Ä∂",
          "official_name:ne": "‡§ú‡§®‡§µ‡§æ‡§¶‡•Ä ‡§ó‡§£‡§§‡§®‡•ç‡§§‡•ç‡§∞ ‡§ö‡•Ä‡§®",
          "official_name:nl": "Volksrepubliek China",
          "official_name:nn": "Folkerepublikken Kina",
          "official_name:no": "Folkerepublikken Kina",
          "official_name:oc": "Republica Populara de China",
          "official_name:om": "Riippabiliika Ummataa Chaayina",
          "official_name:os": "–ö–∏—Ç–∞–π—ã –ê–¥√¶–º–æ–Ω –†–µ—Å–ø—É–±–ª–∏–∫√¶",
          "official_name:pa": "‡®ö‡©Ä‡®® ‡®¶‡®æ ‡®≤‡©ã‡®ï‡®∞‡®æ‡®ú‡©Ä ‡®ó‡®£‡®§‡©∞‡®§‡®∞",
          "official_name:pl": "Chi≈Ñska Republika Ludowa",
          "official_name:ps": "⁄ÜŸäŸÜ ÿØ ÿÆŸÑ⁄©Ÿà ÿ¨ŸÖŸáŸàÿ±Ÿäÿ™",
          "official_name:pt": "Rep√∫blica Popular da China",
          "official_name:qu": "Chunwa Runallaqta Ripuwlika",
          "official_name:ro": "Republica PopularƒÉ ChinezƒÉ",
          "official_name:ru": "–ö–∏—Ç–∞–π—Å–∫–∞—è –ù–∞—Ä–æ–¥–Ω–∞—è –†–µ—Å–ø—É–±–ª–∏–∫–∞",
          "official_name:sd": "ÿπŸàÿßŸÖŸä ÿ¨ŸÖŸáŸàÿ±ŸäŸá ⁄ÜŸäŸÜ",
          "official_name:se": "Kiinn√° √°lbmotd√°ssev√°ldi",
          "official_name:sg": "Hal√´zo K√∂d√∂r√∂s√™se t√Æ S√Æn√§",
          "official_name:sh": "Narodna Republika Kina",
          "official_name:si": "‡∂†‡∑ì‡∂± ‡∂∏‡∑Ñ‡∂¢‡∂± ‡∑É‡∂∏‡∑ñ‡∑Ñ‡∑è‡∂´‡∑ä‡∂©‡∑î‡∑Ä",
          "official_name:sk": "ƒå√≠nska ƒæudov√° republika",
          "official_name:sl": "Lj√∫dska rep√∫blika Kit√°jska",
          "official_name:sm": "Tagata o le Ripapelika o Saina",
          "official_name:sq": "Republika Popullore e Kin√´s",
          "official_name:sr": "–ù–∞—Ä–æ–¥–Ω–∞ –†–µ–ø—É–±–ª–∏–∫–∞ –ö–∏–Ω–∞",
          "official_name:su": "R√©publik Rahayat Tiongkok",
          "official_name:sv": "Folkrepubliken Kina",
          "official_name:sw": "Jamhuri ya Watu wa China",
          "official_name:ta": "‡Æö‡ØÄ‡Æ© ‡ÆÆ‡Æï‡Øç‡Æï‡Æ≥‡Øç ‡Æï‡ØÅ‡Æü‡Æø‡ÆØ‡Æ∞‡Æö‡ØÅ",
          "official_name:te": "‡∞™‡±Ä‡∞™‡±Å‡∞≤‡±ç‡∞∏‡±ç ‡∞∞‡∞ø‡∞™‡∞¨‡±ç‡∞≤‡∞ø‡∞ï‡±ç ‡∞Ü‡∞´‡±ç ‡∞ö‡±à‡∞®‡∞æ",
          "official_name:tg": "“∂—É–º“≥—É—Ä–∏ÃÅ–∏ –•–∞–ª“õ–∏ÃÅ–∏ –ß–∏–Ω",
          "official_name:th": "‡∏™‡∏≤‡∏ò‡∏≤‡∏£‡∏ì‡∏£‡∏±‡∏ê‡∏õ‡∏£‡∏∞‡∏ä‡∏≤‡∏ä‡∏ô‡∏à‡∏µ‡∏ô",
          "official_name:ti": "·ã®·âª·ã≠·äì ·àÖ·ãù·â¶·âΩ ·à™·çê·â•·àä·ä≠",
          "official_name:tk": "Hyta√Ω Halk Respublikasy",
          "official_name:tl": "Republikang Bayan ng Tsina",
          "official_name:tr": "√áin Halk Cumhuriyeti",
          "official_name:tt": "–ö—ã—Ç–∞–π –•–∞–ª—ã–∫ “ñ”©–º“ª“Ø—Ä–∏—è—Ç–µ",
          "official_name:ug": "ÿ¨€á⁄≠ÿÆ€áÿß ÿÆ€ïŸÑŸÇ ÿ¨€áŸÖ⁄æ€áÿ±ŸâŸäŸâÿ™Ÿâ",
          "official_name:uk": "–ö–∏—Ç–∞ÃÅ–π—Å—å–∫–∞ –ù–∞—Ä–æÃÅ–¥–Ω–∞ –†–µ—Å–ø—ÉÃÅ–±–ª—ñ–∫–∞",
          "official_name:ur": "ÿπŸàÿßŸÖ€å ÿ¨ŸÖ€ÅŸàÿ±€å€Å ⁄Ü€åŸÜ",
          "official_name:uz": "Xitoy Xalq Respublikasi",
          "official_name:vi": "C·ªông h√≤a Nh√¢n d√¢n Trung Hoa",
          "official_name:wo": "Republik Popileer bu Ciin",
          "official_name:yi": "◊û◊¢◊†◊ò◊©◊†◊° ◊®◊¢◊§◊ï◊ë◊ú◊ô◊ß ◊§◊ï◊ü ◊õ◊ô◊†◊¢",
          "official_name:yo": "Or√≠l·∫πÃÄ-√®d√® Ol√≥m√¨nira √†w·ªçn Ar√° il·∫πÃÄ ·π¢√°√≠n√†",
          "official_name:za": "Cunghvaz Yinzminz Gunghozgoz",
          "official_name:zh": "‰∏≠Âçé‰∫∫Ê∞ëÂÖ±ÂíåÂõΩ",
          "ISO3166-1:numeric": "156",
          "official_name:ace": "R√®publik Rakyat Cina",
          "official_name:als": "Volksrepublik China",
          "official_name:ang": "Cƒ´nan Folclice Cynewƒ´se",
          "official_name:arc": "‹©‹ò‹õ‹¢‹ù‹ò‹¨‹ê ‹•‹°‹°‹ù‹¨‹ê ‹ï‹®‹ù‹¢",
          "official_name:arz": "ÿ¨ŸÖŸáŸàÿ±Ÿäÿ© ÿßŸÑÿµŸäŸÜ ÿßŸÑÿ¥ÿπÿ®Ÿäÿ©",
          "official_name:ast": "Rep√∫blica Popular de China",
          "official_name:azb": "⁄Ü€åŸÜ ÿÆÿßŸÑŸÇ ÿ¨ŸàŸÖŸáŸàÿ±€åÿ™€å",
          "official_name:bar": "Voiksrepublik Kina",
          "official_name:bcl": "Republikang Popular kan Tsina",
          "official_name:bjn": "Ripublik Rakyat Cina",
          "official_name:bpy": "‡¶ó‡¶£ ‡¶™‡ßç‡¶∞‡¶ú‡¶æ‡¶§‡¶®‡ßç‡¶§‡ßç‡¶∞‡¶ø ‡¶ö‡ßÄ‡¶®",
          "official_name:bxr": "–ë“Ø–≥—ç–¥—ç –ù–∞–π—Ä–∞–º–¥–∞—Ö–∞ –•–∏—Ç–∞–¥ –ê—Ä–∞–¥ –£–ª–∞—Å",
          "official_name:cdo": "D·π≥ÃÜng-hu√† √ång-m√¨ng G√™Ã§·π≥ng-hu√≤-gu√≥k",
          "official_name:ceb": "Pangmasang Republika sa Tsina",
          "official_name:chr": "·è¥·è´ ·é§·éæ·è§·éµ·èç·é¶·èö·é© ·éæ·éø ·èì·é∂·èÇ·é®·èç·èõ",
          "official_name:ckb": "⁄©€ÜŸÖÿßÿ±€å ÿÆ€ï⁄µ⁄©€å ⁄Ü€åŸÜ",
          "official_name:crh": "√áin Halq Cumhuriyeti",
          "official_name:csb": "Chi≈Ñsk√¥ L√´dow√¥ Rep√πblika",
          "official_name:diq": "Cumhuriyet√™ ≈ûari√™ √áini",
          "official_name:dsb": "Chinska ludowa republika",
          "official_name:dty": "‡§ú‡§®‡§µ‡§æ‡§¶‡•Ä ‡§ó‡§£‡§§‡§®‡•ç‡§§‡•ç‡§∞ ‡§ö‡•Ä‡§®",
          "official_name:eml": "Rep√≥blica popul√®ra dla Cina",
          "official_name:ext": "Rep√∫brica Populal China",
          "official_name:frp": "R√®publica popul√®ra de Ch¬∑ina",
          "official_name:frr": "F√∂ljksrepubliik Sina",
          "official_name:gag": "Kitay Halk Respublikasƒ±",
          "official_name:gan": "‰∏≠ËèØ‰∫∫Ê∞ëÂÖ±ÂíåÂúã",
          "official_name:hak": "Ch√ªng-f√† Ng√¨n-m√¨n Khiung-f√≤-koet",
          "official_name:hif": "People's Republic of China",
          "official_name:hsb": "Chinska ludowa republika",
          "official_name:ilo": "Republika ti Tattao iti Tsina",
          "official_name:jam": "Piiplz Ripoblik a Chaina",
          "official_name:jbo": "jungo ke prenu gubyseltru",
          "official_name:kbd": "–•—ä—É—Ç–µ–π –ñ—ã–ª—ç –†–µ—Å–ø—É–±–ª–∏–∫—ç",
          "official_name:koi": "–ö–∏—Ç–∞–π –æ—Ç–∏—Ä —Ä–µ—Å–ø—É–±–ª–∏–∫–∞",
          "official_name:krc": "–ö—ä—ã—Ç–∞–π –•–∞–ª–∫—ä –†–µ—Å–ø—É–±–ª–∏–∫–∞",
          "official_name:lad": "Repuvlika Popular de Kina",
          "official_name:lez": "–ö–∏—Ç–∞–π–¥–∏–Ω –•–∞–ª–∫—å–¥–∏–Ω –†–µ—Å–ø—É–±–ª–∏–∫–∞",
          "official_name:lmo": "Rep√ºbliga Pupulara de la Cina",
          "official_name:lrc": "⁄©ŸàŸôŸÖÿ£ÿ±€ï ⁄§ŸàŸÑÿßÿ™ ÿÆÿ£ŸÑ⁄© ⁄Ü€åŸÜ",
          "official_name:lzh": "‰∏≠ËèØ‰∫∫Ê∞ëÂÖ±ÂíåÂúã",
          "official_name:mai": "‡§ú‡§®‡§¨‡§æ‡§¶‡•Ä ‡§ó‡§£‡§§‡§®‡•ç‡§§‡•ç‡§∞ ‡§ö‡•Ä‡§®",
          "official_name:mdf": "–ö–∏—Ç–∞–π –ö–∞–ª–∫–æ–Ω—å –†–µ—Å–ø—É–±–ª–∏–∫—Å—å",
          "official_name:min": "Republik Rakyaik Cino",
          "official_name:mwl": "Rep√∫blica Popular de la China",
          "official_name:myv": "–ö–∏—Ç–∞–µ–Ω—å –†–∞—Å—å–∫–µ–Ω—å –†–µ—Å–ø—É–±–ª–∏–∫–∞—Å—å",
          "official_name:mzn": "⁄Ü€åŸÜ ŸÖÿ±ÿØŸÖ ÿ¨ŸÖŸáŸàÿ±€å",
          "official_name:nah": "TlƒÅcatlahtocƒÅy≈çtl ƒÄltepƒìhuahcƒÅy≈çtl China",
          "official_name:nan": "Tiong-ho√¢ J√Æn-b√Æn Ki≈çng-h√¥-kok",
          "official_name:nap": "Repubbreca Populare Cinese",
          "official_name:nds": "Volksrepubliek China",
          "official_name:new": "‡§ú‡§®‡§µ‡§æ‡§¶‡•Ä ‡§ó‡§£‡§§‡§®‡•ç‡§§‡•ç‡§∞ ‡§ö‡•Ä‡§®",
          "official_name:nov": "Populen Republike de China",
          "official_name:nrm": "R√©publyique du Peupl'ye d'la Chinne",
          "official_name:nso": "Repabliki ya Batho ya T≈°haena",
          "official_name:olo": "Kitain Rahvahan tazavaldu",
          "official_name:pag": "Republika ya Too na Zhongguo",
          "official_name:pam": "Maldang Republica ning Tsina",
          "official_name:pap": "Republika di Pueblo di China",
          "official_name:pcd": "R√©publique populo√®re Kine",
          "official_name:pih": "Piopel's Repablik o' Shiina",
          "official_name:pnt": "ŒõŒ±œäŒ∫œåŒΩ Œ∑ ŒîŒ∑ŒºŒøŒ∫œÅŒ±œÑŒØŒ±ŒΩ œÑŒ∑ ŒöŒØŒΩŒ±œÇ",
          "official_name:rue": "–ö—ñ—Ç–∞–π—Å–∫–∞ –ù–∞—Ä–æ–¥–Ω–∞ –†–µ–ø—É–±–ª—ñ–∫–∞",
          "official_name:sah": "–ö—ã—Ç–∞–π –î—å–æ–Ω ”®—Ä”©—Å–ø“Ø“Ø–±“Ø–ª“Ø–∫—ç—Ç—ç",
          "official_name:scn": "Rip√πbblica Pupulari Cin√¨sa",
          "official_name:sco": "Fowkrepublic o Cheenae",
          "official_name:srn": "Pipel Republiki Sneysa",
          "official_name:stq": "Foulksrepublik China",
          "official_name:szl": "Chi≈Ñsk≈è Ludow≈è Republika",
          "official_name:tet": "Rep√∫blika Popul√°r Xina nian",
          "official_name:tpi": "Republik bilong Manmeri bilong Saina",
          "official_name:udm": "–ö–∏—Ç–∞ÃÅ–π –ö–∞–ª—ãÃÅ–∫ –†–µ—Å–ø—ÉÃÅ–±–ª–∏–∫–∞",
          "official_name:vec": "Republica Popo≈Çare Cinexe",
          "official_name:vep": "Kitain Rahvahaline Tazovaldkund",
          "official_name:vls": "Volksrepubliek China",
          "official_name:vro": "Hiina Rahvavabariik",
          "official_name:war": "Kanan Katawhan Republika han Tsina",
          "official_name:wuu": "‰∏≠Âçé‰∫∫Ê∞ëÂÖ±ÂíåÂõΩ",
          "official_name:xmf": "·É©·Éò·Éú·Éî·Éó·Éò·É® ·Éù·Éô·Éê·Éó·Éî ·É†·Éî·É°·Éû·É£·Éë·Éö·Éò·Éô·Éê",
          "official_name:yue": "‰∏≠ËèØ‰∫∫Ê∞ëÂÖ±ÂíåÂúã",
          "official_name:zea": "Volksrepubliek China",
          "short_name:nan-HJ": "‰∏≠ÂõΩ",
          "short_name:nan-TL": "Tiong-kok",
          "short_name:bat-smg": "Kƒónƒójƒós LR",
          "short_name:nan-POJ": "Tiong-kok",
          "short_name:zh-Hans": "‰∏≠ÂõΩ",
          "short_name:zh-Hant": "‰∏≠Âúã",
          "name:zh-Latn-pinyin": "Zh≈çnggu√≥",
          "official_name:nan-HJ": "‰∏≠Âçé‰∫∫Ê∞ëÂÖ±ÂíåÂõΩ",
          "official_name:nan-TL": "Tiong-hu√¢ J√Æn-b√Æn Ki≈çng-h√¥-kok",
          "official_name:nds-nl": "Volksrippebliek China",
          "official_name:bat-smg": "Kƒónƒójƒós Liaudƒóis Respoblƒóka",
          "official_name:cbk-zam": "Rep√∫blica Popular China",
          "official_name:ko-Hani": "‰∏≠ËèØ‰∫∫Ê∞ëÂÖ±ÂíåÂúã",
          "official_name:nan-POJ": "Tiong-ho√¢ J√Æn-b√Æn Ki≈çng-h√¥-kok",
          "official_name:zh-Hans": "‰∏≠Âçé‰∫∫Ê∞ëÂÖ±ÂíåÂõΩ",
          "official_name:zh-Hant": "‰∏≠ËèØ‰∫∫Ê∞ëÂÖ±ÂíåÂúã",
          "official_name:roa-tara": "Repubbleche Populare Cenise",
          "official_name:be-tarask": "–ö—ñ—Ç–∞–π—Å–∫–∞—è –ù–∞—Ä–æ–¥–Ω–∞—è –†—ç—Å–ø—É–±–ª—ñ–∫–∞"
        }
      },
      "geometry": {
        "type": "Polygon",
        "coordinates": [
          [
            [
              94,
              44
            ],
            [
              95,
              44
            ],
            [
              95,
              44.25106098119749
            ],
            [
              94.9986632,
              44.2508804
            ],
            [
              94.9944154,
              44.254539
            ],
            [
              94.9878463,
              44.2588015
            ],
            [
              94.97876,
              44.2592153
            ],
            [
              94.9761633,
              44.2608799
            ],
            [
              94.9744831,
              44.2649364
            ],
            [
              94.968195,
              44.268623
            ],
            [
              94.9642912,
              44.2705229
            ],
            [
              94.9551606,
              44.2763066
            ],
            [
              94.9495012,
              44.281963
            ],
            [
              94.9461168,
              44.2855825
            ],
            [
              94.9447667,
              44.2880015
            ],
            [
              94.9373846,
              44.292198
            ],
            [
              94.9335611,
              44.2940524
            ],
            [
              94.9151771,
              44.2998495
            ],
            [
              94.909896,
              44.3008026
            ],
            [
              94.907945,
              44.3008624
            ],
            [
              94.8993376,
              44.2989341
            ],
            [
              94.8973931,
              44.2991154
            ],
            [
              94.890044,
              44.302588
            ],
            [
              94.885264,
              44.307083
            ],
            [
              94.8823217,
              44.3091369
            ],
            [
              94.8684848,
              44.3095228
            ],
            [
              94.8652071,
              44.3106109
            ],
            [
              94.8476152,
              44.3153832
            ],
            [
              94.8238254,
              44.3179667
            ],
            [
              94.8165382,
              44.3204551
            ],
            [
              94.8112883,
              44.32333
            ],
            [
              94.8067629,
              44.3288561
            ],
            [
              94.8040206,
              44.3288484
            ],
            [
              94.8013489,
              44.3291463
            ],
            [
              94.7957699,
              44.3303482
            ],
            [
              94.7915429,
              44.3321247
            ],
            [
              94.78357,
              44.337365
            ],
            [
              94.7659627,
              44.3400067
            ],
            [
              94.7502093,
              44.3401267
            ],
            [
              94.726382,
              44.3387175
            ],
            [
              94.7237544,
              44.3390491
            ],
            [
              94.718557,
              44.3407573
            ],
            [
              94.7128266,
              44.345007
            ],
            [
              94.7089862,
              44.349298
            ],
            [
              94.6717124,
              44.3938408
            ],
            [
              94.6617182,
              44.3997466
            ],
            [
              94.6453468,
              44.4125707
            ],
            [
              94.6356396,
              44.4175939
            ],
            [
              94.6308388,
              44.4241025
            ],
            [
              94.620702,
              44.432922
            ],
            [
              94.6105421,
              44.442499
            ],
            [
              94.6029359,
              44.4468096
            ],
            [
              94.5894575,
              44.4486931
            ],
            [
              94.568036,
              44.4553985
            ],
            [
              94.5604644,
              44.4587421
            ],
            [
              94.5558852,
              44.4590658
            ],
            [
              94.5537404,
              44.4590664
            ],
            [
              94.5342379,
              44.4681714
            ],
            [
              94.516319,
              44.4762139
            ],
            [
              94.5115953,
              44.4776058
            ],
            [
              94.5042828,
              44.4863037
            ],
            [
              94.4925444,
              44.4959246
            ],
            [
              94.4778496,
              44.5025132
            ],
            [
              94.4622893,
              44.5104609
            ],
            [
              94.4556024,
              44.5114288
            ],
            [
              94.4434356,
              44.5126428
            ],
            [
              94.4336682,
              44.516002
            ],
            [
              94.4140828,
              44.5168675
            ],
            [
              94.3905572,
              44.5225374
            ],
            [
              94.3845455,
              44.5199255
            ],
            [
              94.378616,
              44.5206905
            ],
            [
              94.3607465,
              44.514838
            ],
            [
              94.3525836,
              44.5154539
            ],
            [
              94.3477624,
              44.5165583
            ],
            [
              94.3427761,
              44.5234034
            ],
            [
              94.345927,
              44.536603
            ],
            [
              94.3464967,
              44.5422738
            ],
            [
              94.3438022,
              44.5492199
            ],
            [
              94.3417882,
              44.5592753
            ],
            [
              94.3398561,
              44.5635835
            ],
            [
              94.3325337,
              44.5719337
            ],
            [
              94.3263521,
              44.5823575
            ],
            [
              94.303789,
              44.5934161
            ],
            [
              94.2893943,
              44.5979459
            ],
            [
              94.2761956,
              44.6049235
            ],
            [
              94.226289,
              44.64448
            ],
            [
              94.2218335,
              44.6465491
            ],
            [
              94.2214086,
              44.6475325
            ],
            [
              94.2197355,
              44.6554161
            ],
            [
              94.2180382,
              44.6592989
            ],
            [
              94.21598,
              44.6624189
            ],
            [
              94.2113654,
              44.6677255
            ],
            [
              94.1839694,
              44.6767894
            ],
            [
              94.1499938,
              44.683614
            ],
            [
              94.1399023,
              44.6886684
            ],
            [
              94.1135383,
              44.7024993
            ],
            [
              94.1025643,
              44.7100076
            ],
            [
              94.0620611,
              44.7324348
            ],
            [
              94.036811,
              44.742404
            ],
            [
              94,
              44.75719469788892
            ],
            [
              94,
              44
            ]
          ]
        ]
      }
    },
    {
      "type": "Feature",
      "properties": {
        "osm_id": -161033,
        "boundary": "administrative",
        "admin_level": 2,
        "parents": null,
        "name": "Mongolia",
        "local_name": "–ú–æ–Ω–≥–æ–ª —É–ª—Å ·†Æ·†§·†©·†≠·†§·†Ø ·†§·†Ø·†§·†∞",
        "name_en": "Mongolia",
        "all_tags": {
          "flag": "http://upload.wikimedia.org/wikipedia/commons/4/4c/Flag_of_Mongolia.svg",
          "name": "–ú–æ–Ω–≥–æ–ª —É–ª—Å ·†Æ·†§·†©·†≠·†§·†Ø ·†§·†Ø·†§·†∞",
          "name:af": "Mongoli√´",
          "name:am": "·àû·äï·åé·àç·ã´",
          "name:an": "Mongolia",
          "name:ar": "ŸÖŸÜÿ∫ŸàŸÑŸäÿß",
          "name:as": "‡¶Æ‡¶ô‡ßç‡¶ó‡ßã‡¶≤‡¶ø‡¶Ø‡¶º‡¶æ",
          "name:az": "Monqolustan",
          "name:ba": "–ú–æ–Ω–≥–æ–ª–∏—è",
          "name:be": "–ú–∞–Ω–≥–æ–ª—ñ—è",
          "name:bg": "–ú–æ–Ω–≥–æ–ª–∏—è",
          "name:bn": "‡¶Æ‡¶ô‡ßç‡¶ó‡ßã‡¶≤‡¶ø‡¶Ø‡¶º‡¶æ",
          "name:bo": "‡Ωò‡Ωº‡ΩÑ‡ºã‡ΩÇ‡Ωº‡Ω£‡ºç",
          "name:br": "Mongolia",
          "name:bs": "Mongolija",
          "name:ca": "Mong√≤lia",
          "name:ce": "–ú–æ–Ω–≥–æ–ª–∏",
          "name:cs": "Mongolsko",
          "name:cu": "–ú—´–≥–æ–ª–∏",
          "name:cv": "–ú–æ–Ω–≥–æ–ª–∏",
          "name:cy": "Mongolia",
          "name:da": "Mongoliet",
          "name:de": "Mongolei",
          "name:dv": "ﬁâﬁÆﬁÇﬁ∞ﬁéﬁØﬁçﬁ®ﬁáﬁß",
          "name:dz": "‡Ω¶‡Ωº‡ΩÇ‡ºã‡Ωî‡Ωº‡ºã",
          "name:ee": "Mongolia",
          "name:el": "ŒúŒøŒ≥Œ≥ŒøŒªŒØŒ±",
          "name:en": "Mongolia",
          "name:eo": "Mongolio",
          "name:es": "Mongolia",
          "name:et": "Mongoolia",
          "name:eu": "Mongolia",
          "name:fa": "ŸÖÿ∫ŸàŸÑÿ≥ÿ™ÿßŸÜ",
          "name:fi": "Mongolia",
          "name:fo": "Mongolia",
          "name:fr": "Mongolie",
          "name:fy": "Mongoalje",
          "name:ga": "An Mhong√≥il",
          "name:gd": "Mong√≤ilia",
          "name:gl": "Mongolia",
          "name:gn": "Mongolia",
          "name:gu": "‡™Æ‡™Ç‡™ó‡´ã‡™≤‡™ø‡™Ø‡™æ",
          "name:gv": "Yn Vongoil",
          "name:he": "◊û◊ï◊†◊í◊ï◊ú◊ô◊î",
          "name:hi": "‡§Æ‡§Ç‡§ó‡•ã‡§≤‡§ø‡§Ø‡§æ",
          "name:hr": "Mongolija",
          "name:ht": "Mongoli",
          "name:hu": "Mong√≥lia",
          "name:hy": "’Ñ’∏’∂’≤’∏’¨’´’°",
          "name:ia": "Mongolia",
          "name:id": "Mongolia",
          "name:ie": "Mongolia",
          "name:io": "Mongolia",
          "name:is": "Mong√≥l√≠a",
          "name:it": "Mongolia",
          "name:ja": "„É¢„É≥„Ç¥„É´ÂõΩ",
          "name:jv": "Mongolia",
          "name:ka": "·Éõ·Éù·Éú·É¶·Éù·Éö·Éî·Éó·Éò",
          "name:kk": "–ú–æ“£“ì–æ–ª–∏—è",
          "name:kl": "Mongolia",
          "name:km": "·ûò·üâ·ûª·ûÑ·û†·üí·ûÇ·üÑ·ûõ·û∏",
          "name:kn": "‡≤Æ‡≤Ç‡≤ó‡≥ã‡≤≤‡≤ø‡≤Ø",
          "name:ko": "Î™ΩÍ≥®",
          "name:ku": "Mongolya",
          "name:kv": "–ú–æ–Ω–≥–æ–ª–∏—è",
          "name:kw": "Mongoli",
          "name:ky": "–ú–æ“£–≥–æ–ª—Å—Ç–∞–Ω",
          "name:la": "Mongolia",
          "name:lb": "Mongolei",
          "name:li": "Mongoli√´",
          "name:ln": "Mongol√≠",
          "name:lt": "Mongolija",
          "name:lv": "Mongolija",
          "name:mi": "Mong≈çria",
          "name:mk": "–ú–æ–Ω–≥–æ–ª–∏—ò–∞",
          "name:ml": "‡¥Æ‡¥Ç‡¥ó‡µã‡¥≥‡¥ø‡¥Ø",
          "name:mo": "–ú–æ–Ω–≥–æ–ª–∏—è",
          "name:mr": "‡§Æ‡§Ç‡§ó‡•ã‡§≤‡§ø‡§Ø‡§æ",
          "name:ms": "Mongolia",
          "name:my": "·Äô·ÄΩ·Äî·Ä∫·ÄÇ·Ä≠·ÄØ·Ä∏·Äú·ÄÆ·Ä∏·Äö·Ä¨·Ä∏·Äî·Ä≠·ÄØ·ÄÑ·Ä∫·ÄÑ·Ä∂",
          "name:na": "Mongoriya",
          "name:ne": "‡§Æ‡§ô‡•ç‡§ó‡•ã‡§≤‡§ø‡§Ø‡§æ",
          "name:nl": "Mongoli√´",
          "name:nn": "Mongolia",
          "name:no": "Mongolia",
          "name:nv": "Ch ºah Di ºilii Bik√©yah",
          "name:oc": "Mongolia",
          "name:or": "‡¨Æ‡¨ô‡≠ç‡¨ó‡≠ã‡¨≤‡¨ø‡¨Ü",
          "name:os": "–ú–∞–Ω–≥–æ–ª",
          "name:pa": "‡®Æ‡©∞‡®ó‡©ã‡®≤‡©Ä‡®Ü",
          "name:pl": "Mongolia",
          "name:ps": "ŸÖÿ∫ŸàŸÑÿ≥ÿ™ÿßŸÜ",
          "name:pt": "Mong√≥lia",
          "name:qu": "Mungul suyu",
          "name:ro": "Mongolia",
          "name:ru": "–ú–æ–Ω–≥–æ–ª–∏—è",
          "name:rw": "Mongoliya",
          "name:sa": "‡§Æ‡§Ç‡§ó‡•ã‡§≤‡§ø‡§Ø‡§æ",
          "name:se": "Mongolia",
          "name:sh": "Mongolija",
          "name:si": "‡∂∏‡∑ú‡∂Ç‡∂ú‡∑ù‡∂Ω‡∑í‡∂∫‡∑è‡∑Ä",
          "name:sk": "Mongolsko",
          "name:sl": "Mongolija",
          "name:sm": "Mogitolia",
          "name:so": "Mongolia",
          "name:sq": "Mongolia",
          "name:sr": "–ú–æ–Ω–≥–æ–ª–∏—ò–∞",
          "name:ss": "IMongoliya",
          "name:su": "Mongolia",
          "name:sv": "Mongoliet",
          "name:sw": "Mongolia",
          "name:ta": "‡ÆÆ‡Æô‡Øç‡Æï‡Øã‡Æ≤‡Æø‡ÆØ‡Ææ",
          "name:te": "‡∞Æ‡∞Ç‡∞ó‡±ã‡∞≤‡∞ø‡∞Ø‡∞æ",
          "name:tg": "–ú—É“ì—É–ª–∏—Å—Ç–æ–Ω",
          "name:th": "‡∏õ‡∏£‡∏∞‡πÄ‡∏ó‡∏®‡∏°‡∏≠‡∏á‡πÇ‡∏Å‡πÄ‡∏•‡∏µ‡∏¢",
          "name:tk": "Mongoli√Ωa",
          "name:tl": "Monggolya",
          "name:tr": "Moƒüolistan",
          "name:tt": "–ú–æ–Ω–≥–æ–ª–∏—è",
          "name:ug": "ŸÖŸà⁄≠ÿ∫€áŸÑŸâŸä€ï",
          "name:uk": "–ú–æ–Ω–≥–æ–ª—ñ—è",
          "name:ur": "ŸÖŸÜ⁄ØŸàŸÑ€åÿß",
          "name:uz": "Mo ªg ªuliston",
          "name:vi": "M√¥ng C·ªï",
          "name:vo": "Mongol√§n",
          "name:wo": "Mongoli",
          "name:yi": "◊û◊ê◊†◊í◊ê◊ú◊ô◊ô",
          "name:yo": "M√≤ng√≥l√≠√†",
          "name:za": "Mungzguj",
          "name:zh": "ËíôÂè§",
          "boundary": "administrative",
          "int_name": "Mongolia",
          "name:ace": "Mongolia",
          "name:als": "Mongolei",
          "name:arz": "ŸÖŸàŸÜÿ¨ŸàŸÑŸäÿß",
          "name:ast": "Mongolia",
          "name:bcl": "Mongolya",
          "name:bpy": "‡¶Æ‡¶ô‡ßç‡¶ó‡ßã‡¶≤‡¶ø‡¶Ø‡¶º‡¶æ",
          "name:bug": "Mongolia",
          "name:bxr": "–ú–æ–Ω–≥–æ–ª –£–ª–∞—Å",
          "name:cdo": "M≈´ng-g≈´",
          "name:ceb": "Mongolia",
          "name:chr": "·éº·èÇ·é™·éµ·è±",
          "name:ckb": "ŸÖ€ïŸÜ⁄Ø€ÜŸÑ€åÿß",
          "name:crh": "Moƒüolistan",
          "name:csb": "M√≤ngolsk√¥",
          "name:diq": "Moƒüolƒ±stan",
          "name:dsb": "Mongolska",
          "name:ext": "Mongolia",
          "name:frp": "Mongolie",
          "name:gag": "Mongoliya",
          "name:hak": "M√πng-k√∫-koet",
          "name:haw": "Monokolia",
          "name:hif": "Mongolia",
          "name:hsb": "Mongolska",
          "name:ilo": "Mongolia",
          "name:jbo": "mongolo",
          "name:kbd": "–ú–æ–Ω–≥–æ–ª",
          "name:lez": "–ú–æ–Ω–≥–æ–ª–∏—è",
          "name:lij": "Mong√≤llia",
          "name:lmo": "Mungolia",
          "name:mdf": "–ú–æ–Ω–≥–æ–ª–∏–µ",
          "name:mzn": "ŸÖŸàÿ∫ŸàŸÑÿ¶ŸàŸÜ",
          "name:nah": "Mongolia",
          "name:nan": "B√¥ng-k√≥Õò",
          "name:nds": "Mongolei",
          "name:new": "‡§Æ‡§Ç‡§ó‡•ã‡§≤‡§ø‡§Ø‡§æ",
          "name:nov": "Mongolia",
          "name:nrm": "Mongolie",
          "name:pam": "Mongolia",
          "name:pap": "Mongolia",
          "name:pih": "Mongoelya",
          "name:pms": "Mong√≤lia",
          "name:pnb": "ŸÖŸÜ⁄ØŸàŸÑ€åÿß",
          "name:sah": "–ú–æ–Ω–≥–æ–ª–∏—è",
          "name:scn": "Mongolia",
          "name:sco": "Mongolie",
          "name:smn": "Mongolia",
          "name:sms": "Mongolia",
          "name:szl": "M≈çngolij≈è",
          "name:tzl": "Mongoglh",
          "name:udm": "–ú–æ–Ω–≥–æ–ª–∏—è",
          "name:vec": "Mongo≈Çia",
          "name:vro": "Mongoolia",
          "name:war": "Mongolya",
          "name:wuu": "ËíôÂè§ÂõΩ",
          "name:xal": "–ú–æ“£“ª–ª–º—É–¥–∏–Ω –û—Ä–Ω",
          "name:yue": "ËíôÂè§Âúã",
          "name:zea": "Monholi√´",
          "way_area": "184.687",
          "wikidata": "Q711",
          "ISO3166-1": "MN",
          "land_area": "administrative",
          "wikipedia": "en:Mongolia",
          "admin_level": "2",
          "alt_name:eo": "Mongolujo",
          "alt_name:zh": "ËíôÂè§",
          "name:nds-nl": "Mongoli√´",
          "name:bat-smg": "Monguolƒójƒó",
          "name:mn-Cyrl": "–ú–æ–Ω–≥–æ–ª —É–ª—Å",
          "name:mn-Mong": "·†Æ·†§·†©·†≠·†§·†Ø ·†§·†Ø·†§·†∞",
          "name:zh-Hans": "ËíôÂè§ÂõΩ",
          "name:zh-Hant": "ËíôÂè§Âúã",
          "name:be-tarask": "–ú–∞–Ω–≥–æ–ª—ñ—è",
          "ISO3166-1:alpha2": "MN",
          "ISO3166-1:alpha3": "MNG",
          "default_language": "mn",
          "ISO3166-1:numeric": "496"
        }
      },
      "geometry": {
        "type": "Polygon",
        "coordinates": [
          [
            [
              94,
              44.75719469788892
            ],
            [
              94.036811,
              44.742404
            ],
            [
              94.0620611,
              44.7324348
            ],
            [
              94.1025643,
              44.7100076
            ],
            [
              94.1135383,
              44.7024993
            ],
            [
              94.1399023,
              44.6886684
            ],
            [
              94.1499938,
              44.683614
            ],
            [
              94.1839694,
              44.6767894
            ],
            [
              94.2113654,
              44.6677255
            ],
            [
              94.21598,
              44.6624189
            ],
            [
              94.2180382,
              44.6592989
            ],
            [
              94.2197355,
              44.6554161
            ],
            [
              94.2214086,
              44.6475325
            ],
            [
              94.2218335,
              44.6465491
            ],
            [
              94.226289,
              44.64448
            ],
            [
              94.2761956,
              44.6049235
            ],
            [
              94.2893943,
              44.5979459
            ],
            [
              94.303789,
              44.5934161
            ],
            [
              94.3263521,
              44.5823575
            ],
            [
              94.3325337,
              44.5719337
            ],
            [
              94.3398561,
              44.5635835
            ],
            [
              94.3417882,
              44.5592753
            ],
            [
              94.3438022,
              44.5492199
            ],
            [
              94.3464967,
              44.5422738
            ],
            [
              94.345927,
              44.536603
            ],
            [
              94.3427761,
              44.5234034
            ],
            [
              94.3477624,
              44.5165583
            ],
            [
              94.3525836,
              44.5154539
            ],
            [
              94.3607465,
              44.514838
            ],
            [
              94.378616,
              44.5206905
            ],
            [
              94.3845455,
              44.5199255
            ],
            [
              94.3905572,
              44.5225374
            ],
            [
              94.4140828,
              44.5168675
            ],
            [
              94.4336682,
              44.516002
            ],
            [
              94.4434356,
              44.5126428
            ],
            [
              94.4556024,
              44.5114288
            ],
            [
              94.4622893,
              44.5104609
            ],
            [
              94.4778496,
              44.5025132
            ],
            [
              94.4925444,
              44.4959246
            ],
            [
              94.5042828,
              44.4863037
            ],
            [
              94.5115953,
              44.4776058
            ],
            [
              94.516319,
              44.4762139
            ],
            [
              94.5342379,
              44.4681714
            ],
            [
              94.5537404,
              44.4590664
            ],
            [
              94.5558852,
              44.4590658
            ],
            [
              94.5604644,
              44.4587421
            ],
            [
              94.568036,
              44.4553985
            ],
            [
              94.5894575,
              44.4486931
            ],
            [
              94.6029359,
              44.4468096
            ],
            [
              94.6105421,
              44.442499
            ],
            [
              94.620702,
              44.432922
            ],
            [
              94.6308388,
              44.4241025
            ],
            [
              94.6356396,
              44.4175939
            ],
            [
              94.6453468,
              44.4125707
            ],
            [
              94.6617182,
              44.3997466
            ],
            [
              94.6717124,
              44.3938408
            ],
            [
              94.7089862,
              44.349298
            ],
            [
              94.7128266,
              44.345007
            ],
            [
              94.718557,
              44.3407573
            ],
            [
              94.7237544,
              44.3390491
            ],
            [
              94.726382,
              44.3387175
            ],
            [
              94.7502093,
              44.3401267
            ],
            [
              94.7659627,
              44.3400067
            ],
            [
              94.78357,
              44.337365
            ],
            [
              94.7915429,
              44.3321247
            ],
            [
              94.7957699,
              44.3303482
            ],
            [
              94.8013489,
              44.3291463
            ],
            [
              94.8040206,
              44.3288484
            ],
            [
              94.8067629,
              44.3288561
            ],
            [
              94.8112883,
              44.32333
            ],
            [
              94.8165382,
              44.3204551
            ],
            [
              94.8238254,
              44.3179667
            ],
            [
              94.8476152,
              44.3153832
            ],
            [
              94.8652071,
              44.3106109
            ],
            [
              94.8684848,
              44.3095228
            ],
            [
              94.8823217,
              44.3091369
            ],
            [
              94.885264,
              44.307083
            ],
            [
              94.890044,
              44.302588
            ],
            [
              94.8973931,
              44.2991154
            ],
            [
              94.8993376,
              44.2989341
            ],
            [
              94.907945,
              44.3008624
            ],
            [
              94.909896,
              44.3008026
            ],
            [
              94.9151771,
              44.2998495
            ],
            [
              94.9335611,
              44.2940524
            ],
            [
              94.9373846,
              44.292198
            ],
            [
              94.9447667,
              44.2880015
            ],
            [
              94.9461168,
              44.2855825
            ],
            [
              94.9495012,
              44.281963
            ],
            [
              94.9551606,
              44.2763066
            ],
            [
              94.9642912,
              44.2705229
            ],
            [
              94.968195,
              44.268623
            ],
            [
              94.9744831,
              44.2649364
            ],
            [
              94.9761633,
              44.2608799
            ],
            [
              94.97876,
              44.2592153
            ],
            [
              94.9878463,
              44.2588015
            ],
            [
              94.9944154,
              44.254539
            ],
            [
              94.9986632,
              44.2508804
            ],
            [
              95,
              44.25106098119749
            ],
            [
              95,
              45
            ],
            [
              94,
              45
            ],
            [
              94,
              44.75719469788892
            ]
          ]
        ]
      }
    }
  ]
}