{
  "type": "FeatureCollection",
  "features": [
    {
      "type": "Feature",
      "properties": {
        "osm_id": -304751,
        "boundary": "administrative",
        "admin_level": 2,
        "parents": null,
        "name": "Indonesia",
        "local_name": "Indonesia",
        "name_en": "Indonesia",
        "all_tags": {
          "ref": "ID",
          "flag": "http://upload.wikimedia.org/wikipedia/commons/9/9f/Flag_of_Indonesia.svg",
          "name": "Indonesia",
          "name:af": "Indonesië",
          "name:ak": "Indonesia",
          "name:am": "ኢንዶኔዥያ",
          "name:an": "Indonesia",
          "name:ar": "إندونيسيا",
          "name:ay": "Indunisya",
          "name:az": "İndoneziya",
          "name:ba": "Индонезия",
          "name:be": "Інданезія",
          "name:bg": "Индонезия",
          "name:bi": "Indonesia",
          "name:bn": "ইন্দোনেশিয়া",
          "name:bo": "ཨིན་རྡུ་ནི་ཤིས་ཡ།",
          "name:br": "Indonezia",
          "name:bs": "Indonezija",
          "name:ca": "Indonèsia",
          "name:ce": "Индонези",
          "name:ch": "Indonesia",
          "name:co": "Indunesia",
          "name:cs": "Indonésie",
          "name:cu": "Їндонисїꙗ",
          "name:cv": "Индонези",
          "name:cy": "Indonesia",
          "name:da": "Indonesien",
          "name:de": "Indonesien",
          "name:dv": "އިންޑޮނޭޝިޔާ",
          "name:el": "Ινδονησία",
          "name:en": "Indonesia",
          "name:eo": "Indonezio",
          "name:es": "Indonesia",
          "name:et": "Indoneesia",
          "name:eu": "Indonesia",
          "name:fa": "اندونزی",
          "name:fi": "Indonesia",
          "name:fo": "Indonesia",
          "name:fr": "Indonésie",
          "name:fy": "Yndoneezje",
          "name:ga": "An Indinéis",
          "name:gd": "An Innd-Innse",
          "name:gl": "Indonesia",
          "name:gn": "Indonesia",
          "name:gu": "ઈંડોનેશિયા",
          "name:gv": "Yn Indoneesh",
          "name:he": "אינדונזיה",
          "name:hi": "इंडोनेशिया",
          "name:hr": "Indonezija",
          "name:ht": "Endonezi",
          "name:hu": "Indonézia",
          "name:hy": "Ինդոնեզիա",
          "name:ia": "Indonesia",
          "name:id": "Indonesia",
          "name:ie": "Indonesia",
          "name:io": "Indonezia",
          "name:is": "Indónesía",
          "name:it": "Indonesia",
          "name:iu": "ᐄᓅᓯᐊ",
          "name:ja": "インドネシア",
          "name:jv": "Indonésia",
          "name:ka": "ინდონეზია",
          "name:ki": "Indonesia",
          "name:kk": "Индонезия",
          "name:kl": "Indonesia",
          "name:km": "ឥណ្ឌូនេស៊ី",
          "name:kn": "ಇಂಡೋನೇಷ್ಯಾ",
          "name:ko": "인도네시아",
          "name:ku": "Îndonezya",
          "name:kv": "Индонезия",
          "name:kw": "Indonesi",
          "name:ky": "Индонезия",
          "name:la": "Indonesia",
          "name:lb": "Indonesien",
          "name:li": "Indonesië",
          "name:ln": "Indonezí",
          "name:lt": "Indonezija",
          "name:lv": "Indonēzija",
          "name:mg": "Indonezia",
          "name:mi": "Initonīhia",
          "name:mk": "Индонезија",
          "name:ml": "ഇന്തോനേഷ്യ",
          "name:mn": "Индонез",
          "name:mr": "इंडोनेशिया",
          "name:ms": "Indonesia",
          "name:mt": "Indoneżja",
          "name:my": "အင်ဒိုနီးရှားနိုင်ငံ",
          "name:na": "Indonitsiya",
          "name:ne": "इण्डोनेशिया",
          "name:nl": "Indonesië",
          "name:nn": "Indonesia",
          "name:no": "Indonesia",
          "name:nv": "Indoníízha",
          "name:oc": "Indonesia",
          "name:om": "Indoneeshiyaa",
          "name:or": "ଇଣ୍ଡୋନେସିଆ",
          "name:os": "Индонези",
          "name:pa": "ਇੰਡੋਨੇਸ਼ੀਆ",
          "name:pl": "Indonezja",
          "name:ps": "اندونيزيا",
          "name:pt": "Indonésia",
          "name:qu": "Indunisya",
          "name:rm": "Indonesia",
          "name:ro": "Indonezia",
          "name:ru": "Индонезия",
          "name:rw": "Indonesiya",
          "name:sa": "इण्डोनेशिया",
          "name:se": "Indonesia",
          "name:sg": "Ênndonezïi",
          "name:sh": "Indonezija",
          "name:si": "ඉන්දුනීසියාව",
          "name:sk": "Indonézia",
          "name:sl": "Indonezija",
          "name:sm": "Indyunisia",
          "name:so": "Indunisiya",
          "name:sq": "Indonezia",
          "name:sr": "Индонезија",
          "name:ss": "INdonesiya",
          "name:su": "Indonésia",
          "name:sv": "Indonesien",
          "name:sw": "Indonesia",
          "name:ta": "இந்தோனேசியா",
          "name:te": "ఇండోనేషియా",
          "name:tg": "Индонезия",
          "name:th": "ประเทศอินโดนีเซีย",
          "name:tk": "Indoneziýa",
          "name:tl": "Indonesya",
          "name:tr": "Endonezya",
          "name:tt": "Индонезия",
          "name:ug": "ھىندونېزىيە",
          "name:uk": "Індонезія",
          "name:ur": "انڈونیشیا",
          "name:uz": "Indoneziya",
          "name:vi": "Indonesia",
          "name:vo": "Lindäna-Seänuäns",
          "name:wa": "Indonezeye",
          "name:wo": "Endoneesi",
          "name:yi": "אינדאנעזיע",
          "name:yo": "Indonésíà",
          "name:za": "Yindunizsihya",
          "name:zh": "印度尼西亚 / 印度尼西亞",
          "alt_name": "Negara Kesatuan Republik Indonesia",
          "boundary": "administrative",
          "name:als": "Indonesien",
          "name:ang": "Indonesia",
          "name:arz": "اندونيسيا",
          "name:ast": "Indonesia",
          "name:bar": "Indonesien",
          "name:bcl": "Indonesya",
          "name:bjn": "Indunisia",
          "name:bpy": "ইন্দোনেশিয়া",
          "name:bug": "Indonesia",
          "name:bxr": "Индонези",
          "name:ceb": "Indonesia",
          "name:chr": "ᎢᏂᏙᏂᏍᏯ",
          "name:ckb": "ئیندۆنیزیا",
          "name:crh": "İndoneziya",
          "name:csb": "Jindonezjô",
          "name:diq": "İndonezya",
          "name:dsb": "Indoneziska",
          "name:ext": "Indonésia",
          "name:frp": "Endonèsie",
          "name:frr": "Indoneesien",
          "name:fur": "Indonesie",
          "name:gag": "İndoneziya",
          "name:gan": "印度尼西亞",
          "name:hak": "Yin-thu-nì-sî-â",
          "name:haw": "‘Inidonesia",
          "name:hif": "Indonesia",
          "name:hsb": "Indoneska",
          "name:ilo": "Indonesia",
          "name:jbo": "bidgu'e",
          "name:kbd": "Индонезиэ",
          "name:lez": "Индонезия",
          "name:lij": "Indonexia",
          "name:lmo": "Indunesia",
          "name:lrc": "ٱندونزی",
          "name:lzh": "印度尼西亞",
          "name:mhr": "Индонезий",
          "name:min": "Indonesia",
          "name:mrj": "Индонези",
          "name:mzn": "اندونزی",
          "name:nah": "Indonesia",
          "name:nan": "Ìn-nî",
          "name:nap": "Indonesia",
          "name:nds": "Indonesien",
          "name:new": "इन्दोनेसिया",
          "name:nov": "Indonesia",
          "name:pag": "Indonesiya",
          "name:pam": "Indonesia",
          "name:pap": "Indonesia",
          "name:pih": "Endonesya",
          "name:pms": "Indonesia",
          "name:pnb": "انڈونیشیا",
          "name:rue": "Індонезія",
          "name:sah": "Индонезия",
          "name:scn": "Indunesia",
          "name:sco": "Indonesie",
          "name:smn": "Indonesia",
          "name:sms": "Indonesia",
          "name:srn": "Indonesikondre",
          "name:stq": "Indonesien",
          "name:szl": "Indōnezyjŏ",
          "name:tet": "Indonézia",
          "name:tok": "ma Intonesija",
          "name:tpi": "Indonisia",
          "name:tzl": "Indonesía",
          "name:udm": "Индонезия",
          "name:vec": "Indonexia",
          "name:vep": "Indonezii",
          "name:vro": "Indoneesiä",
          "name:war": "Indonesia",
          "name:wuu": "印度尼西亚",
          "name:xal": "Эндонесин Орн",
          "name:yue": "印尼",
          "name:zea": "Indonesië",
          "way_area": "428.9",
          "wikidata": "Q252",
          "ISO3166-1": "ID",
          "wikipedia": "id:Indonesia",
          "population": "270203917",
          "short_name": "NKRI",
          "admin_level": "2",
          "border_type": "nation",
          "name:nds-nl": "Indonezie",
          "name:simple": "Indonesia",
          "driving_side": "left",
          "name:bat-smg": "Induonezėjė",
          "name:cbk-zam": "Indonesia",
          "name:map-bms": "Indonesia",
          "name:zh-Hans": "印度尼西亚",
          "name:zh-Hant": "印度尼西亞",
          "name:roa-tara": "Indonesie",
          "official_name": "Republik Indonesia",
          "name:be-tarask": "Інданэзія",
          "ISO3166-1:alpha2": "ID",
          "ISO3166-1:alpha3": "IDN",
          "default_language": "id",
          "official_name:ar": "جمهورية إندونيسيا",
          "official_name:cs": "Indonéská republika",
          "official_name:de": "Republik Indonesien",
          "official_name:en": "Republic of Indonesia",
          "official_name:es": "República de Indonesia",
          "official_name:fa": "جمهوری اندونزی",
          "official_name:ku": "Komara Îndonezya",
          "official_name:ru": "Республика Индонезия",
          "official_name:ur": "جمہوریہ انڈونیشیا",
          "official_name:zh": "印度尼西亚共和国 / 印度尼西亞共和國",
          "ISO3166-1:numeric": "360",
          "official_name:bjn": "Ripublik Indunisia",
          "official_name:ckb": "کۆماری ئیندۆنیزیا",
          "official_name:zh-Hans": "印度尼西亚共和国",
          "official_name:zh-Hant": "印度尼西亞共和國",
          "population:census:2020": "https://en.wikipedia.org/wiki/Indonesia#cite_note-2020census-8"
        }
      },
      "geometry": {
        "type": "Polygon",
        "coordinates": [
          [
            [
              94.85159299370497,
              6
            ],
            [
              95,
              6
            ],
            [
              95,
              6.237256925465533
            ],
            [
              94.9325937,
              6.1632608
            ],
            [
              94.85159299370497,
              6
            ]
          ]
        ]
      }
    },
    {
      "type": "Feature",
      "properties": {
        "osm_id": -304716,
        "boundary": "administrative",
        "admin_level": 2,
        "parents": null,
        "name": "India",
        "local_name": "India",
        "name_en": "India",
        "all_tags": {
          "flag": "http://upload.wikimedia.org/wikipedia/commons/4/41/Flag_of_India.svg",
          "name": "India",
          "name:am": "ህንድ",
          "name:ar": "الهند",
          "name:az": "Hindistan",
          "name:ba": "Һиндостан",
          "name:be": "Індыя",
          "name:bg": "Индия",
          "name:bh": "भारत",
          "name:bi": "India",
          "name:bn": "ভারত",
          "name:bo": "རྒྱ་གར།",
          "name:br": "India",
          "name:bs": "Indija",
          "name:ca": "Índia",
          "name:ce": "ХӀинди",
          "name:co": "India",
          "name:cs": "Indie",
          "name:cv": "Инди",
          "name:cy": "India",
          "name:da": "Indien",
          "name:de": "Indien",
          "name:dv": "އިންޑިޔާ",
          "name:dz": "རྒྱ་གར",
          "name:ee": "India",
          "name:el": "Ινδία",
          "name:en": "India",
          "name:eo": "Barato",
          "name:es": "India",
          "name:et": "India",
          "name:eu": "India",
          "name:fa": "هند",
          "name:fi": "Intia",
          "name:fo": "India",
          "name:fr": "Inde",
          "name:fy": "Yndia",
          "name:ga": "An India",
          "name:gd": "Na h-Innseachan",
          "name:gn": "India",
          "name:gr": "Ἰνδία",
          "name:gu": "ભારત",
          "name:gv": "Yn Injey",
          "name:ha": "Indiya",
          "name:he": "הודו",
          "name:hi": "भारत",
          "name:hr": "Indija",
          "name:ht": "End",
          "name:hu": "India",
          "name:hy": "Հնդկաստան",
          "name:ia": "India",
          "name:id": "India",
          "name:ie": "India",
          "name:ig": "Ndia",
          "name:io": "India",
          "name:is": "Indland",
          "name:it": "India",
          "name:iu": "ᐃᓐᑎᐊ",
          "name:ja": "インド",
          "name:jv": "India",
          "name:ka": "ინდოეთი",
          "name:kg": "India",
          "name:kk": "Үндістан",
          "name:kl": "India",
          "name:km": "ឥណ្ឌា",
          "name:kn": "ಭಾರತ",
          "name:ko": "인도",
          "name:ks": "ہِندوستان",
          "name:ku": "Hindistan",
          "name:kv": "Индия",
          "name:kw": "Eynda",
          "name:ky": "Индия",
          "name:la": "India",
          "name:lb": "Indien",
          "name:li": "India",
          "name:ln": "India",
          "name:lt": "Indija",
          "name:lv": "Indija",
          "name:mg": "India",
          "name:mi": "Īnia",
          "name:mk": "Индија",
          "name:ml": "ഇന്ത്യ",
          "name:mn": "Энэтхэг",
          "name:mo": "Индия",
          "name:mr": "भारत",
          "name:ms": "India",
          "name:mt": "Indja",
          "name:my": "အိန္ဒိယနိုင်ငံ",
          "name:na": "Indjiya",
          "name:ne": "भारत",
          "name:nl": "India",
          "name:nn": "India",
          "name:no": "India",
          "name:nv": "Tó Wónaanídę́ę́ʼ Bitsįʼ Yishtłizhii Bikéyah",
          "name:oc": "Índia",
          "name:or": "ଭାରତ",
          "name:os": "Инди",
          "name:pa": "ਭਾਰਤ",
          "name:pi": "भारत",
          "name:pl": "Indie",
          "name:ps": "هند",
          "name:pt": "Índia",
          "name:qu": "Indya",
          "name:rm": "India",
          "name:rn": "Ubuhindi",
          "name:ro": "India",
          "name:ru": "Индия",
          "name:rw": "Ubuhinde",
          "name:sa": "भारतम्",
          "name:sc": "Ìndia",
          "name:sd": "ڀارت",
          "name:se": "India",
          "name:sh": "Indija",
          "name:si": "භාරත ජනරජය",
          "name:sk": "India",
          "name:sl": "Indija",
          "name:sm": "Igitia",
          "name:so": "Hindiya",
          "name:sq": "India",
          "name:sr": "Индија",
          "name:ss": "INdiya",
          "name:su": "India",
          "name:sv": "Indien",
          "name:sw": "Uhindi",
          "name:ta": "இந்தியா",
          "name:te": "భారత దేశం",
          "name:tg": "Ҳиндустон",
          "name:th": "ประเทศอินเดีย",
          "name:tk": "Hindistan",
          "name:tl": "Indiya",
          "name:to": "ʻInitia",
          "name:tr": "Hindistan",
          "name:ts": "India",
          "name:tt": "Һиндстан",
          "name:ty": "’Inītia",
          "name:ug": "ھىندىستان",
          "name:uk": "Індія",
          "name:ur": "ہندوستان",
          "name:uz": "Hindiston",
          "name:vi": "Ấn Độ",
          "name:vo": "Lindän",
          "name:wa": "Inde",
          "name:wo": "End",
          "name:yi": "אינדיע",
          "name:yo": "Índíà",
          "name:za": "Yindu",
          "name:zh": "印度",
          "name:zu": "INdiya",
          "alt_name": "Hindustan",
          "boundary": "administrative",
          "name:arc": "ܗܢܕܘ",
          "name:azb": "هیندوستان",
          "name:bar": "Indien",
          "name:bcl": "Indya",
          "name:bjn": "India",
          "name:bpy": "ভারত",
          "name:bug": "India",
          "name:bxr": "Энэдхэг",
          "name:cdo": "Éng-dô",
          "name:ceb": "Indya",
          "name:chr": "ᎢᏅᏗᎾ",
          "name:ckb": "ھیندستان",
          "name:crh": "İndistan",
          "name:csb": "Indie",
          "name:din": "Indiɛn",
          "name:diq": "Hindıstan",
          "name:dsb": "Indiska",
          "name:ext": "La Índia",
          "name:frp": "Ende",
          "name:frr": "Indien",
          "name:fur": "Indie",
          "name:gag": "İndiya",
          "name:gan": "印度",
          "name:glk": "هند",
          "name:grc": "Ἰνδία",
          "name:hak": "Yin-thu",
          "name:haw": "‘Īnia",
          "name:hif": "India",
          "name:hsb": "Indiska",
          "name:ilo": "India",
          "name:jbo": ".indias.",
          "name:kbd": "Индиэ",
          "name:kmr": "حندستان",
          "name:krc": "Индия",
          "name:lbe": "Гьиндусттан",
          "name:lez": "Индия",
          "name:lij": "India",
          "name:lmo": "India",
          "name:lrc": "هند",
          "name:ltg": "Iņdeja",
          "name:lzh": "印度",
          "name:mdf": "Индие",
          "name:mwl": "Índia",
          "name:mzn": "هند",
          "name:nah": "India",
          "name:nan": "Ìn-tō͘",
          "name:nap": "Innia",
          "name:nds": "Indien",
          "name:new": "भारत",
          "name:nov": "India",
          "name:nrm": "Înde",
          "name:pam": "India",
          "name:pap": "India",
          "name:pcd": "Inde",
          "name:pih": "Endya",
          "name:pms": "India",
          "name:pnb": "بھارت",
          "name:rmy": "Bharat",
          "name:rue": "Індія",
          "name:sah": "Индия",
          "name:sat": "ᱵᱷᱟᱨᱚᱛ",
          "name:scn": "Innia",
          "name:sco": "Indie",
          "name:smn": "India",
          "name:sms": "Intia",
          "name:srn": "Indiakondre",
          "name:stq": "Indien",
          "name:syc": "ܗܢܕܘ",
          "name:szl": "Indyjŏ",
          "name:tet": "Índia",
          "name:tpi": "India",
          "name:udm": "Индия",
          "name:vec": "India",
          "name:vro": "India",
          "name:war": "Indya",
          "name:wuu": "印度",
          "name:xal": "Индия",
          "name:xmf": "ინდოეთი",
          "name:yue": "印度",
          "name:zea": "India",
          "timezone": "Asia/Kolkata",
          "way_area": "304.146",
          "wikidata": "Q668",
          "ISO3166-1": "IN",
          "wikipedia": "en:India",
          "population": "1407563842",
          "admin_level": "2",
          "alt_name:eo": "Hindujo;Hindio",
          "alt_name:ks": "بًارت",
          "alt_name:ur": "بھارت;انڈیا",
          "alt_name:vi": "Thiên Trúc;Quyên Độc",
          "border_type": "nation",
          "name:nds-nl": "India",
          "driving_side": "left",
          "name:az-Arab": "هیندوستان",
          "name:bat-smg": "Indėjė",
          "name:cbk-zam": "India",
          "name:ku-Arab": "حندستان",
          "name:map-bms": "India",
          "name:roa-rup": "India",
          "name:zh-Hans": "印度",
          "name:zh-Hant": "印度",
          "wikipedia:ks": "ہِندوستان",
          "wikipedia:pa": "ਭਾਰਤ",
          "wikipedia:ur": "بھارت",
          "name:kab-Arab": "لهند",
          "name:roa-tara": "Indie",
          "name:be-tarask": "Індыя",
          "population:date": "2021",
          "ISO3166-1:alpha2": "IN",
          "ISO3166-1:alpha3": "IND",
          "official_name:ar": "جمهورية الهند",
          "official_name:cs": "Indická republika",
          "official_name:de": "Republik Indien",
          "official_name:en": "Republic of India",
          "official_name:eo": "Barata Respubliko",
          "official_name:es": "República de la India",
          "official_name:fa": "جمهوری هندوستان",
          "official_name:fr": "République d'Inde",
          "official_name:ks": "جۆمہوٗرِیہَ ہِندوستان",
          "official_name:pa": "ਭਾਰਤ ਗਣਰਾਜ",
          "official_name:pl": "Republika Indii",
          "official_name:ps": "د هند جمهوريت",
          "official_name:ru": "Республика Индия",
          "official_name:ur": "جمہوریہ ہندوستان",
          "official_name:vi": "Cộng hoà Ấn Độ",
          "ISO3166-1:numeric": "356",
          "official_name:azb": "هیندوستان جومهوریتی",
          "official_name:pnb": "بھارت گنراج",
          "official_name:az-Arab": "هیندوستان جومهوریتی"
        }
      },
      "geometry": {
        "type": "Polygon",
        "coordinates": [
          [
            [
              94,
              6.629651624659197
            ],
            [
              94.007019,
              6.6349137
            ],
            [
              94.0166788,
              6.6426729
            ],
            [
              94.0305531,
              6.6547575
            ],
            [
              94.0400624,
              6.6638542
            ],
            [
              94.0460626,
              6.6702557
            ],
            [
              94.0513498,
              6.6763833
            ],
            [
              94.0578856,
              6.6847142
            ],
            [
              94.0644877,
              6.6939281
            ],
            [
              94.0734509,
              6.7075363
            ],
            [
              94.0793892,
              6.7178913
            ],
            [
              94.0833591,
              6.7257155
            ],
            [
              94.086984,
              6.7337054
            ],
            [
              94.0902637,
              6.7418639
            ],
            [
              94.0937383,
              6.7495352
            ],
            [
              94.0961049,
              6.7553995
            ],
            [
              94.0990011,
              6.7632824
            ],
            [
              94.1008735,
              6.7689086
            ],
            [
              94.1040014,
              6.780102
            ],
            [
              94.105725,
              6.7876565
            ],
            [
              94.1081208,
              6.7997987
            ],
            [
              94.109907,
              6.8116562
            ],
            [
              94.1110598,
              6.8247642
            ],
            [
              94.1113507,
              6.8335327
            ],
            [
              94.1113735,
              6.8405364
            ],
            [
              94.117502,
              6.8502818
            ],
            [
              94.1230635,
              6.8600216
            ],
            [
              94.1270346,
              6.8678458
            ],
            [
              94.132342,
              6.8798879
            ],
            [
              94.1347154,
              6.8860474
            ],
            [
              94.1368502,
              6.8922511
            ],
            [
              94.139402,
              6.9006456
            ],
            [
              94.141585,
              6.9091432
            ],
            [
              94.1438044,
              6.9199044
            ],
            [
              94.1454037,
              6.9307324
            ],
            [
              94.1465569,
              6.9438404
            ],
            [
              94.1468728,
              6.9548236
            ],
            [
              94.1465597,
              6.9658649
            ],
            [
              94.1481502,
              6.9781866
            ],
            [
              94.1488238,
              6.9869339
            ],
            [
              94.1491148,
              6.9957023
            ],
            [
              94.149088609668,
              7
            ],
            [
              94,
              7
            ],
            [
              94,
              6.629651624659197
            ]
          ]
        ]
      }
    }
  ]
}