{
  "type": "FeatureCollection",
  "features": [
    {
      "type": "Feature",
      "properties": {
        "osm_id": -1741311,
        "boundary": "administrative",
        "admin_level": 2,
        "parents": null,
        "name": "Serbia",
        "local_name": "–°—Ä–±–∏—ò–∞",
        "name_en": "Serbia",
        "all_tags": {
          "flag": "https://upload.wikimedia.org/wikipedia/commons/f/ff/Flag_of_Serbia.svg",
          "name": "–°—Ä–±–∏—ò–∞",
          "name:af": "Serwi√´",
          "name:am": "·à∞·à≠·â¢·ã´",
          "name:an": "Serbia",
          "name:ar": "ÿµÿ±ÿ®Ÿäÿß",
          "name:ay": "Sirwiya",
          "name:az": "Serbiya",
          "name:ba": "–°–µ—Ä–±–∏—è",
          "name:be": "–°–µ—Ä–±—ñ—è",
          "name:bg": "–°—ä—Ä–±–∏—è",
          "name:bi": "Serbia",
          "name:bn": "‡¶∏‡¶æ‡¶∞‡ßç‡¶¨‡¶ø‡¶Ø‡¶º‡¶æ",
          "name:bo": "‡Ω¶‡Ω∫‡Ω¢‡ºã‡Ωñ‡æ∑‡Ω≤‡ºã‡Ω°‡ºç",
          "name:br": "Serbia",
          "name:bs": "Srbija",
          "name:ca": "S√®rbia",
          "name:ce": "–°–µ—Ä–±–∏",
          "name:co": "Serbia",
          "name:cs": "Srbsko",
          "name:cu": "–°—Ä—å–±—óÍôó",
          "name:cv": "–°–µ—Ä–±–∏",
          "name:cy": "Serbia",
          "name:da": "Serbien",
          "name:de": "Serbien",
          "name:dv": "ﬁêﬁßﬁÑﬁ®ﬁáﬁß",
          "name:ee": "Serbia",
          "name:el": "Œ£ŒµœÅŒ≤ŒØŒ±",
          "name:en": "Serbia",
          "name:eo": "Serbio",
          "name:es": "Serbia",
          "name:et": "Serbia",
          "name:eu": "Serbia",
          "name:fa": "ÿµÿ±ÿ®ÿ≥ÿ™ÿßŸÜ",
          "name:fi": "Serbia",
          "name:fo": "Serbia",
          "name:fr": "Serbie",
          "name:fy": "Servje",
          "name:ga": "An tSeirbia",
          "name:gd": "An t-S√®irb",
          "name:gl": "Serbia",
          "name:gn": "Sevia",
          "name:gv": "Yn Serb",
          "name:he": "◊°◊®◊ë◊ô◊î",
          "name:hi": "‡§∏‡§∞‡•ç‡§¨‡§ø‡§Ø‡§æ",
          "name:hr": "Srbija",
          "name:ht": "S√®bi",
          "name:hu": "Szerbia",
          "name:hy": "’ç’•÷Ä’¢’´’°",
          "name:ia": "Serbia",
          "name:id": "Serbia",
          "name:ie": "Serbia",
          "name:io": "Serbia",
          "name:is": "Serb√≠a",
          "name:it": "Serbia",
          "name:ja": "„Çª„É´„Éì„Ç¢",
          "name:jv": "Serbia",
          "name:ka": "·É°·Éî·É†·Éë·Éî·Éó·Éò",
          "name:kg": "Serbie",
          "name:kk": "–°–µ—Ä–±–∏—è",
          "name:kl": "Serbia",
          "name:ko": "ÏÑ∏Î•¥ÎπÑÏïÑ",
          "name:ku": "Serbistan",
          "name:kv": "–°–µ—Ä–±–∏—è",
          "name:kw": "Serbi",
          "name:ky": "–°–µ—Ä–±–∏—è",
          "name:la": "Serbia",
          "name:lb": "Serbien",
          "name:li": "Servi√´",
          "name:ln": "Serbia",
          "name:lt": "Serbija",
          "name:lv": "Serbija",
          "name:mg": "Serbia",
          "name:mi": "Serbia",
          "name:mk": "–°—Ä–±–∏—ò–∞",
          "name:ml": "‡¥∏‡µÜ‡µº‡¥¨‡¥ø‡¥Ø",
          "name:mn": "–°–µ—Ä–±–∏",
          "name:mr": "‡§∏‡§∞‡•ç‡§¨‡§ø‡§Ø‡§æ",
          "name:ms": "Serbia",
          "name:mt": "Serbja",
          "name:my": "·ÄÜ·Ä¨·Ä∏·Äò·ÄÆ·Ä∏·Äö·Ä¨·Ä∏·Äî·Ä≠·ÄØ·ÄÑ·Ä∫·ÄÑ·Ä∂",
          "name:na": "Terbiya",
          "name:ne": "‡§∏‡§∞‡•ç‡§¨‡§ø‡§Ø‡§æ",
          "name:nl": "Servi√´",
          "name:nn": "Serbia",
          "name:no": "Serbia",
          "name:oc": "Serbia",
          "name:or": "‡¨∏‡¨∞‡≠ç‡¨¨‡¨ø‡¨Ü",
          "name:os": "–°–µ—Ä–±–∏",
          "name:pa": "‡®∏‡®∞‡®¨‡©Ä‡®Ü",
          "name:pl": "Serbia",
          "name:ps": "ÿ≥ÿ±ÿ®Ÿäÿß",
          "name:pt": "S√©rvia",
          "name:qu": "Sirbya",
          "name:rm": "Serbia",
          "name:ro": "Serbia",
          "name:ru": "–°–µ—Ä–±–∏—è",
          "name:rw": "Seribiya",
          "name:sa": "‡§∏‡§∞‡•ç‡§¨‡§ø‡§Ø‡§æ",
          "name:sc": "S√®rbia",
          "name:se": "Serbia",
          "name:sh": "Srbija",
          "name:sk": "Srbsko",
          "name:sl": "Srbija",
          "name:sm": "Serbia",
          "name:so": "Serbia",
          "name:sq": "Serbia",
          "name:sr": "–°—Ä–±–∏—ò–∞",
          "name:ss": "ISebhiya",
          "name:st": "Serbia",
          "name:su": "S√©rbia",
          "name:sv": "Serbien",
          "name:sw": "Serbia",
          "name:ta": "‡Æö‡ØÜ‡Æ∞‡Øç‡Æ™‡Æø‡ÆØ‡Ææ",
          "name:te": "‡∞∏‡±Ü‡∞∞‡±ç‡∞¨‡∞ø‡∞Ø‡∞æ",
          "name:tg": "–°–µ—Ä–±–∏—è",
          "name:th": "‡∏õ‡∏£‡∏∞‡πÄ‡∏ó‡∏®‡πÄ‡∏ã‡∏≠‡∏£‡πå‡πÄ‡∏ö‡∏µ‡∏¢",
          "name:tk": "Serbi√Ωa",
          "name:tl": "Serbiya",
          "name:tr": "Sƒ±rbistan",
          "name:tt": "–°–µ—Ä–±–∏—è",
          "name:tw": "Serbia",
          "name:ty": "Terepia",
          "name:ug": "S√©rbiye",
          "name:uk": "–°–µ—Ä–±—ñ—è",
          "name:ur": "ÿ≥ÿ±Ÿàÿ®ÿß",
          "name:uz": "Serbiya",
          "name:vi": "Serbia",
          "name:vo": "S√§rb√§n",
          "name:wo": "Seerbi",
          "name:yi": "◊°◊¢◊®◊ë◊ô◊¢",
          "name:yo": "S√©rb√≠√†",
          "name:zh": "Â°ûÁàæÁ∂≠‰∫û",
          "name:zu": "ISerbiya",
          "boundary": "administrative",
          "int_name": "Serbia",
          "name:ace": "S√®rbia",
          "name:als": "Serbien",
          "name:ang": "Serbia",
          "name:arc": "‹£‹™‹í‹ù‹ê",
          "name:arz": "ÿµŸäÿ±ÿ®Ÿäÿß",
          "name:ast": "Serbia",
          "name:bar": "Serbien",
          "name:bcl": "Serbya",
          "name:bpy": "‡¶∏‡¶æ‡¶∞‡ßç‡¶¨‡¶ø‡¶Ø‡¶º‡¶æ",
          "name:bxr": "–°–µ—Ä–±–∏",
          "name:ceb": "Serbya",
          "name:chr": "·èí·èà·èØ",
          "name:chy": "Serbia",
          "name:ckb": "ÿ≥ÿ±ÿ®€åÿß",
          "name:crh": "Sƒ±rbistan",
          "name:csb": "Serbsk√¥",
          "name:diq": "Sƒ±rbƒ±stan",
          "name:dsb": "Serbiska",
          "name:ext": "S√©rbia",
          "name:frp": "S√®rbie",
          "name:frr": "Serbien",
          "name:gag": "Serbiya",
          "name:haw": "Seripia",
          "name:hif": "Serbia",
          "name:hsb": "Serbiska",
          "name:ilo": "Serbia",
          "name:jbo": "serbias",
          "name:kaa": "Serbiya",
          "name:kab": "Serbi",
          "name:kbd": "–°–µ—Ä–±–∏—ç",
          "name:koi": "–°”ß—Ä–±–∏—è",
          "name:krc": "–°–µ—Ä–±–∏—è",
          "name:ksh": "Serbien",
          "name:lad": "Serbia",
          "name:lij": "Serbia",
          "name:lmo": "Serbia",
          "name:ltg": "Serbeja",
          "name:lzh": "Â°ûÁàæÁ∂≠‰∫û",
          "name:mdf": "–°–µ—Ä–±–∏–µ",
          "name:mhr": "–°–µ—Ä–±–∏–π",
          "name:nah": "Serbia",
          "name:nan": "Srbija",
          "name:nap": "Serbia",
          "name:nds": "Serbien",
          "name:nov": "Serbia",
          "name:nrm": "S√®rbie",
          "name:pap": "Serbia",
          "name:pcd": "Serbie",
          "name:pih": "Serbya",
          "name:pms": "Serbia",
          "name:pnb": "ÿ≥ÿ±ÿ®€åÿß",
          "name:pnt": "Œ£ŒµœÅŒ≤ŒØŒ±",
          "name:rue": "–°–µ—Ä–±—ñ—è",
          "name:sah": "–°–µ—Ä–±–∏—è",
          "name:scn": "Serbia",
          "name:sco": "Serbie",
          "name:smn": "Serbia",
          "name:sms": "Serbia",
          "name:stq": "Serbien",
          "name:szl": "Syrbij≈è",
          "name:tpi": "Sebia",
          "name:tzl": "Siarvia",
          "name:vec": "Servia",
          "name:vep": "Serbii",
          "name:vls": "Servi√´",
          "name:vro": "Serbi√§",
          "name:war": "Serbia",
          "name:wuu": "Â°ûÂ∞îÁª¥‰∫ö",
          "name:xal": "–°–µ—Ä–ø—É–¥–∏–Ω –û—Ä–Ω",
          "name:xmf": "·É°·Éî·É†·Éë·Éî·Éó·Éò",
          "name:yue": "Â°ûÁàæÁ∂≠‰∫û",
          "name:zea": "Servi√´",
          "timezone": "Europe/Belgrade",
          "way_area": "8.74158",
          "wikidata": "Q403",
          "ISO3166-1": "RS",
          "headlight": "required",
          "land_area": "administrative",
          "wikipedia": "sr:–°—Ä–±–∏—ò–∞",
          "population": "6647003",
          "admin_level": "2",
          "alt_name:eo": "Serbujo",
          "alt_name:ur": "ÿ≥ÿ±Ÿà€åÿß;ÿ≥ÿ±Ÿà€å€Å",
          "name:nds-nl": "Servi√´",
          "driving_side": "right",
          "name:bat-smg": "Serbƒójƒó",
          "name:cbk-zam": "Serbia",
          "name:roa-rup": "SƒÉrghia",
          "name:sr-Latn": "Srbija",
          "name:zh-Hans": "Â°ûÂ∞îÁª¥‰∫ö",
          "name:zh-Hant": "Â°ûÁàæÁ∂≠‰∫û",
          "name:roa-tara": "Serbie",
          "official_name": "–†–µ–ø—É–±–ª–∏–∫–∞ –°—Ä–±–∏—ò–∞",
          "ref:RS:drzave": "RS",
          "name:be-tarask": "–°—ç—Ä–±—ñ—è",
          "according_to:CN": "no",
          "according_to:ES": "no",
          "according_to:IN": "no",
          "according_to:RS": "no",
          "according_to:RU": "no",
          "according_to:UA": "no",
          "according_to:XK": "yes",
          "population:date": "2022",
          "ISO3166-1:alpha2": "RS",
          "ISO3166-1:alpha3": "SRB",
          "default_language": "sr",
          "official_name:cs": "Srbsk√° republika",
          "official_name:de": "Republik Serbien",
          "official_name:el": "ŒîŒ∑ŒºŒøŒ∫œÅŒ±œÑŒØŒ± œÑŒ∑œÇ Œ£ŒµœÅŒ≤ŒØŒ±œÇ",
          "official_name:en": "Republic of Serbia",
          "official_name:eo": "Respubliko Serbio",
          "official_name:es": "Rep√∫blica de Serbia",
          "official_name:fr": "R√©publique de Serbie",
          "official_name:ru": "–†–µ—Å–ø—É–±–ª–∏–∫–∞ –°–µ—Ä–±–∏—è",
          "official_name:sr": "–†–µ–ø—É–±–ª–∏–∫–∞ –°—Ä–±–∏—ò–∞",
          "ISO3166-1:numeric": "688",
          "official_name:sr-Latn": "Republika Srbija",
          "population:census:2022": "6647003"
        }
      },
      "geometry": {
        "type": "Polygon",
        "coordinates": [
          [
            [
              21,
              43.1364701585783
            ],
            [
              21.0005954,
              43.1361822
            ],
            [
              21.00286,
              43.1354424
            ],
            [
              21.0030337,
              43.1352398
            ],
            [
              21.0066177,
              43.1352543
            ],
            [
              21.0087601,
              43.1349334
            ],
            [
              21.0098842,
              43.1344664
            ],
            [
              21.0140246,
              43.1343881
            ],
            [
              21.0154356,
              43.132305
            ],
            [
              21.0155816,
              43.1318246
            ],
            [
              21.0154833,
              43.1314039
            ],
            [
              21.0156182,
              43.131341
            ],
            [
              21.0172576,
              43.1308677
            ],
            [
              21.0184493,
              43.1307567
            ],
            [
              21.0198786,
              43.1301986
            ],
            [
              21.0201357,
              43.1304345
            ],
            [
              21.0232777,
              43.1303425
            ],
            [
              21.0254012,
              43.1294572
            ],
            [
              21.0263061,
              43.1279015
            ],
            [
              21.0271497,
              43.1269116
            ],
            [
              21.0274108,
              43.1257421
            ],
            [
              21.0278947,
              43.1248497
            ],
            [
              21.0304288,
              43.1240241
            ],
            [
              21.0306677,
              43.1235105
            ],
            [
              21.0304794,
              43.1231107
            ],
            [
              21.031203,
              43.1229084
            ],
            [
              21.0323897,
              43.1216908
            ],
            [
              21.0328061,
              43.1206606
            ],
            [
              21.0331288,
              43.1204284
            ],
            [
              21.0361819,
              43.1196684
            ],
            [
              21.0373627,
              43.1191999
            ],
            [
              21.0381413,
              43.1186885
            ],
            [
              21.0388784,
              43.1178632
            ],
            [
              21.0387412,
              43.1174531
            ],
            [
              21.0419557,
              43.1144692
            ],
            [
              21.0424902,
              43.1134029
            ],
            [
              21.0431458,
              43.1127738
            ],
            [
              21.0431169,
              43.1124534
            ],
            [
              21.0450094,
              43.1126457
            ],
            [
              21.0463202,
              43.1124142
            ],
            [
              21.0471556,
              43.1108585
            ],
            [
              21.0479398,
              43.1103551
            ],
            [
              21.0480721,
              43.1098369
            ],
            [
              21.0483622,
              43.1096555
            ],
            [
              21.0485457,
              43.1092586
            ],
            [
              21.0485514,
              43.1087525
            ],
            [
              21.0502832,
              43.1075241
            ],
            [
              21.0561254,
              43.1087942
            ],
            [
              21.0576736,
              43.1092677
            ],
            [
              21.0587159,
              43.1093944
            ],
            [
              21.0588776,
              43.1096339
            ],
            [
              21.0592455,
              43.109749
            ],
            [
              21.0623051,
              43.1101786
            ],
            [
              21.062945,
              43.1104657
            ],
            [
              21.0644471,
              43.1123709
            ],
            [
              21.0643823,
              43.1135585
            ],
            [
              21.066337,
              43.1137068
            ],
            [
              21.067631,
              43.1141327
            ],
            [
              21.0721895,
              43.1150849
            ],
            [
              21.0758209,
              43.1150271
            ],
            [
              21.0765228,
              43.1157663
            ],
            [
              21.0766971,
              43.1161718
            ],
            [
              21.0766629,
              43.1166166
            ],
            [
              21.0781882,
              43.1170601
            ],
            [
              21.0788818,
              43.1176271
            ],
            [
              21.079254,
              43.1182329
            ],
            [
              21.0789171,
              43.1195795
            ],
            [
              21.0791746,
              43.1210556
            ],
            [
              21.0790267,
              43.1220139
            ],
            [
              21.0791196,
              43.1227744
            ],
            [
              21.0789982,
              43.1236549
            ],
            [
              21.0783989,
              43.125478
            ],
            [
              21.0783959,
              43.1271932
            ],
            [
              21.0782514,
              43.1276321
            ],
            [
              21.0789851,
              43.1291198
            ],
            [
              21.0794626,
              43.1298235
            ],
            [
              21.0815021,
              43.1305942
            ],
            [
              21.0827267,
              43.131682
            ],
            [
              21.0841381,
              43.1324695
            ],
            [
              21.0842098,
              43.1328857
            ],
            [
              21.0858215,
              43.1337245
            ],
            [
              21.0885626,
              43.1357493
            ],
            [
              21.0892442,
              43.135639
            ],
            [
              21.0903844,
              43.1344211
            ],
            [
              21.0909744,
              43.1343947
            ],
            [
              21.0911502,
              43.1341714
            ],
            [
              21.0921876,
              43.1323332
            ],
            [
              21.0925133,
              43.1307294
            ],
            [
              21.0968502,
              43.1280243
            ],
            [
              21.0991908,
              43.1258883
            ],
            [
              21.1001875,
              43.1231819
            ],
            [
              21.1010822,
              43.1215552
            ],
            [
              21.1015255,
              43.1212244
            ],
            [
              21.1018223,
              43.1185025
            ],
            [
              21.1026719,
              43.1173531
            ],
            [
              21.1035538,
              43.1171624
            ],
            [
              21.1065235,
              43.1178855
            ],
            [
              21.1071254,
              43.1176634
            ],
            [
              21.1087174,
              43.1163011
            ],
            [
              21.1105318,
              43.1152531
            ],
            [
              21.1119813,
              43.1138891
            ],
            [
              21.1125154,
              43.113164
            ],
            [
              21.1124754,
              43.1123705
            ],
            [
              21.1127852,
              43.1116704
            ],
            [
              21.1133776,
              43.1111802
            ],
            [
              21.1164941,
              43.1113342
            ],
            [
              21.1180776,
              43.1118962
            ],
            [
              21.119846,
              43.1121752
            ],
            [
              21.1223691,
              43.1116806
            ],
            [
              21.1240797,
              43.1131609
            ],
            [
              21.1262966,
              43.1128061
            ],
            [
              21.1270843,
              43.1124076
            ],
            [
              21.1278351,
              43.111638
            ],
            [
              21.1299373,
              43.1115907
            ],
            [
              21.132003,
              43.1119087
            ],
            [
              21.1347314,
              43.1129084
            ],
            [
              21.135452,
              43.1138229
            ],
            [
              21.1372414,
              43.1134812
            ],
            [
              21.1377055,
              43.112725
            ],
            [
              21.1392525,
              43.1115864
            ],
            [
              21.1413504,
              43.1093734
            ],
            [
              21.1413124,
              43.1052589
            ],
            [
              21.1421769,
              43.1043587
            ],
            [
              21.1433776,
              43.1036606
            ],
            [
              21.1435849,
              43.1017269
            ],
            [
              21.1445535,
              43.1012274
            ],
            [
              21.1453275,
              43.1002684
            ],
            [
              21.1453583,
              43.0995724
            ],
            [
              21.1458629,
              43.0990073
            ],
            [
              21.1459173,
              43.0981649
            ],
            [
              21.146369,
              43.0969973
            ],
            [
              21.1479894,
              43.0949518
            ],
            [
              21.1484816,
              43.0927386
            ],
            [
              21.14875,
              43.0922889
            ],
            [
              21.1494906,
              43.0916832
            ],
            [
              21.149875,
              43.09103
            ],
            [
              21.148352,
              43.0885263
            ],
            [
              21.1468956,
              43.0872499
            ],
            [
              21.1462846,
              43.0870781
            ],
            [
              21.1438175,
              43.0869235
            ],
            [
              21.1438299,
              43.0864681
            ],
            [
              21.1434931,
              43.0857069
            ],
            [
              21.1417689,
              43.0847158
            ],
            [
              21.1417231,
              43.0840723
            ],
            [
              21.1419338,
              43.083339
            ],
            [
              21.1396031,
              43.0821633
            ],
            [
              21.140575,
              43.0808934
            ],
            [
              21.1414466,
              43.0783783
            ],
            [
              21.1439261,
              43.0759637
            ],
            [
              21.143354,
              43.0741175
            ],
            [
              21.1427274,
              43.0735607
            ],
            [
              21.1435251,
              43.0736125
            ],
            [
              21.1449522,
              43.072978
            ],
            [
              21.1463567,
              43.0713052
            ],
            [
              21.1468324,
              43.0713649
            ],
            [
              21.147129,
              43.0716127
            ],
            [
              21.1466247,
              43.0698568
            ],
            [
              21.1466395,
              43.0689365
            ],
            [
              21.1475907,
              43.0686304
            ],
            [
              21.149069,
              43.067542
            ],
            [
              21.1498626,
              43.0672554
            ],
            [
              21.1499018,
              43.0659046
            ],
            [
              21.1510466,
              43.0642202
            ],
            [
              21.1511047,
              43.0632807
            ],
            [
              21.1515025,
              43.0618363
            ],
            [
              21.1529595,
              43.0601236
            ],
            [
              21.1529719,
              43.0572116
            ],
            [
              21.1525786,
              43.054753
            ],
            [
              21.1523512,
              43.0543842
            ],
            [
              21.1527243,
              43.0538282
            ],
            [
              21.1528083,
              43.0525789
            ],
            [
              21.1526435,
              43.0517834
            ],
            [
              21.1528734,
              43.0512837
            ],
            [
              21.1522786,
              43.0506085
            ],
            [
              21.1521074,
              43.0494842
            ],
            [
              21.152379,
              43.0481066
            ],
            [
              21.1528594,
              43.0467655
            ],
            [
              21.1540345,
              43.045016
            ],
            [
              21.1531583,
              43.0439272
            ],
            [
              21.1527155,
              43.0430273
            ],
            [
              21.1526837,
              43.0420282
            ],
            [
              21.1522649,
              43.0403205
            ],
            [
              21.1532271,
              43.0393721
            ],
            [
              21.1536593,
              43.0383755
            ],
            [
              21.1536114,
              43.036652
            ],
            [
              21.1542224,
              43.0362878
            ],
            [
              21.1557716,
              43.0332195
            ],
            [
              21.1554442,
              43.0326306
            ],
            [
              21.1558315,
              43.0315045
            ],
            [
              21.1557225,
              43.0304795
            ],
            [
              21.1558591,
              43.0298696
            ],
            [
              21.1557151,
              43.0295609
            ],
            [
              21.1572164,
              43.0291981
            ],
            [
              21.1580907,
              43.0285944
            ],
            [
              21.1591539,
              43.0282368
            ],
            [
              21.159586,
              43.0284675
            ],
            [
              21.1628414,
              43.0284621
            ],
            [
              21.1643205,
              43.0287355
            ],
            [
              21.1655968,
              43.0284527
            ],
            [
              21.1666281,
              43.0280649
            ],
            [
              21.1677063,
              43.026262
            ],
            [
              21.1662858,
              43.0247108
            ],
            [
              21.1666676,
              43.0242996
            ],
            [
              21.166887,
              43.0228659
            ],
            [
              21.1669199,
              43.0222457
            ],
            [
              21.1665899,
              43.0205769
            ],
            [
              21.1672329,
              43.0198387
            ],
            [
              21.1664246,
              43.0186249
            ],
            [
              21.1665395,
              43.0184838
            ],
            [
              21.1654741,
              43.0173549
            ],
            [
              21.1649626,
              43.0164973
            ],
            [
              21.1644888,
              43.0160258
            ],
            [
              21.1636019,
              43.015545
            ],
            [
              21.1633713,
              43.0146865
            ],
            [
              21.1646266,
              43.012549
            ],
            [
              21.165334,
              43.0120707
            ],
            [
              21.1652681,
              43.0118303
            ],
            [
              21.1656208,
              43.0106491
            ],
            [
              21.1665757,
              43.0092759
            ],
            [
              21.1693374,
              43.0074506
            ],
            [
              21.1691513,
              43.00578
            ],
            [
              21.1694626,
              43.0049733
            ],
            [
              21.1689555,
              43.0044686
            ],
            [
              21.1695609,
              43.0038198
            ],
            [
              21.1713197,
              43.0034007
            ],
            [
              21.1722321,
              43.0030082
            ],
            [
              21.1722508,
              43.0022416
            ],
            [
              21.1710629,
              43.0004598
            ],
            [
              21.1716261,
              43.000073
            ],
            [
              21.1721352,
              43.0001585
            ],
            [
              21.17274708186398,
              43
            ],
            [
              21.173092145604386,
              43
            ],
            [
              21.1742894,
              43.0002512
            ],
            [
              21.174636674136124,
              43
            ],
            [
              21.17584116302521,
              43
            ],
            [
              21.1761966,
              43.0003678
            ],
            [
              21.1774915,
              43.0010474
            ],
            [
              21.1782558,
              43.0012505
            ],
            [
              21.1789419,
              43.0011929
            ],
            [
              21.1798236,
              43.0018694
            ],
            [
              21.1869337,
              43.00528
            ],
            [
              21.1884298,
              43.006266
            ],
            [
              21.1899314,
              43.0065703
            ],
            [
              21.1924489,
              43.0075613
            ],
            [
              21.1930081,
              43.0079535
            ],
            [
              21.1933807,
              43.008364
            ],
            [
              21.1937639,
              43.0094278
            ],
            [
              21.1937324,
              43.0101384
            ],
            [
              21.1923851,
              43.0134112
            ],
            [
              21.1923848,
              43.0140147
            ],
            [
              21.1919836,
              43.015123
            ],
            [
              21.192571,
              43.0159524
            ],
            [
              21.1933659,
              43.0162871
            ],
            [
              21.1939302,
              43.0168213
            ],
            [
              21.1948557,
              43.0183875
            ],
            [
              21.1961487,
              43.0200902
            ],
            [
              21.1964589,
              43.021119
            ],
            [
              21.1970015,
              43.0218309
            ],
            [
              21.1968718,
              43.0222781
            ],
            [
              21.1970121,
              43.0230234
            ],
            [
              21.1972578,
              43.0233638
            ],
            [
              21.1977959,
              43.023376
            ],
            [
              21.1989818,
              43.0228862
            ],
            [
              21.1995201,
              43.0229408
            ],
            [
              21.1998438,
              43.0226368
            ],
            [
              21.2000845,
              43.0228094
            ],
            [
              21.2007095,
              43.0228328
            ],
            [
              21.2019714,
              43.0232025
            ],
            [
              21.2023847,
              43.0237384
            ],
            [
              21.2044824,
              43.024048
            ],
            [
              21.2054507,
              43.0246287
            ],
            [
              21.2056993,
              43.0246104
            ],
            [
              21.2070257,
              43.0238868
            ],
            [
              21.2085444,
              43.0233936
            ],
            [
              21.2102324,
              43.023074
            ],
            [
              21.2123491,
              43.0222634
            ],
            [
              21.2124642,
              43.0218397
            ],
            [
              21.212999,
              43.0213593
            ],
            [
              21.2151794,
              43.0210787
            ],
            [
              21.216111,
              43.0213004
            ],
            [
              21.2186326,
              43.0208774
            ],
            [
              21.2203577,
              43.0204381
            ],
            [
              21.2213316,
              43.0199797
            ],
            [
              21.2216818,
              43.0196257
            ],
            [
              21.2228359,
              43.0199625
            ],
            [
              21.2226446,
              43.0202896
            ],
            [
              21.2247719,
              43.0206149
            ],
            [
              21.2251759,
              43.0203621
            ],
            [
              21.2252799,
              43.0198631
            ],
            [
              21.2249423,
              43.0188522
            ],
            [
              21.2249724,
              43.0178515
            ],
            [
              21.2256832,
              43.0167147
            ],
            [
              21.2260356,
              43.0163508
            ],
            [
              21.2274835,
              43.015686
            ],
            [
              21.2291113,
              43.0146871
            ],
            [
              21.2299661,
              43.0134525
            ],
            [
              21.2307993,
              43.0114814
            ],
            [
              21.2316204,
              43.0103312
            ],
            [
              21.2318491,
              43.0096966
            ],
            [
              21.2322293,
              43.009427
            ],
            [
              21.2331832,
              43.0092825
            ],
            [
              21.2351195,
              43.0099965
            ],
            [
              21.2355339,
              43.0090871
            ],
            [
              21.235903,
              43.0075092
            ],
            [
              21.2370507,
              43.0057676
            ],
            [
              21.2378137,
              43.0055199
            ],
            [
              21.2376946,
              43.0048057
            ],
            [
              21.237735,
              43.0024751
            ],
            [
              21.2379372,
              43.0020566
            ],
            [
              21.2374674,
              43.0007992
            ],
            [
              21.2379707,
              43.0004151
            ],
            [
              21.2377712,
              43.0000605
            ],
            [
              21.237769407817545,
              43
            ],
            [
              22,
              43
            ],
            [
              22,
              44
            ],
            [
              21,
              44
            ],
            [
              21,
              43.1364701585783
            ]
          ]
        ]
      }
    },
    {
      "type": "Feature",
      "properties": {
        "osm_id": -2088990,
        "boundary": "administrative",
        "admin_level": 2,
        "parents": null,
        "name": "Kosovo",
        "local_name": "Kosov√´",
        "name_en": "Kosovo",
        "all_tags": {
          "flag": "https://upload.wikimedia.org/wikipedia/commons/1/1f/Flag_of_Kosovo.svg",
          "name": "Kosov√´",
          "name:af": "Kosovo",
          "name:am": "·äÆ·à∂·âÆ",
          "name:an": "Kosovo",
          "name:ar": "ŸÉŸàÿ≥ŸàŸÅŸà",
          "name:ay": "Kusuwu",
          "name:az": "Kosovo",
          "name:ba": "–ö–æ—Å–æ–≤–æ",
          "name:be": "–ö–æ—Å–∞–≤–∞",
          "name:bg": "–ö–æ—Å–æ–≤–æ",
          "name:bn": "‡¶ï‡¶∏‡ßã‡¶≠‡ßã",
          "name:bo": "‡ΩÅ‡Ωº‡ºã‡Ω¶‡Ωº‡ºã‡Ωù‡Ωº‡ºç",
          "name:br": "Kosovo",
          "name:bs": "Kosovo",
          "name:ca": "Kosovo",
          "name:ce": "–ö–æ—Å–æ–≤–æ",
          "name:cs": "Kosovo",
          "name:cv": "–ö–æ—Å–æ–≤–æ",
          "name:cy": "Cosofo",
          "name:da": "Kosovo",
          "name:de": "Kosovo",
          "name:el": "ŒöŒøœÉœÉœÖœÜŒøœÄŒ≠Œ¥ŒπŒø",
          "name:en": "Kosovo",
          "name:eo": "Kosovo",
          "name:es": "Kosovo",
          "name:et": "Kosovo",
          "name:eu": "Kosovo",
          "name:fa": "⁄©Ÿàÿ≤ŸàŸà",
          "name:fi": "Kosovo",
          "name:fo": "Kosovo",
          "name:fr": "Kosovo",
          "name:fy": "Kosovo",
          "name:ga": "An Chosaiv",
          "name:gd": "Cosobho",
          "name:gl": "Kosovo",
          "name:gn": "Kosovo",
          "name:gv": "Kosovo",
          "name:he": "◊ß◊ï◊°◊ï◊ë◊ï",
          "name:hi": "‡§ï‡•ã‡§∏‡•ã‡§µ‡•ã ‡§ó‡§£‡§∞‡§æ‡§ú‡•ç‡§Ø",
          "name:hr": "Kosovo",
          "name:hu": "Koszov√≥",
          "name:hy": "‘ø’∏’Ω’∏’æ’∏’∂",
          "name:ia": "Kosovo",
          "name:id": "Kosovo",
          "name:ie": "Kosovo",
          "name:ig": "Kosovo",
          "name:io": "Kosovo",
          "name:is": "Kos√≥v√≥",
          "name:it": "Kosovo",
          "name:ja": "„Ç≥„ÇΩ„Éú",
          "name:jv": "Kosovo",
          "name:ka": "·Éô·Éù·É°·Éù·Éï·Éù",
          "name:kk": "–ö–æ—Å–æ–≤–æ",
          "name:kl": "Kosovo",
          "name:kn": "‡≤ï‡≥ä‡≤∏‡≥ä‡≤µ‡≥ä",
          "name:ko": "ÏΩîÏÜåÎ≥¥",
          "name:ku": "Kosova",
          "name:kv": "–ö–æ—Å–æ–≤–æ",
          "name:kw": "Kosova",
          "name:ky": "–ö–æ—Å–æ–≤–æ",
          "name:la": "Kosovia",
          "name:lb": "Kosovo",
          "name:li": "Kosovo",
          "name:lo": "‡∫õ‡∫∞‡ªÄ‡∫ó‡∫î‡ªÇ‡∫Å‡ªÇ‡∫ä‡ªÇ‡∫ß",
          "name:lt": "Kosovas",
          "name:lv": "Kosova",
          "name:mk": "–ö–æ—Å–æ–≤–æ",
          "name:ml": "‡¥ï‡µä‡¥∏‡µã‡¥µ‡µã",
          "name:mn": "–ö–æ—Å–æ–≤–æ",
          "name:mr": "‡§ï‡•ã‡§∏‡•ã‡§µ‡•ç‡§π‡•ã",
          "name:ms": "Kosovo",
          "name:mt": "Kosovo",
          "name:my": "·ÄÄ·Ä≠·ÄØ·ÄÜ·Ä≠·ÄØ·Äó·Ä≠·ÄØ",
          "name:na": "Kosovo",
          "name:nl": "Kosovo",
          "name:nn": "Kosovo",
          "name:no": "Kosovo",
          "name:ny": "Kosovo",
          "name:oc": "Kosova",
          "name:os": "–ö–æ—Å–æ–≤–æ",
          "name:pa": "‡®ï‡©ã‡®∏‡©ã‡®µ‡©ã ‡®ó‡®£‡®∞‡®æ‡®ú",
          "name:pl": "Kosowo",
          "name:pt": "Kosovo",
          "name:qu": "Kusuwu",
          "name:rm": "Cosovo",
          "name:ro": "Kosovo",
          "name:ru": "–ö–æ—Å–æ–≤–æ",
          "name:rw": "Kosovo",
          "name:sc": "K√≤ssovu",
          "name:sh": "Kosovo",
          "name:si": "‡∂ö‡∑ú‡∑É‡∑ù‡∑Ä‡∑ú",
          "name:sk": "Kosovo",
          "name:sl": "Kosovo",
          "name:sm": "Kosovo",
          "name:sn": "Kosovo",
          "name:so": "Kosofo",
          "name:sq": "Kosovo",
          "name:su": "Kosovo",
          "name:sv": "Kosovo",
          "name:sw": "Kosovo",
          "name:ta": "‡Æï‡Øä‡Æö‡Øã‡Æµ‡Øã",
          "name:te": "‡∞ï‡±ä‡∞∏‡∞æ‡∞µ‡±ã",
          "name:th": "‡∏õ‡∏£‡∏∞‡πÄ‡∏ó‡∏®‡∏Ñ‡∏≠‡∏ã‡∏≠‡∏ß‡∏≠",
          "name:tl": "Kosovo",
          "name:tr": "Kosova",
          "name:ts": "Kosovo",
          "name:tt": "–ö–æ—Å–æ–≤–æ “ñ”©–º“ª“Ø—Ä–∏—è—Ç–µ",
          "name:uk": "–ö–æ—Å–æ–≤–æ",
          "name:ur": "⁄©Ÿàÿ≥ŸàŸà€Å",
          "name:uz": "Kosovo",
          "name:vi": "Kosovo",
          "name:vo": "Kosov√§n",
          "name:yo": "K√≥s√≥f√≤",
          "name:zh": "ÁßëÁ¥¢Ê≤É",
          "boundary": "administrative",
          "currency": "EUR",
          "int_name": "Kosovo",
          "name:als": "Kosovo",
          "name:ast": "Kosovu",
          "name:azb": "⁄©Ÿàÿ≤ŸàŸàŸà",
          "name:bar": "Kosovo",
          "name:bat": "Kuosuovs",
          "name:bcl": "Kosobo",
          "name:cbk": "Kosovo",
          "name:cdo": "Kosovo",
          "name:ceb": "Kosovo",
          "name:chr": "·é™·èó·èâ",
          "name:ckb": "⁄©€Üÿ≥€Ü⁄§€Ü",
          "name:crh": "Kosovo",
          "name:diq": "Kosova",
          "name:dsw": "Kosowo",
          "name:ext": "Cosovu",
          "name:frp": "Kosovo",
          "name:frr": "Kosovo",
          "name:gag": "Kosova",
          "name:gan": "ÁßëÁ¥¢Ê≤É",
          "name:got": "êå∫êå∞êåøêçÉêçâêå±êçâ",
          "name:hak": "Kosovo",
          "name:hsb": "Kosowo",
          "name:jbo": "kosovas",
          "name:kab": "Kosovo",
          "name:kbd": "–ö–æ—Å–æ–≤–æ",
          "name:ksh": "Kosovo",
          "name:lad": "Kosovo",
          "name:lbe": "–ö–æ—Å–æ–≤–∞",
          "name:lfn": "Cosovo",
          "name:lij": "Kosovo",
          "name:lmo": "Kosovo",
          "name:lrc": "⁄©Ÿàÿ≤Ÿà⁄§Ÿà",
          "name:mzn": "⁄©Ÿàÿ≤ŸàŸà ÿ¨ŸÖŸáŸàÿ±€å",
          "name:nah": "Cosovo",
          "name:nds": "Kosovo",
          "name:nov": "Kosovo",
          "name:nrm": "Kosovo",
          "name:pap": "Kosovo",
          "name:pcd": "Kosovo",
          "name:pms": "Kosovo",
          "name:pnb": "⁄©Ÿàÿ≥ŸàŸà",
          "name:pnt": "ŒöœåœÉŒøŒ≤Œø",
          "name:roa": "Cosova",
          "name:rue": "–ö–æ—Å–æ–≤–æ",
          "name:sah": "–ö–æ—Å–æ–≤–∞",
          "name:scn": "K√≤ssuvu",
          "name:sco": "Kosovo",
          "name:srn": "Kosovokondre",
          "name:stq": "Kosovo",
          "name:szl": "Kosowo",
          "name:tzl": "Kosove",
          "name:vec": "Kosovo",
          "name:vls": "Kosovo",
          "name:vro": "Kosovo",
          "name:war": "Kosovo",
          "name:wuu": "ÁßëÁ¥¢Ê≤É",
          "name:xal": "–ö–æ—Å–æ–≤–∏–Ω –¢–∞“£“ª—á",
          "name:xmf": "·Éô·Éù·É°·Éù·Éï·Éù",
          "name:yue": "ÁßëÁ¥¢Ê≤É",
          "timezone": "Europe/Pristina",
          "way_area": "1.19604",
          "wikidata": "Q1246",
          "ISO3166-1": "XK",
          "ISO3166-2": "RS-KO",
          "wikipedia": "en:Kosovo",
          "admin_level": "2",
          "alt_name:el": "ŒöœåœÉŒøŒ≤Œø",
          "capital_city": "Prishtina",
          "name:sr-Latn": "Republika e Kosoves",
          "name:zh-Hans": "ÁßëÁ¥¢Ê≤É",
          "name:zh-Hant": "ÁßëÁ¥¢Ê≤É",
          "official_name": "Republika e Kosov√´s",
          "name:be-tarask": "–ö–æ—Å–∞–≤–∞",
          "according_to:CN": "no",
          "according_to:IN": "no",
          "according_to:RS": "no",
          "according_to:RU": "no",
          "according_to:UA": "no",
          "according_to:XK": "yes",
          "ISO3166-1:alpha2": "XK",
          "ISO3166-1:alpha3": "XXK",
          "official_name:ar": "ÿ¨ŸÖŸáŸàÿ±Ÿäÿ© ŸÉŸàÿ≥ŸàŸÅŸà",
          "official_name:cs": "Kosovsk√° republika",
          "official_name:de": "Republik Kosovo",
          "official_name:el": "ŒîŒ∑ŒºŒøŒ∫œÅŒ±œÑŒØŒ± œÑŒøœÖ ŒöŒøœÉœÉœÖœÜŒøœÄŒµŒ¥ŒØŒøœÖ",
          "official_name:en": "Republic of Kosovo",
          "official_name:eo": "Respubliko Kosovo",
          "official_name:es": "Rep√∫blica de Kosovo",
          "official_name:fa": "ÿ¨ŸÖŸáŸàÿ±€å ⁄©Ÿàÿ≤ŸàŸà",
          "official_name:fr": "R√©publique du Kosovo",
          "official_name:sq": "Republika e Kosov√´s",
          "ref:RS:pokrajina": "RS-KO",
          "official_name:sr-Latn": "Republika e Kosov√´s",
          "official_name:zh-Hans": "ÁßëÁ¥¢Ê≤ÉÂÖ±ÂíåÂõΩ",
          "official_name:zh-Hant": "ÁßëÁ¥¢Ê≤ÉÂÖ±ÂíåÂúã"
        }
      },
      "geometry": {
        "type": "MultiPolygon",
        "coordinates": [
          [
            [
              [
                21,
                43
              ],
              [
                21.17274708186398,
                43
              ],
              [
                21.1721352,
                43.0001585
              ],
              [
                21.1716261,
                43.000073
              ],
              [
                21.1710629,
                43.0004598
              ],
              [
                21.1722508,
                43.0022416
              ],
              [
                21.1722321,
                43.0030082
              ],
              [
                21.1713197,
                43.0034007
              ],
              [
                21.1695609,
                43.0038198
              ],
              [
                21.1689555,
                43.0044686
              ],
              [
                21.1694626,
                43.0049733
              ],
              [
                21.1691513,
                43.00578
              ],
              [
                21.1693374,
                43.0074506
              ],
              [
                21.1665757,
                43.0092759
              ],
              [
                21.1656208,
                43.0106491
              ],
              [
                21.1652681,
                43.0118303
              ],
              [
                21.165334,
                43.0120707
              ],
              [
                21.1646266,
                43.012549
              ],
              [
                21.1633713,
                43.0146865
              ],
              [
                21.1636019,
                43.015545
              ],
              [
                21.1644888,
                43.0160258
              ],
              [
                21.1649626,
                43.0164973
              ],
              [
                21.1654741,
                43.0173549
              ],
              [
                21.1665395,
                43.0184838
              ],
              [
                21.1664246,
                43.0186249
              ],
              [
                21.1672329,
                43.0198387
              ],
              [
                21.1665899,
                43.0205769
              ],
              [
                21.1669199,
                43.0222457
              ],
              [
                21.166887,
                43.0228659
              ],
              [
                21.1666676,
                43.0242996
              ],
              [
                21.1662858,
                43.0247108
              ],
              [
                21.1677063,
                43.026262
              ],
              [
                21.1666281,
                43.0280649
              ],
              [
                21.1655968,
                43.0284527
              ],
              [
                21.1643205,
                43.0287355
              ],
              [
                21.1628414,
                43.0284621
              ],
              [
                21.159586,
                43.0284675
              ],
              [
                21.1591539,
                43.0282368
              ],
              [
                21.1580907,
                43.0285944
              ],
              [
                21.1572164,
                43.0291981
              ],
              [
                21.1557151,
                43.0295609
              ],
              [
                21.1558591,
                43.0298696
              ],
              [
                21.1557225,
                43.0304795
              ],
              [
                21.1558315,
                43.0315045
              ],
              [
                21.1554442,
                43.0326306
              ],
              [
                21.1557716,
                43.0332195
              ],
              [
                21.1542224,
                43.0362878
              ],
              [
                21.1536114,
                43.036652
              ],
              [
                21.1536593,
                43.0383755
              ],
              [
                21.1532271,
                43.0393721
              ],
              [
                21.1522649,
                43.0403205
              ],
              [
                21.1526837,
                43.0420282
              ],
              [
                21.1527155,
                43.0430273
              ],
              [
                21.1531583,
                43.0439272
              ],
              [
                21.1540345,
                43.045016
              ],
              [
                21.1528594,
                43.0467655
              ],
              [
                21.152379,
                43.0481066
              ],
              [
                21.1521074,
                43.0494842
              ],
              [
                21.1522786,
                43.0506085
              ],
              [
                21.1528734,
                43.0512837
              ],
              [
                21.1526435,
                43.0517834
              ],
              [
                21.1528083,
                43.0525789
              ],
              [
                21.1527243,
                43.0538282
              ],
              [
                21.1523512,
                43.0543842
              ],
              [
                21.1525786,
                43.054753
              ],
              [
                21.1529719,
                43.0572116
              ],
              [
                21.1529595,
                43.0601236
              ],
              [
                21.1515025,
                43.0618363
              ],
              [
                21.1511047,
                43.0632807
              ],
              [
                21.1510466,
                43.0642202
              ],
              [
                21.1499018,
                43.0659046
              ],
              [
                21.1498626,
                43.0672554
              ],
              [
                21.149069,
                43.067542
              ],
              [
                21.1475907,
                43.0686304
              ],
              [
                21.1466395,
                43.0689365
              ],
              [
                21.1466247,
                43.0698568
              ],
              [
                21.147129,
                43.0716127
              ],
              [
                21.1468324,
                43.0713649
              ],
              [
                21.1463567,
                43.0713052
              ],
              [
                21.1449522,
                43.072978
              ],
              [
                21.1435251,
                43.0736125
              ],
              [
                21.1427274,
                43.0735607
              ],
              [
                21.143354,
                43.0741175
              ],
              [
                21.1439261,
                43.0759637
              ],
              [
                21.1414466,
                43.0783783
              ],
              [
                21.140575,
                43.0808934
              ],
              [
                21.1396031,
                43.0821633
              ],
              [
                21.1419338,
                43.083339
              ],
              [
                21.1417231,
                43.0840723
              ],
              [
                21.1417689,
                43.0847158
              ],
              [
                21.1434931,
                43.0857069
              ],
              [
                21.1438299,
                43.0864681
              ],
              [
                21.1438175,
                43.0869235
              ],
              [
                21.1462846,
                43.0870781
              ],
              [
                21.1468956,
                43.0872499
              ],
              [
                21.148352,
                43.0885263
              ],
              [
                21.149875,
                43.09103
              ],
              [
                21.1494906,
                43.0916832
              ],
              [
                21.14875,
                43.0922889
              ],
              [
                21.1484816,
                43.0927386
              ],
              [
                21.1479894,
                43.0949518
              ],
              [
                21.146369,
                43.0969973
              ],
              [
                21.1459173,
                43.0981649
              ],
              [
                21.1458629,
                43.0990073
              ],
              [
                21.1453583,
                43.0995724
              ],
              [
                21.1453275,
                43.1002684
              ],
              [
                21.1445535,
                43.1012274
              ],
              [
                21.1435849,
                43.1017269
              ],
              [
                21.1433776,
                43.1036606
              ],
              [
                21.1421769,
                43.1043587
              ],
              [
                21.1413124,
                43.1052589
              ],
              [
                21.1413504,
                43.1093734
              ],
              [
                21.1392525,
                43.1115864
              ],
              [
                21.1377055,
                43.112725
              ],
              [
                21.1372414,
                43.1134812
              ],
              [
                21.135452,
                43.1138229
              ],
              [
                21.1347314,
                43.1129084
              ],
              [
                21.132003,
                43.1119087
              ],
              [
                21.1299373,
                43.1115907
              ],
              [
                21.1278351,
                43.111638
              ],
              [
                21.1270843,
                43.1124076
              ],
              [
                21.1262966,
                43.1128061
              ],
              [
                21.1240797,
                43.1131609
              ],
              [
                21.1223691,
                43.1116806
              ],
              [
                21.119846,
                43.1121752
              ],
              [
                21.1180776,
                43.1118962
              ],
              [
                21.1164941,
                43.1113342
              ],
              [
                21.1133776,
                43.1111802
              ],
              [
                21.1127852,
                43.1116704
              ],
              [
                21.1124754,
                43.1123705
              ],
              [
                21.1125154,
                43.113164
              ],
              [
                21.1119813,
                43.1138891
              ],
              [
                21.1105318,
                43.1152531
              ],
              [
                21.1087174,
                43.1163011
              ],
              [
                21.1071254,
                43.1176634
              ],
              [
                21.1065235,
                43.1178855
              ],
              [
                21.1035538,
                43.1171624
              ],
              [
                21.1026719,
                43.1173531
              ],
              [
                21.1018223,
                43.1185025
              ],
              [
                21.1015255,
                43.1212244
              ],
              [
                21.1010822,
                43.1215552
              ],
              [
                21.1001875,
                43.1231819
              ],
              [
                21.0991908,
                43.1258883
              ],
              [
                21.0968502,
                43.1280243
              ],
              [
                21.0925133,
                43.1307294
              ],
              [
                21.0921876,
                43.1323332
              ],
              [
                21.0911502,
                43.1341714
              ],
              [
                21.0909744,
                43.1343947
              ],
              [
                21.0903844,
                43.1344211
              ],
              [
                21.0892442,
                43.135639
              ],
              [
                21.0885626,
                43.1357493
              ],
              [
                21.0858215,
                43.1337245
              ],
              [
                21.0842098,
                43.1328857
              ],
              [
                21.0841381,
                43.1324695
              ],
              [
                21.0827267,
                43.131682
              ],
              [
                21.0815021,
                43.1305942
              ],
              [
                21.0794626,
                43.1298235
              ],
              [
                21.0789851,
                43.1291198
              ],
              [
                21.0782514,
                43.1276321
              ],
              [
                21.0783959,
                43.1271932
              ],
              [
                21.0783989,
                43.125478
              ],
              [
                21.0789982,
                43.1236549
              ],
              [
                21.0791196,
                43.1227744
              ],
              [
                21.0790267,
                43.1220139
              ],
              [
                21.0791746,
                43.1210556
              ],
              [
                21.0789171,
                43.1195795
              ],
              [
                21.079254,
                43.1182329
              ],
              [
                21.0788818,
                43.1176271
              ],
              [
                21.0781882,
                43.1170601
              ],
              [
                21.0766629,
                43.1166166
              ],
              [
                21.0766971,
                43.1161718
              ],
              [
                21.0765228,
                43.1157663
              ],
              [
                21.0758209,
                43.1150271
              ],
              [
                21.0721895,
                43.1150849
              ],
              [
                21.067631,
                43.1141327
              ],
              [
                21.066337,
                43.1137068
              ],
              [
                21.0643823,
                43.1135585
              ],
              [
                21.0644471,
                43.1123709
              ],
              [
                21.062945,
                43.1104657
              ],
              [
                21.0623051,
                43.1101786
              ],
              [
                21.0592455,
                43.109749
              ],
              [
                21.0588776,
                43.1096339
              ],
              [
                21.0587159,
                43.1093944
              ],
              [
                21.0576736,
                43.1092677
              ],
              [
                21.0561254,
                43.1087942
              ],
              [
                21.0502832,
                43.1075241
              ],
              [
                21.0485514,
                43.1087525
              ],
              [
                21.0485457,
                43.1092586
              ],
              [
                21.0483622,
                43.1096555
              ],
              [
                21.0480721,
                43.1098369
              ],
              [
                21.0479398,
                43.1103551
              ],
              [
                21.0471556,
                43.1108585
              ],
              [
                21.0463202,
                43.1124142
              ],
              [
                21.0450094,
                43.1126457
              ],
              [
                21.0431169,
                43.1124534
              ],
              [
                21.0431458,
                43.1127738
              ],
              [
                21.0424902,
                43.1134029
              ],
              [
                21.0419557,
                43.1144692
              ],
              [
                21.0387412,
                43.1174531
              ],
              [
                21.0388784,
                43.1178632
              ],
              [
                21.0381413,
                43.1186885
              ],
              [
                21.0373627,
                43.1191999
              ],
              [
                21.0361819,
                43.1196684
              ],
              [
                21.0331288,
                43.1204284
              ],
              [
                21.0328061,
                43.1206606
              ],
              [
                21.0323897,
                43.1216908
              ],
              [
                21.031203,
                43.1229084
              ],
              [
                21.0304794,
                43.1231107
              ],
              [
                21.0306677,
                43.1235105
              ],
              [
                21.0304288,
                43.1240241
              ],
              [
                21.0278947,
                43.1248497
              ],
              [
                21.0274108,
                43.1257421
              ],
              [
                21.0271497,
                43.1269116
              ],
              [
                21.0263061,
                43.1279015
              ],
              [
                21.0254012,
                43.1294572
              ],
              [
                21.0232777,
                43.1303425
              ],
              [
                21.0201357,
                43.1304345
              ],
              [
                21.0198786,
                43.1301986
              ],
              [
                21.0184493,
                43.1307567
              ],
              [
                21.0172576,
                43.1308677
              ],
              [
                21.0156182,
                43.131341
              ],
              [
                21.0154833,
                43.1314039
              ],
              [
                21.0155816,
                43.1318246
              ],
              [
                21.0154356,
                43.132305
              ],
              [
                21.0140246,
                43.1343881
              ],
              [
                21.0098842,
                43.1344664
              ],
              [
                21.0087601,
                43.1349334
              ],
              [
                21.0066177,
                43.1352543
              ],
              [
                21.0030337,
                43.1352398
              ],
              [
                21.00286,
                43.1354424
              ],
              [
                21.0005954,
                43.1361822
              ],
              [
                21,
                43.1364701585783
              ],
              [
                21,
                43
              ]
            ]
          ],
          [
            [
              [
                21.173092145604386,
                43
              ],
              [
                21.174636674136124,
                43
              ],
              [
                21.1742894,
                43.0002512
              ],
              [
                21.173092145604386,
                43
              ]
            ]
          ],
          [
            [
              [
                21.17584116302521,
                43
              ],
              [
                21.237769407817545,
                43
              ],
              [
                21.2377712,
                43.0000605
              ],
              [
                21.2379707,
                43.0004151
              ],
              [
                21.2374674,
                43.0007992
              ],
              [
                21.2379372,
                43.0020566
              ],
              [
                21.237735,
                43.0024751
              ],
              [
                21.2376946,
                43.0048057
              ],
              [
                21.2378137,
                43.0055199
              ],
              [
                21.2370507,
                43.0057676
              ],
              [
                21.235903,
                43.0075092
              ],
              [
                21.2355339,
                43.0090871
              ],
              [
                21.2351195,
                43.0099965
              ],
              [
                21.2331832,
                43.0092825
              ],
              [
                21.2322293,
                43.009427
              ],
              [
                21.2318491,
                43.0096966
              ],
              [
                21.2316204,
                43.0103312
              ],
              [
                21.2307993,
                43.0114814
              ],
              [
                21.2299661,
                43.0134525
              ],
              [
                21.2291113,
                43.0146871
              ],
              [
                21.2274835,
                43.015686
              ],
              [
                21.2260356,
                43.0163508
              ],
              [
                21.2256832,
                43.0167147
              ],
              [
                21.2249724,
                43.0178515
              ],
              [
                21.2249423,
                43.0188522
              ],
              [
                21.2252799,
                43.0198631
              ],
              [
                21.2251759,
                43.0203621
              ],
              [
                21.2247719,
                43.0206149
              ],
              [
                21.2226446,
                43.0202896
              ],
              [
                21.2228359,
                43.0199625
              ],
              [
                21.2216818,
                43.0196257
              ],
              [
                21.2213316,
                43.0199797
              ],
              [
                21.2203577,
                43.0204381
              ],
              [
                21.2186326,
                43.0208774
              ],
              [
                21.216111,
                43.0213004
              ],
              [
                21.2151794,
                43.0210787
              ],
              [
                21.212999,
                43.0213593
              ],
              [
                21.2124642,
                43.0218397
              ],
              [
                21.2123491,
                43.0222634
              ],
              [
                21.2102324,
                43.023074
              ],
              [
                21.2085444,
                43.0233936
              ],
              [
                21.2070257,
                43.0238868
              ],
              [
                21.2056993,
                43.0246104
              ],
              [
                21.2054507,
                43.0246287
              ],
              [
                21.2044824,
                43.024048
              ],
              [
                21.2023847,
                43.0237384
              ],
              [
                21.2019714,
                43.0232025
              ],
              [
                21.2007095,
                43.0228328
              ],
              [
                21.2000845,
                43.0228094
              ],
              [
                21.1998438,
                43.0226368
              ],
              [
                21.1995201,
                43.0229408
              ],
              [
                21.1989818,
                43.0228862
              ],
              [
                21.1977959,
                43.023376
              ],
              [
                21.1972578,
                43.0233638
              ],
              [
                21.1970121,
                43.0230234
              ],
              [
                21.1968718,
                43.0222781
              ],
              [
                21.1970015,
                43.0218309
              ],
              [
                21.1964589,
                43.021119
              ],
              [
                21.1961487,
                43.0200902
              ],
              [
                21.1948557,
                43.0183875
              ],
              [
                21.1939302,
                43.0168213
              ],
              [
                21.1933659,
                43.0162871
              ],
              [
                21.192571,
                43.0159524
              ],
              [
                21.1919836,
                43.015123
              ],
              [
                21.1923848,
                43.0140147
              ],
              [
                21.1923851,
                43.0134112
              ],
              [
                21.1937324,
                43.0101384
              ],
              [
                21.1937639,
                43.0094278
              ],
              [
                21.1933807,
                43.008364
              ],
              [
                21.1930081,
                43.0079535
              ],
              [
                21.1924489,
                43.0075613
              ],
              [
                21.1899314,
                43.0065703
              ],
              [
                21.1884298,
                43.006266
              ],
              [
                21.1869337,
                43.00528
              ],
              [
                21.1798236,
                43.0018694
              ],
              [
                21.1789419,
                43.0011929
              ],
              [
                21.1782558,
                43.0012505
              ],
              [
                21.1774915,
                43.0010474
              ],
              [
                21.1761966,
                43.0003678
              ],
              [
                21.17584116302521,
                43
              ]
            ]
          ]
        ]
      }
    }
  ]
}