{
  "type": "FeatureCollection",
  "features": [
    {
      "type": "Feature",
      "properties": {
        "osm_id": -2202162,
        "boundary": "administrative",
        "admin_level": 2,
        "parents": null,
        "name": "France",
        "local_name": "France",
        "name_en": "France",
        "all_tags": {
          "flag": "http://upload.wikimedia.org/wikipedia/commons/c/c3/Flag_of_France.svg",
          "name": "France",
          "name:af": "Frankryk",
          "name:ak": "Frɛnkyeman",
          "name:am": "ፈረንሣይ",
          "name:an": "Francia",
          "name:ar": "فرنسا",
          "name:as": "ফ্ৰান্স",
          "name:ay": "Phransiya",
          "name:az": "Fransa",
          "name:ba": "Франция",
          "name:be": "Францыя",
          "name:bg": "Франция",
          "name:bi": "Franis",
          "name:bm": "France",
          "name:bn": "ফ্রান্স",
          "name:bo": "ཧྥ་རན་སི།",
          "name:br": "Bro-C'hall",
          "name:bs": "Francuska",
          "name:ca": "França",
          "name:ce": "Франци",
          "name:co": "Francia",
          "name:cs": "Francie",
          "name:cu": "Франкїꙗ",
          "name:cv": "Франци",
          "name:cy": "Ffrainc",
          "name:da": "Frankrig",
          "name:de": "Frankreich",
          "name:dv": "ފަރަންސޭސިވިލާތް",
          "name:dz": "ཕརཱནསི་",
          "name:ee": "France",
          "name:el": "Γαλλία",
          "name:en": "France",
          "name:eo": "Francio",
          "name:es": "Francia",
          "name:et": "Prantsusmaa",
          "name:eu": "Frantzia",
          "name:fa": "فرانسه",
          "name:ff": "Faransi",
          "name:fi": "Ranska",
          "name:fo": "Frakland",
          "name:fr": "France",
          "name:fy": "Frankryk",
          "name:ga": "An Fhrainc",
          "name:gd": "An Fhraing",
          "name:gl": "Francia",
          "name:gn": "Hyãsia",
          "name:gu": "ફ્રાન્સ",
          "name:gv": "Yn Rank",
          "name:ha": "Faransa",
          "name:he": "צרפת",
          "name:hi": "फ़्रान्स",
          "name:hr": "Francuska",
          "name:ht": "Frans",
          "name:hu": "Franciaország",
          "name:hy": "Ֆրանսիա",
          "name:ia": "Francia",
          "name:id": "Perancis",
          "name:ie": "Francia",
          "name:ii": "ꃔꇩ",
          "name:io": "Francia",
          "name:is": "Frakkland",
          "name:it": "Francia",
          "name:ja": "フランス",
          "name:jv": "Prancis",
          "name:ka": "საფრანგეთი",
          "name:kg": "Fwalansa",
          "name:ki": "Ubaranja",
          "name:kk": "Франция",
          "name:kl": "Frankrigi",
          "name:km": "បារាំង",
          "name:kn": "ಫ್ರಾನ್ಸ್",
          "name:ko": "프랑스",
          "name:ks": "فرٛانس",
          "name:ku": "Fransa",
          "name:kv": "Франция",
          "name:kw": "Pow Frynk",
          "name:ky": "Франция",
          "name:la": "Francia",
          "name:lb": "Frankräich",
          "name:lg": "Bufalansa",
          "name:li": "Frankriek",
          "name:ln": "Falansia",
          "name:lo": "ປະເທດຝະລັ່ງ",
          "name:lt": "Prancūzija",
          "name:lv": "Francija",
          "name:mg": "Frantsa",
          "name:mi": "Wīwī",
          "name:mk": "Франција",
          "name:ml": "ഫ്രാൻസ്",
          "name:mn": "Франц",
          "name:mo": "Франца",
          "name:mr": "फ्रान्स",
          "name:ms": "Perancis",
          "name:mt": "Franza",
          "name:my": "ပြင်သစ်နိုင်ငံ",
          "name:na": "Prant",
          "name:ne": "फ्रान्स",
          "name:nl": "Frankrijk",
          "name:nn": "Frankrike",
          "name:no": "Frankrike",
          "name:nv": "Dáághahii Dineʼé Bikéyah",
          "name:oc": "França",
          "name:or": "ଫ୍ରାନ୍ସ",
          "name:os": "Франц",
          "name:pa": "ਫ੍ਰਾਂਸ",
          "name:pl": "Francja",
          "name:ps": "فرانسه",
          "name:pt": "França",
          "name:qu": "Ransiya",
          "name:rm": "Frantscha",
          "name:rn": "Francia",
          "name:ro": "Franța",
          "name:ru": "Франция",
          "name:rw": "Ubufaransa",
          "name:sa": "फ्रान्सदेशः",
          "name:sc": "Frantza",
          "name:se": "Frankriika",
          "name:sg": "Farânzi",
          "name:sh": "Francuska",
          "name:si": "ප්රංශය",
          "name:sk": "Francúzsko",
          "name:sl": "Francija",
          "name:sm": "Farani",
          "name:so": "Faransiiska",
          "name:sq": "Franca",
          "name:sr": "Француска",
          "name:ss": "IFulansi",
          "name:st": "Fora",
          "name:su": "Perancis",
          "name:sv": "Frankrike",
          "name:sw": "Ufaransa",
          "name:ta": "பிரான்சு",
          "name:te": "ఫ్రాన్స్",
          "name:tg": "Фаронса",
          "name:th": "ประเทศฝรั่งเศส",
          "name:ti": "ፈረንሳይ",
          "name:tk": "Fransiýa",
          "name:tl": "Pransiya",
          "name:to": "Falanisē",
          "name:tr": "Fransa",
          "name:tt": "Франция",
          "name:ty": "Farāni",
          "name:ug": "فرانسىيە",
          "name:uk": "Франція",
          "name:ur": "فرانس",
          "name:uz": "Fransiya",
          "name:vi": "Pháp",
          "name:vo": "Fransän",
          "name:wa": "France",
          "name:wo": "Faraas",
          "name:yi": "פראנקרייך",
          "name:yo": "Fránsì",
          "name:za": "Fazgoz",
          "name:zh": "法国/法國",
          "name:zu": "IFulansi",
          "boundary": "administrative",
          "currency": "EUR",
          "int_name": "France",
          "name:ace": "Peurancih",
          "name:ang": "Francland",
          "name:arc": "ܦܪܢܣܐ",
          "name:arz": "فرنسا",
          "name:ast": "Francia",
          "name:bar": "Frankreich",
          "name:bcl": "Pransya",
          "name:bjn": "Parancis",
          "name:bpy": "ফ্রান্স",
          "name:bug": "Perancis",
          "name:bxr": "Франци",
          "name:cdo": "Huák-guók",
          "name:ceb": "Pransiya",
          "name:chr": "ᎦᎸᏥᏱ",
          "name:chy": "France",
          "name:ckb": "فەڕەنسا",
          "name:crh": "Frenkistan",
          "name:csb": "Francëjô",
          "name:diq": "Fransa",
          "name:dsb": "Francojska",
          "name:eml": "Franza",
          "name:ext": "Fráncia",
          "name:frp": "France",
          "name:frr": "Frånkrik",
          "name:fur": "France",
          "name:gag": "Franțiya",
          "name:gan": "法國",
          "name:grc": "Γαλλία",
          "name:gsw": "Frankreich",
          "name:hak": "Fap-koet",
          "name:haw": "Palani",
          "name:hif": "France",
          "name:hsb": "Francoska",
          "name:ilo": "Pransia",
          "name:jbo": "fasygu'e'Eyn",
          "name:kaa": "Frantsiya",
          "name:kab": "Fransa",
          "name:kbd": "Фрэндж",
          "name:koi": "Франс",
          "name:krc": "Франция",
          "name:ksh": "Frankreich",
          "name:lad": "Fransia",
          "name:lez": "Франция",
          "name:lfn": "Frans",
          "name:lij": "Fransa",
          "name:lmo": "Frància",
          "name:ltg": "Praņceja",
          "name:lzh": "法國",
          "name:mdf": "Кранцмастор",
          "name:mhr": "Франций",
          "name:min": "Parancih",
          "name:mwl": "Fráncia",
          "name:myv": "Франция Мастор",
          "name:mzn": "فرانسه",
          "name:nah": "Francia",
          "name:nan": "Hoat-kok",
          "name:nap": "Franza",
          "name:nds": "Frankriek",
          "name:nov": "Fransia",
          "name:nrm": "France",
          "name:nso": "Fora",
          "name:pag": "Fransia",
          "name:pam": "Pransiya",
          "name:pap": "Fransia",
          "name:pcd": "Franche",
          "name:pdc": "Frankreich",
          "name:pfl": "Frongraisch",
          "name:pih": "France",
          "name:pms": "Fransa",
          "name:pnb": "فرانس",
          "name:pnt": "Γαλλία",
          "name:rmy": "Franchiya",
          "name:rue": "Франція",
          "name:sah": "Франция",
          "name:scn": "Francia",
          "name:sco": "Fraunce",
          "name:sje": "Frankrijjka",
          "name:smn": "Ránská",
          "name:sms": "Franskkjânnam",
          "name:srn": "Franskondre",
          "name:stq": "Frankriek",
          "name:szl": "Francyjŏ",
          "name:tet": "Fransa",
          "name:tok": "ma Kanse",
          "name:tpi": "Frens",
          "name:tzl": "França",
          "name:udm": "Франция",
          "name:vec": "Fransa",
          "name:vep": "Francii",
          "name:vls": "Vrankryk",
          "name:vro": "Prantsusmaa",
          "name:war": "Fransya",
          "name:wuu": "法国",
          "name:xal": "Пранцсин Орн",
          "name:xmf": "საფრანგეთი",
          "name:yue": "法國",
          "name:zea": "Frankriek",
          "way_area": "124.365",
          "wikidata": "Q142",
          "ISO3166-1": "FR",
          "wikipedia": "fr:France",
          "euro_const": "FR",
          "population": "67852556",
          "admin_level": "2",
          "alt_name:eo": "Francujo",
          "alt_name:zh": "法兰西/法蘭西",
          "border_type": "territorial",
          "name:nds-nl": "Frankriek",
          "name:bat-smg": "Prancūzėjė",
          "name:cbk-zam": "Francia",
          "name:zh-Hans": "法国",
          "name:zh-Hant": "法國",
          "name:roa-tara": "Frange",
          "official_name": "République française",
          "name:be-tarask": "Францыя",
          "name:zh_pinyin": "Fǎguó",
          "ISO3166-1:alpha2": "FR",
          "ISO3166-1:alpha3": "FRA",
          "alt_name:zh-Hans": "法兰西",
          "alt_name:zh-Hant": "法蘭西",
          "default_language": "fr",
          "official_name:ar": "الجمهورية الفرنسية",
          "official_name:be": "Рэспубліка Францыя",
          "official_name:br": "Republik Frañs",
          "official_name:ca": "República Francesa",
          "official_name:cs": "Francouzská republika",
          "official_name:el": "Γαλλική Δημοκρατία",
          "official_name:en": "French Republic",
          "official_name:eo": "Franca Respubliko",
          "official_name:es": "República francesa",
          "official_name:et": "Prantsuse Vabariik",
          "official_name:eu": "Frantziako Errepublika",
          "official_name:fa": "جمهوری فرانسه",
          "official_name:fr": "République française",
          "official_name:gd": "Poblachd na Frainge",
          "official_name:id": "Republik Perancis",
          "official_name:it": "Repubblica francese",
          "official_name:ku": "Komara Fransayê",
          "official_name:lb": "Franséisch Republik",
          "official_name:lt": "Prancūzijos Respublika",
          "official_name:mo": "Република Франчезэ",
          "official_name:nl": "Franse Republiek",
          "official_name:ps": "د فرانسې جمهوریت",
          "official_name:pt": "República Francesa",
          "official_name:ru": "Французская Республика",
          "official_name:sk": "Francúzska republika",
          "official_name:sl": "Francoska republika",
          "official_name:sr": "Република Француска",
          "official_name:sv": "Republiken Frankrike",
          "official_name:ug": "فرانسىيە جۇمھۇرىيىتى",
          "official_name:ur": "جمہوریہ فرانس",
          "official_name:uz": "Fransiya Respublikasi",
          "official_name:vi": "Cộng hòa Pháp",
          "official_name:zh": "法兰西共和国/法蘭西共和國",
          "ISO3166-1:numeric": "250",
          "official_name:azb": "فرانسه جومهوریتی",
          "official_name:ckb": "کۆماری فەڕەنسا",
          "official_name:vls": "Fransche Republik",
          "official_name:zh-Hans": "法兰西共和国",
          "official_name:zh-Hant": "法蘭西共和國",
          "official_name:be-tarask": "Рэспубліка Францыя"
        }
      },
      "geometry": {
        "type": "Polygon",
        "coordinates": [
          [
            [
              9,
              41.29281579026322
            ],
            [
              9.1348611,
              41.3181386
            ],
            [
              9.2698328,
              41.2918053
            ],
            [
              9.3165005,
              41.3361394
            ],
            [
              9.4500281,
              41.4064732
            ],
            [
              9.630964,
              41.4336638
            ],
            [
              9.6345985,
              41.4411257
            ],
            [
              9.6413062,
              41.4570347
            ],
            [
              9.6462258,
              41.47329
            ],
            [
              9.6493316,
              41.4897955
            ],
            [
              9.6690273,
              41.6672553
            ],
            [
              9.669491,
              41.674296
            ],
            [
              9.6726474,
              41.6878838
            ],
            [
              9.6746277,
              41.7044908
            ],
            [
              9.6749277,
              41.7136013
            ],
            [
              9.6747575,
              41.7214333
            ],
            [
              9.6738556,
              41.7301239
            ],
            [
              9.6742089,
              41.7338563
            ],
            [
              9.674402,
              41.7490295
            ],
            [
              9.6751254,
              41.7572735
            ],
            [
              9.6752518,
              41.7739495
            ],
            [
              9.6735277,
              41.7905771
            ],
            [
              9.6720624,
              41.7983957
            ],
            [
              9.673419,
              41.8111239
            ],
            [
              9.6737811,
              41.8228737
            ],
            [
              9.6735642,
              41.8339918
            ],
            [
              9.67209,
              41.8489695
            ],
            [
              9.6723444,
              41.8573036
            ],
            [
              9.6722711,
              41.862914
            ],
            [
              9.675397,
              41.872513
            ],
            [
              9.6794554,
              41.8901619
            ],
            [
              9.6840122,
              41.8953712
            ],
            [
              9.6936547,
              41.9057504
            ],
            [
              9.7002678,
              41.9134563
            ],
            [
              9.7060252,
              41.9208665
            ],
            [
              9.7269798,
              41.9447565
            ],
            [
              9.7299653,
              41.9485062
            ],
            [
              9.7400509,
              41.9593958
            ],
            [
              9.7479453,
              41.9682896
            ],
            [
              9.7629931,
              41.9823123
            ],
            [
              9.7668871,
              41.9862129
            ],
            [
              9.77922900673527,
              42
            ],
            [
              9,
              42
            ],
            [
              9,
              41.29281579026322
            ]
          ]
        ]
      }
    },
    {
      "type": "Feature",
      "properties": {
        "osm_id": -365331,
        "boundary": "administrative",
        "admin_level": 2,
        "parents": null,
        "name": "Italy",
        "local_name": "Italia",
        "name_en": "Italy",
        "all_tags": {
          "flag": "http://upload.wikimedia.org/wikipedia/commons/0/03/Flag_of_Italy.svg",
          "name": "Italia",
          "name:ab": "Италиа",
          "name:af": "Italië",
          "name:ak": "Italy",
          "name:am": "ጣልያን",
          "name:an": "Italia",
          "name:ar": "إيطاليا",
          "name:as": "ইটালী",
          "name:ay": "Italiya",
          "name:az": "İtaliya",
          "name:ba": "Италия",
          "name:be": "Італія",
          "name:bg": "Италия",
          "name:bi": "Itali",
          "name:bn": "ইতালি",
          "name:bo": "ཨི་ཏ་ལི།",
          "name:br": "Italia",
          "name:bs": "Italija",
          "name:ca": "Itàlia",
          "name:ce": "Итали",
          "name:co": "Italia",
          "name:cr": "ᐃᑕᓖ",
          "name:cs": "Itálie",
          "name:cu": "Италїꙗ",
          "name:cv": "Итали",
          "name:cy": "Yr Eidal",
          "name:da": "Italien",
          "name:de": "Italien",
          "name:dv": "އިޓަލީވިލާތް",
          "name:dz": "ཨྀཊ་ལི་",
          "name:ee": "Italy",
          "name:el": "Ιταλία",
          "name:en": "Italy",
          "name:eo": "Italio",
          "name:es": "Italia",
          "name:et": "Itaalia",
          "name:eu": "Italia",
          "name:fa": "ایتالیا",
          "name:ff": "Italiya",
          "name:fi": "Italia",
          "name:fo": "Italia",
          "name:fr": "Italie",
          "name:fy": "Itaalje",
          "name:ga": "An Iodáil",
          "name:gd": "An Eadailt",
          "name:gl": "Italia",
          "name:gn": "Itália",
          "name:gu": "ઈટલી",
          "name:gv": "Yn Iddaal",
          "name:he": "איטליה",
          "name:hi": "इटली",
          "name:hr": "Italija",
          "name:ht": "Itali",
          "name:hu": "Olaszország",
          "name:hy": "Իտալիա",
          "name:ia": "Italia",
          "name:id": "Italia",
          "name:ie": "Italia",
          "name:io": "Italia",
          "name:is": "Ítalía",
          "name:it": "Italia",
          "name:ja": "イタリア",
          "name:jv": "Italia",
          "name:ka": "იტალია",
          "name:kg": "Italia",
          "name:ki": "Italia",
          "name:kk": "Италия",
          "name:kl": "Italia",
          "name:km": "អ៊ីតាលី",
          "name:kn": "ಇಟಲಿ",
          "name:ko": "이탈리아",
          "name:ku": "Îtalya",
          "name:kv": "Италия",
          "name:kw": "Itali",
          "name:ky": "Италия",
          "name:la": "Italia",
          "name:lb": "Italien",
          "name:lg": "Yitale",
          "name:li": "Italië",
          "name:ln": "Italya",
          "name:lo": "ອິຕາລີ",
          "name:lt": "Italija",
          "name:lv": "Itālija",
          "name:mg": "Italia",
          "name:mi": "Itari",
          "name:mk": "Италија",
          "name:ml": "ഇറ്റലി",
          "name:mn": "Итали",
          "name:mr": "इटली",
          "name:ms": "Itali",
          "name:mt": "Italja",
          "name:my": "အီတလီနိုင်ငံ",
          "name:na": "Itari",
          "name:ne": "इटाली",
          "name:nl": "Italië",
          "name:nn": "Italia",
          "name:no": "Italia",
          "name:nv": "Ídelii",
          "name:oc": "Itàlia",
          "name:or": "ଇଟାଲୀ",
          "name:os": "Итали",
          "name:pa": "ਇਟਲੀ",
          "name:pl": "Włochy",
          "name:ps": "اېټاليا",
          "name:pt": "Itália",
          "name:qu": "Italya",
          "name:rm": "Italia",
          "name:ro": "Italia",
          "name:ru": "Италия",
          "name:rw": "Ubutaliyani",
          "name:sa": "इटली",
          "name:sc": "Itàlia",
          "name:se": "Itália",
          "name:sg": "Italùii",
          "name:sh": "Italija",
          "name:sk": "Taliansko",
          "name:sl": "Italija",
          "name:sm": "Italia",
          "name:so": "Talyaaniga",
          "name:sq": "Italia",
          "name:sr": "Италија",
          "name:ss": "INtaliyane",
          "name:su": "Italia",
          "name:sv": "Italien",
          "name:sw": "Italia",
          "name:ta": "இத்தாலி",
          "name:te": "ఇటలీ",
          "name:tg": "Итолиё",
          "name:th": "ประเทศอิตาลี",
          "name:tk": "Italiýa",
          "name:tl": "Italya",
          "name:tr": "İtalya",
          "name:tt": "Италия",
          "name:tw": "Italy",
          "name:ty": "’Itāria",
          "name:ug": "ئىتالىيە",
          "name:uk": "Італія",
          "name:ur": "اطالیہ",
          "name:uz": "Italiya",
          "name:ve": "Italy",
          "name:vi": "Ý",
          "name:vo": "Litaliyän",
          "name:wa": "Itåleye",
          "name:wo": "Itaali",
          "name:yi": "איטאליע",
          "name:yo": "Itálíà",
          "name:zh": "意大利 / 義大利",
          "name:zu": "ITaliya",
          "boundary": "administrative",
          "currency": "EUR",
          "int_name": "Italia",
          "name:ace": "Itali",
          "name:als": "Italien",
          "name:ang": "Italia",
          "name:arc": "ܐܝܛܠܝܐ",
          "name:arz": "ايطاليا",
          "name:ast": "Italia",
          "name:bar": "Italien",
          "name:bcl": "Italya",
          "name:bpy": "ইতালি",
          "name:bug": "Italia",
          "name:bxr": "Итаали",
          "name:cdo": "É-dâi-lé",
          "name:ceb": "Italya",
          "name:chr": "ᎢᏔᎵᏱ",
          "name:chy": "Italy",
          "name:ckb": "ئیتالیا",
          "name:crh": "İtaliya",
          "name:csb": "Italskô",
          "name:din": "Italia",
          "name:diq": "İtalya",
          "name:dsb": "Italska",
          "name:eml": "Itâglia",
          "name:ext": "Itália",
          "name:frp": "Étalie",
          "name:frr": "Itaalien",
          "name:fur": "Italie",
          "name:gag": "İtaliya",
          "name:gan": "意大利",
          "name:grc": "Ἰταλία",
          "name:hak": "Yi-thai-li",
          "name:haw": "ʻĪkālia",
          "name:hif": "Italy",
          "name:hsb": "Italska",
          "name:ilo": "Italia",
          "name:jbo": "italias",
          "name:kaa": "İtaliya",
          "name:kab": "Ṭelyan",
          "name:kbd": "Урым",
          "name:koi": "Италья",
          "name:krc": "Италия",
          "name:lad": "Italia",
          "name:lez": "Италия",
          "name:lij": "Italia",
          "name:lld": "Talia",
          "name:lmo": "Itàlia",
          "name:ltg": "Italeja",
          "name:lzh": "義大利",
          "name:mdf": "Италие",
          "name:mhr": "Италий",
          "name:min": "Italia",
          "name:mwl": "Eitália",
          "name:mzn": "ایتالیا",
          "name:nah": "Italia",
          "name:nan": "Italia",
          "name:nap": "Italia",
          "name:nds": "Italien",
          "name:new": "इटाली",
          "name:nov": "Italia",
          "name:nrm": "Italie",
          "name:nso": "Italia",
          "name:pag": "Italia",
          "name:pam": "Italia",
          "name:pap": "Italia",
          "name:pcd": "Italie",
          "name:pdc": "Idali",
          "name:pfl": "Idalje",
          "name:pih": "Italii",
          "name:pms": "Italia",
          "name:pnb": "اٹلی",
          "name:pnt": "Ιταλία",
          "name:rmy": "Italiya",
          "name:rue": "Італія",
          "name:sah": "Италия",
          "name:scn": "Italia",
          "name:sco": "Italy",
          "name:smn": "Italia",
          "name:sms": "Italia",
          "name:srn": "Italiyanikondre",
          "name:stq": "Italien",
          "name:szl": "Italijŏ",
          "name:tet": "Itália",
          "name:tok": "ma Italija",
          "name:tpi": "Itali",
          "name:tzl": "Talia",
          "name:udm": "Италия",
          "name:vec": "Itałia",
          "name:vep": "Italii",
          "name:vls": "Itoalië",
          "name:vro": "Itaalia",
          "name:war": "Italya",
          "name:wuu": "意大利",
          "name:xal": "Италмудин Орн",
          "name:xmf": "იტალია",
          "name:yue": "意大利",
          "name:zea": "Itâlië",
          "timezone": "Europe/Rome",
          "way_area": "49.7321",
          "wikidata": "Q38",
          "ISO3166-1": "IT",
          "wikipedia": "it:Italia",
          "population": "58983000",
          "start_date": "1946-06-10",
          "admin_level": "2",
          "alt_name:eo": "Italujo",
          "alt_name:vi": "I-ta-li-a",
          "name:nds-nl": "Italiën",
          "old_name:vi": "Ý Đại Lợi",
          "name:bat-smg": "Italėjė",
          "name:cbk-zam": "Italia",
          "name:map-bms": "Italia",
          "name:zh-Hans": "意大利",
          "name:zh-Hant": "義大利",
          "name:roa-tara": "Itaglie",
          "official_name": "Repubblica Italiana",
          "name:be-tarask": "Італія",
          "population:date": "2022-04-08",
          "ISO3166-1:alpha2": "IT",
          "ISO3166-1:alpha3": "ITA",
          "default_language": "it",
          "official_name:cs": "Italská republika",
          "official_name:de": "Republik Italien",
          "official_name:el": "Ιταλική Δημοκρατία",
          "official_name:eo": "Itala Respubliko",
          "official_name:zh": "意大利共和国",
          "ISO3166-1:numeric": "380",
          "official_language": "it",
          "official_name:zh-Hans": "意大利共和国",
          "official_name:zh-Hant": "義大利共和國",
          "TMC:cid_58:tabcd_1:Class": "Area",
          "TMC:cid_58:tabcd_1:LCLversion": "8.00",
          "TMC:cid_58:tabcd_1:LocationCode": "11"
        }
      },
      "geometry": {
        "type": "Polygon",
        "coordinates": [
          [
            [
              9,
              41
            ],
            [
              9.9927552031516,
              41
            ],
            [
              9.9691866,
              41.0304856
            ],
            [
              9.9627206,
              41.0384066
            ],
            [
              9.9526766,
              41.0493006
            ],
            [
              9.9473936,
              41.0544716
            ],
            [
              9.9011876,
              41.0981766
            ],
            [
              9.8690416,
              41.1616786
            ],
            [
              9.8619666,
              41.1738406
            ],
            [
              9.8538506,
              41.1856266
            ],
            [
              9.8447286,
              41.1969856
            ],
            [
              9.8346396,
              41.2078686
            ],
            [
              9.8251996,
              41.2168306
            ],
            [
              9.7839966,
              41.2537276
            ],
            [
              9.7833996,
              41.2562066
            ],
            [
              9.7795766,
              41.2691756
            ],
            [
              9.7746366,
              41.2819276
            ],
            [
              9.7685986,
              41.2944086
            ],
            [
              9.7614896,
              41.3065646
            ],
            [
              9.7533376,
              41.3183436
            ],
            [
              9.7441786,
              41.3296936
            ],
            [
              9.7340516,
              41.3405676
            ],
            [
              9.7229976,
              41.3509186
            ],
            [
              9.7110666,
              41.3607006
            ],
            [
              9.6983076,
              41.3698726
            ],
            [
              9.6847766,
              41.3783946
            ],
            [
              9.6747526,
              41.3840196
            ],
            [
              9.6581546,
              41.3928856
            ],
            [
              9.630964,
              41.4336638
            ],
            [
              9.4500281,
              41.4064732
            ],
            [
              9.3165005,
              41.3361394
            ],
            [
              9.2698328,
              41.2918053
            ],
            [
              9.1348611,
              41.3181386
            ],
            [
              9,
              41.29281510435834
            ],
            [
              9,
              41
            ]
          ]
        ]
      }
    }
  ]
}