{
  "type": "FeatureCollection",
  "features": [
    {
      "type": "Feature",
      "properties": {
        "osm_id": -1983628,
        "boundary": "administrative",
        "admin_level": 2,
        "parents": null,
        "name": "South Georgia and the South Sandwich Islands",
        "local_name": "South Georgia and the South Sandwich Islands",
        "name_en": "South Georgia and the South Sandwich Islands",
        "all_tags": {
          "flag": "http://upload.wikimedia.org/wikipedia/commons/e/ed/Flag_of_South_Georgia_and_the_South_Sandwich_Islands.svg",
          "name": "South Georgia and the South Sandwich Islands",
          "name:az": "Cənubi Georgiya və Cənubi Sandviç adaları",
          "name:be": "Паўднёвая Джорджыя і Паўднёвыя Сандвічавы астравы",
          "name:bg": "Южна Джорджия и Южни Сандвичеви острови",
          "name:br": "Inizi Georgia ar Su hag Inizi Sandwich ar Su",
          "name:ca": "Illes Geòrgia del Sud i Sandwich del Sud",
          "name:cs": "Jižní Georgie a Jižní Sandwichovy ostrovy",
          "name:da": "South Georgia og South Sandwich Islands",
          "name:de": "Südgeorgien und die Südlichen Sandwichinseln",
          "name:el": "Νήσοι Νότια Γεωργία και Νότιες Σάντουιτς",
          "name:en": "South Georgia and the South Sandwich Islands",
          "name:eo": "Sud-Georgio kaj Sud-Sandviĉinsuloj",
          "name:es": "Islas Georgias del Sur y Sandwich del Sur",
          "name:et": "Lõuna-Georgia ja Lõuna-Sandwichi saared",
          "name:eu": "Hegoaldeko Georgiak eta Hegoaldeko Sandwich uharteak",
          "name:fo": "Suðursandwichoyggjar og Suðurgeorgia",
          "name:fr": "Géorgie du Sud-et-les Îles Sandwich du Sud",
          "name:fy": "Súd-Georgje en de Súdlike Sandwicheilannen",
          "name:hi": "दक्षिण जॉर्जिया एवं दक्षिण सैंडविच द्वीप समूह",
          "name:hr": "Južna Georgija i Otočje Južni Sandwich",
          "name:it": "Georgia del Sud e Isole Sandwich Australi",
          "name:ja": "サウスジョージア・サウスサンドウィッチ諸島",
          "name:mk": "Јужна Џорџија и Јужни Сендвички Острови",
          "name:nl": "Zuid-Georgia en de Zuidelijke Sandwicheilanden",
          "name:nn": "Sør-Georgia og Sør-Sandwichøyane",
          "name:pl": "Georgia Południowa i Sandwich Południowy",
          "name:pt": "Ilhas Geórgia do Sul e Sanduíche do Sul",
          "name:ru": "Южная Георгия и Южные Сандвичевы Острова",
          "name:sk": "Južná Georgia a Južné Sandwichove ostrovy",
          "name:sl": "Južna Georgija in Južni Sandwichevi otoki",
          "name:sr": "Јужна Џорџија и Јужна Сендвичка Острва",
          "name:ta": "தெற்கு யோர்சியா மற்றும் தெற்கு சண்ட்விச் தீவுகள்",
          "name:tr": "Güney Georgia ve Güney Sandwich Adaları",
          "name:uk": "Південна Джорджія та Південні Сандвічеві острови",
          "name:zh": "南喬治亞和南桑威奇群島",
          "boundary": "administrative",
          "name:hak": "Nàm Georgia lâu Nàm Sandwich Khiùn-tó",
          "name:nan": "Lâm Georgia kap Lâm Sandwich Kûn-tó",
          "timezone": "Atlantic/South_Georgia",
          "way_area": "5.70799",
          "wikidata": "Q35086",
          "ISO3166-1": "GS",
          "wikipedia": "en:South Georgia and the South Sandwich Islands",
          "admin_level": "2",
          "name:zh-Hans": "南乔治亚和南桑威奇群岛",
          "name:zh-Hant": "南喬治亞和南桑威奇群島",
          "ISO3166-1:alpha2": "GS",
          "ISO3166-1:alpha3": "SGS",
          "default_language": "en",
          "ISO3166-1:numeric": "239"
        }
      },
      "geometry": {
        "type": "Polygon",
        "coordinates": [
          [
            [
              -38,
              -54
            ],
            [
              -37,
              -54
            ],
            [
              -37,
              -53.845571547415055
            ],
            [
              -37.3937668,
              -53.7740316
            ],
            [
              -37.4090455,
              -53.7716
            ],
            [
              -37.4193302,
              -53.770215
            ],
            [
              -37.4296824,
              -53.7690202
            ],
            [
              -37.4453154,
              -53.7675875
            ],
            [
              -37.4610438,
              -53.7665888
            ],
            [
              -37.4768335,
              -53.7660262
            ],
            [
              -37.4926503,
              -53.765901
            ],
            [
              -37.5031929,
              -53.7660607
            ],
            [
              -37.7822396,
              -53.7777366
            ],
            [
              -37.79878,
              -53.7789781
            ],
            [
              -37.9699584,
              -53.7942425
            ],
            [
              -38,
              -53.79596053782086
            ],
            [
              -38,
              -54
            ]
          ]
        ]
      }
    }
  ]
}