{
  "type": "FeatureCollection",
  "features": [
    {
      "type": "Feature",
      "properties": {
        "osm_id": -536765,
        "boundary": "administrative",
        "admin_level": 2,
        "parents": null,
        "name": "Seychelles",
        "local_name": "Sesel",
        "name_en": "Seychelles",
        "all_tags": {
          "flag": "http://upload.wikimedia.org/wikipedia/commons/f/fc/Flag_of_Seychelles.svg",
          "name": "Sesel",
          "name:ab": "Сеишелтәи Адгьылбжьахақәа",
          "name:af": "Seychelle",
          "name:am": "ሲሸልስ",
          "name:an": "Seychelles",
          "name:ar": "سيشيل",
          "name:az": "Seyşel adaları",
          "name:ba": "Сейшел Утрауҙары",
          "name:be": "Сейшэльскія Астравы",
          "name:bg": "Сейшели",
          "name:bh": "सेशेल्स",
          "name:bi": "Seisel",
          "name:bm": "Seshel",
          "name:bn": "সেশেল",
          "name:bo": "སེ་ཞེལ།",
          "name:br": "Sechelez",
          "name:bs": "Sejšeli",
          "name:ca": "Seychelles",
          "name:ce": "Сейшелан гlайреш",
          "name:cs": "Seychely",
          "name:cv": "Сейшел утравĕсем",
          "name:cy": "Seychelles",
          "name:da": "Seychellerne",
          "name:de": "Seychellen",
          "name:dv": "ތޭންގަދީބު",
          "name:el": "Σεϋχέλλες",
          "name:en": "Seychelles",
          "name:eo": "Sejŝeloj",
          "name:es": "Seychelles",
          "name:et": "Seišellid",
          "name:eu": "Seychelleak",
          "name:fa": "سیشل",
          "name:ff": "Seysel",
          "name:fi": "Seychellit",
          "name:fo": "Seyskelloyggjar",
          "name:fr": "Seychelles",
          "name:fy": "Seysjellen",
          "name:ga": "Na Séiséil",
          "name:gd": "Na h-Eileanan Sheiseall",
          "name:gl": "Seixeles - Seychelles",
          "name:gn": "Séichele",
          "name:gv": "Ny h-Ellanyn Heshell",
          "name:ha": "Seychelles",
          "name:he": "סיישל",
          "name:hi": "सेशेल्स",
          "name:hr": "Sejšeli",
          "name:ht": "Sechèl",
          "name:hu": "Seychelle-szigetek",
          "name:hy": "Սեյշելյան կղզիներ",
          "name:ia": "Seychelles",
          "name:id": "Seychelles",
          "name:ie": "Seychelles",
          "name:ig": "Seychelles",
          "name:io": "Seycheli",
          "name:is": "Seychelles-eyjar",
          "name:it": "Seychelles",
          "name:ja": "セーシェル",
          "name:jv": "Sésèl",
          "name:ka": "სეიშელის კუნძულები",
          "name:kg": "Seychell",
          "name:ki": "Seychelles",
          "name:kk": "Сейшель Аралдары",
          "name:kn": "ಸೆಶೆಲ್ಸ್",
          "name:ko": "세이셸",
          "name:ku": "Seyşel",
          "name:kw": "Seychellys",
          "name:ky": "Сейшел Аралдары",
          "name:la": "Insulae Seisellenses",
          "name:lb": "Seychellen",
          "name:lg": "Seychelles",
          "name:li": "Seychelle",
          "name:ln": "Seyshel",
          "name:lt": "Seišeliai",
          "name:lv": "Seišelas",
          "name:mg": "Seychelles",
          "name:mi": "Heikere",
          "name:mk": "Сејшели",
          "name:ml": "സെയ്‌ഷെൽസ്",
          "name:mn": "Сейшелийн арлууд",
          "name:mr": "सेशेल्स",
          "name:ms": "Seychelles",
          "name:mt": "Seychelles",
          "name:my": "ဆေးရှဲနိုင်ငံ",
          "name:ne": "सेसेल्स",
          "name:nl": "Seychellen",
          "name:nn": "Seychellane",
          "name:no": "Seychellene",
          "name:nv": "Seishel",
          "name:oc": "Seichèlas",
          "name:om": "Siishelsi",
          "name:or": "ସେସେଲଜ",
          "name:os": "Сейшелтæ",
          "name:pa": "ਸੇਸ਼ੈਲ",
          "name:pi": "सेशेल",
          "name:pl": "Seszele",
          "name:ps": "سیشل",
          "name:pt": "Seychelles",
          "name:qu": "Sichillakuna",
          "name:rm": "Seychellas",
          "name:ro": "Seychelles",
          "name:ru": "Сейшельские Острова",
          "name:rw": "Seyishele",
          "name:sa": "सेशेल",
          "name:sc": "Seychelles",
          "name:sd": "سيچيليس",
          "name:se": "Seychellat",
          "name:sg": "Sëyshêle",
          "name:sh": "Sejšeli",
          "name:si": "සීෂෙල්ස්",
          "name:sk": "Seychely",
          "name:sl": "Sejšeli",
          "name:sm": "Seychelles",
          "name:sn": "Seychelles",
          "name:so": "Seyshelles",
          "name:sq": "Sejshellet",
          "name:sr": "Сејшели",
          "name:ss": "ISeyishelesi",
          "name:st": "Seychelles",
          "name:su": "Seychéll",
          "name:sv": "Seychellerna",
          "name:sw": "Shelisheli",
          "name:ta": "சீசெல்சு",
          "name:te": "సేషెల్స్",
          "name:tg": "Ҷазираҳои Сейшел",
          "name:th": "ประเทศเซเชลส์",
          "name:tk": "Seýşel Adalary",
          "name:tl": "Seyshels",
          "name:tr": "Seyşeller",
          "name:ts": "Seychelles",
          "name:tt": "Сейшел утраулары",
          "name:ug": "سېيشېل ئاراللىرى",
          "name:uk": "Сейшельські Острови",
          "name:ur": "سیچیلیس",
          "name:uz": "Seyshell orollari",
          "name:vi": "Seychelles",
          "name:vo": "Säceluäns",
          "name:wo": "Seysel",
          "name:yi": "סיישעל",
          "name:yo": "Ṣèíhẹ́lẹ́sì",
          "name:za": "Seychelles",
          "name:zh": "塞舌尔 / 塞席爾",
          "name:zu": "IsiSeyisheli",
          "boundary": "administrative",
          "name:als": "Seychellen",
          "name:ary": "سيشيل",
          "name:arz": "سيشيل",
          "name:ast": "Seixeles",
          "name:avk": "Seycella",
          "name:azb": "سیشل",
          "name:ban": "Seychelles",
          "name:bar": "Seychelln",
          "name:bcl": "Seytsilyes",
          "name:bjn": "Seychelles",
          "name:bpy": "সেইশেল দ্বীপপুঞ্জ",
          "name:bxr": "Сейшелиин аралнууд",
          "name:cdo": "Seychelles",
          "name:ceb": "Seychelles",
          "name:ckb": "سیشێل",
          "name:crh": "Seyşeller",
          "name:dag": "Seychelles",
          "name:diq": "Seyşeli",
          "name:dsb": "Seychelle",
          "name:dty": "सेसेल्स",
          "name:ext": "Seychelles",
          "name:frp": "Sêch·èles",
          "name:frr": "Seschelen",
          "name:gag": "Seyşeller",
          "name:gcr": "Séchèl",
          "name:hak": "Seychelles",
          "name:hif": "Seychelles",
          "name:hsb": "Seychelle",
          "name:ilo": "Seychelles",
          "name:jam": "Seishelz",
          "name:jbo": "secel",
          "name:kaa": "Seyshel atawları",
          "name:kab": "Seychelles",
          "name:lfn": "Sexeles",
          "name:lij": "Seychelles",
          "name:lld": "Seychelles",
          "name:lmo": "Seychelles",
          "name:mhr": "Сейшел-влак",
          "name:mrj": "Сейшелвлӓ",
          "name:mzn": "سیشل",
          "name:nan": "Seychelles",
          "name:nds": "Seychellen",
          "name:new": "सिशेल्स",
          "name:nov": "Seyshels",
          "name:nso": "Seychelles",
          "name:olo": "Seišellit",
          "name:pam": "Sesiel",
          "name:pih": "Sieshels",
          "name:pms": "Seychelles",
          "name:pnb": "سشلز",
          "name:sah": "Сейшеллар",
          "name:scn": "Seicelli",
          "name:sco": "Seychelles",
          "name:shn": "မိူင်းသေးသျႄႇ",
          "name:smn": "Seychelleh",
          "name:sms": "Seycheeʹll",
          "name:stq": "Seychelle",
          "name:szl": "Seszele",
          "name:tzl": "Seiceadías",
          "name:udm": "Сейшел шормуӵъёс",
          "name:vec": "Seychelles",
          "name:vep": "Seišelan Sared",
          "name:vls": "Seychelln",
          "name:war": "Seychelles",
          "name:wuu": "塞舌尔",
          "name:xal": "Сейшел Арлин Орн",
          "name:xmf": "სეიშელიშ კოკეფი",
          "name:yue": "塞舌爾",
          "name:zea": "Seychell'n",
          "timezone": "Indian/Mahe",
          "way_area": "4.38549",
          "wikidata": "Q1042",
          "ISO3166-1": "SC",
          "wikipedia": "en:Seychelles",
          "admin_level": "2",
          "alt_name:it": "Seicelle",
          "alt_name:pt": "Seicheles",
          "name:nds_nl": "Seychellen",
          "name:simple": "Seychelles",
          "driving_side": "left",
          "name:bat_smg": "Seišelē",
          "name:cbk-zam": "Seychelles",
          "name:zh-Hans": "塞舌尔",
          "name:zh-Hant": "塞席爾",
          "name:be-tarask": "Сэйшэлы",
          "ISO3166-1:alpha2": "SC",
          "ISO3166-1:alpha3": "SYC",
          "official_name:cs": "Seychelská republika",
          "ISO3166-1:numeric": "690"
        }
      },
      "geometry": {
        "type": "Polygon",
        "coordinates": [
          [
            [
              53.14569110028758,
              -5
            ],
            [
              53.56598934407622,
              -5
            ],
            [
              53.5784595,
              -4.973994
            ],
            [
              53.5882844,
              -4.9351184
            ],
            [
              53.5910061,
              -4.9168397
            ],
            [
              53.5931817,
              -4.8842448
            ],
            [
              53.5900613,
              -4.8517272
            ],
            [
              53.5880977,
              -4.8407376
            ],
            [
              53.5789209,
              -4.8068104
            ],
            [
              53.5639897,
              -4.7750068
            ],
            [
              53.5437616,
              -4.7463006
            ],
            [
              53.5188562,
              -4.7215705
            ],
            [
              53.4900359,
              -4.7015738
            ],
            [
              53.4802761,
              -4.6960404
            ],
            [
              53.4518205,
              -4.6832599
            ],
            [
              53.4180576,
              -4.6744025
            ],
            [
              53.3832744,
              -4.6715602
            ],
            [
              53.3485266,
              -4.6748197
            ],
            [
              53.3148693,
              -4.6840825
            ],
            [
              53.2833246,
              -4.6990678
            ],
            [
              53.2519267,
              -4.7213141
            ],
            [
              53.2292144,
              -4.744314
            ],
            [
              53.2104782,
              -4.7706755
            ],
            [
              53.1962053,
              -4.7997142
            ],
            [
              53.1746657,
              -4.8604859
            ],
            [
              53.1685846,
              -4.8939822
            ],
            [
              53.1682303,
              -4.9280276
            ],
            [
              53.1736139,
              -4.9616439
            ],
            [
              53.1753152,
              -4.9666424
            ],
            [
              53.1490703,
              -4.9948129
            ],
            [
              53.14569110028758,
              -5
            ]
          ]
        ]
      }
    }
  ]
}