{
  "type": "FeatureCollection",
  "features": [
    {
      "type": "Feature",
      "properties": {
        "osm_id": -307866,
        "boundary": "administrative",
        "admin_level": 2,
        "parents": null,
        "name": "Papua New Guinea",
        "local_name": "Papua Niugini",
        "name_en": "Papua New Guinea",
        "all_tags": {
          "flag": "http://upload.wikimedia.org/wikipedia/commons/e/e3/Flag_of_Papua_New_Guinea.svg",
          "name": "Papua Niugini",
          "name:af": "Papoea-Nieu-Guinee",
          "name:am": "ፓፑዋ ኒው ጊኒ",
          "name:an": "Papua y Nueva Guinea",
          "name:ar": "بابوا غينيا الجديدة",
          "name:az": "Papua-Yeni Qvineya",
          "name:ba": "Папуа — Яңы Гвинея",
          "name:be": "Папуа — Новая Гвінея",
          "name:bg": "Папуа Нова Гвинея",
          "name:bi": "Papua New Guinea",
          "name:bn": "পাপুয়া নিউ গিনি",
          "name:bo": "པ་པུ་འ་ནིའུ་གི་ནེ།",
          "name:br": "Papoua Ginea-Nevez",
          "name:bs": "Papua Nova Gvineja",
          "name:ca": "Papua Nova Guinea",
          "name:ce": "Папуа — Керла Гвине",
          "name:cs": "Papua Nová Guinea",
          "name:cu": "Папоуа · Нова Гвинєꙗ",
          "name:cy": "Papua Guinea Newydd",
          "name:da": "Papua Ny Guinea",
          "name:de": "Papua-Neuguinea",
          "name:dv": "ޕަޕުއާ ނިއު ގިނީ",
          "name:el": "Παπούα Νέα Γουινέα",
          "name:en": "Papua New Guinea",
          "name:eo": "Papuo-Nov-Gvineo",
          "name:es": "Papua-Nueva Guinea",
          "name:et": "Paapua Uus-Guinea",
          "name:eu": "Papua Ginea Berria",
          "name:fa": "پاپوآ گینه نو",
          "name:fi": "Papua-Uusi-Guinea",
          "name:fo": "Papua Nýguinea",
          "name:fr": "Papouasie-Nouvelle-Guinée",
          "name:fy": "Papoea Nij-Guineä",
          "name:ga": "Nua-Ghuine Phapua",
          "name:gd": "Gini Nuadh Phaputhach",
          "name:gl": "Papúa Nova Guinea",
          "name:gn": "Papúa Ginéa Pyahu",
          "name:gv": "Papooey Guinea Noa",
          "name:he": "פפואה גינאה החדשה",
          "name:hi": "पापुआ न्यू गिनी",
          "name:hr": "Papua Nova Gvineja",
          "name:ht": "Papwazi-Nouvèl-Gine",
          "name:hu": "Pápua Új-Guinea",
          "name:hy": "Պապուա Նոր Գվինեա",
          "name:ia": "Papua Nove Guinea",
          "name:id": "Papua Nugini",
          "name:io": "Papua-Nova-Guinea",
          "name:is": "Papúa Nýja-Gínea",
          "name:it": "Papua Nuova Guinea",
          "name:ja": "パプアニューギニア",
          "name:jv": "Papua Nugini",
          "name:ka": "პაპუა-ახალი გვინეა",
          "name:kk": "Папуа Жаңа Гвинея",
          "name:kn": "ಪಾಪುಅ ನ್ಯೂ ಗಿನಿ",
          "name:ko": "파푸아 뉴기니",
          "name:ku": "Papua Gîneya Nû",
          "name:ky": "Папуа-Жаӊы-Гвинея.",
          "name:la": "Papua Nova Guinea",
          "name:lb": "Papua-Neiguinea",
          "name:li": "Papoea-Nui-Guinea",
          "name:lt": "Papua Naujoji Gvinėja",
          "name:lv": "Papua-Jaungvineja",
          "name:mi": "Papua Nūkini",
          "name:mk": "Папуа Нова Гвинеја",
          "name:ml": "പാപുവ ന്യൂ ഗിനിയ",
          "name:mr": "पापुआ न्यू गिनी",
          "name:ms": "Papua New Guinea",
          "name:mt": "Papwa Gwinea l-Ġdida",
          "name:my": "ပါပူအာနယူးဂီနီနိုင်ငံ",
          "name:na": "Papua New Guinea",
          "name:nl": "Papoea-Nieuw-Guinea",
          "name:nn": "Papua Ny-Guinea",
          "name:no": "Papua Ny-Guinea",
          "name:nv": "Páápowa Bigíní Ániidí",
          "name:oc": "Papoa-Nòva Guinèa",
          "name:os": "Папуæ — Ног Гвиней",
          "name:pa": "ਪਾਪੂਆ ਨਿਊ ਗਿਨੀ",
          "name:pl": "Papua-Nowa Gwinea",
          "name:pt": "Papua-Nova Guiné",
          "name:qu": "Papwa Ñukini",
          "name:ro": "Papua Noua Guinee",
          "name:ru": "Папуа — Новая Гвинея",
          "name:rw": "Papuwa Nuveli Gineya",
          "name:sa": "पपुवा न्यू गिनी",
          "name:se": "Papua-Ođđa-Guinea",
          "name:sg": "Papû Finî Ginëe",
          "name:sh": "Papua Nova Gvineja",
          "name:sk": "Papua-Nová Guinea",
          "name:sl": "Papua Nova Gvineja",
          "name:sm": "Papua",
          "name:sq": "Papua Guinea e Re",
          "name:sr": "Папуа Нова Гвинеја",
          "name:su": "Papua Nugini",
          "name:sv": "Papua Nya Guinea",
          "name:sw": "Papua Guinea Mpya",
          "name:ta": "பப்புவா நியூ கினி",
          "name:th": "ประเทศปาปัวนิวกินี",
          "name:tl": "Papua Bagong Ginea",
          "name:tr": "Papua Yeni Gine",
          "name:tt": "Папуа — Яңа Гвинея",
          "name:ug": "پاپۇئا يېڭى گۋىنېيە",
          "name:uk": "Папуа Нова Ґвінея",
          "name:ur": "پاپوا نیو گنی",
          "name:uz": "Papua Yangi Gvineya",
          "name:vi": "Papua New Guinea",
          "name:vo": "Papuveän Nula-Gineyän",
          "name:wo": "Papuwaasi-Gine-Gu-Bees",
          "name:yo": "Papua Guinea Titun",
          "name:zh": "巴布亚新几内亚 / 巴布亞紐幾內亞 / 巴布亞新畿內亞",
          "boundary": "administrative",
          "int_name": "Papua New Guinea",
          "name:ace": "Papua New Guinea",
          "name:als": "Papua-Neuguinea",
          "name:arz": "بابوا نيو جينيا",
          "name:ast": "Papúa Nueva Guinea",
          "name:bar": "Papua-Neuguinea",
          "name:bcl": "Papua Bagong Guineya",
          "name:bpy": "পাপুয়া নিউগিনি",
          "name:bxr": "Папуа-Шэнэ Гвинея",
          "name:ceb": "Papua New Guinea",
          "name:ckb": "پاپوا گینێی نوێ",
          "name:crh": "Papua Yañı Gvineya",
          "name:diq": "Papua Gineya Newiye",
          "name:dsb": "Papua-Neuguinea",
          "name:ext": "Papua Nueva Guinea",
          "name:frp": "Papoasie-Novèla-Guinê",
          "name:hak": "Pâ-pu-â Néu-kí-nui-â",
          "name:hif": "Papua New Guinea",
          "name:hsb": "Papuwa-Nowa Gineja",
          "name:ilo": "Papua Baro a Guinea",
          "name:lij": "Papua Neuva Guinea",
          "name:lmo": "Papua Növa Guinea",
          "name:mrj": "Папуа — У Гвиней",
          "name:nah": "Papua Yancuīc Guinea",
          "name:nan": "Papua Sin Guinea",
          "name:nds": "Papua-Niegguinea",
          "name:pam": "Papua New Guinea",
          "name:pih": "Papua Nyuu Gini",
          "name:pms": "Papua Neuva Guinea",
          "name:pnb": "پاپوانیوگنی",
          "name:sah": "Папуа Саҥа Гуинея",
          "name:sco": "Papua New Guinea",
          "name:smn": "Papua-Uđđâ-Guinea",
          "name:sms": "Papua-Ođđ-Guinea",
          "name:szl": "Papua-Nowŏ Gwinyjŏ",
          "name:tpi": "Papua Niugini",
          "name:vec": "Papua Nova Guinea",
          "name:vro": "Paapua Vahtsõnõ Ginea",
          "name:war": "Papúa Nueva Guinea",
          "name:xal": "Папуһасин болн Шин Гвинемудин Орн",
          "name:yue": "巴布亞新畿內亞",
          "way_area": "97.9129",
          "wikidata": "Q691",
          "ISO3166-1": "PG",
          "wikipedia": "en:Papua New Guinea",
          "admin_level": "2",
          "alt_name:vi": "Papua Tân Guinea;Pa-pua Niu Ghi-nê",
          "border_type": "nation",
          "name:simple": "Papua New Guinea",
          "driving_side": "left",
          "name:bat-smg": "Papua Naujuojė Gvėniejė",
          "name:zh-Hans": "巴布亚新几内亚",
          "name:zh-Hant": "巴布亞紐幾內亞 / 巴布亞新畿內亞",
          "name:be-tarask": "Папуа-Новая Гвінэя",
          "name:zh-Hant-tw": "巴布亞紐幾內亞",
          "ISO3166-1:alpha2": "PG",
          "ISO3166-1:alpha3": "PNG",
          "official_name:cs": "Nezávislý stát Papua Nová Guinea",
          "official_name:de": "Unabhängiger Staat Papua-Neuguinea",
          "official_name:en": "Independent State of Papua New Guinea",
          "official_name:es": "Estado Independiente de Papúa Nueva Guinea",
          "official_name:gn": "Tetã Hekosãsóva Papúa Ginéa Pyahu",
          "official_name:pt": "Estado Independente da Papua-Nova Guiné",
          "official_name:ru": "Независимое Государство Папуа — Новая Гвинея",
          "official_name:uk": "Незалежна Держава Папуа Нова Ґвінея",
          "ISO3166-1:numeric": "598"
        }
      },
      "geometry": {
        "type": "Polygon",
        "coordinates": [
          [
            [
              155.4018489,
              -10.864485
            ],
            [
              155.402095,
              -10.87563
            ],
            [
              155.4029669,
              -10.886745
            ],
            [
              155.4038939,
              -10.8941211
            ],
            [
              155.4050911,
              -10.9016269
            ],
            [
              155.4074231,
              -10.91279
            ],
            [
              155.4103919,
              -10.9238031
            ],
            [
              155.4127211,
              -10.9310461
            ],
            [
              155.415325,
              -10.9381961
            ],
            [
              155.4197389,
              -10.9487261
            ],
            [
              155.4247519,
              -10.9589911
            ],
            [
              155.4284169,
              -10.9656719
            ],
            [
              155.4321781,
              -10.9719981
            ],
            [
              155.4379969,
              -10.9809169
            ],
            [
              155.4442861,
              -10.9895189
            ],
            [
              155.45292265778895,
              -11
            ],
            [
              155.86818513964678,
              -11
            ],
            [
              155.8704439,
              -10.9990489
            ],
            [
              155.8769469,
              -10.9959669
            ],
            [
              155.8836631,
              -10.9925269
            ],
            [
              155.8934839,
              -10.98691
            ],
            [
              155.8998469,
              -10.9828681
            ],
            [
              155.9060539,
              -10.978595
            ],
            [
              155.9120961,
              -10.9740961
            ],
            [
              155.9175811,
              -10.9705589
            ],
            [
              155.9229481,
              -10.9668511
            ],
            [
              155.9334831,
              -10.9588761
            ],
            [
              155.9445061,
              -10.9497731
            ],
            [
              155.950245,
              -10.9447011
            ],
            [
              155.9557839,
              -10.9394169
            ],
            [
              155.9611181,
              -10.93393
            ],
            [
              155.9662369,
              -10.9282469
            ],
            [
              155.9711339,
              -10.9223761
            ],
            [
              155.9758031,
              -10.9163261
            ],
            [
              155.9823631,
              -10.906935
            ],
            [
              155.9877289,
              -10.9026381
            ],
            [
              155.9956069,
              -10.89578
            ],
            [
              156,
              -10.891635433607316
            ],
            [
              156,
              -10.570731413248954
            ],
            [
              155.9931731,
              -10.5651019
            ],
            [
              155.9842819,
              -10.5585489
            ],
            [
              155.9750419,
              -10.5524861
            ],
            [
              155.9687031,
              -10.548725
            ],
            [
              155.9595639,
              -10.5437511
            ],
            [
              155.9500019,
              -10.5391539
            ],
            [
              155.94021,
              -10.5350589
            ],
            [
              155.9290089,
              -10.5309319
            ],
            [
              155.9217469,
              -10.52852
            ],
            [
              155.9106939,
              -10.525415
            ],
            [
              155.8994819,
              -10.5229331
            ],
            [
              155.8883,
              -10.5210869
            ],
            [
              155.8773419,
              -10.519855
            ],
            [
              155.8663319,
              -10.5192131
            ],
            [
              155.8553039,
              -10.5191631
            ],
            [
              155.8442889,
              -10.519705
            ],
            [
              155.83332,
              -10.5208381
            ],
            [
              155.8260489,
              -10.52192
            ],
            [
              155.8151169,
              -10.5240339
            ],
            [
              155.8041,
              -10.5267581
            ],
            [
              155.7932531,
              -10.5300861
            ],
            [
              155.7826111,
              -10.53401
            ],
            [
              155.7756469,
              -10.5369489
            ],
            [
              155.768825,
              -10.5400931
            ],
            [
              155.7588611,
              -10.5451931
            ],
            [
              155.7494981,
              -10.5506161
            ],
            [
              155.7410211,
              -10.5560669
            ],
            [
              155.72906,
              -10.5632719
            ],
            [
              155.7224589,
              -10.5668089
            ],
            [
              155.715995,
              -10.5705861
            ],
            [
              155.704865,
              -10.57765
            ],
            [
              155.6990339,
              -10.5815489
            ],
            [
              155.6933439,
              -10.5856461
            ],
            [
              155.6878,
              -10.589935
            ],
            [
              155.6799561,
              -10.5955469
            ],
            [
              155.6713969,
              -10.6023219
            ],
            [
              155.6608931,
              -10.6075819
            ],
            [
              155.6552269,
              -10.6106361
            ],
            [
              155.6443139,
              -10.6171689
            ],
            [
              155.6351631,
              -10.6221039
            ],
            [
              155.6250889,
              -10.6280461
            ],
            [
              155.6137269,
              -10.6327881
            ],
            [
              155.6071269,
              -10.6344989
            ],
            [
              155.6005889,
              -10.6364281
            ],
            [
              155.5915419,
              -10.6394539
            ],
            [
              155.583205,
              -10.6425981
            ],
            [
              155.5714569,
              -10.6475639
            ],
            [
              155.5613219,
              -10.6525039
            ],
            [
              155.55458,
              -10.6561739
            ],
            [
              155.5479839,
              -10.6600939
            ],
            [
              155.5396211,
              -10.663945
            ],
            [
              155.5335131,
              -10.6670189
            ],
            [
              155.5222231,
              -10.6730281
            ],
            [
              155.5160961,
              -10.676585
            ],
            [
              155.5069119,
              -10.6822761
            ],
            [
              155.500585,
              -10.6865819
            ],
            [
              155.49146,
              -10.6933489
            ],
            [
              155.48565,
              -10.6979611
            ],
            [
              155.477265,
              -10.7052669
            ],
            [
              155.4643919,
              -10.7177381
            ],
            [
              155.45734,
              -10.7251181
            ],
            [
              155.4502631,
              -10.7332519
            ],
            [
              155.443635,
              -10.7417481
            ],
            [
              155.4361289,
              -10.7525619
            ],
            [
              155.4295,
              -10.7633411
            ],
            [
              155.4247111,
              -10.7721261
            ],
            [
              155.4190281,
              -10.7840231
            ],
            [
              155.4152869,
              -10.7931319
            ],
            [
              155.4129119,
              -10.7996489
            ],
            [
              155.410645,
              -10.8065969
            ],
            [
              155.4077261,
              -10.8171611
            ],
            [
              155.4053939,
              -10.827865
            ],
            [
              155.403655,
              -10.8386789
            ],
            [
              155.4028269,
              -10.8459339
            ],
            [
              155.4022281,
              -10.8533431
            ],
            [
              155.4018489,
              -10.864485
            ]
          ]
        ]
      }
    }
  ]
}