{
  "type": "FeatureCollection",
  "features": [
    {
      "type": "Feature",
      "properties": {
        "osm_id": -307866,
        "boundary": "administrative",
        "admin_level": 2,
        "parents": null,
        "name": "Papua New Guinea",
        "local_name": "Papua Niugini",
        "name_en": "Papua New Guinea",
        "all_tags": {
          "flag": "http://upload.wikimedia.org/wikipedia/commons/e/e3/Flag_of_Papua_New_Guinea.svg",
          "name": "Papua Niugini",
          "name:af": "Papoea-Nieu-Guinee",
          "name:am": "ፓፑዋ ኒው ጊኒ",
          "name:an": "Papua y Nueva Guinea",
          "name:ar": "بابوا غينيا الجديدة",
          "name:az": "Papua-Yeni Qvineya",
          "name:ba": "Папуа — Яңы Гвинея",
          "name:be": "Папуа — Новая Гвінея",
          "name:bg": "Папуа Нова Гвинея",
          "name:bi": "Papua New Guinea",
          "name:bn": "পাপুয়া নিউ গিনি",
          "name:bo": "པ་པུ་འ་ནིའུ་གི་ནེ།",
          "name:br": "Papoua Ginea-Nevez",
          "name:bs": "Papua Nova Gvineja",
          "name:ca": "Papua Nova Guinea",
          "name:ce": "Папуа — Керла Гвине",
          "name:cs": "Papua Nová Guinea",
          "name:cu": "Папоуа · Нова Гвинєꙗ",
          "name:cy": "Papua Guinea Newydd",
          "name:da": "Papua Ny Guinea",
          "name:de": "Papua-Neuguinea",
          "name:dv": "ޕަޕުއާ ނިއު ގިނީ",
          "name:el": "Παπούα Νέα Γουινέα",
          "name:en": "Papua New Guinea",
          "name:eo": "Papuo-Nov-Gvineo",
          "name:es": "Papua-Nueva Guinea",
          "name:et": "Paapua Uus-Guinea",
          "name:eu": "Papua Ginea Berria",
          "name:fa": "پاپوآ گینه نو",
          "name:fi": "Papua-Uusi-Guinea",
          "name:fo": "Papua Nýguinea",
          "name:fr": "Papouasie-Nouvelle-Guinée",
          "name:fy": "Papoea Nij-Guineä",
          "name:ga": "Nua-Ghuine Phapua",
          "name:gd": "Gini Nuadh Phaputhach",
          "name:gl": "Papúa Nova Guinea",
          "name:gn": "Papúa Ginéa Pyahu",
          "name:gv": "Papooey Guinea Noa",
          "name:he": "פפואה גינאה החדשה",
          "name:hi": "पापुआ न्यू गिनी",
          "name:hr": "Papua Nova Gvineja",
          "name:ht": "Papwazi-Nouvèl-Gine",
          "name:hu": "Pápua Új-Guinea",
          "name:hy": "Պապուա Նոր Գվինեա",
          "name:ia": "Papua Nove Guinea",
          "name:id": "Papua Nugini",
          "name:io": "Papua-Nova-Guinea",
          "name:is": "Papúa Nýja-Gínea",
          "name:it": "Papua Nuova Guinea",
          "name:ja": "パプアニューギニア",
          "name:jv": "Papua Nugini",
          "name:ka": "პაპუა-ახალი გვინეა",
          "name:kk": "Папуа Жаңа Гвинея",
          "name:kn": "ಪಾಪುಅ ನ್ಯೂ ಗಿನಿ",
          "name:ko": "파푸아 뉴기니",
          "name:ku": "Papua Gîneya Nû",
          "name:ky": "Папуа-Жаӊы-Гвинея.",
          "name:la": "Papua Nova Guinea",
          "name:lb": "Papua-Neiguinea",
          "name:li": "Papoea-Nui-Guinea",
          "name:lt": "Papua Naujoji Gvinėja",
          "name:lv": "Papua-Jaungvineja",
          "name:mi": "Papua Nūkini",
          "name:mk": "Папуа Нова Гвинеја",
          "name:ml": "പാപുവ ന്യൂ ഗിനിയ",
          "name:mr": "पापुआ न्यू गिनी",
          "name:ms": "Papua New Guinea",
          "name:mt": "Papwa Gwinea l-Ġdida",
          "name:my": "ပါပူအာနယူးဂီနီနိုင်ငံ",
          "name:na": "Papua New Guinea",
          "name:nl": "Papoea-Nieuw-Guinea",
          "name:nn": "Papua Ny-Guinea",
          "name:no": "Papua Ny-Guinea",
          "name:nv": "Páápowa Bigíní Ániidí",
          "name:oc": "Papoa-Nòva Guinèa",
          "name:os": "Папуæ — Ног Гвиней",
          "name:pa": "ਪਾਪੂਆ ਨਿਊ ਗਿਨੀ",
          "name:pl": "Papua-Nowa Gwinea",
          "name:pt": "Papua-Nova Guiné",
          "name:qu": "Papwa Ñukini",
          "name:ro": "Papua Noua Guinee",
          "name:ru": "Папуа — Новая Гвинея",
          "name:rw": "Papuwa Nuveli Gineya",
          "name:sa": "पपुवा न्यू गिनी",
          "name:se": "Papua-Ođđa-Guinea",
          "name:sg": "Papû Finî Ginëe",
          "name:sh": "Papua Nova Gvineja",
          "name:sk": "Papua-Nová Guinea",
          "name:sl": "Papua Nova Gvineja",
          "name:sm": "Papua",
          "name:sq": "Papua Guinea e Re",
          "name:sr": "Папуа Нова Гвинеја",
          "name:su": "Papua Nugini",
          "name:sv": "Papua Nya Guinea",
          "name:sw": "Papua Guinea Mpya",
          "name:ta": "பப்புவா நியூ கினி",
          "name:th": "ประเทศปาปัวนิวกินี",
          "name:tl": "Papua Bagong Ginea",
          "name:tr": "Papua Yeni Gine",
          "name:tt": "Папуа — Яңа Гвинея",
          "name:ug": "پاپۇئا يېڭى گۋىنېيە",
          "name:uk": "Папуа Нова Ґвінея",
          "name:ur": "پاپوا نیو گنی",
          "name:uz": "Papua Yangi Gvineya",
          "name:vi": "Papua New Guinea",
          "name:vo": "Papuveän Nula-Gineyän",
          "name:wo": "Papuwaasi-Gine-Gu-Bees",
          "name:yo": "Papua Guinea Titun",
          "name:zh": "巴布亚新几内亚 / 巴布亞紐幾內亞 / 巴布亞新畿內亞",
          "boundary": "administrative",
          "int_name": "Papua New Guinea",
          "name:ace": "Papua New Guinea",
          "name:als": "Papua-Neuguinea",
          "name:arz": "بابوا نيو جينيا",
          "name:ast": "Papúa Nueva Guinea",
          "name:bar": "Papua-Neuguinea",
          "name:bcl": "Papua Bagong Guineya",
          "name:bpy": "পাপুয়া নিউগিনি",
          "name:bxr": "Папуа-Шэнэ Гвинея",
          "name:ceb": "Papua New Guinea",
          "name:ckb": "پاپوا گینێی نوێ",
          "name:crh": "Papua Yañı Gvineya",
          "name:diq": "Papua Gineya Newiye",
          "name:dsb": "Papua-Neuguinea",
          "name:ext": "Papua Nueva Guinea",
          "name:frp": "Papoasie-Novèla-Guinê",
          "name:hak": "Pâ-pu-â Néu-kí-nui-â",
          "name:hif": "Papua New Guinea",
          "name:hsb": "Papuwa-Nowa Gineja",
          "name:ilo": "Papua Baro a Guinea",
          "name:lij": "Papua Neuva Guinea",
          "name:lmo": "Papua Növa Guinea",
          "name:mrj": "Папуа — У Гвиней",
          "name:nah": "Papua Yancuīc Guinea",
          "name:nan": "Papua Sin Guinea",
          "name:nds": "Papua-Niegguinea",
          "name:pam": "Papua New Guinea",
          "name:pih": "Papua Nyuu Gini",
          "name:pms": "Papua Neuva Guinea",
          "name:pnb": "پاپوانیوگنی",
          "name:sah": "Папуа Саҥа Гуинея",
          "name:sco": "Papua New Guinea",
          "name:smn": "Papua-Uđđâ-Guinea",
          "name:sms": "Papua-Ođđ-Guinea",
          "name:szl": "Papua-Nowŏ Gwinyjŏ",
          "name:tpi": "Papua Niugini",
          "name:vec": "Papua Nova Guinea",
          "name:vro": "Paapua Vahtsõnõ Ginea",
          "name:war": "Papúa Nueva Guinea",
          "name:xal": "Папуһасин болн Шин Гвинемудин Орн",
          "name:yue": "巴布亞新畿內亞",
          "way_area": "97.9129",
          "wikidata": "Q691",
          "ISO3166-1": "PG",
          "wikipedia": "en:Papua New Guinea",
          "admin_level": "2",
          "alt_name:vi": "Papua Tân Guinea;Pa-pua Niu Ghi-nê",
          "border_type": "nation",
          "name:simple": "Papua New Guinea",
          "driving_side": "left",
          "name:bat-smg": "Papua Naujuojė Gvėniejė",
          "name:zh-Hans": "巴布亚新几内亚",
          "name:zh-Hant": "巴布亞紐幾內亞 / 巴布亞新畿內亞",
          "name:be-tarask": "Папуа-Новая Гвінэя",
          "name:zh-Hant-tw": "巴布亞紐幾內亞",
          "ISO3166-1:alpha2": "PG",
          "ISO3166-1:alpha3": "PNG",
          "official_name:cs": "Nezávislý stát Papua Nová Guinea",
          "official_name:de": "Unabhängiger Staat Papua-Neuguinea",
          "official_name:en": "Independent State of Papua New Guinea",
          "official_name:es": "Estado Independiente de Papúa Nueva Guinea",
          "official_name:gn": "Tetã Hekosãsóva Papúa Ginéa Pyahu",
          "official_name:pt": "Estado Independente da Papua-Nova Guiné",
          "official_name:ru": "Независимое Государство Папуа — Новая Гвинея",
          "official_name:uk": "Незалежна Держава Папуа Нова Ґвінея",
          "ISO3166-1:numeric": "598"
        }
      },
      "geometry": {
        "type": "Polygon",
        "coordinates": [
          [
            [
              155.28328144509155,
              -7
            ],
            [
              155.297466,
              -7.0174797
            ],
            [
              155.3006779,
              -7.0318455
            ],
            [
              155.3144245,
              -7.0649043
            ],
            [
              155.3338292,
              -7.0949989
            ],
            [
              155.3361837,
              -7.097516
            ],
            [
              155.48256059343888,
              -7
            ],
            [
              155.28328144509155,
              -7
            ]
          ]
        ]
      }
    },
    {
      "type": "Feature",
      "properties": {
        "osm_id": -1857436,
        "boundary": "administrative",
        "admin_level": 2,
        "parents": null,
        "name": "Solomon Islands",
        "local_name": "Solomon Islands",
        "name_en": "Solomon Islands",
        "all_tags": {
          "flag": "http://upload.wikimedia.org/wikipedia/commons/7/74/Flag_of_the_Solomon_Islands.svg",
          "name": "Solomon Islands",
          "name:af": "Solomoneilande",
          "name:am": "ሰለሞን ደሴቶች",
          "name:an": "Islas Salomón",
          "name:ar": "جزر سليمان",
          "name:az": "Solomon adaları",
          "name:be": "Саламонавы Астравы",
          "name:bg": "Соломонови острови",
          "name:bn": "সলোমন দ্বীপপুঞ্জ",
          "name:bo": "སོ་ལོ་མོན་གླིང་ཕྲན་ཚོ་ཁག",
          "name:br": "Inizi Solomon",
          "name:bs": "Solomonska Ostrva",
          "name:ca": "Salomó",
          "name:ce": "Соломонан гӀайреш",
          "name:cs": "Šalomounovy ostrovy",
          "name:cv": "Соломон Утравĕсем",
          "name:cy": "Ynysoedd Solomon",
          "name:da": "Salomonøerne",
          "name:de": "Salomonen",
          "name:dv": "ސޮލޮމޮން ޖަޒީރާ",
          "name:el": "Νήσοι Σολομώντα",
          "name:en": "Solomon Islands",
          "name:eo": "Salomonoj",
          "name:es": "Islas Salomón",
          "name:et": "Saalomoni Saared",
          "name:eu": "Salomon Uharteak",
          "name:fa": "جزایر سلیمان",
          "name:fi": "Salomonsaaret",
          "name:fo": "Sálomonoyggjarnar",
          "name:fr": "Salomon",
          "name:fy": "Salomonseilannen",
          "name:ga": "Oileáin Sholamón",
          "name:gd": "Na h-Eileanan Sholaimh",
          "name:gl": "Illas Salomón",
          "name:gn": "Ypa'ũnguéra Salomõ",
          "name:gv": "Ny h-Ellanyn Holomon",
          "name:he": "איי שלמה",
          "name:hi": "सोलोमन द्वीपसमूह",
          "name:hr": "Solomonski Otoci",
          "name:ht": "Salomon",
          "name:hu": "Salamon-szigetek",
          "name:hy": "Սողոմոնյան Կղզիներ",
          "name:id": "Kepulauan Solomon",
          "name:io": "Salomon Insuli",
          "name:is": "Salómonseyjar",
          "name:it": "Isole Salomone",
          "name:ja": "ソロモン諸島",
          "name:jv": "Kapuloan Solomon",
          "name:ka": "სოლომონის კუნძულები",
          "name:kk": "Соломон Аралдары",
          "name:kn": "ಸಾಲೊಮನ್ ದ್ವೀಪಗಳು",
          "name:ko": "솔로몬 제도",
          "name:ku": "Giravên Salomon",
          "name:kw": "Ynysow Salamon",
          "name:la": "Insulae Salomonis",
          "name:lb": "Salomonen",
          "name:li": "Salomonseilen",
          "name:lt": "Saliamono Salos",
          "name:lv": "Zālamana Salas",
          "name:mk": "Соломонски Острови",
          "name:ml": "സോളമൻ ദ്വീപുകൾ",
          "name:mr": "सॉलोमन द्वीपसमूह",
          "name:ms": "Kepulauan Solomon",
          "name:mt": "Gżejjer Solomon",
          "name:my": "ဆော်လမွန်အိုင်းလန်းနိုင်ငံ",
          "name:ne": "सोलोमन द्धीप",
          "name:nl": "Salomonseilanden",
          "name:nn": "Salomonøyane",
          "name:no": "Salomonøyene",
          "name:nv": "Sólomon Tó Bináhaazyínígíí",
          "name:oc": "Illas Salamon",
          "name:or": "ସୋଲୋମନ ଆୟରଲ୍ୟାଣ୍ଡ",
          "name:os": "Соломоны сакъадæхтæ",
          "name:pa": "ਸੋਲੋਮਨ ਟਾਪੂ",
          "name:pl": "Wyspy Salomona",
          "name:pt": "Ilhas Salomão",
          "name:qu": "Salumun wat'akuna",
          "name:ro": "Insulele Solomon",
          "name:ru": "Соломоновы Острова",
          "name:rw": "Ibirwa bya Solomoni",
          "name:sa": "सोलोमन-द्वीप",
          "name:se": "Salomonsullot",
          "name:sh": "Solomonski Otoci",
          "name:si": "සොලමන් දුපත්",
          "name:sk": "Šalamúnove ostrovy",
          "name:sl": "Salomonovi otoki",
          "name:sm": "Solomon Islands",
          "name:so": "Jasiiradaha Solomon",
          "name:sq": "Ishujt Solomon",
          "name:sr": "Соломонска Острва",
          "name:su": "Kapuloan Solomon",
          "name:sv": "Salomonöarna",
          "name:sw": "Visiwa vya Solomon",
          "name:ta": "சொலமன் தீவுகள்",
          "name:te": "సోలమన్ దీవులు",
          "name:tg": "Ҷазираҳои Соломон",
          "name:th": "หมู่เกาะโซโลมอน",
          "name:tl": "Kapuluang Solomon",
          "name:tr": "Solomon Adaları",
          "name:ug": "سولومون تاقىم ئاراللىرى",
          "name:uk": "Соломонові Острови",
          "name:ur": "جزائر سلیمان",
          "name:uz": "Solomon Orollari",
          "name:vi": "Quần đảo Solomon",
          "name:vo": "Solomonuäns",
          "name:wo": "Duni Solomon",
          "name:yo": "Àwọn Erékùsù Sólómọ́nì",
          "name:zh": "所罗门群岛 / 索羅門群島",
          "boundary": "administrative",
          "name:ace": "Pulo-pulo Solomon",
          "name:als": "Salomonen",
          "name:arz": "جزر سولومون",
          "name:ast": "Islles Salomón",
          "name:bcl": "Islas Solomon",
          "name:bpy": "সলোমন দ্বীপমালা",
          "name:bxr": "Соломон аралууд",
          "name:ceb": "Kapupud-ang Solomon",
          "name:ckb": "دوورگەکانی سلێمان",
          "name:crh": "Solomon Adaları",
          "name:diq": "Adeyê Solomoni",
          "name:dsb": "Salomony",
          "name:ext": "Islas Salomón",
          "name:frp": "Iles Salomon",
          "name:hif": "Solomon Islands",
          "name:hsb": "Salomony",
          "name:ilo": "Is-isla ti Solomon",
          "name:ksh": "Salomone",
          "name:lij": "Isoe Salomon",
          "name:lmo": "Isul Salomon",
          "name:nah": "Salomón Tlālhuāctli",
          "name:nan": "Só͘-lô-bûn Kûn-tó",
          "name:nds": "Salomonen",
          "name:pam": "Solomon Islands",
          "name:pih": "Solamon Ailen",
          "name:pms": "Ìsole Salomon",
          "name:pnb": "سولومن آئلینڈ",
          "name:sah": "Соломон арыылара",
          "name:scn": "Ìsuli Salamuni",
          "name:sco": "Solomon Islands",
          "name:smn": "Salomonsuolluuh",
          "name:sms": "Salomoon-suõllu",
          "name:szl": "Wyspy ôd Salōmōna",
          "name:tpi": "Solomon Ailans",
          "name:vro": "Saalomoni saarõq",
          "name:war": "Kapuropod-an Solomon",
          "name:xal": "Соломонин Арлс",
          "name:yue": "所羅門群島",
          "timezone": "Pacific/Guadalcanal",
          "way_area": "19.9969",
          "wikidata": "Q685",
          "ISO3166-1": "SB",
          "wikipedia": "en:Solomon Islands",
          "admin_level": "2",
          "alt_name:mk": "Соломони",
          "border_type": "nation",
          "name:simple": "Solomon Islands",
          "driving_side": "left",
          "name:bat-smg": "Saliamuona Salas",
          "name:zh-Hans": "所罗门群岛",
          "name:zh-Hant": "索羅門群島",
          "name:be-tarask": "Саламонавы астравы",
          "ISO3166-1:alpha2": "SB",
          "ISO3166-1:alpha3": "SLB",
          "default_language": "en",
          "ISO3166-1:numeric": "090"
        }
      },
      "geometry": {
        "type": "Polygon",
        "coordinates": [
          [
            [
              155.3190556,
              -7.3929396
            ],
            [
              155.3210505,
              -7.4261152
            ],
            [
              155.3285046,
              -7.458507
            ],
            [
              155.3351604,
              -7.4793393
            ],
            [
              155.346893,
              -7.508134
            ],
            [
              155.3629427,
              -7.5347747
            ],
            [
              155.3879275,
              -7.5697809
            ],
            [
              155.4182361,
              -7.6034441
            ],
            [
              155.86720918813845,
              -8
            ],
            [
              156,
              -8
            ],
            [
              156,
              -7
            ],
            [
              155.48255975368215,
              -7
            ],
            [
              155.3256168,
              -7.1045543
            ],
            [
              155.3190556,
              -7.3929396
            ]
          ]
        ]
      }
    }
  ]
}