{"type" : "FeatureCollection", "features" : [{"type": "Feature", "geometry": {"type":"MultiPolygon","coordinates":[[[[12.4033246,43.9527342],[12.4043116,43.9504081],[12.404118,43.9494344],[12.405131,43.9477294],[12.4047353,43.9448801],[12.4054671,43.9421371],[12.4066669,43.9410454],[12.4109593,43.9388186],[12.4121743,43.9377492],[12.4124443,43.9371937],[12.411927,43.9361343],[12.4127529,43.9353605],[12.4137173,43.9339895],[12.4139507,43.9332387],[12.4149654,43.9320486],[12.4153697,43.9301652],[12.4147246,43.928748],[12.4124824,43.9272261],[12.4114175,43.9261955],[12.4093719,43.9246226],[12.4082729,43.9215224],[12.408275,43.920523],[12.408952,43.9190759],[12.4125026,43.9094041],[12.4120902,43.9082371],[12.4088474,43.9031971],[12.4088073,43.9021828],[12.410189,43.9016753],[12.4111373,43.9007866],[12.4115129,43.9007241],[12.4156115,43.900204],[12.4189033,43.9005289],[12.4203834,43.9007056],[12.4236817,43.9014453],[12.4249013,43.9030558],[12.4264072,43.903336],[12.4277791,43.90423],[12.4280608,43.9041518],[12.4280222,43.9033279],[12.4287423,43.9033835],[12.4287315,43.9029497],[12.4302857,43.9018092],[12.4307225,43.901909],[12.4325734,43.9014313],[12.4326033,43.9015555],[12.4337406,43.9018416],[12.4347546,43.9028872],[12.4347555,43.9032991],[12.4359089,43.9035297],[12.4362228,43.9031421],[12.4366418,43.9030665],[12.4370898,43.9035482],[12.437775,43.9033385],[12.4381518,43.9036107],[12.4377369,43.9041904],[12.4383576,43.9048064],[12.4395973,43.9055748],[12.4401339,43.9058107],[12.4428456,43.9059765],[12.4447812,43.903915],[12.4458499,43.9036621],[12.4479794,43.9024275],[12.4484038,43.9013346],[12.4482643,43.9005631],[12.4488278,43.8999545],[12.4484877,43.8996107],[12.4479516,43.899693],[12.4479174,43.8993073],[12.449448,43.8985388],[12.4492073,43.8978213],[12.4496945,43.8969874],[12.4511191,43.8956794],[12.4527057,43.8951272],[12.4534702,43.8945684],[12.4550049,43.8939278],[12.4554713,43.8941352],[12.4575962,43.8936325],[12.4576302,43.8938575],[12.4580909,43.8939212],[12.45855,43.8942964],[12.4587649,43.8940997],[12.4590389,43.8943019],[12.4602173,43.8945576],[12.462394,43.8937714],[12.4629654,43.8947581],[12.463816,43.8943772],[12.4652402,43.8948022],[12.4665183,43.8957164],[12.4676974,43.8953262],[12.4693908,43.8957865],[12.4699145,43.8975403],[12.4701438,43.8968514],[12.4707055,43.896119],[12.4721618,43.8965176],[12.4754075,43.896932],[12.4874043,43.8964693],[12.4884615,43.9000179],[12.4895996,43.9025535],[12.4911499,43.9039375],[12.492073,43.9050842],[12.4922879,43.9058834],[12.492771,43.9065303],[12.4929754,43.9076704],[12.4951406,43.9088255],[12.4955687,43.9093301],[12.4955045,43.9096156],[12.4952082,43.9098723],[12.4944892,43.9100879],[12.4933184,43.9101372],[12.4934899,43.9113654],[12.4932398,43.912995],[12.4934924,43.913427],[12.4934481,43.9153729],[12.4934199,43.915517],[12.4928817,43.9156075],[12.4924858,43.9161226],[12.4924419,43.9166256],[12.4925258,43.9174891],[12.4929354,43.9184486],[12.4933746,43.9188571],[12.4942328,43.9201925],[12.4963543,43.921259],[12.496521,43.9219958],[12.497393,43.9228159],[12.4989596,43.9228292],[12.5029261,43.9236295],[12.5032582,43.9240769],[12.5042177,43.9266501],[12.5040124,43.9270957],[12.5040464,43.9274563],[12.5046357,43.9293394],[12.5058918,43.930894],[12.5075019,43.9323614],[12.5072967,43.9335649],[12.5082048,43.9342062],[12.5099959,43.9347336],[12.5104629,43.9358735],[12.5104388,43.9363601],[12.5112267,43.9373008],[12.512122,43.9374811],[12.513126,43.9379547],[12.5132346,43.9382482],[12.5149524,43.9394581],[12.5155833,43.9403926],[12.516202,43.9407438],[12.5159588,43.9414386],[12.5158056,43.9435415],[12.5159172,43.943589],[12.5140782,43.9487298],[12.5134304,43.9500844],[12.5105491,43.953725],[12.5088561,43.9552559],[12.5063687,43.9580802],[12.5092669,43.9627065],[12.5074811,43.9642083],[12.5073535,43.9682049],[12.5059341,43.9711009],[12.509663,43.971538],[12.5107249,43.9720945],[12.5117337,43.9721661],[12.5123185,43.9728222],[12.5124036,43.9736352],[12.5114667,43.9751677],[12.5112736,43.9764372],[12.5113222,43.9778595],[12.5108346,43.9783527],[12.5104889,43.9794425],[12.5106185,43.9798849],[12.5105365,43.9803551],[12.510015,43.9809254],[12.5102475,43.9810483],[12.5102402,43.9814514],[12.5109328,43.9817046],[12.5114883,43.9825174],[12.511865,43.9826963],[12.5118105,43.9829597],[12.5123634,43.9839885],[12.5137395,43.9845243],[12.5159305,43.9845966],[12.5149437,43.9884118],[12.5150723,43.9895089],[12.5144173,43.9908321],[12.5134335,43.9913158],[12.5129643,43.9911019],[12.5095851,43.9909483],[12.5093026,43.9914323],[12.5096217,43.992093],[12.5092273,43.992074],[12.5080658,43.9914923],[12.5086196,43.9910826],[12.5085596,43.9908823],[12.508307,43.9908309],[12.5066144,43.9916017],[12.5058589,43.9907593],[12.5058002,43.9908842],[12.5039618,43.9910759],[12.5037024,43.9906444],[12.5047178,43.9903834],[12.5040886,43.9893887],[12.5041492,43.9891076],[12.5030942,43.988884],[12.5035375,43.9881897],[12.5025265,43.9874484],[12.5022325,43.9868563],[12.5019918,43.9867443],[12.5010143,43.9869564],[12.5005167,43.9868879],[12.4998006,43.9865654],[12.4988756,43.985748],[12.4982835,43.9861558],[12.4961173,43.9863277],[12.4946943,43.9848888],[12.4947969,43.9845952],[12.494434,43.9846249],[12.4940278,43.9841281],[12.4925576,43.9829685],[12.4901683,43.9832978],[12.4887261,43.9825043],[12.4867077,43.9818482],[12.4855521,43.9812976],[12.4831464,43.9808761],[12.4816069,43.9810133],[12.4787593,43.9807022],[12.4764288,43.9798069],[12.4756084,43.9798201],[12.4752124,43.9795241],[12.4739272,43.9791877],[12.472952,43.9786416],[12.4717857,43.9784852],[12.4704384,43.9777674],[12.4697903,43.9776951],[12.4684437,43.9769146],[12.4682471,43.9765012],[12.4677458,43.9762498],[12.46363,43.9746863],[12.4529394,43.9692955],[12.4489538,43.9660908],[12.4464517,43.9656486],[12.4415436,43.9607207],[12.4391095,43.9593988],[12.4377856,43.9582643],[12.4365217,43.9566339],[12.4198594,43.9578028],[12.4189504,43.9561998],[12.4159852,43.9528503],[12.415686,43.9531622],[12.4151495,43.9530827],[12.4145425,43.9533123],[12.4141954,43.95312],[12.4139088,43.9526561],[12.4127274,43.9527601],[12.4115237,43.9524188],[12.4099506,43.9532172],[12.408666,43.9533152],[12.4062671,43.9542941],[12.4055388,43.9543865],[12.404913,43.9549344],[12.4044776,43.9557453],[12.4036572,43.95476],[12.4034718,43.9543046],[12.4033246,43.9527342]]]]}, "properties": {"osm_id": -54624, "boundary": "administrative", "admin_level": 2, "parents": null, "name": "San Marino", "local_name": "San Marino", "name_en": "San Marino", "all_tags": {"flag": "https://upload.wikimedia.org/wikipedia/commons/b/b1/Flag_of_San_Marino.svg", "name": "San Marino", "name:ar": "سان مارينو", "name:be": "Сан-Марына", "name:bg": "Сан Марино", "name:cs": "San Marino", "name:de": "San Marino", "name:el": "Άγιος Μαρίνος", "name:en": "San Marino", "name:eo": "San-Marino", "name:es": "San Marino", "name:fa": "سان مارینو", "name:fi": "San Marino", "name:fr": "Saint-Marin", "name:fy": "San Marino", "name:gn": "San Maríno", "name:hr": "San Marino", "name:ia": "San Marino", "name:io": "San Marino", "name:ja": "サンマリノ", "name:kk": "Сан-Марино", "name:ks": "سان مارینو", "name:la": "Sanctus Marinus", "name:lt": "San Marinas", "name:mi": "Hato Marino", "name:mk": "Сан Марино", "name:nl": "San Marino", "name:pa": "ਸਾਨ ਮਰੀਨੋ", "name:pl": "San Marino", "name:ps": "سان مارینو", "name:pt": "San Marino", "name:ru": "Сан-Марино", "name:sd": "سان مارينو", "name:se": "San Marino", "name:sk": "San Maríno", "name:sr": "Сан Марино", "name:ta": "சான் மரீனோ", "name:ug": "سان مارىنو", "name:uk": "Сан-Маріно", "name:ur": "سان مارینو", "name:vo": "Sanmarinän", "boundary": "administrative", "name:arc": "ܣܢ ܡܪܝܢܘ", "name:azb": "سان مارینو", "name:ckb": "سان مارینۆ", "name:grc": "Ἅγιος Μαρῖνος", "name:jbo": "syn.marinos", "name:kmr": "سان مارینۆ", "name:mzn": "سان مارینو", "name:pnb": "سان مرینو", "name:rgn": "San Marein", "name:scn": "San Marinu", "name:smn": "San Marino", "name:sms": "San Marino", "name:syc": "ܣܢ ܡܪܝܢܘ", "name:szl": "San Marino", "name:tok": "ma San Malino", "name:tzl": "San Marino", "timezone": "Europe/San_Marino", "way_area": "0.00686107", "wikidata": "Q238", "ISO3166-1": "SM", "land_area": "administrative", "wikipedia": "it:San Marino", "population": "33600", "admin_level": "2", "name:az-Arab": "سان مارینو", "name:kk-Arab": "سان مارىينو", "name:ku-Arab": "سان مارینۆ", "name:sr-Latn": "San Marino", "name:zh-Hans": "圣马力诺", "name:zh-Hant": "聖馬力諾", "name:kab-Arab": "سان مارين", "official_name": "Serenissima Repubblica di San Marino", "name:be-tarask": "Сан-Марына", "population:date": "2021", "ISO3166-1:alpha2": "SM", "ISO3166-1:alpha3": "SMR", "default_language": "it", "official_name:ar": "جمهورية سان مارينو", "official_name:cs": "Republika San Marino", "official_name:de": "Republik San Marino", "official_name:eo": "Respubliko San-Marino", "official_name:es": "Serenísima República de San Marino", "official_name:fa": "جمهوری سان مارینو", "official_name:fr": "République de Saint-Marin", "official_name:ia": "Serenissime Republica de San Marino", "official_name:la": "Res publica Sancti Marini", "official_name:mk": "Република Сан Марино", "official_name:pa": "ਸੈਨ ਮਾਰੀਨੋ ਦਾ ਗਣਤੰਤਰ", "official_name:pl": "Republika San Marino", "official_name:ps": "د سان مارینو جمهوريت", "official_name:ru": "Республика Сан-Марино", "official_name:ur": "جمہوریہ سان مارینو", "ISO3166-1:numeric": "674", "official_name:arc": "ܩܘܛܢܝܘܬܐ ܕܣܢ ܡܪܝܢܘ", "official_name:grc": "Πολιτεία τοῦ Ἁγίου Μαρίνου", "official_name:rgn": "Ripóbblica d' San Marein", "official_name:syc": "ܩܘܛܢܝܘܬܐ ܕܣܢ ܡܪܝܢܘ", "official_name:kk-Arab": "سان مارىينو مارتەبەلى رەسپۋبلىيكاسى"}}}]}