{"type" : "FeatureCollection", "features" : [{"type": "Feature", "geometry": {"type":"MultiPolygon","coordinates":[[[[1.4077997,42.486294],[1.4111009,42.4835786],[1.4131335,42.4841975],[1.4154881,42.4842508],[1.4173887,42.4823861],[1.4202306,42.4827517],[1.4283583,42.4822806],[1.4312771,42.4824392],[1.4333876,42.4817731],[1.4338041,42.4809556],[1.4410304,42.4754801],[1.4412514,42.4749943],[1.4412336,42.4745719],[1.440403,42.4724612],[1.4402156,42.47119],[1.4405333,42.469665],[1.4406748,42.4675437],[1.4405942,42.4658902],[1.4401216,42.4643689],[1.4405053,42.4637777],[1.4429258,42.4629274],[1.4445177,42.4618842],[1.4472227,42.4605905],[1.4474698,42.4601308],[1.4461635,42.4590291],[1.4455491,42.4580806],[1.4433023,42.4570874],[1.4418284,42.4558482],[1.4414494,42.4553047],[1.4420493,42.4527873],[1.4415964,42.4520576],[1.4417739,42.4516456],[1.443723,42.4503274],[1.4462107,42.4482048],[1.4453203,42.4466188],[1.4463408,42.4452376],[1.446796,42.4437703],[1.4425834,42.4447083],[1.4432567,42.4439168],[1.4438243,42.4423192],[1.444393,42.4414237],[1.4472306,42.4394407],[1.450045,42.4379897],[1.4524043,42.4369795],[1.4551833,42.436061],[1.4565441,42.4358819],[1.4597958,42.4363134],[1.4620994,42.4364036],[1.4691654,42.4361188],[1.4724653,42.4355457],[1.4731823,42.4349811],[1.4737594,42.4348077],[1.4760044,42.4352991],[1.4791653,42.4340623],[1.4809606,42.4337678],[1.4823915,42.4339457],[1.483501,42.4332628],[1.4849418,42.4330935],[1.4960686,42.4331376],[1.5039403,42.4315584],[1.5051912,42.4306988],[1.5064272,42.4304791],[1.5073217,42.4299036],[1.5083064,42.4297388],[1.5096046,42.4298767],[1.5128402,42.4289027],[1.5157512,42.4288238],[1.516282,42.4289379],[1.5170338,42.4294214],[1.5183969,42.4307991],[1.518834,42.4309619],[1.5229879,42.4310949],[1.5238409,42.4312952],[1.5257503,42.432156],[1.5294344,42.4325144],[1.5349743,42.4324839],[1.5389911,42.4330719],[1.5395466,42.4330228],[1.5413261,42.432421],[1.5425258,42.4323733],[1.5437745,42.4326658],[1.546282,42.4327193],[1.5481306,42.43324],[1.5510875,42.4326182],[1.5526311,42.4334571],[1.5529359,42.4338051],[1.5532606,42.4350977],[1.5527231,42.4357313],[1.5533874,42.4380187],[1.5532847,42.4392832],[1.554079,42.440179],[1.5530422,42.4434795],[1.5551386,42.4464032],[1.5557849,42.4467646],[1.5587614,42.4477445],[1.5596772,42.4483022],[1.5601383,42.4489591],[1.5601644,42.4493182],[1.5590642,42.4507397],[1.5587553,42.4518414],[1.5580658,42.4523911],[1.557893,42.4528572],[1.557113,42.4535005],[1.5570097,42.4539188],[1.5570583,42.4544211],[1.5574038,42.4549926],[1.5580818,42.4556228],[1.5601249,42.4583055],[1.5605466,42.4585858],[1.5616602,42.4586855],[1.563335,42.4581415],[1.5654198,42.4585535],[1.5663719,42.4589387],[1.5674495,42.4588776],[1.5684384,42.458433],[1.5695975,42.4574863],[1.5701828,42.4565085],[1.5713525,42.4555434],[1.5721767,42.4540068],[1.5744669,42.4520695],[1.5765771,42.4511657],[1.5775927,42.4500896],[1.5788543,42.449886],[1.5811997,42.450195],[1.5821596,42.452121],[1.5826637,42.4537306],[1.5834177,42.4553564],[1.583624,42.456521],[1.583865,42.456882],[1.5841352,42.4569724],[1.5855224,42.4591185],[1.5856715,42.4604895],[1.5861342,42.4611642],[1.5867117,42.4617443],[1.5881149,42.4626424],[1.5903367,42.4634267],[1.5922909,42.4647078],[1.5947727,42.4658867],[1.5968831,42.4673057],[1.5976114,42.4676186],[1.5987321,42.4676456],[1.6017613,42.4661733],[1.6037821,42.4655429],[1.6064137,42.4643715],[1.6092182,42.4646072],[1.6103055,42.4650204],[1.6105108,42.4652722],[1.6114617,42.4649748],[1.6122258,42.4653503],[1.6148837,42.4652958],[1.6152287,42.4651018],[1.6188683,42.4647121],[1.6205683,42.4654653],[1.6225665,42.4656776],[1.6254749,42.4648848],[1.6268161,42.4641104],[1.6275307,42.4640725],[1.6285857,42.464363],[1.6291495,42.4642592],[1.6298462,42.4639789],[1.6306012,42.4633361],[1.63168,42.4627495],[1.6316418,42.4631119],[1.6319443,42.463741],[1.632347,42.4655705],[1.632872,42.4664226],[1.6343072,42.4670848],[1.6350459,42.467208],[1.6361739,42.4680891],[1.6405201,42.4665811],[1.6425256,42.4667919],[1.642802,42.4671819],[1.64504,42.4686668],[1.6457538,42.4687819],[1.6467199,42.4686473],[1.6487246,42.4673558],[1.6509076,42.4671141],[1.6535853,42.4673114],[1.6570261,42.46845],[1.6577557,42.4691046],[1.6591725,42.4714779],[1.6618527,42.4733407],[1.6624963,42.4739807],[1.6623837,42.4747631],[1.6626832,42.4755127],[1.6615168,42.477325],[1.6608522,42.4790177],[1.663237,42.479848],[1.6632892,42.4815295],[1.6618271,42.4841101],[1.6623395,42.4884628],[1.6622532,42.4901612],[1.6628134,42.4918041],[1.6623289,42.4931384],[1.6682688,42.4928959],[1.6697318,42.4940095],[1.6759573,42.4945824],[1.6794754,42.4946808],[1.6811822,42.4942418],[1.6859881,42.4955489],[1.6887139,42.4947173],[1.6900362,42.49401],[1.6909581,42.4938997],[1.692636,42.4930071],[1.6984318,42.4909719],[1.7005904,42.4910607],[1.7021602,42.4900958],[1.7038417,42.4895387],[1.7074028,42.4910598],[1.7113736,42.4922559],[1.7143786,42.4946802],[1.7201223,42.4976851],[1.7236015,42.5001695],[1.725891,42.5026989],[1.7256731,42.5082624],[1.7261687,42.5106187],[1.7259466,42.5113814],[1.7256058,42.5148528],[1.7252228,42.5156057],[1.7244072,42.516058],[1.7225307,42.5176901],[1.7233221,42.5181791],[1.7252713,42.5188325],[1.726577,42.5184502],[1.7275879,42.5186721],[1.7279609,42.5194908],[1.7296903,42.5204015],[1.7287853,42.522621],[1.7288837,42.5247001],[1.7290789,42.5253274],[1.7296584,42.5260206],[1.730586,42.5264743],[1.7306075,42.5267624],[1.7312904,42.5277862],[1.7314869,42.5288732],[1.7316375,42.528939],[1.7323998,42.5281633],[1.7326223,42.5276648],[1.7331395,42.5276574],[1.7335828,42.5278975],[1.7339233,42.5283216],[1.7338089,42.5287019],[1.7342414,42.5292743],[1.7341896,42.5295474],[1.7333042,42.5300845],[1.7331035,42.5306337],[1.7331883,42.5309887],[1.7334984,42.5312541],[1.7336614,42.5322602],[1.7342455,42.532646],[1.7342907,42.5329686],[1.7348599,42.5336817],[1.7342205,42.5350369],[1.7344323,42.5365477],[1.7341916,42.5369572],[1.733682,42.537304],[1.7336501,42.5375635],[1.7339057,42.5378254],[1.733505,42.5382193],[1.7334962,42.538797],[1.7336501,42.5390186],[1.7340816,42.5391539],[1.7344343,42.5403772],[1.733981,42.5408653],[1.7341218,42.5413208],[1.7340159,42.541557],[1.7342546,42.5419957],[1.7355769,42.5428346],[1.7356894,42.5432706],[1.7352587,42.5437867],[1.7350768,42.5443909],[1.7356112,42.5449427],[1.7354663,42.5458853],[1.7356263,42.5464505],[1.7347187,42.5475793],[1.7348675,42.547847],[1.7363012,42.5485752],[1.7367618,42.548703],[1.7377666,42.5485547],[1.7375757,42.5490901],[1.7379149,42.549538],[1.7368784,42.5496129],[1.7365944,42.5494638],[1.7365012,42.5491269],[1.7348163,42.5483944],[1.734444,42.5490119],[1.7350157,42.5500394],[1.735288,42.549868],[1.735666,42.550016],[1.7363844,42.5507805],[1.737014,42.5510463],[1.7368797,42.5514768],[1.7369598,42.5517542],[1.7375142,42.5519835],[1.737704,42.5522122],[1.7377821,42.552723],[1.7381311,42.5529535],[1.7384218,42.5534405],[1.7380046,42.5542465],[1.7384577,42.554574],[1.7388868,42.5551747],[1.7389196,42.5556338],[1.7398844,42.5560193],[1.7399867,42.5562078],[1.7396811,42.5567405],[1.7407571,42.5570384],[1.7410071,42.5573647],[1.7413723,42.5575138],[1.7418957,42.5574526],[1.7421614,42.5582516],[1.742945,42.5582733],[1.7428241,42.5584245],[1.7432569,42.5585905],[1.7432183,42.5589974],[1.7436315,42.5593131],[1.7436363,42.5594966],[1.7443061,42.5598213],[1.7445129,42.5601561],[1.7448399,42.5601789],[1.744869,42.5603767],[1.7451553,42.5605105],[1.7449149,42.5610255],[1.7468804,42.5620143],[1.7467984,42.5623392],[1.7470915,42.5626258],[1.7479153,42.5628155],[1.748106,42.5631802],[1.7494794,42.5631326],[1.7503403,42.5641211],[1.7506264,42.5641896],[1.7512122,42.5640108],[1.7514941,42.5642809],[1.7526067,42.5642931],[1.753634,42.5648818],[1.7542827,42.5648726],[1.7546551,42.5650455],[1.7551136,42.5649634],[1.7557218,42.5651389],[1.7565013,42.5648533],[1.7569912,42.5650493],[1.7577382,42.5648205],[1.7587193,42.5650491],[1.7592651,42.5653956],[1.7605585,42.5652122],[1.7614217,42.565351],[1.7619707,42.5651215],[1.7625994,42.565439],[1.7630969,42.5653176],[1.7640355,42.565601],[1.7644793,42.5653827],[1.7650481,42.5655602],[1.7654528,42.5654914],[1.7656666,42.56506],[1.7658656,42.5650104],[1.7671944,42.5651033],[1.7676769,42.5646409],[1.7680533,42.564533],[1.7686515,42.5648695],[1.7696286,42.5648431],[1.7702041,42.5653514],[1.7703393,42.5656876],[1.7708933,42.5657627],[1.7710739,42.5659409],[1.7711254,42.5663878],[1.7717946,42.5661317],[1.7725098,42.5662934],[1.7732058,42.5662072],[1.7740716,42.566848],[1.7749518,42.5672167],[1.7751038,42.567928],[1.7762289,42.5678218],[1.7768577,42.568083],[1.7769976,42.5684861],[1.7784143,42.568834],[1.7787144,42.5691641],[1.7805352,42.5699769],[1.7807215,42.5702299],[1.7817517,42.5705691],[1.7821742,42.5712896],[1.7833928,42.5719341],[1.7849584,42.5723367],[1.7851505,42.5727609],[1.785073,42.5732518],[1.7858201,42.5733038],[1.786664,42.5741828],[1.7861903,42.5746785],[1.7847069,42.5753821],[1.7831251,42.5801197],[1.78118,42.58253],[1.7682962,42.580141],[1.7600986,42.5809222],[1.7555043,42.5826268],[1.7537594,42.582669],[1.7510638,42.5845205],[1.7481994,42.5850816],[1.7419455,42.5878725],[1.7371009,42.5878606],[1.7348812,42.588147],[1.733715,42.5887995],[1.7328924,42.5883091],[1.7316027,42.5879591],[1.7276538,42.5882686],[1.7268146,42.5890618],[1.7268159,42.5898819],[1.7263033,42.5913994],[1.7270029,42.5919231],[1.7270214,42.5968441],[1.727676,42.6010001],[1.7302129,42.6004497],[1.732985,42.603519],[1.7338747,42.6075698],[1.7384087,42.6117099],[1.7361106,42.615652],[1.73608,42.6178377],[1.7350553,42.6174573],[1.7332333,42.6155792],[1.7319813,42.6146994],[1.7302339,42.6146174],[1.7227373,42.6167283],[1.7214072,42.6158554],[1.7198288,42.6151673],[1.7154978,42.6145763],[1.7133034,42.6149958],[1.7078756,42.6181653],[1.7054542,42.6191921],[1.7008524,42.6223242],[1.6985702,42.6228381],[1.6965939,42.622386],[1.6945117,42.6225423],[1.6921293,42.6219763],[1.691181,42.6227071],[1.6907697,42.6228421],[1.690531,42.623352],[1.6890226,42.6238513],[1.6858219,42.6241662],[1.683443,42.6249425],[1.6804765,42.6247542],[1.6797394,42.6240801],[1.6784875,42.6225038],[1.6746472,42.622288],[1.6729577,42.6211113],[1.6707728,42.6214715],[1.669353,42.6213241],[1.6676988,42.621682],[1.6661337,42.6210732],[1.6651325,42.6204786],[1.6643992,42.6193668],[1.6639012,42.6189812],[1.6631695,42.6190918],[1.6626009,42.6194655],[1.66201,42.6194608],[1.6612658,42.6198181],[1.6605662,42.6204339],[1.6596655,42.620488],[1.655366,42.6224787],[1.6550893,42.6244289],[1.6531544,42.6263668],[1.6498178,42.6270947],[1.6421976,42.6282945],[1.639353,42.6281823],[1.6385483,42.6285505],[1.637122,42.630316],[1.6304594,42.6278073],[1.6298915,42.6272445],[1.6285657,42.6266562],[1.6264726,42.6266549],[1.6239578,42.6270047],[1.622267,42.6275731],[1.6198558,42.6260082],[1.6191504,42.6257606],[1.6184532,42.6258087],[1.6174399,42.6262496],[1.6171784,42.6265863],[1.6165465,42.6268588],[1.6113359,42.6267326],[1.6106059,42.6273659],[1.6104643,42.6277266],[1.6093857,42.6285683],[1.6081654,42.6284641],[1.6064658,42.627438],[1.604777,42.6267646],[1.6038785,42.6257687],[1.6025216,42.6255422],[1.6003844,42.6258772],[1.5969107,42.6301286],[1.5955747,42.6308952],[1.5951507,42.6319332],[1.5944409,42.6326162],[1.5926959,42.6330643],[1.5925124,42.6333157],[1.5890832,42.6333855],[1.5879317,42.6336788],[1.5866473,42.6337417],[1.5857193,42.6334575],[1.5843433,42.6339381],[1.5840406,42.6342327],[1.5839267,42.6347168],[1.5827499,42.6356198],[1.5810603,42.6365871],[1.5803532,42.6368285],[1.579966,42.6374443],[1.5798711,42.6382542],[1.5792764,42.6387941],[1.5792194,42.6394271],[1.5795451,42.6407346],[1.5791681,42.6419081],[1.5765703,42.6428339],[1.5760117,42.643268],[1.5758493,42.646229],[1.5749663,42.647129],[1.5747276,42.6475236],[1.5747943,42.6479347],[1.5725807,42.6480716],[1.5712613,42.6479242],[1.569547,42.6481052],[1.5683232,42.6485409],[1.5675293,42.6496148],[1.5668044,42.6501054],[1.5665284,42.6509663],[1.5653109,42.6520607],[1.562287,42.6535635],[1.5606224,42.6534695],[1.5591671,42.6528046],[1.5581418,42.6520488],[1.5558665,42.6531139],[1.5502197,42.6551626],[1.5492987,42.6559357],[1.5471188,42.6550278],[1.5430017,42.6539271],[1.5417003,42.6530671],[1.5384266,42.6524711],[1.5362901,42.6506794],[1.5334268,42.6497571],[1.5317806,42.6508257],[1.5283562,42.6518063],[1.525198,42.6505699],[1.5240173,42.6495779],[1.5221905,42.6486647],[1.520769,42.6466507],[1.5187225,42.6454747],[1.5170458,42.6458592],[1.5128856,42.6460422],[1.5066124,42.6452694],[1.5012149,42.6454761],[1.4993566,42.6459371],[1.4979939,42.6481358],[1.4937589,42.6534892],[1.4870487,42.651924],[1.4800837,42.6512148],[1.4787773,42.6514498],[1.4785957,42.6503422],[1.4788092,42.6486692],[1.4779869,42.6468174],[1.4772575,42.6456576],[1.4769565,42.6445491],[1.4779548,42.6435506],[1.4777379,42.6423331],[1.4769949,42.6406393],[1.4723124,42.6366722],[1.4703186,42.6357176],[1.4700352,42.636075],[1.4694584,42.6338453],[1.4680186,42.6308896],[1.4711014,42.6294066],[1.471316,42.6282428],[1.4705824,42.6260547],[1.4711685,42.6247072],[1.472077,42.6237578],[1.4725685,42.6226663],[1.4735591,42.622062],[1.4750056,42.6180323],[1.4759742,42.6164325],[1.4775431,42.6146403],[1.4768834,42.6134593],[1.4766019,42.6130817],[1.4755831,42.6127624],[1.4750414,42.6123704],[1.4748768,42.6116996],[1.4728722,42.6100942],[1.4704844,42.608964],[1.4689753,42.606463],[1.4673829,42.6064884],[1.4646436,42.6069182],[1.4640241,42.6067878],[1.4639392,42.6064838],[1.4631586,42.6055402],[1.4614921,42.6056473],[1.4595102,42.6047676],[1.4587379,42.6033323],[1.4561692,42.6020278],[1.4541149,42.6025608],[1.4509584,42.6023687],[1.4481871,42.6036006],[1.447125,42.6037336],[1.4456716,42.6035256],[1.4433331,42.6035278],[1.4419909,42.6037228],[1.4426756,42.6027558],[1.4428628,42.6015039],[1.4428035,42.598759],[1.4421881,42.5983942],[1.4408335,42.5961218],[1.4405211,42.5948336],[1.4405939,42.5944398],[1.4383921,42.5922966],[1.4375964,42.5917861],[1.4358685,42.5916773],[1.4324458,42.5890158],[1.4303704,42.5877626],[1.4290401,42.5877674],[1.4276581,42.5874554],[1.4274448,42.5867266],[1.4274737,42.5849204],[1.4266051,42.5833438],[1.4283011,42.5800784],[1.4306684,42.5773391],[1.431578,42.5767752],[1.4318003,42.5756873],[1.4338695,42.5743014],[1.4363594,42.5731824],[1.4374021,42.572961],[1.4411074,42.5727146],[1.4434009,42.5719235],[1.4435813,42.5713491],[1.4435478,42.5702586],[1.4438994,42.5693705],[1.4449787,42.5681995],[1.4443594,42.5672426],[1.443427,42.5666235],[1.4410913,42.5643177],[1.4400608,42.5638715],[1.4366683,42.5630938],[1.4356,42.5624384],[1.4307507,42.560541],[1.4279867,42.5590705],[1.4252275,42.5579616],[1.4230386,42.5554866],[1.422795,42.5536188],[1.4223015,42.5521523],[1.4212903,42.5509399],[1.4208081,42.5499771],[1.4205264,42.5497809],[1.4192789,42.549532],[1.4190286,42.5487814],[1.4194324,42.5453303],[1.4185402,42.5440772],[1.4173735,42.5435911],[1.4160847,42.5419025],[1.4143794,42.5400737],[1.4143211,42.5378868],[1.4139407,42.5367744],[1.4138791,42.5360124],[1.4135781,42.5353776],[1.4177839,42.535807],[1.4210093,42.5369605],[1.4253863,42.5391306],[1.4264438,42.5392787],[1.429138,42.5392857],[1.4310123,42.5396036],[1.4326473,42.5400794],[1.4351812,42.5417944],[1.4367728,42.5431193],[1.4386509,42.5436767],[1.4418183,42.5434638],[1.4429108,42.5431512],[1.444061,42.542579],[1.450724,42.540077],[1.451969,42.5394539],[1.4525271,42.5387141],[1.4526245,42.5374611],[1.4518489,42.5346684],[1.4511774,42.5341327],[1.4513407,42.5328698],[1.4520265,42.5311932],[1.4526509,42.5306602],[1.4537854,42.5291289],[1.454921,42.5281648],[1.4548047,42.5271865],[1.4551062,42.5264299],[1.4567898,42.5260352],[1.4575136,42.5256018],[1.4599545,42.5234718],[1.4602687,42.5224151],[1.4633294,42.5191713],[1.4643638,42.5163545],[1.4683999,42.509996],[1.4668285,42.5094457],[1.46249,42.5066258],[1.4607144,42.5052725],[1.4603314,42.5044741],[1.4564299,42.5029905],[1.4535079,42.5012263],[1.4519768,42.4999291],[1.4454062,42.4968292],[1.4436321,42.4953225],[1.4416962,42.496579],[1.438681,42.4962927],[1.4355416,42.495316],[1.4316335,42.4937593],[1.4292775,42.493741],[1.4283778,42.4927966],[1.427764,42.4929404],[1.4259166,42.492969],[1.4254508,42.4931847],[1.4236146,42.4933455],[1.4226876,42.492682],[1.4176465,42.4924928],[1.4134142,42.4896351],[1.4117972,42.4882761],[1.4077997,42.486294]]]]}, "properties": {"osm_id": -9407, "boundary": "administrative", "admin_level": 2, "parents": null, "name": "Andorra", "local_name": "Andorra", "name_en": "Andorra", "all_tags": {"flag": "http://upload.wikimedia.org/wikipedia/commons/1/19/Flag_of_Andorra.svg", "name": "Andorra", "name:ab": "ĞĞ½Ğ´Ğ¾Ñ€Ğ°", "name:af": "Andorra", "name:ak": "Andora", "name:am": "áŠ áŠ•á‹¶áˆ«", "name:an": "Andorra", "name:ar": "Ø£Ù†Ø¯ÙˆØ±Ø§", "name:av": "ĞĞ½Ğ´Ğ¾ÌÑ€Ñ€Ğ°", "name:az": "Andorra", "name:ba": "ĞĞ½Ğ´Ğ¾ÌÑ€Ñ€Ğ°", "name:be": "ĞĞ½Ğ´Ğ¾ÌÑ€Ğ°", "name:bg": "ĞĞ½Ğ´Ğ¾Ñ€Ğ°", "name:bh": "à¤…à¤‚à¤¡à¥‹à¤°à¤¾", "name:bi": "Andorra", "name:bm": "AndÉ”r", "name:bn": "à¦…à§à¦¯à¦¾à¦¨à§à¦¡à§‹à¦°à¦¾", "name:bo": "à½¨à½“à¼‹à½Œà½¼à½¢à¼‹à½¢à¼", "name:br": "Andorra", "name:bs": "Andora", "name:ca": "Andorra", "name:ce": "ĞĞ½Ğ´Ğ¾ÌÑ€Ñ€Ğ°", "name:ch": "Andorra", "name:co": "Andorra", "name:cs": "Andorra", "name:cu": "ĞĞ½Ğ´Ğ¾ÌÑ€Ğ°", "name:cv": "ĞĞ½Ğ´Ğ¾Ñ€Ñ€Ğ°", "name:cy": "Andorra", "name:da": "Andorra", "name:de": "Andorra", "name:dv": "Ş‡Ş¬Ş‚Ş°Ş‘Ş¯ŞƒŞ§", "name:dz": "à½¨à½±à½“à¼‹à½‘à½¼à¼‹à½¢", "name:ee": "Andorra", "name:el": "Î‘Î½Î´ÏŒÏÏÎ±", "name:en": "Andorra", "name:eo": "Andoro", "name:es": "Andorra", "name:et": "Andorra", "name:eu": "Andorra", "name:fa": "Ø¢Ù†Ø¯ÙˆØ±Ø§", "name:ff": "Anndoora", "name:fi": "Andorra", "name:fo": "Andorra", "name:fr": "Andorre", "name:fy": "Andorra", "name:ga": "AndÃ³ra", "name:gd": "Andorra", "name:gl": "Andorra", "name:gn": "Andorra", "name:gu": "àªàª¨à«àª¡à«‹àª°àª¾", "name:gv": "Andorra", "name:ha": "Andorra", "name:he": "×Ö·× Ö°×“Ö¼×•Ö¹×¨Ö¸×”", "name:hi": "à¤…à¤£à¥à¤¡à¥‹à¤°à¤¾", "name:hr": "Andora", "name:ht": "Andora", "name:hu": "Andorra", "name:hy": "Ô±Õ¶Õ¤Õ¸Ö€Ö€Õ¡", "name:ia": "Andorra", "name:id": "Andorra", "name:ie": "Andorra", "name:ig": "Andorra", "name:io": "Andora", "name:is": "Andorra", "name:it": "Andorra", "name:iu": "áŠá“á‘‘á•á•‹", "name:ja": "ã‚¢ãƒ³ãƒ‰ãƒ©", "name:jv": "Andorra", "name:ka": "áƒáƒœáƒ“áƒáƒ áƒ", "name:kg": "Andora", "name:ki": "Andora", "name:kk": "ĞĞ½Ğ´Ğ¾Ñ€Ñ€Ğ°", "name:kl": "Andorra", "name:km": "á¢á„áŸ‹áŠá¼ášáŸ‰á¶", "name:kn": "à²…à²‚à²¡à³‹à²°", "name:ko": "ì•ˆë„ë¼", "name:ks": "Ø§Ù®ÛªÙ†Ú‘ÙˆØ±Ø§", "name:ku": "Andorra", "name:kv": "ĞĞ½Ğ´Ğ¾Ñ€Ñ€Ğ°", "name:kw": "Andorra", "name:ky": "ĞĞ½Ğ´Ğ¾Ñ€Ñ€Ğ°", "name:la": "Andorra", "name:lb": "Andorra", "name:lg": "Andora", "name:li": "Andorra", "name:ln": "Andora", "name:lo": "àº­àº±àº‡àº”àº­àº", "name:lt": "Andora", "name:lv": "Andora", "name:mg": "Andora", "name:mi": "Andorra", "name:mk": "ĞĞ½Ğ´Ğ¾Ñ€Ğ°", "name:ml": "à´…àµ»à´¡àµ‹à´±", "name:mn": "ĞĞ½Ğ´Ğ¾Ñ€Ñ€Ğ°", "name:mr": "à¤†à¤‚à¤¦à¥‹à¤°à¤¾", "name:ms": "Andorra", "name:mt": "Andorra", "name:my": "á€¡á€„á€ºá€’á€­á€¯á€›á€¬á€”á€­á€¯á€„á€ºá€„á€¶", "name:na": "Andorra", "name:ne": "à¤à¤£à¥à¤¡à¥‹à¤°à¤¾", "name:nl": "Andorra", "name:nn": "Andorra", "name:no": "Andorra", "name:nv": "AndÃ³wa", "name:oc": "AndÃ²rra", "name:om": "Andooraa", "name:or": "à¬†à¬£à­à¬¡à­‹à¬°à¬¾", "name:os": "ĞĞ½Ğ´Ğ¾Ñ€Ñ€Ã¦", "name:pa": "à¨…à©°à¨¡à©‹à¨°à¨¾", "name:pi": "à¤…à¤‚à¤¡à¥‹à¤°à¤¾", "name:pl": "Andora", "name:ps": "Ø§Ù†Ø¯ÙˆØ±Ø§", "name:pt": "Andorra", "name:qu": "Andurra", "name:rm": "Andorra", "name:rn": "Andora", "name:ro": "Andorra", "name:ru": "ĞĞ½Ğ´Ğ¾Ñ€Ñ€Ğ°", "name:rw": "Andora", "name:sa": "à¤…à¤£à¥à¤¡à¥‹à¤°à¤¾", "name:sc": "Andorra", "name:sd": "Ø§Ù†ÚŠÙˆØ±Ø§", "name:se": "Andorra", "name:sg": "AndÃ´ro", "name:sh": "Andora", "name:si": "à¶‡à¶±à·Šà¶©à·à¶»à·", "name:sk": "Andorra", "name:sl": "Andora", "name:sm": "Andora", "name:sn": "Andorra", "name:so": "Andorra", "name:sq": "Andorra", "name:sr": "ĞĞ½Ğ´Ğ¾Ñ€Ğ°", "name:ss": "iYandola", "name:su": "Andorra", "name:sv": "Andorra", "name:sw": "Andorra", "name:ta": "à®…à®£à¯à®Ÿà¯‹à®°à®¾", "name:te": "à°…à°‚à°¡à±Šà°°à±à°°à°¾", "name:tg": "ĞĞ½Ğ´Ğ¾Ñ€Ñ€Ğ°", "name:th": "à¸­à¸±à¸™à¸”à¸­à¸£à¹Œà¸£à¸²", "name:ti": "áŠ áŠ•á‹¶áˆ«", "name:tk": "Andorra", "name:tl": "Andorra", "name:to": "Ê»Enitola", "name:tr": "Andorra", "name:ts": "Andorra", "name:tt": "ĞĞ½Ğ´Ğ¾Ñ€Ñ€Ğ°", "name:tw": "Andorra", "name:ug": "Ø¦Ø§Ù†Ø¯ÙˆØ±Ø±Ø§", "name:uk": "ĞĞ½Ğ´Ğ¾ÌÑ€Ñ€Ğ°", "name:ur": "Ø§Ù†ÚˆÙˆØ±Ø§", "name:uz": "Andorra", "name:vi": "Andorra", "name:vo": "LandorÃ¤n", "name:wo": "Andoor", "name:yi": "×Ö·× ×“×Ö¸×¨×¢", "name:yo": "Ã€ndÃ³rÃ ", "name:za": "Andorra", "name:zh": "å®‰é“å°” / å®‰é“çˆ¾", "name:zu": "I-Andora", "boundary": "administrative", "int_name": "Andorra", "name:ace": "Andorra", "name:ady": "ĞĞ½Ğ´Ğ¾Ñ€Ñ€Ñ", "name:als": "Andorra", "name:ang": "Andorra", "name:arc": "ÜÜ¢Ü•Ü˜ÜªÜ", "name:ary": "Ø£Ù†Ø¯ÙˆØ±Ø§", "name:arz": "Ø§Ù†Ø¯ÙˆØ±Ø§", "name:ast": "Andorra", "name:avk": "Andorra", "name:awa": "à¤…à¤‚à¤¡à¥‹à¤°à¤¾", "name:azb": "Ø¢Ù†Ø¯ÙˆØ±Ø§", "name:ban": "Andorra", "name:bar": "Andorra", "name:bcl": "Andora", "name:bpy": "à¦à¦¨à§à¦¡à§‹à¦°à¦¾", "name:bxr": "ĞĞ½Ğ´Ğ¾Ñ€Ñ€Ğ°", "name:cdo": "Ä‚ng-dÃ´Ì¤-Ä«", "name:ceb": "Andorra", "name:chr": "á á‚á™á³", "name:ckb": "Ø¦Û•Ù†Ø¯Û†Ø±Ø§", "name:crh": "Andorra", "name:csb": "Andorra", "name:diq": "Andorra", "name:dsb": "Andorra", "name:dty": "à¤à¤£à¥à¤¡à¥‹à¤°à¤¾", "name:eml": "AndÃ²ra", "name:ext": "Andorra", "name:frp": "Andorra", "name:frr": "Andora", "name:fur": "Andore", "name:gag": "Andorra", "name:gcr": "AndÃ²r", "name:gom": "à¤…à¤à¤¡à¥‹à¤°à¤¾", "name:got": "ğŒ°ğŒ½ğŒ³ğŒ°ğŒ¿ğ‚ğŒ°", "name:gsw": "Andorra", "name:hak": "Andorra", "name:haw": "Ê»Anakola", "name:hif": "Andorra", "name:hsb": "Andorra", "name:ilo": "Andorra", "name:jam": "Anduora", "name:jbo": "andoras", "name:kaa": "Andorra", "name:kab": "Andorra", "name:kbd": "ĞĞ½Ğ´Ğ¾Ñ€Ñ€Ñ", "name:kbp": "AndorÉ©", "name:koi": "ĞĞ½Ğ´Ğ¾Ñ€Ñ€Ğ°", "name:krc": "ĞĞ½Ğ´Ğ¾Ñ€Ñ€Ğ°", "name:ksh": "Andorra", "name:lad": "Andorra", "name:lez": "ĞĞ½Ğ´Ğ¾Ñ€Ñ€Ğ°", "name:lfn": "Andora", "name:lij": "Andora", "name:lld": "Andora", "name:lmo": "Andora", "name:lrc": "Ø¢Ù†Ø¯ÙˆØ±Ø§", "name:ltg": "Andora", "name:lzh": "å®‰é“çˆ¾", "name:mai": "à¤…à¤‚à¤¡à¥‹à¤°à¤¾", "name:mdf": "ĞĞ½Ğ´Ğ¾Ñ€Ğ°", "name:mhr": "ĞĞ½Ğ´Ğ¾Ñ€Ñ€Ğ¾", "name:min": "Andorra", "name:mrj": "ĞĞ½Ğ´Ğ¾Ñ€Ñ€Ğ°", "name:mwl": "Andorra", "name:myv": "ĞĞ½Ğ´Ğ¾Ñ€Ñ€Ğ°", "name:mzn": "Ø¢Ù†Ø¯ÙˆØ±Ø§", "name:nah": "Andorra", "name:nan": "Andorra", "name:nap": "Andorra", "name:nds": "Andorra", "name:new": "à¤à¤£à¥à¤¡à¥‹à¤°à¤¾", "name:nov": "Andora", "name:nrm": "Aundorre", "name:nso": "Andorra", "name:olo": "Andorra", "name:pag": "Andorra", "name:pam": "Andorra", "name:pap": "Andorra", "name:pcd": "Andore", "name:pdc": "Andorra", "name:pih": "Endora", "name:pms": "Andorra", "name:pnb": "Ø§Ù†Ø¯ÙˆØ±Û", "name:pnt": "Î‘Î½Î´ÏŒÏÏÎ±", "name:rmy": "Andorra", "name:rue": "ĞĞ½Ğ´Ğ¾Ñ€Ğ°", "name:sah": "ĞĞ½Ğ´Ğ¾Ñ€Ñ€Ğ°", "name:scn": "Andorra", "name:sco": "Andorrae", "name:shn": "á€™á€­á€°á€„á€ºá€¸á€¢á‚…á¼á€ºá‚‡á€á€°á€á€ºá‚‡á€›á‚ƒá‚‡", "name:smn": "Andorra", "name:sms": "Andorr", "name:srn": "Andorra", "name:stq": "Andorra", "name:szl": "Andora", "name:szy": "Andorra", "name:tet": "Andorra", "name:tok": "ma Antola", "name:tpi": "Andora", "name:tum": "Andorra", "name:tzl": "Anduora", "name:udm": "ĞĞ½Ğ´Ğ¾ÌÑ€Ñ€Ğ°", "name:vec": "Andora", "name:vep": "Andorr", "name:vls": "Andorra", "name:vro": "Andorra", "name:war": "Andorra", "name:wuu": "å®‰é“å°”", "name:xal": "ĞĞ½Ğ´Ğ¾Ñ€Ğ¼ÑƒĞ´Ğ¸Ğ½ ĞÑƒÑ‚Ğ³", "name:xmf": "áƒáƒœáƒ“áƒáƒ áƒ", "name:yue": "å®‰é“çˆ¾", "name:zea": "Andorra", "timezone": "Europe/Andorra", "way_area": "0.0512782", "wikidata": "Q228", "ISO3166-1": "AD", "land_area": "administrative", "wikipedia": "ca:Andorra", "admin_level": "2", "alt_name:af": "Prinsdom van die Valleie van Andorra", "alt_name:ar": "Ø¥Ù…Ø§Ø±Ø© ÙˆØ¯ÙŠØ§Ù† Ø£Ù†Ø¯ÙˆØ±Ø§", "alt_name:cs": "AndorskÃ© knÃ­Å¾ectvÃ­", "alt_name:de": "FÃ¼rstentum der TÃ¤ler von Andorra", "alt_name:el": "Î‘Î½Î´ÏŒÏÎ±", "alt_name:en": "Principality of the Valleys of Andorra", "alt_name:gd": "Prionnsalachd Glinntean Andorra", "alt_name:hi": "à¤ªà¥à¤°à¤¿à¤‚à¤¸à¤¿à¤ªà¤¾à¤²à¤¿à¤Ÿà¥€ à¤‘à¤«à¤¼ à¤µà¥ˆà¤²à¥€ à¤‘à¤«à¤¼ à¤…à¤‚à¤¡à¥‹à¤°à¤¾", "alt_name:hu": "Andorrai FejedelemsÃ©g", "alt_name:kn": "à²…à²‚à²¡à³‹à²° à²°à²¾à²œà³à²¯", "alt_name:mt": "PrinÄ‹ipalitÃ  tal-Widien tal-Andorra", "alt_name:ps": "Ø¯ Ø¢Ù†Ø¯ÙˆØ±Ø§ Ù‡ÛŒÙˆØ§Ø¯ Ø´Ù‡Ø²Ø§Ø¯Ù‡ Ø´Ø§Ù‡ÙŠ", "alt_name:pt": "Principado dos Vales de Andorra", "alt_name:ro": "Principatul VÄƒilor Andorrei", "alt_name:su": "KapangÃ©ranan Lebak Andorra", "alt_name:tl": "Prinsipalidad ng Andorra", "alt_name:vi": "CÃ´ng quá»‘c Andorra", "alt_name:yo": "Iláº¹Ì€-á»Œmá»ba Ã wá»n Ã€fonÃ­fojÃ¬ iláº¹Ì€ Andorra", "name:nds-nl": "Andorra", "alt_name:ckb": "Ø¦Û•Ù†Ø¯Û†Ø±Ø§", "alt_name:kab": "Tageldunt n iÉ£zá¹›awen n Andorra", "alt_name:pnb": "Ø§Ù†ÚˆÙˆØ±Ø§", "alt_name:war": "Prinsipado han mga Siong han Andorra", "name:bat-smg": "Anduora", "name:cbk-zam": "Andorra", "name:map-bms": "Andorra", "name:roa-rup": "Andorra", "name:zh-Hans": "å®‰é“å°”", "name:zh-Hant": "å®‰é“çˆ¾", "name:roa-tara": "Andorre", "official_name": "Principat d'Andorra", "name:be-tarask": "ĞĞ½Ğ´Ğ¾Ñ€Ğ°", "name:zh_pinyin": "Ä€ndÃ oÄ›r", "ISO3166-1:alpha2": "AD", "ISO3166-1:alpha3": "AND", "default_language": "ca", "official_name:af": "Prinsdom van Andorra", "official_name:am": "á‹¨áŠ áŠ•á‹¶áˆ« áŒá‹›á‰µ", "official_name:an": "Prencipato d'Andorra", "official_name:ar": "Ø¥Ù…Ø§Ø±Ø© Ø£Ù†Ø¯ÙˆØ±Ø§", "official_name:az": "Andorra KnyazlÄ±ÄŸÄ±", "official_name:ba": "ĞĞ½Ğ´Ğ¾Ñ€Ñ€Ğ° ĞšĞµĞ½Ó™Ğ·Ğ»ĞµĞ³Ğµ", "official_name:be": "ĞšĞ½ÑÌÑÑ‚Ğ²Ğ° ĞĞ½Ğ´Ğ¾ÌÑ€Ğ°", "official_name:bg": "ĞšĞ½ÑĞ¶ĞµÑÑ‚Ğ²Ğ¾ ĞĞ½Ğ´Ğ¾Ñ€Ğ°", "official_name:bn": "à¦…à§à¦¯à¦¾à¦¨à§à¦¡à§‹à¦°à¦¾ à¦°à¦¾à¦œà§à¦¯", "official_name:br": "PriÃ±selezh Andorra", "official_name:bs": "KneÅ¾evina Andora", "official_name:ca": "Principat d'Andorra", "official_name:ce": "ĞœĞ°Ğ½Ğ°Ñ€Ñ…Ğ¸ ĞĞ½Ğ´Ğ¾Ñ€Ñ€Ğ°", "official_name:co": "Principatu d'Andorra", "official_name:cs": "AndorrskÃ© knÃ­Å¾ectvÃ­", "official_name:cu": "ĞšÑŠĞ½Ñ§ÌĞ¶ÑŒÑÑ‚Ğ²Ğ¾ ĞĞ½Ğ´Ğ¾ÌÑ€Ğ°", "official_name:cv": "ĞĞ½Ğ´Ğ¾Ñ€Ñ€Ğ° ĞºĞ½ÑĞ¶ĞµÑÑ‚Ğ²Ğ¸", "official_name:cy": "Tywysogaeth Andorra", "official_name:da": "FyrstendÃ¸mmet Andorra", "official_name:de": "FÃ¼rstentum Andorra", "official_name:el": "Î ÏÎ¹Î³ÎºÎ·Ï€Î¬Ï„Î¿ Ï„Î·Ï‚ Î‘Î½Î´ÏŒÏÏÎ±Ï‚", "official_name:en": "Principality of Andorra", "official_name:eo": "Andora Princlando", "official_name:es": "Principado de Andorra", "official_name:et": "Andorra VÃ¼rstiriik", "official_name:eu": "Andorrako Printzerria", "official_name:fa": "Ø´Ø§Ù‡Ø²Ø§Ø¯Ù‡â€ŒÙ†Ø´ÛŒÙ† Ø¢Ù†Ø¯ÙˆØ±Ø±Ø§", "official_name:fi": "Andorran ruhtinaskunta", "official_name:fo": "PrinsadÃ¸miÃ° Andorra", "official_name:fr": "PrincipautÃ© d'Andorre", "official_name:ga": "Phrionsacht AndÃ³ra", "official_name:gd": "Prionnsalachd Andorra", "official_name:gl": "Principado de Andorra", "official_name:gn": "TetÃ£ Andorra", "official_name:gu": "àªªà«àª°àª¿àª¨à«àª¸àª¿àªªàª¾àª²àª¿àªŸà«€ àª“àª« àªàª¨à«àª¡à«‹àª°àª¾", "official_name:gv": "Prinsaght Andorra", "official_name:he": "× Ö°×¡Ö´×™×›×•Ö¼×ª ×Ö·× Ö°×“Ö¼×•Ö¹×¨Ö¸×”", "official_name:hi": "à¤ªà¥à¤°à¤¿à¤‚à¤¸à¤¿à¤ªà¤¾à¤²à¤¿à¤Ÿà¥€ à¤‘à¤«à¤¼ à¤…à¤‚à¤¡à¥‹à¤°à¤¾", "official_name:hr": "KneÅ¾evina Andora", "official_name:hu": "Andorrai HercegsÃ©g", "official_name:ia": "Principato de Andorra", "official_name:id": "Kepangeranan Andorra", "official_name:io": "princio di Andora", "official_name:is": "FurstadÃ¦miÃ° Andorra", "official_name:it": "Principato di Andorra", "official_name:ja": "ã‚¢ãƒ³ãƒ‰ãƒ©å…¬å›½", "official_name:ka": "áƒáƒœáƒ“áƒáƒ áƒ˜áƒ¡ áƒ¡áƒáƒ›áƒ—áƒáƒ•áƒ áƒ", "official_name:kk": "ĞĞ½Ğ´Ğ¾Ñ€Ñ€Ğ° ĞºĞ½ÑĞ·Ğ´Ñ–Ğ³Ñ–", "official_name:km": "á€áŸ’áŸááŸ’ášá”áŸ’ášá‘áŸáŸá¢á„áŸ‹áŠá¼ášáŸ‰á¶", "official_name:kn": "à²ªà³à²°à²¿à²¨à³à²¸à²¿à²ªà²¾à²Ÿà³ à²¦à³'à²…à²‚à²¡à³‹à²°", "official_name:ko": "ì•ˆë„ë¼ ê³µêµ­", "official_name:ku": "MÃ®ritiya AndorrayÃª", "official_name:kv": "ĞĞ½Ğ´Ğ¾Ñ€Ñ€Ğ° Ó§ĞºÑÑ‹ÑƒĞ²", "official_name:kw": "Prynseth Andorra", "official_name:ky": "ĞĞ½Ğ´Ğ¾Ñ€Ñ€Ğ° ĞšĞ½ÑĞ·Ğ´Ñ‹Ğ³Ñ‹", "official_name:la": "Principatus Andorrae", "official_name:lb": "FÃ¼rstentum Andorra", "official_name:li": "Prinsdom Andorra", "official_name:ln": "Mani ya Andora", "official_name:lo": "àº¥àº²àºŠàº°àº¥àº±àº”àº­àº±àº‡àº”àº­àº", "official_name:lt": "Andoros KunigaikÅ¡tystÄ—", "official_name:lv": "Andoras Firstiste", "official_name:mk": "ĞšĞ½ĞµĞ¶ĞµÑÑ‚Ğ²Ğ¾ ĞĞ½Ğ´Ğ¾Ñ€Ğ°", "official_name:ml": "à´ªàµà´°à´¿àµ»à´¸à´¿à´ªàµà´ªà´¾à´²à´¿à´±àµà´±à´¿ à´“à´«àµ à´…àµ»à´¡àµ‹à´±", "official_name:mn": "ĞĞ½Ğ´Ğ¾Ñ€Ñ€Ñ‹Ğ½ Ğ“Ò¯Ğ½Ñ‚ Ğ£Ğ»Ñ", "official_name:mr": "à¤†à¤‚à¤¦à¥‹à¤°à¤¾à¤šà¥‡ à¤°à¤¾à¤œà¥à¤¯", "official_name:ms": "Prinsipaliti Andorra", "official_name:mt": "PrinÄ‹ipalitÃ  tal-Andorra", "official_name:my": "á€¡á€„á€ºá€’á€­á€¯á€›á€¬á€á€±á€¬á€„á€ºá€€á€¼á€¬á€¸á€™á€„á€ºá€¸á€á€¬á€¸á€”á€­á€¯á€„á€ºá€„á€¶", "official_name:nl": "Vorstendom Andorra", "official_name:nn": "FyrstedÃ¸met Andorra", "official_name:no": "FyrstedÃ¸mmet Andorra", "official_name:oc": "Principat d'AndÃ²rra", "official_name:pa": "à¨…à©°à¨¡à©‹à¨°à¨¾ à¨¦à©€ à¨°à¨¿à¨†à¨¸à¨¤", "official_name:pl": "KsiÄ™stwo Andory", "official_name:ps": "Ø­Ø§Ú©Ù… Ø¢Ù†Ø¯ÙˆØ±Ø§ Ø´Ù‡Ø²Ø§Ø¯Ù‡", "official_name:pt": "Principado de Andorra", "official_name:qu": "Andurra Awki Suyu", "official_name:rm": "Principadi da lâ€™Andorra", "official_name:ro": "Principatul Andorrei", "official_name:ru": "ĞšĞ½ÑĞ¶ĞµÑÑ‚Ğ²Ğ¾ ĞĞ½Ğ´Ğ¾Ñ€Ñ€Ğ°", "official_name:sd": "Ù¾Ø±Ù†Ø³Ù¾Ù„Ù½ÙŠ Ø¢Ù Ø§ÙŠÙ†ÚŠÙˆØ±Ø§", "official_name:se": "Andorra prinsipÃ¡hta", "official_name:sg": "Limondo tÃ® AndÃ´ro", "official_name:sh": "Principat Andora", "official_name:sk": "AndorrskÃ© knieÅ¾atstvo", "official_name:sl": "Principat Andore", "official_name:so": "Dowlada Andorra", "official_name:sq": "Principata e AndorrÃ«s", "official_name:sr": "ĞšĞ½ĞµĞ¶ĞµĞ²Ğ¸Ğ½Ğ° ĞĞ½Ğ´Ğ¾Ñ€Ğ°", "official_name:su": "KapangÃ©ranan Andorra", "official_name:sv": "FurstendÃ¶met Andorra", "official_name:sw": "Utemi wa Andorra", "official_name:ta": "à®…à®¨à¯à®¤à¯‹à®°à®¾ à®ªà®¿à®°à®¿à®©à¯à®šà®¿à®ªà®¾à®²à®¿à®Ÿà®¿", "official_name:te": "à°ªà±à°°à°¿à°¨à±à°¸à°¿à°ªà°¾à°²à°¿à°Ÿà±€ à°†à°«à± à°…à°‚à°¡à±Šà°°à±à°°à°¾", "official_name:tg": "á„á¬á«á³á’á¢ á¾á¿ á á‚á™á³", "official_name:th": "à¸£à¸²à¸Šà¸£à¸±à¸à¸­à¸±à¸™à¸”à¸­à¸£à¹Œà¸£à¸²", "official_name:tk": "Andorra knÃ½azlygy", "official_name:tl": "Prinsipalya ng Andora", "official_name:tr": "Andorra PrensliÄŸi", "official_name:tt": "ĞĞ½Ğ´Ğ¾Ñ€Ñ€Ğ° ĞºĞµĞ½Ó™Ğ·Ğ»ĞµĞ³Ğµ", "official_name:ug": "Ø¦Ø§Ù†Ø¯ÙˆØ±Ø±Ø§ ÙƒÛÙ†Û•Ø²Ù„Ù‰ÙƒÙ‰", "official_name:uk": "ĞšĞ½ÑĞ·Ñ–Ğ²ÑÑ‚Ğ²Ğ¾ ĞĞ½Ğ´Ğ¾Ñ€Ñ€Ğ°", "official_name:ur": "Ø§Ù…Ø§Ø±Ø§ØªÙ Ø§Ù†ÚˆÙˆØ±Ø§", "official_name:uz": "Andorra Qirolligi", "official_name:vi": "ThÃ¢n vÆ°Æ¡ng quá»‘c Andorra", "official_name:wo": "PirinsipÃ³ote bu Andoor", "official_name:yi": "×“×™ ×¤×¨×™× ×¦×™×¤×Ö·×œ×™×˜×¢×˜ ×¤×•×Ÿ ×Ö·× ×“××¨×¢", "official_name:yo": "Iláº¹Ì€-á»Œmá»ba Andorra", "official_name:zh": "å®‰é“å°”å…¬å›½ / å®‰é“çˆ¾è¦ªç‹åœ‹", "ISO3166-1:numeric": "020", "official_name:als": "FÃ¼rstentum Andorra", "official_name:arc": "ÜªÜÜ«Ü¢Ü˜Ü¬Ü Ü•ÜÜ¢Ü•Ü˜ÜªÜ", "official_name:ary": "Ù…Ø¯ÙŠØ±ÙŠØ© Ø£Ù†Ø¯ÙˆØ±Ø§", "official_name:arz": "Ø¥Ù…Ø§Ø±Ø© Ø£Ù†Ø¯ÙˆØ±Ø§", "official_name:ast": "Principat d'Andorra", "official_name:awa": "à¤ªà¥à¤°à¤¿à¤‚à¤¸à¤¿à¤ªà¤¾à¤²à¤¿à¤Ÿà¥€ à¤‘à¤«à¤¼ à¤…à¤‚à¤¡à¥‹à¤°à¤¾", "official_name:azb": "Ø¢Ù†Ø¯ÙˆØ±Ø§ Ù¾ÛŒØ±Ù†Ø³â€ŒÙ„ÛŒÚ¯ÛŒ", "official_name:bar": "Fiaschtntum Andorra", "official_name:bpy": "à¦¨à§ˆà¦¤à¦¿à¦• à¦à¦¨à§à¦¡à§‹à¦°à¦¾", "official_name:bxr": "ĞĞ½Ğ´Ğ¾Ñ€Ñ€Ñ‹Ğ½ Ğ“Ò¯Ğ½Ñ‚Ñ Ğ£Ğ»Ğ°Ñ", "official_name:cdo": "Andorra GÅ­ng-guÃ³k", "official_name:chr": "á„á¬á«á³á’á¢ á¾á¿ á á‚á™á³", "official_name:ckb": "Ù…ÛŒØ±Ù†Ø´ÛŒÙ†ÛŒ Ø¦Û•Ù†Ø¯Û†Ø±Ø§", "official_name:crh": "Andorra Prinsligi", "official_name:dsb": "Wjerchojstwo Andorry", "official_name:eml": "PrincipÃ¤ d'AndÃ²ra", "official_name:ext": "Prencipau d'Andorra", "official_name:frp": "PrincipÃ´tÃ¢t dâ€™Andorra", "official_name:frr": "FÃ¶Ã¶rstendoom faan Andora", "official_name:fur": "PrincipÃ¢t di Andorra", "official_name:gcr": "PrensipotÃ© d'Andorre", "official_name:got": "ğ€ğ‚ğŒ¹ğŒ½ğƒğŒ¹ğ€ğŒ°ğ„ ğŒ³ ğŒ°ğŒ½ğŒ³ğ‰ğ‚ğ‚ğŒ°ğŒ°", "official_name:hak": "Andorra KÃ»ng-koet", "official_name:hsb": "Wjerchowstwo Andorra", "official_name:ilo": "Principalidad ti Andorra", "official_name:jam": "Prinspaliti a Anduora", "official_name:kab": "Tagelunt n Andorra", "official_name:koi": "ĞŸÑ€Ğ¸Ğ½Ñ†Ğ¸Ğ¿Ğ°Ñ‚ ĞĞ½Ğ´Ğ¾Ñ€Ñ€Ğ°", "official_name:krc": "ĞĞ½Ğ´Ğ¾Ñ€Ñ€Ğ° Ğ‘Ğ¸Ğ¹Ğ»Ğ¸Ğº", "official_name:ksh": "FÃ¶rstedom Andorra", "official_name:lad": "Prinsipado de Andorra", "official_name:lfn": "Prinsia de Andora", "official_name:lij": "PrinÃ§ipato de Andora", "official_name:lmo": "Principaa d'Andora", "official_name:lrc": "Ú¤Ù„Ø§Øª Ø¢Ù†Ø¯ÙˆØ±Ø§", "official_name:lzh": "å®‰é“çˆ¾è¦ªç‹åœ‹", "official_name:min": "Kapangeranan Andorra", "official_name:mwl": "prencipado de Andorra", "official_name:myv": "ĞĞ½Ğ´Ğ¾Ñ€Ñ€Ğ° ĞœĞ°ÑÑ‚Ğ¾Ñ€", "official_name:nan": "Andorra Kong-kok", "official_name:nap": "Principato 'e Andorra", "official_name:nds": "FÃ¼rstendom Andorra", "official_name:new": "à¤à¤£à¥à¤¡à¥‹à¤°à¤¾à¤¯à¤¾ à¤ªà¥à¤°à¤¿à¤¨à¥à¤¸à¤¿à¤ªà¥à¤¯à¤¾à¤²à¤¿à¤Ÿà¥€", "official_name:nov": "el Consell de les Valls d'Andorra", "official_name:olo": "Andorran Ruhtinaskundu", "official_name:pam": "Principalidad ning Andorra", "official_name:pcd": "PrincipautÃ© dâ€™Andore", "official_name:pms": "PrinsipÃ  d'Andorra", "official_name:pnt": "Î ÏÎ¹Î³ÎºÎ·Ï€Î¬Ï„Î¿ Ï„Î· Î‘Î½Î´ÏŒÏÏÎ±Ï‚", "official_name:rue": "ĞšĞ½ÑĞ·Ñ—Ğ²ÑÑ‚Ğ²Ğ¾ ĞĞ½Ğ´Ğ¾Ñ€Ğ°", "official_name:sah": "ĞĞ½Ğ´Ğ¾Ñ€Ñ€Ğ° ĞšĞ¸Ğ½ÑÑhĞ¸Ğ»Ğ¸Ğ³Ñ", "official_name:scn": "Principatu di Andorra", "official_name:sco": "Preencipality o Andorrae", "official_name:shn": "á€™á€­á€°á€„á€ºá€¸á¸á€á€ºá‚ˆá¸á¢á‚†á€¸áµá‚„á‚ˆá€œá€½á‚† á€¢á‚…á¼á€ºá‚‡á€á€°á€á€ºá‚‡á€›á‚ƒá‚‡", "official_name:smn": "Andorra furstÃ¢kodde", "official_name:srn": "Andorrakondre", "official_name:szl": "KÅ›ynstwo Andory", "official_name:udm": "ĞšĞ½ÑĞ¶ĞµÑÑ‚Ğ²Ğ¾ ĞĞ½Ğ´Ğ¾ÌÑ€Ñ€Ğ°", "official_name:vec": "Principato de Andora", "official_name:vep": "Andorran Ruhtinazkund", "official_name:vls": "Prinsdom Andorra", "official_name:vro": "Andorra VÃ¼rstiriik", "official_name:war": "Prinsipado han Andorra", "official_name:wuu": "å®‰é“å°”å…¬å›½", "official_name:nds-nl": "Vorstendom Andorra", "official_name:bat-smg": "Andoras konÄ—gÄkÅ¡tÄ«stÄ—", "official_name:roa-rup": "Printsipatlu Andorra", "official_name:zh-Hans": "å®‰é“å°”å…¬å›½", "official_name:zh-Hant": "å®‰é“çˆ¾è¦ªç‹åœ‹", "official_name:roa-tara": "PrengepÃ¡te d'Andorre", "official_name:be-tarask": "ĞšĞ½ÑÑÑ‚Ğ²Ğ° ĞĞ½Ğ´Ğ¾Ñ€Ğ°"}}}]}