{"type" : "FeatureCollection", "features" : [{"type": "Feature", "geometry": {"type":"MultiPolygon","coordinates":[[[[-5.1707285,54.054],[-5.1704912,54.046],[-5.169955,54.04],[-5.1687599,54.032],[-5.1675004,54.026],[-5.1653304,54.018],[-5.1633291,54.012],[-5.1601515,54.004],[-5.1568818,53.997],[-5.153141,53.99],[-5.1489129,53.983],[-5.1400181,53.97],[-5.1356712,53.964],[-5.1300928,53.957],[-5.1248549,53.951],[-5.1191723,53.945],[-5.1130188,53.939],[-5.1063637,53.933],[-5.0991708,53.927],[-5.0913967,53.921],[-5.084437,53.916],[-5.0754535,53.91],[-5.0673889,53.905],[-5.0587409,53.9],[-5.0494423,53.895],[-5.0394088,53.89],[-5.0307812,53.886],[-5.021544,53.882],[-5.0116068,53.878],[-5.0008516,53.874],[-4.9921542,53.871],[-4.9795433,53.867],[-4.9691587,53.864],[-4.9577754,53.861],[-4.949498,53.859],[-4.930708,53.855],[-4.9137288,53.852],[-4.8922635,53.849],[-4.8726319,53.847],[-4.8587123,53.846],[-4.8288005,53.845],[-4.8076135,53.845],[-4.7777017,53.846],[-4.7637821,53.847],[-4.7531165,53.848],[-4.7362774,53.85],[-4.7226853,53.852],[-4.7110193,53.854],[-4.6958806,53.857],[-4.6886225,53.857],[-4.6779546,53.856],[-4.664032,53.855],[-4.6341138,53.854],[-4.6195355,53.854],[-4.5896172,53.855],[-4.5756946,53.856],[-4.5560588,53.858],[-4.5410894,53.86],[-4.5229204,53.863],[-4.5031999,53.867],[-4.4866116,53.871],[-4.4721245,53.875],[-4.4591832,53.879],[-4.4446733,53.884],[-4.4316259,53.889],[-4.4197607,53.894],[-4.406811,53.9],[-4.3950428,53.906],[-4.3877658,53.91],[-4.3808956,53.914],[-4.3727531,53.919],[-4.3651136,53.924],[-4.3593585,53.928],[-4.3511822,53.934],[-4.3447444,53.939],[-4.3387101,53.944],[-4.3372221,53.945],[-4.3267364,53.95],[-4.3188843,53.954],[-4.3114909,53.958],[-4.3028308,53.963],[-4.2892732,53.969],[-4.2769181,53.975],[-4.2630679,53.981],[-4.2505092,53.987],[-4.2372443,53.994],[-4.2232395,54.002],[-4.213579,54.008],[-4.2060255,54.013],[-4.198957,54.018],[-4.1910626,54.024],[-4.1793766,54.03],[-4.1703182,54.035],[-4.1569149,54.043],[-4.1475303,54.049],[-4.1388259,54.055],[-4.1320236,54.06],[-4.1168657,54.072],[-4.110812,54.077],[-4.1051377,54.082],[-4.0998207,54.087],[-4.088159,54.099],[-4.0802174,54.108],[-4.0732225,54.117],[-4.0697224,54.122],[-4.0664865,54.127],[-4.0635069,54.132],[-4.0607768,54.137],[-4.0587681,54.141],[-4.056041,54.147],[-4.0536498,54.153],[-4.0519085,54.158],[-4.0513352,54.159],[-4.0452298,54.165],[-4.0381531,54.171],[-4.0315461,54.177],[-4.0244664,54.184],[-4.0147096,54.193],[-4.0068788,54.201],[-3.9998513,54.209],[-3.9935734,54.217],[-3.9880015,54.225],[-3.9830996,54.233],[-3.9803627,54.238],[-3.9773999,54.244],[-3.9747791,54.25],[-3.9724925,54.256],[-3.9711504,54.26],[-3.9694065,54.266],[-3.9679814,54.272],[-3.9668713,54.278],[-3.9663048,54.282],[-3.9657136,54.288],[-3.9654315,54.294],[-3.965458,54.3],[-3.9657931,54.306],[-3.966438,54.312],[-3.9673608,54.318],[-3.9685267,54.324],[-3.9700093,54.33],[-3.9711757,54.334],[-3.9731964,54.34],[-3.9747268,54.344],[-3.9773023,54.35],[-3.9797105,54.355],[-3.9823624,54.36],[-3.9852641,54.365],[-3.9884225,54.37],[-3.9918454,54.375],[-3.9955415,54.38],[-3.9995207,54.385],[-4.0074334,54.394],[-4.0172941,54.404],[-4.0167707,54.414],[-4.0168486,54.42],[-4.0170726,54.424],[-4.0176674,54.43],[-4.0182372,54.434],[-4.0197961,54.442],[-4.0213361,54.448],[-4.0225419,54.452],[-4.0253903,54.46],[-4.029731,54.47],[-4.0344301,54.479],[-4.0748658,54.5001033],[-4.0954194,54.515379],[-4.153469,54.5506519],[-4.1962416,54.5534288],[-4.258456,54.5520393],[-4.2928961,54.5509279],[-4.4003826,54.5464826],[-4.4378778,54.5420383],[-4.4912042,54.533983],[-4.5325878,54.5295386],[-4.5814702,54.5195392],[-4.6145214,54.5125952],[-4.6725693,54.4995405],[-4.7281174,54.4837084],[-4.7933863,54.4620435],[-4.868555,54.4339831],[-4.8670986,54.432],[-4.8705801,54.427],[-4.8744068,54.421],[-4.8778633,54.415],[-4.8809614,54.409],[-4.8816247,54.408],[-4.8902071,54.398],[-4.8948807,54.392],[-4.896424,54.391],[-4.9103727,54.385],[-4.922974,54.379],[-4.9344455,54.373],[-4.9449465,54.367],[-4.9545971,54.361],[-4.9649055,54.354],[-4.9798038,54.343],[-4.9886407,54.336],[-4.9956579,54.33],[-5.0076853,54.319],[-5.0129139,54.314],[-5.0178056,54.309],[-5.0232536,54.303],[-5.0283078,54.297],[-5.03297,54.291],[-5.0387905,54.2829617],[-5.0446129,54.273],[-5.0482494,54.266],[-5.0518277,54.258],[-5.0545227,54.251],[-5.0592262,54.244],[-5.0647134,54.235],[-5.0685534,54.228],[-5.0719148,54.221],[-5.0751891,54.213],[-5.0778754,54.205],[-5.079988,54.197],[-5.0815379,54.189],[-5.0913098,54.182],[-5.1044061,54.172],[-5.1127222,54.165],[-5.1214134,54.157],[-5.1292644,54.149],[-5.1363046,54.141],[-5.1425893,54.133],[-5.1488123,54.124],[-5.1536313,54.116],[-5.157811,54.108],[-5.1613759,54.1],[-5.1629341,54.096],[-5.1649974,54.09],[-5.1672461,54.082],[-5.1681585,54.078],[-5.1692655,54.072],[-5.170258,54.064],[-5.1705486,54.06],[-5.1707285,54.054]]]]}, "properties": {"osm_id": -62269, "boundary": "administrative", "admin_level": 2, "parents": null, "name": "Isle of Man", "local_name": "Ellan Vannin / Isle of Man", "name_en": "Isle of Man", "all_tags": {"flag": "http://upload.wikimedia.org/wikipedia/commons/b/bc/Flag_of_the_Isle_of_Man.svg", "name": "Ellan Vannin / Isle of Man", "name:af": "Eiland Man", "name:an": "Isla de Man", "name:ar": "جزيرة مان", "name:az": "Men adası", "name:be": "Востраў Мэн", "name:bg": "Ман", "name:bn": "আইল অফ ম্যান", "name:br": "Manav", "name:bs": "Ostrvo Man", "name:ca": "Illa de Man", "name:cs": "Man", "name:cv": "Мэн утравĕ", "name:cy": "Ynys Manaw", "name:da": "Isle of Man", "name:de": "Insel Man", "name:dv": "އައިޒަލް އޮފް މޭން", "name:el": "Νήσος του Μαν", "name:en": "Isle of Man", "name:eo": "Manksinsulo", "name:es": "Isla de Man", "name:et": "Man", "name:eu": "Man", "name:fa": "جزیره من", "name:fi": "Mansaari", "name:fo": "Mann", "name:fr": "Île de Man", "name:fy": "Man", "name:ga": "Oileán Mhanann", "name:gd": "Eilean Mhanainn", "name:gl": "Illa de Man", "name:gv": "Ellan Vannin", "name:he": "האי מאן", "name:hi": "आइल ऑफ़ मैन", "name:hr": "Otok Man", "name:hu": "Man-sziget", "name:hy": "Մեն կղզի", "name:ia": "Insula de Man", "name:id": "Pulau Man", "name:io": "Man-Insulo", "name:is": "Mön", "name:it": "Isola di Man", "name:ja": "マン島", "name:jv": "Pulo Man", "name:ka": "მენი", "name:ko": "맨 섬", "name:kw": "Ynys Manow", "name:la": "Monapia", "name:li": "Man", "name:lt": "Meno Sala", "name:lv": "Menas Sala", "name:mi": "Motu o Man", "name:mk": "Ман", "name:ml": "ഐൽ ഒഫ് മാൻ", "name:mr": "आईल ऑफ मान", "name:ms": "Isle of Man", "name:nl": "Man", "name:nn": "Isle of Man", "name:no": "Man", "name:oc": "Illa de Man", "name:os": "Мэн", "name:pa": "ਮੈਨ ਟਾਪੂ", "name:pl": "Wyspa Man", "name:pt": "Ilha de Man", "name:qu": "Man wat'a", "name:ro": "Insula Man", "name:ru": "Остров Мэн", "name:rw": "Ikirwa cya Man", "name:sh": "Otok Man", "name:sk": "Ostrov Man", "name:sl": "Otok Man", "name:sq": "Ishulli i Njeriut", "name:sr": "Острво Ман", "name:su": "Pulo Man", "name:sv": "Isle of Man", "name:sw": "Isle of Man", "name:ta": "மாண் தீவு", "name:th": "เกาะแมน", "name:tl": "Pulo ng Man", "name:tr": "Man Adası", "name:tt": "Мэн утравы", "name:uk": "Острів Мен", "name:ur": "آئل آف مین", "name:vi": "Đảo Man", "name:vo": "Mäneän", "name:yo": "Erékùṣù ilẹ̀ Man", "name:zh": "马恩岛 / 曼島", "boundary": "administrative", "int_name": "Isle of Man", "name:ace": "Pulo Man", "name:ang": "Manīeg", "name:arz": "جزيرة مان", "name:ast": "Islla de Man", "name:bar": "Insl vo Man", "name:bpy": "আইসল অফ ম্যান", "name:dsb": "Man", "name:ext": "Man", "name:frp": "Ila de Man", "name:frr": "Eilun Man", "name:hsb": "Man", "name:lij": "Izoa de Man", "name:lmo": "Isula de Man", "name:nan": "Mannin", "name:nds": "Isle of Man", "name:nov": "Isle de Man", "name:nrm": "Île dé Man", "name:pih": "Ailen o' Maan", "name:pnb": "آئل آف مین", "name:scn": "Ìsula di Man", "name:sco": "Isle o Man", "name:tzl": "Vian", "name:vec": "Ìxoła de Man", "name:war": "Isla han Man", "name:wuu": "马恩岛", "name:xal": "Мэнин Арл", "name:yue": "馬恩島", "name:zea": "Eiland Man", "timezone": "Europe/Isle_of_Man", "way_area": "0.620114", "wikidata": "Q9676", "ISO3166-1": "IM", "wikipedia": "en:Isle of Man", "population": "75049", "admin_level": "2", "alt_name:eo": "Manksio;Manksujo", "alt_name:vi": "Đảo Mann", "name:nds-nl": "Man", "name:zh-Hans": "马恩岛", "name:zh-Hant": "曼島", "official_name": "Isle of Man", "name:be-tarask": "Мэн", "ISO3166-1:alpha2": "IM", "ISO3166-1:alpha3": "IMN", "default_language": "en", "official_name:cs": "Ostrov Man", "ISO3166-1:numeric": "833"}}}]}