{"type" : "FeatureCollection", "features" : [{"type": "Feature", "geometry": {"type":"MultiPolygon","coordinates":[[[[-61.6645712,12.610332],[-61.5754038,12.57205],[-61.5667125,12.5685868],[-61.5582534,12.5654386],[-61.5483837,12.562043],[-61.5404136,12.5595589],[-61.5311581,12.5569972],[-61.5222393,12.5548925],[-61.5122479,12.5529993],[-61.5040481,12.551871],[-61.4949086,12.5511345],[-61.4523362,12.549599],[-61.4487166,12.5492698],[-61.4452773,12.548729],[-61.4420183,12.5479766],[-61.4379534,12.5466444],[-61.4106901,12.535675],[-61.3825391,12.5278091],[-61.380711,12.5270094],[-61.3791559,12.5256913],[-61.3755594,12.5219004],[-61.374121,12.5206885],[-61.3718607,12.5191191],[-61.3689416,12.517552],[-61.3641769,12.5154374],[-61.3574305,12.5118698],[-61.3523612,12.5089224],[-61.3441935,12.5038295],[-61.3325216,12.4961077],[-61.3261262,12.4915801],[-61.3158337,12.4839554],[-61.2968145,12.4690254],[-61.2104846,12.3983584],[-61.1288178,12.4668682],[-61.1240599,12.4710008],[-61.1179132,12.4767222],[-61.1091576,12.4857603],[-61.1035726,12.4921625],[-61.0980577,12.4990585],[-61.0903718,12.5098291],[-61.0844975,12.5191894],[-61.0786597,12.5298555],[-61.0741659,12.5392826],[-60.9532306,12.831472],[-60.95138,12.8350814],[-60.9478638,12.8431444],[-60.9454389,12.8493174],[-60.941922,12.859683],[-60.9394547,12.8683406],[-60.9377114,12.8757188],[-60.9312304,12.8984882],[-60.9290918,12.9045872],[-60.9261503,12.9142275],[-60.9232377,12.9270673],[-60.9211871,12.9400664],[-60.9203036,12.9487936],[-60.919809,12.9575502],[-60.9196817,12.9641673],[-60.9198202,12.9691722],[-60.9103914,13.2145118],[-60.9102039,13.2186784],[-60.9093526,13.228292],[-60.9090524,13.2370569],[-60.9092488,13.247613],[-60.9088829,13.2544594],[-60.9087552,13.2610774],[-60.9090634,13.2719941],[-60.9098795,13.2817784],[-60.9099566,13.2842915],[-60.9096121,13.2961361],[-60.9097206,13.302443],[-60.9108944,13.3169347],[-60.9127784,13.3354353],[-60.9132814,13.3461376],[-60.9137944,13.3515393],[-60.9144562,13.3569255],[-60.9161194,13.3671258],[-60.9179554,13.3757093],[-60.9201723,13.3842063],[-60.9242022,13.396754],[-60.9279066,13.4061594],[-60.9304319,13.4171634],[-60.9341817,13.4297942],[-60.9363736,13.4360536],[-60.9402996,13.4457991],[-60.9438163,13.4534747],[-60.9476582,13.4609996],[-60.9530408,13.470506],[-60.958989,13.4799835],[-60.9640434,13.4872251],[-60.9694162,13.4942439],[-60.9750969,13.5010265],[-60.9827451,13.5092693],[-60.9970011,13.5163824],[-61.0452842,13.542295],[-61.0983918,13.5701427],[-61.1175574,13.5755823],[-61.1372732,13.5821047],[-61.1498021,13.5833974],[-61.1634408,13.5841814],[-61.1730387,13.5843008],[-61.1819988,13.5840136],[-61.186472,13.5837266],[-61.196512,13.5826813],[-61.2148215,13.5798779],[-61.2214098,13.5785218],[-61.2300934,13.5763428],[-61.2481463,13.5710489],[-61.2604363,13.5667953],[-61.2713829,13.5622877],[-61.2819769,13.5571871],[-61.2912474,13.5522517],[-61.2988577,13.5485242],[-61.3047204,13.5453476],[-61.3104976,13.5419429],[-61.321672,13.5346303],[-61.332333,13.5266178],[-61.3424347,13.5179399],[-61.3519341,13.5086337],[-61.3593491,13.5004595],[-61.3695518,13.4878131],[-61.3754949,13.4796388],[-61.3809485,13.4712642],[-61.3887945,13.4569538],[-61.3933524,13.4475153],[-61.3989095,13.4366256],[-61.404794,13.4312117],[-61.4110557,13.4249397],[-61.4184682,13.4167653],[-61.4212801,13.413352],[-61.4254352,13.4081427],[-61.4306483,13.4010108],[-61.4355383,13.393663],[-61.440096,13.3861133],[-61.4462907,13.3744416],[-61.4516919,13.3623982],[-61.4550478,13.3535821],[-61.4568677,13.3482066],[-61.4591641,13.3404394],[-61.4620275,13.3341692],[-61.4653578,13.3260284],[-61.468872,13.3160064],[-61.4718938,13.308427],[-61.4739283,13.3026397],[-61.4769254,13.2929382],[-61.6582564,12.6451742],[-61.660041,12.6382699],[-61.661477,12.6316919],[-61.6630756,12.6229481],[-61.6639888,12.6168095],[-61.6645712,12.610332]]]]}, "properties": {"osm_id": -550725, "boundary": "administrative", "admin_level": 2, "parents": null, "name": "Saint Vincent and the Grenadines", "local_name": "Saint Vincent and the Grenadines", "name_en": "Saint Vincent and the Grenadines", "all_tags": {"flag": "https://upload.wikimedia.org/wikipedia/commons/6/6d/Flag_of_Saint_Vincent_and_the_Grenadines.svg", "name": "Saint Vincent and the Grenadines", "name:ar": "سانت ڤينسنت و لݣرونادين", "name:br": "Sant-Visant hag ar Grenadinez", "name:cs": "Svatý Vincent a Grenadiny", "name:de": "St. Vincent und die Grenadinen", "name:el": "Άγιος Βικέντιος και Γρεναδίνες", "name:en": "Saint Vincent and the Grenadines", "name:eo": "Sankta Vincento kaj Grenadinoj", "name:es": "San Vicente y las Granadinas", "name:fr": "Saint-Vincent-et-les-Grenadines", "name:gn": "San Vicente ha Granadinas", "name:hr": "Sveti Vincent i Grenadini", "name:it": "Saint Vincent e Grenadine", "name:ja": "セントビンセント・グレナディーン諸島", "name:ko": "세인트빈센트 그레나딘", "name:la": "Sanctus Vincentius et Granatinae", "name:lt": "Sent Vinsentas ir Grenadinai", "name:nl": "Saint Vincent en de Grenadines", "name:no": "Saint Vincent og Grenadinene", "name:pl": "Saint Vincent i Grenadyny", "name:pt": "São Vicente e Granadinas", "name:ru": "Сент-Винсент и Гренадины", "name:se": "Saint Vincent ja Grenadiinnat", "name:sk": "Svätý Vincent a Grenadíny", "name:sl": "Sveti Vincencij in Grenadine", "name:sv": "Saint Vincent och Grenadinerna", "name:ta": "செயின்ட் வின்செண்டு மற்றும் கிரெனடீன்கள்", "name:tr": "Saint Vincent ve Grenadinler", "name:uk": "Сент-Вінсент і Гренадини", "name:vo": "Saluda-Vinsenteän e Grenadineäns", "name:zh": "圣文森特和格林纳丁斯 / 聖文森及格瑞那丁", "boundary": "administrative", "name:hak": "Saint Vincent lâu Grenadines", "name:nan": "Saint Vincent kap Grenadines", "name:smn": "Saint Vincent já Grenadiineh", "name:sms": "Saint Vincent da Grenadiin", "name:szl": "Saint Vincent i Grynadyny", "timezone": "America/St_Vincent", "way_area": "0.612388", "wikidata": "Q757", "ISO3166-1": "VC", "wikipedia": "en:Saint Vincent and the Grenadines", "admin_level": "2", "alt_name:cs": "Svatý Vincenc a Grenadiny", "driving_side": "left", "name:zh-Hans": "圣文森特和格林纳丁斯", "name:zh-Hant": "聖文森及格瑞那丁", "ISO3166-1:alpha2": "VC", "ISO3166-1:alpha3": "VCT", "ISO3166-1:numeric": "670"}}}]}