{"type" : "FeatureCollection", "features" : [{"type": "Feature", "geometry": {"type":"MultiPolygon","coordinates":[[[[-63.0491098,17.2767349],[-63.0437549,17.2675013],[-63.0399828,17.2616077],[-63.0364907,17.2565082],[-63.0312893,17.2494865],[-63.0258134,17.242729],[-63.0206342,17.2350907],[-63.0171285,17.2302828],[-63.0112523,17.2228769],[-63.0077463,17.2187288],[-62.9994205,17.2097718],[-62.9913521,17.2020289],[-62.9862993,17.1975855],[-62.9790248,17.1916741],[-62.9659562,17.1806024],[-62.9602348,17.1760431],[-62.9533576,17.1709672],[-62.9440747,17.1646338],[-62.9358437,17.1594412],[-62.9265897,17.1511464],[-62.9203622,17.1460935],[-62.9149598,17.1420222],[-62.9075735,17.1368812],[-62.899961,17.1320543],[-62.8941836,17.1286854],[-62.8882939,17.1255021],[-62.8660038,17.1142494],[-62.859805,17.1114731],[-62.8535147,17.108893],[-62.8472827,17.1065618],[-62.8403068,17.1042114],[-62.8400149,17.1033028],[-62.8387291,17.0957823],[-62.836493,17.0851079],[-62.8343634,17.0766897],[-62.8318573,17.0683341],[-62.8292628,17.0608568],[-62.8270094,17.0550109],[-62.8243054,17.0462682],[-62.8212608,17.0378294],[-62.8170656,17.0278194],[-62.8122417,17.017892],[-62.8113142,17.0161326],[-62.8109164,17.0158327],[-62.8076497,17.0095733],[-62.8033758,17.0025761],[-62.7984317,16.9952124],[-62.79179,16.9863102],[-62.7855594,16.9787987],[-62.7786048,16.971214],[-62.7706349,16.9633868],[-62.7639422,16.9574286],[-62.7586258,16.9530484],[-62.7516197,16.9477093],[-62.7427615,16.9415924],[-62.7361189,16.9365466],[-62.731186,16.9330189],[-62.7219803,16.9269867],[-62.7134223,16.9219661],[-62.7044224,16.9172504],[-62.6962303,16.9134193],[-62.6847136,16.908647],[-62.6758812,16.9054073],[-62.6667341,16.902504],[-62.6530998,16.8988159],[-62.6416029,16.8963861],[-62.6300904,16.894558],[-62.6197689,16.8934226],[-62.6085603,16.8927526],[-62.5995412,16.8926305],[-62.5890725,16.8929577],[-62.5767256,16.8939518],[-62.5652817,16.8954486],[-62.5549073,16.8973259],[-62.5487274,16.9061578],[-62.52906,16.933198],[-62.5171062,16.9466777],[-62.4600783,17.0139806],[-62.4421553,17.0349882],[-62.4379847,17.0396036],[-62.4328511,17.0514212],[-62.4230758,17.0731081],[-62.4018896,17.1124891],[-62.3983399,17.1320789],[-62.3887367,17.1721348],[-62.3836473,17.1894029],[-62.3819499,17.1942686],[-62.3762529,17.2617825],[-62.3741863,17.28273],[-62.3762149,17.2995691],[-62.3838542,17.3101363],[-62.3891451,17.3170093],[-62.3944168,17.3232983],[-62.400712,17.3301881],[-62.4073802,17.3368622],[-62.4132928,17.3422966],[-62.4203831,17.3482894],[-62.4283806,17.3544257],[-62.4357687,17.3595756],[-62.4420464,17.3635848],[-62.4508799,17.3687333],[-62.4593755,17.3731494],[-62.4649976,17.3798774],[-62.4716854,17.3871642],[-62.4780303,17.3934688],[-62.484656,17.3995015],[-62.4916684,17.4053461],[-62.4986989,17.4107054],[-62.5060893,17.4158553],[-62.5136815,17.4206917],[-62.5195263,17.4316094],[-62.5259135,17.4420596],[-62.5322479,17.451177],[-62.5390905,17.4599481],[-62.5435333,17.4651501],[-62.5494719,17.4715833],[-62.5559083,17.4799553],[-62.5610915,17.4861236],[-62.5694187,17.4954823],[-62.5760871,17.502451],[-62.5827346,17.5100283],[-62.587365,17.5148849],[-62.592154,17.5195885],[-62.597101,17.5241391],[-62.6038649,17.5299049],[-62.6124629,17.5365494],[-62.6217085,17.5429617],[-62.6309835,17.5487017],[-62.6408593,17.5541404],[-62.6500873,17.5612941],[-62.6568958,17.5661853],[-62.6622557,17.5697855],[-62.6670593,17.5728142],[-62.67439,17.5771137],[-62.6803614,17.5803403],[-62.6864399,17.5833789],[-62.6947011,17.587131],[-62.7018058,17.5900353],[-62.7129403,17.5957524],[-62.7217102,17.5998395],[-62.7310615,17.6037235],[-62.7389933,17.6066359],[-62.7497476,17.6100296],[-62.7619206,17.6131479],[-62.7738551,17.615505],[-62.7847057,17.6170552],[-62.8045748,17.5818143],[-62.8184123,17.5582652],[-62.8338018,17.5309588],[-62.8511821,17.5010365],[-62.8524867,17.4988767],[-62.8665023,17.4795988],[-62.8851625,17.4559836],[-62.8889978,17.4516575],[-62.8966481,17.4412614],[-62.9045164,17.4327258],[-62.9153585,17.4201258],[-62.9365191,17.3982148],[-62.941684,17.3925109],[-62.9527012,17.3792508],[-62.9916681,17.3396923],[-63.0491098,17.2767349]]]]}, "properties": {"osm_id": -536899, "boundary": "administrative", "admin_level": 2, "parents": null, "name": "Saint Kitts and Nevis", "local_name": "Saint Kitts and Nevis", "name_en": "Saint Kitts and Nevis", "all_tags": {"flag": "http://upload.wikimedia.org/wikipedia/commons/f/fe/Flag_of_Saint_Kitts_and_Nevis.svg", "name": "Saint Kitts and Nevis", "name:ar": "سانت كيتس ونيفيس", "name:br": "Saint Kitts-ha-Nevis", "name:cs": "Svatý Kryštof a Nevis", "name:de": "St. Kitts und Nevis", "name:el": "Άγιος Χριστόφορος και Νέβις", "name:en": "Saint Kitts and Nevis", "name:eo": "Sankta Kristoforo kaj Neviso", "name:es": "San Cristóbal y Nieves", "name:fr": "Saint-Christophe-et-Niévès", "name:gn": "San Cristóbal ha Nieves", "name:hr": "Sveti Kristofor i Nevis", "name:hu": "Saint Kitts és Nevis", "name:ia": "Sancte Christophoro e Nevis", "name:io": "Santa Kitts e Nevis", "name:it": "Saint Kitts e Nevis", "name:ja": "セントクリストファー・ネイビス", "name:ko": "세인트키츠 네비스", "name:la": "Sanctus Christophorus et Nives", "name:lt": "Sent Kitsas ir Nevis", "name:mk": "Свети Кристифер и Невис", "name:nl": "Saint Kitts en Nevis", "name:no": "St Kitts og Nevis", "name:pl": "Saint Kitts i Nevis", "name:pt": "São Cristóvão e Neves", "name:ru": "Сент-Китс и Невис", "name:se": "Saint Kitts ja Nevis", "name:sl": "Sveti Krištof in Nevis", "name:sv": "Saint Kitts och Nevis", "name:ta": "செயிண்ட் கிட்சும் நெவிசும்", "name:tr": "Saint Kitts ve Nevis", "name:uk": "Сент-Кiтс i Невiс", "name:vo": "Sankiteän e Neviseän", "name:zh": "聖克里斯多福及尼維斯", "boundary": "administrative", "name:jbo": "seint.kits.joik.nevis", "name:smn": "Saint Kitts já Nevis", "name:sms": "Saint Kitts da Nevis", "name:szl": "Saint Kitts i Nevis", "timezone": "America/St_Kitts", "way_area": "0.290941", "wikidata": "Q763", "ISO3166-1": "KN", "wikipedia": "en:Saint Kitts and Nevis", "admin_level": "2", "alt_name:eo": "Sankta-Kito kaj Neviso", "driving_side": "left", "ISO3166-1:alpha2": "KN", "ISO3166-1:alpha3": "KNA", "default_language": "en", "official_name:cs": "Federace Svatý Kryštof a Nevis", "official_name:en": "Federation of Saint Kitts and Nevis", "official_name:es": "Federación de San Cristóbal y Nieves", "official_name:fr": "Fédération de Saint-Christophe-et-Niévès", "official_name:gn": "Tetã Ñembyatypyre San Cristóbal ha Nieves", "official_name:lt": "Sent Kristoferio ir Nevio Federacija", "official_name:pt": "Federação de São Cristóvão e Neves", "ISO3166-1:numeric": "659"}}}]}