{"type" : "FeatureCollection", "features" : [{"type": "Feature", "geometry": {"type":"MultiPolygon","coordinates":[[[[-62.0072687,12.0013516],[-62.0071422,11.9947371],[-62.00665,11.9859798],[-62.0051856,11.9729043],[-62.0041469,11.966443],[-62.002856,11.9599511],[-61.9996711,11.9471756],[-61.9970794,11.9387843],[-61.9949167,11.932597],[-61.9907945,11.9223753],[-61.9851409,11.9104568],[-61.9809375,11.9027244],[-61.9765264,11.8953849],[-61.9693978,11.8848368],[-61.9616092,11.8747518],[-61.9432349,11.8529566],[-61.9372876,11.846429],[-61.9310572,11.8401631],[-61.9245555,11.8341707],[-61.919535,11.8298689],[-61.9143216,11.8257196],[-61.907197,11.8204596],[-61.896091,11.8131556],[-61.888428,11.8086904],[-61.880575,11.8045586],[-61.8725466,11.8007679],[-61.8643583,11.7973256],[-61.8566568,11.7944514],[-61.8477761,11.7915686],[-61.8357446,11.7883535],[-61.8036766,11.7810535],[-61.7910141,11.7786002],[-61.7777765,11.7768843],[-61.7644535,11.7760246],[-61.7577778,11.7759051],[-61.751102,11.7760246],[-61.737779,11.7768843],[-61.728941,11.7779335],[-61.7171572,11.7799337],[-61.7102807,11.7814311],[-61.7034607,11.7831613],[-61.6950251,11.7856411],[-61.6408493,11.8029655],[-61.6287482,11.807614],[-61.6196349,11.8117249],[-61.6088468,11.817405],[-61.5984006,11.8232809],[-61.5520737,11.8501929],[-61.5469899,11.8533489],[-61.5370194,11.8599498],[-61.5280177,11.8665149],[-61.5205675,11.8725219],[-61.5090106,11.8828305],[-61.5019871,11.8895625],[-61.4913578,11.9004655],[-61.4848716,11.9073833],[-61.479151,11.9138091],[-61.4722532,11.922378],[-61.4670609,11.9295042],[-61.4621889,11.9368466],[-61.4587237,11.9425088],[-61.4364831,11.9822102],[-61.2095018,12.3975559],[-61.2968145,12.4690254],[-61.3158337,12.4839554],[-61.3261262,12.4915801],[-61.3325216,12.4961077],[-61.3441935,12.5038295],[-61.3523612,12.5089224],[-61.3574305,12.5118698],[-61.3641769,12.5154374],[-61.3689416,12.517552],[-61.3718607,12.5191191],[-61.374121,12.5206885],[-61.3755594,12.5219004],[-61.3791559,12.5256913],[-61.380711,12.5270094],[-61.3825391,12.5278091],[-61.4106901,12.535675],[-61.4379534,12.5466444],[-61.4420183,12.5479766],[-61.4452773,12.548729],[-61.4487166,12.5492698],[-61.4523362,12.549599],[-61.4949086,12.5511345],[-61.5040481,12.551871],[-61.5122479,12.5529993],[-61.5207855,12.5545862],[-61.5296483,12.5566146],[-61.5388477,12.5591002],[-61.546771,12.5615208],[-61.5549282,12.5642588],[-61.5650021,12.567932],[-61.5736469,12.5713322],[-61.663148,12.6097247],[-61.6706646,12.6009394],[-61.676393,12.593498],[-61.8905913,12.3008062],[-61.897078,12.2913838],[-61.9052016,12.2776782],[-61.9093241,12.2696173],[-61.9295693,12.2276804],[-61.9331029,12.2198916],[-61.9921751,12.0773053],[-61.9949897,12.0701147],[-61.9971689,12.0638586],[-61.9997496,12.0554638],[-62.0019557,12.0469662],[-62.0041857,12.0362625],[-62.005228,12.0297274],[-62.006288,12.021019],[-62.0069611,12.0122734],[-62.0072687,12.0013516]]]]}, "properties": {"osm_id": -550727, "boundary": "administrative", "admin_level": 2, "parents": null, "name": "Grenada", "local_name": "Grenada", "name_en": "Grenada", "all_tags": {"flag": "https://upload.wikimedia.org/wikipedia/commons/b/bc/Flag_of_Grenada.svg", "name": "Grenada", "name:ar": "غرينادا", "name:br": "Grenada", "name:cs": "Grenada", "name:da": "Grenada", "name:de": "Grenada", "name:en": "Grenada", "name:eo": "Grenado", "name:es": "Granada", "name:fr": "Grenade", "name:fy": "Grenada", "name:gn": "Gyranáta", "name:he": "גרנדה", "name:hr": "Grenada", "name:hu": "Grenada", "name:it": "Grenada", "name:ja": "グレナダ", "name:ko": "그레나다", "name:nb": "Grenada", "name:nl": "Grenada", "name:pl": "Grenada", "name:pt": "Granada", "name:ru": "Гренада", "name:se": "Grenada", "name:sl": "Grenada", "name:sq": "Grenada", "name:sr": "Гренада", "name:sv": "Grenada", "name:ta": "கிரெனடா", "name:tr": "Grenada", "name:uk": "Гренада", "name:vo": "Grenadeän", "name:zh": "格林纳达", "boundary": "administrative", "name:hak": "Grenada", "name:jbo": "grenadas", "name:nan": "Grenada", "name:smn": "Grenada", "name:sms": "Grenada", "name:szl": "Grynada", "name:tzl": "Grenada", "timezone": "America/Grenada", "way_area": "0.415294", "wikidata": "Q769", "ISO3166-1": "GD", "wikipedia": "en:Grenada", "admin_level": "2", "driving_side": "left", "name:zh-Hans": "格林纳达", "name:zh-Hant": "格瑞那達", "ISO3166-1:alpha2": "GD", "ISO3166-1:alpha3": "GRD", "default_language": "en", "official_name:cs": "Grenadský stát", "ISO3166-1:numeric": "308"}}}]}