{"type" : "FeatureCollection", "features" : [{"type": "Feature", "geometry": {"type":"MultiPolygon","coordinates":[[[[-25.0135069,65.504539],[-25.0079,65.4707759],[-24.9886633,65.4378917],[-24.4823794,64.7928016],[-23.7161399,63.6160508],[-23.6902448,63.5848145],[-23.6531085,63.5559235],[-23.6057874,63.5301748],[-23.5496089,63.508277],[-23.4861329,63.4908313],[-23.4171095,63.4783156],[-23.3444321,63.4710725],[-23.2700882,63.4693],[-23.1961082,63.4730468],[-23.1245134,63.4822106],[-22.9862726,63.5055169],[-22.4999831,63.417278],[-20.7739703,63.1018832],[-20.6951141,63.0904784],[-20.6129754,63.0859177],[-20.5304013,63.0883592],[-19.0873038,63.1853262],[-18.7041446,63.1850399],[-18.6405141,63.186973],[-18.5781429,63.1929993],[-18.0646406,63.25924],[-17.9666683,63.2775858],[-17.7677523,63.3278334],[-17.7097985,63.3452021],[-17.6585327,63.3664129],[-17.5909708,63.399037],[-17.3176763,63.5463023],[-16.5809194,63.5875697],[-16.5117382,63.5937375],[-16.4455447,63.6046373],[-16.3839549,63.6200037],[-15.9348504,63.7522801],[-15.8561873,63.7813498],[-15.6952338,63.8557126],[-14.7699909,64.0538348],[-14.7049756,64.0704496],[-14.2053915,64.2217795],[-14.1429711,64.2442293],[-13.7930328,64.3931832],[-13.6710124,64.4518527],[-13.6425931,64.4690241],[-13.6153188,64.4534115],[-13.5738614,64.4356705],[-13.5108638,64.4156704],[-13.4897093,64.4103976],[-13.4410405,64.4005224],[-13.4160092,64.3965455],[-13.366367,64.3906531],[-13.3379223,64.3883995],[-13.2861594,64.3862906],[-13.2577749,64.3862021],[-13.2054241,64.3880184],[-13.1779507,64.3900183],[-13.1265937,64.3957843],[-13.100824,64.3997347],[-13.0520467,64.409354],[-13.0286943,64.4150619],[-12.9840405,64.4283177],[-12.9637208,64.4355428],[-12.9246461,64.4521023],[-12.8774625,64.4787777],[-12.8628143,64.4893821],[-12.8412298,64.5084799],[-12.8299676,64.5211263],[-12.8170006,64.5403761],[-12.8103541,64.5548426],[-12.8054995,64.5735688],[-12.8046162,64.589512],[-12.8070976,64.6071209],[-12.8129805,64.6240828],[-12.8217977,64.6400819],[-12.8352453,64.6575025],[-12.8492284,64.6715143],[-12.8707799,64.6887497],[-12.8886494,64.7005212],[-12.9185382,64.7168661],[-12.9389685,64.7262719],[-12.9770864,64.7409865],[-13.044644,64.7603665],[-13.1191383,64.7744063],[-13.1982698,64.7826709],[-13.2195536,64.7832596],[-13.2053374,64.7938225],[-13.1327532,64.8379791],[-13.0828305,64.8767804],[-13.0662104,64.893954],[-13.0436654,64.9236035],[-13.0322414,64.9543806],[-13.0138375,65.0537656],[-13.0134253,65.0825746],[-13.0309571,65.1901567],[-13.1236152,65.5251641],[-13.135891,65.5523387],[-13.1571548,65.5785457],[-14.0629585,66.4484049],[-14.1044015,66.4790366],[-14.1586607,66.5063015],[-14.2240952,66.5293557],[-14.2987012,66.547483],[-14.3801734,66.5601192],[-15.8897915,66.7266712],[-16.0151344,66.7332668],[-16.1839875,66.733545],[-16.2977384,66.7284912],[-16.6492155,66.6960121],[-16.7327447,66.6850323],[-16.8100705,66.6684171],[-16.8787934,66.6466855],[-17.3760944,66.4564643],[-17.5467834,66.4291739],[-17.525904,66.4439965],[-17.4972919,66.4760565],[-17.4826923,66.5095933],[-17.4808144,66.5592144],[-17.4955682,66.5912043],[-17.5189072,66.619522],[-17.5500357,66.6444189],[-17.5809393,66.6650218],[-17.6303671,66.6925919],[-17.686385,66.7153632],[-17.7304167,66.729094],[-17.8095819,66.7472917],[-17.8958605,66.7594826],[-17.9863497,66.7652557],[-18.07796,66.7644206],[-18.1676717,66.7570018],[-18.2524222,66.7432489],[-18.3295553,66.7237269],[-18.3951639,66.6995068],[-18.4487474,66.6710431],[-18.4886246,66.6392519],[-18.513571,66.6051529],[-18.5186948,66.5856674],[-18.5249897,66.574002],[-18.5278503,66.5382791],[-18.514673,66.5029264],[-18.5007764,66.4865632],[-18.4924016,66.4727823],[-18.4580604,66.4422585],[-18.4136283,66.4155032],[-18.3591378,66.3919358],[-18.3170963,66.37685],[-18.8000481,66.3850585],[-18.8604116,66.3845074],[-20.1192119,66.336825],[-22.1605817,66.6292273],[-22.2041148,66.6386235],[-22.2961964,66.6543466],[-22.3748454,66.6625504],[-22.4558284,66.6655751],[-22.5441604,66.662906],[-22.5968635,66.6570438],[-22.8780272,66.6662373],[-22.9770169,66.6654754],[-23.0736582,66.6569762],[-23.1641203,66.6410773],[-23.3815223,66.5918452],[-23.4683376,66.566778],[-23.5395689,66.5348961],[-24.1865798,66.1665594],[-24.2216397,66.1428684],[-24.5264983,65.8972551],[-24.9484044,65.6014078],[-24.983374,65.5708141],[-25.0052698,65.5382093],[-25.0135069,65.504539]]],[[[-19.1994601,67.151],[-19.1991643,67.145],[-19.1987094,67.141],[-19.1976393,67.135],[-19.1966663,67.131],[-19.1948148,67.125],[-19.193317,67.121],[-19.1896809,67.113],[-19.1863846,67.107],[-19.183911,67.103],[-19.1784418,67.095],[-19.1754583,67.091],[-19.1705444,67.085],[-19.1669694,67.081],[-19.1590776,67.073],[-19.1524855,67.067],[-19.1477568,67.063],[-19.1374611,67.055],[-19.1304311,67.05],[-19.12446,67.046],[-19.1115377,67.038],[-19.0972064,67.03],[-19.0813151,67.022],[-19.0659795,67.015],[-19.0491347,67.008],[-19.0305622,67.001],[-19.0130488,66.995],[-18.9938034,66.989],[-18.9724822,66.983],[-18.9527767,66.978],[-18.9308654,66.973],[-18.9061015,66.968],[-18.8835343,66.964],[-18.8575017,66.96],[-18.8346466,66.957],[-18.807225,66.954],[-18.7846338,66.952],[-18.7550018,66.95],[-18.7339923,66.949],[-18.6888464,66.948],[-18.6750505,66.948],[-18.6299046,66.949],[-18.6088951,66.95],[-18.5792631,66.952],[-18.5566719,66.954],[-18.5292503,66.957],[-18.5063952,66.96],[-18.4864948,66.963],[-18.4631739,66.967],[-18.4377298,66.972],[-18.4153094,66.977],[-18.3952019,66.982],[-18.3734592,66.988],[-18.3535653,66.994],[-18.3355053,67],[-18.3136326,67.008],[-18.2963177,67.015],[-18.2805686,67.022],[-18.2642577,67.03],[-18.2495507,67.038],[-18.2362873,67.046],[-18.2301564,67.05],[-18.2229351,67.055],[-18.2123505,67.063],[-18.2074843,67.067],[-18.2006931,67.073],[-18.1925479,67.081],[-18.1888506,67.085],[-18.1837581,67.091],[-18.1806583,67.095],[-18.1764406,67.101],[-18.1739112,67.105],[-18.1705328,67.111],[-18.1685534,67.115],[-18.1659874,67.121],[-18.1645425,67.125],[-18.1627697,67.131],[-18.1618488,67.135],[-18.1608564,67.141],[-18.1604531,67.145],[-18.1602346,67.151],[-18.1604797,67.157],[-18.1609012,67.161],[-18.1619219,67.167],[-18.1628628,67.171],[-18.1646678,67.177],[-18.166136,67.181],[-18.1697167,67.189],[-18.1718342,67.193],[-18.175352,67.199],[-18.179284,67.205],[-18.1821927,67.209],[-18.1869974,67.215],[-18.1905018,67.219],[-18.1982584,67.227],[-18.2047549,67.233],[-18.2094229,67.237],[-18.2196052,67.245],[-18.2265704,67.25],[-18.2324931,67.254],[-18.2453294,67.262],[-18.2595905,67.27],[-18.2754294,67.278],[-18.2907359,67.285],[-18.3075697,67.292],[-18.3261516,67.299],[-18.3436922,67.305],[-18.366161,67.312],[-18.3875549,67.318],[-18.4073432,67.323],[-18.4293622,67.328],[-18.4542647,67.333],[-18.4769718,67.337],[-18.5031798,67.341],[-18.5261993,67.344],[-18.5538287,67.347],[-18.5765984,67.349],[-18.606472,67.351],[-18.6276568,67.352],[-18.6731855,67.353],[-18.6878638,67.353],[-18.7333925,67.352],[-18.7545773,67.351],[-18.770808,67.35],[-18.7964298,67.348],[-18.8262736,67.345],[-18.8505847,67.342],[-18.871497,67.339],[-18.8957951,67.335],[-18.92212,67.33],[-18.9451962,67.325],[-18.9658157,67.32],[-18.9880112,67.314],[-19.0079604,67.308],[-19.026054,67.302],[-19.0451865,67.295],[-19.0624952,67.288],[-19.0782195,67.281],[-19.0944822,67.273],[-19.1091225,67.265],[-19.1223031,67.257],[-19.1371521,67.247],[-19.1477722,67.239],[-19.1526484,67.235],[-19.1594461,67.229],[-19.1675858,67.221],[-19.171275,67.217],[-19.1763494,67.211],[-19.1794336,67.207],[-19.1836232,67.201],[-19.1861308,67.197],[-19.1894731,67.191],[-19.1914262,67.187],[-19.1939498,67.181],[-19.1953648,67.177],[-19.1970909,67.171],[-19.1979796,67.167],[-19.1989225,67.161],[-19.1992923,67.157],[-19.1994601,67.151]]]]}, "properties": {"osm_id": -299133, "boundary": "administrative", "admin_level": 2, "parents": null, "name": "Iceland", "local_name": "Ísland", "name_en": "Iceland", "all_tags": {"flag": "http://upload.wikimedia.org/wikipedia/commons/c/ce/Flag_of_Iceland.svg", "name": "Ísland", "name:af": "Ysland", "name:am": "አይስላንድ", "name:an": "Islandia", "name:ar": "آيسلندا", "name:az": "İslandiya", "name:ba": "Исландия", "name:be": "Ісландыя", "name:bg": "Исландия", "name:bi": "Iceland", "name:bm": "Aisland", "name:bn": "আইসল্যান্ড", "name:bo": "ཨཡིསུ་ལེན་ཌ།", "name:br": "Island", "name:bs": "Island", "name:ca": "Islàndia", "name:ce": "Исланди", "name:co": "Islanda", "name:cs": "Island", "name:cu": "Исландъ", "name:cv": "Исланди", "name:cy": "Gwlad yr Iâ", "name:da": "Island", "name:de": "Island", "name:dv": "އައިސްލަންޑަން", "name:dz": "ཨའིསི་ལེནཌ་", "name:ee": "Iceland", "name:el": "Ισλανδία", "name:en": "Iceland", "name:eo": "Islando", "name:es": "Islandia", "name:et": "Island", "name:eu": "Islandia", "name:fa": "ایسلند", "name:ff": "Islannda", "name:fi": "Islanti", "name:fo": "Ísland", "name:fr": "Islande", "name:fy": "Yslân", "name:ga": "An Íoslainn", "name:gd": "Innis Tìle", "name:gl": "Islandia", "name:gn": "Iylanda", "name:gu": "આઈસલેંડ", "name:gv": "Yn Eeslynn", "name:he": "איסלנד", "name:hi": "आइसलैण्ड", "name:hr": "Island", "name:ht": "Islann", "name:hu": "Izland", "name:hy": "Իսլանդիա", "name:ia": "Islanda", "name:id": "Islandia", "name:ie": "Island", "name:io": "Islando", "name:is": "Ísland", "name:it": "Islanda", "name:ja": "アイスランド", "name:jv": "Islandia", "name:ka": "ისლანდია", "name:kg": "Islande", "name:kk": "Исландия", "name:kl": "Islandi", "name:km": "ប្រទេសអាយឡែន", "name:kn": "ಐಸ್‍ಲ್ಯಾಂಡ್", "name:ko": "아이슬란드", "name:ku": "Îslenda", "name:kv": "Исландия", "name:kw": "Island", "name:ky": "Исландия", "name:la": "Islandia", "name:lb": "Island", "name:lg": "Isilandi", "name:li": "Iesland", "name:ln": "Islandi", "name:lo": "ອິດສະລັງ", "name:lt": "Islandija", "name:lv": "Islande", "name:mi": "Tiorangi", "name:mk": "Исланд", "name:ml": "ഐസ്‌ലാന്റ്", "name:mn": "Исланд", "name:mr": "आइसलँड", "name:ms": "Iceland", "name:mt": "Iżlanda", "name:my": "အိုက်စလန်နိုင်ငံ", "name:na": "Aiterand", "name:ne": "आइसल्याण्ड", "name:nl": "IJsland", "name:nn": "Island", "name:no": "Island", "name:nv": "Tin Bikéyah", "name:oc": "Islàndia", "name:or": "ଆଇସଲ୍ୟାଣ୍ଡ", "name:os": "Исланди", "name:pa": "ਆਈਸਲੈਂਡ", "name:pl": "Islandia", "name:ps": "آيسلېنډ", "name:pt": "Islândia", "name:qu": "Islandya", "name:rm": "Islanda", "name:ro": "Islanda", "name:ru": "Исландия", "name:rw": "Isilande", "name:sa": "आइसलैंड", "name:sc": "Islanda", "name:se": "Islánda", "name:sg": "Islânde", "name:sh": "Island", "name:si": "අයිස්ලන්තය", "name:sk": "Island", "name:sl": "Islandija", "name:sm": "Aiselani", "name:so": "Island", "name:sq": "Islanda", "name:sr": "Исланд", "name:ss": "Echweni", "name:st": "Iceland", "name:su": "Islandia", "name:sv": "Island", "name:sw": "Iceland", "name:ta": "ஐசுலாந்து", "name:te": "ఐస్‌లాండ్", "name:tg": "Исландия", "name:th": "ประเทศไอซ์แลนด์", "name:tk": "Islandiýa", "name:tl": "Lupangyelo", "name:tr": "İzlanda", "name:tt": "Исландия", "name:ug": "ئىسلاندىيە", "name:uk": "Ісландія", "name:ur": "آئس لینڈ", "name:uz": "Islandiya", "name:vi": "Iceland", "name:vo": "Lisladeän", "name:wa": "Izlande", "name:wo": "Islaand", "name:yi": "איסלאנד", "name:yo": "Íslándì", "name:zh": "冰岛 / 冰島", "name:zu": "I-Ayisilandi", "boundary": "administrative", "int_name": "Iceland", "name:ace": "Islandia", "name:als": "Island", "name:ang": "Īsland", "name:arz": "ايسلاندا", "name:ast": "Islandia", "name:bar": "Island", "name:bcl": "Islanda", "name:bpy": "আইসল্যান্ড", "name:bxr": "Исланд", "name:ceb": "Islandya", "name:chr": "ᎤᏁᏍᏓᎶᎢ", "name:ckb": "ئایسلەند", "name:crh": "İslandiya", "name:csb": "Islandëjô", "name:diq": "İslanda", "name:dsb": "Islandska", "name:eml": "Islanda", "name:ext": "Islándia", "name:frp": "Islande", "name:frr": "Islönj", "name:fur": "Islande", "name:gag": "İslandiya", "name:hak": "Pên-tó", "name:haw": "ʻĀina Hau", "name:hif": "Iceland", "name:hsb": "Islandska", "name:ilo": "Islandia", "name:jbo": "island", "name:kaa": "İslandiya", "name:kab": "Island", "name:kbd": "Ислэнд", "name:koi": "Исланд", "name:krc": "Исландия", "name:lad": "Islandia", "name:lez": "Исландия", "name:lij": "Islanda", "name:lmo": "Islanda", "name:ltg": "Īslandeja", "name:lzh": "冰島", "name:mdf": "Исланда", "name:mhr": "Исландий", "name:mwl": "Eislándia", "name:nah": "Iztlālpan", "name:nan": "Peng-tó", "name:nds": "Iesland", "name:nov": "Islande", "name:nrm": "Islaunde", "name:pam": "Islandya", "name:pcd": "Islinde", "name:pih": "Iseland", "name:pms": "Islanda", "name:pnb": "آئس لینڈ", "name:pnt": "Ισλανδία", "name:rue": "Ісланд", "name:sah": "Исландия", "name:scn": "Islandia", "name:sco": "Iceland", "name:smn": "Island", "name:sms": "Islantt", "name:stq": "Ieslound", "name:szl": "Islandyjŏ", "name:tet": "Izlándia", "name:tok": "ma Isilan", "name:tpi": "Aislan", "name:tzl": "Ispäts", "name:udm": "Исландия", "name:vec": "Islanda", "name:vep": "Islandii", "name:vls": "Ysland", "name:vro": "Island", "name:war": "Islandya", "name:wuu": "冰岛", "name:xal": "Ислгудин Орн", "name:xmf": "ისლანდია", "name:yue": "冰島", "name:zea": "Iesland", "timezone": "Atlantic/Reykjavik", "way_area": "33.7404", "wikidata": "Q189", "ISO3166-1": "IS", "wikipedia": "is:Ísland", "population": "320000", "admin_level": "2", "name:nds-nl": "Ieslaand", "name:bat-smg": "Islandėjė", "name:roa-rup": "Islanda", "name:zh-Hans": "冰岛", "name:zh-Hant": "冰島", "name:roa-tara": "Islanne", "official_name": "Lýðveldið Ísland", "name:be-tarask": "Ісьляндыя", "ISO3166-1:alpha2": "IS", "ISO3166-1:alpha3": "ISL", "default_language": "is", "official_name:cs": "Islandská republika", "official_name:de": "Republik Island", "official_name:en": "Republic of Iceland", "official_name:eo": "Islanda Respubliko", "official_name:fi": "Islannin tasavalta", "official_name:fr": "République d'Islande", "official_name:is": "Lýðveldið Ísland", "official_name:pt": "República da Islândia", "official_name:sv": "Republiken Island", "ISO3166-1:numeric": "352"}}}]}