{"type" : "FeatureCollection", "features" : [{"type": "Feature", "geometry": {"type":"MultiPolygon","coordinates":[[[[30.7908,-26.71229],[30.79089,-26.71506],[30.79139,-26.7205],[30.79239,-26.7284],[30.79235,-26.72904],[30.79293,-26.73442],[30.79315,-26.73522],[30.79313,-26.73637],[30.79422,-26.74589],[30.79463,-26.7505],[30.79448,-26.75071],[30.79463,-26.75229],[30.7987,-26.78782],[30.79866,-26.78866],[30.79988,-26.79818],[30.80149,-26.81379],[30.80252,-26.82167],[30.80265,-26.82402],[30.80302,-26.825],[30.8071,-26.83306],[30.8098815,-26.8380117],[30.8132093,-26.8444274],[30.8227283,-26.8415578],[30.82375,-26.84086],[30.82531,-26.84015],[30.8305197,-26.8351266],[30.83454,-26.82989],[30.8361,-26.8269],[30.83686,-26.8264],[30.83844,-26.82611],[30.83937,-26.82561],[30.84079,-26.82533],[30.84401,-26.82508],[30.84645,-26.82278],[30.84664,-26.82223],[30.84684,-26.82004],[30.84744,-26.81935],[30.84805,-26.81897],[30.85166,-26.81792],[30.85318,-26.81766],[30.85551,-26.81792],[30.85904,-26.81899],[30.86017,-26.81902],[30.86172,-26.81867],[30.86474,-26.81653],[30.87108,-26.80986],[30.87203,-26.80928],[30.87681,-26.80796],[30.88052,-26.80648],[30.88236,-26.80565],[30.88329,-26.80506],[30.887285,-26.803585],[30.888,-26.803],[30.88879,-26.80202],[30.88868,-26.80143],[30.8878,-26.79979],[30.88771,-26.79919],[30.88863,-26.79741],[30.88955,-26.79474],[30.88942,-26.79343],[30.88894,-26.79228],[30.88886,-26.7917],[30.88937,-26.78896],[30.8897,-26.78801],[30.89091,-26.78629],[30.89186,-26.78532],[30.89191,-26.78506],[30.89216,-26.78611],[30.89297,-26.80531],[30.89767,-26.82732],[30.90196,-26.84916],[30.90225,-26.8518],[30.90274,-26.85223],[30.90406,-26.85253],[30.90475,-26.8529],[30.90547,-26.85404],[30.90669,-26.85461],[30.90695,-26.85494],[30.90729,-26.85625],[30.90718,-26.85919],[30.90742,-26.85993],[30.90955,-26.86096],[30.91761,-26.86596],[30.91921,-26.86758],[30.92521,-26.87182],[30.92594,-26.87247],[30.92752,-26.87441],[30.92972,-26.87626],[30.93067,-26.87731],[30.93307,-26.87925],[30.93459,-26.88119],[30.93526,-26.88159],[30.93604,-26.88176],[30.9372,-26.88313],[30.93783,-26.88344],[30.94003,-26.8836],[30.94074,-26.8839],[30.94088,-26.8852],[30.94231,-26.88652],[30.94263,-26.88773],[30.94301,-26.88821],[30.94344,-26.88852],[30.94418,-26.88868],[30.94584,-26.88859],[30.9469,-26.88956],[30.9492,-26.89073],[30.95072,-26.89185],[30.95366,-26.89324],[30.95458,-26.89411],[30.9553,-26.89548],[30.95618,-26.8962],[30.95871,-26.8972],[30.95962,-26.89904],[30.96335,-26.90217],[30.96637,-26.90361],[30.96807,-26.90548],[30.96964,-26.9065],[30.97306,-26.90774],[30.97356,-26.90821],[30.97682,-26.92161],[30.9768,-26.93574],[30.97694,-26.93901],[30.9768483,-26.951092],[30.9734881,-26.9643239],[30.9673428,-26.9757199],[30.96654,-26.97759],[30.96594,-26.97842],[30.96479,-26.98077],[30.958326,-26.992129],[30.96986,-27.01234],[30.98476,-27.03698],[31.02176,-27.06778],[31.0377422,-27.0796441],[31.04846,-27.08706],[31.06133,-27.09629],[31.15055,-27.20208],[31.2022893,-27.2189342],[31.2164503,-27.2236373],[31.22286,-27.22593],[31.27479,-27.24289],[31.27433,-27.24317],[31.2928199,-27.2489099],[31.3183979,-27.2573569],[31.3184264,-27.2575719],[31.3197455,-27.2581345],[31.3232245,-27.2591477],[31.3765617,-27.2766778],[31.4273353,-27.2935132],[31.4432149,-27.2986977],[31.4532801,-27.3017801],[31.4936899,-27.3151601],[31.5267699,-27.3154899],[31.7498899,-27.3166301],[31.9777599,-27.3175201],[31.9764699,-27.3156699],[31.9757499,-27.3107699],[31.9763799,-27.3023499],[31.9768304,-27.2428962],[31.9766365,-27.2348587],[31.975424,-27.2083969],[31.9751806,-27.190476],[31.9739251,-27.1636951],[31.9736261,-27.1598652],[31.9737681,-27.1543529],[31.9735375,-27.1508202],[31.9734705,-27.1442823],[31.9747855,-27.1409793],[31.9756921,-27.1373052],[31.9756071,-27.1306392],[31.9753469,-27.128166],[31.9743625,-27.1226643],[31.9746048,-27.1185254],[31.9745263,-27.1132379],[31.9749915,-27.1076854],[31.9796099,-27.0910199],[31.9832799,-27.0574399],[31.9830928,-27.0511677],[31.9845998,-27.0401679],[31.9845498,-27.0390077],[31.9839802,-27.0375984],[31.9840976,-27.0173146],[31.9836967,-27.0160215],[31.9841553,-27.00928],[31.9844399,-27.0012099],[31.9935847,-26.9646596],[31.9957819,-26.9496754],[31.995923,-26.946832],[31.9961581,-26.9460438],[31.9981872,-26.9325796],[31.9964466,-26.9215423],[32.0009499,-26.9031799],[32.0131323,-26.8358231],[32.0140341,-26.8279495],[32.015911,-26.8202145],[32.0149908,-26.8163383],[32.0131169,-26.814208],[32.0108026,-26.8103577],[32.0126189,-26.8098115],[32.0163188,-26.8080033],[32.0179734,-26.8074071],[32.0187935,-26.8072404],[32.0212335,-26.8071782],[32.0244101,-26.8067199],[32.0260699,-26.8060099],[32.0272399,-26.8058499],[32.0300399,-26.8059901],[32.0316299,-26.8065399],[32.0341399,-26.8069299],[32.0352399,-26.8073399],[32.0365799,-26.8084801],[32.0387199,-26.8122301],[32.0395699,-26.8126701],[32.0399799,-26.8133801],[32.0413399,-26.8145501],[32.0455799,-26.8171001],[32.0468899,-26.8177201],[32.0496699,-26.8183101],[32.0507999,-26.8183601],[32.0521599,-26.8181499],[32.0539999,-26.8183701],[32.0560799,-26.8178799],[32.0586599,-26.8176801],[32.0602299,-26.8171599],[32.0617399,-26.8158201],[32.0625399,-26.8142799],[32.0645599,-26.8127699],[32.0654799,-26.8117699],[32.0686699,-26.8108401],[32.0712299,-26.8098001],[32.0734499,-26.8092501],[32.0753599,-26.8090299],[32.0794599,-26.8082001],[32.0801101,-26.8081201],[32.0802661,-26.808329],[32.0821419,-26.8081704],[32.0842349,-26.8077474],[32.0844999,-26.8075101],[32.0858999,-26.8071099],[32.0890199,-26.8058101],[32.0925599,-26.8048701],[32.0970199,-26.8044199],[32.0982399,-26.8045901],[32.1004999,-26.8052399],[32.1016099,-26.8059401],[32.1037899,-26.8075201],[32.1052099,-26.8092899],[32.1060899,-26.8109501],[32.1065499,-26.8122501],[32.1070799,-26.8147299],[32.1075899,-26.8188899],[32.1083899,-26.8210199],[32.1151099,-26.8301599],[32.1174399,-26.8343999],[32.1186799,-26.8361201],[32.1194199,-26.8380499],[32.1214252,-26.83921],[32.1231247,-26.839838],[32.1247383,-26.8400524],[32.1333578,-26.8400391],[32.134622,-26.8402618],[32.1348947,-26.8187395],[32.1344289,-26.7622987],[32.1346004,-26.751263],[32.1348095,-26.6728934],[32.1349279,-26.5268852],[32.0774184,-26.4056457],[32.0743831,-26.305709],[32.0846575,-26.2573377],[32.0984403,-26.1941367],[32.1053495,-26.1616842],[32.0977486,-26.1125597],[32.0889329,-26.0574419],[32.0865044,-26.0404858],[32.0862703,-26.0344623],[32.0857551,-26.0291475],[32.0873004,-26.0085248],[32.0300939,-26.0001518],[32.0103394,-25.993462],[32.0030495,-25.9969452],[31.9829041,-25.964122],[31.9755211,-25.95267],[31.9751905,-25.9526462],[31.86786,-25.9996],[31.75989,-25.93265],[31.60341,-25.83531],[31.539645,-25.794974],[31.4163,-25.71876],[31.31594,-25.74304],[31.26357,-25.80963],[31.12657,-25.92115],[31.1226,-25.9389],[31.12134,-25.94391],[31.11761,-25.96098],[31.11734,-25.96162],[31.11564,-25.96942],[31.11516,-25.97231],[31.11492,-25.97266],[31.11275,-25.98257],[31.1061,-25.99549],[31.10372,-26.00035],[31.1032444,-26.0016289],[31.09375,-26.0191],[31.0921,-26.02186],[31.09163,-26.02295],[31.08999,-26.0259],[31.08961,-26.02619],[31.07104,-26.06731],[31.01925,-26.15855],[30.990536,-26.21018],[30.96836,-26.24971],[30.961438,-26.261732],[30.89568,-26.31781],[30.89186,-26.32082],[30.87694,-26.34856],[30.857558,-26.383792],[30.83101,-26.41117],[30.80506,-26.466671],[30.79181,-26.56911],[30.79144,-26.6055],[30.7914,-26.64717],[30.79125,-26.64731],[30.79116,-26.64815],[30.79125,-26.65695],[30.79098,-26.68471],[30.79096,-26.70627],[30.7908,-26.71229]]]]}, "properties": {"osm_id": -88210, "boundary": "administrative", "admin_level": 2, "parents": null, "name": "Eswatini", "local_name": "eSwatini", "name_en": "Eswatini", "all_tags": {"flag": "https://upload.wikimedia.org/wikipedia/commons/1/1f/Flag_of_Swaziland_%281968%E2%80%932011%29.svg", "name": "eSwatini", "name:af": "Swaziland", "name:am": "ስዋዚላንድ", "name:an": "Swazilandia", "name:ar": "سوازيلاند", "name:ay": "Suasïsuiu", "name:az": "Svazilend", "name:ba": "Свазиленд", "name:be": "Эсваціні", "name:bg": "Есватини", "name:bn": "সোয়াজিল্যান্ড", "name:bo": "སུ་ཝ་ཛི་ལནཌ།", "name:br": "Eswatini", "name:bs": "Svazilend", "name:ca": "Swazilàndia", "name:cs": "Eswatini", "name:cy": "Gwlad Swazi", "name:da": "Eswatini", "name:de": "Eswatini", "name:dv": "ސުވާޒިލޭންޑު", "name:ee": "Swaziland", "name:el": "Σουαζιλάνδη", "name:en": "Eswatini", "name:eo": "Svazilando", "name:es": "Eswatini", "name:et": "Svaasimaa", "name:eu": "Swazilandia", "name:fa": "سوازیلند", "name:fi": "Swazimaa", "name:fo": "Svasiland", "name:fr": "Eswatini", "name:fy": "Swazilân", "name:ga": "Esuaitíní", "name:gd": "Dùthaich nan Suasaidh", "name:gl": "Suacilandia", "name:gn": "Esuatíni", "name:gu": "સ્વાઝીલેન્ડ", "name:gv": "Yn Çheer Swassee", "name:he": "סווזילנד", "name:hi": "स्वाज़ीलैण्ड", "name:hr": "Svazi", "name:ht": "Swazilann", "name:hu": "Szváziföld", "name:hy": "Սվազիլենդ", "name:id": "Swaziland", "name:ie": "Swaziland", "name:io": "Swazilando", "name:is": "Svasíland", "name:it": "Eswatini", "name:ja": "スワジランド", "name:jv": "Swaziland", "name:ka": "სვაზილენდი", "name:kg": "Swati", "name:kk": "Суазиланд", "name:kn": "ಸ್ವಾಜಿಲ್ಯಾಂಡ್", "name:ko": "스와질란드", "name:ku": "Swaziland", "name:kw": "Pow Swati", "name:la": "Swazia", "name:lb": "Swasiland", "name:li": "Swaziland", "name:ln": "Swaziland", "name:lt": "Svazilandas", "name:lv": "Svazilenda", "name:mi": "Warerangi", "name:mk": "Свазиленд", "name:ml": "സ്വാസിലാന്റ്", "name:mn": "Свазиланд", "name:mr": "स्वाझीलँड", "name:ms": "Swaziland", "name:mt": "Sważiland", "name:my": "ဆွာဇီလန်နိုင်ငံ", "name:nl": "Eswatini", "name:nn": "Eswatini", "name:no": "Eswatini", "name:nv": "Swáazi Dineʼé Bikéyah", "name:oc": "Swaziland", "name:or": "ସ୍ଵାଜିଲ୍ୟାଣ୍ଡ", "name:os": "Свазиленд", "name:pa": "ਸਵਾਜ਼ੀਲੈਂਡ", "name:pl": "Eswatini", "name:ps": "سوازيلانډ", "name:pt": "Essuatíni", "name:qu": "Swasisuyu", "name:ro": "eSwatini", "name:ru": "Эсватини", "name:rw": "Swazilande", "name:sa": "स्वाजीलैंड", "name:sc": "Swaziland", "name:se": "Swazieana", "name:sg": "Swäzïlânde", "name:sh": "Svazilend", "name:sk": "Eswatini", "name:sl": "Esvatini", "name:sn": "Swaziland", "name:so": "Swasiland", "name:sq": "Suazilendi", "name:sr": "Есватини", "name:ss": "eSwatini", "name:su": "Swaziland", "name:sv": "Swaziland", "name:sw": "Uswazi", "name:ta": "சுவாசிலாந்து", "name:tg": "Свазиленд", "name:th": "ประเทศสวาซิแลนด์", "name:ti": "ስዋዚላንድ", "name:tk": "Swazilend", "name:tl": "Suwasilandya", "name:tr": "Esvatini", "name:ts": "Swaziland", "name:tt": "Свазиленд", "name:ug": "سۋازىلېند", "name:uk": "Есватіні", "name:ur": "سوازی لینڈ", "name:uz": "Svazilend", "name:ve": "Swazini", "name:vi": "Eswatini", "name:vo": "Svasiyän", "name:wo": "Suwaasilaand", "name:yi": "סוואזילאנד", "name:yo": "Swásílándì", "name:zh": "斯威士兰 / 史瓦蒂尼 / 斯威士蘭", "name:zu": "ISwazilandi", "boundary": "administrative", "name:ace": "Swaziland", "name:als": "Swasiland", "name:ang": "Sƿasiland", "name:arz": "سوازيلاندا", "name:ast": "Suazilandia", "name:bcl": "Swasilandya", "name:bjn": "Swaziland", "name:bpy": "সোয়াজিল্যান্ড", "name:bxr": "Свазиланд", "name:ceb": "Suwasilandiya", "name:ckb": "سوازیلاند", "name:crh": "Svaziland", "name:diq": "Swazilanda", "name:ext": "Suazilandia", "name:frp": "Souazilande", "name:gag": "Svazilend", "name:hak": "Sṳ̂-vî-sṳ-làn", "name:hif": "Swaziland", "name:ilo": "Swaziland", "name:jbo": "suazilynd", "name:kaa": "Svazilend", "name:lij": "Swaziland", "name:lmo": "Swaziland", "name:mhr": "Свазиленд", "name:nah": "Suazitlālpan", "name:nan": "Swazi-tē", "name:nds": "Swasiland", "name:nov": "Swazilande", "name:nso": "Swaziland", "name:pam": "Swaziland", "name:pdc": "Swasiland", "name:pih": "Swoseland", "name:pms": "Swaziland", "name:pnb": "سوازی لینڈ", "name:sah": "Суазилэнд", "name:scn": "Swaziland", "name:sco": "Swaziland", "name:smn": "Swazieennâm", "name:sms": "Swazijânnam", "name:stq": "Swasilound", "name:tok": "ma Sawasi", "name:tzl": "Swaziphäts", "name:vec": "Swaziland", "name:vro": "Svaasimaa", "name:war": "Swazilandya", "name:xal": "Свазилендин Нутг", "name:yue": "斯威士蘭", "timezone": "Africa/Mbabane", "way_area": "1.5728", "wikidata": "Q1050", "ISO3166-1": "SZ", "land_area": "administrative", "wikipedia": "en:Eswatini", "admin_level": "2", "alt_name:be": "Свазіленд", "alt_name:bg": "Свазиленд;Суазиленд", "alt_name:cs": "Svazijsko", "alt_name:da": "Swaziland", "alt_name:de": "Swasiland", "alt_name:en": "eSwatini;Swaziland", "alt_name:eo": "Svaziujo", "alt_name:es": "Suazilandia", "alt_name:fr": "Swaziland", "alt_name:gl": "Eswatini", "alt_name:it": "Suazilandia", "alt_name:nl": "Swaziland", "alt_name:pl": "Suazi", "alt_name:ro": "Swaziland", "alt_name:ru": "Свазиленд", "alt_name:tr": "Svaziland", "alt_name:uk": "Нгване;Свазіленд", "alt_name:vi": "E-xoa-ti-ni;Swaziland;Xoa-di-len", "border_type": "country", "old_name:be": "Свазіленд", "old_name:br": "Swaziland", "old_name:de": "Swasiland", "old_name:en": "Swaziland", "old_name:fr": "Swaziland", "old_name:ga": "An tSuasalainn", "old_name:nn": "Swaziland", "old_name:no": "Swaziland", "old_name:pt": "Suazilândia", "old_name:ru": "Свазиленд", "old_name:sk": "Svazijsko", "old_name:sl": "Svazi", "old_name:sr": "Свазиленд", "old_name:uk": "Свазіленд", "old_name:zh": "斯威士兰 / 斯威士蘭 / 史瓦濟蘭", "driving_side": "left", "name:bat-smg": "Svazėlands", "name:sr-Latn": "Esvatini", "name:zh-Hans": "斯威士兰", "name:zh-Hant": "史瓦帝尼", "name:be-tarask": "Эсўаціні", "name:zh-Hans-CN": "斯威士兰", "name:zh-Hant-HK": "斯威士蘭", "name:zh-Hant-TW": "史瓦蒂尼", "ISO3166-1:alpha2": "SZ", "ISO3166-1:alpha3": "SWZ", "official_name:bg": "Кралство Есватини", "official_name:cs": "Svazijské království", "official_name:de": "Königreich von Eswatini", "official_name:en": "Kingdom of Eswatini", "official_name:fr": "Royaume d’Eswatini", "official_name:ga": "Ríocht Esuaitíní", "official_name:gn": "Tavetã Esuatíni", "official_name:nn": "Kongeriket Eswatini", "official_name:no": "Kongeriket Eswatini", "official_name:pl": "Królestwo Eswatini", "official_name:pt": "Reino de Essuatíni", "official_name:ro": "Regatul eSwatini", "official_name:ru": "Королевство Эсватини", "official_name:sk": "Eswatinské kráľovstvo", "official_name:sl": "Kraljevina Esvatini", "official_name:sr": "Краљевина Есватини", "official_name:tr": "Esvatini Krallığı", "official_name:uk": "Королівство Е-Сватіні", "official_name:vi": "Vương quốc Eswatini", "old_name:sr-Latn": "Svazilend", "ISO3166-1:numeric": "748", "alt_official_name": "Reino de Essuatíni", "alt_name:be-tarask": "Сўазілэнд", "old_name:be-tarask": "Сўазілэнд", "old_name:zh-Hant-TW": "史瓦濟蘭", "old_official_name:fr": "Royaume du Swaziland", "old_official_name:pt": "Reino da Suazilândia", "old_official_name:ro": "Regatul Swaziland", "old_official_name:sl": "Kraljevina Svazi", "old_official_name:sr": "Краљевина Свазиленд", "old_official_name:uk": "Королівство Свазіленд", "old_official_name:vi": "Vương quốc Swaziland", "old_official_name:yi": "קעניגרייך פון סוואַזילאַנד", "official_name:sr-Latn": "Kraljevina Esvatini", "old_official_name:sr-Latn": "Kraljevina Svazilend"}}}]}