{"type" : "FeatureCollection", "features" : [{"type": "Feature", "geometry": {"type":"MultiPolygon","coordinates":[[[[166.3355255,-14.8608354],[166.3384797,-14.8835491],[166.4431937,-15.4327189],[166.4557352,-15.4735243],[166.4605562,-15.4840794],[166.5855968,-15.7378736],[166.6038966,-15.7680041],[166.7322798,-15.9432003],[167.2873815,-16.6989327],[167.4605951,-16.9799185],[167.9769814,-17.8150115],[167.9943541,-17.8413584],[167.9977317,-17.8462637],[168.3537551,-18.3437402],[168.8027813,-18.9691078],[169.0265618,-19.5417852],[169.0491079,-19.5914642],[169.0601248,-19.6133142],[169.0741305,-19.6363946],[169.5824904,-20.3703676],[169.6098908,-20.4021507],[169.6435732,-20.4280236],[169.6836591,-20.4479785],[169.7288553,-20.459761],[169.7577011,-20.4627425],[169.7867096,-20.4619971],[169.8707809,-20.4543857],[169.9166341,-20.4453394],[169.9353733,-20.4395504],[169.9700959,-20.4255029],[169.9926423,-20.412616],[170.0121182,-20.3987722],[170.0292187,-20.3839569],[170.0464071,-20.3654477],[170.0691288,-20.3353371],[170.0912903,-20.2986409],[170.4276772,-19.6254791],[170.4409764,-19.5907591],[170.447337,-19.5543176],[170.449982,-19.5159138],[170.4452114,-19.4673536],[170.4284865,-19.421464],[170.4019522,-19.3817965],[170.3796779,-19.3594103],[169.4652855,-18.5652109],[169.3132685,-18.3500116],[168.8096923,-17.6352329],[168.8570755,-17.0215606],[168.85739,-16.9968094],[168.8523711,-16.960764],[168.8470502,-16.9421848],[168.7339464,-16.6093344],[168.4857385,-15.8768792],[168.2736859,-14.4143126],[168.2640932,-14.3758835],[167.8394488,-13.1908623],[167.8262997,-13.1616238],[167.8085868,-13.1347983],[167.7918428,-13.1159876],[167.7746091,-13.1002705],[167.7654859,-13.0933096],[167.7451965,-13.0804425],[167.73498,-13.0751387],[167.7127216,-13.0659175],[167.7017217,-13.0624318],[167.6781692,-13.0571363],[166.5829344,-12.8742221],[166.5638803,-12.8718918],[166.5408569,-12.8713777],[166.5098488,-12.8746842],[166.4782531,-12.88307],[166.4439261,-12.8984745],[166.4130591,-12.919795],[166.3867,-12.9463086],[166.3650751,-12.9783293],[166.3527463,-13.0052103],[166.3445591,-13.0335706],[166.3399756,-13.0695071],[166.3376835,-13.1344429],[166.3423359,-14.774742],[166.3364612,-14.8221378],[166.3355255,-14.8608354]]]]}, "properties": {"osm_id": -2177246, "boundary": "administrative", "admin_level": 2, "parents": null, "name": "Vanuatu", "local_name": "Vanuatu", "name_en": "Vanuatu", "all_tags": {"flag": "http://upload.wikimedia.org/wikipedia/commons/b/bc/Flag_of_Vanuatu.svg", "name": "Vanuatu", "name:ab": "Вануату", "name:ar": "فانواتو", "name:be": "Вануату", "name:bg": "Вануату", "name:bn": "ভানুয়াটু", "name:bo": "ཝ་ནུའ་ཏུ།", "name:ce": "Вануату", "name:cs": "Vanuatu", "name:de": "Vanuatu", "name:dv": "ވަނުއާޓޫ", "name:el": "Βανουάτου", "name:en": "Vanuatu", "name:eo": "Vanuatuo", "name:es": "Vanuatu", "name:fa": "وانواتو", "name:fr": "Vanuatu", "name:fy": "Fanuatû", "name:ga": "Vanuatú", "name:gd": "Bhanuatu", "name:gn": "Vanuátu", "name:he": "ונואטו", "name:hi": "वानूअतु", "name:hr": "Vanuatu", "name:ht": "Vanwatou", "name:hy": "Վանուատու", "name:is": "Vanúatú", "name:it": "Vanuatu", "name:ja": "バヌアツ", "name:ka": "ვანუატუ", "name:kk": "Вануату", "name:kn": "ವನುವಾಟು", "name:ko": "바누아투", "name:ku": "Vanûatû", "name:ky": "Вануату", "name:lt": "Vanuatu", "name:mk": "Вануату", "name:ml": "വാനുവാടു", "name:mn": "Вануату", "name:mr": "व्हानुआतू", "name:mt": "Vanwatu", "name:my": "ဗနွားတူနိုင်ငံ", "name:na": "Banuatu", "name:ne": "भानुअटु", "name:nv": "Banoʼáátʼoo", "name:oc": "Vanuatu", "name:or": "ଭାନୁଆଟୁ", "name:os": "Вануату", "name:pa": "ਵਨੁਆਤੂ", "name:pl": "Vanuatu", "name:pt": "Vanuatu", "name:qu": "Wanwatu", "name:ru": "Вануату", "name:rw": "Vanuwatu", "name:se": "Vanuatu", "name:sk": "Vanuatu", "name:sr": "Вануату", "name:sv": "Vanuatu", "name:ta": "வனுவாட்டு", "name:te": "వనాటు", "name:tg": "Вануату", "name:th": "ประเทศวานูอาตู", "name:tr": "Vanuatu", "name:tt": "Вануату", "name:ug": "ۋانۇئاتۇ", "name:uk": "Вануату", "name:ur": "وانواتو", "name:vo": "Vanuatuäns", "name:wo": "Wanuatu", "name:yo": "Fanuatu", "name:zh": "瓦努阿图 / 萬那杜", "alt_name": "Tân Đảo", "boundary": "administrative", "maritime": "yes", "name:jbo": "vanuatus", "name:smn": "Vanuatu", "name:sms": "Vanuatu", "name:tzl": "Vanuatù", "timezone": "Pacific/Efate", "way_area": "10.7141", "wikidata": "Q686", "ISO3166-1": "VU", "wikipedia": "bi:Ripablik blong Vanuatu", "population": "234023", "admin_level": "2", "driving_side": "right", "name:zh-Hans": "瓦努阿图", "name:zh-Hant": "萬那杜", "population:date": "2009", "ISO3166-1:alpha2": "VU", "ISO3166-1:alpha3": "VUT", "official_name:cs": "Republika Vanuatu", "official_name:en": "Republic of Vanuatu", "official_name:eo": "Respubliko de Vanatuo", "official_name:es": "República de Vanuatu", "official_name:fr": "République de Vanuatu", "official_name:gn": "Tavakuairetã Vanuátu", "official_name:pl": "Republika Vanuatu", "official_name:pt": "República de Vanuatu", "official_name:ru": "Республика Вануату", "ISO3166-1:numeric": "548"}}}]}