{"type" : "FeatureCollection", "features" : [{"type": "Feature", "geometry": {"type":"MultiPolygon","coordinates":[[[[-61.6869184,15.5259787],[-61.6819285,15.4920564],[-61.6756242,15.4722623],[-61.6719498,15.4490992],[-61.6602503,15.4157614],[-61.6521867,15.3997221],[-61.6486274,15.3851843],[-61.6350822,15.3524338],[-61.6237522,15.3347959],[-61.6116448,15.3052907],[-61.5979214,15.2828215],[-61.5896846,15.2426108],[-61.5802519,15.2182578],[-61.5802577,15.1983142],[-61.573888,15.1626946],[-61.5609937,15.1286379],[-61.5388572,15.0931927],[-61.5102395,15.0630642],[-61.4813509,15.0421834],[-61.4499481,15.0267559],[-61.4232934,15.0170995],[-61.4005587,15.0115114],[-61.3702452,15.0074207],[-61.3490238,15.0074943],[-61.2830556,15.0308333],[-61.1589127,15.0792459],[-61.1349236,15.0905183],[-61.1069788,15.1151873],[-61.083955,15.144618],[-61.0666737,15.1779782],[-61.0609591,15.196169],[-61.0562047,15.2043716],[-61.0442149,15.2375483],[-61.0420306,15.2476706],[-61.0373217,15.2768091],[-61.0368515,15.3029501],[-61.0346416,15.3150813],[-61.0354401,15.3544219],[-61.0364022,15.3589037],[-61.0329895,15.3942999],[-61.037269,15.4351561],[-61.0344085,15.4615026],[-61.036387,15.4952162],[-61.0436767,15.541066],[-61.055243,15.5742449],[-61.0607846,15.5846292],[-61.0657932,15.5989765],[-61.083421,15.6300299],[-61.0968189,15.6460962],[-61.1106596,15.6656506],[-61.116797,15.6720689],[-61.1204868,15.6804104],[-61.1383333,15.7016667],[-61.3236111,15.7341667],[-61.4425,15.7872222],[-61.6798235,15.644411],[-61.6832167,15.6182678],[-61.6869184,15.5259787]]]]}, "properties": {"osm_id": -307823, "boundary": "administrative", "admin_level": 2, "parents": null, "name": "Dominica", "local_name": "Dominica", "name_en": "Dominica", "all_tags": {"flag": "http://upload.wikimedia.org/wikipedia/commons/c/c4/Flag_of_Dominica.svg", "name": "Dominica", "name:ar": "دومينيكا", "name:br": "Republik Dominikan", "name:cs": "Dominika", "name:de": "Dominica", "name:el": "Δομινίκα", "name:en": "Dominica", "name:eo": "Dominiko", "name:es": "Dominica", "name:fr": "Dominique", "name:fy": "Dominika", "name:gn": "Ndominíka", "name:hr": "Dominika", "name:it": "Dominica", "name:ja": "ドミニカ国", "name:ko": "도미니카", "name:lt": "Dominika", "name:nl": "Dominica", "name:no": "Dominica", "name:pl": "Dominika", "name:pt": "Dominica", "name:ru": "Доминика", "name:se": "Dominica", "name:sk": "Dominika", "name:sl": "Dominika", "name:sv": "Dominica", "name:th": "ประเทศดอมินีกา", "name:tr": "Dominika", "name:uk": "Домініка", "name:vo": "Dominikeän", "name:zh": "多米尼克", "boundary": "administrative", "name:gcf": "Donmnik", "name:jbo": "dominik.ka'ijec", "name:smn": "Dominica", "name:sms": "Dominica", "name:szl": "Dōminika", "name:tzl": "Dominica", "timezone": "America/Dominica", "way_area": "0.386283", "wikidata": "Q784", "ISO3166-1": "DM", "wikipedia": "en:Dominica", "population": "70739", "admin_level": "2", "border_type": "nation", "old_name:zh": "多明尼加", "driving_side": "left", "name:zh-Hans": "多米尼克", "name:zh-Hant": "多米尼克", "ISO3166-1:alpha2": "DM", "ISO3166-1:alpha3": "DMA", "default_language": "en", "official_name:cs": "Dominické společenství", "official_name:el": "Κοινοπολιτεία της Δομινίκας", "official_name:en": "Commonwealth of Dominica", "official_name:eo": "Dominika Komunumo", "official_name:gn": "Ñembojoaju Ndominíka", "official_name:lt": "Dominikos Sandrauga", "official_name:pt": "Comunidade da Dominica", "official_name:th": "เครือรัฐดอมินีกา", "ISO3166-1:numeric": "212", "official_name:gcf": "Dominik"}}}]}