{"type" : "FeatureCollection", "features" : [{"type": "Feature", "geometry": {"type":"MultiPolygon","coordinates":[[[[-62.4502432,16.72308],[-62.4499088,16.7120733],[-62.4487054,16.698975],[-62.447047,16.6881856],[-62.444735,16.6774028],[-62.4411909,16.6647048],[-62.4376139,16.6543544],[-62.4333966,16.6441244],[-62.4276205,16.6322121],[-62.422233,16.6226139],[-62.4186871,16.6169434],[-62.4137115,16.6096052],[-62.4056383,16.5990072],[-62.401373,16.5939279],[-62.3968644,16.5889408],[-62.3906444,16.5825464],[-62.3826961,16.575144],[-62.3774325,16.5692701],[-62.3695108,16.5612363],[-62.3606792,16.5515515],[-62.3510319,16.5422601],[-62.3425605,16.5350078],[-62.3336224,16.5281883],[-62.3255872,16.5225543],[-62.3220102,16.5196595],[-62.3148571,16.5142511],[-62.3074666,16.5091486],[-62.2998528,16.5043617],[-62.2920302,16.4998994],[-62.2840136,16.4957703],[-62.2716584,16.4902181],[-62.2632243,16.4869547],[-62.2554246,16.4842919],[-62.2439271,16.4809678],[-62.2361603,16.4791089],[-62.224273,16.4767913],[-62.2130266,16.4751952],[-62.2039838,16.4743367],[-62.1949109,16.4738592],[-62.1880968,16.4737398],[-62.1758574,16.4741233],[-62.1544254,16.4742561],[-62.1453524,16.4747336],[-62.1363096,16.475592],[-62.1273141,16.4768299],[-62.118383,16.4784448],[-62.1095332,16.4804336],[-62.1007815,16.4827927],[-62.0899836,16.4862501],[-62.0794402,16.4902788],[-62.0670851,16.4958309],[-62.0590685,16.4999601],[-62.0512459,16.5044223],[-62.039908,16.5117216],[-62.0326345,16.5169783],[-62.0256051,16.5225358],[-62.0155481,16.5314129],[-62.0031995,16.5433884],[-61.9956188,16.5516054],[-61.9885843,16.5601607],[-61.9774854,16.5750874],[-61.9686205,16.5882952],[-61.962644,16.5981096],[-61.9581023,16.6064165],[-61.9532136,16.6166688],[-61.9486349,16.6278214],[-61.9450585,16.6381719],[-61.9415148,16.65087],[-61.9396342,16.6594478],[-61.9382029,16.6676906],[-61.9367451,16.6799406],[-61.9362076,16.6881451],[-61.9360223,16.6943086],[-61.9359976,16.7013056],[-61.9362857,16.7100685],[-61.9374609,16.7231691],[-61.9388434,16.7325396],[-61.9392427,16.7370198],[-61.9403188,16.7456973],[-61.9404234,16.7510415],[-61.9409099,16.7597962],[-61.9417924,16.768522],[-61.9425689,16.7740488],[-61.9715138,16.7964356],[-62.0007949,16.8128573],[-62.0306094,16.830047],[-62.0501587,16.8373078],[-62.0666717,16.8476844],[-62.0896769,16.8634177],[-62.1471855,16.8835951],[-62.1580859,16.8834654],[-62.168644,16.8843448],[-62.202891,16.8885156],[-62.2503972,16.8755367],[-62.2563093,16.8740822],[-62.3055455,16.8401106],[-62.3113928,16.833269],[-62.3340173,16.8156859],[-62.3948668,16.7815501],[-62.4039347,16.7763166],[-62.4474949,16.7556732],[-62.4487573,16.7470828],[-62.4496397,16.7383569],[-62.4501262,16.7296022],[-62.4502432,16.72308]]]]}, "properties": {"osm_id": -537257, "boundary": "administrative", "admin_level": 2, "parents": null, "name": "Montserrat", "local_name": "Montserrat", "name_en": "Montserrat", "all_tags": {"flag": "http://upload.wikimedia.org/wikipedia/commons/d/d0/Flag_of_Montserrat.svg", "name": "Montserrat", "name:af": "Montserrat", "name:an": "Isla de Montserrat", "name:ar": "مونتسرات", "name:az": "Montserrat", "name:ba": "Монтсеррат", "name:be": "Мантсерат", "name:bg": "Монсерат", "name:br": "Enez Montserrat", "name:bs": "Monserat", "name:ca": "Illa de Montserrat", "name:cs": "Montserrat", "name:cy": "Montserrat", "name:da": "Montserrat", "name:de": "Montserrat", "name:dv": "މޮންސެރާޓު", "name:el": "Μοντσερράτ", "name:en": "Montserrat", "name:eo": "Moncerato", "name:es": "Montserrat", "name:et": "Montserrat", "name:eu": "Montserrat", "name:fa": "مونتسرات", "name:fi": "Montserrat", "name:fr": "Montserrat", "name:ga": "Montsarat", "name:gl": "Illa Montserrat", "name:he": "מונטסראט", "name:hi": "मॉण्टसेराट", "name:hr": "Montserrat", "name:ht": "Montserrat", "name:hu": "Montserrat", "name:hy": "Մոնտսերատ", "name:id": "Montserrat", "name:io": "Montserrat", "name:is": "Montserrat", "name:it": "Montserrat", "name:ja": "モントセラト", "name:jv": "Montserrat", "name:ka": "მონსერატი", "name:ko": "몬트세랫", "name:kw": "Montserrat", "name:la": "Mons Serratus", "name:lb": "Montserrat", "name:li": "Montserrat", "name:lt": "Montseratas", "name:lv": "Montserrata", "name:mk": "Монтсерат", "name:mr": "माँटसेराट", "name:ms": "Montserrat", "name:nl": "Montserrat", "name:nn": "Montserrat", "name:no": "Montserrat", "name:oc": "Montserrat", "name:pa": "ਮਾਂਟਸਰਾਤ", "name:pl": "Montserrat", "name:pt": "Montserrat", "name:ro": "Montserrat", "name:ru": "Монтсеррат", "name:rw": "Monserati", "name:sh": "Montserrat", "name:sk": "Montserrat", "name:sl": "Montserrat", "name:sq": "Montserrati", "name:sr": "Монтсерат", "name:su": "Montserrat", "name:sv": "Montserrat", "name:ta": "மொன்செராட்", "name:th": "มอนต์เซอร์รัต", "name:tl": "Montserrat", "name:tr": "Montserrat", "name:ug": "مونتسەررات", "name:uk": "Монтсеррат", "name:ur": "مانٹسریٹ", "name:vi": "Montserrat", "name:wo": "Montserrat", "name:yo": "Montserrat", "name:zh": "蒙塞拉特島", "boundary": "administrative", "name:als": "Montserrat", "name:ang": "Montserrat", "name:arz": "مونتسيرات", "name:ast": "Montserrat", "name:bpy": "মন্টসের্রাট", "name:frp": "Montsarrat", "name:frr": "Montserrat", "name:lij": "Montserrat", "name:lmo": "Montserrat", "name:nan": "Montserrat", "name:nds": "Montserrat", "name:nov": "Montserat", "name:pap": "Montserrat", "name:pms": "Montserrat", "name:pnb": "مونتسرات", "name:war": "Montserrat", "name:yue": "蒙塞拉特島", "timezone": "America/Montserrat", "way_area": "0.15768", "wikidata": "Q13353", "ISO3166-1": "MS", "wikipedia": "en:Montserrat", "admin_level": "2", "description": "british overseas territory", "name:simple": "Montserrat", "name:be-tarask": "Мансэрат", "ISO3166-1:alpha2": "MS", "ISO3166-1:alpha3": "MSR", "default_language": "en", "ISO3166-1:numeric": "500"}}}]}