{
  "type": "FeatureCollection",
  "features": [
    {
      "type": "Feature",
      "properties": {
        "osm_id": -1558556,
        "boundary": "administrative",
        "admin_level": 2,
        "parents": null,
        "name": "Niue",
        "local_name": "Niuē",
        "name_en": "Niue",
        "all_tags": {
          "flag": "http://upload.wikimedia.org/wikipedia/commons/0/01/Flag_of_Niue.svg",
          "name": "Niuē",
          "name:ar": "نييوي",
          "name:be": "Ніуэ",
          "name:bg": "Ниуе",
          "name:br": "Niue",
          "name:cs": "Niue",
          "name:de": "Niue",
          "name:dv": "ނީއު",
          "name:el": "Νιούε",
          "name:en": "Niue",
          "name:eo": "Niuo",
          "name:es": "Niue",
          "name:fa": "نیووی",
          "name:fr": "Niue",
          "name:he": "ניואה",
          "name:hr": "Niue",
          "name:ja": "ニウエ",
          "name:ka": "ნიუე",
          "name:kk": "Ниуе",
          "name:ko": "니우에",
          "name:ku": "Niûe",
          "name:lt": "Niujė",
          "name:mk": "Ниуе",
          "name:ml": "നിയുവെ",
          "name:mr": "न्युए",
          "name:os": "Ниуэ",
          "name:pt": "Niue",
          "name:ru": "Ниуэ",
          "name:rw": "Niyuwe",
          "name:sk": "Niue",
          "name:sr": "Нијуе",
          "name:ta": "நியுவே",
          "name:th": "นีอูเอ",
          "name:ug": "Niué Arili",
          "name:uk": "Ніуе",
          "name:ur": "نیووے",
          "name:wo": "Niwe",
          "name:zh": "纽埃",
          "boundary": "administrative",
          "timezone": "Pacific/Niue",
          "way_area": "0.273577",
          "wikidata": "Q34020",
          "ISO3166-1": "NU",
          "wikipedia": "en:Niue",
          "admin_level": "2",
          "addr:country": "NU",
          "name:zh-Hans": "纽埃",
          "name:zh-Hant": "紐埃",
          "ISO3166-1:alpha2": "NU",
          "ISO3166-1:alpha3": "NIU",
          "default_language": "en",
          "ISO3166-1:numeric": "570"
        }
      },
      "geometry": {
        "type": "Polygon",
        "coordinates": [
          [
            [
              -170,
              -19
            ],
            [
              -169.57476181619705,
              -19
            ],
            [
              -169.5787334,
              -18.9876416
            ],
            [
              -169.5879908,
              -18.9698773
            ],
            [
              -169.5916006,
              -18.9552058
            ],
            [
              -169.5984471,
              -18.9297824
            ],
            [
              -169.6057298,
              -18.905431
            ],
            [
              -169.6118032,
              -18.8900396
            ],
            [
              -169.622301,
              -18.8694677
            ],
            [
              -169.6343672,
              -18.850892
            ],
            [
              -169.6598561,
              -18.822178
            ],
            [
              -169.6900434,
              -18.7980943
            ],
            [
              -169.7026573,
              -18.7904968
            ],
            [
              -169.7215612,
              -18.7808751
            ],
            [
              -169.7298901,
              -18.777116
            ],
            [
              -169.767498,
              -18.7646121
            ],
            [
              -169.7989949,
              -18.7578536
            ],
            [
              -169.8274273,
              -18.7540356
            ],
            [
              -169.861533,
              -18.7534559
            ],
            [
              -169.8754636,
              -18.7547221
            ],
            [
              -169.9030108,
              -18.7596841
            ],
            [
              -169.9477192,
              -18.7712262
            ],
            [
              -169.964827,
              -18.7776549
            ],
            [
              -169.98099,
              -18.785543
            ],
            [
              -170,
              -18.797479607824386
            ],
            [
              -170,
              -19
            ]
          ]
        ]
      }
    }
  ]
}