{
  "type": "FeatureCollection",
  "features": [
    {
      "type": "Feature",
      "properties": {
        "osm_id": -60189,
        "boundary": "administrative",
        "admin_level": 2,
        "parents": null,
        "name": "Russia",
        "local_name": "Россия",
        "name_en": "Russia",
        "all_tags": {
          "flag": "https://upload.wikimedia.org/wikipedia/commons/f/f3/Flag_of_Russia.svg",
          "name": "Россия",
          "int_ref": "RU",
          "name:ab": "Урыстәыла",
          "name:af": "Rusland",
          "name:ak": "Russia",
          "name:am": "ሩሲያ",
          "name:an": "Rusia",
          "name:ar": "روسيا",
          "name:as": "ৰুশিযা",
          "name:av": "Россиялъул Федерация",
          "name:ay": "Rusiya",
          "name:az": "Rusiya",
          "name:ba": "Рәсәй",
          "name:be": "Расія",
          "name:bg": "Русия",
          "name:bi": "Rusia",
          "name:bm": "Risila",
          "name:bn": "রাশিয়া",
          "name:bo": "ཨུ་རུ་སུ།",
          "name:br": "Rusia",
          "name:bs": "Rusija",
          "name:ca": "Rússia",
          "name:ce": "Росси",
          "name:ch": "Russia",
          "name:co": "Russia",
          "name:cs": "Rusko",
          "name:cu": "Рѡсїꙗ",
          "name:cv": "Раççей Патшалăхĕ",
          "name:cy": "Rwsia",
          "name:da": "Rusland",
          "name:de": "Russland",
          "name:dv": "ރޫސީވިލާތް",
          "name:dz": "ར་ཤི་ཡཱན་ཕེ་ཌི་རེ་ཤཱན",
          "name:ee": "Russia",
          "name:el": "Ρωσία",
          "name:en": "Russia",
          "name:eo": "Rusio",
          "name:es": "Rusia",
          "name:et": "Venemaa",
          "name:eu": "Errusia",
          "name:fa": "روسیه",
          "name:ff": "Roosiya",
          "name:fi": "Venäjä",
          "name:fo": "Russland",
          "name:fr": "Russie",
          "name:fy": "Ruslân",
          "name:ga": "An Rúis",
          "name:gd": "An Ruis",
          "name:gl": "Rusia",
          "name:gn": "Rrúsia",
          "name:gu": "રશિયા",
          "name:gv": "Yn Roosh",
          "name:ha": "Rasha",
          "name:he": "רוסיה",
          "name:hi": "रूस",
          "name:hr": "Ruska Federacija",
          "name:ht": "Risi",
          "name:hu": "Oroszország",
          "name:hy": "Ռուսաստան",
          "name:ia": "Russia",
          "name:id": "Rusia",
          "name:ie": "Russia",
          "name:ig": "Mpaghara Russia",
          "name:ik": "Russia",
          "name:io": "Rusia",
          "name:is": "Rússland",
          "name:it": "Russia",
          "name:iu": "ᐅᓛᓴ",
          "name:ja": "ロシア",
          "name:jv": "Rusia",
          "name:ka": "რუსეთი",
          "name:kg": "Rusia",
          "name:ki": "Russia",
          "name:kk": "Ресей",
          "name:kl": "Ruslandi",
          "name:km": "រុស្ស៊ី",
          "name:kn": "ರಷ್ಯಾ",
          "name:ko": "러시아",
          "name:ks": "روٗس",
          "name:ku": "Rûsya",
          "name:kv": "Рочму",
          "name:kw": "Russi",
          "name:ky": "Орусия",
          "name:la": "Russia",
          "name:lb": "Russland",
          "name:lg": "Rwasha",
          "name:li": "Rusland",
          "name:ln": "Rusí",
          "name:lo": "ລັດເຊັຽ",
          "name:lt": "Rusija",
          "name:lv": "Krievija",
          "name:mg": "Rosia",
          "name:mi": "Ruhia",
          "name:mk": "Русија",
          "name:ml": "റഷ്യ",
          "name:mn": "Оросын Холбооны Улс",
          "name:mo": "Русия",
          "name:mr": "रशिया",
          "name:ms": "Rusia",
          "name:mt": "Russja",
          "name:my": "ရုရှားနိုင်ငံ",
          "name:na": "Ratsiya",
          "name:ne": "रुस",
          "name:nl": "Rusland",
          "name:nn": "Russland",
          "name:no": "Russland",
          "name:nv": "Biʼééʼ Łichííʼí Bikéyah",
          "name:ny": "Russia",
          "name:oc": "Russia",
          "name:om": "Raashiyaa",
          "name:or": "ଋଷିଆ",
          "name:os": "Уæрæсе",
          "name:pa": "ਰੂਸ",
          "name:pl": "Rosja",
          "name:ps": "روسیه",
          "name:pt": "Rússia",
          "name:qu": "Rusiya",
          "name:rm": "Russia",
          "name:rn": "Uburusiya",
          "name:ro": "Rusia",
          "name:ru": "Россия",
          "name:rw": "Uburusiya",
          "name:sc": "Rùssia",
          "name:sd": "روس",
          "name:se": "Ruošša",
          "name:sg": "Rusïi",
          "name:sh": "Rusija",
          "name:si": "රුසියාව",
          "name:sk": "Rusko",
          "name:sl": "Rusija",
          "name:sm": "Lusia",
          "name:sn": "Russia",
          "name:so": "Ruushka",
          "name:sq": "Rusia",
          "name:sr": "Русија",
          "name:ss": "IRashiya",
          "name:st": "Russia",
          "name:su": "Rusia",
          "name:sv": "Ryssland",
          "name:sw": "Shirikisho la Urusi",
          "name:ta": "உருசியா",
          "name:te": "రష్యా",
          "name:tg": "Русия",
          "name:th": "ประเทศรัสเซีย",
          "name:ti": "ራሻ",
          "name:tk": "Russiýa",
          "name:tl": "Pederasyong Ruso",
          "name:to": "Lūsia",
          "name:tr": "Rusya Federasyonu",
          "name:ts": "Russia",
          "name:tt": "Русия",
          "name:tw": "Russia",
          "name:ty": "Rūtia",
          "name:ug": "روسىيە",
          "name:uk": "Росія",
          "name:ur": "روس",
          "name:uz": "Rossiya Federatsiyasi",
          "name:ve": "Rashia",
          "name:vi": "Liên bang Nga",
          "name:vo": "Rusän",
          "name:wa": "Federåcion d' Rûsseye",
          "name:wo": "Federaasioŋ bu Riisi",
          "name:xh": "IRashiya",
          "name:yi": "רוסלאנד",
          "name:yo": "Rọ́síà",
          "name:za": "Ezlozswh Lienzbangh",
          "name:zh": "俄罗斯",
          "name:zu": "IRashiya",
          "boundary": "administrative",
          "currency": "RUB",
          "int_name": "Russia",
          "name:ace": "Rusia",
          "name:als": "Russland",
          "name:ang": "Russland",
          "name:arc": "ܪܘܣܝܐ",
          "name:arz": "روسيا",
          "name:ast": "Rusia",
          "name:bar": "Russland",
          "name:bcl": "Rusya",
          "name:bjn": "Rusia",
          "name:bpy": "রাশিয়া",
          "name:bug": "Russia",
          "name:bxr": "Ородой Холбооной Улас",
          "name:cdo": "Ngò̤-lò̤-sṳ̆",
          "name:ceb": "Rusya",
          "name:chr": "ᏲᏂᏱ",
          "name:chy": "Russia",
          "name:ckb": "ڕووسیا",
          "name:crh": "Rusiye",
          "name:csb": "Ruskô",
          "name:diq": "Rusya",
          "name:dsb": "Rusojska",
          "name:eml": "Rossia",
          "name:ext": "Russia",
          "name:frp": "Russie",
          "name:frr": "Ruslönj",
          "name:fur": "Russie",
          "name:gag": "Rusiya",
          "name:gan": "俄羅斯",
          "name:hak": "Ngò-lò-sṳ̂",
          "name:haw": "Rūsia",
          "name:hif": "Russia",
          "name:hsb": "Ruska federacija",
          "name:ilo": "Rusia",
          "name:jbo": "rukygu'e",
          "name:kaa": "Rossiya",
          "name:kab": "Rrus",
          "name:kbd": "Урысей",
          "name:koi": "Рочму",
          "name:krc": "Россия Федерация",
          "name:lad": "Rusia",
          "name:lbe": "Аьрасат",
          "name:lez": "Урусат",
          "name:lij": "Ruscia",
          "name:lmo": "Rüssia",
          "name:ltg": "Krīveja",
          "name:lzh": "俄羅斯",
          "name:mdf": "Рузмастор",
          "name:mhr": "Россий",
          "name:min": "Rusia",
          "name:mrj": "Россий",
          "name:mwl": "Rússia",
          "name:myv": "Россия Мастор",
          "name:mzn": "ئوروسیا",
          "name:nah": "Rusia",
          "name:nan": "Lō͘-se-a",
          "name:nap": "Russia",
          "name:nds": "Russ'sche Föderatschoon",
          "name:new": "रुस",
          "name:nov": "Rusia",
          "name:nrm": "Russie",
          "name:nso": "Russia",
          "name:pag": "Rusia",
          "name:pam": "Rusia",
          "name:pap": "Rusia",
          "name:pcd": "Russie",
          "name:pdc": "Russland",
          "name:pfl": "Russlond",
          "name:pih": "Rusha",
          "name:pms": "Russia",
          "name:pnb": "روس",
          "name:pnt": "Ρουσία",
          "name:rmy": "Rusiya",
          "name:rue": "Росія",
          "name:sah": "Арассыыйа",
          "name:scn": "Russia",
          "name:sco": "Roushie",
          "name:smn": "Ruoššâ",
          "name:sms": "Ruõššjânnam",
          "name:srn": "Rusland",
          "name:stq": "Ruslound",
          "name:szl": "Rusyjŏ",
          "name:tet": "Rúsia",
          "name:tok": "ma Losi",
          "name:tpi": "Rasia",
          "name:tum": "Russia",
          "name:tzl": "Rußía",
          "name:udm": "Россия",
          "name:vec": "Rusia",
          "name:vep": "Venäma",
          "name:vls": "Rusland",
          "name:vro": "Vinnemaa",
          "name:war": "Rusya",
          "name:wuu": "俄罗斯",
          "name:xal": "Орсн Орн Нутг",
          "name:xmf": "რუსეთი",
          "name:yue": "俄羅斯",
          "name:zea": "Rusland",
          "old_name": "Московия;Русское Царство;Российская Империя;Российская Советская Федеративная Социалистическая Республика",
          "way_area": "3241.56",
          "wikidata": "Q159",
          "ISO3166-1": "RU",
          "wikipedia": "ru:Россия",
          "name:UN:ar": "الاتحاد الروسي",
          "name:UN:en": "Russian Federation (the)",
          "name:UN:es": "Federación de Rusia (la)",
          "name:UN:fr": "Fédération de Russie (la)",
          "name:UN:ru": "Российская Федерация",
          "name:UN:zh": "俄罗斯联邦",
          "population": "146447424",
          "short_name": "РФ",
          "admin_level": "2",
          "alt_name:eo": "Rusujo;Ruslando",
          "border_type": "nation",
          "name:nds-nl": "Ruslaand",
          "name:bat-smg": "Rosėjė",
          "name:cbk-zam": "Rusia",
          "name:map-bms": "Rusia",
          "name:roa-rup": "Arusia",
          "name:zh-Hans": "俄罗斯",
          "name:zh-Hant": "俄羅斯",
          "name:roa-tara": "Russie",
          "official_name": "Российская Федерация",
          "short_name:ru": "РФ",
          "name:be-tarask": "Расея",
          "old_short_name": "РСФСР",
          "according_to:RU": "yes",
          "according_to:UA": "no",
          "population:date": "2023-01-01",
          "ISO3166-1:alpha2": "RU",
          "ISO3166-1:alpha3": "RUS",
          "default_language": "ru",
          "official_name:ar": "الاتحاد الروسي",
          "official_name:be": "Расійская Федэрацыя",
          "official_name:cs": "Ruská federace",
          "official_name:de": "Russische Föderation",
          "official_name:en": "Russian Federation",
          "official_name:eo": "Rusa Federacio",
          "official_name:es": "Federación Rusa",
          "official_name:et": "Venemaa Föderatsioon",
          "official_name:fi": "Venäjän Federaatio",
          "official_name:fr": "Fédération de Russie",
          "official_name:nl": "Russische Federatie",
          "official_name:pl": "Federacja Rosyjska",
          "official_name:pt": "Federação Russa",
          "official_name:ru": "Российская Федерация",
          "official_name:sk": "Ruská federácia",
          "official_name:sl": "Ruska federacija",
          "official_name:sv": "Ryska Federationen",
          "official_name:uk": "Російська Федерація",
          "official_name:yi": "רוסישע פֿעדעראַציע",
          "official_name:zh": "俄罗斯联邦",
          "ISO3166-1:numeric": "643",
          "official_name:ast": "Federación Rusa",
          "old_short_name:en": "RSFSR",
          "old_short_name:ru": "РСФСР",
          "official_name:zh-Hans": "俄罗斯联邦",
          "official_name:zh-Hant": "俄羅斯聯邦"
        }
      },
      "geometry": {
        "type": "Polygon",
        "coordinates": [
          [
            [
              -170,
              65.74409208657099
            ],
            [
              -169.9488675,
              65.778889
            ],
            [
              -169.877278,
              65.7870059
            ],
            [
              -169.6893052,
              65.71284
            ],
            [
              -169.4968954,
              65.6367024
            ],
            [
              -169.4905227,
              65.6331548
            ],
            [
              -169.4645737,
              65.6201866
            ],
            [
              -169.4491239,
              65.6128572
            ],
            [
              -169.4415964,
              65.6094548
            ],
            [
              -169.4081525,
              65.5957334
            ],
            [
              -169.3839501,
              65.5875672
            ],
            [
              -169.2013642,
              65.5346064
            ],
            [
              -169.0485821,
              65.4690061
            ],
            [
              -169,
              65.49002492586487
            ],
            [
              -169,
              66
            ],
            [
              -170,
              66
            ],
            [
              -170,
              65.74409208657099
            ]
          ]
        ]
      }
    },
    {
      "type": "Feature",
      "properties": {
        "osm_id": -148838,
        "boundary": "administrative",
        "admin_level": 2,
        "parents": null,
        "name": "United States",
        "local_name": "United States",
        "name_en": "United States",
        "all_tags": {
          "flag": "https://upload.wikimedia.org/wikipedia/commons/a/a4/Flag_of_the_United_States.svg",
          "name": "United States",
          "name:ab": "Америка Еиду Аштатқәа",
          "name:af": "Verenigde State van Amerika",
          "name:am": "የተባበሩት የአሜሪካ ግዛቶች",
          "name:an": "Estatos Unitos d'America",
          "name:ar": "الولايات المتّحدة الأمريكيّة",
          "name:as": "মাৰ্কিন যুক্তৰাষ্ট্ৰ",
          "name:av": "Америкалъул Цолъарал Штатал",
          "name:ay": "Istadus Unidus",
          "name:az": "Amerika Birləşmiş Ştatları",
          "name:ba": "Америка Ҡушма Штаттары",
          "name:be": "Злучаныя Штаты Амерыкі",
          "name:bg": "Съединени американски щати",
          "name:bi": "Yunaeted Stet blong Amerika",
          "name:bm": "Amerika ka Kelenyalen Jamanaw",
          "name:bn": "মার্কিন যুক্তরাষ্ট্র",
          "name:bo": "ཨ་མེ་རི་ཁ་རྒྱལ་ཕྲན་མཉམ་འབྲེལ་རྒྱལ་ཁབ།",
          "name:br": "Stadoù-Unanet Amerika",
          "name:bs": "Sjedinjene Američke Države",
          "name:ca": "Estats Units d'Amèrica",
          "name:ce": "Iамерка пачхьалк",
          "name:co": "Stati Uniti d'America",
          "name:cs": "Spojené státy americké",
          "name:cu": "Амєрика́ньскꙑ Ѥдьнѥнꙑ́ Дрьжа́вꙑ",
          "name:cv": "Америкăри Пĕрлешӳллĕ Штатсем",
          "name:cy": "Unol Daleithiau America",
          "name:da": "Amerikas Forenede Stater",
          "name:de": "Vereinigte Staaten von Amerika",
          "name:dv": "އެމެރިކާ",
          "name:dz": "ཡུ་ནའིཊེཊ་སི་ཊེས",
          "name:ee": "United States",
          "name:el": "Ηνωμένες Πολιτείες της Αμερικής",
          "name:en": "United States",
          "name:eo": "Usono",
          "name:es": "Estados Unidos de América",
          "name:et": "Ameerika Ühendriigid",
          "name:eu": "Ameriketako Estatu Batuak",
          "name:fa": "ایالات متحده آمریکا",
          "name:ff": "Dowlaaji Dentuɗi",
          "name:fi": "Amerikan yhdysvallat",
          "name:fo": "Sambandsríkið Amerika",
          "name:fr": "États-Unis d'Amérique",
          "name:fy": "Feriene Steaten fan Amearika",
          "name:ga": "Stáit Aontaithe Mheiriceá",
          "name:gd": "Na Stàitean Aonaichte",
          "name:gl": "Estados Unidos de América",
          "name:gn": "Tetã peteĩ reko Amérikagua",
          "name:gu": "સંયુક્ત રાજ્ય અમેરિકા",
          "name:gv": "Steatyn Unnaneysit America",
          "name:ha": "kunkiyar taraiyar Amurika",
          "name:he": "ארצות הברית",
          "name:hi": "संयुक्त राज्य अमेरिका",
          "name:hr": "Sjedinjene Američke Države",
          "name:ht": "Etazini",
          "name:hu": "Amerikai Egyesült Államok",
          "name:hy": "Ամերիկայի Միացյալ Նահանգներ",
          "name:ia": "Statos Unite de America",
          "name:id": "Amerika Serikat",
          "name:ie": "Unit States de America",
          "name:ig": "Njikota Obodo Amerika",
          "name:ik": "United States of America",
          "name:io": "Unionita Stati di Amerika",
          "name:is": "Bandaríki Norður-Ameríku",
          "name:it": "Stati Uniti d'America",
          "name:iu": "ᐊᒥᐊᓕᑲ",
          "name:ja": "アメリカ合衆国",
          "name:jv": "Amérika Sarékat",
          "name:ka": "ამერიკის შეერთებული შტატები",
          "name:ki": "United States",
          "name:kk": "Америка Құрама Штаттары",
          "name:kl": "Naalagaaffeqatigiit",
          "name:km": "សហរដ្ឋអាមេរិក",
          "name:kn": "ಅಮೇರಿಕ ಸಂಯುಕ್ತ ಸಂಸ್ಥಾನ",
          "name:ko": "미국",
          "name:ks": "ریاست ہائے متحدہ",
          "name:ku": "Dewletên Yekbûyî yên Amerîkayê",
          "name:kv": "Америкаса Ӧтувтӧм Штатъяс",
          "name:kw": "Statys Unys Amerika",
          "name:ky": "Америка Кошмо Штаттары",
          "name:la": "Civitates Foederatae Americae",
          "name:lb": "Vereenegt Staate vun Amerika",
          "name:lg": "Amereka",
          "name:li": "Vereinegde State van Amerika",
          "name:ln": "Lisangá lya Ameríka",
          "name:lo": "ສະຫະລັດອາເມລິກາ",
          "name:lt": "Jungtinės Amerikos Valstijos",
          "name:lv": "Amerikas Savienotās Valstis",
          "name:mg": "Etazonia",
          "name:mi": "Amerika",
          "name:mk": "Соединети Американски Држави",
          "name:ml": "അമേരിക്കന് ഐക്യനാടുകള്",
          "name:mn": "Америкийн Нэгдсэн Улс",
          "name:mo": "Стателе Уните але Америчий",
          "name:mr": "अमेरिकेची संयुक्त संस्थाने",
          "name:ms": "Amerika Syarikat",
          "name:mt": "Stati Uniti tal-Amerika",
          "name:my": "အမေရိကန်ပြည်ထောင်စု",
          "name:na": "Eben Merika",
          "name:ne": "संयुक्त राज्य अमेरिका",
          "name:nl": "Verenigde Staten",
          "name:nn": "USA",
          "name:no": "Amerikas forente stater",
          "name:nv": "Wááshindoon Bikéyah Ałhidadiidzooígíí",
          "name:oc": "Estats Units d'America",
          "name:om": "USA",
          "name:or": "ଯୁକ୍ତରାଷ୍ଟ୍ର ଆମେରିକା",
          "name:os": "Америкæйы Иугонд Штаттæ",
          "name:pa": "ਸੰਯੁਕਤ ਰਾਜ ਅਮਰੀਕਾ",
          "name:pl": "Stany Zjednoczone",
          "name:ps": "د امریکا متحده آیالاتونه",
          "name:pt": "Estados Unidos da América",
          "name:qu": "Hukllachasqa Amirika Suyukuna",
          "name:rm": "Stadis Unids da l'America",
          "name:rn": "Leta Zunze Ubumwe za Amerika",
          "name:ro": "Statele Unite ale Americii",
          "name:ru": "Соединённые Штаты Америки",
          "name:rw": "Leta Zunze Ubumwe z’Amerika",
          "name:sa": "संयुक्तानि राज्यानि",
          "name:sc": "Istados Unidos de America",
          "name:sd": "آمريڪا",
          "name:se": "Amerihká ovttastuvvan stáhtat",
          "name:sg": "ÂKödörö-ôko tî Amerîka",
          "name:sh": "Sjedinjene Američke Države",
          "name:si": "අ'මෙරිකාවේ එක්සත් රාජ්යයන්",
          "name:sk": "Spojené štáty americké",
          "name:sl": "Združene države Amerike",
          "name:sm": "Iunaite Sitete o Amerika",
          "name:sn": "United States of America",
          "name:so": "Mareykanka",
          "name:sq": "Shtetet e Bashkuara të Amerikës",
          "name:sr": "Сједињене Америчке Државе",
          "name:ss": "IMelika",
          "name:su": "Amérika Sarikat",
          "name:sv": "USA",
          "name:sw": "Muungano wa Madola ya Amerika",
          "name:ta": "ஐக்கிய அமெரிக்கா",
          "name:te": "అమెరికా సంయుక్త రాష్ట్రాలు",
          "name:tg": "Иёлоти Муттаҳидаи Амрико",
          "name:th": "สหรัฐอเมริกา",
          "name:tk": "Amerikanyň Birleşen Ştatlary",
          "name:tl": "Estados Unidos",
          "name:tn": "USA",
          "name:to": "Puleʻanga Fakataha 'o 'Amelika",
          "name:tr": "Amerika Birleşik Devletleri",
          "name:ts": "United States",
          "name:tt": "Америка Кушма Штатлары",
          "name:tw": "USA",
          "name:ty": "Fenua Marite",
          "name:ug": "ئامېرىكا قوشما شتاتلىرى",
          "name:uk": "Сполучені Штати Америки",
          "name:ur": "ریاست ہائے متحدہ",
          "name:uz": "Amerika Qoʻshma Shtatlari",
          "name:vi": "Hoa Kỳ",
          "name:vo": "Lamerikän",
          "name:wa": "Estats Unis d' Amerike",
          "name:wo": "Diwaan-yu-Bennoo yu Aamerig",
          "name:xh": "IYunayithedi Steyitsi",
          "name:yi": "פאראייניקטע שטאטן פון אמעריקע",
          "name:yo": "Àwọn Ìpínlẹ̀ Aṣọ̀kan Amẹ́ríkà",
          "name:za": "Meijgoz",
          "name:zh": "美利坚合众国/美利堅合眾國",
          "name:zu": "IMelika",
          "boundary": "administrative",
          "int_name": "United States of America",
          "name:ace": "Amirika Carékat",
          "name:als": "Vereinigte Schtaate vo Amerika",
          "name:anc": "Ἡνωμέναι Πολιτείαι τῆς Νεοικουμένης",
          "name:ang": "Geānlǣtan Rīcu American",
          "name:arc": "ܐܘܚܕܢܐ ܡܚܝܕܐ",
          "name:arz": "امريكا",
          "name:ast": "Estaos Xuníos d'América",
          "name:azb": "آمریکا بیرلشمیش ایالتلری",
          "name:bar": "Vaeinigtn Staatn vo Amerika",
          "name:bcl": "Estados Unidos",
          "name:bpy": "তিলপারাষ্ট্র",
          "name:bxr": "Американ Нэгэдэһэн Улас",
          "name:cdo": "Mī-lé-giĕng Hăk-cé̤ṳng-guók",
          "name:ceb": "Estados Unidos sa Amerika",
          "name:chr": "ᏌᏊᎢᏳᎾᎵᏍᏔᏅᏍᎦᏚᎩ ᎾᎿ ᎠᎺᏰᏟ",
          "name:chy": "United States",
          "name:ckb": "ویلایەتە یەکگرتووەکانی ئەمریکا",
          "name:crh": "Amerika Qoşma Ştatları",
          "name:csb": "Zjednóné Kraje Americzi",
          "name:din": "Amatnhom Pawut",
          "name:diq": "Dewletê Amerikayê Yewbiyayey",
          "name:dsb": "Zjadnośone staty Ameriki",
          "name:eml": "Stat Unî",
          "name:ext": "Estaus Uñíus d'América",
          "name:frp": "Ètats-Unis d’Amèrica",
          "name:frr": "Feriind Stoote foon Ameerika",
          "name:fur": "Stâts Unîts di Americhe",
          "name:gag": "Amerika Birleşik Devletläri",
          "name:gan": "美國",
          "name:glk": "امریکا",
          "name:grc": "Ἡνωμέναι Πολιτεῖαι τῆς Ἀμερικῆς",
          "name:hak": "Mî-li-kiên Ha̍p-chung-koet",
          "name:haw": "ʻAmelika Hui Pū ʻia",
          "name:hif": "United States",
          "name:hsb": "Zjednoćene staty Ameriki",
          "name:ilo": "stados Unidos iti Amerika",
          "name:jbo": ".iunaited.steits.",
          "name:kaa": "Amerika Qurama Shtatları",
          "name:kab": "Iwunak Yedduklen",
          "name:kbd": "Америкэ Штат Зэгуэт",
          "name:koi": "Америкаись Ӧтлаасьӧм Штаттэз",
          "name:krc": "Американы Бирлешген Штатлары",
          "name:ksh": "Vereenichde Staate van Amerika",
          "name:lad": "Estatos Unitos d'Amerika",
          "name:lbe": "Американал ЦачӀунхьу Штатру",
          "name:lez": "Америкадин Садхьанвай Штатар",
          "name:lij": "Stati Unïi d'America",
          "name:lmo": "Stat Ünì d'America",
          "name:ltg": "Amerikys Saškierstuos Vaļsteibys",
          "name:lzh": "美利堅合眾國",
          "name:mdf": "Америконь Аймакнень Соткссна",
          "name:mhr": "Америкысе Ушымо Штатвлак",
          "name:mia": "mihši-maalhsonki",
          "name:min": "Amerika Sarikat",
          "name:mrj": "Америкын Ушымы Штатвлӓжӹ",
          "name:mwl": "Stados Ounidos de la América",
          "name:myv": "Американь Вейтьсэндявкс Штаттнэ",
          "name:mzn": "متحده ایالات آمریکا",
          "name:nah": "Tlacetilīlli Tlahtohcāyōtl Ixachitlān",
          "name:nan": "America Ha̍p-chiòng-kok",
          "name:nap": "State Aunite d'Amereca",
          "name:nds": "Verenigten Staten vun Amerika",
          "name:new": "संयुक्त राज्य अमेरिका",
          "name:nov": "Unionati States de Amerika",
          "name:nrm": "Êtats Unnis d'Améthique",
          "name:nso": "United States of America",
          "name:pag": "Estados Unidos",
          "name:pam": "United States ning America",
          "name:pap": "Estadonan Uni di Merka",
          "name:pcd": "États-Unis Anmérikes",
          "name:pdc": "Vereenichde Schtaate vun Amerikaa",
          "name:pfl": "Verainischde Schdaade vun Ameriga",
          "name:pih": "Yunitid Staits",
          "name:pms": "Stat Unì d'América",
          "name:pnb": "امریکہ",
          "name:rue": "Споєны Штаты Америцькы",
          "name:sah": "Америка Холбоһуктаах Штаттара",
          "name:scn": "Stati Uniti",
          "name:sco": "Unitit States o Americae",
          "name:smn": "Amerik ovtâstumstaatah",
          "name:sms": "Ameriikk õhttõõvvâmvääʹld",
          "name:srn": "Kondre Makandrameki",
          "name:stq": "Fereende Stoaten fon Amerikoa",
          "name:syc": "ܐܘܚܕܢܐ ܡܚܝܕܐ",
          "name:szl": "Zjednoczōne Sztaty Ameryki",
          "name:tet": "Estadu Naklibur Sira Amérika Nian",
          "name:tpi": "Yunaitet Stet bilong Amerika",
          "name:tzl": "Estats Viensiçeschti d'America",
          "name:udm": "Америкалэн Огазеяськем Штатъёсыз",
          "name:vec": "Stati Unìi de la Mèrica",
          "name:vep": "Amerikan Ühtenzoittud Valdkundad",
          "name:vls": "Verênigde Stoaten van Amerika",
          "name:vro": "Ameeriga Ütisriigiq",
          "name:war": "Estados Unidos",
          "name:wuu": "美国",
          "name:xal": "Америкин Ниицәтә Орн Нутгуд",
          "name:xmf": "ამერიკაშ აკოართაფილი შტატეფი",
          "name:yue": "美利堅合眾國",
          "name:zea": "Vereênigde Staeten",
          "way_area": "1231.9",
          "wikidata": "Q30",
          "ISO3166-1": "US",
          "wikipedia": "en:United States",
          "population": "331449281",
          "short_name": "USA",
          "admin_level": "2",
          "alt_name:be": "Злучаныя Штаты;Штаты",
          "alt_name:en": "America",
          "alt_name:es": "Estados Unidos;EUA",
          "alt_name:fr": "États-Unis",
          "alt_name:ko": "아메리카",
          "alt_name:vi": "Hoa Kì;Mĩ;Hợp chúng quốc Hoa Kì",
          "border_type": "national",
          "int_name:ko": "아메리카합중국",
          "name:nds-nl": "Verienigde Staoten van Amerika",
          "old_name:ar": "الولايات المتحدة الأمريكية الشمالية",
          "old_name:de": "Vereinigte Staaten von Nordamerika",
          "old_name:en": "United States of North America",
          "old_name:eo": "Unuiĝintaj Ŝtatoj de Nordameriko",
          "old_name:es": "Estados Unidos de Norteamérica",
          "old_name:ko": "북아메리카합중국",
          "old_name:pl": "Stany Zjednoczone Ameryki Północnej",
          "old_name:ru": "Северо-Американские Соединённые Штаты",
          "old_name:vi": "Mỹ Lợi Kiên;Ma Ly Căn;Nhã Di Lý",
          "name:az-Arab": "آمریکا بیرلشمیش ایالتلری",
          "name:bat-smg": "JAV",
          "name:cbk-zam": "Estados Unidos de America",
          "name:kk-Arab": "امەرىيكا قۇراما شتاتتارى",
          "name:map-bms": "Amerika Serikat",
          "name:sr-Latn": "Sjedinjene Američke Države",
          "name:zh-Hans": "美利坚合众国",
          "name:zh-Hant": "美利堅合眾國",
          "name:roa-tara": "Statère Aunìte d'Americhe",
          "official_name": "United States of America",
          "short_name:az": "ABŞ",
          "short_name:be": "ЗША",
          "short_name:bg": "САЩ",
          "short_name:cs": "Spojené státy",
          "short_name:en": "USA",
          "short_name:es": "EE.UU.",
          "short_name:fr": "É.-U.",
          "short_name:ko": "미국",
          "short_name:mo": "СУА",
          "short_name:nl": "VS",
          "short_name:pl": "USA",
          "short_name:ru": "США",
          "short_name:sr": "САД",
          "short_name:tr": "ABD",
          "short_name:vi": "Mỹ",
          "short_name:zh": "美国/美國",
          "name:be-tarask": "Злучаныя Штаты Амэрыкі",
          "population:date": "2020",
          "ISO3166-1:alpha2": "US",
          "ISO3166-1:alpha3": "USA",
          "default_language": "en",
          "official_name:ar": "الوِلَايَات المُتَّحِدَة الأَمرِيكِيَّة",
          "official_name:cs": "Spojené státy americké",
          "official_name:de": "Vereinigte Staaten von Amerika",
          "official_name:en": "United States of America",
          "official_name:eo": "Unuiĝintaj Ŝtatoj de Ameriko",
          "official_name:es": "Estados Unidos de América",
          "official_name:ko": "미합중국",
          "official_name:ks": "ریاست ہائے متحدہ",
          "official_name:nl": "Verenigde Staten van Amerika",
          "official_name:pl": "Stany Zjednoczone Ameryki",
          "official_name:ps": "د امریکا متحده آیالاتونه",
          "official_name:sv": "Amerikas Förenta Stater",
          "official_name:ug": "ئامېرىكا قوشما شىتاتلىرى",
          "official_name:ur": "ریاست ہائے متحدہ",
          "official_name:vi": "Hợp chúng quốc Hoa Kỳ;Hợp chúng quốc Hoa Kì;Hợp chủng quốc Hoa Kỳ;Hợp chủng quốc Hoa Kì",
          "ISO3166-1:numeric": "840",
          "alt_short_name:en": "US",
          "alt_short_name:pl": "St. Zj.",
          "official_name:arc": "ܐܬܪܘܬܐ ܡܚܝܕܐ ܕܐܡܪܝܟܐ",
          "official_name:din": "Pawuut Matiic ke Amerïka",
          "official_name:grc": "Ἡνωμέναι Πολιτεῖαι τῆς Ἀμερικῆς",
          "official_name:syc": "ܐܬܪܘܬܐ ܡܚܝܕܐ ܕܐܡܪܝܟܐ",
          "old_short_name:ru": "САСШ",
          "short_name:sr-Latn": "SAD",
          "short_name:zh-Hans": "美国",
          "short_name:zh-Hant": "美國",
          "not:official_name:vi": "Hợp chủng quốc Hoa Kỳ;Hợp chúng quốc Hoa Kì;Hợp chủng quốc Hoa Kỳ;Hợp chủng quốc Hoa Kì",
          "official_name:kk-Arab": "امەرىيكا قۇراما شتاتتارى"
        }
      },
      "geometry": {
        "type": "Polygon",
        "coordinates": [
          [
            [
              -169.0485821,
              65.4690061
            ],
            [
              -169.0335603,
              65.4641427
            ],
            [
              -169.0199792,
              65.4600786
            ],
            [
              -169.0035907,
              65.4555371
            ],
            [
              -169,
              65.45463005634029
            ],
            [
              -169,
              65.49002492586487
            ],
            [
              -169.0485821,
              65.4690061
            ]
          ]
        ]
      }
    }
  ]
}