{
  "type": "FeatureCollection",
  "features": [
    {
      "type": "Feature",
      "properties": {
        "osm_id": -114686,
        "boundary": "administrative",
        "admin_level": 2,
        "parents": null,
        "name": "Mexico",
        "local_name": "México",
        "name_en": "Mexico",
        "all_tags": {
          "flag": "http://upload.wikimedia.org/wikipedia/commons/f/fc/Flag_of_Mexico.svg",
          "name": "México",
          "name:af": "Meksiko",
          "name:am": "ሜክሲኮ",
          "name:an": "Mexico",
          "name:ar": "المكسيك",
          "name:ay": "Mïxiku",
          "name:az": "Meksika",
          "name:ba": "Мексика",
          "name:be": "Мексіка",
          "name:bg": "Мексико",
          "name:bi": "Mexico",
          "name:bm": "Mɛkisiki",
          "name:bn": "মেক্সিকো",
          "name:bo": "མེག་སི་ཀོ།",
          "name:br": "Mec'hiko",
          "name:bs": "Meksiko",
          "name:ca": "Mèxic",
          "name:ce": "Мексика",
          "name:co": "Messicu",
          "name:cr": "ᒣᐠᓰᑰ",
          "name:cs": "Mexiko",
          "name:cv": "Мексика",
          "name:cy": "Mexico",
          "name:da": "Mexico",
          "name:de": "Mexiko",
          "name:dv": "މެކްސިކޯ",
          "name:dz": "མེཀ་སི་ཀོ",
          "name:ee": "Mexico",
          "name:el": "Μεξικό",
          "name:en": "Mexico",
          "name:eo": "Meksiko",
          "name:es": "México",
          "name:et": "Mehhiko",
          "name:eu": "Mexiko",
          "name:fa": "مکزیک",
          "name:fi": "Meksiko",
          "name:fo": "Meksiko",
          "name:fr": "Mexique",
          "name:fy": "Meksiko",
          "name:ga": "Meicsiceo",
          "name:gd": "Meagsago",
          "name:gl": "México",
          "name:gn": "Méhiko",
          "name:gu": "મેક્સિકો",
          "name:gv": "Meksico",
          "name:he": "מקסיקו",
          "name:hi": "मेक्सिको",
          "name:hr": "Meksiko",
          "name:ht": "Meksik",
          "name:hu": "Mexikó",
          "name:hy": "Մեքսիկա",
          "name:ia": "Mexico",
          "name:id": "Meksiko",
          "name:ik": "Miasiku",
          "name:io": "Mexikia",
          "name:is": "Mexíkó",
          "name:it": "Messico",
          "name:iu": "ᒦᒃᓰᖂ",
          "name:ja": "メキシコ",
          "name:jv": "Mèksiko",
          "name:ka": "მექსიკა",
          "name:kk": "Мексика",
          "name:kl": "Mexico",
          "name:km": "ម៉ិកស៊ិក",
          "name:kn": "ಮೆಕ್ಸಿಕೋ",
          "name:ko": "멕시코",
          "name:ku": "Meksîk",
          "name:kv": "Мексика",
          "name:kw": "Meksiko",
          "name:ky": "Мексика",
          "name:la": "Mexicum",
          "name:lb": "Mexiko",
          "name:li": "Mexico",
          "name:ln": "Mexiko",
          "name:lt": "Meksika",
          "name:lv": "Meksika",
          "name:mg": "Meksika",
          "name:mi": "Mēhiko",
          "name:mk": "Мексико",
          "name:ml": "മെക്സിക്കോ",
          "name:mn": "Мексик",
          "name:mr": "मेक्सिको",
          "name:ms": "Mexico",
          "name:mt": "Messiku",
          "name:my": "မက္ကဆီကိုနိုင်ငံ",
          "name:na": "Meketiko",
          "name:ne": "मेक्सिको",
          "name:nl": "Mexico",
          "name:nn": "Mexico",
          "name:no": "Mexico",
          "name:nv": "Naakaii Bikéyah",
          "name:oc": "Mexic",
          "name:or": "ମେକ୍ସିକୋ",
          "name:os": "Мексикæ",
          "name:pa": "ਮੈਕਸੀਕੋ",
          "name:pl": "Meksyk",
          "name:pt": "México",
          "name:qu": "Mishiku",
          "name:rm": "Mexico",
          "name:ro": "Mexic",
          "name:ru": "Мексика",
          "name:rw": "Megizike",
          "name:sc": "Mèssico",
          "name:se": "Meksiko",
          "name:sh": "Meksiko",
          "name:sk": "Mexiko",
          "name:sl": "Mehika",
          "name:sm": "Mexico",
          "name:sn": "Mexico",
          "name:so": "Meksiko",
          "name:sq": "Meksika",
          "name:sr": "Мексико",
          "name:ss": "IMekisikho",
          "name:su": "Méksiko",
          "name:sv": "Mexiko",
          "name:sw": "Mexiko",
          "name:ta": "மெக்சிக்கோ",
          "name:te": "మెక్సికో",
          "name:tg": "Мексика",
          "name:th": "ประเทศเม็กซิโก",
          "name:tk": "Meksika",
          "name:tl": "Mehiko",
          "name:tr": "Meksika",
          "name:tt": "Мексика",
          "name:tw": "Mexico",
          "name:ug": "مېكسىكا",
          "name:uk": "Мексика",
          "name:ur": "میکسیکو",
          "name:uz": "Meksika",
          "name:vi": "México",
          "name:vo": "Mäxikän",
          "name:wo": "Meksik",
          "name:yi": "מעקסיקא",
          "name:yo": "Mẹ́ksíkò",
          "name:zh": "墨西哥",
          "name:zu": "IMekisiko",
          "boundary": "administrative",
          "currency": "MXN",
          "name:ace": "Meksiko",
          "name:als": "Mexiko",
          "name:ang": "Mexico",
          "name:arc": "ܡܟܣܝܩܘ",
          "name:arz": "الميكسيك",
          "name:ast": "Méxicu",
          "name:atj": "Meksiko",
          "name:azb": "مکزیک",
          "name:bar": "Mexiko",
          "name:bcl": "Mehiko",
          "name:bpy": "মেক্সিকো",
          "name:bxr": "Мексико",
          "name:cdo": "Mĕ̤k-să̤-gŏ̤",
          "name:ceb": "Mehiko",
          "name:chr": "ᎠᏂᏍᏆᏂ",
          "name:chy": "Mé'šeeséve'ho'évenó",
          "name:ckb": "مەکسیک",
          "name:crh": "Meksika",
          "name:crk": "mêksîkô",
          "name:diq": "Meksika",
          "name:dsb": "Mexiko",
          "name:ext": "Méjicu",
          "name:frp": "Mexique",
          "name:frr": "Meksikoo",
          "name:fur": "Messic",
          "name:gag": "Meksika",
          "name:gan": "墨西哥",
          "name:hak": "Me̍t-sî-kô",
          "name:haw": "Mekiko",
          "name:hif": "Mexico",
          "name:hsb": "Mexiko",
          "name:ilo": "Méhiko",
          "name:jbo": "mexygu'e",
          "name:kbd": "Мексикэ",
          "name:krc": "Мексика",
          "name:lad": "Meksiko",
          "name:lez": "Мексика",
          "name:lij": "Mescico",
          "name:lmo": "Messich",
          "name:ltg": "Meksika",
          "name:lzh": "墨西哥",
          "name:mdf": "Мексик",
          "name:mhr": "Мексике",
          "name:mia": "iihpaawalonki",
          "name:mrj": "Мексика",
          "name:mwl": "México",
          "name:mzn": "مکزیک",
          "name:nah": "Mēxihco",
          "name:nan": "Be̍k-se-ko",
          "name:nap": "Messico",
          "name:nds": "Mexiko",
          "name:new": "मेक्सिको",
          "name:nov": "Mexiko",
          "name:nrm": "Mexique",
          "name:pag": "Mexico",
          "name:pam": "Mexico",
          "name:pap": "Mexico",
          "name:pdc": "Mexiko",
          "name:pfl": "Mexiko",
          "name:pih": "Meksikoe",
          "name:pms": "Méssich",
          "name:pnb": "میکسیکو",
          "name:rmy": "Mexiko",
          "name:rue": "Мексіко",
          "name:sah": "Мексика",
          "name:scn": "Mèssicu",
          "name:sco": "Mexico",
          "name:smn": "Meksiko",
          "name:sms": "Meksiko",
          "name:srn": "Meksikokondre",
          "name:stq": "Mexiko",
          "name:szl": "Meksyk",
          "name:tpi": "Meksiko",
          "name:tzl": "Mexico",
          "name:vec": "Mèsico",
          "name:vep": "Meksik",
          "name:vro": "Mehhiko",
          "name:war": "Mehiko",
          "name:win": "Reeziporoporo Mąą",
          "name:xal": "Мексикудин Ниицәтә Орн Нутгуд",
          "name:xmf": "მექსიკა",
          "name:yue": "墨西哥",
          "way_area": "200.236",
          "wikidata": "Q96",
          "ISO3166-1": "MX",
          "wikipedia": "es:México",
          "admin_level": "2",
          "alt_name:nv": "Méhigo",
          "alt_name:vi": "Mê-hi-cô;Mễ Tây Cơ;Mễ",
          "border_type": "nation",
          "name:nds-nl": "Mexico",
          "name:simple": "Mexico",
          "alt_name:chr": "ᎺᏏᎪ",
          "name:bat-smg": "Meksėka",
          "name:cbk-zam": "México",
          "name:zh-Hans": "墨西哥",
          "name:zh-Hant": "墨西哥",
          "name:roa-tara": "Messeche",
          "official_name": "Estados Unidos Mexicanos",
          "name:be-tarask": "Мэксыка",
          "ISO3166-1:alpha2": "MX",
          "ISO3166-1:alpha3": "MEX",
          "default_language": "es",
          "official_name:cs": "Spojené státy mexické",
          "official_name:sv": "Mexikos förenta stater",
          "ISO3166-1:numeric": "484"
        }
      },
      "geometry": {
        "type": "MultiPolygon",
        "coordinates": [
          [
            [
              [
                -115,
                28
              ],
              [
                -114.66389020727415,
                28
              ],
              [
                -114.667714,
                28.001017
              ],
              [
                -114.67605,
                28.002905
              ],
              [
                -114.68587,
                28.004749
              ],
              [
                -114.694358,
                28.006021
              ],
              [
                -114.760101,
                28.014694
              ],
              [
                -114.771504,
                28.015808
              ],
              [
                -114.782826,
                28.016401
              ],
              [
                -114.789315,
                28.018603
              ],
              [
                -114.79609,
                28.020687
              ],
              [
                -114.808461,
                28.023953
              ],
              [
                -114.815419,
                28.025495
              ],
              [
                -114.822428,
                28.02684
              ],
              [
                -114.835153,
                28.028759
              ],
              [
                -114.842269,
                28.029545
              ],
              [
                -114.84941,
                28.030131
              ],
              [
                -114.862303,
                28.030675
              ],
              [
                -114.936932,
                28.030276
              ],
              [
                -114.942771,
                28.033484
              ],
              [
                -114.949678,
                28.037003
              ],
              [
                -114.946773,
                28.048005
              ],
              [
                -114.945676,
                28.053002
              ],
              [
                -114.9443,
                28.06054
              ],
              [
                -114.942971,
                28.070652
              ],
              [
                -114.942176,
                28.08189
              ],
              [
                -114.939526,
                28.088288
              ],
              [
                -114.937276,
                28.09433
              ],
              [
                -114.935243,
                28.100433
              ],
              [
                -114.933428,
                28.10659
              ],
              [
                -114.931543,
                28.114041
              ],
              [
                -114.928535,
                28.127582
              ],
              [
                -114.927086,
                28.135109
              ],
              [
                -114.925521,
                28.146478
              ],
              [
                -114.924747,
                28.156636
              ],
              [
                -114.92449,
                28.173766
              ],
              [
                -114.924679,
                28.180127
              ],
              [
                -114.925096,
                28.18648
              ],
              [
                -114.92642,
                28.197872
              ],
              [
                -114.928475,
                28.20918
              ],
              [
                -114.939746,
                28.257828
              ],
              [
                -114.942112,
                28.266487
              ],
              [
                -114.945345,
                28.276257
              ],
              [
                -114.948631,
                28.284677
              ],
              [
                -114.951904,
                28.292044
              ],
              [
                -114.952518,
                28.302922
              ],
              [
                -114.953517,
                28.311786
              ],
              [
                -114.955453,
                28.32311
              ],
              [
                -114.957785,
                28.333079
              ],
              [
                -114.960686,
                28.342931
              ],
              [
                -114.963232,
                28.350227
              ],
              [
                -114.96609,
                28.357432
              ],
              [
                -114.969308,
                28.364645
              ],
              [
                -114.971962,
                28.375067
              ],
              [
                -114.974654,
                28.383651
              ],
              [
                -114.976839,
                28.389714
              ],
              [
                -114.980262,
                28.398092
              ],
              [
                -114.983529,
                28.40516
              ],
              [
                -114.985876,
                28.409809
              ],
              [
                -114.991639,
                28.420066
              ],
              [
                -114.995124,
                28.425633
              ],
              [
                -114.998808,
                28.4311
              ],
              [
                -115,
                28.432758686528498
              ],
              [
                -115,
                28
              ]
            ]
          ],
          [
            [
              [
                -114.90901808487435,
                29
              ],
              [
                -114.904353,
                28.993928
              ],
              [
                -114.899223,
                28.987768
              ],
              [
                -114.893829,
                28.981784
              ],
              [
                -114.888182,
                28.975985
              ],
              [
                -114.881282,
                28.969463
              ],
              [
                -114.874061,
                28.963217
              ],
              [
                -114.866532,
                28.957259
              ],
              [
                -114.85871,
                28.951601
              ],
              [
                -114.849433,
                28.945515
              ],
              [
                -114.832384,
                28.935173
              ],
              [
                -114.825126,
                28.930987
              ],
              [
                -114.818024,
                28.927215
              ],
              [
                -114.803199,
                28.892859
              ],
              [
                -114.798559,
                28.883534
              ],
              [
                -114.793388,
                28.874428
              ],
              [
                -114.786953,
                28.864475
              ],
              [
                -114.783103,
                28.859091
              ],
              [
                -114.779061,
                28.853816
              ],
              [
                -114.771315,
                28.844616
              ],
              [
                -114.762987,
                28.835819
              ],
              [
                -114.758119,
                28.831117
              ],
              [
                -114.753084,
                28.826554
              ],
              [
                -114.746829,
                28.821266
              ],
              [
                -114.741446,
                28.817022
              ],
              [
                -114.734789,
                28.812131
              ],
              [
                -114.729084,
                28.808228
              ],
              [
                -114.722056,
                28.803757
              ],
              [
                -114.715956,
                28.800157
              ],
              [
                -114.711494,
                28.794978
              ],
              [
                -114.706014,
                28.789063
              ],
              [
                -114.700283,
                28.783336
              ],
              [
                -114.695321,
                28.778712
              ],
              [
                -114.689151,
                28.77335
              ],
              [
                -114.682755,
                28.768199
              ],
              [
                -114.676141,
                28.763266
              ],
              [
                -114.67047,
                28.759326
              ],
              [
                -114.6623,
                28.754081
              ],
              [
                -114.655093,
                28.749843
              ],
              [
                -114.646462,
                28.745208
              ],
              [
                -114.638884,
                28.741507
              ],
              [
                -114.62985,
                28.737514
              ],
              [
                -114.621953,
                28.734375
              ],
              [
                -114.612577,
                28.73105
              ],
              [
                -114.603409,
                28.728201
              ],
              [
                -114.599739,
                28.721947
              ],
              [
                -114.595481,
                28.715299
              ],
              [
                -114.591715,
                28.709871
              ],
              [
                -114.586941,
                28.7035
              ],
              [
                -114.582756,
                28.698316
              ],
              [
                -114.577491,
                28.692254
              ],
              [
                -114.572907,
                28.68734
              ],
              [
                -114.567608,
                28.682034
              ],
              [
                -114.56599,
                28.676613
              ],
              [
                -114.563945,
                28.670511
              ],
              [
                -114.559715,
                28.659684
              ],
              [
                -114.554792,
                28.649087
              ],
              [
                -114.549192,
                28.638755
              ],
              [
                -114.542934,
                28.628721
              ],
              [
                -114.536039,
                28.619019
              ],
              [
                -114.528528,
                28.609679
              ],
              [
                -114.520426,
                28.600732
              ],
              [
                -114.51568,
                28.595943
              ],
              [
                -114.510764,
                28.591288
              ],
              [
                -114.505684,
                28.586773
              ],
              [
                -114.500445,
                28.582403
              ],
              [
                -114.495051,
                28.578181
              ],
              [
                -114.489509,
                28.574113
              ],
              [
                -114.483824,
                28.570201
              ],
              [
                -114.477082,
                28.565881
              ],
              [
                -114.472132,
                28.558766
              ],
              [
                -114.466932,
                28.55194
              ],
              [
                -114.461826,
                28.545777
              ],
              [
                -114.455266,
                28.538406
              ],
              [
                -114.449645,
                28.532604
              ],
              [
                -114.443779,
                28.526994
              ],
              [
                -114.436637,
                28.520705
              ],
              [
                -114.430268,
                28.515541
              ],
              [
                -114.422565,
                28.509792
              ],
              [
                -114.415738,
                28.505108
              ],
              [
                -114.408345,
                28.500432
              ],
              [
                -114.401142,
                28.496218
              ],
              [
                -114.386309,
                28.48826
              ],
              [
                -114.380058,
                28.485101
              ],
              [
                -114.371123,
                28.480974
              ],
              [
                -114.363087,
                28.477633
              ],
              [
                -114.356901,
                28.467647
              ],
              [
                -114.350041,
                28.45793
              ],
              [
                -114.342566,
                28.448575
              ],
              [
                -114.335425,
                28.440587
              ],
              [
                -114.326856,
                28.431997
              ],
              [
                -114.317748,
                28.423852
              ],
              [
                -114.30813,
                28.41618
              ],
              [
                -114.298598,
                28.409386
              ],
              [
                -114.334187,
                28.339235
              ],
              [
                -114.338588,
                28.329828
              ],
              [
                -114.342443,
                28.320236
              ],
              [
                -114.346115,
                28.309254
              ],
              [
                -114.348779,
                28.29935
              ],
              [
                -114.350872,
                28.289339
              ],
              [
                -114.351887,
                28.28304
              ],
              [
                -114.352806,
                28.275448
              ],
              [
                -114.353322,
                28.269101
              ],
              [
                -114.35361,
                28.262742
              ],
              [
                -114.35367,
                28.256379
              ],
              [
                -114.353502,
                28.250018
              ],
              [
                -114.353107,
                28.243664
              ],
              [
                -114.352484,
                28.237325
              ],
              [
                -114.351437,
                28.229745
              ],
              [
                -114.350316,
                28.22346
              ],
              [
                -114.348971,
                28.217209
              ],
              [
                -114.347403,
                28.210999
              ],
              [
                -114.345229,
                28.20361
              ],
              [
                -114.343176,
                28.197512
              ],
              [
                -114.340906,
                28.191475
              ],
              [
                -114.338421,
                28.185504
              ],
              [
                -114.38932,
                28.118761
              ],
              [
                -114.430151,
                28.082666
              ],
              [
                -114.437025,
                28.07617
              ],
              [
                -114.442652,
                28.070391
              ],
              [
                -114.450617,
                28.061377
              ],
              [
                -114.457988,
                28.051973
              ],
              [
                -114.46474,
                28.042211
              ],
              [
                -114.468216,
                28.036645
              ],
              [
                -114.471388,
                28.031167
              ],
              [
                -114.479593,
                28.026261
              ],
              [
                -114.487662,
                28.020961
              ],
              [
                -114.51733484945629,
                28
              ],
              [
                -114,
                28
              ],
              [
                -114,
                29
              ],
              [
                -114.90901808487435,
                29
              ]
            ]
          ]
        ]
      }
    }
  ]
}