{
  "type": "FeatureCollection",
  "features": [
    {
      "type": "Feature",
      "properties": {
        "osm_id": -192778,
        "boundary": "administrative",
        "admin_level": 2,
        "parents": null,
        "name": "Guinea",
        "local_name": "Guinée",
        "name_en": "Guinea",
        "all_tags": {
          "flag": "http://upload.wikimedia.org/wikipedia/commons/e/ed/Flag_of_Guinea.svg",
          "name": "Guinée",
          "name:af": "Guinee",
          "name:am": "ጊኔ",
          "name:an": "Guinea",
          "name:ar": "غينيا",
          "name:az": "Qvineya",
          "name:ba": "Гвинея",
          "name:be": "Гвінея",
          "name:bg": "Гвинея",
          "name:bm": "Gine",
          "name:bn": "গিনি",
          "name:bo": "གི་ནེ།",
          "name:br": "Ginea",
          "name:bs": "Gvineja",
          "name:ca": "República de Guinea",
          "name:ce": "Гвине",
          "name:cs": "Guinea",
          "name:cv": "Гвиней",
          "name:cy": "Guinée",
          "name:da": "Guinea",
          "name:de": "Guinea",
          "name:dv": "ގީނިއާ",
          "name:ee": "Guinea",
          "name:el": "Γουινέα",
          "name:en": "Guinea",
          "name:eo": "Gvineo",
          "name:es": "Guinea",
          "name:et": "Guinea",
          "name:eu": "Ginea",
          "name:fa": "گینه",
          "name:ff": "Gine",
          "name:fi": "Guinea",
          "name:fo": "Guinea",
          "name:fr": "Guinée",
          "name:fy": "Guinee",
          "name:ga": "An Ghuine",
          "name:gd": "Gini",
          "name:gl": "Guinea",
          "name:gn": "Ginéa",
          "name:gv": "Yn Ghuinea",
          "name:ha": "Gine",
          "name:he": "גינאה",
          "name:hi": "गिनी",
          "name:hr": "Gvineja",
          "name:ht": "Gine",
          "name:hu": "Guinea",
          "name:hy": "Գվինեա",
          "name:ia": "Guinea",
          "name:id": "Guinea",
          "name:ie": "Guinea",
          "name:io": "Guinea",
          "name:is": "Gínea",
          "name:it": "Guinea",
          "name:ja": "ギニア",
          "name:jv": "Guinea",
          "name:ka": "გვინეა",
          "name:kg": "Ginea",
          "name:kk": "Гвинея",
          "name:ko": "기니",
          "name:ku": "Gîne",
          "name:kw": "Gyni",
          "name:ky": "Гвинея",
          "name:la": "Guinea",
          "name:lb": "Guinea",
          "name:li": "Guinee",
          "name:ln": "Gine-Konakry",
          "name:lt": "Gvinėja",
          "name:lv": "Gvineja",
          "name:mi": "Kini",
          "name:mk": "Гвинеја",
          "name:ml": "ഗിനി",
          "name:mn": "Гвиней",
          "name:mr": "गिनी",
          "name:ms": "Guinea",
          "name:my": "ဂီနီနိုင်ငံ",
          "name:na": "Gini",
          "name:ne": "गिनी",
          "name:nl": "Guinee",
          "name:nn": "Guinea",
          "name:no": "Guinea",
          "name:nv": "Gíní",
          "name:oc": "Guinèa",
          "name:or": "ଗିନି",
          "name:os": "Гвиней",
          "name:pa": "ਗਿਨੀ",
          "name:pl": "Gwinea",
          "name:pt": "Guiné",
          "name:qu": "Khiniya",
          "name:ro": "Guineea",
          "name:ru": "Гвинея",
          "name:rw": "Gineya",
          "name:sa": "गिनी",
          "name:sc": "Guinea",
          "name:se": "Guinea",
          "name:sg": "Ginëe",
          "name:sh": "Gvineja",
          "name:sk": "Guinea",
          "name:sl": "Gvineja",
          "name:sm": "Guinea",
          "name:sn": "Guinea",
          "name:so": "Guinea",
          "name:sq": "Guinea",
          "name:sr": "Гвинеја",
          "name:ss": "IGiniya",
          "name:st": "Guinea",
          "name:su": "Guinéa",
          "name:sv": "Guinea",
          "name:sw": "Guinea",
          "name:ta": "கினி",
          "name:tg": "Гвинея",
          "name:th": "ประเทศกินี",
          "name:tk": "Gwineýa",
          "name:tl": "Ginea",
          "name:tr": "Gine",
          "name:ts": "Gineya",
          "name:tt": "Гвинея",
          "name:ug": "ۋىنېيە",
          "name:uk": "Ґвінея",
          "name:ur": "جمہوریہ گنی",
          "name:uz": "Gvineya",
          "name:vi": "Guinée",
          "name:vo": "Gineyän",
          "name:wo": "Gine",
          "name:yi": "גינע",
          "name:yo": "Guinea",
          "name:zh": "几内亚 / 畿內亞",
          "name:zu": "IGini",
          "boundary": "administrative",
          "name:ace": "Guinea",
          "name:als": "Guinea",
          "name:ang": "Guinea",
          "name:arz": "جينيا",
          "name:ast": "Guinea",
          "name:bcl": "Guineya",
          "name:bjn": "Guinea",
          "name:bpy": "গিনি",
          "name:bxr": "Гвиней",
          "name:ceb": "Guinea",
          "name:ckb": "گینێ",
          "name:crh": "Gvineya",
          "name:diq": "Gineya",
          "name:ext": "Guinea",
          "name:frp": "Guinê",
          "name:gag": "Gvineya",
          "name:hif": "Guinea",
          "name:hsb": "Gineja",
          "name:ilo": "Guinea",
          "name:lij": "Guinea",
          "name:lmo": "Guinea",
          "name:min": "Guinea",
          "name:mrj": "Гвиней",
          "name:nah": "Guinea",
          "name:nan": "Guinée",
          "name:nds": "Guinea",
          "name:new": "गिनी",
          "name:nov": "Gini",
          "name:nso": "Guinea",
          "name:pam": "Guinea",
          "name:pih": "Gini",
          "name:pms": "Guinea",
          "name:pnb": "گنی",
          "name:sah": "Гуинея",
          "name:scn": "Guinia",
          "name:sco": "Guinea",
          "name:smn": "Guinea",
          "name:sms": "Guinea",
          "name:stq": "Guinea",
          "name:szl": "Gwinyjo",
          "name:tzl": "Guineia",
          "name:vec": "Guinea",
          "name:vro": "Ginea",
          "name:war": "Guinea",
          "name:xal": "Гвинмудин Орн",
          "name:yue": "畿內亞",
          "timezone": "Africa/Conakry",
          "way_area": "21.0677",
          "wikidata": "Q1006",
          "ISO3166-1": "GN",
          "wikipedia": "en:Guinea",
          "admin_level": "2",
          "alt_name:fr": "Guinée-Conakry",
          "name:simple": "Guinea",
          "name:bat-smg": "Gvėniejė",
          "name:zh-Hans": "几内亚",
          "name:zh-Hant": "畿內亞",
          "name:be-tarask": "Гвінэя",
          "ISO3166-1:alpha2": "GN",
          "ISO3166-1:alpha3": "GIN",
          "default_language": "fr",
          "official_name:ar": "جمهورية غينيا",
          "official_name:cs": "Guinejská republika",
          "official_name:fa": "جمهوری گینه",
          "official_name:fr": "République de Guinée",
          "official_name:gn": "Tavakuairetã Ginéa",
          "official_name:pt": "República da Guiné",
          "official_name:ur": "جمہوریہ گنی",
          "ISO3166-1:numeric": "324"
        }
      },
      "geometry": {
        "type": "Polygon",
        "coordinates": [
          [
            [
              -12,
              11
            ],
            [
              -11,
              11
            ],
            [
              -11,
              12
            ],
            [
              -11.220660445614035,
              12
            ],
            [
              -11.220814,
              11.999182
            ],
            [
              -11.222381,
              11.998327
            ],
            [
              -11.225089,
              11.998042
            ],
            [
              -11.229933,
              11.99904
            ],
            [
              -11.235348,
              11.998755
            ],
            [
              -11.237343,
              11.99904
            ],
            [
              -11.238848210563882,
              12
            ],
            [
              -12,
              12
            ],
            [
              -12,
              11
            ]
          ]
        ]
      }
    },
    {
      "type": "Feature",
      "properties": {
        "osm_id": -192785,
        "boundary": "administrative",
        "admin_level": 2,
        "parents": null,
        "name": "Mali",
        "local_name": "Mali",
        "name_en": "Mali",
        "all_tags": {
          "flag": "http://upload.wikimedia.org/wikipedia/commons/9/92/Flag_of_Mali.svg",
          "name": "Mali",
          "name:af": "Mali",
          "name:am": "ማሊ",
          "name:an": "Mali",
          "name:ar": "مالي",
          "name:az": "Mali",
          "name:ba": "Мали",
          "name:be": "Малі",
          "name:bg": "Мали",
          "name:bm": "Mali",
          "name:bn": "মালি",
          "name:bo": "མ་ལི།",
          "name:br": "Mali",
          "name:bs": "Mali",
          "name:ca": "Mali",
          "name:ce": "Мали",
          "name:cs": "Mali",
          "name:cv": "Мали",
          "name:cy": "Mali",
          "name:da": "Mali",
          "name:de": "Mali",
          "name:dv": "މާލީ",
          "name:ee": "Mali",
          "name:el": "Μάλι",
          "name:en": "Mali",
          "name:eo": "Malio",
          "name:es": "Malí",
          "name:et": "Mali",
          "name:eu": "Mali",
          "name:fa": "مالی",
          "name:ff": "Maali",
          "name:fi": "Mali",
          "name:fo": "Mali",
          "name:fr": "Mali",
          "name:fy": "Maly",
          "name:ga": "Mailí",
          "name:gd": "Màili",
          "name:gl": "Malí",
          "name:gn": "Mali",
          "name:gv": "Malee",
          "name:ha": "Mali",
          "name:he": "מאלי",
          "name:hi": "माली",
          "name:hr": "Mali",
          "name:ht": "Mali",
          "name:hu": "Mali",
          "name:hy": "Մալի",
          "name:ia": "Mali",
          "name:id": "Mali",
          "name:ie": "Mali",
          "name:io": "Mali",
          "name:is": "Malí",
          "name:it": "Mali",
          "name:ja": "マリ共和国",
          "name:jv": "Mali",
          "name:ka": "მალი",
          "name:kg": "Mali",
          "name:kk": "Мали",
          "name:kn": "ಮಾಲಿ",
          "name:ko": "말리",
          "name:ku": "Malî",
          "name:kw": "Mali",
          "name:la": "Malium",
          "name:lb": "Mali",
          "name:li": "Mali",
          "name:ln": "Mali",
          "name:lt": "Malis",
          "name:lv": "Mali",
          "name:mi": "Māri",
          "name:mk": "Мали",
          "name:ml": "മാലി",
          "name:mn": "Мали",
          "name:mr": "माली",
          "name:ms": "Mali",
          "name:mt": "Mali",
          "name:my": "မာလီနိုင်ငံ",
          "name:nl": "Mali",
          "name:nn": "Mali",
          "name:no": "Mali",
          "name:oc": "Mali",
          "name:or": "ମାଲି",
          "name:os": "Мали",
          "name:pa": "ਮਾਲੀ",
          "name:pl": "Mali",
          "name:ps": "مالي",
          "name:pt": "Mali",
          "name:qu": "Mali",
          "name:ro": "Mali",
          "name:ru": "Мали",
          "name:rw": "Mali",
          "name:sa": "माली",
          "name:sc": "Mali",
          "name:se": "Mali",
          "name:sg": "Malïi",
          "name:sh": "Mali",
          "name:si": "මාලි",
          "name:sk": "Mali",
          "name:sl": "Mali",
          "name:sn": "Mali",
          "name:so": "Maali",
          "name:sq": "Mali",
          "name:sr": "Мали",
          "name:ss": "IMali",
          "name:st": "Mali",
          "name:su": "Mali",
          "name:sv": "Mali",
          "name:sw": "Mali",
          "name:ta": "மாலி",
          "name:tg": "Малӣ",
          "name:th": "ประเทศมาลี",
          "name:ti": "ማሊ",
          "name:tk": "Mali",
          "name:tl": "Mali",
          "name:tr": "Mali",
          "name:ts": "Mali",
          "name:tt": "Мали",
          "name:ug": "مالى",
          "name:uk": "Малі",
          "name:ur": "مالی",
          "name:uz": "Mali",
          "name:vi": "Mali",
          "name:vo": "Maliyän",
          "name:wa": "Mali",
          "name:wo": "Mali",
          "name:yi": "מאלי",
          "name:yo": "Málì",
          "name:zh": "马里 / 馬利",
          "name:zu": "IMali",
          "boundary": "administrative",
          "currency": "XOF",
          "name:ace": "Mali",
          "name:als": "Mali",
          "name:arc": "ܡܠܝ",
          "name:arz": "مالى",
          "name:ast": "Malí",
          "name:bcl": "Mali",
          "name:ber": "ⵎⴰⵍⵉ",
          "name:bjn": "Mali",
          "name:bpy": "মালি",
          "name:bxr": "Мали",
          "name:ceb": "Mali",
          "name:ckb": "مالی",
          "name:crh": "Mali",
          "name:diq": "Mali",
          "name:dsb": "Mali",
          "name:ext": "Mali",
          "name:frp": "Mali",
          "name:gag": "Mali",
          "name:hif": "Mali",
          "name:hsb": "Mali",
          "name:ilo": "Mali",
          "name:jbo": "malis",
          "name:kab": "Mali",
          "name:lij": "Mali",
          "name:lmo": "Mali",
          "name:min": "Mali",
          "name:mrj": "Мали",
          "name:nah": "Mali",
          "name:nan": "Mali",
          "name:nds": "Mali",
          "name:new": "माली गाविस",
          "name:nov": "Mali",
          "name:nso": "Mali",
          "name:pam": "Mali",
          "name:pap": "Mali",
          "name:pih": "Maali",
          "name:pms": "Mali",
          "name:pnb": "مالی",
          "name:sah": "Мали",
          "name:scn": "Mali",
          "name:sco": "Mali",
          "name:smn": "Mali",
          "name:sms": "Mali",
          "name:stq": "Mali",
          "name:szl": "Mali",
          "name:tzl": "Mali",
          "name:vec": "Małì",
          "name:vls": "Mali",
          "name:vro": "Mali",
          "name:war": "Mali",
          "name:wuu": "马里",
          "name:xal": "Малудин Орн",
          "name:yue": "馬里",
          "name:zgh": "ⵎⴰⵍⵉ",
          "timezone": "Africa/Bamako",
          "way_area": "106.663",
          "wikidata": "Q912",
          "ISO3166-1": "ML",
          "wikipedia": "fr:Mali",
          "population": "14517176",
          "admin_level": "2",
          "name:nds-nl": "Mali",
          "name:bat-smg": "Malis",
          "name:roa-rup": "Mali",
          "name:zh-Hans": "马里",
          "name:zh-Hant": "馬利",
          "name:be-tarask": "Малі",
          "ISO3166-1:alpha2": "ML",
          "ISO3166-1:alpha3": "MLI",
          "default_language": "fr",
          "official_name:ar": "جمهورية مالي",
          "official_name:de": "Republik Mali",
          "official_name:en": "Republic of Mali",
          "official_name:es": "República de Malí",
          "official_name:fr": "République du Mali",
          "official_name:gn": "Tavakuairetã Mali",
          "official_name:pt": "República do Mali",
          "official_name:ru": "Республика Мали",
          "official_name:zh": "马里共和国 / 馬利共和國",
          "ISO3166-1:numeric": "466",
          "official_name:ckb": "کۆماری مالی",
          "official_name:zh-Hans": "马里共和国",
          "official_name:zh-Hant": "馬利共和國"
        }
      },
      "geometry": {
        "type": "Polygon",
        "coordinates": [
          [
            [
              -11.238848210563882,
              12
            ],
            [
              -11.237343,
              11.99904
            ],
            [
              -11.235348,
              11.998755
            ],
            [
              -11.229933,
              11.99904
            ],
            [
              -11.225089,
              11.998042
            ],
            [
              -11.222381,
              11.998327
            ],
            [
              -11.220814,
              11.999182
            ],
            [
              -11.220660445614035,
              12
            ],
            [
              -11.238848210563882,
              12
            ]
          ]
        ]
      }
    }
  ]
}