{
  "type": "FeatureCollection",
  "features": [
    {
      "type": "Feature",
      "properties": {
        "osm_id": -192780,
        "boundary": "administrative",
        "admin_level": 2,
        "parents": null,
        "name": "Liberia",
        "local_name": "Liberia",
        "name_en": "Liberia",
        "all_tags": {
          "flag": "http://upload.wikimedia.org/wikipedia/commons/b/b8/Flag_of_Liberia.svg",
          "name": "Liberia",
          "name:af": "Liberië",
          "name:am": "ላይቤሪያ",
          "name:an": "Liberia",
          "name:ar": "ليبيريا",
          "name:az": "Liberiya",
          "name:ba": "Либерия",
          "name:be": "Ліберыя",
          "name:bg": "Либерия",
          "name:bm": "Liberia",
          "name:bn": "লাইবেরিয়া",
          "name:bo": "ལི་བེ་རི་ཡ།",
          "name:br": "Liberia",
          "name:bs": "Liberija",
          "name:ca": "Libèria",
          "name:ce": "Либери",
          "name:cs": "Libérie",
          "name:cv": "Либери",
          "name:cy": "Liberia",
          "name:da": "Liberia",
          "name:de": "Liberia",
          "name:dv": "ލައިބީރިއާ",
          "name:ee": "Liberia",
          "name:el": "Λιβερία",
          "name:en": "Liberia",
          "name:eo": "Liberio",
          "name:es": "Liberia",
          "name:et": "Libeeria",
          "name:eu": "Liberia",
          "name:fa": "لیبریا",
          "name:ff": "Labiriyaa",
          "name:fi": "Liberia",
          "name:fo": "Liberia",
          "name:fr": "Liberia",
          "name:fy": "Libearia",
          "name:ga": "An Libéir",
          "name:gd": "Libèiria",
          "name:gl": "Liberia",
          "name:gn": "Livéria",
          "name:gv": "Yn Laibeer",
          "name:he": "ליבריה",
          "name:hi": "लाइबेरिया",
          "name:hr": "Liberija",
          "name:ht": "Liberya",
          "name:hu": "Libéria",
          "name:hy": "Լիբերիա",
          "name:ia": "Liberia",
          "name:id": "Liberia",
          "name:ie": "Liberia",
          "name:io": "Liberia",
          "name:is": "Líbería",
          "name:it": "Liberia",
          "name:ja": "リベリア",
          "name:jv": "Liberia",
          "name:ka": "ლიბერია",
          "name:kg": "Liberia",
          "name:kk": "Либерия",
          "name:kn": "ಲೈಬೀರಿಯ",
          "name:ko": "라이베리아",
          "name:ku": "Lîberya",
          "name:kw": "Liberi",
          "name:la": "Liberia",
          "name:lb": "Liberia",
          "name:li": "Liberia",
          "name:ln": "Liberia",
          "name:lt": "Liberija",
          "name:lv": "Libērija",
          "name:mi": "Raipiri",
          "name:mk": "Либерија",
          "name:ml": "ലൈബീരിയ",
          "name:mr": "लायबेरिया",
          "name:ms": "Liberia",
          "name:mt": "Liberja",
          "name:my": "လိုက်ဘေးရီးယားနိုင်ငံ",
          "name:nl": "Liberia",
          "name:nn": "Liberia",
          "name:no": "Liberia",
          "name:oc": "Libèria",
          "name:or": "ଲାଇବେରିଆ",
          "name:os": "Либери",
          "name:pl": "Liberia",
          "name:ps": "لايبېريا",
          "name:pt": "Libéria",
          "name:qu": "Libirya",
          "name:rm": "Liberia",
          "name:ro": "Liberia",
          "name:ru": "Либерия",
          "name:rw": "Liberiya",
          "name:sa": "लायबीरिया",
          "name:sc": "Libèria",
          "name:se": "Liberia",
          "name:sg": "Liberïa",
          "name:sh": "Liberija",
          "name:sk": "Libéria",
          "name:sl": "Liberija",
          "name:sn": "Liberia",
          "name:so": "Liberia",
          "name:sq": "Liberia",
          "name:sr": "Либерија",
          "name:ss": "ILibheriya",
          "name:st": "Liberia",
          "name:su": "Liberia",
          "name:sv": "Liberia",
          "name:sw": "Liberia",
          "name:ta": "லைபீரியா",
          "name:tg": "Либерия",
          "name:th": "ประเทศไลบีเรีย",
          "name:tk": "Liberiýa",
          "name:tl": "Liberia",
          "name:tr": "Liberya",
          "name:ts": "Layiberiya",
          "name:tt": "Либерия",
          "name:ug": "لىبېرىيە",
          "name:uk": "Ліберія",
          "name:ur": "لائبیریا",
          "name:uz": "Liberiya",
          "name:vi": "Liberia",
          "name:vo": "Liberän",
          "name:wo": "Libeeria",
          "name:yi": "ליבעריע",
          "name:yo": "Làìbéríà",
          "name:zh": "利比里亚 / 賴比瑞亞",
          "name:zu": "ILiberia",
          "boundary": "administrative",
          "name:ace": "Liberia",
          "name:als": "Liberia",
          "name:ang": "Liberia",
          "name:arz": "ليبيريا",
          "name:ast": "Liberia",
          "name:bar": "Liberia",
          "name:bcl": "Libirya",
          "name:bjn": "Liberia",
          "name:bpy": "লাইবেরিয়া",
          "name:bxr": "Либери",
          "name:ceb": "Liberya",
          "name:ckb": "لیبێریا",
          "name:crh": "Liberiya",
          "name:csb": "Liberiô",
          "name:diq": "Liberya",
          "name:dsb": "Liberia",
          "name:ext": "Libéria",
          "name:frp": "Libèria",
          "name:gag": "Liberiya",
          "name:hif": "Liberia",
          "name:hsb": "Liberija",
          "name:ilo": "Liberia",
          "name:jbo": "liber",
          "name:krc": "Либерия",
          "name:lij": "Libeïa",
          "name:lmo": "Liberia",
          "name:min": "Liberia",
          "name:mrj": "Либери",
          "name:nah": "Liberia",
          "name:nan": "Liberia",
          "name:nds": "Liberia",
          "name:new": "लाइबेरिया",
          "name:nov": "Liberia",
          "name:nrm": "Libérie",
          "name:nso": "Liberia",
          "name:pam": "Liberia",
          "name:pap": "Liberia",
          "name:pms": "Liberia",
          "name:pnb": "لائیبیریا",
          "name:sah": "Либерия",
          "name:scn": "Libberia",
          "name:sco": "Liberie",
          "name:smn": "Liberia",
          "name:sms": "Liberia",
          "name:stq": "Liberia",
          "name:szl": "Liberyjo",
          "name:tzl": "Liberia",
          "name:vec": "Liberia",
          "name:vro": "Libeeriä",
          "name:war": "Liberia",
          "name:xal": "Либермудин Орн",
          "name:yue": "利比利亞",
          "timezone": "Africa/Monrovia",
          "way_area": "8.87279",
          "wikidata": "Q1014",
          "ISO3166-1": "LR",
          "wikipedia": "en:Liberia",
          "admin_level": "2",
          "name:nds-nl": "Liberië",
          "name:bat-smg": "Liberėjė",
          "name:zh-Hans": "利比里亚",
          "name:zh-Hant": "賴比瑞亞",
          "official_name": "Republic of Liberia",
          "name:be-tarask": "Лібэрыя",
          "ISO3166-1:alpha2": "LR",
          "ISO3166-1:alpha3": "LBR",
          "default_language": "en",
          "official_name:ar": "جمهورية ليبيريا",
          "official_name:cs": "Liberijská republika",
          "official_name:de": "Republik Liberia",
          "official_name:eo": "Liberia Respubliko",
          "official_name:fa": "جمهوری لیبریا",
          "official_name:gn": "Tavakuairetã Livéria",
          "official_name:pt": "República da Libéria",
          "ISO3166-1:numeric": "430"
        }
      },
      "geometry": {
        "type": "Polygon",
        "coordinates": [
          [
            [
              -11.3960474,
              7.001128
            ],
            [
              -11.39600995099571,
              7
            ],
            [
              -11,
              7
            ],
            [
              -11,
              7.4546841183418655
            ],
            [
              -11.0001995,
              7.4545447
            ],
            [
              -11.0007391,
              7.4544381
            ],
            [
              -11.0034499,
              7.4550951
            ],
            [
              -11.0071115,
              7.4517185
            ],
            [
              -11.0082011,
              7.4506931
            ],
            [
              -11.0102935,
              7.448019
            ],
            [
              -11.0099554,
              7.4465563
            ],
            [
              -11.0093043,
              7.4450241
            ],
            [
              -11.0093089,
              7.444034
            ],
            [
              -11.009502,
              7.4428386
            ],
            [
              -11.0104635,
              7.4420375
            ],
            [
              -11.0147993,
              7.4423073
            ],
            [
              -11.0194722,
              7.4392311
            ],
            [
              -11.0238182,
              7.4387195
            ],
            [
              -11.0257388,
              7.4382223
            ],
            [
              -11.0269718,
              7.4371725
            ],
            [
              -11.0272449,
              7.4360788
            ],
            [
              -11.0262795,
              7.4348556
            ],
            [
              -11.0260933,
              7.4337707
            ],
            [
              -11.0264357,
              7.4330024
            ],
            [
              -11.0269667,
              7.432409
            ],
            [
              -11.0276372,
              7.4320828
            ],
            [
              -11.0279377,
              7.4321684
            ],
            [
              -11.0283672,
              7.4320249
            ],
            [
              -11.0318402,
              7.4360422
            ],
            [
              -11.0327843,
              7.4364145
            ],
            [
              -11.0336641,
              7.4357443
            ],
            [
              -11.0341039,
              7.4343506
            ],
            [
              -11.0334817,
              7.4328612
            ],
            [
              -11.0328513,
              7.4299575
            ],
            [
              -11.0330309,
              7.4283693
            ],
            [
              -11.0328509,
              7.4265914
            ],
            [
              -11.0338108,
              7.4257653
            ],
            [
              -11.0353858,
              7.4247728
            ],
            [
              -11.0375622,
              7.4241279
            ],
            [
              -11.0388409,
              7.4240844
            ],
            [
              -11.0411318,
              7.424982
            ],
            [
              -11.0419224,
              7.4243211
            ],
            [
              -11.0435846,
              7.4194166
            ],
            [
              -11.0450353,
              7.4176783
            ],
            [
              -11.0475472,
              7.4152113
            ],
            [
              -11.0504283,
              7.4127635
            ],
            [
              -11.0496543,
              7.4123523
            ],
            [
              -11.0515002,
              7.4115771
            ],
            [
              -11.0539759,
              7.4097466
            ],
            [
              -11.0555612,
              7.4082176
            ],
            [
              -11.0566687,
              7.4064086
            ],
            [
              -11.0578414,
              7.4051811
            ],
            [
              -11.0595044,
              7.4038607
            ],
            [
              -11.0606452,
              7.4034102
            ],
            [
              -11.0677573,
              7.3988554
            ],
            [
              -11.070233,
              7.3976925
            ],
            [
              -11.0742418,
              7.3962785
            ],
            [
              -11.0766988,
              7.3946035
            ],
            [
              -11.07848,
              7.3930197
            ],
            [
              -11.0815819,
              7.3915274
            ],
            [
              -11.0827797,
              7.3913751
            ],
            [
              -11.0830254,
              7.3910705
            ],
            [
              -11.0839774,
              7.3906746
            ],
            [
              -11.0845609,
              7.3907355
            ],
            [
              -11.0850216,
              7.3912532
            ],
            [
              -11.0856973,
              7.3915883
            ],
            [
              -11.0897819,
              7.3922279
            ],
            [
              -11.0920991,
              7.3923838
            ],
            [
              -11.0965216,
              7.3890488
            ],
            [
              -11.097274,
              7.3890032
            ],
            [
              -11.0992703,
              7.3902823
            ],
            [
              -11.1007138,
              7.390861
            ],
            [
              -11.1021111,
              7.390724
            ],
            [
              -11.1030632,
              7.3896884
            ],
            [
              -11.1033242,
              7.3883788
            ],
            [
              -11.102449,
              7.3868103
            ],
            [
              -11.102449,
              7.386262
            ],
            [
              -11.1052591,
              7.3819372
            ],
            [
              -11.1095587,
              7.377262
            ],
            [
              -11.111555,
              7.376668
            ],
            [
              -11.1130906,
              7.3766224
            ],
            [
              -11.1137509,
              7.3759523
            ],
            [
              -11.1140733,
              7.3746274
            ],
            [
              -11.1138737,
              7.3737898
            ],
            [
              -11.1132595,
              7.3730284
            ],
            [
              -11.1139044,
              7.3714902
            ],
            [
              -11.1148411,
              7.3698912
            ],
            [
              -11.116561,
              7.3692973
            ],
            [
              -11.1205228,
              7.3663428
            ],
            [
              -11.1219662,
              7.3661905
            ],
            [
              -11.1242389,
              7.3642107
            ],
            [
              -11.1261723,
              7.3610957
            ],
            [
              -11.1269102,
              7.3589003
            ],
            [
              -11.1280964,
              7.356529
            ],
            [
              -11.1281618,
              7.3553525
            ],
            [
              -11.1277601,
              7.3547412
            ],
            [
              -11.1276014,
              7.3535092
            ],
            [
              -11.1279563,
              7.3523791
            ],
            [
              -11.1293293,
              7.3514898
            ],
            [
              -11.1300578,
              7.3506005
            ],
            [
              -11.1329999,
              7.3483032
            ],
            [
              -11.1363903,
              7.346219
            ],
            [
              -11.1375671,
              7.3456539
            ],
            [
              -11.1385852,
              7.345552
            ],
            [
              -11.1399021,
              7.3445701
            ],
            [
              -11.1403037,
              7.3444404
            ],
            [
              -11.1408361,
              7.3436438
            ],
            [
              -11.1440958,
              7.3405035
            ],
            [
              -11.1448056,
              7.3388916
            ],
            [
              -11.1449364,
              7.3381413
            ],
            [
              -11.1439277,
              7.3360107
            ],
            [
              -11.1434607,
              7.3354364
            ],
            [
              -11.1424052,
              7.3346397
            ],
            [
              -11.1423011,
              7.3317477
            ],
            [
              -11.1419539,
              7.3314488
            ],
            [
              -11.1418622,
              7.3311044
            ],
            [
              -11.1416853,
              7.3311044
            ],
            [
              -11.1415347,
              7.3314163
            ],
            [
              -11.1411875,
              7.3312409
            ],
            [
              -11.1424125,
              7.3304547
            ],
            [
              -11.1430676,
              7.3291227
            ],
            [
              -11.1433755,
              7.3275114
            ],
            [
              -11.1433886,
              7.327141
            ],
            [
              -11.1431789,
              7.3268032
            ],
            [
              -11.142157,
              7.3261144
            ],
            [
              -11.1423142,
              7.3253802
            ],
            [
              -11.1417967,
              7.3252308
            ],
            [
              -11.1421635,
              7.3245031
            ],
            [
              -11.1421832,
              7.3241912
            ],
            [
              -11.1419277,
              7.3236844
            ],
            [
              -11.1420325,
              7.3234895
            ],
            [
              -11.1427264,
              7.3230869
            ],
            [
              -11.1435068,
              7.3219062
            ],
            [
              -11.1458126,
              7.3209877
            ],
            [
              -11.145983,
              7.3205654
            ],
            [
              -11.1462646,
              7.3203575
            ],
            [
              -11.147339,
              7.3201885
            ],
            [
              -11.1480989,
              7.3197662
            ],
            [
              -11.1498517,
              7.3176856
            ],
            [
              -11.1506669,
              7.3163751
            ],
            [
              -11.1508496,
              7.3150369
            ],
            [
              -11.1513837,
              7.3140331
            ],
            [
              -11.1525924,
              7.3126112
            ],
            [
              -11.1557267,
              7.3125694
            ],
            [
              -11.1565981,
              7.3120675
            ],
            [
              -11.1569916,
              7.3111753
            ],
            [
              -11.1569213,
              7.3102552
            ],
            [
              -11.1592545,
              7.3070488
            ],
            [
              -11.1601821,
              7.3064354
            ],
            [
              -11.1613436,
              7.3059403
            ],
            [
              -11.1636558,
              7.3059338
            ],
            [
              -11.1645649,
              7.3060253
            ],
            [
              -11.1666532,
              7.3067571
            ],
            [
              -11.1705136,
              7.3059011
            ],
            [
              -11.1720156,
              7.3049733
            ],
            [
              -11.1721869,
              7.3044048
            ],
            [
              -11.1709286,
              7.3035031
            ],
            [
              -11.1708825,
              7.3029346
            ],
            [
              -11.1712251,
              7.3025425
            ],
            [
              -11.1713964,
              7.3020329
            ],
            [
              -11.1712185,
              7.3010854
            ],
            [
              -11.1721276,
              7.2984913
            ],
            [
              -11.1723779,
              7.2967597
            ],
            [
              -11.1728852,
              7.2956227
            ],
            [
              -11.1734781,
              7.2949105
            ],
            [
              -11.1756454,
              7.2946687
            ],
            [
              -11.1778984,
              7.2938258
            ],
            [
              -11.178656,
              7.2928456
            ],
            [
              -11.1788405,
              7.2917543
            ],
            [
              -11.179855,
              7.2904801
            ],
            [
              -11.1798879,
              7.2894673
            ],
            [
              -11.1793609,
              7.2886048
            ],
            [
              -11.177714,
              7.2885982
            ],
            [
              -11.1758826,
              7.2872194
            ],
            [
              -11.1753687,
              7.2865007
            ],
            [
              -11.1752568,
              7.2853375
            ],
            [
              -11.1754412,
              7.2836777
            ],
            [
              -11.1770947,
              7.2831027
            ],
            [
              -11.1772792,
              7.2824362
            ],
            [
              -11.1772726,
              7.2809528
            ],
            [
              -11.1778062,
              7.2792016
            ],
            [
              -11.1794136,
              7.2780449
            ],
            [
              -11.1798945,
              7.2774242
            ],
            [
              -11.1808563,
              7.277104
            ],
            [
              -11.1823319,
              7.2773784
            ],
            [
              -11.1828787,
              7.2771758
            ],
            [
              -11.1835704,
              7.2764897
            ],
            [
              -11.1836165,
              7.2746077
            ],
            [
              -11.1826918,
              7.2734448
            ],
            [
              -11.1807901,
              7.2723936
            ],
            [
              -11.1798611,
              7.271544
            ],
            [
              -11.1795998,
              7.2701184
            ],
            [
              -11.1794836,
              7.2681313
            ],
            [
              -11.1819412,
              7.2649526
            ],
            [
              -11.1848087,
              7.262821
            ],
            [
              -11.1852997,
              7.2626304
            ],
            [
              -11.1860966,
              7.261861
            ],
            [
              -11.1884376,
              7.2605128
            ],
            [
              -11.1891622,
              7.2602689
            ],
            [
              -11.1903217,
              7.2602003
            ],
            [
              -11.1930399,
              7.2604803
            ],
            [
              -11.196342,
              7.2589115
            ],
            [
              -11.1979444,
              7.2568663
            ],
            [
              -11.1997148,
              7.2553523
            ],
            [
              -11.2019544,
              7.2537618
            ],
            [
              -11.2035309,
              7.2530989
            ],
            [
              -11.2048475,
              7.2532327
            ],
            [
              -11.2092035,
              7.2508621
            ],
            [
              -11.2100048,
              7.2506117
            ],
            [
              -11.2115173,
              7.2504399
            ],
            [
              -11.2141178,
              7.2510187
            ],
            [
              -11.2149296,
              7.2502385
            ],
            [
              -11.2164265,
              7.2492444
            ],
            [
              -11.218177,
              7.2472939
            ],
            [
              -11.221954,
              7.2439027
            ],
            [
              -11.2228864,
              7.2437831
            ],
            [
              -11.2235929,
              7.2443655
            ],
            [
              -11.2243643,
              7.2446325
            ],
            [
              -11.2257457,
              7.2469104
            ],
            [
              -11.2296879,
              7.2495176
            ],
            [
              -11.2343392,
              7.2506078
            ],
            [
              -11.2388171,
              7.2462286
            ],
            [
              -11.2407467,
              7.245043
            ],
            [
              -11.2425048,
              7.2408074
            ],
            [
              -11.2422895,
              7.2401134
            ],
            [
              -11.2443256,
              7.2374172
            ],
            [
              -11.2453009,
              7.237005
            ],
            [
              -11.2484197,
              7.234141
            ],
            [
              -11.2495451,
              7.2322439
            ],
            [
              -11.2506113,
              7.231161
            ],
            [
              -11.2517367,
              7.2304727
            ],
            [
              -11.2539706,
              7.2304727
            ],
            [
              -11.2545544,
              7.2307833
            ],
            [
              -11.2573976,
              7.2310855
            ],
            [
              -11.2582268,
              7.2309092
            ],
            [
              -11.2600292,
              7.2310603
            ],
            [
              -11.2621872,
              7.230587
            ],
            [
              -11.2653044,
              7.2311995
            ],
            [
              -11.2667953,
              7.2317511
            ],
            [
              -11.2677381,
              7.2325505
            ],
            [
              -11.2681651,
              7.2336521
            ],
            [
              -11.2676441,
              7.2365766
            ],
            [
              -11.2683615,
              7.2374994
            ],
            [
              -11.2697238,
              7.2385805
            ],
            [
              -11.2706854,
              7.238986
            ],
            [
              -11.2725525,
              7.2388747
            ],
            [
              -11.2736023,
              7.2382228
            ],
            [
              -11.2741873,
              7.2376345
            ],
            [
              -11.2745238,
              7.2366806
            ],
            [
              -11.2735462,
              7.2346057
            ],
            [
              -11.2737225,
              7.2338187
            ],
            [
              -11.2737545,
              7.2329602
            ],
            [
              -11.2735943,
              7.232356
            ],
            [
              -11.2737866,
              7.2310522
            ],
            [
              -11.2723522,
              7.2311953
            ],
            [
              -11.2718874,
              7.2307819
            ],
            [
              -11.2721759,
              7.2302255
            ],
            [
              -11.2723522,
              7.2292635
            ],
            [
              -11.2730093,
              7.2286196
            ],
            [
              -11.2748283,
              7.2282539
            ],
            [
              -11.2752931,
              7.2277054
            ],
            [
              -11.2762147,
              7.2279995
            ],
            [
              -11.2771923,
              7.2268627
            ],
            [
              -11.2767836,
              7.2264732
            ],
            [
              -11.2761265,
              7.2265527
            ],
            [
              -11.2753652,
              7.2258134
            ],
            [
              -11.2753091,
              7.2251933
            ],
            [
              -11.2760464,
              7.224756
            ],
            [
              -11.2767756,
              7.2232376
            ],
            [
              -11.2774167,
              7.2225301
            ],
            [
              -11.2792918,
              7.2221962
            ],
            [
              -11.2796774,
              7.2218238
            ],
            [
              -11.2798445,
              7.2209946
            ],
            [
              -11.2809851,
              7.2199802
            ],
            [
              -11.2806114,
              7.2183024
            ],
            [
              -11.2806213,
              7.2171222
            ],
            [
              -11.2811817,
              7.2160004
            ],
            [
              -11.2824403,
              7.21522
            ],
            [
              -11.2836005,
              7.2148494
            ],
            [
              -11.284505,
              7.2150445
            ],
            [
              -11.2852523,
              7.2149664
            ],
            [
              -11.2859504,
              7.2146445
            ],
            [
              -11.2865502,
              7.2136788
            ],
            [
              -11.2861274,
              7.2110158
            ],
            [
              -11.2868156,
              7.20449
            ],
            [
              -11.2863142,
              7.2011441
            ],
            [
              -11.2869533,
              7.1997882
            ],
            [
              -11.2878874,
              7.1991249
            ],
            [
              -11.2916335,
              7.1974471
            ],
            [
              -11.2954091,
              7.1959253
            ],
            [
              -11.2958909,
              7.1960228
            ],
            [
              -11.2964612,
              7.1964325
            ],
            [
              -11.2970904,
              7.1975251
            ],
            [
              -11.297582,
              7.1985591
            ],
            [
              -11.2975034,
              7.1989688
            ],
            [
              -11.2970118,
              7.1991932
            ],
            [
              -11.2968053,
              7.1995053
            ],
            [
              -11.2958712,
              7.1996614
            ],
            [
              -11.2918203,
              7.2015733
            ],
            [
              -11.289903,
              7.2032121
            ],
            [
              -11.2897948,
              7.2040705
            ],
            [
              -11.2912795,
              7.2041193
            ],
            [
              -11.2920956,
              7.2044315
            ],
            [
              -11.2925872,
              7.2048607
            ],
            [
              -11.2926954,
              7.2054557
            ],
            [
              -11.2936491,
              7.2060507
            ],
            [
              -11.2951141,
              7.2059142
            ],
            [
              -11.2974247,
              7.2050265
            ],
            [
              -11.2995878,
              7.2045193
            ],
            [
              -11.3010233,
              7.2045973
            ],
            [
              -11.3020262,
              7.2049192
            ],
            [
              -11.3036289,
              7.206636
            ],
            [
              -11.3037174,
              7.2073579
            ],
            [
              -11.3033634,
              7.2077188
            ],
            [
              -11.3027735,
              7.2098746
            ],
            [
              -11.3023999,
              7.2125278
            ],
            [
              -11.3026457,
              7.2132009
            ],
            [
              -11.3035208,
              7.2136886
            ],
            [
              -11.3042582,
              7.2138934
            ],
            [
              -11.3081026,
              7.2120693
            ],
            [
              -11.3104034,
              7.210294
            ],
            [
              -11.3111605,
              7.2088698
            ],
            [
              -11.3113178,
              7.2078358
            ],
            [
              -11.3108655,
              7.2052704
            ],
            [
              -11.3105705,
              7.2040608
            ],
            [
              -11.3092825,
              7.2030073
            ],
            [
              -11.3087516,
              7.201349
            ],
            [
              -11.3095381,
              7.2003442
            ],
            [
              -11.3094988,
              7.1994273
            ],
            [
              -11.3099904,
              7.1976812
            ],
            [
              -11.3120945,
              7.1955351
            ],
            [
              -11.3126353,
              7.1942377
            ],
            [
              -11.3134219,
              7.1932817
            ],
            [
              -11.3114456,
              7.1892334
            ],
            [
              -11.311308,
              7.1886579
            ],
            [
              -11.3117406,
              7.1877799
            ],
            [
              -11.3120159,
              7.1851655
            ],
            [
              -11.3127828,
              7.1835462
            ],
            [
              -11.314238,
              7.1826585
            ],
            [
              -11.3158407,
              7.180288
            ],
            [
              -11.3168141,
              7.1798685
            ],
            [
              -11.3178366,
              7.1788052
            ],
            [
              -11.3189378,
              7.1782881
            ],
            [
              -11.3195769,
              7.1776638
            ],
            [
              -11.3202652,
              7.1760639
            ],
            [
              -11.3209141,
              7.1754884
            ],
            [
              -11.3215827,
              7.1741909
            ],
            [
              -11.3221333,
              7.173508
            ],
            [
              -11.322389,
              7.1729325
            ],
            [
              -11.3207568,
              7.1718301
            ],
            [
              -11.3199604,
              7.1695864
            ],
            [
              -11.32057,
              7.1686303
            ],
            [
              -11.3216024,
              7.1682011
            ],
            [
              -11.3232346,
              7.1671572
            ],
            [
              -11.3239818,
              7.1669329
            ],
            [
              -11.3250535,
              7.1669719
            ],
            [
              -11.3254567,
              7.1667963
            ],
            [
              -11.3256631,
              7.166328
            ],
            [
              -11.3261154,
              7.1658598
            ],
            [
              -11.3281901,
              7.1651086
            ],
            [
              -11.3297337,
              7.1640745
            ],
            [
              -11.3305007,
              7.1631965
            ],
            [
              -11.3309431,
              7.161499
            ],
            [
              -11.3332734,
              7.1597528
            ],
            [
              -11.335053,
              7.1586406
            ],
            [
              -11.3355446,
              7.1581431
            ],
            [
              -11.3352005,
              7.1573138
            ],
            [
              -11.3342566,
              7.1571578
            ],
            [
              -11.3333225,
              7.157548
            ],
            [
              -11.3323983,
              7.1575285
            ],
            [
              -11.3317199,
              7.1573431
            ],
            [
              -11.3306875,
              7.1562797
            ],
            [
              -11.3303335,
              7.1551383
            ],
            [
              -11.3304712,
              7.1543676
            ],
            [
              -11.3299992,
              7.1533628
            ],
            [
              -11.330363,
              7.1528652
            ],
            [
              -11.3302942,
              7.1526311
            ],
            [
              -11.3299894,
              7.152436
            ],
            [
              -11.3299697,
              7.1519092
            ],
            [
              -11.3292716,
              7.1508263
            ],
            [
              -11.3287603,
              7.1504165
            ],
            [
              -11.3280327,
              7.1493434
            ],
            [
              -11.3280032,
              7.1485629
            ],
            [
              -11.330186,
              7.1463971
            ],
            [
              -11.3338141,
              7.1438215
            ],
            [
              -11.3358986,
              7.1435581
            ],
            [
              -11.3393497,
              7.1442898
            ],
            [
              -11.3416603,
              7.1457629
            ],
            [
              -11.3424863,
              7.1463873
            ],
            [
              -11.3428206,
              7.1468946
            ],
            [
              -11.3439709,
              7.1477141
            ],
            [
              -11.3451705,
              7.147919
            ],
            [
              -11.3467436,
              7.1477336
            ],
            [
              -11.348248,
              7.1465824
            ],
            [
              -11.3506372,
              7.1429239
            ],
            [
              -11.3521613,
              7.1418996
            ],
            [
              -11.3524857,
              7.1405142
            ],
            [
              -11.3521514,
              7.1398215
            ],
            [
              -11.3508929,
              7.1396557
            ],
            [
              -11.3497523,
              7.1391386
            ],
            [
              -11.3491329,
              7.1382215
            ],
            [
              -11.3489854,
              7.1376459
            ],
            [
              -11.3492902,
              7.1380166
            ],
            [
              -11.3494279,
              7.1379874
            ],
            [
              -11.349418,
              7.1371191
            ],
            [
              -11.3491624,
              7.1362313
            ],
            [
              -11.3495754,
              7.1354898
            ],
            [
              -11.3493394,
              7.1348361
            ],
            [
              -11.3480513,
              7.1330215
            ],
            [
              -11.3478055,
              7.1329922
            ],
            [
              -11.3470386,
              7.1321239
            ],
            [
              -11.3449148,
              7.1302995
            ],
            [
              -11.3439316,
              7.13028
            ],
            [
              -11.3422896,
              7.1282214
            ],
            [
              -11.341503,
              7.126836
            ],
            [
              -11.3408049,
              7.1245823
            ],
            [
              -11.3402838,
              7.1238993
            ],
            [
              -11.3404018,
              7.123031
            ],
            [
              -11.3407263,
              7.1229432
            ],
            [
              -11.3408738,
              7.1221919
            ],
            [
              -11.3408738,
              7.1216944
            ],
            [
              -11.3405493,
              7.121187
            ],
            [
              -11.3404903,
              7.1206016
            ],
            [
              -11.3394874,
              7.1200748
            ],
            [
              -11.3384255,
              7.1198114
            ],
            [
              -11.3373341,
              7.1184552
            ],
            [
              -11.3373636,
              7.1172747
            ],
            [
              -11.3362427,
              7.1169429
            ],
            [
              -11.3361936,
              7.1167088
            ],
            [
              -11.3357708,
              7.1164844
            ],
            [
              -11.3344827,
              7.1160746
            ],
            [
              -11.333529,
              7.1148941
            ],
            [
              -11.3329686,
              7.113333
            ],
            [
              -11.3330571,
              7.1120159
            ],
            [
              -11.33345,
              7.1113667
            ],
            [
              -11.3347689,
              7.110392
            ],
            [
              -11.3357705,
              7.1088885
            ],
            [
              -11.336675,
              7.1070152
            ],
            [
              -11.3365374,
              7.1053761
            ],
            [
              -11.3349445,
              7.1036198
            ],
            [
              -11.334217,
              7.1012392
            ],
            [
              -11.3330961,
              7.0999122
            ],
            [
              -11.3331747,
              7.0991121
            ],
            [
              -11.333686,
              7.0989365
            ],
            [
              -11.3338237,
              7.0986048
            ],
            [
              -11.3338237,
              7.0978633
            ],
            [
              -11.3336467,
              7.0972583
            ],
            [
              -11.3331354,
              7.0965363
            ],
            [
              -11.3329387,
              7.0949557
            ],
            [
              -11.333627,
              7.0938824
            ],
            [
              -11.3349445,
              7.093336
            ],
            [
              -11.3350822,
              7.0928481
            ],
            [
              -11.3348855,
              7.0922432
            ],
            [
              -11.3340203,
              7.0910528
            ],
            [
              -11.3332337,
              7.0883208
            ],
            [
              -11.3334304,
              7.0860962
            ],
            [
              -11.3326438,
              7.0799491
            ],
            [
              -11.3327224,
              7.0787002
            ],
            [
              -11.333509,
              7.0784074
            ],
            [
              -11.3341973,
              7.0768658
            ],
            [
              -11.3350035,
              7.0767097
            ],
            [
              -11.3372256,
              7.0768072
            ],
            [
              -11.3419255,
              7.0778025
            ],
            [
              -11.3452292,
              7.0795393
            ],
            [
              -11.3470973,
              7.0801052
            ],
            [
              -11.3488868,
              7.0803199
            ],
            [
              -11.353095,
              7.0795198
            ],
            [
              -11.3557104,
              7.0797149
            ],
            [
              -11.3594074,
              7.0802613
            ],
            [
              -11.3654247,
              7.0814322
            ],
            [
              -11.3671159,
              7.080437
            ],
            [
              -11.3709308,
              7.076456
            ],
            [
              -11.3727007,
              7.0742703
            ],
            [
              -11.3745885,
              7.0714211
            ],
            [
              -11.3754144,
              7.0675571
            ],
            [
              -11.375847,
              7.0645322
            ],
            [
              -11.3754144,
              7.0635955
            ],
            [
              -11.3736052,
              7.0630881
            ],
            [
              -11.3731529,
              7.0627954
            ],
            [
              -11.3646578,
              7.0544427
            ],
            [
              -11.3635763,
              7.0530961
            ],
            [
              -11.36336,
              7.0521593
            ],
            [
              -11.3632616,
              7.0491344
            ],
            [
              -11.3637139,
              7.0482757
            ],
            [
              -11.365995,
              7.0478268
            ],
            [
              -11.3670569,
              7.0472023
            ],
            [
              -11.3685318,
              7.045719
            ],
            [
              -11.3688071,
              7.0404106
            ],
            [
              -11.369869,
              7.0338531
            ],
            [
              -11.3699083,
              7.0303596
            ],
            [
              -11.36922,
              7.0223771
            ],
            [
              -11.3699083,
              7.0212061
            ],
            [
              -11.3705965,
              7.0207377
            ],
            [
              -11.3716978,
              7.0195667
            ],
            [
              -11.3737232,
              7.0169709
            ],
            [
              -11.376284,
              7.0127936
            ],
            [
              -11.3790413,
              7.0094578
            ],
            [
              -11.3807721,
              7.0094378
            ],
            [
              -11.3822815,
              7.0103367
            ],
            [
              -11.3841532,
              7.0109359
            ],
            [
              -11.3876953,
              7.009238
            ],
            [
              -11.3928072,
              7.006042
            ],
            [
              -11.3960474,
              7.001128
            ]
          ]
        ]
      }
    },
    {
      "type": "Feature",
      "properties": {
        "osm_id": -192777,
        "boundary": "administrative",
        "admin_level": 2,
        "parents": null,
        "name": "Sierra Leone",
        "local_name": "Sierra Leone",
        "name_en": "Sierra Leone",
        "all_tags": {
          "flag": "http://upload.wikimedia.org/wikipedia/commons/1/17/Flag_of_Sierra_Leone.svg",
          "name": "Sierra Leone",
          "name:af": "Sierra Leone",
          "name:ak": "Sierra Leone",
          "name:am": "ሴየራ ሌዎን",
          "name:an": "Sierra Leone",
          "name:ar": "سيراليون",
          "name:az": "Syerra-Leone",
          "name:ba": "Сьерра-Леоне",
          "name:be": "Сьера-Леонэ",
          "name:bg": "Сиера Леоне",
          "name:bm": "Sera Leon",
          "name:bn": "সিয়েরা লিওন",
          "name:bo": "སི་ར་ལེ་ཨོན།",
          "name:br": "Sierra Leone",
          "name:bs": "Sijera Leone",
          "name:ca": "Sierra Leone",
          "name:ce": "Сьерра-Леоне",
          "name:cs": "Sierra Leone",
          "name:cy": "Sierra Leone",
          "name:da": "Sierra Leone",
          "name:de": "Sierra Leone",
          "name:dv": "ސެރެލިއޯން",
          "name:ee": "Sierra Leone",
          "name:el": "Σιέρα Λεόνε",
          "name:en": "Sierra Leone",
          "name:eo": "Siera-Leono",
          "name:es": "Sierra Leona",
          "name:et": "Sierra Leone",
          "name:eu": "Sierra Leona",
          "name:fa": "سیرالئون",
          "name:ff": "Sarliyon",
          "name:fi": "Sierra Leone",
          "name:fo": "Sierra Leona",
          "name:fr": "Sierra Leone",
          "name:fy": "Sierra Leöane",
          "name:ga": "Siarra Leon",
          "name:gd": "Siarra Leòmhann",
          "name:gl": "Serra Leoa",
          "name:gn": "Siérra Leõ",
          "name:gv": "Sierra Leone",
          "name:he": "סיירה לאונה",
          "name:hi": "सिएरा लियोन",
          "name:hr": "Sijera Leone",
          "name:ht": "Syera Leòn",
          "name:hu": "Sierra Leone",
          "name:hy": "Սիերա Լեոնե",
          "name:id": "Sierra Leone",
          "name:ie": "Sierra Leone",
          "name:io": "Sierra Leone",
          "name:is": "Síerra Leóne",
          "name:it": "Sierra Leone",
          "name:ja": "シエラレオネ",
          "name:jv": "Sierra Leone",
          "name:ka": "სიერა-ლეონე",
          "name:kg": "Siera Leone",
          "name:kk": "Сиерра-Леоне",
          "name:kn": "ಸಿಯೆರ್ರಾ ಲಿಯೋನ್",
          "name:ko": "시에라리온",
          "name:ku": "Sierra Leone",
          "name:kw": "Sierra Leon",
          "name:la": "Mons Leoninus",
          "name:lb": "Sierra Leone",
          "name:li": "Sierra Leone",
          "name:ln": "Sierra Leone",
          "name:lt": "Siera Leonė",
          "name:lv": "Sjerraleone",
          "name:mi": "Te Araone",
          "name:mk": "Сиера Леоне",
          "name:ml": "സീറാ ലിയോൺ",
          "name:mn": "Сьерра-Леоне",
          "name:mr": "सियेरा लिओन",
          "name:ms": "Sierra Leone",
          "name:mt": "Sierra Leone",
          "name:my": "ဆီရာလီယွန်နိုင်ငံ",
          "name:nl": "Sierra Leone",
          "name:nn": "Sierra Leone",
          "name:no": "Sierra Leone",
          "name:nv": "Náshdóítsoh Bitsiijįʼ Daditłʼooʼígíí Bidził",
          "name:oc": "Sierra Leone",
          "name:or": "ସିଏରା ଲିଓନ",
          "name:os": "Сьеррæ-Леоне",
          "name:pa": "ਸਿਏਰਾ ਲਿਓਨ",
          "name:pl": "Sierra Leone",
          "name:ps": "سېرالیون",
          "name:pt": "Serra Leoa",
          "name:qu": "Liyun Urqu",
          "name:ro": "Sierra Leone",
          "name:ru": "Сьерра-Леоне",
          "name:rw": "Siyera Lewone",
          "name:sa": "सियारा-लियोन",
          "name:sc": "Sierra Leone",
          "name:se": "Sierra Leone",
          "name:sg": "Sierä-Leône",
          "name:sh": "Sijera Leone",
          "name:si": "සියෙරා ලියෝන්",
          "name:sk": "Sierra Leone",
          "name:sl": "Sierra Leone",
          "name:sn": "Sierra Leone",
          "name:so": "Sierra Leone",
          "name:sq": "Siera Leone",
          "name:sr": "Сијера Леоне",
          "name:ss": "ISiriya-Liyoni",
          "name:su": "Sierra Leone",
          "name:sv": "Sierra Leone",
          "name:sw": "Sierra Leone",
          "name:ta": "சியேரா லியோனி",
          "name:tg": "Сиерра Леоне",
          "name:th": "ประเทศเซียร์ราลีโอน",
          "name:tk": "Sýerra-Leone",
          "name:tl": "Bulubunduking Leona",
          "name:tr": "Sierra Leone",
          "name:ts": "Siyera Liyona",
          "name:tw": "Sierra Leone",
          "name:ug": "سيېررا لېئونې",
          "name:uk": "Сьєрра-Леоне",
          "name:ur": "سیرالیون",
          "name:uz": "Syerra Leone",
          "name:vi": "Sierra Leone",
          "name:vo": "Sieraleonän",
          "name:wo": "Siraa Leyoon",
          "name:yi": "סיערע לעאנע",
          "name:yo": "Siẹrra Léònè",
          "name:zh": "塞拉利昂 / 獅子山",
          "name:zu": "ISiera Liyoni",
          "boundary": "administrative",
          "name:ace": "Sierra Leone",
          "name:als": "Sierra Leone",
          "name:arz": "سييراليون",
          "name:ast": "Sierra Lleona",
          "name:bcl": "Sierra Leona",
          "name:bjn": "Sierra Leone",
          "name:bpy": "সিয়েরা লিওন",
          "name:bxr": "Сьерра-Леоне",
          "name:ceb": "Sierra Leone",
          "name:ckb": "سیەرالیۆن",
          "name:crh": "Syerra Leone",
          "name:diq": "Sierra Leone",
          "name:ext": "Sierra Leona",
          "name:frp": "Siérra Leone",
          "name:gag": "Syerra Leone",
          "name:hif": "Sierra Leone",
          "name:hsb": "Sierra Leone",
          "name:ilo": "Sierra Leon",
          "name:jbo": "sieras. leon",
          "name:lij": "Sierra Lion",
          "name:lmo": "Sierra Leone",
          "name:mrj": "Сьерра-Леоне",
          "name:nah": "Tepētlah Leona",
          "name:nan": "Sierra Leone",
          "name:nds": "Sierra Leone",
          "name:nov": "Siera Leone",
          "name:nso": "Sierra Leone",
          "name:pam": "Sierra Leone",
          "name:pms": "Sierra Leone",
          "name:pnb": "سیرالیون",
          "name:sah": "Сьерра Леоне",
          "name:scn": "Serra Liuni",
          "name:sco": "Sierra Leone",
          "name:smn": "Sierra Leone",
          "name:sms": "Sierra Leone",
          "name:stq": "Sierra Leone",
          "name:szl": "Sierra Leone",
          "name:tpi": "Sierra Leone",
          "name:tzl": "Sierra Leone",
          "name:vec": "Siera Leon",
          "name:vro": "Sierra Leone",
          "name:war": "Sierra Leone",
          "name:xal": "Сьералегонмудин Орн",
          "name:yue": "塞拉利昂",
          "timezone": "Africa/Freetown",
          "way_area": "6.86017",
          "wikidata": "Q1044",
          "ISO3166-1": "SL",
          "wikipedia": "en:Sierra Leone",
          "admin_level": "2",
          "alt_name:eo": "Sieraleono",
          "name:bat-smg": "Sėira Leuonė",
          "name:zh-Hans": "塞拉利昂",
          "name:zh-Hant": "獅子山",
          "name:be-tarask": "Сьера-Леонэ",
          "ISO3166-1:alpha2": "SL",
          "ISO3166-1:alpha3": "SLE",
          "default_language": "en",
          "official_name:ar": "جمهورية سيراليون",
          "official_name:cs": "Republika Sierra Leone",
          "official_name:fa": "جمهوری سیرالئون",
          "official_name:gn": "Tavakuairetã Siérra Leõ",
          "official_name:pt": "República da Serra Leoa",
          "ISO3166-1:numeric": "694"
        }
      },
      "geometry": {
        "type": "Polygon",
        "coordinates": [
          [
            [
              -12,
              7
            ],
            [
              -11.39600995099571,
              7
            ],
            [
              -11.3960474,
              7.001128
            ],
            [
              -11.3928072,
              7.006042
            ],
            [
              -11.3876953,
              7.009238
            ],
            [
              -11.3841532,
              7.0109359
            ],
            [
              -11.3822815,
              7.0103367
            ],
            [
              -11.3807721,
              7.0094378
            ],
            [
              -11.3790413,
              7.0094578
            ],
            [
              -11.376284,
              7.0127936
            ],
            [
              -11.3737232,
              7.0169709
            ],
            [
              -11.3716978,
              7.0195667
            ],
            [
              -11.3705965,
              7.0207377
            ],
            [
              -11.3699083,
              7.0212061
            ],
            [
              -11.36922,
              7.0223771
            ],
            [
              -11.3699083,
              7.0303596
            ],
            [
              -11.369869,
              7.0338531
            ],
            [
              -11.3688071,
              7.0404106
            ],
            [
              -11.3685318,
              7.045719
            ],
            [
              -11.3670569,
              7.0472023
            ],
            [
              -11.365995,
              7.0478268
            ],
            [
              -11.3637139,
              7.0482757
            ],
            [
              -11.3632616,
              7.0491344
            ],
            [
              -11.36336,
              7.0521593
            ],
            [
              -11.3635763,
              7.0530961
            ],
            [
              -11.3646578,
              7.0544427
            ],
            [
              -11.3731529,
              7.0627954
            ],
            [
              -11.3736052,
              7.0630881
            ],
            [
              -11.3754144,
              7.0635955
            ],
            [
              -11.375847,
              7.0645322
            ],
            [
              -11.3754144,
              7.0675571
            ],
            [
              -11.3745885,
              7.0714211
            ],
            [
              -11.3727007,
              7.0742703
            ],
            [
              -11.3709308,
              7.076456
            ],
            [
              -11.3671159,
              7.080437
            ],
            [
              -11.3654247,
              7.0814322
            ],
            [
              -11.3594074,
              7.0802613
            ],
            [
              -11.3557104,
              7.0797149
            ],
            [
              -11.353095,
              7.0795198
            ],
            [
              -11.3488868,
              7.0803199
            ],
            [
              -11.3470973,
              7.0801052
            ],
            [
              -11.3452292,
              7.0795393
            ],
            [
              -11.3419255,
              7.0778025
            ],
            [
              -11.3372256,
              7.0768072
            ],
            [
              -11.3350035,
              7.0767097
            ],
            [
              -11.3341973,
              7.0768658
            ],
            [
              -11.333509,
              7.0784074
            ],
            [
              -11.3327224,
              7.0787002
            ],
            [
              -11.3326438,
              7.0799491
            ],
            [
              -11.3334304,
              7.0860962
            ],
            [
              -11.3332337,
              7.0883208
            ],
            [
              -11.3340203,
              7.0910528
            ],
            [
              -11.3348855,
              7.0922432
            ],
            [
              -11.3350822,
              7.0928481
            ],
            [
              -11.3349445,
              7.093336
            ],
            [
              -11.333627,
              7.0938824
            ],
            [
              -11.3329387,
              7.0949557
            ],
            [
              -11.3331354,
              7.0965363
            ],
            [
              -11.3336467,
              7.0972583
            ],
            [
              -11.3338237,
              7.0978633
            ],
            [
              -11.3338237,
              7.0986048
            ],
            [
              -11.333686,
              7.0989365
            ],
            [
              -11.3331747,
              7.0991121
            ],
            [
              -11.3330961,
              7.0999122
            ],
            [
              -11.334217,
              7.1012392
            ],
            [
              -11.3349445,
              7.1036198
            ],
            [
              -11.3365374,
              7.1053761
            ],
            [
              -11.336675,
              7.1070152
            ],
            [
              -11.3357705,
              7.1088885
            ],
            [
              -11.3347689,
              7.110392
            ],
            [
              -11.33345,
              7.1113667
            ],
            [
              -11.3330571,
              7.1120159
            ],
            [
              -11.3329686,
              7.113333
            ],
            [
              -11.333529,
              7.1148941
            ],
            [
              -11.3344827,
              7.1160746
            ],
            [
              -11.3357708,
              7.1164844
            ],
            [
              -11.3361936,
              7.1167088
            ],
            [
              -11.3362427,
              7.1169429
            ],
            [
              -11.3373636,
              7.1172747
            ],
            [
              -11.3373341,
              7.1184552
            ],
            [
              -11.3384255,
              7.1198114
            ],
            [
              -11.3394874,
              7.1200748
            ],
            [
              -11.3404903,
              7.1206016
            ],
            [
              -11.3405493,
              7.121187
            ],
            [
              -11.3408738,
              7.1216944
            ],
            [
              -11.3408738,
              7.1221919
            ],
            [
              -11.3407263,
              7.1229432
            ],
            [
              -11.3404018,
              7.123031
            ],
            [
              -11.3402838,
              7.1238993
            ],
            [
              -11.3408049,
              7.1245823
            ],
            [
              -11.341503,
              7.126836
            ],
            [
              -11.3422896,
              7.1282214
            ],
            [
              -11.3439316,
              7.13028
            ],
            [
              -11.3449148,
              7.1302995
            ],
            [
              -11.3470386,
              7.1321239
            ],
            [
              -11.3478055,
              7.1329922
            ],
            [
              -11.3480513,
              7.1330215
            ],
            [
              -11.3493394,
              7.1348361
            ],
            [
              -11.3495754,
              7.1354898
            ],
            [
              -11.3491624,
              7.1362313
            ],
            [
              -11.349418,
              7.1371191
            ],
            [
              -11.3494279,
              7.1379874
            ],
            [
              -11.3492902,
              7.1380166
            ],
            [
              -11.3489854,
              7.1376459
            ],
            [
              -11.3491329,
              7.1382215
            ],
            [
              -11.3497523,
              7.1391386
            ],
            [
              -11.3508929,
              7.1396557
            ],
            [
              -11.3521514,
              7.1398215
            ],
            [
              -11.3524857,
              7.1405142
            ],
            [
              -11.3521613,
              7.1418996
            ],
            [
              -11.3506372,
              7.1429239
            ],
            [
              -11.348248,
              7.1465824
            ],
            [
              -11.3467436,
              7.1477336
            ],
            [
              -11.3451705,
              7.147919
            ],
            [
              -11.3439709,
              7.1477141
            ],
            [
              -11.3428206,
              7.1468946
            ],
            [
              -11.3424863,
              7.1463873
            ],
            [
              -11.3416603,
              7.1457629
            ],
            [
              -11.3393497,
              7.1442898
            ],
            [
              -11.3358986,
              7.1435581
            ],
            [
              -11.3338141,
              7.1438215
            ],
            [
              -11.330186,
              7.1463971
            ],
            [
              -11.3280032,
              7.1485629
            ],
            [
              -11.3280327,
              7.1493434
            ],
            [
              -11.3287603,
              7.1504165
            ],
            [
              -11.3292716,
              7.1508263
            ],
            [
              -11.3299697,
              7.1519092
            ],
            [
              -11.3299894,
              7.152436
            ],
            [
              -11.3302942,
              7.1526311
            ],
            [
              -11.330363,
              7.1528652
            ],
            [
              -11.3299992,
              7.1533628
            ],
            [
              -11.3304712,
              7.1543676
            ],
            [
              -11.3303335,
              7.1551383
            ],
            [
              -11.3306875,
              7.1562797
            ],
            [
              -11.3317199,
              7.1573431
            ],
            [
              -11.3323983,
              7.1575285
            ],
            [
              -11.3333225,
              7.157548
            ],
            [
              -11.3342566,
              7.1571578
            ],
            [
              -11.3352005,
              7.1573138
            ],
            [
              -11.3355446,
              7.1581431
            ],
            [
              -11.335053,
              7.1586406
            ],
            [
              -11.3332734,
              7.1597528
            ],
            [
              -11.3309431,
              7.161499
            ],
            [
              -11.3305007,
              7.1631965
            ],
            [
              -11.3297337,
              7.1640745
            ],
            [
              -11.3281901,
              7.1651086
            ],
            [
              -11.3261154,
              7.1658598
            ],
            [
              -11.3256631,
              7.166328
            ],
            [
              -11.3254567,
              7.1667963
            ],
            [
              -11.3250535,
              7.1669719
            ],
            [
              -11.3239818,
              7.1669329
            ],
            [
              -11.3232346,
              7.1671572
            ],
            [
              -11.3216024,
              7.1682011
            ],
            [
              -11.32057,
              7.1686303
            ],
            [
              -11.3199604,
              7.1695864
            ],
            [
              -11.3207568,
              7.1718301
            ],
            [
              -11.322389,
              7.1729325
            ],
            [
              -11.3221333,
              7.173508
            ],
            [
              -11.3215827,
              7.1741909
            ],
            [
              -11.3209141,
              7.1754884
            ],
            [
              -11.3202652,
              7.1760639
            ],
            [
              -11.3195769,
              7.1776638
            ],
            [
              -11.3189378,
              7.1782881
            ],
            [
              -11.3178366,
              7.1788052
            ],
            [
              -11.3168141,
              7.1798685
            ],
            [
              -11.3158407,
              7.180288
            ],
            [
              -11.314238,
              7.1826585
            ],
            [
              -11.3127828,
              7.1835462
            ],
            [
              -11.3120159,
              7.1851655
            ],
            [
              -11.3117406,
              7.1877799
            ],
            [
              -11.311308,
              7.1886579
            ],
            [
              -11.3114456,
              7.1892334
            ],
            [
              -11.3134219,
              7.1932817
            ],
            [
              -11.3126353,
              7.1942377
            ],
            [
              -11.3120945,
              7.1955351
            ],
            [
              -11.3099904,
              7.1976812
            ],
            [
              -11.3094988,
              7.1994273
            ],
            [
              -11.3095381,
              7.2003442
            ],
            [
              -11.3087516,
              7.201349
            ],
            [
              -11.3092825,
              7.2030073
            ],
            [
              -11.3105705,
              7.2040608
            ],
            [
              -11.3108655,
              7.2052704
            ],
            [
              -11.3113178,
              7.2078358
            ],
            [
              -11.3111605,
              7.2088698
            ],
            [
              -11.3104034,
              7.210294
            ],
            [
              -11.3081026,
              7.2120693
            ],
            [
              -11.3042582,
              7.2138934
            ],
            [
              -11.3035208,
              7.2136886
            ],
            [
              -11.3026457,
              7.2132009
            ],
            [
              -11.3023999,
              7.2125278
            ],
            [
              -11.3027735,
              7.2098746
            ],
            [
              -11.3033634,
              7.2077188
            ],
            [
              -11.3037174,
              7.2073579
            ],
            [
              -11.3036289,
              7.206636
            ],
            [
              -11.3020262,
              7.2049192
            ],
            [
              -11.3010233,
              7.2045973
            ],
            [
              -11.2995878,
              7.2045193
            ],
            [
              -11.2974247,
              7.2050265
            ],
            [
              -11.2951141,
              7.2059142
            ],
            [
              -11.2936491,
              7.2060507
            ],
            [
              -11.2926954,
              7.2054557
            ],
            [
              -11.2925872,
              7.2048607
            ],
            [
              -11.2920956,
              7.2044315
            ],
            [
              -11.2912795,
              7.2041193
            ],
            [
              -11.2897948,
              7.2040705
            ],
            [
              -11.289903,
              7.2032121
            ],
            [
              -11.2918203,
              7.2015733
            ],
            [
              -11.2958712,
              7.1996614
            ],
            [
              -11.2968053,
              7.1995053
            ],
            [
              -11.2970118,
              7.1991932
            ],
            [
              -11.2975034,
              7.1989688
            ],
            [
              -11.297582,
              7.1985591
            ],
            [
              -11.2970904,
              7.1975251
            ],
            [
              -11.2964612,
              7.1964325
            ],
            [
              -11.2958909,
              7.1960228
            ],
            [
              -11.2954091,
              7.1959253
            ],
            [
              -11.2916335,
              7.1974471
            ],
            [
              -11.2878874,
              7.1991249
            ],
            [
              -11.2869533,
              7.1997882
            ],
            [
              -11.2863142,
              7.2011441
            ],
            [
              -11.2868156,
              7.20449
            ],
            [
              -11.2861274,
              7.2110158
            ],
            [
              -11.2865502,
              7.2136788
            ],
            [
              -11.2859504,
              7.2146445
            ],
            [
              -11.2852523,
              7.2149664
            ],
            [
              -11.284505,
              7.2150445
            ],
            [
              -11.2836005,
              7.2148494
            ],
            [
              -11.2824403,
              7.21522
            ],
            [
              -11.2811817,
              7.2160004
            ],
            [
              -11.2806213,
              7.2171222
            ],
            [
              -11.2806114,
              7.2183024
            ],
            [
              -11.2809851,
              7.2199802
            ],
            [
              -11.2798445,
              7.2209946
            ],
            [
              -11.2796774,
              7.2218238
            ],
            [
              -11.2792918,
              7.2221962
            ],
            [
              -11.2774167,
              7.2225301
            ],
            [
              -11.2767756,
              7.2232376
            ],
            [
              -11.2760464,
              7.224756
            ],
            [
              -11.2753091,
              7.2251933
            ],
            [
              -11.2753652,
              7.2258134
            ],
            [
              -11.2761265,
              7.2265527
            ],
            [
              -11.2767836,
              7.2264732
            ],
            [
              -11.2771923,
              7.2268627
            ],
            [
              -11.2762147,
              7.2279995
            ],
            [
              -11.2752931,
              7.2277054
            ],
            [
              -11.2748283,
              7.2282539
            ],
            [
              -11.2730093,
              7.2286196
            ],
            [
              -11.2723522,
              7.2292635
            ],
            [
              -11.2721759,
              7.2302255
            ],
            [
              -11.2718874,
              7.2307819
            ],
            [
              -11.2723522,
              7.2311953
            ],
            [
              -11.2737866,
              7.2310522
            ],
            [
              -11.2735943,
              7.232356
            ],
            [
              -11.2737545,
              7.2329602
            ],
            [
              -11.2737225,
              7.2338187
            ],
            [
              -11.2735462,
              7.2346057
            ],
            [
              -11.2745238,
              7.2366806
            ],
            [
              -11.2741873,
              7.2376345
            ],
            [
              -11.2736023,
              7.2382228
            ],
            [
              -11.2725525,
              7.2388747
            ],
            [
              -11.2706854,
              7.238986
            ],
            [
              -11.2697238,
              7.2385805
            ],
            [
              -11.2683615,
              7.2374994
            ],
            [
              -11.2676441,
              7.2365766
            ],
            [
              -11.2681651,
              7.2336521
            ],
            [
              -11.2677381,
              7.2325505
            ],
            [
              -11.2667953,
              7.2317511
            ],
            [
              -11.2653044,
              7.2311995
            ],
            [
              -11.2621872,
              7.230587
            ],
            [
              -11.2600292,
              7.2310603
            ],
            [
              -11.2582268,
              7.2309092
            ],
            [
              -11.2573976,
              7.2310855
            ],
            [
              -11.2545544,
              7.2307833
            ],
            [
              -11.2539706,
              7.2304727
            ],
            [
              -11.2517367,
              7.2304727
            ],
            [
              -11.2506113,
              7.231161
            ],
            [
              -11.2495451,
              7.2322439
            ],
            [
              -11.2484197,
              7.234141
            ],
            [
              -11.2453009,
              7.237005
            ],
            [
              -11.2443256,
              7.2374172
            ],
            [
              -11.2422895,
              7.2401134
            ],
            [
              -11.2425048,
              7.2408074
            ],
            [
              -11.2407467,
              7.245043
            ],
            [
              -11.2388171,
              7.2462286
            ],
            [
              -11.2343392,
              7.2506078
            ],
            [
              -11.2296879,
              7.2495176
            ],
            [
              -11.2257457,
              7.2469104
            ],
            [
              -11.2243643,
              7.2446325
            ],
            [
              -11.2235929,
              7.2443655
            ],
            [
              -11.2228864,
              7.2437831
            ],
            [
              -11.221954,
              7.2439027
            ],
            [
              -11.218177,
              7.2472939
            ],
            [
              -11.2164265,
              7.2492444
            ],
            [
              -11.2149296,
              7.2502385
            ],
            [
              -11.2141178,
              7.2510187
            ],
            [
              -11.2115173,
              7.2504399
            ],
            [
              -11.2100048,
              7.2506117
            ],
            [
              -11.2092035,
              7.2508621
            ],
            [
              -11.2048475,
              7.2532327
            ],
            [
              -11.2035309,
              7.2530989
            ],
            [
              -11.2019544,
              7.2537618
            ],
            [
              -11.1997148,
              7.2553523
            ],
            [
              -11.1979444,
              7.2568663
            ],
            [
              -11.196342,
              7.2589115
            ],
            [
              -11.1930399,
              7.2604803
            ],
            [
              -11.1903217,
              7.2602003
            ],
            [
              -11.1891622,
              7.2602689
            ],
            [
              -11.1884376,
              7.2605128
            ],
            [
              -11.1860966,
              7.261861
            ],
            [
              -11.1852997,
              7.2626304
            ],
            [
              -11.1848087,
              7.262821
            ],
            [
              -11.1819412,
              7.2649526
            ],
            [
              -11.1794836,
              7.2681313
            ],
            [
              -11.1795998,
              7.2701184
            ],
            [
              -11.1798611,
              7.271544
            ],
            [
              -11.1807901,
              7.2723936
            ],
            [
              -11.1826918,
              7.2734448
            ],
            [
              -11.1836165,
              7.2746077
            ],
            [
              -11.1835704,
              7.2764897
            ],
            [
              -11.1828787,
              7.2771758
            ],
            [
              -11.1823319,
              7.2773784
            ],
            [
              -11.1808563,
              7.277104
            ],
            [
              -11.1798945,
              7.2774242
            ],
            [
              -11.1794136,
              7.2780449
            ],
            [
              -11.1778062,
              7.2792016
            ],
            [
              -11.1772726,
              7.2809528
            ],
            [
              -11.1772792,
              7.2824362
            ],
            [
              -11.1770947,
              7.2831027
            ],
            [
              -11.1754412,
              7.2836777
            ],
            [
              -11.1752568,
              7.2853375
            ],
            [
              -11.1753687,
              7.2865007
            ],
            [
              -11.1758826,
              7.2872194
            ],
            [
              -11.177714,
              7.2885982
            ],
            [
              -11.1793609,
              7.2886048
            ],
            [
              -11.1798879,
              7.2894673
            ],
            [
              -11.179855,
              7.2904801
            ],
            [
              -11.1788405,
              7.2917543
            ],
            [
              -11.178656,
              7.2928456
            ],
            [
              -11.1778984,
              7.2938258
            ],
            [
              -11.1756454,
              7.2946687
            ],
            [
              -11.1734781,
              7.2949105
            ],
            [
              -11.1728852,
              7.2956227
            ],
            [
              -11.1723779,
              7.2967597
            ],
            [
              -11.1721276,
              7.2984913
            ],
            [
              -11.1712185,
              7.3010854
            ],
            [
              -11.1713964,
              7.3020329
            ],
            [
              -11.1712251,
              7.3025425
            ],
            [
              -11.1708825,
              7.3029346
            ],
            [
              -11.1709286,
              7.3035031
            ],
            [
              -11.1721869,
              7.3044048
            ],
            [
              -11.1720156,
              7.3049733
            ],
            [
              -11.1705136,
              7.3059011
            ],
            [
              -11.1666532,
              7.3067571
            ],
            [
              -11.1645649,
              7.3060253
            ],
            [
              -11.1636558,
              7.3059338
            ],
            [
              -11.1613436,
              7.3059403
            ],
            [
              -11.1601821,
              7.3064354
            ],
            [
              -11.1592545,
              7.3070488
            ],
            [
              -11.1569213,
              7.3102552
            ],
            [
              -11.1569916,
              7.3111753
            ],
            [
              -11.1565981,
              7.3120675
            ],
            [
              -11.1557267,
              7.3125694
            ],
            [
              -11.1525924,
              7.3126112
            ],
            [
              -11.1513837,
              7.3140331
            ],
            [
              -11.1508496,
              7.3150369
            ],
            [
              -11.1506669,
              7.3163751
            ],
            [
              -11.1498517,
              7.3176856
            ],
            [
              -11.1480989,
              7.3197662
            ],
            [
              -11.147339,
              7.3201885
            ],
            [
              -11.1462646,
              7.3203575
            ],
            [
              -11.145983,
              7.3205654
            ],
            [
              -11.1458126,
              7.3209877
            ],
            [
              -11.1435068,
              7.3219062
            ],
            [
              -11.1427264,
              7.3230869
            ],
            [
              -11.1420325,
              7.3234895
            ],
            [
              -11.1419277,
              7.3236844
            ],
            [
              -11.1421832,
              7.3241912
            ],
            [
              -11.1421635,
              7.3245031
            ],
            [
              -11.1417967,
              7.3252308
            ],
            [
              -11.1423142,
              7.3253802
            ],
            [
              -11.142157,
              7.3261144
            ],
            [
              -11.1431789,
              7.3268032
            ],
            [
              -11.1433886,
              7.327141
            ],
            [
              -11.1433755,
              7.3275114
            ],
            [
              -11.1430676,
              7.3291227
            ],
            [
              -11.1424125,
              7.3304547
            ],
            [
              -11.1411875,
              7.3312409
            ],
            [
              -11.1415347,
              7.3314163
            ],
            [
              -11.1416853,
              7.3311044
            ],
            [
              -11.1418622,
              7.3311044
            ],
            [
              -11.1419539,
              7.3314488
            ],
            [
              -11.1423011,
              7.3317477
            ],
            [
              -11.1424052,
              7.3346397
            ],
            [
              -11.1434607,
              7.3354364
            ],
            [
              -11.1439277,
              7.3360107
            ],
            [
              -11.1449364,
              7.3381413
            ],
            [
              -11.1448056,
              7.3388916
            ],
            [
              -11.1440958,
              7.3405035
            ],
            [
              -11.1408361,
              7.3436438
            ],
            [
              -11.1403037,
              7.3444404
            ],
            [
              -11.1399021,
              7.3445701
            ],
            [
              -11.1385852,
              7.345552
            ],
            [
              -11.1375671,
              7.3456539
            ],
            [
              -11.1363903,
              7.346219
            ],
            [
              -11.1329999,
              7.3483032
            ],
            [
              -11.1300578,
              7.3506005
            ],
            [
              -11.1293293,
              7.3514898
            ],
            [
              -11.1279563,
              7.3523791
            ],
            [
              -11.1276014,
              7.3535092
            ],
            [
              -11.1277601,
              7.3547412
            ],
            [
              -11.1281618,
              7.3553525
            ],
            [
              -11.1280964,
              7.356529
            ],
            [
              -11.1269102,
              7.3589003
            ],
            [
              -11.1261723,
              7.3610957
            ],
            [
              -11.1242389,
              7.3642107
            ],
            [
              -11.1219662,
              7.3661905
            ],
            [
              -11.1205228,
              7.3663428
            ],
            [
              -11.116561,
              7.3692973
            ],
            [
              -11.1148411,
              7.3698912
            ],
            [
              -11.1139044,
              7.3714902
            ],
            [
              -11.1132595,
              7.3730284
            ],
            [
              -11.1138737,
              7.3737898
            ],
            [
              -11.1140733,
              7.3746274
            ],
            [
              -11.1137509,
              7.3759523
            ],
            [
              -11.1130906,
              7.3766224
            ],
            [
              -11.111555,
              7.376668
            ],
            [
              -11.1095587,
              7.377262
            ],
            [
              -11.1052591,
              7.3819372
            ],
            [
              -11.102449,
              7.386262
            ],
            [
              -11.102449,
              7.3868103
            ],
            [
              -11.1033242,
              7.3883788
            ],
            [
              -11.1030632,
              7.3896884
            ],
            [
              -11.1021111,
              7.390724
            ],
            [
              -11.1007138,
              7.390861
            ],
            [
              -11.0992703,
              7.3902823
            ],
            [
              -11.097274,
              7.3890032
            ],
            [
              -11.0965216,
              7.3890488
            ],
            [
              -11.0920991,
              7.3923838
            ],
            [
              -11.0897819,
              7.3922279
            ],
            [
              -11.0856973,
              7.3915883
            ],
            [
              -11.0850216,
              7.3912532
            ],
            [
              -11.0845609,
              7.3907355
            ],
            [
              -11.0839774,
              7.3906746
            ],
            [
              -11.0830254,
              7.3910705
            ],
            [
              -11.0827797,
              7.3913751
            ],
            [
              -11.0815819,
              7.3915274
            ],
            [
              -11.07848,
              7.3930197
            ],
            [
              -11.0766988,
              7.3946035
            ],
            [
              -11.0742418,
              7.3962785
            ],
            [
              -11.070233,
              7.3976925
            ],
            [
              -11.0677573,
              7.3988554
            ],
            [
              -11.0606452,
              7.4034102
            ],
            [
              -11.0595044,
              7.4038607
            ],
            [
              -11.0578414,
              7.4051811
            ],
            [
              -11.0566687,
              7.4064086
            ],
            [
              -11.0555612,
              7.4082176
            ],
            [
              -11.0539759,
              7.4097466
            ],
            [
              -11.0515002,
              7.4115771
            ],
            [
              -11.0496543,
              7.4123523
            ],
            [
              -11.0504283,
              7.4127635
            ],
            [
              -11.0475472,
              7.4152113
            ],
            [
              -11.0450353,
              7.4176783
            ],
            [
              -11.0435846,
              7.4194166
            ],
            [
              -11.0419224,
              7.4243211
            ],
            [
              -11.0411318,
              7.424982
            ],
            [
              -11.0388409,
              7.4240844
            ],
            [
              -11.0375622,
              7.4241279
            ],
            [
              -11.0353858,
              7.4247728
            ],
            [
              -11.0338108,
              7.4257653
            ],
            [
              -11.0328509,
              7.4265914
            ],
            [
              -11.0330309,
              7.4283693
            ],
            [
              -11.0328513,
              7.4299575
            ],
            [
              -11.0334817,
              7.4328612
            ],
            [
              -11.0341039,
              7.4343506
            ],
            [
              -11.0336641,
              7.4357443
            ],
            [
              -11.0327843,
              7.4364145
            ],
            [
              -11.0318402,
              7.4360422
            ],
            [
              -11.0283672,
              7.4320249
            ],
            [
              -11.0279377,
              7.4321684
            ],
            [
              -11.0276372,
              7.4320828
            ],
            [
              -11.0269667,
              7.432409
            ],
            [
              -11.0264357,
              7.4330024
            ],
            [
              -11.0260933,
              7.4337707
            ],
            [
              -11.0262795,
              7.4348556
            ],
            [
              -11.0272449,
              7.4360788
            ],
            [
              -11.0269718,
              7.4371725
            ],
            [
              -11.0257388,
              7.4382223
            ],
            [
              -11.0238182,
              7.4387195
            ],
            [
              -11.0194722,
              7.4392311
            ],
            [
              -11.0147993,
              7.4423073
            ],
            [
              -11.0104635,
              7.4420375
            ],
            [
              -11.009502,
              7.4428386
            ],
            [
              -11.0093089,
              7.444034
            ],
            [
              -11.0093043,
              7.4450241
            ],
            [
              -11.0099554,
              7.4465563
            ],
            [
              -11.0102935,
              7.448019
            ],
            [
              -11.0082011,
              7.4506931
            ],
            [
              -11.0071115,
              7.4517185
            ],
            [
              -11.0034499,
              7.4550951
            ],
            [
              -11.0007391,
              7.4544381
            ],
            [
              -11.0001995,
              7.4545447
            ],
            [
              -11,
              7.4546841183418655
            ],
            [
              -11,
              8
            ],
            [
              -12,
              8
            ],
            [
              -12,
              7
            ]
          ]
        ]
      }
    }
  ]
}