{
  "type": "FeatureCollection",
  "features": [
    {
      "type": "Feature",
      "properties": {
        "osm_id": -307756,
        "boundary": "administrative",
        "admin_level": 2,
        "parents": null,
        "name": "South Korea",
        "local_name": "대한민국",
        "name_en": "South Korea",
        "all_tags": {
          "flag": "http://upload.wikimedia.org/wikipedia/commons/0/09/Flag_of_South_Korea.svg",
          "name": "대한민국",
          "name:ab": "Аладатәи Кореиа",
          "name:af": "Suid-Korea",
          "name:ak": "Anaafo Koria",
          "name:am": "ደቡብ ኮርያ",
          "name:an": "Corea d'o Sur",
          "name:ar": "كوريا الجنوبية",
          "name:as": "দক্ষিণ কোৰিয়া",
          "name:az": "Cənubi Koreya",
          "name:ba": "Көньяҡ Корея",
          "name:be": "Паўднёвая Карэя",
          "name:bg": "Южна Корея",
          "name:bi": "Saot Koria",
          "name:bn": "দক্ষিণ কোরিয়া",
          "name:bo": "ལྷོ་ཀོ་རི་ཡ།",
          "name:br": "Korea ar Su",
          "name:bs": "Južna Koreja",
          "name:ca": "Corea del Sud",
          "name:ce": "Къилба Корей",
          "name:cs": "Jižní Korea",
          "name:cy": "De Corea",
          "name:da": "Sydkorea",
          "name:de": "Südkorea",
          "name:dv": "ދެކުނު ކޮރެއާ",
          "name:dz": "ལྷོ་ཀོ་རི་ཡ་",
          "name:ee": "South Korea",
          "name:el": "Νότια Κορέα",
          "name:en": "South Korea",
          "name:eo": "Sud-Koreio",
          "name:es": "Corea del Sur",
          "name:et": "Lõuna-Korea",
          "name:eu": "Hego Korea",
          "name:fa": "کره جنوبی",
          "name:fi": "Etelä-Korea",
          "name:fo": "Suðurkorea",
          "name:fr": "Corée du Sud",
          "name:fy": "Súd-Korea",
          "name:ga": "An Chóiré Theas",
          "name:gd": "Coirea a Deas",
          "name:gl": "Corea do Sur",
          "name:gn": "Yvykorea",
          "name:gu": "દક્ષિણ કોરિયા",
          "name:gv": "Yn Chorea Yiass",
          "name:he": "קוריאה הדרומית",
          "name:hi": "दक्षिण कोरिया",
          "name:hr": "Južna Koreja",
          "name:ht": "Kore disid",
          "name:hu": "Dél-Korea",
          "name:hy": "Հարավային Կորեա",
          "name:ia": "Corea del Sud",
          "name:id": "Korea Selatan",
          "name:ie": "Sud-Korea",
          "name:io": "Sud-Korea",
          "name:is": "Suður-Kórea",
          "name:it": "Corea del Sud",
          "name:ja": "大韓民国",
          "name:jv": "Koréa Kidul",
          "name:ka": "სამხრეთი კორეა",
          "name:ki": "South Korea",
          "name:kk": "Оңтүстік Корея",
          "name:kl": "Korea Kujalleq",
          "name:km": "កូរ៉េខាងត្បូង",
          "name:kn": "ದಕ್ಷಿಣ ಕೊರಿಯಾ",
          "name:ko": "대한민국",
          "name:ks": "दक्षिण कोरिया",
          "name:ku": "Korêya Başûr",
          "name:kv": "Корея Республика",
          "name:kw": "Korea Dhyhow",
          "name:ky": "Корея Республикасы",
          "name:la": "Corea Meridionalis",
          "name:lb": "Südkorea",
          "name:li": "Zuud-Korea",
          "name:ln": "Kore ya Sidi",
          "name:lo": "ປະເທດເກົາຫຼີໃຕ້",
          "name:lt": "Pietų Korėja",
          "name:lv": "Dienvidkoreja",
          "name:mg": "Korea Atsimo",
          "name:mi": "Kōrea-ki-te-tonga",
          "name:mk": "Република Кореја",
          "name:ml": "ദക്ഷിണ കൊറിയ",
          "name:mn": "Өмнөд Солонгос",
          "name:mr": "दक्षिण कोरिया",
          "name:ms": "Korea Selatan",
          "name:mt": "Korea t'Isfel",
          "name:my": "တောင်ကိုရီးယားနိုင်ငံ",
          "name:na": "Ripubrikin Korea",
          "name:ne": "दक्षिण कोरिया",
          "name:nl": "Zuid-Korea",
          "name:nn": "Sør-Korea",
          "name:no": "Sør-Korea",
          "name:nv": "Kolíya Bikéyah Shádiʼááhjí Siʼánígíí",
          "name:oc": "Corèa del Sud",
          "name:or": "ଦକ୍ଷିଣ କୋରିଆ",
          "name:os": "Хуссар Корей",
          "name:pl": "Korea Południowa",
          "name:ps": "سوېلي کوريا",
          "name:pt": "Coreia do Sul",
          "name:qu": "Urin Kuriya",
          "name:rm": "Corea dal sid",
          "name:ro": "Coreea de Sud",
          "name:ru": "Республика Корея",
          "name:rw": "Koreya y’Amajyepfo",
          "name:sa": "दक्षिण कोरिया",
          "name:sc": "Corea de su Sud",
          "name:se": "Lulli-Korea",
          "name:sg": "Korëe tî Mbongo",
          "name:sh": "Južna Koreja",
          "name:si": "දකුණු කොරියාව",
          "name:sk": "Južná Kórea",
          "name:sl": "Južna Koreja",
          "name:sm": "Kolea i Saute",
          "name:sn": "Korea, South",
          "name:so": "Koonfur Kuuriya",
          "name:sq": "Koreja e Jugut",
          "name:sr": "Јужна Кореја",
          "name:ss": "IKhoriya leseNingizimu",
          "name:su": "Koréa Kidul",
          "name:sv": "Sydkorea",
          "name:sw": "Korea Kusini",
          "name:ta": "தென்கொரியா",
          "name:te": "దక్షిణ కొరియా",
          "name:th": "ประเทศเกาหลีใต้",
          "name:tk": "Günorta Koreýa",
          "name:tl": "Timog Korea",
          "name:tr": "Güney Kore",
          "name:tt": "Көньяк Корея",
          "name:ug": "جەنۇبىي چاۋشيەن",
          "name:uk": "Південна Корея",
          "name:ur": "جنوبی کوریا",
          "name:uz": "Janubiy Koreya",
          "name:vi": "Hàn Quốc",
          "name:vo": "Sulüda-Koreyän",
          "name:wo": "Kore gu Bëj-saalum",
          "name:yi": "דרום קארעע",
          "name:yo": "Kòréà Gúúsù",
          "name:za": "Hanzgoz",
          "name:zh": "韩国 / 南韓",
          "boundary": "administrative",
          "int_name": "대한민국",
          "name:ace": "Korèa Seulatan",
          "name:als": "Südkorea",
          "name:ang": "Sūþcorēa",
          "name:arz": "كوريا الجنوبيه",
          "name:ast": "Corea del Sur",
          "name:bar": "Südkorea",
          "name:bat": "Pėitū Kuoriejė",
          "name:bcl": "Sur nin Korea",
          "name:bpy": "খা কোরিয়া",
          "name:bug": "Korea Selatan",
          "name:bxr": "Урда Солонгос",
          "name:cdo": "Hàng-guók",
          "name:ceb": "Habagatang Korea",
          "name:chr": "ᎤᎦᎾᏭ ᎢᏗᎵ ᎪᎴᎠ",
          "name:ckb": "کۆریای باشوور",
          "name:crh": "Cenübiy Koreya",
          "name:csb": "Repùblika Kòreji",
          "name:diq": "Korya Veroci",
          "name:dsb": "Pódpołdnjowa Koreja",
          "name:ext": "Corea del Sul",
          "name:frp": "Corê du Sud",
          "name:gag": "Üülen Koreya",
          "name:gan": "South Korea",
          "name:hak": "Thai-hòn mìn-koet",
          "name:haw": "Kōlea Hema",
          "name:hif": "South Korea",
          "name:hsb": "Južna Koreja",
          "name:ilo": "Abagatan a Korea",
          "name:jbo": "snanu zei .xanguk",
          "name:kab": "Kurya n Wenẓul",
          "name:kbd": "КӀэрей Республикэ",
          "name:krc": "Корея Республика",
          "name:lad": "Korea del Sud",
          "name:lez": "Республика Корея",
          "name:lij": "Corea do Sud",
          "name:lmo": "Curea del Süd",
          "name:lzh": "大韓民國",
          "name:mhr": "Кечывалвел Корей",
          "name:min": "Korea Salatan",
          "name:nah": "Corea Huitztlāmpa",
          "name:nan": "Lâm-hân",
          "name:nap": "Corea d''o Sud",
          "name:nds": "Süüdkorea",
          "name:new": "दक्षिण कोरिया",
          "name:nov": "Sud Korea",
          "name:nrm": "Corée du Sud",
          "name:pam": "Mauling Korea",
          "name:pap": "Sur Korea",
          "name:pih": "Sowth Koriya",
          "name:pms": "Coréa dël Sud",
          "name:pnb": "دکھنی کوریا",
          "name:rue": "Южна Корея",
          "name:sah": "Соҕуруу Кэриэйэ",
          "name:scn": "Corea dû Sud",
          "name:sco": "Sooth Korea",
          "name:smn": "Maadâ-Korea",
          "name:sms": "Saujj-Korea",
          "name:szl": "Połedniowŏ Koryjŏ",
          "name:tet": "Koreia Súl",
          "name:tpi": "Saut Koria",
          "name:udm": "Республика Корея",
          "name:vec": "Corea del Sud",
          "name:vro": "Lõunõ-Korea",
          "name:war": "Salatan nga Korea",
          "name:wuu": "大韩民国",
          "name:xmf": "ობჟათე კორეა",
          "name:yue": "南韓",
          "timezone": "Asia/Seoul",
          "way_area": "18.4566",
          "wikidata": "Q884",
          "ISO3166-1": "KR",
          "wikipedia": "ko:대한민국",
          "is_capital": "country",
          "admin_level": "2",
          "alt_name:en": "Korea",
          "alt_name:eo": "Sud-Koreujo;Sud-Koreo",
          "alt_name:ru": "Южная Корея",
          "alt_name:vi": "Nam Hàn;Nam Triều Tiên;Đại Hàn",
          "geonames:id": "1835841",
          "name:nds-nl": "Zuud-Korea",
          "alt_name:nan": "Hân-kok",
          "capital_city": "서울",
          "name:ko-Hani": "大韓民國",
          "name:ko-Latn": "Daehan-minguk",
          "name:zh-Hans": "韩国",
          "name:zh-Hant": "南韓",
          "name:roa-tara": "Coree d'u Sud",
          "official_name": "대한민국",
          "short_name:ko": "한국",
          "name:be-tarask": "Рэспубліка Карэя",
          "name:zh_pinyin": "Hánguó",
          "ISO3166-1:alpha2": "KR",
          "ISO3166-1:alpha3": "KOR",
          "alt_name:zh-Hant": "韓國",
          "default_language": "ko",
          "official_name:ab": "Кореиа Ареспублика",
          "official_name:af": "Republiek van Korea",
          "official_name:ar": "جمهورية كوريا",
          "official_name:be": "Рэспубліка Карэя",
          "official_name:bg": "Република Корея",
          "official_name:br": "Republik Korea",
          "official_name:ca": "República de Corea",
          "official_name:el": "Δημοκρατία της Κορέας",
          "official_name:en": "Republic of Korea",
          "official_name:eo": "Korea Respubliko",
          "official_name:et": "Korea Vabariik",
          "official_name:fa": "جمهوری کره",
          "official_name:fi": "Korean tasavalta",
          "official_name:fr": "République de Corée",
          "official_name:hu": "Koreai Köztársaság",
          "official_name:id": "Republik Korea",
          "official_name:it": "Repubblica di Corea",
          "official_name:ku": "Komara Korêyê",
          "official_name:la": "Respublica Coreana",
          "official_name:lb": "Republik Korea",
          "official_name:lt": "Korėjos Respublika",
          "official_name:lv": "Korejas Republika",
          "official_name:mi": "Repupirita o Kōrea",
          "official_name:mn": "Бүгд Найрамдах Солонгос Улс",
          "official_name:os": "Республикæ Корей",
          "official_name:pl": "Republika Korei",
          "official_name:pt": "República da Coreia",
          "official_name:ru": "Республика Корея",
          "official_name:sk": "Kórejská republika",
          "official_name:sv": "Republiken Korea",
          "official_name:ur": "جمہوریہ کوریا",
          "official_name:uz": "Koreya Respublikasi",
          "official_name:vi": "Đại Hàn Dân Quốc",
          "official_name:zh": "大韩民国 / 大韓民國",
          "ISO3166-1:numeric": "410",
          "country_code_fips": "KR",
          "official_name:cdo": "Dâi-hàng Mìng-guók",
          "official_name:nan": "Tāi-hân Bîn-kok",
          "official_name:yue": "大韓民國",
          "short_name:ko-Hani": "韓國",
          "official_name:bat-smg": "Kuorėjės Respoblėka",
          "official_name:zh-Hans": "大韩民国",
          "official_name:zh-Hant": "大韓民國"
        }
      },
      "geometry": {
        "type": "Polygon",
        "coordinates": [
          [
            [
              124.85894332938085,
              34
            ],
            [
              124.8814355,
              33.970648
            ],
            [
              124.9015042,
              33.9413665
            ],
            [
              124.9355174,
              33.9122877
            ],
            [
              124.9742883,
              33.884668
            ],
            [
              125,
              33.87250728567092
            ],
            [
              125,
              34
            ],
            [
              124.85894332938085,
              34
            ]
          ]
        ]
      }
    }
  ]
}