{
  "type": "FeatureCollection",
  "features": [
    {
      "type": "Feature",
      "properties": {
        "osm_id": -365331,
        "boundary": "administrative",
        "admin_level": 2,
        "parents": null,
        "name": "Italy",
        "local_name": "Italia",
        "name_en": "Italy",
        "all_tags": {
          "flag": "http://upload.wikimedia.org/wikipedia/commons/0/03/Flag_of_Italy.svg",
          "name": "Italia",
          "name:ab": "Италиа",
          "name:af": "Italië",
          "name:ak": "Italy",
          "name:am": "ጣልያን",
          "name:an": "Italia",
          "name:ar": "إيطاليا",
          "name:as": "ইটালী",
          "name:ay": "Italiya",
          "name:az": "İtaliya",
          "name:ba": "Италия",
          "name:be": "Італія",
          "name:bg": "Италия",
          "name:bi": "Itali",
          "name:bn": "ইতালি",
          "name:bo": "ཨི་ཏ་ལི།",
          "name:br": "Italia",
          "name:bs": "Italija",
          "name:ca": "Itàlia",
          "name:ce": "Итали",
          "name:co": "Italia",
          "name:cr": "ᐃᑕᓖ",
          "name:cs": "Itálie",
          "name:cu": "Италїꙗ",
          "name:cv": "Итали",
          "name:cy": "Yr Eidal",
          "name:da": "Italien",
          "name:de": "Italien",
          "name:dv": "އިޓަލީވިލާތް",
          "name:dz": "ཨྀཊ་ལི་",
          "name:ee": "Italy",
          "name:el": "Ιταλία",
          "name:en": "Italy",
          "name:eo": "Italio",
          "name:es": "Italia",
          "name:et": "Itaalia",
          "name:eu": "Italia",
          "name:fa": "ایتالیا",
          "name:ff": "Italiya",
          "name:fi": "Italia",
          "name:fo": "Italia",
          "name:fr": "Italie",
          "name:fy": "Itaalje",
          "name:ga": "An Iodáil",
          "name:gd": "An Eadailt",
          "name:gl": "Italia",
          "name:gn": "Itália",
          "name:gu": "ઈટલી",
          "name:gv": "Yn Iddaal",
          "name:he": "איטליה",
          "name:hi": "इटली",
          "name:hr": "Italija",
          "name:ht": "Itali",
          "name:hu": "Olaszország",
          "name:hy": "Իտալիա",
          "name:ia": "Italia",
          "name:id": "Italia",
          "name:ie": "Italia",
          "name:io": "Italia",
          "name:is": "Ítalía",
          "name:it": "Italia",
          "name:ja": "イタリア",
          "name:jv": "Italia",
          "name:ka": "იტალია",
          "name:kg": "Italia",
          "name:ki": "Italia",
          "name:kk": "Италия",
          "name:kl": "Italia",
          "name:km": "អ៊ីតាលី",
          "name:kn": "ಇಟಲಿ",
          "name:ko": "이탈리아",
          "name:ku": "Îtalya",
          "name:kv": "Италия",
          "name:kw": "Itali",
          "name:ky": "Италия",
          "name:la": "Italia",
          "name:lb": "Italien",
          "name:lg": "Yitale",
          "name:li": "Italië",
          "name:ln": "Italya",
          "name:lo": "ອິຕາລີ",
          "name:lt": "Italija",
          "name:lv": "Itālija",
          "name:mg": "Italia",
          "name:mi": "Itari",
          "name:mk": "Италија",
          "name:ml": "ഇറ്റലി",
          "name:mn": "Итали",
          "name:mr": "इटली",
          "name:ms": "Itali",
          "name:mt": "Italja",
          "name:my": "အီတလီနိုင်ငံ",
          "name:na": "Itari",
          "name:ne": "इटाली",
          "name:nl": "Italië",
          "name:nn": "Italia",
          "name:no": "Italia",
          "name:nv": "Ídelii",
          "name:oc": "Itàlia",
          "name:or": "ଇଟାଲୀ",
          "name:os": "Итали",
          "name:pa": "ਇਟਲੀ",
          "name:pl": "Włochy",
          "name:ps": "اېټاليا",
          "name:pt": "Itália",
          "name:qu": "Italya",
          "name:rm": "Italia",
          "name:ro": "Italia",
          "name:ru": "Италия",
          "name:rw": "Ubutaliyani",
          "name:sa": "इटली",
          "name:sc": "Itàlia",
          "name:se": "Itália",
          "name:sg": "Italùii",
          "name:sh": "Italija",
          "name:sk": "Taliansko",
          "name:sl": "Italija",
          "name:sm": "Italia",
          "name:so": "Talyaaniga",
          "name:sq": "Italia",
          "name:sr": "Италија",
          "name:ss": "INtaliyane",
          "name:su": "Italia",
          "name:sv": "Italien",
          "name:sw": "Italia",
          "name:ta": "இத்தாலி",
          "name:te": "ఇటలీ",
          "name:tg": "Итолиё",
          "name:th": "ประเทศอิตาลี",
          "name:tk": "Italiýa",
          "name:tl": "Italya",
          "name:tr": "İtalya",
          "name:tt": "Италия",
          "name:tw": "Italy",
          "name:ty": "’Itāria",
          "name:ug": "ئىتالىيە",
          "name:uk": "Італія",
          "name:ur": "اطالیہ",
          "name:uz": "Italiya",
          "name:ve": "Italy",
          "name:vi": "Ý",
          "name:vo": "Litaliyän",
          "name:wa": "Itåleye",
          "name:wo": "Itaali",
          "name:yi": "איטאליע",
          "name:yo": "Itálíà",
          "name:zh": "意大利 / 義大利",
          "name:zu": "ITaliya",
          "boundary": "administrative",
          "currency": "EUR",
          "int_name": "Italia",
          "name:ace": "Itali",
          "name:als": "Italien",
          "name:ang": "Italia",
          "name:arc": "ܐܝܛܠܝܐ",
          "name:arz": "ايطاليا",
          "name:ast": "Italia",
          "name:bar": "Italien",
          "name:bcl": "Italya",
          "name:bpy": "ইতালি",
          "name:bug": "Italia",
          "name:bxr": "Итаали",
          "name:cdo": "É-dâi-lé",
          "name:ceb": "Italya",
          "name:chr": "ᎢᏔᎵᏱ",
          "name:chy": "Italy",
          "name:ckb": "ئیتالیا",
          "name:crh": "İtaliya",
          "name:csb": "Italskô",
          "name:din": "Italia",
          "name:diq": "İtalya",
          "name:dsb": "Italska",
          "name:eml": "Itâglia",
          "name:ext": "Itália",
          "name:frp": "Étalie",
          "name:frr": "Itaalien",
          "name:fur": "Italie",
          "name:gag": "İtaliya",
          "name:gan": "意大利",
          "name:grc": "Ἰταλία",
          "name:hak": "Yi-thai-li",
          "name:haw": "ʻĪkālia",
          "name:hif": "Italy",
          "name:hsb": "Italska",
          "name:ilo": "Italia",
          "name:jbo": "italias",
          "name:kaa": "İtaliya",
          "name:kab": "Ṭelyan",
          "name:kbd": "Урым",
          "name:koi": "Италья",
          "name:krc": "Италия",
          "name:lad": "Italia",
          "name:lez": "Италия",
          "name:lij": "Italia",
          "name:lld": "Talia",
          "name:lmo": "Itàlia",
          "name:ltg": "Italeja",
          "name:lzh": "義大利",
          "name:mdf": "Италие",
          "name:mhr": "Италий",
          "name:min": "Italia",
          "name:mwl": "Eitália",
          "name:mzn": "ایتالیا",
          "name:nah": "Italia",
          "name:nan": "Italia",
          "name:nap": "Italia",
          "name:nds": "Italien",
          "name:new": "इटाली",
          "name:nov": "Italia",
          "name:nrm": "Italie",
          "name:nso": "Italia",
          "name:pag": "Italia",
          "name:pam": "Italia",
          "name:pap": "Italia",
          "name:pcd": "Italie",
          "name:pdc": "Idali",
          "name:pfl": "Idalje",
          "name:pih": "Italii",
          "name:pms": "Italia",
          "name:pnb": "اٹلی",
          "name:pnt": "Ιταλία",
          "name:rmy": "Italiya",
          "name:rue": "Італія",
          "name:sah": "Италия",
          "name:scn": "Italia",
          "name:sco": "Italy",
          "name:smn": "Italia",
          "name:sms": "Italia",
          "name:srn": "Italiyanikondre",
          "name:stq": "Italien",
          "name:szl": "Italijŏ",
          "name:tet": "Itália",
          "name:tok": "ma Italija",
          "name:tpi": "Itali",
          "name:tzl": "Talia",
          "name:udm": "Италия",
          "name:vec": "Itałia",
          "name:vep": "Italii",
          "name:vls": "Itoalië",
          "name:vro": "Itaalia",
          "name:war": "Italya",
          "name:wuu": "意大利",
          "name:xal": "Италмудин Орн",
          "name:xmf": "იტალია",
          "name:yue": "意大利",
          "name:zea": "Itâlië",
          "timezone": "Europe/Rome",
          "way_area": "49.7321",
          "wikidata": "Q38",
          "ISO3166-1": "IT",
          "wikipedia": "it:Italia",
          "population": "58983000",
          "start_date": "1946-06-10",
          "admin_level": "2",
          "alt_name:eo": "Italujo",
          "alt_name:vi": "I-ta-li-a",
          "name:nds-nl": "Italiën",
          "old_name:vi": "Ý Đại Lợi",
          "name:bat-smg": "Italėjė",
          "name:cbk-zam": "Italia",
          "name:map-bms": "Italia",
          "name:zh-Hans": "意大利",
          "name:zh-Hant": "義大利",
          "name:roa-tara": "Itaglie",
          "official_name": "Repubblica Italiana",
          "name:be-tarask": "Італія",
          "population:date": "2022-04-08",
          "ISO3166-1:alpha2": "IT",
          "ISO3166-1:alpha3": "ITA",
          "default_language": "it",
          "official_name:cs": "Italská republika",
          "official_name:de": "Republik Italien",
          "official_name:el": "Ιταλική Δημοκρατία",
          "official_name:eo": "Itala Respubliko",
          "official_name:zh": "意大利共和国",
          "ISO3166-1:numeric": "380",
          "official_language": "it",
          "official_name:zh-Hans": "意大利共和国",
          "official_name:zh-Hant": "義大利共和國",
          "TMC:cid_58:tabcd_1:Class": "Area",
          "TMC:cid_58:tabcd_1:LCLversion": "8.00",
          "TMC:cid_58:tabcd_1:LocationCode": "11"
        }
      },
      "geometry": {
        "type": "Polygon",
        "coordinates": [
          [
            [
              13,
              35.67662886441752
            ],
            [
              13.0053046,
              35.6790286
            ],
            [
              13.0190436,
              35.6862396
            ],
            [
              13.0320996,
              35.6941166
            ],
            [
              13.0444986,
              35.7026726
            ],
            [
              13.0561876,
              35.7118706
            ],
            [
              13.0671176,
              35.7216716
            ],
            [
              13.0742897,
              35.7289427
            ],
            [
              13.0788964,
              35.7338689
            ],
            [
              13.0873246,
              35.7438646
            ],
            [
              13.0957076,
              35.7552146
            ],
            [
              13.1031646,
              35.7669866
            ],
            [
              13.1078476,
              35.7755116
            ],
            [
              13.1104946,
              35.7807436
            ],
            [
              13.1160076,
              35.7932076
            ],
            [
              13.1205086,
              35.8059396
            ],
            [
              13.1239796,
              35.8188846
            ],
            [
              13.1264046,
              35.8319866
            ],
            [
              13.1274906,
              35.8414156
            ],
            [
              13.1278986,
              35.8466506
            ],
            [
              13.1281916,
              35.8612426
            ],
            [
              13.1274316,
              35.8744786
            ],
            [
              13.1256076,
              35.8876456
            ],
            [
              13.1199516,
              35.9129116
            ],
            [
              13.1157056,
              35.9269336
            ],
            [
              13.1107536,
              35.9395586
            ],
            [
              13.1047956,
              35.9518926
            ],
            [
              13.0978556,
              35.9638836
            ],
            [
              13.0899636,
              35.9754796
            ],
            [
              13.0811526,
              35.9866296
            ],
            [
              13.0714606,
              35.9972876
            ],
            [
              13.06863721624827,
              36
            ],
            [
              13,
              36
            ],
            [
              13,
              35.67662886441752
            ]
          ]
        ]
      }
    },
    {
      "type": "Feature",
      "properties": {
        "osm_id": -365307,
        "boundary": "administrative",
        "admin_level": 2,
        "parents": null,
        "name": "Malta",
        "local_name": "Malta",
        "name_en": "Malta",
        "all_tags": {
          "flag": "http://upload.wikimedia.org/wikipedia/commons/7/73/Flag_of_Malta.svg",
          "name": "Malta",
          "name:ak": "Mɔlta",
          "name:am": "ማልታ",
          "name:ar": "مالطا",
          "name:be": "Мальта",
          "name:bg": "Малта",
          "name:bm": "Malti",
          "name:bn": "মাল্টা",
          "name:bo": "མལ་ཊ།",
          "name:br": "Malta",
          "name:ca": "Malta",
          "name:cs": "Malta",
          "name:de": "Malta",
          "name:dz": "མཱལ་ཊ",
          "name:ee": "Malta nutome",
          "name:el": "Μάλτα",
          "name:en": "Malta",
          "name:eo": "Malto",
          "name:es": "Malta",
          "name:fa": "مالت",
          "name:ff": "Malte",
          "name:fi": "Malta",
          "name:fr": "Malte",
          "name:ga": "Málta",
          "name:gn": "Malta",
          "name:gu": "માલ્ટા",
          "name:gv": "Yn Valta",
          "name:he": "מלטה",
          "name:hi": "माल्टा",
          "name:hr": "Malta",
          "name:hu": "Málta",
          "name:hy": "Մալթա",
          "name:ia": "Malta",
          "name:io": "Malta",
          "name:is": "Malta",
          "name:it": "Malta",
          "name:ja": "マルタ",
          "name:ka": "მალტა",
          "name:km": "ម៉ាល់តា",
          "name:kn": "ಮಾಲ್ಟಾ",
          "name:ko": "몰타",
          "name:ks": "مالٹا",
          "name:ku": "Malta",
          "name:la": "Melita",
          "name:lg": "Malita",
          "name:ln": "Malitɛ",
          "name:lo": "ມັນຕາ",
          "name:lv": "Malta",
          "name:mk": "Малта",
          "name:ml": "മാൾട്ട",
          "name:mn": "Мальта",
          "name:mr": "माल्टा",
          "name:ne": "माल्टा",
          "name:no": "Malta",
          "name:oc": "Malta",
          "name:or": "ମାଲ୍ଟା",
          "name:pl": "Malta",
          "name:pt": "Malta",
          "name:rn": "Malita",
          "name:ru": "Мальта",
          "name:se": "Malta",
          "name:sg": "Mâlta",
          "name:si": "මෝල්ටාව",
          "name:sk": "Malta",
          "name:so": "Maalda",
          "name:sq": "Maltë",
          "name:sr": "Малта",
          "name:sv": "Malta",
          "name:ta": "மால்டா",
          "name:te": "మాల్టా",
          "name:tg": "Малта",
          "name:th": "ประเทศมอลตา",
          "name:ti": "ማልታ",
          "name:to": "Malita",
          "name:uk": "Мальта",
          "name:ur": "مالٹا",
          "name:vi": "Malta",
          "name:vo": "Malteän",
          "name:yo": "Orílẹ́ède Malata",
          "name:zh": "马耳他 / 馬爾他 / 馬耳他",
          "name:zu": "i-Malta",
          "boundary": "administrative",
          "int_name": "Malta",
          "name:chr": "ᎹᎵᏔ",
          "name:hak": "Malta",
          "name:haw": "Malata",
          "name:jbo": "maltas",
          "name:kab": "Malṭ",
          "name:nan": "Malta",
          "name:smn": "Malta",
          "name:sms": "Malta",
          "name:tok": "ma Mata",
          "timezone": "Europe/Malta",
          "way_area": "0.434852",
          "wikidata": "Q233",
          "ISO3166-1": "MT",
          "wikipedia": "en:Malta",
          "name:zh-HK": "馬耳他",
          "name:zh-TW": "馬爾他",
          "ref:nuts:1": "MT0",
          "ref:nuts:2": "MT00",
          "admin_level": "2",
          "driving_side": "left",
          "name:zh-Hans": "马耳他",
          "name:zh-Hant": "馬爾他 / 馬耳他",
          "name:zh_pinyin": "Mǎěrtā",
          "ISO3166-1:alpha2": "MT",
          "ISO3166-1:alpha3": "MLT",
          "default_language": "mt",
          "official_name:ar": "جمهورية مالطة",
          "official_name:be": "Рэспубліка Мальта",
          "official_name:ca": "República de Malta",
          "official_name:cs": "Maltská republika",
          "official_name:el": "Δημοκρατία της Μάλτας",
          "official_name:en": "Republic of Malta",
          "official_name:eo": "Malta Respubliko",
          "official_name:fi": "Maltan tasavalta",
          "official_name:id": "Republik Malta",
          "official_name:ja": "マルタ共和国",
          "official_name:ku": "Komara Maltayê",
          "official_name:lb": "Republik Malta",
          "official_name:lt": "Maltos Respublika",
          "official_name:lv": "Maltas Republika",
          "official_name:no": "Republikken Malta",
          "official_name:ru": "Республика Мальта",
          "official_name:sk": "Maltská republika",
          "official_name:sr": "Република Малта",
          "official_name:sv": "Republiken Malta",
          "official_name:vi": "Cộng hòa Malta",
          "ISO3166-1:numeric": "470"
        }
      },
      "geometry": {
        "type": "Polygon",
        "coordinates": [
          [
            [
              13.943892127346837,
              36
            ],
            [
              13.945626,
              35.9929671
            ],
            [
              13.9467319,
              35.9891941
            ],
            [
              13.9509954,
              35.9764445
            ],
            [
              13.9531257,
              35.9709183
            ],
            [
              13.955975,
              35.9643378
            ],
            [
              13.9600057,
              35.9562309
            ],
            [
              13.9644666,
              35.9482745
            ],
            [
              13.9693492,
              35.9404837
            ],
            [
              13.974644,
              35.9328733
            ],
            [
              13.980341,
              35.9254576
            ],
            [
              13.9864291,
              35.9182508
            ],
            [
              13.9928968,
              35.9112666
            ],
            [
              13.9979011,
              35.906249
            ],
            [
              14,
              35.90431809619196
            ],
            [
              14,
              36
            ],
            [
              13.943892127346837,
              36
            ]
          ]
        ]
      }
    }
  ]
}