{
  "type": "FeatureCollection",
  "features": [
    {
      "type": "Feature",
      "properties": {
        "osm_id": -16239,
        "boundary": "administrative",
        "admin_level": 2,
        "parents": null,
        "name": "Austria",
        "local_name": "Österreich",
        "name_en": "Austria",
        "all_tags": {
          "flag": "http://upload.wikimedia.org/wikipedia/commons/4/41/Flag_of_Austria.svg",
          "name": "Österreich",
          "name:ab": "Австриа",
          "name:af": "Oostenryk",
          "name:ak": "Austria",
          "name:am": "ኦስትሪያ",
          "name:an": "Austria",
          "name:ar": "النمسا",
          "name:as": "অষ্ট্ৰিয়া",
          "name:av": "Авустур",
          "name:ay": "Austriya",
          "name:az": "Avstriya",
          "name:ba": "Австрия",
          "name:be": "Аўстрыя",
          "name:bg": "Австрия",
          "name:bh": "ऑस्ट्रिया",
          "name:bi": "Austria",
          "name:bn": "অস্ট্রিয়া",
          "name:bo": "ཨོ་སི་ཐྲི་ཡ།",
          "name:br": "Aostria",
          "name:bs": "Austrija",
          "name:ca": "Àustria",
          "name:ce": "Австри",
          "name:ch": "Austria",
          "name:co": "Austria",
          "name:cs": "Rakousko",
          "name:cu": "Аѵстрїꙗ",
          "name:cv": "Австри",
          "name:cy": "Awstria",
          "name:da": "Østrig",
          "name:de": "Österreich",
          "name:dv": "އޮސްޓްރިއާ",
          "name:dz": "ཨས་ཊི་ཡ",
          "name:ee": "Austria",
          "name:el": "Αυστρία",
          "name:en": "Austria",
          "name:eo": "Aŭstrio",
          "name:es": "Austria",
          "name:et": "Austria",
          "name:eu": "Austria",
          "name:fa": "اتریش",
          "name:ff": "Otiris",
          "name:fi": "Itävalta",
          "name:fo": "Eysturríki",
          "name:fr": "Autriche",
          "name:fy": "Eastenryk",
          "name:ga": "An Ostair",
          "name:gd": "An Ostair",
          "name:gl": "Austria",
          "name:gn": "Auteria",
          "name:gu": "ઑસ્ટ્રિયા",
          "name:gv": "Yn Austeyr",
          "name:ha": "Austriya",
          "name:he": "אוסטריה",
          "name:hi": "ऑस्ट्रिया",
          "name:hr": "Austrija",
          "name:ht": "Otrich",
          "name:hu": "Ausztria",
          "name:hy": "Ավստրիա",
          "name:ia": "Austria",
          "name:id": "Austria",
          "name:ie": "Austria",
          "name:ig": "Austria",
          "name:io": "Austria",
          "name:is": "Austurríki",
          "name:it": "Austria",
          "name:ja": "オーストリア",
          "name:jv": "Austria",
          "name:ka": "ავსტრია",
          "name:kg": "Autriche",
          "name:kk": "Аустрия Республикасы",
          "name:kl": "Østrigi",
          "name:kn": "ಆಸ್ಟ್ರಿಯ",
          "name:ko": "오스트리아",
          "name:ku": "Awistriya",
          "name:kv": "Австрия",
          "name:kw": "Estrych",
          "name:ky": "Австрия",
          "name:la": "Austria",
          "name:lb": "Éisträich",
          "name:li": "Oosteriek",
          "name:ln": "Otrish",
          "name:lo": "ປະເທດໂອຕະລິດ",
          "name:lt": "Austrija",
          "name:lv": "Austrija",
          "name:mg": "Aotrisy",
          "name:mi": "Ateria",
          "name:mk": "Австрија",
          "name:ml": "ഓസ്ട്രിയ",
          "name:mn": "Австри",
          "name:mr": "ऑस्ट्रिया",
          "name:ms": "Austria",
          "name:mt": "Awstrija",
          "name:my": "သြစတြီးယားနိုင်ငံ",
          "name:na": "Oteriya",
          "name:ne": "अष्ट्रीया",
          "name:nl": "Oostenrijk",
          "name:nn": "Austerrike",
          "name:no": "Østerrike",
          "name:nv": "Óóswiya",
          "name:oc": "Àustria",
          "name:om": "Oostiriyaa",
          "name:or": "ଅଷ୍ଟ୍ରିଆ",
          "name:os": "Австри",
          "name:pa": "ਆਸਟਰੀਆ",
          "name:pi": "आस्ट्रिया",
          "name:pl": "Austria",
          "name:ps": "اتريش",
          "name:pt": "Áustria",
          "name:qu": "Awstiriya",
          "name:rm": "Austria",
          "name:ro": "Austria",
          "name:ru": "Австрия",
          "name:rw": "Ositiriya",
          "name:sa": "आस्ट्रिया",
          "name:sc": "Àustria",
          "name:sd": "آسٽريا",
          "name:se": "Nuortariika",
          "name:sh": "Austrija",
          "name:si": "ඔස්ට්රියාව",
          "name:sk": "Rakúsko",
          "name:sl": "Avstrija",
          "name:sm": "Austilia",
          "name:sn": "Austria",
          "name:so": "Austriya",
          "name:sq": "Austria",
          "name:sr": "Аустрија",
          "name:ss": "IYosithiya",
          "name:st": "Austria",
          "name:su": "Austria",
          "name:sv": "Österrike",
          "name:sw": "Austria",
          "name:ta": "ஆஸ்திரியா",
          "name:te": "ఆస్ట్రియా",
          "name:tg": "Утриш",
          "name:th": "ประเทศออสเตรีย",
          "name:tk": "Awstriýa",
          "name:tl": "Austria",
          "name:tr": "Avusturya",
          "name:ts": "Austria",
          "name:tt": "Австрия",
          "name:tw": "Austria",
          "name:ug": "ئاۋستىرىيە",
          "name:uk": "Австрія",
          "name:ur": "آسٹریا",
          "name:uz": "Avstriya",
          "name:vi": "Áo",
          "name:vo": "Lösterän",
          "name:wa": "Otriche",
          "name:wo": "Otris",
          "name:yi": "עסטרייך",
          "name:yo": "Austríà",
          "name:za": "Audeihleih",
          "name:zh": "奧地利",
          "name:zu": "I-Ostriya",
          "boundary": "administrative",
          "currency": "EUR",
          "int_name": "Austria",
          "name:ace": "Austria",
          "name:als": "Österreich",
          "name:ang": "Ēastrīce",
          "name:arc": "ܢܡܣܐ",
          "name:arz": "النمسا",
          "name:ast": "Austria",
          "name:bar": "Östareich",
          "name:bcl": "Austriya",
          "name:bpy": "অস্ট্রিয়া",
          "name:bug": "Austria",
          "name:bxr": "Австри",
          "name:cdo": "Ó̤-dê-lé",
          "name:ceb": "Awstriya",
          "name:chm": "Авыстри",
          "name:chr": "ᎠᏍᏟᏯ",
          "name:chy": "Austria",
          "name:ckb": "نەمسا",
          "name:crh": "Avstriya",
          "name:csb": "Aùstrëjackô",
          "name:din": "Authtriya",
          "name:diq": "Awıstırya",
          "name:dsb": "Awstriska",
          "name:ext": "Áustria",
          "name:frp": "Ôtrich·e",
          "name:frr": "Ååstenrik",
          "name:fur": "Austrie",
          "name:gag": "Avstriya",
          "name:hak": "O-thi-li",
          "name:haw": "ʻAukekulia",
          "name:hif": "Austria",
          "name:hsb": "Awstriska",
          "name:ilo": "Austria",
          "name:jbo": "ysteraic",
          "name:kaa": "Avstriya",
          "name:kab": "Tutrict",
          "name:kbd": "Аустрэ",
          "name:koi": "Австрия",
          "name:krc": "Австрия",
          "name:ksh": "Österreich",
          "name:lad": "Ostria",
          "name:lez": "Австрия",
          "name:lij": "Austria",
          "name:lld": "Austria",
          "name:lmo": "Austria",
          "name:ltg": "Austreja",
          "name:lzh": "奧地利",
          "name:mdf": "Австрие",
          "name:mhr": "Австрий",
          "name:mrj": "Австри",
          "name:mwl": "Áustria",
          "name:nah": "Austria",
          "name:nan": "Ò-tē-lī",
          "name:nds": "Öösterriek",
          "name:new": "अस्त्रिया",
          "name:nov": "Austria",
          "name:nrm": "Autriche",
          "name:pag": "Austria",
          "name:pam": "Austria",
          "name:pap": "Austria",
          "name:pcd": "Otriche",
          "name:pdc": "Eestereich",
          "name:pfl": "Eestraisch",
          "name:pih": "Ostriya",
          "name:pms": "Àustria",
          "name:pnb": "آسٹریا",
          "name:pnt": "Αυστρία",
          "name:rmy": "Austriya",
          "name:rue": "Австрія",
          "name:sah": "Австрия",
          "name:scn": "Austria",
          "name:sco": "Austrick",
          "name:smn": "Nuorttârijkkâ",
          "name:sms": "Nuõrttväʹldd",
          "name:stq": "Aastriek",
          "name:szl": "Austryjŏ",
          "name:tet": "Áustria",
          "name:tok": "ma Esalasi",
          "name:tpi": "Ostria",
          "name:tzl": "Austria",
          "name:udm": "Австрия",
          "name:vec": "Àustria",
          "name:vep": "Avstrii",
          "name:vls": "Ôostnryk",
          "name:vro": "Austria",
          "name:war": "Austrya",
          "name:wuu": "奥地利",
          "name:xal": "Өстрмүдин Орн",
          "name:xmf": "ავსტრია",
          "name:yue": "奧地利",
          "name:zea": "Oesteriek",
          "timezone": "Europe/Vienna",
          "way_area": "10.0388",
          "wikidata": "Q40",
          "ISO3166-1": "AT",
          "land_area": "administrative",
          "wikipedia": "de:Österreich",
          "ref:at:gkz": "0",
          "admin_level": "2",
          "alt_name:eo": "Aŭstrujo",
          "description": "Österreich ist ein mitteleuropäischer Binnenstaat mit rund 8,8 Millionen Einwohnern.",
          "name:nds-nl": "Oostnriek",
          "driving_side": "right",
          "name:bat-smg": "Austrėjė",
          "name:cbk-zam": "Austria",
          "name:roa-rup": "Austria",
          "name:zh-Hans": "奥地利",
          "name:zh-Hant": "奧地利",
          "name:roa-tara": "Austrie",
          "official_name": "Republik Österreich",
          "name:be-tarask": "Аўстрыя",
          "name:prefix:at": "Republik",
          "ISO3166-1:alpha2": "AT",
          "ISO3166-1:alpha3": "AUT",
          "default_language": "de",
          "official_name:be": "Рэспубліка Аўстрыя",
          "official_name:cs": "Rakouská republika",
          "official_name:el": "Δημοκρατία της Αυστρίας",
          "official_name:eo": "Respubliko Aŭstrio",
          "ISO3166-1:numeric": "040",
          "official_name:ckb": "کۆماری نەمسا",
          "official_name:be-tarask": "Рэспубліка Аўстрыя",
          "TMC:cid_58:tabcd_1:Class": "Area",
          "TMC:cid_58:tabcd_1:LCLversion": "8.00",
          "TMC:cid_58:tabcd_1:LocationCode": "9"
        }
      },
      "geometry": {
        "type": "Polygon",
        "coordinates": [
          [
            [
              13,
              47
            ],
            [
              14,
              47
            ],
            [
              14,
              48
            ],
            [
              13,
              48
            ],
            [
              13,
              47.85589072584137
            ],
            [
              13.0013973,
              47.8543925
            ],
            [
              13.0018317,
              47.8528617
            ],
            [
              13.0030711,
              47.8506786
            ],
            [
              13.0036153,
              47.8493221
            ],
            [
              13.0040983,
              47.8470009
            ],
            [
              13.0041455,
              47.8454516
            ],
            [
              13.0035274,
              47.8431807
            ],
            [
              13.0027151,
              47.8417655
            ],
            [
              13.0003001,
              47.8394881
            ],
            [
              13,
              47.83924367748305
            ],
            [
              13,
              47.71321107539134
            ],
            [
              13.00193,
              47.7132685
            ],
            [
              13.0022998,
              47.7133759
            ],
            [
              13.0028048,
              47.7139755
            ],
            [
              13.0030987,
              47.7146207
            ],
            [
              13.0038995,
              47.7151163
            ],
            [
              13.0045312,
              47.7151269
            ],
            [
              13.0045053,
              47.7153616
            ],
            [
              13.0050411,
              47.7163475
            ],
            [
              13.005597,
              47.7165761
            ],
            [
              13.0059574,
              47.716935
            ],
            [
              13.0047574,
              47.7180526
            ],
            [
              13.0057993,
              47.7184671
            ],
            [
              13.0062727,
              47.7191951
            ],
            [
              13.0069602,
              47.7195196
            ],
            [
              13.0070069,
              47.7199282
            ],
            [
              13.0075399,
              47.7205063
            ],
            [
              13.0079114,
              47.7202768
            ],
            [
              13.0083075,
              47.7221609
            ],
            [
              13.0086562,
              47.7223761
            ],
            [
              13.0094564,
              47.7222831
            ],
            [
              13.0096033,
              47.7226075
            ],
            [
              13.0099116,
              47.7225813
            ],
            [
              13.0105247,
              47.7229239
            ],
            [
              13.011268,
              47.7226445
            ],
            [
              13.0128532,
              47.7223856
            ],
            [
              13.0130685,
              47.7225854
            ],
            [
              13.0139143,
              47.7227759
            ],
            [
              13.0153639,
              47.7226337
            ],
            [
              13.0169985,
              47.7229261
            ],
            [
              13.0183382,
              47.7228752
            ],
            [
              13.0185229,
              47.7227926
            ],
            [
              13.0186873,
              47.7221604
            ],
            [
              13.0193572,
              47.7215141
            ],
            [
              13.0204445,
              47.7213284
            ],
            [
              13.0207416,
              47.7211428
            ],
            [
              13.0212922,
              47.7212247
            ],
            [
              13.0221266,
              47.7207977
            ],
            [
              13.0228437,
              47.7208948
            ],
            [
              13.0231126,
              47.7204185
            ],
            [
              13.0234129,
              47.7203283
            ],
            [
              13.0234029,
              47.7201233
            ],
            [
              13.0238193,
              47.720116
            ],
            [
              13.0243374,
              47.7195227
            ],
            [
              13.0247387,
              47.7193239
            ],
            [
              13.0247922,
              47.7187314
            ],
            [
              13.026508,
              47.717624
            ],
            [
              13.0269543,
              47.7165718
            ],
            [
              13.0287562,
              47.7158505
            ],
            [
              13.0294222,
              47.7160165
            ],
            [
              13.0307971,
              47.7168623
            ],
            [
              13.0334804,
              47.7164978
            ],
            [
              13.0354365,
              47.7159466
            ],
            [
              13.0387925,
              47.7153417
            ],
            [
              13.0399505,
              47.7145412
            ],
            [
              13.0413441,
              47.714154
            ],
            [
              13.0430105,
              47.7139386
            ],
            [
              13.0422717,
              47.7128264
            ],
            [
              13.0460629,
              47.7126266
            ],
            [
              13.0470478,
              47.7120397
            ],
            [
              13.0470531,
              47.7118971
            ],
            [
              13.0494983,
              47.7105316
            ],
            [
              13.0480389,
              47.7091283
            ],
            [
              13.0492328,
              47.7085347
            ],
            [
              13.0506847,
              47.7073714
            ],
            [
              13.052483,
              47.705722
            ],
            [
              13.0527475,
              47.7052787
            ],
            [
              13.0543333,
              47.7046934
            ],
            [
              13.0557029,
              47.7037597
            ],
            [
              13.0567197,
              47.7016695
            ],
            [
              13.0586587,
              47.699999
            ],
            [
              13.0589085,
              47.6994609
            ],
            [
              13.0608569,
              47.6971475
            ],
            [
              13.063128,
              47.6957735
            ],
            [
              13.064533,
              47.6957271
            ],
            [
              13.0651595,
              47.694939
            ],
            [
              13.0662095,
              47.6941503
            ],
            [
              13.0673931,
              47.6935742
            ],
            [
              13.0676791,
              47.6931
            ],
            [
              13.0682921,
              47.6927572
            ],
            [
              13.0691981,
              47.6919276
            ],
            [
              13.0700729,
              47.6919559
            ],
            [
              13.0708387,
              47.6917045
            ],
            [
              13.0724409,
              47.6920385
            ],
            [
              13.0729071,
              47.6919685
            ],
            [
              13.0731229,
              47.6917279
            ],
            [
              13.0739781,
              47.691731
            ],
            [
              13.0742347,
              47.691866
            ],
            [
              13.0755558,
              47.6908139
            ],
            [
              13.0772425,
              47.6891399
            ],
            [
              13.0779927,
              47.6887161
            ],
            [
              13.0784599,
              47.6880809
            ],
            [
              13.0794,
              47.6875203
            ],
            [
              13.0807484,
              47.6870338
            ],
            [
              13.0800325,
              47.6860342
            ],
            [
              13.0795307,
              47.6843738
            ],
            [
              13.0796644,
              47.6843311
            ],
            [
              13.0794631,
              47.6833033
            ],
            [
              13.0795953,
              47.6829685
            ],
            [
              13.0793549,
              47.6829223
            ],
            [
              13.0797148,
              47.6818539
            ],
            [
              13.0787668,
              47.6813822
            ],
            [
              13.0787774,
              47.6804953
            ],
            [
              13.0777162,
              47.6772445
            ],
            [
              13.0780143,
              47.6745933
            ],
            [
              13.0772154,
              47.6736678
            ],
            [
              13.0768889,
              47.6728312
            ],
            [
              13.0771351,
              47.6725298
            ],
            [
              13.077132,
              47.6721651
            ],
            [
              13.0768592,
              47.6716046
            ],
            [
              13.0768746,
              47.670837
            ],
            [
              13.0772036,
              47.6703825
            ],
            [
              13.0773478,
              47.669194
            ],
            [
              13.0776656,
              47.6688075
            ],
            [
              13.0780811,
              47.6668746
            ],
            [
              13.0791597,
              47.6649168
            ],
            [
              13.0800589,
              47.6624823
            ],
            [
              13.0810683,
              47.6620736
            ],
            [
              13.0824316,
              47.6611419
            ],
            [
              13.0844464,
              47.6604735
            ],
            [
              13.0857232,
              47.6580442
            ],
            [
              13.0877785,
              47.65604
            ],
            [
              13.0882338,
              47.6551751
            ],
            [
              13.0887053,
              47.654833
            ],
            [
              13.0890038,
              47.6548287
            ],
            [
              13.0894697,
              47.6542733
            ],
            [
              13.0896788,
              47.653941
            ],
            [
              13.0896654,
              47.6535352
            ],
            [
              13.0889356,
              47.6514129
            ],
            [
              13.0885281,
              47.6511368
            ],
            [
              13.0884905,
              47.6504135
            ],
            [
              13.0882417,
              47.6500671
            ],
            [
              13.0887261,
              47.6494503
            ],
            [
              13.0884972,
              47.649121
            ],
            [
              13.0893299,
              47.6485552
            ],
            [
              13.0891067,
              47.6479223
            ],
            [
              13.0906388,
              47.6468365
            ],
            [
              13.0917861,
              47.6445228
            ],
            [
              13.0920413,
              47.6442845
            ],
            [
              13.0939993,
              47.6434445
            ],
            [
              13.0952364,
              47.6426024
            ],
            [
              13.095954,
              47.6419356
            ],
            [
              13.0962854,
              47.6413175
            ],
            [
              13.0970234,
              47.6407055
            ],
            [
              13.0972042,
              47.6399851
            ],
            [
              13.0974431,
              47.6396857
            ],
            [
              13.0975766,
              47.6388697
            ],
            [
              13.0982486,
              47.6376433
            ],
            [
              13.0982395,
              47.6372601
            ],
            [
              13.0985187,
              47.6368564
            ],
            [
              13.0985501,
              47.6358403
            ],
            [
              13.0989358,
              47.6351717
            ],
            [
              13.0987361,
              47.6347883
            ],
            [
              13.0982778,
              47.6346366
            ],
            [
              13.0979381,
              47.6337191
            ],
            [
              13.0966899,
              47.6317609
            ],
            [
              13.09675,
              47.6303895
            ],
            [
              13.0956656,
              47.6283306
            ],
            [
              13.0958947,
              47.6279971
            ],
            [
              13.095112,
              47.627861
            ],
            [
              13.0943388,
              47.6273197
            ],
            [
              13.0930944,
              47.6270074
            ],
            [
              13.0918555,
              47.6258417
            ],
            [
              13.0914263,
              47.6249645
            ],
            [
              13.0911277,
              47.6247245
            ],
            [
              13.0870206,
              47.622262
            ],
            [
              13.0852101,
              47.6208823
            ],
            [
              13.0831183,
              47.6199949
            ],
            [
              13.0826451,
              47.619554
            ],
            [
              13.0816654,
              47.6196389
            ],
            [
              13.0813327,
              47.619533
            ],
            [
              13.0805985,
              47.6189573
            ],
            [
              13.0799074,
              47.6183637
            ],
            [
              13.0797883,
              47.6181261
            ],
            [
              13.0798662,
              47.6177531
            ],
            [
              13.0794165,
              47.6171356
            ],
            [
              13.079396,
              47.616836
            ],
            [
              13.0786543,
              47.6167317
            ],
            [
              13.0784268,
              47.6164304
            ],
            [
              13.0783434,
              47.6158917
            ],
            [
              13.0778317,
              47.6152789
            ],
            [
              13.0777986,
              47.6147529
            ],
            [
              13.0774242,
              47.6144488
            ],
            [
              13.0758266,
              47.6137998
            ],
            [
              13.075471,
              47.6134413
            ],
            [
              13.0752858,
              47.6129195
            ],
            [
              13.0739315,
              47.6123679
            ],
            [
              13.0723328,
              47.6113766
            ],
            [
              13.0716597,
              47.6105671
            ],
            [
              13.0715755,
              47.6100378
            ],
            [
              13.0720121,
              47.6091085
            ],
            [
              13.071639,
              47.6085222
            ],
            [
              13.0714046,
              47.6070723
            ],
            [
              13.0695006,
              47.6048336
            ],
            [
              13.0689465,
              47.60472
            ],
            [
              13.0688031,
              47.6044879
            ],
            [
              13.068135,
              47.6044329
            ],
            [
              13.0669834,
              47.6038726
            ],
            [
              13.0661796,
              47.6039708
            ],
            [
              13.0657352,
              47.6035192
            ],
            [
              13.0641447,
              47.6030213
            ],
            [
              13.0636058,
              47.6024014
            ],
            [
              13.0633643,
              47.6024515
            ],
            [
              13.0630768,
              47.6022257
            ],
            [
              13.0632135,
              47.6018561
            ],
            [
              13.0634375,
              47.601725
            ],
            [
              13.062619,
              47.6014623
            ],
            [
              13.0630459,
              47.5996483
            ],
            [
              13.063868,
              47.5989343
            ],
            [
              13.0639525,
              47.5982176
            ],
            [
              13.0637626,
              47.5976679
            ],
            [
              13.063975,
              47.5973869
            ],
            [
              13.0639966,
              47.5965796
            ],
            [
              13.0641746,
              47.5962222
            ],
            [
              13.0651173,
              47.5952115
            ],
            [
              13.0661356,
              47.5947497
            ],
            [
              13.0662091,
              47.5944926
            ],
            [
              13.0673099,
              47.5937574
            ],
            [
              13.0680879,
              47.5922121
            ],
            [
              13.0686309,
              47.5920206
            ],
            [
              13.0704342,
              47.5919144
            ],
            [
              13.0710986,
              47.5916532
            ],
            [
              13.0712065,
              47.5914622
            ],
            [
              13.0711261,
              47.5912055
            ],
            [
              13.0714793,
              47.5906964
            ],
            [
              13.0713526,
              47.5903576
            ],
            [
              13.0715824,
              47.5897275
            ],
            [
              13.0714993,
              47.589281
            ],
            [
              13.0720923,
              47.5884387
            ],
            [
              13.0715744,
              47.5881338
            ],
            [
              13.0706416,
              47.586978
            ],
            [
              13.0699968,
              47.5866358
            ],
            [
              13.069423,
              47.5860566
            ],
            [
              13.0685145,
              47.5858059
            ],
            [
              13.0653652,
              47.5864247
            ],
            [
              13.0618499,
              47.5860217
            ],
            [
              13.0609139,
              47.5858328
            ],
            [
              13.0604267,
              47.5855428
            ],
            [
              13.058407,
              47.5857982
            ],
            [
              13.0563981,
              47.5856394
            ],
            [
              13.0522674,
              47.5849604
            ],
            [
              13.0513313,
              47.5845367
            ],
            [
              13.0484228,
              47.584231
            ],
            [
              13.0461108,
              47.5836612
            ],
            [
              13.0436523,
              47.5833636
            ],
            [
              13.0439742,
              47.5828465
            ],
            [
              13.0440015,
              47.5818753
            ],
            [
              13.0438585,
              47.5815357
            ],
            [
              13.044114,
              47.5807784
            ],
            [
              13.044605,
              47.5805928
            ],
            [
              13.0450221,
              47.5801991
            ],
            [
              13.0449221,
              47.5796092
            ],
            [
              13.045112,
              47.579164
            ],
            [
              13.0449087,
              47.5786804
            ],
            [
              13.0440031,
              47.5780743
            ],
            [
              13.0435348,
              47.577375
            ],
            [
              13.0432231,
              47.577396
            ],
            [
              13.0419222,
              47.5768605
            ],
            [
              13.0415725,
              47.5764859
            ],
            [
              13.0421372,
              47.5755144
            ],
            [
              13.0421796,
              47.5749252
            ],
            [
              13.0426632,
              47.573717
            ],
            [
              13.0435553,
              47.5732963
            ],
            [
              13.0443413,
              47.5716924
            ],
            [
              13.0462171,
              47.5707946
            ],
            [
              13.0466558,
              47.5696854
            ],
            [
              13.0470965,
              47.5692687
            ],
            [
              13.0463072,
              47.5688502
            ],
            [
              13.0475262,
              47.5677708
            ],
            [
              13.0482254,
              47.567414
            ],
            [
              13.0484399,
              47.5669955
            ],
            [
              13.0488254,
              47.5668867
            ],
            [
              13.0495608,
              47.5656948
            ],
            [
              13.0498007,
              47.5647259
            ],
            [
              13.0503094,
              47.5643038
            ],
            [
              13.0507192,
              47.563552
            ],
            [
              13.0519155,
              47.5629277
            ],
            [
              13.0532649,
              47.5624977
            ],
            [
              13.0574986,
              47.5621479
            ],
            [
              13.0565069,
              47.5617348
            ],
            [
              13.05652,
              47.5603698
            ],
            [
              13.0551844,
              47.5595819
            ],
            [
              13.0557034,
              47.5573407
            ],
            [
              13.0547134,
              47.5567287
            ],
            [
              13.0521129,
              47.5544409
            ],
            [
              13.0489379,
              47.5522417
            ],
            [
              13.0475217,
              47.5514018
            ],
            [
              13.0455011,
              47.5508496
            ],
            [
              13.0447227,
              47.5502968
            ],
            [
              13.0450532,
              47.547972
            ],
            [
              13.0445171,
              47.5469723
            ],
            [
              13.0435275,
              47.5460715
            ],
            [
              13.0426537,
              47.5458982
            ],
            [
              13.0411176,
              47.5445846
            ],
            [
              13.0371853,
              47.5428454
            ],
            [
              13.0367208,
              47.5420515
            ],
            [
              13.0381285,
              47.5411259
            ],
            [
              13.0371264,
              47.5406531
            ],
            [
              13.0369852,
              47.5398273
            ],
            [
              13.0366864,
              47.5394545
            ],
            [
              13.0359987,
              47.5390966
            ],
            [
              13.0348938,
              47.5388854
            ],
            [
              13.034054,
              47.5365641
            ],
            [
              13.0316986,
              47.5355227
            ],
            [
              13.0310735,
              47.534176
            ],
            [
              13.0309847,
              47.5335019
            ],
            [
              13.0313,
              47.5330642
            ],
            [
              13.0309363,
              47.5325623
            ],
            [
              13.031982,
              47.5314787
            ],
            [
              13.0328636,
              47.5308347
            ],
            [
              13.033123,
              47.5303131
            ],
            [
              13.0343796,
              47.5297948
            ],
            [
              13.0349378,
              47.5297234
            ],
            [
              13.0356892,
              47.5292654
            ],
            [
              13.0373905,
              47.5276105
            ],
            [
              13.0422305,
              47.5264106
            ],
            [
              13.0431972,
              47.5256161
            ],
            [
              13.0462606,
              47.5238746
            ],
            [
              13.0465561,
              47.5224911
            ],
            [
              13.0472929,
              47.521496
            ],
            [
              13.046712,
              47.5207669
            ],
            [
              13.0460473,
              47.5205032
            ],
            [
              13.0443111,
              47.5204871
            ],
            [
              13.0432772,
              47.5199306
            ],
            [
              13.0441385,
              47.5190416
            ],
            [
              13.0433958,
              47.5188287
            ],
            [
              13.0435431,
              47.5177236
            ],
            [
              13.0433765,
              47.5167156
            ],
            [
              13.0437905,
              47.5160837
            ],
            [
              13.0448678,
              47.5161285
            ],
            [
              13.0461015,
              47.5157824
            ],
            [
              13.0466997,
              47.5147714
            ],
            [
              13.0460581,
              47.5103818
            ],
            [
              13.0465421,
              47.5085052
            ],
            [
              13.0463809,
              47.5070273
            ],
            [
              13.0469496,
              47.5057795
            ],
            [
              13.0467227,
              47.5054987
            ],
            [
              13.0460884,
              47.5037365
            ],
            [
              13.0467129,
              47.5023484
            ],
            [
              13.0478352,
              47.5007537
            ],
            [
              13.0482783,
              47.4981464
            ],
            [
              13.0480748,
              47.4964131
            ],
            [
              13.04597,
              47.4946602
            ],
            [
              13.0476465,
              47.4921627
            ],
            [
              13.046421,
              47.4918859
            ],
            [
              13.0453071,
              47.4911434
            ],
            [
              13.0442348,
              47.4909718
            ],
            [
              13.0428231,
              47.4899528
            ],
            [
              13.0425122,
              47.4891979
            ],
            [
              13.0419279,
              47.4887496
            ],
            [
              13.0409887,
              47.4888325
            ],
            [
              13.0393145,
              47.4886241
            ],
            [
              13.0383017,
              47.4889282
            ],
            [
              13.0362461,
              47.4891262
            ],
            [
              13.034901,
              47.4884182
            ],
            [
              13.0342871,
              47.487521
            ],
            [
              13.0325856,
              47.4868949
            ],
            [
              13.0313361,
              47.4868057
            ],
            [
              13.0298227,
              47.4869729
            ],
            [
              13.0268945,
              47.4866965
            ],
            [
              13.0261781,
              47.4862052
            ],
            [
              13.0257896,
              47.485098
            ],
            [
              13.0264864,
              47.4834488
            ],
            [
              13.0260803,
              47.4828689
            ],
            [
              13.0245629,
              47.4820136
            ],
            [
              13.0244561,
              47.4810879
            ],
            [
              13.0240367,
              47.4801194
            ],
            [
              13.0231297,
              47.4796919
            ],
            [
              13.0229198,
              47.4792932
            ],
            [
              13.0223941,
              47.4790411
            ],
            [
              13.0223616,
              47.4785387
            ],
            [
              13.0219457,
              47.4775869
            ],
            [
              13.0213504,
              47.4775252
            ],
            [
              13.0212836,
              47.4773569
            ],
            [
              13.0197185,
              47.4774483
            ],
            [
              13.0196236,
              47.4771463
            ],
            [
              13.019051,
              47.4766967
            ],
            [
              13.0189919,
              47.4764574
            ],
            [
              13.0187762,
              47.4764952
            ],
            [
              13.0183863,
              47.4762628
            ],
            [
              13.018233,
              47.47591
            ],
            [
              13.0183271,
              47.4756805
            ],
            [
              13.0180297,
              47.4752368
            ],
            [
              13.018064,
              47.474858
            ],
            [
              13.0175211,
              47.4743602
            ],
            [
              13.0162226,
              47.4718923
            ],
            [
              13.0148358,
              47.4706745
            ],
            [
              13.0138708,
              47.4703696
            ],
            [
              13.0103239,
              47.4685461
            ],
            [
              13.0084272,
              47.465821
            ],
            [
              13.0066207,
              47.4643842
            ],
            [
              13.0036669,
              47.4633962
            ],
            [
              13.0010473,
              47.4640123
            ],
            [
              13,
              47.46560162117798
            ],
            [
              13,
              47
            ]
          ]
        ]
      }
    },
    {
      "type": "Feature",
      "properties": {
        "osm_id": -51477,
        "boundary": "administrative",
        "admin_level": 2,
        "parents": null,
        "name": "Germany",
        "local_name": "Deutschland",
        "name_en": "Germany",
        "all_tags": {
          "flag": "http://upload.wikimedia.org/wikipedia/commons/b/ba/Flag_of_Germany.svg",
          "name": "Deutschland",
          "name:ab": "Алмантәыла",
          "name:af": "Duitsland",
          "name:ak": "Germany",
          "name:am": "ጀርመን",
          "name:an": "Alemanya",
          "name:ar": "ألمانيا",
          "name:av": "Алмания",
          "name:ay": "Alimaña",
          "name:az": "Almaniya",
          "name:ba": "Германия",
          "name:be": "Германія",
          "name:bg": "Германия",
          "name:bi": "Germany",
          "name:bm": "Jermani",
          "name:bn": "জার্মানি",
          "name:bo": "འཇར་མན།",
          "name:br": "Alamagn",
          "name:bs": "Njemačka",
          "name:ca": "Alemanya",
          "name:ce": "Германи",
          "name:co": "Germania",
          "name:cs": "Německo",
          "name:cu": "Нѣмьци",
          "name:cv": "Германи",
          "name:cy": "Yr Almaen",
          "name:da": "Tyskland",
          "name:de": "Deutschland",
          "name:dv": "ޖަރުމަނުވިލާތް",
          "name:dz": "ཇཱར་མ་ནི",
          "name:ee": "Germany",
          "name:el": "Γερμανία",
          "name:en": "Germany",
          "name:eo": "Germanio",
          "name:es": "Alemania",
          "name:et": "Saksamaa",
          "name:eu": "Alemania",
          "name:fa": "آلمان",
          "name:ff": "Almaanya",
          "name:fi": "Saksa",
          "name:fo": "Týskland",
          "name:fr": "Allemagne",
          "name:fy": "Dútslân",
          "name:ga": "An Ghearmáin",
          "name:gd": "A' Ghearmailt",
          "name:gl": "Alemaña",
          "name:gn": "Alemaña",
          "name:gu": "જર્મની",
          "name:gv": "Yn Ghermaan",
          "name:ha": "Jamus",
          "name:he": "גרמניה",
          "name:hi": "जर्मनी",
          "name:hr": "Njemačka",
          "name:ht": "Almay",
          "name:hu": "Németország",
          "name:hy": "Գերմանիա",
          "name:ia": "Germania",
          "name:id": "Jerman",
          "name:ie": "Germania",
          "name:ig": "Jémanị",
          "name:io": "Germania",
          "name:is": "Þýskaland",
          "name:it": "Germania",
          "name:iu": "ᔮᒪᓂ",
          "name:ja": "ドイツ",
          "name:jv": "Jerman",
          "name:ka": "გერმანია",
          "name:kg": "Alemanyi",
          "name:ki": "Germany",
          "name:kk": "Германия Федеративтік Республикасы",
          "name:kl": "Tyskit Nunaat",
          "name:km": "អាល្លឺម៉ង់",
          "name:kn": "ಜರ್ಮನಿ",
          "name:ko": "독일",
          "name:ks": "جرمٔنی",
          "name:ku": "Almanya",
          "name:kv": "Германия",
          "name:kw": "Almayn",
          "name:ky": "Германия",
          "name:la": "Germania",
          "name:lb": "Däitschland",
          "name:lg": "Girimane",
          "name:li": "Duutsjlandj",
          "name:ln": "Alémani",
          "name:lo": "ປະເທດເຢັຽລະມັນ",
          "name:lt": "Vokietija",
          "name:lv": "Vācija",
          "name:mg": "Alemaina",
          "name:mi": "Tiamani",
          "name:mk": "Германија",
          "name:ml": "ജർമ്മനി",
          "name:mn": "Герман",
          "name:mo": "Ӂермания",
          "name:mr": "जर्मनी",
          "name:ms": "Jerman",
          "name:mt": "Ġermanja",
          "name:my": "ဂျာမနီနိုင်ငံ",
          "name:na": "Djermani",
          "name:ne": "जर्मनी",
          "name:nl": "Duitsland",
          "name:nn": "Tyskland",
          "name:no": "Tyskland",
          "name:nv": "Béésh Bichʼahii Bikéyah",
          "name:oc": "Alemanha",
          "name:oj": "Agongosiwaki",
          "name:or": "ଜର୍ମାନୀ",
          "name:os": "Герман",
          "name:pa": "ਜਰਮਨੀ",
          "name:pl": "Niemcy",
          "name:ps": "آلمان",
          "name:pt": "Alemanha",
          "name:qu": "Alimanya",
          "name:rm": "Germania",
          "name:rn": "Ubudagi",
          "name:ro": "Germania",
          "name:ru": "Германия",
          "name:rw": "Ubudage",
          "name:sa": "जर्मनी",
          "name:sc": "Germània",
          "name:se": "Duiska",
          "name:sh": "Nemačka",
          "name:si": "ජර්මනිය",
          "name:sk": "Nemecko",
          "name:sl": "Nemčija",
          "name:sm": "Siamani",
          "name:so": "Jarmalka",
          "name:sq": "Gjermania",
          "name:sr": "Немачка",
          "name:ss": "IJalimane",
          "name:su": "Jérman",
          "name:sv": "Tyskland",
          "name:sw": "Ujerumani",
          "name:ta": "செருமனி",
          "name:te": "జర్మనీ",
          "name:tg": "Олмон",
          "name:th": "ประเทศเยอรมนี",
          "name:ti": "ጀርመን",
          "name:tk": "Germaniýa",
          "name:tl": "Alemanya",
          "name:tr": "Almanya",
          "name:ts": "Jarimani",
          "name:tt": "Алмания",
          "name:tw": "Gyaaman",
          "name:ty": "Heremani",
          "name:ug": "گېرمانىيە",
          "name:uk": "Німеччина",
          "name:ur": "جرمنی",
          "name:uz": "Olmoniya",
          "name:vi": "Đức",
          "name:vo": "Deutän",
          "name:wa": "Almagne",
          "name:wo": "Almaañ",
          "name:xh": "IJamani",
          "name:yi": "דייטשלאנד",
          "name:yo": "Jẹ́mánì",
          "name:za": "Dwzgoz",
          "name:zh": "德国",
          "name:zu": "IJalimani",
          "boundary": "administrative",
          "currency": "EUR",
          "int_name": "Germany",
          "name:ace": "Jeureuman",
          "name:ang": "Þēodscland",
          "name:arc": "ܓܪܡܢ",
          "name:arz": "المانيا",
          "name:ast": "Alemaña",
          "name:bar": "Deitschland",
          "name:bcl": "Alemanya",
          "name:bpy": "জার্মানি",
          "name:bug": "Jerman",
          "name:bxr": "Германи",
          "name:cdo": "Dáik-guók",
          "name:ceb": "Alemanya",
          "name:chr": "ᎠᏛᏥ",
          "name:chy": "Ma'evé'ho'éno",
          "name:ckb": "ئاڵمانیا",
          "name:crh": "Almaniya",
          "name:csb": "Miemieckô",
          "name:diq": "Almanya",
          "name:dsb": "Nimska",
          "name:eml": "Germâgna",
          "name:ext": "Alemaña",
          "name:frp": "Alemagne",
          "name:frr": "Tjüschlönj",
          "name:fur": "Gjermanie",
          "name:gag": "Germaniya",
          "name:gan": "德國",
          "name:glk": "آلمان",
          "name:gsw": "Ditschland",
          "name:hak": "Tet-koet",
          "name:haw": "Kelemānia",
          "name:hif": "Germany",
          "name:hsb": "Němska",
          "name:ilo": "Alemania",
          "name:jbo": "dotygu'e",
          "name:kaa": "Germaniya",
          "name:kab": "Lalman",
          "name:kbd": "Джэрмэн",
          "name:koi": "Немечму",
          "name:krc": "Германия",
          "name:ksh": "Dütschland",
          "name:lad": "Almania",
          "name:lez": "Германия",
          "name:lij": "Germania",
          "name:lmo": "Germania",
          "name:lrc": "آلمان",
          "name:ltg": "Vuoceja",
          "name:lzh": "德國",
          "name:mdf": "Германие мастор",
          "name:mhr": "Немыч Эл",
          "name:min": "Jerman",
          "name:mwl": "Almanha",
          "name:myv": "Германия Мастор",
          "name:mzn": "آلمان",
          "name:nah": "Teutontlālpan",
          "name:nan": "Tek-kok",
          "name:nap": "Germania",
          "name:nds": "Düütschland",
          "name:new": "जर्मनी",
          "name:nov": "Germania",
          "name:nrm": "Allemangne",
          "name:pag": "Alemanya",
          "name:pam": "Alemania",
          "name:pap": "Alemania",
          "name:pcd": "Alemanne",
          "name:pdc": "Deitschland",
          "name:pfl": "Daitschlond",
          "name:pih": "Doichland",
          "name:pms": "Gërmania",
          "name:pnb": "جرمن",
          "name:pnt": "Γερμανία",
          "name:rmy": "Jermaniya",
          "name:rue": "Нїмецько",
          "name:sah": "Германия",
          "name:scn": "Girmania",
          "name:sco": "Germany",
          "name:smn": "Saksa",
          "name:sms": "Saksslajânnam",
          "name:srn": "Doysrikondre",
          "name:stq": "Düütsklound",
          "name:szl": "Niymce",
          "name:tet": "Alemaña",
          "name:tok": "ma Tosi",
          "name:tpi": "Siamani",
          "name:tum": "Germany",
          "name:tzl": "Tzaratütsch",
          "name:udm": "Германия",
          "name:vec": "Germania",
          "name:vep": "Saksanma",
          "name:vls": "Duutsland",
          "name:vro": "S'aksamaa",
          "name:war": "Alemanya",
          "name:win": "Taaǧiri Mąą",
          "name:xal": "Ниицәтә Немшин Орн",
          "name:xmf": "გერმანია",
          "name:yue": "德國",
          "name:zea": "Duutsland",
          "way_area": "49.2108",
          "wikidata": "Q183",
          "ISO3166-1": "DE",
          "long_name": "Bundesrepublik Deutschland",
          "wikipedia": "de:Deutschland",
          "admin_level": "2",
          "alt_name:eo": "Germanujo",
          "border_type": "country",
          "name:nds-nl": "Duutslaand",
          "alt_name:pnb": "جرمنی",
          "long_name:ar": "جمهورية ألمانيا الاتحادية",
          "long_name:de": "Bundesrepublik Deutschland",
          "long_name:en": "Federal Republic of Germany",
          "long_name:es": "República Federal de Alemania",
          "long_name:eu": "Alemaniako Errepublika Federala",
          "long_name:fa": "جمهوری فدرال آلمان",
          "long_name:fr": "République fédérale d'Allemagne",
          "long_name:hu": "Németországi Szövetségi Köztársaság",
          "long_name:it": "Repubblica Federale di Germania",
          "long_name:nl": "Bondsrepubliek Duitsland",
          "long_name:pl": "Republika Federalna Niemiec",
          "long_name:ps": "المان فدرالي جمهوریت",
          "long_name:pt": "Rebública Federal da Alemanha",
          "long_name:ru": "Федеративная Республика Германия",
          "long_name:sv": "Förbundsrepubliken Tyskland",
          "long_name:uk": "Федеративна Республіка Німеччина",
          "long_name:ur": "وفاقی جمہوریہ جرمنی",
          "name:bat-smg": "Vuokītėjė",
          "name:cbk-zam": "Alemania",
          "name:map-bms": "Jerman",
          "name:pa-Arab": "جرمن",
          "name:sr-Latn": "Nemačka",
          "name:zh-Hans": "德国",
          "name:zh-Hant": "德國",
          "long_name:azb": "آلمان فدراتیو جومهوریتی",
          "long_name:gsw": "Bundesrepublik Ditschland",
          "long_name:hsb": "Zwjazkowa republika Němska",
          "name:roa-tara": "Germanie",
          "official_name": "Bundesrepublik Deutschland",
          "short_name:be": "ФРГ",
          "short_name:ru": "ФРГ",
          "name:be-tarask": "Нямеччына",
          "ISO3166-1:alpha2": "DE",
          "ISO3166-1:alpha3": "DEU",
          "alt_name:pa-Arab": "جرمنی",
          "default_language": "de",
          "official_name:ar": "جمهورية ألمانيا الاتحادية",
          "official_name:be": "Федэратыўная Рэспубліка Германія",
          "official_name:cs": "Spolková republika Německo",
          "official_name:de": "Bundesrepublik Deutschland",
          "official_name:el": "Ομοσπονδιακή Δημοκρατία της Γερμανίας",
          "official_name:en": "Federal Republic of Germany",
          "official_name:eo": "Federacia Respubliko Germanio",
          "official_name:fa": "جمهوری فدرال آلمان",
          "official_name:fi": "Saksan liittotasavalta",
          "official_name:fr": "République fédérale d'Allemagne",
          "official_name:mi": "Tūwehe Whakaminenga o Tiamana",
          "official_name:nl": "Bondsrepubliek Duitsland",
          "official_name:pl": "Republika Federalna Niemiec",
          "official_name:ps": "المان فدرالي جمهوریت",
          "official_name:pt": "República Federal da Alemanha",
          "official_name:ru": "Федеративная Республика Германия",
          "official_name:ur": "وفاقی جمہوریہ جرمنی",
          "ISO3166-1:numeric": "276",
          "official_name:azb": "آلمان فدراتیو جومهوریتی",
          "TMC:cid_58:tabcd_1:Class": "Area",
          "TMC:cid_58:tabcd_1:LCLversion": "8.00",
          "TMC:cid_58:tabcd_1:LocationCode": "1"
        }
      },
      "geometry": {
        "type": "MultiPolygon",
        "coordinates": [
          [
            [
              [
                13,
                47.46560162117798
              ],
              [
                13.0010473,
                47.4640123
              ],
              [
                13.0036669,
                47.4633962
              ],
              [
                13.0066207,
                47.4643842
              ],
              [
                13.0084272,
                47.465821
              ],
              [
                13.0103239,
                47.4685461
              ],
              [
                13.0138708,
                47.4703696
              ],
              [
                13.0148358,
                47.4706745
              ],
              [
                13.0162226,
                47.4718923
              ],
              [
                13.0175211,
                47.4743602
              ],
              [
                13.018064,
                47.474858
              ],
              [
                13.0180297,
                47.4752368
              ],
              [
                13.0183271,
                47.4756805
              ],
              [
                13.018233,
                47.47591
              ],
              [
                13.0183863,
                47.4762628
              ],
              [
                13.0187762,
                47.4764952
              ],
              [
                13.0189919,
                47.4764574
              ],
              [
                13.019051,
                47.4766967
              ],
              [
                13.0196236,
                47.4771463
              ],
              [
                13.0197185,
                47.4774483
              ],
              [
                13.0212836,
                47.4773569
              ],
              [
                13.0213504,
                47.4775252
              ],
              [
                13.0219457,
                47.4775869
              ],
              [
                13.0223616,
                47.4785387
              ],
              [
                13.0223941,
                47.4790411
              ],
              [
                13.0229198,
                47.4792932
              ],
              [
                13.0231297,
                47.4796919
              ],
              [
                13.0240367,
                47.4801194
              ],
              [
                13.0244561,
                47.4810879
              ],
              [
                13.0245629,
                47.4820136
              ],
              [
                13.0260803,
                47.4828689
              ],
              [
                13.0264864,
                47.4834488
              ],
              [
                13.0257896,
                47.485098
              ],
              [
                13.0261781,
                47.4862052
              ],
              [
                13.0268945,
                47.4866965
              ],
              [
                13.0298227,
                47.4869729
              ],
              [
                13.0313361,
                47.4868057
              ],
              [
                13.0325856,
                47.4868949
              ],
              [
                13.0342871,
                47.487521
              ],
              [
                13.034901,
                47.4884182
              ],
              [
                13.0362461,
                47.4891262
              ],
              [
                13.0383017,
                47.4889282
              ],
              [
                13.0393145,
                47.4886241
              ],
              [
                13.0409887,
                47.4888325
              ],
              [
                13.0419279,
                47.4887496
              ],
              [
                13.0425122,
                47.4891979
              ],
              [
                13.0428231,
                47.4899528
              ],
              [
                13.0442348,
                47.4909718
              ],
              [
                13.0453071,
                47.4911434
              ],
              [
                13.046421,
                47.4918859
              ],
              [
                13.0476465,
                47.4921627
              ],
              [
                13.04597,
                47.4946602
              ],
              [
                13.0480748,
                47.4964131
              ],
              [
                13.0482783,
                47.4981464
              ],
              [
                13.0478352,
                47.5007537
              ],
              [
                13.0467129,
                47.5023484
              ],
              [
                13.0460884,
                47.5037365
              ],
              [
                13.0467227,
                47.5054987
              ],
              [
                13.0469496,
                47.5057795
              ],
              [
                13.0463809,
                47.5070273
              ],
              [
                13.0465421,
                47.5085052
              ],
              [
                13.0460581,
                47.5103818
              ],
              [
                13.0466997,
                47.5147714
              ],
              [
                13.0461015,
                47.5157824
              ],
              [
                13.0448678,
                47.5161285
              ],
              [
                13.0437905,
                47.5160837
              ],
              [
                13.0433765,
                47.5167156
              ],
              [
                13.0435431,
                47.5177236
              ],
              [
                13.0433958,
                47.5188287
              ],
              [
                13.0441385,
                47.5190416
              ],
              [
                13.0432772,
                47.5199306
              ],
              [
                13.0443111,
                47.5204871
              ],
              [
                13.0460473,
                47.5205032
              ],
              [
                13.046712,
                47.5207669
              ],
              [
                13.0472929,
                47.521496
              ],
              [
                13.0465561,
                47.5224911
              ],
              [
                13.0462606,
                47.5238746
              ],
              [
                13.0431972,
                47.5256161
              ],
              [
                13.0422305,
                47.5264106
              ],
              [
                13.0373905,
                47.5276105
              ],
              [
                13.0356892,
                47.5292654
              ],
              [
                13.0349378,
                47.5297234
              ],
              [
                13.0343796,
                47.5297948
              ],
              [
                13.033123,
                47.5303131
              ],
              [
                13.0328636,
                47.5308347
              ],
              [
                13.031982,
                47.5314787
              ],
              [
                13.0309363,
                47.5325623
              ],
              [
                13.0313,
                47.5330642
              ],
              [
                13.0309847,
                47.5335019
              ],
              [
                13.0310735,
                47.534176
              ],
              [
                13.0316986,
                47.5355227
              ],
              [
                13.034054,
                47.5365641
              ],
              [
                13.0348938,
                47.5388854
              ],
              [
                13.0359987,
                47.5390966
              ],
              [
                13.0366864,
                47.5394545
              ],
              [
                13.0369852,
                47.5398273
              ],
              [
                13.0371264,
                47.5406531
              ],
              [
                13.0381285,
                47.5411259
              ],
              [
                13.0367208,
                47.5420515
              ],
              [
                13.0371853,
                47.5428454
              ],
              [
                13.0411176,
                47.5445846
              ],
              [
                13.0426537,
                47.5458982
              ],
              [
                13.0435275,
                47.5460715
              ],
              [
                13.0445171,
                47.5469723
              ],
              [
                13.0450532,
                47.547972
              ],
              [
                13.0447227,
                47.5502968
              ],
              [
                13.0455011,
                47.5508496
              ],
              [
                13.0475217,
                47.5514018
              ],
              [
                13.0489379,
                47.5522417
              ],
              [
                13.0521129,
                47.5544409
              ],
              [
                13.0547134,
                47.5567287
              ],
              [
                13.0557034,
                47.5573407
              ],
              [
                13.0551844,
                47.5595819
              ],
              [
                13.05652,
                47.5603698
              ],
              [
                13.0565069,
                47.5617348
              ],
              [
                13.0574986,
                47.5621479
              ],
              [
                13.0532649,
                47.5624977
              ],
              [
                13.0519155,
                47.5629277
              ],
              [
                13.0507192,
                47.563552
              ],
              [
                13.0503094,
                47.5643038
              ],
              [
                13.0498007,
                47.5647259
              ],
              [
                13.0495608,
                47.5656948
              ],
              [
                13.0488254,
                47.5668867
              ],
              [
                13.0484399,
                47.5669955
              ],
              [
                13.0482254,
                47.567414
              ],
              [
                13.0475262,
                47.5677708
              ],
              [
                13.0463072,
                47.5688502
              ],
              [
                13.0470965,
                47.5692687
              ],
              [
                13.0466558,
                47.5696854
              ],
              [
                13.0462171,
                47.5707946
              ],
              [
                13.0443413,
                47.5716924
              ],
              [
                13.0435553,
                47.5732963
              ],
              [
                13.0426632,
                47.573717
              ],
              [
                13.0421796,
                47.5749252
              ],
              [
                13.0421372,
                47.5755144
              ],
              [
                13.0415725,
                47.5764859
              ],
              [
                13.0419222,
                47.5768605
              ],
              [
                13.0432231,
                47.577396
              ],
              [
                13.0435348,
                47.577375
              ],
              [
                13.0440031,
                47.5780743
              ],
              [
                13.0449087,
                47.5786804
              ],
              [
                13.045112,
                47.579164
              ],
              [
                13.0449221,
                47.5796092
              ],
              [
                13.0450221,
                47.5801991
              ],
              [
                13.044605,
                47.5805928
              ],
              [
                13.044114,
                47.5807784
              ],
              [
                13.0438585,
                47.5815357
              ],
              [
                13.0440015,
                47.5818753
              ],
              [
                13.0439742,
                47.5828465
              ],
              [
                13.0436523,
                47.5833636
              ],
              [
                13.0461108,
                47.5836612
              ],
              [
                13.0484228,
                47.584231
              ],
              [
                13.0513313,
                47.5845367
              ],
              [
                13.0522674,
                47.5849604
              ],
              [
                13.0563981,
                47.5856394
              ],
              [
                13.058407,
                47.5857982
              ],
              [
                13.0604267,
                47.5855428
              ],
              [
                13.0609139,
                47.5858328
              ],
              [
                13.0618499,
                47.5860217
              ],
              [
                13.0653652,
                47.5864247
              ],
              [
                13.0685145,
                47.5858059
              ],
              [
                13.069423,
                47.5860566
              ],
              [
                13.0699968,
                47.5866358
              ],
              [
                13.0706416,
                47.586978
              ],
              [
                13.0715744,
                47.5881338
              ],
              [
                13.0720923,
                47.5884387
              ],
              [
                13.0714993,
                47.589281
              ],
              [
                13.0715824,
                47.5897275
              ],
              [
                13.0713526,
                47.5903576
              ],
              [
                13.0714793,
                47.5906964
              ],
              [
                13.0711261,
                47.5912055
              ],
              [
                13.0712065,
                47.5914622
              ],
              [
                13.0710986,
                47.5916532
              ],
              [
                13.0704342,
                47.5919144
              ],
              [
                13.0686309,
                47.5920206
              ],
              [
                13.0680879,
                47.5922121
              ],
              [
                13.0673099,
                47.5937574
              ],
              [
                13.0662091,
                47.5944926
              ],
              [
                13.0661356,
                47.5947497
              ],
              [
                13.0651173,
                47.5952115
              ],
              [
                13.0641746,
                47.5962222
              ],
              [
                13.0639966,
                47.5965796
              ],
              [
                13.063975,
                47.5973869
              ],
              [
                13.0637626,
                47.5976679
              ],
              [
                13.0639525,
                47.5982176
              ],
              [
                13.063868,
                47.5989343
              ],
              [
                13.0630459,
                47.5996483
              ],
              [
                13.062619,
                47.6014623
              ],
              [
                13.0634375,
                47.601725
              ],
              [
                13.0632135,
                47.6018561
              ],
              [
                13.0630768,
                47.6022257
              ],
              [
                13.0633643,
                47.6024515
              ],
              [
                13.0636058,
                47.6024014
              ],
              [
                13.0641447,
                47.6030213
              ],
              [
                13.0657352,
                47.6035192
              ],
              [
                13.0661796,
                47.6039708
              ],
              [
                13.0669834,
                47.6038726
              ],
              [
                13.068135,
                47.6044329
              ],
              [
                13.0688031,
                47.6044879
              ],
              [
                13.0689465,
                47.60472
              ],
              [
                13.0695006,
                47.6048336
              ],
              [
                13.0714046,
                47.6070723
              ],
              [
                13.071639,
                47.6085222
              ],
              [
                13.0720121,
                47.6091085
              ],
              [
                13.0715755,
                47.6100378
              ],
              [
                13.0716597,
                47.6105671
              ],
              [
                13.0723328,
                47.6113766
              ],
              [
                13.0739315,
                47.6123679
              ],
              [
                13.0752858,
                47.6129195
              ],
              [
                13.075471,
                47.6134413
              ],
              [
                13.0758266,
                47.6137998
              ],
              [
                13.0774242,
                47.6144488
              ],
              [
                13.0777986,
                47.6147529
              ],
              [
                13.0778317,
                47.6152789
              ],
              [
                13.0783434,
                47.6158917
              ],
              [
                13.0784268,
                47.6164304
              ],
              [
                13.0786543,
                47.6167317
              ],
              [
                13.079396,
                47.616836
              ],
              [
                13.0794165,
                47.6171356
              ],
              [
                13.0798662,
                47.6177531
              ],
              [
                13.0797883,
                47.6181261
              ],
              [
                13.0799074,
                47.6183637
              ],
              [
                13.0805985,
                47.6189573
              ],
              [
                13.0813327,
                47.619533
              ],
              [
                13.0816654,
                47.6196389
              ],
              [
                13.0826451,
                47.619554
              ],
              [
                13.0831183,
                47.6199949
              ],
              [
                13.0852101,
                47.6208823
              ],
              [
                13.0870206,
                47.622262
              ],
              [
                13.0911277,
                47.6247245
              ],
              [
                13.0914263,
                47.6249645
              ],
              [
                13.0918555,
                47.6258417
              ],
              [
                13.0930944,
                47.6270074
              ],
              [
                13.0943388,
                47.6273197
              ],
              [
                13.095112,
                47.627861
              ],
              [
                13.0958947,
                47.6279971
              ],
              [
                13.0956656,
                47.6283306
              ],
              [
                13.09675,
                47.6303895
              ],
              [
                13.0966899,
                47.6317609
              ],
              [
                13.0979381,
                47.6337191
              ],
              [
                13.0982778,
                47.6346366
              ],
              [
                13.0987361,
                47.6347883
              ],
              [
                13.0989358,
                47.6351717
              ],
              [
                13.0985501,
                47.6358403
              ],
              [
                13.0985187,
                47.6368564
              ],
              [
                13.0982395,
                47.6372601
              ],
              [
                13.0982486,
                47.6376433
              ],
              [
                13.0975766,
                47.6388697
              ],
              [
                13.0974431,
                47.6396857
              ],
              [
                13.0972042,
                47.6399851
              ],
              [
                13.0970234,
                47.6407055
              ],
              [
                13.0962854,
                47.6413175
              ],
              [
                13.095954,
                47.6419356
              ],
              [
                13.0952364,
                47.6426024
              ],
              [
                13.0939993,
                47.6434445
              ],
              [
                13.0920413,
                47.6442845
              ],
              [
                13.0917861,
                47.6445228
              ],
              [
                13.0906388,
                47.6468365
              ],
              [
                13.0891067,
                47.6479223
              ],
              [
                13.0893299,
                47.6485552
              ],
              [
                13.0884972,
                47.649121
              ],
              [
                13.0887261,
                47.6494503
              ],
              [
                13.0882417,
                47.6500671
              ],
              [
                13.0884905,
                47.6504135
              ],
              [
                13.0885281,
                47.6511368
              ],
              [
                13.0889356,
                47.6514129
              ],
              [
                13.0896654,
                47.6535352
              ],
              [
                13.0896788,
                47.653941
              ],
              [
                13.0894697,
                47.6542733
              ],
              [
                13.0890038,
                47.6548287
              ],
              [
                13.0887053,
                47.654833
              ],
              [
                13.0882338,
                47.6551751
              ],
              [
                13.0877785,
                47.65604
              ],
              [
                13.0857232,
                47.6580442
              ],
              [
                13.0844464,
                47.6604735
              ],
              [
                13.0824316,
                47.6611419
              ],
              [
                13.0810683,
                47.6620736
              ],
              [
                13.0800589,
                47.6624823
              ],
              [
                13.0791597,
                47.6649168
              ],
              [
                13.0780811,
                47.6668746
              ],
              [
                13.0776656,
                47.6688075
              ],
              [
                13.0773478,
                47.669194
              ],
              [
                13.0772036,
                47.6703825
              ],
              [
                13.0768746,
                47.670837
              ],
              [
                13.0768592,
                47.6716046
              ],
              [
                13.077132,
                47.6721651
              ],
              [
                13.0771351,
                47.6725298
              ],
              [
                13.0768889,
                47.6728312
              ],
              [
                13.0772154,
                47.6736678
              ],
              [
                13.0780143,
                47.6745933
              ],
              [
                13.0777162,
                47.6772445
              ],
              [
                13.0787774,
                47.6804953
              ],
              [
                13.0787668,
                47.6813822
              ],
              [
                13.0797148,
                47.6818539
              ],
              [
                13.0793549,
                47.6829223
              ],
              [
                13.0795953,
                47.6829685
              ],
              [
                13.0794631,
                47.6833033
              ],
              [
                13.0796644,
                47.6843311
              ],
              [
                13.0795307,
                47.6843738
              ],
              [
                13.0800325,
                47.6860342
              ],
              [
                13.0807484,
                47.6870338
              ],
              [
                13.0794,
                47.6875203
              ],
              [
                13.0784599,
                47.6880809
              ],
              [
                13.0779927,
                47.6887161
              ],
              [
                13.0772425,
                47.6891399
              ],
              [
                13.0755558,
                47.6908139
              ],
              [
                13.0742347,
                47.691866
              ],
              [
                13.0739781,
                47.691731
              ],
              [
                13.0731229,
                47.6917279
              ],
              [
                13.0729071,
                47.6919685
              ],
              [
                13.0724409,
                47.6920385
              ],
              [
                13.0708387,
                47.6917045
              ],
              [
                13.0700729,
                47.6919559
              ],
              [
                13.0691981,
                47.6919276
              ],
              [
                13.0682921,
                47.6927572
              ],
              [
                13.0676791,
                47.6931
              ],
              [
                13.0673931,
                47.6935742
              ],
              [
                13.0662095,
                47.6941503
              ],
              [
                13.0651595,
                47.694939
              ],
              [
                13.064533,
                47.6957271
              ],
              [
                13.063128,
                47.6957735
              ],
              [
                13.0608569,
                47.6971475
              ],
              [
                13.0589085,
                47.6994609
              ],
              [
                13.0586587,
                47.699999
              ],
              [
                13.0567197,
                47.7016695
              ],
              [
                13.0557029,
                47.7037597
              ],
              [
                13.0543333,
                47.7046934
              ],
              [
                13.0527475,
                47.7052787
              ],
              [
                13.052483,
                47.705722
              ],
              [
                13.0506847,
                47.7073714
              ],
              [
                13.0492328,
                47.7085347
              ],
              [
                13.0480389,
                47.7091283
              ],
              [
                13.0494983,
                47.7105316
              ],
              [
                13.0470531,
                47.7118971
              ],
              [
                13.0470478,
                47.7120397
              ],
              [
                13.0460629,
                47.7126266
              ],
              [
                13.0422717,
                47.7128264
              ],
              [
                13.0430105,
                47.7139386
              ],
              [
                13.0413441,
                47.714154
              ],
              [
                13.0399505,
                47.7145412
              ],
              [
                13.0387925,
                47.7153417
              ],
              [
                13.0354365,
                47.7159466
              ],
              [
                13.0334804,
                47.7164978
              ],
              [
                13.0307971,
                47.7168623
              ],
              [
                13.0294222,
                47.7160165
              ],
              [
                13.0287562,
                47.7158505
              ],
              [
                13.0269543,
                47.7165718
              ],
              [
                13.026508,
                47.717624
              ],
              [
                13.0247922,
                47.7187314
              ],
              [
                13.0247387,
                47.7193239
              ],
              [
                13.0243374,
                47.7195227
              ],
              [
                13.0238193,
                47.720116
              ],
              [
                13.0234029,
                47.7201233
              ],
              [
                13.0234129,
                47.7203283
              ],
              [
                13.0231126,
                47.7204185
              ],
              [
                13.0228437,
                47.7208948
              ],
              [
                13.0221266,
                47.7207977
              ],
              [
                13.0212922,
                47.7212247
              ],
              [
                13.0207416,
                47.7211428
              ],
              [
                13.0204445,
                47.7213284
              ],
              [
                13.0193572,
                47.7215141
              ],
              [
                13.0186873,
                47.7221604
              ],
              [
                13.0185229,
                47.7227926
              ],
              [
                13.0183382,
                47.7228752
              ],
              [
                13.0169985,
                47.7229261
              ],
              [
                13.0153639,
                47.7226337
              ],
              [
                13.0139143,
                47.7227759
              ],
              [
                13.0130685,
                47.7225854
              ],
              [
                13.0128532,
                47.7223856
              ],
              [
                13.011268,
                47.7226445
              ],
              [
                13.0105247,
                47.7229239
              ],
              [
                13.0099116,
                47.7225813
              ],
              [
                13.0096033,
                47.7226075
              ],
              [
                13.0094564,
                47.7222831
              ],
              [
                13.0086562,
                47.7223761
              ],
              [
                13.0083075,
                47.7221609
              ],
              [
                13.0079114,
                47.7202768
              ],
              [
                13.0075399,
                47.7205063
              ],
              [
                13.0070069,
                47.7199282
              ],
              [
                13.0069602,
                47.7195196
              ],
              [
                13.0062727,
                47.7191951
              ],
              [
                13.0057993,
                47.7184671
              ],
              [
                13.0047574,
                47.7180526
              ],
              [
                13.0059574,
                47.716935
              ],
              [
                13.005597,
                47.7165761
              ],
              [
                13.0050411,
                47.7163475
              ],
              [
                13.0045053,
                47.7153616
              ],
              [
                13.0045312,
                47.7151269
              ],
              [
                13.0038995,
                47.7151163
              ],
              [
                13.0030987,
                47.7146207
              ],
              [
                13.0028048,
                47.7139755
              ],
              [
                13.0022998,
                47.7133759
              ],
              [
                13.00193,
                47.7132685
              ],
              [
                13,
                47.71321107539134
              ],
              [
                13,
                47.46560162117798
              ]
            ]
          ],
          [
            [
              [
                13,
                47.83924367748305
              ],
              [
                13.0003001,
                47.8394881
              ],
              [
                13.0027151,
                47.8417655
              ],
              [
                13.0035274,
                47.8431807
              ],
              [
                13.0041455,
                47.8454516
              ],
              [
                13.0039559,
                47.8478992
              ],
              [
                13.0033609,
                47.8500223
              ],
              [
                13.0018317,
                47.8528617
              ],
              [
                13.0013973,
                47.8543925
              ],
              [
                13,
                47.85589072584137
              ],
              [
                13,
                47.83924367748305
              ]
            ]
          ]
        ]
      }
    }
  ]
}