{
  "type": "FeatureCollection",
  "features": [
    {
      "type": "Feature",
      "properties": {
        "osm_id": -51684,
        "boundary": "administrative",
        "admin_level": 2,
        "parents": null,
        "name": "Czechia",
        "local_name": "Česko",
        "name_en": "Czechia",
        "all_tags": {
          "flag": "http://upload.wikimedia.org/wikipedia/commons/c/cb/Flag_of_the_Czech_Republic.svg",
          "name": "Česko",
          "name:ab": "Чехиа",
          "name:af": "Tsjeggië",
          "name:am": "ቼክ ሪፐብሊክ",
          "name:an": "Republica Checa",
          "name:ar": "التشيك",
          "name:av": "Чехия",
          "name:ay": "Chexya Ripublika",
          "name:az": "Çexiya",
          "name:ba": "Чехия",
          "name:be": "Чэхія",
          "name:bg": "Чешка република",
          "name:bh": "चेक रिपब्लिक",
          "name:bi": "Czech Republic",
          "name:bn": "চেক প্রজাতন্ত্র",
          "name:bo": "ཅེ་ཁེ།",
          "name:br": "Tchekia",
          "name:bs": "Češka",
          "name:ca": "Txèquia",
          "name:ce": "Чехи",
          "name:ch": "Chekia",
          "name:co": "Cechia",
          "name:cs": "Česko",
          "name:cu": "Чєшьско",
          "name:cv": "Чех Республики",
          "name:cy": "Gweriniaeth Tsiec",
          "name:da": "Tjekkiet",
          "name:de": "Tschechien",
          "name:dv": "ޗެކް ޖުމްހޫރިއްޔާ",
          "name:dz": "ཅེཀ་རི་པབ་ལིཀ་",
          "name:ee": "Czech Republic",
          "name:el": "Τσεχία",
          "name:en": "Czechia",
          "name:eo": "Ĉeĥio",
          "name:es": "Chequia",
          "name:et": "Tšehhi",
          "name:eu": "Txekia",
          "name:fa": "جمهوری چک",
          "name:ff": "Cekiya",
          "name:fi": "Tšekki",
          "name:fo": "Kekkia",
          "name:fr": "Tchéquie",
          "name:fy": "Tsjechje",
          "name:ga": "An tSeic",
          "name:gd": "An t-Seic",
          "name:gl": "República Checa",
          "name:gn": "Cheko",
          "name:gv": "Yn Phobblaght Çheck",
          "name:ha": "Kazech",
          "name:he": "צכיה",
          "name:hi": "चेक गणराज्य",
          "name:hr": "Češka",
          "name:ht": "Repiblik tchèk",
          "name:hu": "Csehország",
          "name:hy": "Չեխիա",
          "name:ia": "Republica Chec",
          "name:id": "Republik Ceko",
          "name:ie": "Tchechia",
          "name:ig": "Chekia",
          "name:ik": "Czech Republic",
          "name:io": "Chekia",
          "name:is": "Tékkland",
          "name:it": "Repubblica Ceca",
          "name:ja": "チェコ",
          "name:jv": "Céko",
          "name:ka": "ჩეხეთი",
          "name:kg": "République tchèque",
          "name:kk": "Чехия",
          "name:kl": "Tjekkia",
          "name:kn": "ಜೆಕ್ ಗಣರಾಜ್ಯ",
          "name:ko": "체코",
          "name:ku": "Komara Çekî",
          "name:kv": "Чехия",
          "name:kw": "Pow Chek",
          "name:ky": "Чехия",
          "name:la": "Cechia",
          "name:lb": "Tschechien",
          "name:li": "Tsjechië",
          "name:ln": "Republíki Sheki",
          "name:lo": "ສາທາລະນະລັດແຊັກ",
          "name:lt": "Čekija",
          "name:lv": "Čehija",
          "name:ma": "Tīekia",
          "name:mg": "Tsekia",
          "name:mi": "Tīekia",
          "name:mk": "Чешка",
          "name:ml": "ചെക്ക് റിപ്പബ്ലിക്ക്",
          "name:mn": "Бүгд Найрамдах Чех Улс",
          "name:mr": "चेक प्रजासत्ताक",
          "name:ms": "Republik Czech",
          "name:mt": "Repubblika Ċeka",
          "name:my": "ချက်သမ္မတနိုင်ငံ",
          "name:na": "Ripubrikin Tsiek",
          "name:ne": "चेक गणतन्त्र",
          "name:nl": "Tsjechië",
          "name:nn": "Tsjekkia",
          "name:no": "Tsjekkia",
          "name:nv": "Chek Bikéyah",
          "name:oc": "Republica Chèca",
          "name:om": "Cheekiyaa",
          "name:or": "ଚେକ ରିପବ୍ଲିକ",
          "name:os": "Чехи",
          "name:pa": "ਚੈੱਕ ਗਣਰਾਜ",
          "name:pi": "चेक रिपब्लिक",
          "name:pl": "Czechy",
          "name:ps": "چېک جمهوريت",
          "name:pt": "Tcheca",
          "name:qu": "Chiksuyu",
          "name:rm": "Tschechia",
          "name:ro": "Cehia",
          "name:ru": "Чехия",
          "name:rw": "Cekiya",
          "name:sa": "ज़ेक् रिपब्लिक",
          "name:sc": "Repùblica Ceca",
          "name:sd": "جمهوريه چيڪ",
          "name:se": "Čeahkka",
          "name:sh": "Češka Republika",
          "name:si": "චෙක් ජනරජය",
          "name:sk": "Česko",
          "name:sl": "Češka",
          "name:sm": "Czechs Republic",
          "name:sn": "Czechia",
          "name:so": "Jamhuuriyadda Tashik",
          "name:sq": "Republika Çeke",
          "name:sr": "Чешка",
          "name:ss": "Shekhi",
          "name:su": "Céko",
          "name:sv": "Tjeckien",
          "name:sw": "Ucheki",
          "name:ta": "செக் குடியரசு",
          "name:te": "చెక్ రిపబ్లిక్",
          "name:tg": "Чехия",
          "name:th": "ประเทศเช็กเกีย",
          "name:tk": "Çehiýa",
          "name:tl": "Republikang Tseko",
          "name:tr": "Çek Cumhuriyeti",
          "name:ts": "Czech Republic",
          "name:tt": "Чехия",
          "name:ty": "Czech Republic",
          "name:ug": "چېخ جۇمھۇرىيەتى",
          "name:uk": "Чехія",
          "name:ur": "چیک جمہوریہ",
          "name:uz": "Chexiya",
          "name:vi": "Cộng hòa Séc",
          "name:vo": "Tsyegän",
          "name:wa": "Tchekeye",
          "name:wo": "Réewum Cek",
          "name:yi": "טשעכיי",
          "name:yo": "Tsẹ́kì Olómìnira",
          "name:za": "Ciethaek",
          "name:zh": "捷克",
          "name:zu": "ITsheki",
          "boundary": "administrative",
          "currency": "CZK",
          "int_name": "Czechia",
          "name:ace": "Rèpublik Cèkô",
          "name:als": "Tschechien",
          "name:ang": "Cecland",
          "name:arc": "ܬܫܝܟ",
          "name:arz": "تشيكيا",
          "name:ast": "República Checa",
          "name:bar": "Tschechische Republik",
          "name:bcl": "Tsekang Republika",
          "name:bpy": "চেক প্রজাতন্ত্র",
          "name:bxr": "Чех",
          "name:cdo": "Ciék-káik",
          "name:ceb": "Tsekya",
          "name:chr": "ᏤᎩᏱ",
          "name:chy": "Czech Republic",
          "name:ckb": "کۆماری چیک",
          "name:crh": "Çehiya",
          "name:csb": "Czeskô Repùblika",
          "name:diq": "Çekıstan",
          "name:dsb": "Česka",
          "name:ext": "Repúbrica Checa",
          "name:frp": "Rèpublica tch·èca",
          "name:frr": "Tschechien",
          "name:fur": "Republiche Ceche",
          "name:gag": "Çehiya",
          "name:haw": "Lepupalika ‘o Tieka",
          "name:hif": "Czech Republic",
          "name:hsb": "Čěska",
          "name:ilo": "Republika a Tseka",
          "name:jbo": "tcesk.zei gubyseltru",
          "name:kaa": "Shexiya",
          "name:kbd": "Чех",
          "name:koi": "Ческо",
          "name:krc": "Чехия",
          "name:lad": "Chekia",
          "name:lij": "Repubbrica Ceca",
          "name:lmo": "Repüblica Ceca",
          "name:ltg": "Čekeja",
          "name:lzh": "捷克",
          "name:mdf": "Чехмастор",
          "name:mhr": "Чехий",
          "name:mzn": "چک جمهوری",
          "name:nah": "Chequia",
          "name:nan": "Česko",
          "name:nds": "Tschechien",
          "name:new": "चेक गणतन्त्र",
          "name:nov": "Chekia",
          "name:nrm": "Républyique Tchèque",
          "name:pag": "Republika na Jheka",
          "name:pam": "Republika ning Tseka",
          "name:pap": "Czech Republic",
          "name:pcd": "Républike tchèke",
          "name:pdc": "Tschecherei",
          "name:pfl": "Tschechie",
          "name:pih": "Chek Repablik",
          "name:pms": "Repùblica Ceca",
          "name:pnb": "چیک لوکراج",
          "name:pnt": "Τσεχία",
          "name:rmy": "Chexiya",
          "name:rue": "Чесько",
          "name:sah": "Чехия",
          "name:scn": "Ripùbblica Ceca",
          "name:sco": "Czech Republic",
          "name:smn": "Tšekki",
          "name:sms": "Tšekk",
          "name:srn": "Tsjekikondre",
          "name:stq": "Tschechien",
          "name:szl": "Czechy",
          "name:tet": "Repúblika Xeka",
          "name:tok": "ma Seki",
          "name:tpi": "Sek Ripablik",
          "name:udm": "Чехия",
          "name:vec": "Republica Ceca",
          "name:vep": "Čehanma",
          "name:vls": "Tsjechië",
          "name:vro": "Tsehhi Vabariik",
          "name:war": "Republika Czeka",
          "name:wuu": "捷克",
          "name:xal": "Чекмудин Орн",
          "name:xmf": "ჩეხეთი",
          "name:yue": "捷克",
          "name:zea": "Tsjehhië",
          "ref:nuts": "CZ0",
          "timezone": "Europe/Prague",
          "way_area": "9.83835",
          "wikidata": "Q213",
          "ISO3166-1": "CZ",
          "land_area": "administrative",
          "wikipedia": "en:Czech Republic",
          "population": "10516707",
          "ref:nuts:1": "CZ0",
          "admin_level": "2",
          "alt_name:de": "Tschechei",
          "alt_name:eo": "Ĉeĥujo",
          "name:nds-nl": "Tsjechie",
          "name:bat-smg": "Čekėjė",
          "name:roa-rup": "Cehia",
          "name:zh-Hans": "捷克",
          "name:zh-Hant": "捷克",
          "name:roa-tara": "Repubbleche Ceche",
          "official_name": "Česká republika",
          "name:be-tarask": "Чэхія",
          "name:zh_pinyin": "Jiékè",
          "population:date": "2022-01-01",
          "ISO3166-1:alpha2": "CZ",
          "ISO3166-1:alpha3": "CZE",
          "default_language": "cs",
          "official_name:ar": "جمهورية التشيك",
          "official_name:br": "Republik Tchek",
          "official_name:ca": "República Txeca",
          "official_name:cs": "Česká republika",
          "official_name:de": "Tschechische Republik",
          "official_name:el": "Τσεχική Δημοκρατία",
          "official_name:en": "Czech Republic",
          "official_name:eo": "Ĉeĥa Respubliko",
          "official_name:es": "República Checa",
          "official_name:eu": "Txekiar Errepublika",
          "official_name:fa": "جمهوری چک",
          "official_name:fi": "Tšekin tasavalta",
          "official_name:fr": "République tchèque",
          "official_name:ga": "Poblacht na Seice",
          "official_name:it": "Repubblica Ceca",
          "official_name:ja": "チェコ共和国",
          "official_name:lb": "Tschechesch Republik",
          "official_name:lt": "Čekijos Respublika",
          "official_name:lv": "Čehijas Republika",
          "official_name:mi": "Whenua Tīeke",
          "official_name:pl": "Republika Czeska",
          "official_name:pt": "República Checa",
          "official_name:ru": "Чешская Республика",
          "official_name:sk": "Česká republika",
          "official_name:sl": "Repúblika Čéška;Republika Češka",
          "official_name:sr": "Република Чешка;Чешка Република",
          "official_name:sv": "Republiken Tjeckien;Tjeckiska republiken",
          "official_name:th": "สาธารณรัฐเช็ก",
          "official_name:tr": "Çek Cumhuriyeti",
          "official_name:uk": "Чеська Республіка",
          "official_name:ur": "چیک جمہوریہ",
          "official_name:uz": "Chexiya Respublikasi",
          "ISO3166-1:numeric": "203",
          "official_name:ast": "República Checa",
          "official_name:hsb": "Čěska republika",
          "TMC:cid_58:tabcd_1:Class": "Area",
          "TMC:cid_58:tabcd_1:LCLversion": "8.00",
          "TMC:cid_58:tabcd_1:LocationCode": "7"
        }
      },
      "geometry": {
        "type": "Polygon",
        "coordinates": [
          [
            [
              13,
              49.31415346604878
            ],
            [
              13.0002817,
              49.3139915
            ],
            [
              13.0005458,
              49.3143108
            ],
            [
              13.0009882,
              49.3141218
            ],
            [
              13.0012785,
              49.3142026
            ],
            [
              13.0012324,
              49.3139658
            ],
            [
              13.001569,
              49.3140225
            ],
            [
              13.0017163,
              49.3137364
            ],
            [
              13.0020362,
              49.3136796
            ],
            [
              13.0019203,
              49.3136474
            ],
            [
              13.0020295,
              49.3133907
            ],
            [
              13.0019229,
              49.3132215
            ],
            [
              13.0021516,
              49.3132266
            ],
            [
              13.0026249,
              49.3126519
            ],
            [
              13.0036821,
              49.3123876
            ],
            [
              13.0041833,
              49.3120691
            ],
            [
              13.0041542,
              49.3116849
            ],
            [
              13.0045695,
              49.3110834
            ],
            [
              13.0049318,
              49.3110788
            ],
            [
              13.004679,
              49.3104645
            ],
            [
              13.0049419,
              49.3100079
            ],
            [
              13.0047751,
              49.3097643
            ],
            [
              13.0050388,
              49.3094474
            ],
            [
              13.0052742,
              49.3094933
            ],
            [
              13.0052087,
              49.3093601
            ],
            [
              13.00534,
              49.3092919
            ],
            [
              13.0047258,
              49.309066
            ],
            [
              13.0054402,
              49.308402
            ],
            [
              13.0056305,
              49.3079045
            ],
            [
              13.0055017,
              49.3073274
            ],
            [
              13.0064725,
              49.3070581
            ],
            [
              13.0072926,
              49.3071489
            ],
            [
              13.0076942,
              49.3067866
            ],
            [
              13.0077626,
              49.3065057
            ],
            [
              13.0077365,
              49.3061711
            ],
            [
              13.0073997,
              49.3059228
            ],
            [
              13.0118177,
              49.3051978
            ],
            [
              13.0197336,
              49.3047629
            ],
            [
              13.0225576,
              49.304992
            ],
            [
              13.029112,
              49.3043286
            ],
            [
              13.0298954,
              49.2988832
            ],
            [
              13.0304943,
              49.2918015
            ],
            [
              13.0304165,
              49.2875882
            ],
            [
              13.0286135,
              49.2846804
            ],
            [
              13.0255364,
              49.2787632
            ],
            [
              13.0302502,
              49.2699078
            ],
            [
              13.0323554,
              49.2667866
            ],
            [
              13.0339821,
              49.2639295
            ],
            [
              13.0360033,
              49.2646201
            ],
            [
              13.0384825,
              49.264718
            ],
            [
              13.0402403,
              49.2645312
            ],
            [
              13.0430969,
              49.2649807
            ],
            [
              13.0442202,
              49.2640186
            ],
            [
              13.0472665,
              49.2636415
            ],
            [
              13.049186,
              49.2643362
            ],
            [
              13.0497314,
              49.2647932
            ],
            [
              13.0501567,
              49.2649029
            ],
            [
              13.0517981,
              49.2648551
            ],
            [
              13.0524768,
              49.2644413
            ],
            [
              13.0553195,
              49.2639251
            ],
            [
              13.0563218,
              49.2631496
            ],
            [
              13.0571488,
              49.2613507
            ],
            [
              13.0582803,
              49.2602251
            ],
            [
              13.0580641,
              49.2599668
            ],
            [
              13.0582111,
              49.2597229
            ],
            [
              13.0581078,
              49.259501
            ],
            [
              13.0576397,
              49.2592677
            ],
            [
              13.0577169,
              49.2587403
            ],
            [
              13.0574997,
              49.2585296
            ],
            [
              13.057567,
              49.2583311
            ],
            [
              13.0568856,
              49.2580397
            ],
            [
              13.0571345,
              49.2573642
            ],
            [
              13.0567154,
              49.2566544
            ],
            [
              13.0574293,
              49.2560095
            ],
            [
              13.0574502,
              49.2557663
            ],
            [
              13.057617,
              49.2557606
            ],
            [
              13.0576578,
              49.2549687
            ],
            [
              13.0578153,
              49.2548823
            ],
            [
              13.0577654,
              49.2547359
            ],
            [
              13.0580067,
              49.2546752
            ],
            [
              13.0576149,
              49.2537503
            ],
            [
              13.0577433,
              49.2533212
            ],
            [
              13.0579214,
              49.2532108
            ],
            [
              13.0578596,
              49.2528549
            ],
            [
              13.0583021,
              49.2528609
            ],
            [
              13.0583066,
              49.2525724
            ],
            [
              13.0580881,
              49.2524309
            ],
            [
              13.0582113,
              49.2521133
            ],
            [
              13.0584898,
              49.2520827
            ],
            [
              13.0586412,
              49.2517066
            ],
            [
              13.0588683,
              49.2516489
            ],
            [
              13.0590712,
              49.2513137
            ],
            [
              13.0593321,
              49.2513465
            ],
            [
              13.0594336,
              49.2511251
            ],
            [
              13.0598113,
              49.2511098
            ],
            [
              13.0598339,
              49.250927
            ],
            [
              13.0596974,
              49.250931
            ],
            [
              13.0604046,
              49.2502062
            ],
            [
              13.0610454,
              49.2499425
            ],
            [
              13.0621923,
              49.2499767
            ],
            [
              13.0628028,
              49.2496991
            ],
            [
              13.0631416,
              49.2496302
            ],
            [
              13.0634412,
              49.2498014
            ],
            [
              13.0641899,
              49.2495438
            ],
            [
              13.0653483,
              49.2500175
            ],
            [
              13.0656011,
              49.2498792
            ],
            [
              13.0659816,
              49.2500123
            ],
            [
              13.0664336,
              49.2495888
            ],
            [
              13.0667011,
              49.2495959
            ],
            [
              13.0669068,
              49.2497951
            ],
            [
              13.0676071,
              49.2497849
            ],
            [
              13.0680189,
              49.2492537
            ],
            [
              13.0678949,
              49.2492137
            ],
            [
              13.0677946,
              49.2486771
            ],
            [
              13.0681106,
              49.2485914
            ],
            [
              13.0682697,
              49.2482762
            ],
            [
              13.0680571,
              49.2477232
            ],
            [
              13.0682171,
              49.2474638
            ],
            [
              13.0694373,
              49.246955
            ],
            [
              13.0698124,
              49.2471724
            ],
            [
              13.0721412,
              49.2467552
            ],
            [
              13.0725645,
              49.2466394
            ],
            [
              13.0727672,
              49.2463593
            ],
            [
              13.0736992,
              49.2464367
            ],
            [
              13.074613,
              49.2467252
            ],
            [
              13.0747512,
              49.2469284
            ],
            [
              13.0752717,
              49.246932
            ],
            [
              13.0756379,
              49.2471829
            ],
            [
              13.0770006,
              49.2467501
            ],
            [
              13.0778212,
              49.2468384
            ],
            [
              13.0794968,
              49.2474989
            ],
            [
              13.0808139,
              49.2474086
            ],
            [
              13.0824022,
              49.2459522
            ],
            [
              13.0829826,
              49.2456127
            ],
            [
              13.0839284,
              49.2444009
            ],
            [
              13.0850247,
              49.2433831
            ],
            [
              13.0850634,
              49.242898
            ],
            [
              13.0857506,
              49.2417844
            ],
            [
              13.0869349,
              49.2407275
            ],
            [
              13.0870786,
              49.2404245
            ],
            [
              13.087318,
              49.2385383
            ],
            [
              13.0879541,
              49.2378365
            ],
            [
              13.0883797,
              49.2375978
            ],
            [
              13.0883766,
              49.2362095
            ],
            [
              13.0890684,
              49.2349809
            ],
            [
              13.0886359,
              49.2314448
            ],
            [
              13.0879833,
              49.2307918
            ],
            [
              13.0864796,
              49.2302671
            ],
            [
              13.0861079,
              49.2299514
            ],
            [
              13.0860182,
              49.2293929
            ],
            [
              13.0862112,
              49.2291202
            ],
            [
              13.087016,
              49.2286961
            ],
            [
              13.0881168,
              49.2278088
            ],
            [
              13.0905762,
              49.2267365
            ],
            [
              13.0911295,
              49.2262774
            ],
            [
              13.0932357,
              49.2252981
            ],
            [
              13.0940228,
              49.2249951
            ],
            [
              13.0971243,
              49.224483
            ],
            [
              13.0980009,
              49.2239001
            ],
            [
              13.100528,
              49.2237673
            ],
            [
              13.1016291,
              49.2235248
            ],
            [
              13.1028189,
              49.2227357
            ],
            [
              13.1048774,
              49.2223514
            ],
            [
              13.1053981,
              49.221566
            ],
            [
              13.1065443,
              49.2210296
            ],
            [
              13.1085279,
              49.2207619
            ],
            [
              13.1091753,
              49.2208105
            ],
            [
              13.1102834,
              49.2195945
            ],
            [
              13.1112225,
              49.2195868
            ],
            [
              13.1119475,
              49.2193519
            ],
            [
              13.113086,
              49.219257
            ],
            [
              13.1141769,
              49.218257
            ],
            [
              13.1143362,
              49.2179523
            ],
            [
              13.1143727,
              49.2162253
            ],
            [
              13.1147635,
              49.2155636
            ],
            [
              13.1146374,
              49.2147111
            ],
            [
              13.1141072,
              49.2143074
            ],
            [
              13.1141429,
              49.2140347
            ],
            [
              13.1143951,
              49.2139096
            ],
            [
              13.114379,
              49.2135352
            ],
            [
              13.1141024,
              49.2128447
            ],
            [
              13.1135905,
              49.2123672
            ],
            [
              13.1138043,
              49.2120761
            ],
            [
              13.1130544,
              49.2098641
            ],
            [
              13.1123596,
              49.2089952
            ],
            [
              13.1115657,
              49.2084583
            ],
            [
              13.111014,
              49.207613
            ],
            [
              13.1108051,
              49.2065615
            ],
            [
              13.1098747,
              49.2044536
            ],
            [
              13.109634,
              49.20422
            ],
            [
              13.1099658,
              49.2037078
            ],
            [
              13.1098872,
              49.203129
            ],
            [
              13.1151022,
              49.2006137
            ],
            [
              13.1171971,
              49.1991797
            ],
            [
              13.1189443,
              49.1990502
            ],
            [
              13.1220971,
              49.1984602
            ],
            [
              13.122935,
              49.1980878
            ],
            [
              13.123002,
              49.1974731
            ],
            [
              13.123518,
              49.197187
            ],
            [
              13.1249111,
              49.1973065
            ],
            [
              13.1264654,
              49.197044
            ],
            [
              13.1278714,
              49.1971178
            ],
            [
              13.1293492,
              49.1968887
            ],
            [
              13.1315596,
              49.1953453
            ],
            [
              13.1324118,
              49.1949595
            ],
            [
              13.13282,
              49.1946254
            ],
            [
              13.1326905,
              49.1944539
            ],
            [
              13.1332307,
              49.1939749
            ],
            [
              13.1339922,
              49.1933367
            ],
            [
              13.1344449,
              49.1931551
            ],
            [
              13.1372983,
              49.1907514
            ],
            [
              13.1376019,
              49.1905964
            ],
            [
              13.1402884,
              49.1902979
            ],
            [
              13.1417927,
              49.189679
            ],
            [
              13.1425773,
              49.1881083
            ],
            [
              13.1438866,
              49.1871541
            ],
            [
              13.1450947,
              49.1859979
            ],
            [
              13.146655,
              49.1849226
            ],
            [
              13.1471872,
              49.1837472
            ],
            [
              13.1486246,
              49.1820189
            ],
            [
              13.1498174,
              49.181788
            ],
            [
              13.1511599,
              49.1813052
            ],
            [
              13.1536034,
              49.1801793
            ],
            [
              13.1560978,
              49.1785501
            ],
            [
              13.1589401,
              49.1770185
            ],
            [
              13.16175,
              49.1747884
            ],
            [
              13.162868,
              49.1743803
            ],
            [
              13.1651839,
              49.1738854
            ],
            [
              13.1679089,
              49.1737618
            ],
            [
              13.170043,
              49.1740094
            ],
            [
              13.1708972,
              49.1736229
            ],
            [
              13.1741706,
              49.1703559
            ],
            [
              13.1754957,
              49.1673449
            ],
            [
              13.1767018,
              49.1619047
            ],
            [
              13.1740447,
              49.156581
            ],
            [
              13.1729556,
              49.1498533
            ],
            [
              13.1702942,
              49.1440046
            ],
            [
              13.1737106,
              49.141862
            ],
            [
              13.1827758,
              49.1344848
            ],
            [
              13.1932727,
              49.1294828
            ],
            [
              13.2055314,
              49.1221797
            ],
            [
              13.2080609,
              49.1219878
            ],
            [
              13.2114596,
              49.1211565
            ],
            [
              13.2360593,
              49.113716
            ],
            [
              13.2443177,
              49.114975
            ],
            [
              13.2575781,
              49.1180268
            ],
            [
              13.2629452,
              49.1186941
            ],
            [
              13.2662908,
              49.1188343
            ],
            [
              13.2764028,
              49.120479
            ],
            [
              13.2823204,
              49.1204942
            ],
            [
              13.2891825,
              49.1186351
            ],
            [
              13.3043527,
              49.1093195
            ],
            [
              13.3127143,
              49.1044931
            ],
            [
              13.3166585,
              49.1042144
            ],
            [
              13.3177202,
              49.1036626
            ],
            [
              13.3195411,
              49.1017436
            ],
            [
              13.3242789,
              49.1003341
            ],
            [
              13.3250605,
              49.0998487
            ],
            [
              13.3266076,
              49.0968253
            ],
            [
              13.3269015,
              49.096649
            ],
            [
              13.3271673,
              49.0967325
            ],
            [
              13.3277115,
              49.0960878
            ],
            [
              13.3303602,
              49.0952165
            ],
            [
              13.3308593,
              49.095414
            ],
            [
              13.3321858,
              49.0950104
            ],
            [
              13.3325639,
              49.0947389
            ],
            [
              13.3338942,
              49.0945672
            ],
            [
              13.3339409,
              49.0942638
            ],
            [
              13.3342925,
              49.0943019
            ],
            [
              13.33489,
              49.0939069
            ],
            [
              13.3352969,
              49.0939981
            ],
            [
              13.3360661,
              49.0938033
            ],
            [
              13.3364243,
              49.093565
            ],
            [
              13.3364447,
              49.0932857
            ],
            [
              13.3378362,
              49.0924852
            ],
            [
              13.3378524,
              49.092237
            ],
            [
              13.3380352,
              49.0921057
            ],
            [
              13.3379663,
              49.0919447
            ],
            [
              13.3383723,
              49.0916798
            ],
            [
              13.3382518,
              49.0916086
            ],
            [
              13.3383338,
              49.091458
            ],
            [
              13.3385809,
              49.0914706
            ],
            [
              13.3392326,
              49.0910494
            ],
            [
              13.3388943,
              49.0907042
            ],
            [
              13.3391582,
              49.0906179
            ],
            [
              13.3393037,
              49.090189
            ],
            [
              13.3397349,
              49.0900394
            ],
            [
              13.3411417,
              49.0900031
            ],
            [
              13.3413735,
              49.0896613
            ],
            [
              13.3430174,
              49.0890967
            ],
            [
              13.3441834,
              49.0888912
            ],
            [
              13.3446997,
              49.0885025
            ],
            [
              13.3447177,
              49.088189
            ],
            [
              13.3451359,
              49.0878148
            ],
            [
              13.3451175,
              49.0875806
            ],
            [
              13.3461516,
              49.0864155
            ],
            [
              13.346086,
              49.0859789
            ],
            [
              13.3465667,
              49.085376
            ],
            [
              13.3461545,
              49.0839642
            ],
            [
              13.3462287,
              49.0835511
            ],
            [
              13.3459004,
              49.0830371
            ],
            [
              13.346309,
              49.0829196
            ],
            [
              13.3465865,
              49.0824575
            ],
            [
              13.3464135,
              49.0820559
            ],
            [
              13.3474225,
              49.0816178
            ],
            [
              13.3476865,
              49.0812626
            ],
            [
              13.3482603,
              49.0811473
            ],
            [
              13.3485512,
              49.0808684
            ],
            [
              13.3493245,
              49.0805944
            ],
            [
              13.3496611,
              49.0802924
            ],
            [
              13.3512169,
              49.0798868
            ],
            [
              13.3516943,
              49.0796013
            ],
            [
              13.3529391,
              49.07942
            ],
            [
              13.3536956,
              49.0787855
            ],
            [
              13.3545218,
              49.0786651
            ],
            [
              13.3559757,
              49.0757944
            ],
            [
              13.3578885,
              49.0738009
            ],
            [
              13.3587631,
              49.0732351
            ],
            [
              13.3601473,
              49.0726872
            ],
            [
              13.361964,
              49.071534
            ],
            [
              13.3624919,
              49.0710696
            ],
            [
              13.3627669,
              49.0705194
            ],
            [
              13.3635249,
              49.069871
            ],
            [
              13.3637957,
              49.0690636
            ],
            [
              13.3648743,
              49.0694435
            ],
            [
              13.3668737,
              49.069325
            ],
            [
              13.3676528,
              49.0686189
            ],
            [
              13.3678785,
              49.0681814
            ],
            [
              13.3687414,
              49.0678577
            ],
            [
              13.3698848,
              49.0678192
            ],
            [
              13.3704919,
              49.0674569
            ],
            [
              13.3709523,
              49.0668797
            ],
            [
              13.3718584,
              49.0661807
            ],
            [
              13.37251,
              49.0647664
            ],
            [
              13.3732169,
              49.0638225
            ],
            [
              13.3739785,
              49.0633198
            ],
            [
              13.3746542,
              49.0621641
            ],
            [
              13.3744791,
              49.061174
            ],
            [
              13.3745556,
              49.0600031
            ],
            [
              13.3754716,
              49.0588502
            ],
            [
              13.3762171,
              49.0582617
            ],
            [
              13.3773368,
              49.0577765
            ],
            [
              13.3780854,
              49.0572286
            ],
            [
              13.3790296,
              49.0569785
            ],
            [
              13.3803263,
              49.056969
            ],
            [
              13.3827891,
              49.0575492
            ],
            [
              13.3835839,
              49.0573552
            ],
            [
              13.3846635,
              49.0566317
            ],
            [
              13.3852819,
              49.0549516
            ],
            [
              13.3863429,
              49.0528175
            ],
            [
              13.3885641,
              49.0528001
            ],
            [
              13.3896424,
              49.0530763
            ],
            [
              13.3909341,
              49.0538394
            ],
            [
              13.3921754,
              49.0543425
            ],
            [
              13.393319,
              49.0531816
            ],
            [
              13.3962888,
              49.0515423
            ],
            [
              13.3973711,
              49.0506602
            ],
            [
              13.398069,
              49.048715
            ],
            [
              13.3979835,
              49.0464855
            ],
            [
              13.3978654,
              49.0457912
            ],
            [
              13.3969576,
              49.0442145
            ],
            [
              13.3951696,
              49.0434937
            ],
            [
              13.3923622,
              49.0428812
            ],
            [
              13.3918984,
              49.0426071
            ],
            [
              13.3916731,
              49.042147
            ],
            [
              13.3921715,
              49.0410739
            ],
            [
              13.3942049,
              49.0398318
            ],
            [
              13.3962094,
              49.0396258
            ],
            [
              13.3972191,
              49.0389549
            ],
            [
              13.3991899,
              49.0372646
            ],
            [
              13.3996606,
              49.0370674
            ],
            [
              13.3994557,
              49.035574
            ],
            [
              13.4011148,
              49.0335643
            ],
            [
              13.4013368,
              49.0326295
            ],
            [
              13.4020464,
              49.0314568
            ],
            [
              13.4022164,
              49.0300937
            ],
            [
              13.4018686,
              49.0289617
            ],
            [
              13.4032384,
              49.0270467
            ],
            [
              13.4031328,
              49.0266696
            ],
            [
              13.4032612,
              49.0262434
            ],
            [
              13.404494,
              49.0248951
            ],
            [
              13.4056158,
              49.0241804
            ],
            [
              13.4058295,
              49.0238456
            ],
            [
              13.4057842,
              49.0228429
            ],
            [
              13.4055731,
              49.0223111
            ],
            [
              13.405091,
              49.0219504
            ],
            [
              13.4026628,
              49.0214869
            ],
            [
              13.40181,
              49.0209656
            ],
            [
              13.4014514,
              49.0201033
            ],
            [
              13.4016937,
              49.0195209
            ],
            [
              13.4015313,
              49.0186555
            ],
            [
              13.4005205,
              49.0170093
            ],
            [
              13.4002868,
              49.0156721
            ],
            [
              13.4010217,
              49.0143251
            ],
            [
              13.4010567,
              49.0129243
            ],
            [
              13.40258,
              49.0114068
            ],
            [
              13.4029796,
              49.0106362
            ],
            [
              13.4041086,
              49.0101208
            ],
            [
              13.4044241,
              49.0098162
            ],
            [
              13.4061569,
              49.009212
            ],
            [
              13.4072234,
              49.0086037
            ],
            [
              13.4083936,
              49.0075558
            ],
            [
              13.4094134,
              49.0032197
            ],
            [
              13.406793211124905,
              49
            ],
            [
              14,
              49
            ],
            [
              14,
              50
            ],
            [
              13,
              50
            ],
            [
              13,
              49.314324260668926
            ],
            [
              13.0001179,
              49.3142716
            ],
            [
              13,
              49.31418684655532
            ],
            [
              13,
              49.31415346604878
            ]
          ]
        ]
      }
    },
    {
      "type": "Feature",
      "properties": {
        "osm_id": -51477,
        "boundary": "administrative",
        "admin_level": 2,
        "parents": null,
        "name": "Germany",
        "local_name": "Deutschland",
        "name_en": "Germany",
        "all_tags": {
          "flag": "http://upload.wikimedia.org/wikipedia/commons/b/ba/Flag_of_Germany.svg",
          "name": "Deutschland",
          "name:ab": "Алмантәыла",
          "name:af": "Duitsland",
          "name:ak": "Germany",
          "name:am": "ጀርመን",
          "name:an": "Alemanya",
          "name:ar": "ألمانيا",
          "name:av": "Алмания",
          "name:ay": "Alimaña",
          "name:az": "Almaniya",
          "name:ba": "Германия",
          "name:be": "Германія",
          "name:bg": "Германия",
          "name:bi": "Germany",
          "name:bm": "Jermani",
          "name:bn": "জার্মানি",
          "name:bo": "འཇར་མན།",
          "name:br": "Alamagn",
          "name:bs": "Njemačka",
          "name:ca": "Alemanya",
          "name:ce": "Германи",
          "name:co": "Germania",
          "name:cs": "Německo",
          "name:cu": "Нѣмьци",
          "name:cv": "Германи",
          "name:cy": "Yr Almaen",
          "name:da": "Tyskland",
          "name:de": "Deutschland",
          "name:dv": "ޖަރުމަނުވިލާތް",
          "name:dz": "ཇཱར་མ་ནི",
          "name:ee": "Germany",
          "name:el": "Γερμανία",
          "name:en": "Germany",
          "name:eo": "Germanio",
          "name:es": "Alemania",
          "name:et": "Saksamaa",
          "name:eu": "Alemania",
          "name:fa": "آلمان",
          "name:ff": "Almaanya",
          "name:fi": "Saksa",
          "name:fo": "Týskland",
          "name:fr": "Allemagne",
          "name:fy": "Dútslân",
          "name:ga": "An Ghearmáin",
          "name:gd": "A' Ghearmailt",
          "name:gl": "Alemaña",
          "name:gn": "Alemaña",
          "name:gu": "જર્મની",
          "name:gv": "Yn Ghermaan",
          "name:ha": "Jamus",
          "name:he": "גרמניה",
          "name:hi": "जर्मनी",
          "name:hr": "Njemačka",
          "name:ht": "Almay",
          "name:hu": "Németország",
          "name:hy": "Գերմանիա",
          "name:ia": "Germania",
          "name:id": "Jerman",
          "name:ie": "Germania",
          "name:ig": "Jémanị",
          "name:io": "Germania",
          "name:is": "Þýskaland",
          "name:it": "Germania",
          "name:iu": "ᔮᒪᓂ",
          "name:ja": "ドイツ",
          "name:jv": "Jerman",
          "name:ka": "გერმანია",
          "name:kg": "Alemanyi",
          "name:ki": "Germany",
          "name:kk": "Германия Федеративтік Республикасы",
          "name:kl": "Tyskit Nunaat",
          "name:km": "អាល្លឺម៉ង់",
          "name:kn": "ಜರ್ಮನಿ",
          "name:ko": "독일",
          "name:ks": "جرمٔنی",
          "name:ku": "Almanya",
          "name:kv": "Германия",
          "name:kw": "Almayn",
          "name:ky": "Германия",
          "name:la": "Germania",
          "name:lb": "Däitschland",
          "name:lg": "Girimane",
          "name:li": "Duutsjlandj",
          "name:ln": "Alémani",
          "name:lo": "ປະເທດເຢັຽລະມັນ",
          "name:lt": "Vokietija",
          "name:lv": "Vācija",
          "name:mg": "Alemaina",
          "name:mi": "Tiamani",
          "name:mk": "Германија",
          "name:ml": "ജർമ്മനി",
          "name:mn": "Герман",
          "name:mo": "Ӂермания",
          "name:mr": "जर्मनी",
          "name:ms": "Jerman",
          "name:mt": "Ġermanja",
          "name:my": "ဂျာမနီနိုင်ငံ",
          "name:na": "Djermani",
          "name:ne": "जर्मनी",
          "name:nl": "Duitsland",
          "name:nn": "Tyskland",
          "name:no": "Tyskland",
          "name:nv": "Béésh Bichʼahii Bikéyah",
          "name:oc": "Alemanha",
          "name:oj": "Agongosiwaki",
          "name:or": "ଜର୍ମାନୀ",
          "name:os": "Герман",
          "name:pa": "ਜਰਮਨੀ",
          "name:pl": "Niemcy",
          "name:ps": "آلمان",
          "name:pt": "Alemanha",
          "name:qu": "Alimanya",
          "name:rm": "Germania",
          "name:rn": "Ubudagi",
          "name:ro": "Germania",
          "name:ru": "Германия",
          "name:rw": "Ubudage",
          "name:sa": "जर्मनी",
          "name:sc": "Germània",
          "name:se": "Duiska",
          "name:sh": "Nemačka",
          "name:si": "ජර්මනිය",
          "name:sk": "Nemecko",
          "name:sl": "Nemčija",
          "name:sm": "Siamani",
          "name:so": "Jarmalka",
          "name:sq": "Gjermania",
          "name:sr": "Немачка",
          "name:ss": "IJalimane",
          "name:su": "Jérman",
          "name:sv": "Tyskland",
          "name:sw": "Ujerumani",
          "name:ta": "செருமனி",
          "name:te": "జర్మనీ",
          "name:tg": "Олмон",
          "name:th": "ประเทศเยอรมนี",
          "name:ti": "ጀርመን",
          "name:tk": "Germaniýa",
          "name:tl": "Alemanya",
          "name:tr": "Almanya",
          "name:ts": "Jarimani",
          "name:tt": "Алмания",
          "name:tw": "Gyaaman",
          "name:ty": "Heremani",
          "name:ug": "گېرمانىيە",
          "name:uk": "Німеччина",
          "name:ur": "جرمنی",
          "name:uz": "Olmoniya",
          "name:vi": "Đức",
          "name:vo": "Deutän",
          "name:wa": "Almagne",
          "name:wo": "Almaañ",
          "name:xh": "IJamani",
          "name:yi": "דייטשלאנד",
          "name:yo": "Jẹ́mánì",
          "name:za": "Dwzgoz",
          "name:zh": "德国",
          "name:zu": "IJalimani",
          "boundary": "administrative",
          "currency": "EUR",
          "int_name": "Germany",
          "name:ace": "Jeureuman",
          "name:ang": "Þēodscland",
          "name:arc": "ܓܪܡܢ",
          "name:arz": "المانيا",
          "name:ast": "Alemaña",
          "name:bar": "Deitschland",
          "name:bcl": "Alemanya",
          "name:bpy": "জার্মানি",
          "name:bug": "Jerman",
          "name:bxr": "Германи",
          "name:cdo": "Dáik-guók",
          "name:ceb": "Alemanya",
          "name:chr": "ᎠᏛᏥ",
          "name:chy": "Ma'evé'ho'éno",
          "name:ckb": "ئاڵمانیا",
          "name:crh": "Almaniya",
          "name:csb": "Miemieckô",
          "name:diq": "Almanya",
          "name:dsb": "Nimska",
          "name:eml": "Germâgna",
          "name:ext": "Alemaña",
          "name:frp": "Alemagne",
          "name:frr": "Tjüschlönj",
          "name:fur": "Gjermanie",
          "name:gag": "Germaniya",
          "name:gan": "德國",
          "name:glk": "آلمان",
          "name:gsw": "Ditschland",
          "name:hak": "Tet-koet",
          "name:haw": "Kelemānia",
          "name:hif": "Germany",
          "name:hsb": "Němska",
          "name:ilo": "Alemania",
          "name:jbo": "dotygu'e",
          "name:kaa": "Germaniya",
          "name:kab": "Lalman",
          "name:kbd": "Джэрмэн",
          "name:koi": "Немечму",
          "name:krc": "Германия",
          "name:ksh": "Dütschland",
          "name:lad": "Almania",
          "name:lez": "Германия",
          "name:lij": "Germania",
          "name:lmo": "Germania",
          "name:lrc": "آلمان",
          "name:ltg": "Vuoceja",
          "name:lzh": "德國",
          "name:mdf": "Германие мастор",
          "name:mhr": "Немыч Эл",
          "name:min": "Jerman",
          "name:mwl": "Almanha",
          "name:myv": "Германия Мастор",
          "name:mzn": "آلمان",
          "name:nah": "Teutontlālpan",
          "name:nan": "Tek-kok",
          "name:nap": "Germania",
          "name:nds": "Düütschland",
          "name:new": "जर्मनी",
          "name:nov": "Germania",
          "name:nrm": "Allemangne",
          "name:pag": "Alemanya",
          "name:pam": "Alemania",
          "name:pap": "Alemania",
          "name:pcd": "Alemanne",
          "name:pdc": "Deitschland",
          "name:pfl": "Daitschlond",
          "name:pih": "Doichland",
          "name:pms": "Gërmania",
          "name:pnb": "جرمن",
          "name:pnt": "Γερμανία",
          "name:rmy": "Jermaniya",
          "name:rue": "Нїмецько",
          "name:sah": "Германия",
          "name:scn": "Girmania",
          "name:sco": "Germany",
          "name:smn": "Saksa",
          "name:sms": "Saksslajânnam",
          "name:srn": "Doysrikondre",
          "name:stq": "Düütsklound",
          "name:szl": "Niymce",
          "name:tet": "Alemaña",
          "name:tok": "ma Tosi",
          "name:tpi": "Siamani",
          "name:tum": "Germany",
          "name:tzl": "Tzaratütsch",
          "name:udm": "Германия",
          "name:vec": "Germania",
          "name:vep": "Saksanma",
          "name:vls": "Duutsland",
          "name:vro": "S'aksamaa",
          "name:war": "Alemanya",
          "name:win": "Taaǧiri Mąą",
          "name:xal": "Ниицәтә Немшин Орн",
          "name:xmf": "გერმანია",
          "name:yue": "德國",
          "name:zea": "Duutsland",
          "way_area": "49.2108",
          "wikidata": "Q183",
          "ISO3166-1": "DE",
          "long_name": "Bundesrepublik Deutschland",
          "wikipedia": "de:Deutschland",
          "admin_level": "2",
          "alt_name:eo": "Germanujo",
          "border_type": "country",
          "name:nds-nl": "Duutslaand",
          "alt_name:pnb": "جرمنی",
          "long_name:ar": "جمهورية ألمانيا الاتحادية",
          "long_name:de": "Bundesrepublik Deutschland",
          "long_name:en": "Federal Republic of Germany",
          "long_name:es": "República Federal de Alemania",
          "long_name:eu": "Alemaniako Errepublika Federala",
          "long_name:fa": "جمهوری فدرال آلمان",
          "long_name:fr": "République fédérale d'Allemagne",
          "long_name:hu": "Németországi Szövetségi Köztársaság",
          "long_name:it": "Repubblica Federale di Germania",
          "long_name:nl": "Bondsrepubliek Duitsland",
          "long_name:pl": "Republika Federalna Niemiec",
          "long_name:ps": "المان فدرالي جمهوریت",
          "long_name:pt": "Rebública Federal da Alemanha",
          "long_name:ru": "Федеративная Республика Германия",
          "long_name:sv": "Förbundsrepubliken Tyskland",
          "long_name:uk": "Федеративна Республіка Німеччина",
          "long_name:ur": "وفاقی جمہوریہ جرمنی",
          "name:bat-smg": "Vuokītėjė",
          "name:cbk-zam": "Alemania",
          "name:map-bms": "Jerman",
          "name:pa-Arab": "جرمن",
          "name:sr-Latn": "Nemačka",
          "name:zh-Hans": "德国",
          "name:zh-Hant": "德國",
          "long_name:azb": "آلمان فدراتیو جومهوریتی",
          "long_name:gsw": "Bundesrepublik Ditschland",
          "long_name:hsb": "Zwjazkowa republika Němska",
          "name:roa-tara": "Germanie",
          "official_name": "Bundesrepublik Deutschland",
          "short_name:be": "ФРГ",
          "short_name:ru": "ФРГ",
          "name:be-tarask": "Нямеччына",
          "ISO3166-1:alpha2": "DE",
          "ISO3166-1:alpha3": "DEU",
          "alt_name:pa-Arab": "جرمنی",
          "default_language": "de",
          "official_name:ar": "جمهورية ألمانيا الاتحادية",
          "official_name:be": "Федэратыўная Рэспубліка Германія",
          "official_name:cs": "Spolková republika Německo",
          "official_name:de": "Bundesrepublik Deutschland",
          "official_name:el": "Ομοσπονδιακή Δημοκρατία της Γερμανίας",
          "official_name:en": "Federal Republic of Germany",
          "official_name:eo": "Federacia Respubliko Germanio",
          "official_name:fa": "جمهوری فدرال آلمان",
          "official_name:fi": "Saksan liittotasavalta",
          "official_name:fr": "République fédérale d'Allemagne",
          "official_name:mi": "Tūwehe Whakaminenga o Tiamana",
          "official_name:nl": "Bondsrepubliek Duitsland",
          "official_name:pl": "Republika Federalna Niemiec",
          "official_name:ps": "المان فدرالي جمهوریت",
          "official_name:pt": "República Federal da Alemanha",
          "official_name:ru": "Федеративная Республика Германия",
          "official_name:ur": "وفاقی جمہوریہ جرمنی",
          "ISO3166-1:numeric": "276",
          "official_name:azb": "آلمان فدراتیو جومهوریتی",
          "TMC:cid_58:tabcd_1:Class": "Area",
          "TMC:cid_58:tabcd_1:LCLversion": "8.00",
          "TMC:cid_58:tabcd_1:LocationCode": "1"
        }
      },
      "geometry": {
        "type": "MultiPolygon",
        "coordinates": [
          [
            [
              [
                13,
                49
              ],
              [
                13.406793211124905,
                49
              ],
              [
                13.4094134,
                49.0032197
              ],
              [
                13.4083936,
                49.0075558
              ],
              [
                13.4072234,
                49.0086037
              ],
              [
                13.4061569,
                49.009212
              ],
              [
                13.4044241,
                49.0098162
              ],
              [
                13.4041086,
                49.0101208
              ],
              [
                13.4029796,
                49.0106362
              ],
              [
                13.40258,
                49.0114068
              ],
              [
                13.4010567,
                49.0129243
              ],
              [
                13.4010217,
                49.0143251
              ],
              [
                13.4002868,
                49.0156721
              ],
              [
                13.4005205,
                49.0170093
              ],
              [
                13.4015313,
                49.0186555
              ],
              [
                13.4016937,
                49.0195209
              ],
              [
                13.4014514,
                49.0201033
              ],
              [
                13.40181,
                49.0209656
              ],
              [
                13.4026628,
                49.0214869
              ],
              [
                13.405091,
                49.0219504
              ],
              [
                13.4055731,
                49.0223111
              ],
              [
                13.4057842,
                49.0228429
              ],
              [
                13.4058295,
                49.0238456
              ],
              [
                13.4056158,
                49.0241804
              ],
              [
                13.404494,
                49.0248951
              ],
              [
                13.4032612,
                49.0262434
              ],
              [
                13.4031328,
                49.0266696
              ],
              [
                13.4032384,
                49.0270467
              ],
              [
                13.4018686,
                49.0289617
              ],
              [
                13.4022164,
                49.0300937
              ],
              [
                13.4020464,
                49.0314568
              ],
              [
                13.4013368,
                49.0326295
              ],
              [
                13.4011148,
                49.0335643
              ],
              [
                13.3994557,
                49.035574
              ],
              [
                13.3996606,
                49.0370674
              ],
              [
                13.3991899,
                49.0372646
              ],
              [
                13.3972191,
                49.0389549
              ],
              [
                13.3962094,
                49.0396258
              ],
              [
                13.3942049,
                49.0398318
              ],
              [
                13.3921715,
                49.0410739
              ],
              [
                13.3916731,
                49.042147
              ],
              [
                13.3918984,
                49.0426071
              ],
              [
                13.3923622,
                49.0428812
              ],
              [
                13.3951696,
                49.0434937
              ],
              [
                13.3969576,
                49.0442145
              ],
              [
                13.3978654,
                49.0457912
              ],
              [
                13.3979835,
                49.0464855
              ],
              [
                13.398069,
                49.048715
              ],
              [
                13.3973711,
                49.0506602
              ],
              [
                13.3962888,
                49.0515423
              ],
              [
                13.393319,
                49.0531816
              ],
              [
                13.3921754,
                49.0543425
              ],
              [
                13.3909341,
                49.0538394
              ],
              [
                13.3896424,
                49.0530763
              ],
              [
                13.3885641,
                49.0528001
              ],
              [
                13.3863429,
                49.0528175
              ],
              [
                13.3852819,
                49.0549516
              ],
              [
                13.3846635,
                49.0566317
              ],
              [
                13.3835839,
                49.0573552
              ],
              [
                13.3827891,
                49.0575492
              ],
              [
                13.3803263,
                49.056969
              ],
              [
                13.3790296,
                49.0569785
              ],
              [
                13.3780854,
                49.0572286
              ],
              [
                13.3773368,
                49.0577765
              ],
              [
                13.3762171,
                49.0582617
              ],
              [
                13.3754716,
                49.0588502
              ],
              [
                13.3745556,
                49.0600031
              ],
              [
                13.3744791,
                49.061174
              ],
              [
                13.3746542,
                49.0621641
              ],
              [
                13.3739785,
                49.0633198
              ],
              [
                13.3732169,
                49.0638225
              ],
              [
                13.37251,
                49.0647664
              ],
              [
                13.3718584,
                49.0661807
              ],
              [
                13.3709523,
                49.0668797
              ],
              [
                13.3704919,
                49.0674569
              ],
              [
                13.3698848,
                49.0678192
              ],
              [
                13.3687414,
                49.0678577
              ],
              [
                13.3678785,
                49.0681814
              ],
              [
                13.3676528,
                49.0686189
              ],
              [
                13.3668737,
                49.069325
              ],
              [
                13.3648743,
                49.0694435
              ],
              [
                13.3637957,
                49.0690636
              ],
              [
                13.3635249,
                49.069871
              ],
              [
                13.3627669,
                49.0705194
              ],
              [
                13.3624919,
                49.0710696
              ],
              [
                13.361964,
                49.071534
              ],
              [
                13.3601473,
                49.0726872
              ],
              [
                13.3587631,
                49.0732351
              ],
              [
                13.3578885,
                49.0738009
              ],
              [
                13.3559757,
                49.0757944
              ],
              [
                13.3545218,
                49.0786651
              ],
              [
                13.3536956,
                49.0787855
              ],
              [
                13.3529391,
                49.07942
              ],
              [
                13.3516943,
                49.0796013
              ],
              [
                13.3512169,
                49.0798868
              ],
              [
                13.3496611,
                49.0802924
              ],
              [
                13.3493245,
                49.0805944
              ],
              [
                13.3485512,
                49.0808684
              ],
              [
                13.3482603,
                49.0811473
              ],
              [
                13.3476865,
                49.0812626
              ],
              [
                13.3474225,
                49.0816178
              ],
              [
                13.3464135,
                49.0820559
              ],
              [
                13.3465865,
                49.0824575
              ],
              [
                13.346309,
                49.0829196
              ],
              [
                13.3459004,
                49.0830371
              ],
              [
                13.3462287,
                49.0835511
              ],
              [
                13.3461545,
                49.0839642
              ],
              [
                13.3465667,
                49.085376
              ],
              [
                13.346086,
                49.0859789
              ],
              [
                13.3461516,
                49.0864155
              ],
              [
                13.3451175,
                49.0875806
              ],
              [
                13.3451359,
                49.0878148
              ],
              [
                13.3447177,
                49.088189
              ],
              [
                13.3446997,
                49.0885025
              ],
              [
                13.3441834,
                49.0888912
              ],
              [
                13.3430174,
                49.0890967
              ],
              [
                13.3413735,
                49.0896613
              ],
              [
                13.3411417,
                49.0900031
              ],
              [
                13.3397349,
                49.0900394
              ],
              [
                13.3393037,
                49.090189
              ],
              [
                13.3391582,
                49.0906179
              ],
              [
                13.3388943,
                49.0907042
              ],
              [
                13.3392326,
                49.0910494
              ],
              [
                13.3385809,
                49.0914706
              ],
              [
                13.3383338,
                49.091458
              ],
              [
                13.3382518,
                49.0916086
              ],
              [
                13.3383723,
                49.0916798
              ],
              [
                13.3379663,
                49.0919447
              ],
              [
                13.3380352,
                49.0921057
              ],
              [
                13.3378524,
                49.092237
              ],
              [
                13.3378362,
                49.0924852
              ],
              [
                13.3364447,
                49.0932857
              ],
              [
                13.3364243,
                49.093565
              ],
              [
                13.3360661,
                49.0938033
              ],
              [
                13.3352969,
                49.0939981
              ],
              [
                13.33489,
                49.0939069
              ],
              [
                13.3342925,
                49.0943019
              ],
              [
                13.3339409,
                49.0942638
              ],
              [
                13.3338942,
                49.0945672
              ],
              [
                13.3325639,
                49.0947389
              ],
              [
                13.3321858,
                49.0950104
              ],
              [
                13.3308593,
                49.095414
              ],
              [
                13.3303602,
                49.0952165
              ],
              [
                13.3277115,
                49.0960878
              ],
              [
                13.3271673,
                49.0967325
              ],
              [
                13.3269015,
                49.096649
              ],
              [
                13.3266076,
                49.0968253
              ],
              [
                13.3250605,
                49.0998487
              ],
              [
                13.3242789,
                49.1003341
              ],
              [
                13.3195411,
                49.1017436
              ],
              [
                13.3177202,
                49.1036626
              ],
              [
                13.3166585,
                49.1042144
              ],
              [
                13.3127143,
                49.1044931
              ],
              [
                13.3043527,
                49.1093195
              ],
              [
                13.2891825,
                49.1186351
              ],
              [
                13.2823204,
                49.1204942
              ],
              [
                13.2764028,
                49.120479
              ],
              [
                13.2662908,
                49.1188343
              ],
              [
                13.2629452,
                49.1186941
              ],
              [
                13.2575781,
                49.1180268
              ],
              [
                13.2443177,
                49.114975
              ],
              [
                13.2360593,
                49.113716
              ],
              [
                13.2114596,
                49.1211565
              ],
              [
                13.2080609,
                49.1219878
              ],
              [
                13.2055314,
                49.1221797
              ],
              [
                13.1932727,
                49.1294828
              ],
              [
                13.1827758,
                49.1344848
              ],
              [
                13.1737106,
                49.141862
              ],
              [
                13.1702942,
                49.1440046
              ],
              [
                13.1729556,
                49.1498533
              ],
              [
                13.1740447,
                49.156581
              ],
              [
                13.1767018,
                49.1619047
              ],
              [
                13.1754957,
                49.1673449
              ],
              [
                13.1741706,
                49.1703559
              ],
              [
                13.1708972,
                49.1736229
              ],
              [
                13.170043,
                49.1740094
              ],
              [
                13.1679089,
                49.1737618
              ],
              [
                13.1651839,
                49.1738854
              ],
              [
                13.162868,
                49.1743803
              ],
              [
                13.16175,
                49.1747884
              ],
              [
                13.1589401,
                49.1770185
              ],
              [
                13.1560978,
                49.1785501
              ],
              [
                13.1536034,
                49.1801793
              ],
              [
                13.1511599,
                49.1813052
              ],
              [
                13.1498174,
                49.181788
              ],
              [
                13.1486246,
                49.1820189
              ],
              [
                13.1471872,
                49.1837472
              ],
              [
                13.146655,
                49.1849226
              ],
              [
                13.1450947,
                49.1859979
              ],
              [
                13.1438866,
                49.1871541
              ],
              [
                13.1425773,
                49.1881083
              ],
              [
                13.1417927,
                49.189679
              ],
              [
                13.1402884,
                49.1902979
              ],
              [
                13.1376019,
                49.1905964
              ],
              [
                13.1372983,
                49.1907514
              ],
              [
                13.1344449,
                49.1931551
              ],
              [
                13.1339922,
                49.1933367
              ],
              [
                13.1332307,
                49.1939749
              ],
              [
                13.1326905,
                49.1944539
              ],
              [
                13.13282,
                49.1946254
              ],
              [
                13.1324118,
                49.1949595
              ],
              [
                13.1315596,
                49.1953453
              ],
              [
                13.1293492,
                49.1968887
              ],
              [
                13.1278714,
                49.1971178
              ],
              [
                13.1264654,
                49.197044
              ],
              [
                13.1249111,
                49.1973065
              ],
              [
                13.123518,
                49.197187
              ],
              [
                13.123002,
                49.1974731
              ],
              [
                13.122935,
                49.1980878
              ],
              [
                13.1220971,
                49.1984602
              ],
              [
                13.1189443,
                49.1990502
              ],
              [
                13.1171971,
                49.1991797
              ],
              [
                13.1151022,
                49.2006137
              ],
              [
                13.1098872,
                49.203129
              ],
              [
                13.1099658,
                49.2037078
              ],
              [
                13.109634,
                49.20422
              ],
              [
                13.1098747,
                49.2044536
              ],
              [
                13.1108051,
                49.2065615
              ],
              [
                13.111014,
                49.207613
              ],
              [
                13.1115657,
                49.2084583
              ],
              [
                13.1123596,
                49.2089952
              ],
              [
                13.1130544,
                49.2098641
              ],
              [
                13.1138043,
                49.2120761
              ],
              [
                13.1135905,
                49.2123672
              ],
              [
                13.1141024,
                49.2128447
              ],
              [
                13.114379,
                49.2135352
              ],
              [
                13.1143951,
                49.2139096
              ],
              [
                13.1141429,
                49.2140347
              ],
              [
                13.1141072,
                49.2143074
              ],
              [
                13.1146374,
                49.2147111
              ],
              [
                13.1147635,
                49.2155636
              ],
              [
                13.1143727,
                49.2162253
              ],
              [
                13.1143362,
                49.2179523
              ],
              [
                13.1141769,
                49.218257
              ],
              [
                13.113086,
                49.219257
              ],
              [
                13.1119475,
                49.2193519
              ],
              [
                13.1112225,
                49.2195868
              ],
              [
                13.1102834,
                49.2195945
              ],
              [
                13.1091753,
                49.2208105
              ],
              [
                13.1085279,
                49.2207619
              ],
              [
                13.1065443,
                49.2210296
              ],
              [
                13.1053981,
                49.221566
              ],
              [
                13.1048774,
                49.2223514
              ],
              [
                13.1028189,
                49.2227357
              ],
              [
                13.1016291,
                49.2235248
              ],
              [
                13.100528,
                49.2237673
              ],
              [
                13.0980009,
                49.2239001
              ],
              [
                13.0971243,
                49.224483
              ],
              [
                13.0940228,
                49.2249951
              ],
              [
                13.0932357,
                49.2252981
              ],
              [
                13.0911295,
                49.2262774
              ],
              [
                13.0905762,
                49.2267365
              ],
              [
                13.0881168,
                49.2278088
              ],
              [
                13.087016,
                49.2286961
              ],
              [
                13.0862112,
                49.2291202
              ],
              [
                13.0860182,
                49.2293929
              ],
              [
                13.0861079,
                49.2299514
              ],
              [
                13.0864796,
                49.2302671
              ],
              [
                13.0879833,
                49.2307918
              ],
              [
                13.0886359,
                49.2314448
              ],
              [
                13.0890684,
                49.2349809
              ],
              [
                13.0883766,
                49.2362095
              ],
              [
                13.0883797,
                49.2375978
              ],
              [
                13.0879541,
                49.2378365
              ],
              [
                13.087318,
                49.2385383
              ],
              [
                13.0870786,
                49.2404245
              ],
              [
                13.0869349,
                49.2407275
              ],
              [
                13.0857506,
                49.2417844
              ],
              [
                13.0850634,
                49.242898
              ],
              [
                13.0850247,
                49.2433831
              ],
              [
                13.0839284,
                49.2444009
              ],
              [
                13.0829826,
                49.2456127
              ],
              [
                13.0824022,
                49.2459522
              ],
              [
                13.0808139,
                49.2474086
              ],
              [
                13.0794968,
                49.2474989
              ],
              [
                13.0778212,
                49.2468384
              ],
              [
                13.0770006,
                49.2467501
              ],
              [
                13.0756379,
                49.2471829
              ],
              [
                13.0752717,
                49.246932
              ],
              [
                13.0747512,
                49.2469284
              ],
              [
                13.074613,
                49.2467252
              ],
              [
                13.0736992,
                49.2464367
              ],
              [
                13.0727672,
                49.2463593
              ],
              [
                13.0725645,
                49.2466394
              ],
              [
                13.0721412,
                49.2467552
              ],
              [
                13.0698124,
                49.2471724
              ],
              [
                13.0694373,
                49.246955
              ],
              [
                13.0682171,
                49.2474638
              ],
              [
                13.0680571,
                49.2477232
              ],
              [
                13.0682697,
                49.2482762
              ],
              [
                13.0681106,
                49.2485914
              ],
              [
                13.0677946,
                49.2486771
              ],
              [
                13.0678949,
                49.2492137
              ],
              [
                13.0680189,
                49.2492537
              ],
              [
                13.0676071,
                49.2497849
              ],
              [
                13.0669068,
                49.2497951
              ],
              [
                13.0667011,
                49.2495959
              ],
              [
                13.0664336,
                49.2495888
              ],
              [
                13.0659816,
                49.2500123
              ],
              [
                13.0656011,
                49.2498792
              ],
              [
                13.0653483,
                49.2500175
              ],
              [
                13.0641899,
                49.2495438
              ],
              [
                13.0634412,
                49.2498014
              ],
              [
                13.0631416,
                49.2496302
              ],
              [
                13.0628028,
                49.2496991
              ],
              [
                13.0621923,
                49.2499767
              ],
              [
                13.0610454,
                49.2499425
              ],
              [
                13.0604046,
                49.2502062
              ],
              [
                13.0596974,
                49.250931
              ],
              [
                13.0598339,
                49.250927
              ],
              [
                13.0598113,
                49.2511098
              ],
              [
                13.0594336,
                49.2511251
              ],
              [
                13.0593321,
                49.2513465
              ],
              [
                13.0590712,
                49.2513137
              ],
              [
                13.0588683,
                49.2516489
              ],
              [
                13.0586412,
                49.2517066
              ],
              [
                13.0584898,
                49.2520827
              ],
              [
                13.0582113,
                49.2521133
              ],
              [
                13.0580881,
                49.2524309
              ],
              [
                13.0583066,
                49.2525724
              ],
              [
                13.0583021,
                49.2528609
              ],
              [
                13.0578596,
                49.2528549
              ],
              [
                13.0579214,
                49.2532108
              ],
              [
                13.0577433,
                49.2533212
              ],
              [
                13.0576149,
                49.2537503
              ],
              [
                13.0580067,
                49.2546752
              ],
              [
                13.0577654,
                49.2547359
              ],
              [
                13.0578153,
                49.2548823
              ],
              [
                13.0576578,
                49.2549687
              ],
              [
                13.057617,
                49.2557606
              ],
              [
                13.0574502,
                49.2557663
              ],
              [
                13.0574293,
                49.2560095
              ],
              [
                13.0567154,
                49.2566544
              ],
              [
                13.0571345,
                49.2573642
              ],
              [
                13.0568856,
                49.2580397
              ],
              [
                13.057567,
                49.2583311
              ],
              [
                13.0574997,
                49.2585296
              ],
              [
                13.0577169,
                49.2587403
              ],
              [
                13.0576397,
                49.2592677
              ],
              [
                13.0581078,
                49.259501
              ],
              [
                13.0582111,
                49.2597229
              ],
              [
                13.0580641,
                49.2599668
              ],
              [
                13.0582803,
                49.2602251
              ],
              [
                13.0571488,
                49.2613507
              ],
              [
                13.0563218,
                49.2631496
              ],
              [
                13.0553195,
                49.2639251
              ],
              [
                13.0524768,
                49.2644413
              ],
              [
                13.0517981,
                49.2648551
              ],
              [
                13.0501567,
                49.2649029
              ],
              [
                13.0497314,
                49.2647932
              ],
              [
                13.049186,
                49.2643362
              ],
              [
                13.0472665,
                49.2636415
              ],
              [
                13.0442202,
                49.2640186
              ],
              [
                13.0430969,
                49.2649807
              ],
              [
                13.0402403,
                49.2645312
              ],
              [
                13.0384825,
                49.264718
              ],
              [
                13.0360033,
                49.2646201
              ],
              [
                13.0339821,
                49.2639295
              ],
              [
                13.0323554,
                49.2667866
              ],
              [
                13.0302502,
                49.2699078
              ],
              [
                13.0255364,
                49.2787632
              ],
              [
                13.0286135,
                49.2846804
              ],
              [
                13.0304165,
                49.2875882
              ],
              [
                13.0304943,
                49.2918015
              ],
              [
                13.0298954,
                49.2988832
              ],
              [
                13.029112,
                49.3043286
              ],
              [
                13.0225576,
                49.304992
              ],
              [
                13.0197336,
                49.3047629
              ],
              [
                13.0118177,
                49.3051978
              ],
              [
                13.0073997,
                49.3059228
              ],
              [
                13.0077365,
                49.3061711
              ],
              [
                13.0077626,
                49.3065057
              ],
              [
                13.0076942,
                49.3067866
              ],
              [
                13.0072926,
                49.3071489
              ],
              [
                13.0064725,
                49.3070581
              ],
              [
                13.0055017,
                49.3073274
              ],
              [
                13.0056305,
                49.3079045
              ],
              [
                13.0054402,
                49.308402
              ],
              [
                13.0047258,
                49.309066
              ],
              [
                13.00534,
                49.3092919
              ],
              [
                13.0052087,
                49.3093601
              ],
              [
                13.0052742,
                49.3094933
              ],
              [
                13.0050388,
                49.3094474
              ],
              [
                13.0047751,
                49.3097643
              ],
              [
                13.0049419,
                49.3100079
              ],
              [
                13.004679,
                49.3104645
              ],
              [
                13.0049318,
                49.3110788
              ],
              [
                13.0045695,
                49.3110834
              ],
              [
                13.0041542,
                49.3116849
              ],
              [
                13.0041833,
                49.3120691
              ],
              [
                13.0036821,
                49.3123876
              ],
              [
                13.0026249,
                49.3126519
              ],
              [
                13.0021516,
                49.3132266
              ],
              [
                13.0019229,
                49.3132215
              ],
              [
                13.0020295,
                49.3133907
              ],
              [
                13.0019203,
                49.3136474
              ],
              [
                13.0020362,
                49.3136796
              ],
              [
                13.0017163,
                49.3137364
              ],
              [
                13.001569,
                49.3140225
              ],
              [
                13.0012324,
                49.3139658
              ],
              [
                13.0012785,
                49.3142026
              ],
              [
                13.0009882,
                49.3141218
              ],
              [
                13.0005458,
                49.3143108
              ],
              [
                13.0002817,
                49.3139915
              ],
              [
                13,
                49.31415346604878
              ],
              [
                13,
                49
              ]
            ]
          ],
          [
            [
              [
                13,
                49.31418684655532
              ],
              [
                13.0001179,
                49.3142716
              ],
              [
                13,
                49.314324260668926
              ],
              [
                13,
                49.31418684655532
              ]
            ]
          ]
        ]
      }
    }
  ]
}