{
  "type": "FeatureCollection",
  "features": [
    {
      "type": "Feature",
      "properties": {
        "osm_id": -192794,
        "boundary": "administrative",
        "admin_level": 2,
        "parents": null,
        "name": "Congo-Brazzaville",
        "local_name": "Congo",
        "name_en": "Congo-Brazzaville",
        "all_tags": {
          "flag": "http://upload.wikimedia.org/wikipedia/commons/9/92/Flag_of_the_Republic_of_the_Congo.svg",
          "name": "Congo",
          "name:af": "Republiek van die Kongo",
          "name:am": "ኮንጎ ሪፐብሊክ",
          "name:an": "Republica d'o Congo",
          "name:ar": "جمهورية الكونغو",
          "name:az": "Konqo Respublikası",
          "name:ba": "Республика Конго",
          "name:be": "Рэспубліка Конга",
          "name:bg": "Република Конго",
          "name:bm": "Kongo-Brazaville",
          "name:bn": "কঙ্গো প্রজাতন্ত্র",
          "name:bo": "ཀོང་གོ་སྤྱི་མཐུན་རྒྱལ་ཁབ།",
          "name:br": "Republik Kongo",
          "name:bs": "Republika Kongo",
          "name:ca": "República del Congo",
          "name:ce": "Республика Конго",
          "name:cs": "Republika Kongo",
          "name:cv": "Конго Республики",
          "name:cy": "Gweriniaeth y Congo",
          "name:da": "Republikken Congo",
          "name:de": "Republik Kongo",
          "name:dv": "ކޮންގޯ (ޖުމްހޫރިއްޔާ)",
          "name:el": "Δημοκρατία του Κονγκό",
          "name:en": "Congo-Brazzaville",
          "name:eo": "Respubliko Kongo",
          "name:es": "República del Congo",
          "name:et": "Kongo Vabariik",
          "name:eu": "Kongoko Errepublika",
          "name:fa": "جمهوری کنگو",
          "name:fi": "Kongon tasavalta",
          "name:fr": "Congo-Brazzaville",
          "name:fy": "Republyk Kongo",
          "name:ga": "Poblacht an Chongó",
          "name:gd": "A' Chongo",
          "name:gl": "Congo",
          "name:gn": "Tavakuairetã Kóngo",
          "name:gv": "Pobblaght ny Congo",
          "name:he": "הרפובליקה של קונגו",
          "name:hi": "कांगो गणराज्य",
          "name:hr": "Republika Kongo",
          "name:ht": "Kongo (Brazavil)",
          "name:hu": "Kongói Köztársaság",
          "name:hy": "Կոնգոյի Հանրապետություն",
          "name:ia": "Republica del Congo",
          "name:id": "Republik Kongo",
          "name:ie": "Republic de Congo",
          "name:io": "Republiko Kongo",
          "name:is": "Vestur-Kongó",
          "name:it": "Repubblica del Congo",
          "name:ja": "コンゴ共和国",
          "name:jv": "Republik Kongo",
          "name:ka": "კონგოს რესპუბლიკა",
          "name:kg": "Repubilika ya Kôngo",
          "name:kk": "Конго Республикасы",
          "name:kn": "ಕಾಂಗೊ ಗಣರಾಜ್ಯ",
          "name:ko": "콩고 공화국",
          "name:ku": "Komara Kongoyê",
          "name:kw": "Repoblek Kongo",
          "name:la": "Respublica Congensis",
          "name:lb": "Republik Kongo",
          "name:li": "Kongo-Brazzaville",
          "name:ln": "Kongó-Brazzaville",
          "name:lt": "Kongo Respublika",
          "name:lv": "Kongo Republika",
          "name:mk": "Република Конго",
          "name:ml": "റിപ്പബ്ലിക്ക് ഓഫ് കോംഗോ",
          "name:mn": "Бүгд Найрамдах Конго Улс",
          "name:mr": "काँगोचे प्रजासत्ताक",
          "name:ms": "Republik Congo",
          "name:my": "ကွန်ဂိုသမ္မတနိုင်ငံ",
          "name:na": "Ripubrikin Kongo",
          "name:ne": "कङ्गो",
          "name:nl": "Congo-Brazzaville",
          "name:nn": "Kongo-Brazzaville",
          "name:no": "Republikken Kongo",
          "name:nv": "Kéyah Káango Náhookǫsjí Siʼánígíí",
          "name:oc": "Republica de Còngo",
          "name:os": "Конгойы Республикæ",
          "name:pa": "ਕਾਂਗੋ ਗਣਰਾਜ",
          "name:pl": "Kongo",
          "name:ps": "د کانګو جمهوريت",
          "name:pt": "República do Congo",
          "name:qu": "Kungu Republika",
          "name:ro": "Republica Congo",
          "name:ru": "Республика Конго",
          "name:rw": "Kongo",
          "name:sc": "Repùbrica de su Congo",
          "name:se": "Kongo dásseváldi",
          "name:sg": "Ködörösêse tî Kongöo",
          "name:sh": "Republika Kongo",
          "name:si": "කොංගෝ ජනරජය",
          "name:sk": "Kongo (Brazzaville)",
          "name:sl": "Republika Kongo",
          "name:sn": "Republic of the Congo",
          "name:so": "Jamhuuriyadda Kongo",
          "name:sq": "Republika e Kongos",
          "name:sr": "Република Конго",
          "name:ss": "Tibuse weKhongo",
          "name:su": "Républik Kongo",
          "name:sv": "Republiken Kongo",
          "name:sw": "Jamhuri ya Kongo",
          "name:ta": "கொங்கோ குடியரசு",
          "name:te": "కాంగో రిపబ్లిక్",
          "name:tg": "Ҷумҳӯрии Конго",
          "name:th": "สาธารณรัฐคองโก",
          "name:tk": "Kongo Respublikasy",
          "name:tl": "Republika ng Konggo",
          "name:tr": "Kongo Cumhuriyeti",
          "name:ts": "Riphabliki ya Congo",
          "name:tt": "Конго Җөмһүрияте",
          "name:ug": "كونگو جۇمھۇرىيىتى",
          "name:uk": "Республіка Конго",
          "name:ur": "جمہوریہ کانگو",
          "name:uz": "Kongo Respublikasi",
          "name:vi": "Cộng hòa Congo",
          "name:vo": "Kongoän (Repüblikän)",
          "name:wo": "Kongóo-Brasaawiil",
          "name:yi": "רעפובליק פון קאנגא",
          "name:yo": "Orílẹ̀-èdè Olómìnira ilẹ̀ Kóngò",
          "name:zh": "刚果共和国 / 剛果共和國",
          "name:zu": "IKongo",
          "boundary": "administrative",
          "currency": "XAF",
          "name:als": "Republik Kongo",
          "name:arc": "ܩܘܛܢܝܘܬܐ ܕܩܘܢܓܘ",
          "name:arz": "جمهورية الكونجو",
          "name:ast": "El Congu",
          "name:bcl": "Republika kan Kongo",
          "name:bpy": "কঙ্গো প্রজাতন্ত্র",
          "name:bxr": "Конго",
          "name:ceb": "Republika sa Congo",
          "name:chy": "Republic of the Congo",
          "name:ckb": "کۆماری کۆنگۆ",
          "name:crh": "Kongo (Brazzavil)",
          "name:din": "Koŋgo-Brazzaville",
          "name:diq": "Cumhuriyetê Kongoy",
          "name:dsb": "Republika Kongo",
          "name:ext": "Congu",
          "name:frp": "Rèpublica du Congô",
          "name:gag": "Kongo Respublikası",
          "name:hif": "Republic of the Congo",
          "name:hsb": "Republika Kongo",
          "name:ilo": "Republika iti Kongo",
          "name:jbo": "kongos",
          "name:lij": "Repubbrica Do Congo",
          "name:lmo": "Congo",
          "name:nah": "Tlācatlahtohcāyōtl in Congo",
          "name:nan": "Congo Kiōng-hô-kok",
          "name:nds": "Republiek Kongo",
          "name:nov": "Kongo",
          "name:nso": "Republic ya Congo",
          "name:pam": "Republika ning Kongo",
          "name:pih": "Repablik o' t' Kongo",
          "name:pms": "Còngo",
          "name:pnb": "کانگو",
          "name:sah": "Конго Өрөспүүбүлүкэтэ",
          "name:scn": "Ripùbbrica dû Congu",
          "name:sco": "Republic o the Congo",
          "name:smn": "Kongo täsiväldi",
          "name:sms": "Kongo tääʹssväʹldd",
          "name:stq": "Republik Kongo",
          "name:vec": "Republica del Congo",
          "name:vro": "Kongo Vabariik",
          "name:war": "Republika han Congo",
          "name:wuu": "刚果共和国",
          "name:xal": "Конһлмудин Орн",
          "name:yue": "剛果（布）",
          "timezone": "Africa/Brazzaville",
          "way_area": "28.2012",
          "wikidata": "Q971",
          "ISO3166-1": "CG",
          "wikipedia": "fr:République du Congo",
          "admin_level": "2",
          "alt_name:en": "Congo (Brazzaville)",
          "alt_name:eo": "Kongo Brazavila",
          "alt_name:sv": "Konto-Brazzaville",
          "alt_name:zh": "刚果（布）",
          "name:bat-smg": "Kuongs",
          "name:zh-Hans": "刚果共和国",
          "name:zh-Hant": "剛果共和國",
          "official_name": "République du Congo",
          "name:be-tarask": "Рэспубліка Конга",
          "ISO3166-1:alpha2": "CG",
          "ISO3166-1:alpha3": "COG",
          "default_language": "fr",
          "official_name:de": "Departements der Republik Kongo",
          "official_name:en": "Republic of the Congo",
          "official_name:es": "Republica del Congo",
          "official_name:fr": "République du Congo",
          "official_name:pl": "Republika Konga",
          "official_name:zh": "刚果共和国 / 剛果共和國",
          "ISO3166-1:numeric": "178",
          "official_name:din": "Paankɔc de Koŋgo",
          "official_name:zh-Hans": "刚果共和国",
          "official_name:zh-Hant": "剛果共和國"
        }
      },
      "geometry": {
        "type": "Polygon",
        "coordinates": [
          [
            [
              14,
              -0.19826981197839993
            ],
            [
              14.000278,
              -0.198611
            ],
            [
              14.004444,
              -0.201667
            ],
            [
              14.014167,
              -0.205556
            ],
            [
              14.018889,
              -0.208333
            ],
            [
              14.024444,
              -0.209722
            ],
            [
              14.03,
              -0.210556
            ],
            [
              14.036667,
              -0.210556
            ],
            [
              14.043056,
              -0.211111
            ],
            [
              14.049167,
              -0.211944
            ],
            [
              14.056111,
              -0.211944
            ],
            [
              14.062222,
              -0.2125
            ],
            [
              14.068333,
              -0.213889
            ],
            [
              14.074722,
              -0.214722
            ],
            [
              14.076667,
              -0.215278
            ],
            [
              14.079444,
              -0.216667
            ],
            [
              14.085,
              -0.218056
            ],
            [
              14.089167,
              -0.220833
            ],
            [
              14.0925,
              -0.224444
            ],
            [
              14.095278,
              -0.228611
            ],
            [
              14.098611,
              -0.231944
            ],
            [
              14.102778,
              -0.234167
            ],
            [
              14.106944,
              -0.2375
            ],
            [
              14.109722,
              -0.241667
            ],
            [
              14.113056,
              -0.245
            ],
            [
              14.118611,
              -0.253333
            ],
            [
              14.121944,
              -0.256944
            ],
            [
              14.128333,
              -0.2575
            ],
            [
              14.136389,
              -0.251944
            ],
            [
              14.141944,
              -0.250556
            ],
            [
              14.146667,
              -0.252778
            ],
            [
              14.149444,
              -0.256944
            ],
            [
              14.153056,
              -0.260278
            ],
            [
              14.155,
              -0.264444
            ],
            [
              14.157778,
              -0.268611
            ],
            [
              14.160556,
              -0.273611
            ],
            [
              14.1625,
              -0.277778
            ],
            [
              14.163889,
              -0.283333
            ],
            [
              14.166111,
              -0.288056
            ],
            [
              14.169444,
              -0.292222
            ],
            [
              14.172222,
              -0.296389
            ],
            [
              14.175556,
              -0.299722
            ],
            [
              14.177778,
              -0.303889
            ],
            [
              14.179722,
              -0.308889
            ],
            [
              14.180556,
              -0.315
            ],
            [
              14.181944,
              -0.320556
            ],
            [
              14.183889,
              -0.325278
            ],
            [
              14.186667,
              -0.329722
            ],
            [
              14.188056,
              -0.335278
            ],
            [
              14.19,
              -0.34
            ],
            [
              14.19,
              -0.346111
            ],
            [
              14.189444,
              -0.3525
            ],
            [
              14.188611,
              -0.358611
            ],
            [
              14.188056,
              -0.365
            ],
            [
              14.186667,
              -0.370556
            ],
            [
              14.185278,
              -0.382222
            ],
            [
              14.183889,
              -0.388611
            ],
            [
              14.183333,
              -0.394722
            ],
            [
              14.183333,
              -0.401667
            ],
            [
              14.183889,
              -0.407778
            ],
            [
              14.184722,
              -0.414167
            ],
            [
              14.186667,
              -0.418889
            ],
            [
              14.189444,
              -0.423056
            ],
            [
              14.191389,
              -0.427222
            ],
            [
              14.196389,
              -0.429167
            ],
            [
              14.203056,
              -0.422222
            ],
            [
              14.205833,
              -0.418333
            ],
            [
              14.208056,
              -0.413333
            ],
            [
              14.218333,
              -0.403056
            ],
            [
              14.226667,
              -0.3975
            ],
            [
              14.231944,
              -0.3975
            ],
            [
              14.236944,
              -0.399444
            ],
            [
              14.241111,
              -0.403056
            ],
            [
              14.243889,
              -0.407222
            ],
            [
              14.247222,
              -0.410556
            ],
            [
              14.25,
              -0.414167
            ],
            [
              14.254722,
              -0.416111
            ],
            [
              14.260278,
              -0.4175
            ],
            [
              14.273889,
              -0.4175
            ],
            [
              14.280278,
              -0.416944
            ],
            [
              14.283611,
              -0.413333
            ],
            [
              14.285833,
              -0.409167
            ],
            [
              14.287222,
              -0.403611
            ],
            [
              14.291944,
              -0.400833
            ],
            [
              14.2975,
              -0.400278
            ],
            [
              14.302222,
              -0.400833
            ],
            [
              14.306944,
              -0.403056
            ],
            [
              14.3125,
              -0.404444
            ],
            [
              14.317222,
              -0.406389
            ],
            [
              14.323611,
              -0.407222
            ],
            [
              14.329722,
              -0.407222
            ],
            [
              14.335278,
              -0.405833
            ],
            [
              14.341389,
              -0.405
            ],
            [
              14.346944,
              -0.405
            ],
            [
              14.351667,
              -0.407222
            ],
            [
              14.355278,
              -0.410556
            ],
            [
              14.357778,
              -0.414722
            ],
            [
              14.360556,
              -0.418889
            ],
            [
              14.364167,
              -0.422222
            ],
            [
              14.368333,
              -0.424444
            ],
            [
              14.373611,
              -0.425833
            ],
            [
              14.388889,
              -0.431944
            ],
            [
              14.392222,
              -0.435556
            ],
            [
              14.400556,
              -0.441111
            ],
            [
              14.411667,
              -0.443889
            ],
            [
              14.417778,
              -0.444444
            ],
            [
              14.4225,
              -0.446667
            ],
            [
              14.4275,
              -0.449444
            ],
            [
              14.435,
              -0.455
            ],
            [
              14.438333,
              -0.458333
            ],
            [
              14.443889,
              -0.466667
            ],
            [
              14.444444,
              -0.472778
            ],
            [
              14.444444,
              -0.479722
            ],
            [
              14.445278,
              -0.486111
            ],
            [
              14.447222,
              -0.490833
            ],
            [
              14.450833,
              -0.493611
            ],
            [
              14.4575,
              -0.493611
            ],
            [
              14.463889,
              -0.493056
            ],
            [
              14.47,
              -0.493611
            ],
            [
              14.474167,
              -0.496389
            ],
            [
              14.4775,
              -0.5
            ],
            [
              14.480278,
              -0.504167
            ],
            [
              14.485833,
              -0.526111
            ],
            [
              14.487778,
              -0.530278
            ],
            [
              14.490556,
              -0.534444
            ],
            [
              14.494167,
              -0.538056
            ],
            [
              14.4975,
              -0.542222
            ],
            [
              14.501667,
              -0.545
            ],
            [
              14.505833,
              -0.5475
            ],
            [
              14.508611,
              -0.551944
            ],
            [
              14.511389,
              -0.562778
            ],
            [
              14.513333,
              -0.566944
            ],
            [
              14.515278,
              -0.571944
            ],
            [
              14.519444,
              -0.574722
            ],
            [
              14.524444,
              -0.576667
            ],
            [
              14.529722,
              -0.578056
            ],
            [
              14.534722,
              -0.580278
            ],
            [
              14.5375,
              -0.584444
            ],
            [
              14.539444,
              -0.589167
            ],
            [
              14.538889,
              -0.595556
            ],
            [
              14.536667,
              -0.600278
            ],
            [
              14.533889,
              -0.604444
            ],
            [
              14.530556,
              -0.607778
            ],
            [
              14.527222,
              -0.611944
            ],
            [
              14.527778,
              -0.618333
            ],
            [
              14.529167,
              -0.623889
            ],
            [
              14.531944,
              -0.628056
            ],
            [
              14.533333,
              -0.633611
            ],
            [
              14.533889,
              -0.639722
            ],
            [
              14.531944,
              -0.644722
            ],
            [
              14.525,
              -0.651389
            ],
            [
              14.520833,
              -0.653611
            ],
            [
              14.516667,
              -0.657222
            ],
            [
              14.51,
              -0.664167
            ],
            [
              14.507222,
              -0.668056
            ],
            [
              14.503611,
              -0.671667
            ],
            [
              14.501667,
              -0.676389
            ],
            [
              14.498889,
              -0.680556
            ],
            [
              14.496111,
              -0.685556
            ],
            [
              14.494167,
              -0.690278
            ],
            [
              14.491944,
              -0.695
            ],
            [
              14.490556,
              -0.700833
            ],
            [
              14.488611,
              -0.704722
            ],
            [
              14.485,
              -0.709722
            ],
            [
              14.481111,
              -0.7125
            ],
            [
              14.4775,
              -0.715833
            ],
            [
              14.474722,
              -0.72
            ],
            [
              14.474167,
              -0.726389
            ],
            [
              14.474167,
              -0.740278
            ],
            [
              14.474722,
              -0.746389
            ],
            [
              14.474722,
              -0.753333
            ],
            [
              14.473333,
              -0.759444
            ],
            [
              14.471389,
              -0.764444
            ],
            [
              14.468611,
              -0.768611
            ],
            [
              14.466667,
              -0.773333
            ],
            [
              14.465833,
              -0.779722
            ],
            [
              14.465833,
              -0.785
            ],
            [
              14.476111,
              -0.795556
            ],
            [
              14.480278,
              -0.798333
            ],
            [
              14.483056,
              -0.801667
            ],
            [
              14.488611,
              -0.81
            ],
            [
              14.49,
              -0.815556
            ],
            [
              14.49,
              -0.835
            ],
            [
              14.489167,
              -0.841111
            ],
            [
              14.487778,
              -0.8475
            ],
            [
              14.485,
              -0.851667
            ],
            [
              14.481667,
              -0.855
            ],
            [
              14.4775,
              -0.857222
            ],
            [
              14.473333,
              -0.86
            ],
            [
              14.469444,
              -0.862778
            ],
            [
              14.465833,
              -0.866111
            ],
            [
              14.4625,
              -0.869722
            ],
            [
              14.448611,
              -0.890278
            ],
            [
              14.441944,
              -0.897222
            ],
            [
              14.437778,
              -0.899444
            ],
            [
              14.433611,
              -0.902778
            ],
            [
              14.43,
              -0.906389
            ],
            [
              14.429444,
              -0.911111
            ],
            [
              14.432222,
              -0.915278
            ],
            [
              14.434167,
              -0.92
            ],
            [
              14.432222,
              -0.925
            ],
            [
              14.429444,
              -0.936111
            ],
            [
              14.43,
              -0.942222
            ],
            [
              14.431389,
              -0.947222
            ],
            [
              14.432222,
              -0.953333
            ],
            [
              14.432778,
              -0.959722
            ],
            [
              14.432222,
              -0.965833
            ],
            [
              14.431389,
              -0.971944
            ],
            [
              14.4275,
              -0.981667
            ],
            [
              14.424722,
              -0.993611
            ],
            [
              14.423889,
              -0.999722
            ],
            [
              14.423958500000001,
              -1
            ],
            [
              15,
              -1
            ],
            [
              15,
              0
            ],
            [
              14,
              0
            ],
            [
              14,
              -0.19826981197839993
            ]
          ]
        ]
      }
    },
    {
      "type": "Feature",
      "properties": {
        "osm_id": -192793,
        "boundary": "administrative",
        "admin_level": 2,
        "parents": null,
        "name": "Gabon",
        "local_name": "Gabon",
        "name_en": "Gabon",
        "all_tags": {
          "flag": "http://upload.wikimedia.org/wikipedia/commons/0/04/Flag_of_Gabon.svg",
          "name": "Gabon",
          "name:af": "Gaboen",
          "name:am": "ጋቦን",
          "name:an": "Gabón",
          "name:ar": "الغابون",
          "name:az": "Qabon",
          "name:ba": "Габон",
          "name:be": "Габон",
          "name:bg": "Габон",
          "name:bm": "Gabon",
          "name:bn": "গাবন",
          "name:bo": "གེ་བོན།",
          "name:br": "Gabon",
          "name:bs": "Gabon",
          "name:ca": "Gabon",
          "name:ce": "Габон",
          "name:cs": "Gabon",
          "name:cv": "Габон",
          "name:cy": "Gabon",
          "name:da": "Gabon",
          "name:de": "Gabun",
          "name:dv": "ގެބޯން",
          "name:dz": "གྷེ་བྷོན",
          "name:el": "Γκαμπόν",
          "name:en": "Gabon",
          "name:eo": "Gabono",
          "name:es": "Gabón",
          "name:et": "Gabon",
          "name:eu": "Gabon",
          "name:fa": "گابن",
          "name:ff": "Gabon",
          "name:fi": "Gabon",
          "name:fr": "Gabon",
          "name:fy": "Gabon",
          "name:ga": "An Ghabúin",
          "name:gd": "Gabon",
          "name:gl": "Gabón",
          "name:gn": "Gavõ",
          "name:gv": "Gabon",
          "name:he": "גבון",
          "name:hi": "गबॉन",
          "name:hr": "Gabon",
          "name:ht": "Gabon",
          "name:hu": "Gabon",
          "name:hy": "Գաբոն",
          "name:ia": "Gabon",
          "name:id": "Gabon",
          "name:ie": "Gabon",
          "name:io": "Gabon",
          "name:is": "Gabon",
          "name:it": "Gabon",
          "name:ja": "ガボン",
          "name:jv": "Gabon",
          "name:ka": "გაბონი",
          "name:kg": "Ngabu",
          "name:ki": "Gabon",
          "name:kk": "Габон",
          "name:kn": "ಗಬೊನ್",
          "name:ko": "가봉",
          "name:ks": "گیبان",
          "name:ku": "Gabon",
          "name:kw": "Gabon",
          "name:la": "Gabonia",
          "name:lb": "Gabun",
          "name:li": "Gabon",
          "name:ln": "Gabɔ́",
          "name:lt": "Gabonas",
          "name:lv": "Gabona",
          "name:mi": "Kāpona",
          "name:mk": "Габон",
          "name:ml": "ഗാബോൺ",
          "name:mn": "Габон",
          "name:mr": "गॅबन",
          "name:ms": "Gabon",
          "name:mt": "Gabon",
          "name:my": "ဂါဘွန်နိုင်ငံ",
          "name:na": "Gabun",
          "name:ne": "गाबोन",
          "name:nl": "Gabon",
          "name:nn": "Gabon",
          "name:no": "Gabon",
          "name:nv": "Gabǫ́ǫ́",
          "name:oc": "Gabon",
          "name:or": "ଗାବୋନ",
          "name:os": "Габон",
          "name:pa": "ਗਬਾਨ",
          "name:pl": "Gabon",
          "name:ps": "ګابن",
          "name:pt": "Gabão",
          "name:qu": "Gabun",
          "name:rm": "Gabun",
          "name:ro": "Gabon",
          "name:ru": "Габон",
          "name:rw": "Gabon",
          "name:sa": "गाबोन",
          "name:sc": "Gabòn",
          "name:se": "Gabon",
          "name:sg": "Gaböon",
          "name:sh": "Gabon",
          "name:si": "ගැබොන්",
          "name:sk": "Gabon",
          "name:sl": "Gabon",
          "name:sn": "Gabon",
          "name:so": "Gabon",
          "name:sq": "Gaboni",
          "name:sr": "Габон",
          "name:ss": "IGabhoni",
          "name:st": "Gabon",
          "name:su": "Gabon",
          "name:sv": "Gabon",
          "name:sw": "Gabon",
          "name:ta": "காபோன்",
          "name:te": "గబాన్",
          "name:tg": "Габон",
          "name:th": "ประเทศกาบอง",
          "name:tk": "Gabon",
          "name:tl": "Gabon",
          "name:tr": "Gabon",
          "name:ts": "Gaboni",
          "name:tt": "Габон",
          "name:ug": "گابون",
          "name:uk": "Габон",
          "name:ur": "گیبون",
          "name:uz": "Gabon",
          "name:vi": "Gabon",
          "name:vo": "Gabunän",
          "name:wo": "Gaboŋ",
          "name:yi": "גאבאן",
          "name:yo": "Gàbọ̀n",
          "name:zh": "加蓬 / 加彭",
          "name:zu": "IGaboni",
          "boundary": "administrative",
          "currency": "XAF",
          "name:als": "Gabun",
          "name:ang": "Gabon",
          "name:arz": "جابون",
          "name:ast": "Gabón",
          "name:bcl": "Gabon",
          "name:bjn": "Gabon",
          "name:bpy": "গ্যাবন",
          "name:bxr": "Габон",
          "name:ceb": "Gabon",
          "name:ckb": "گابۆن",
          "name:crh": "Gabon",
          "name:diq": "Gabon",
          "name:dsb": "Gabun",
          "name:ext": "Gabón",
          "name:frp": "Gabon",
          "name:gag": "Gabon",
          "name:hif": "Gabon",
          "name:hsb": "Gabun",
          "name:ilo": "Gabon",
          "name:jbo": "gabon",
          "name:kaa": "Gabon",
          "name:lij": "Gabòn",
          "name:lmo": "Gabon",
          "name:lzh": "加彭",
          "name:min": "Gabon",
          "name:mrj": "Габон",
          "name:nah": "Gabon",
          "name:nan": "Gabon",
          "name:nds": "Gabun",
          "name:nov": "Gabon",
          "name:nso": "Gabon",
          "name:pam": "Gabon",
          "name:pap": "Gabon",
          "name:pdc": "Gabun",
          "name:pih": "Gabon",
          "name:pms": "Gabòn",
          "name:pnb": "گیبون",
          "name:sah": "Габон",
          "name:scn": "Gabon",
          "name:sco": "Gabon",
          "name:smn": "Gabon",
          "name:sms": "Gaboon",
          "name:stq": "Gabun",
          "name:szl": "Gabůn",
          "name:tpi": "Gabon",
          "name:tzl": "Gabon",
          "name:vec": "Gabon",
          "name:vro": "Gabon",
          "name:war": "Gabon",
          "name:xal": "Гаһитудин Орн",
          "name:yue": "加蓬",
          "name:zea": "Gabon",
          "timezone": "Africa/Libreville",
          "way_area": "22.9917",
          "wikidata": "Q1000",
          "ISO3166-1": "GA",
          "wikipedia": "en:Gabon",
          "name:zh-TW": "加彭",
          "admin_level": "2",
          "alt_name:ar": "غابون",
          "name:nds-nl": "Gabon",
          "name:simple": "Gabon",
          "name:bat-smg": "Gabuons",
          "name:roa-rup": "Gabon",
          "name:zh-Hans": "加蓬",
          "name:zh-Hant": "加蓬 / 加彭",
          "name:be-tarask": "Габон",
          "ISO3166-1:alpha2": "GA",
          "ISO3166-1:alpha3": "GAB",
          "default_language": "fr",
          "official_name:ar": "الجمهورية الغابونية",
          "official_name:cs": "Gabonská republika",
          "official_name:fa": "جمهوری گابن",
          "official_name:gn": "Gavõ Tavakuairetã",
          "official_name:pt": "República Gabonesa",
          "official_name:zh": "加蓬共和国 / 加彭共和國",
          "ISO3166-1:numeric": "266",
          "official_name:zh-Hans": "加蓬共和国",
          "official_name:zh-Hant": "加彭共和國"
        }
      },
      "geometry": {
        "type": "Polygon",
        "coordinates": [
          [
            [
              14,
              -1
            ],
            [
              14.423958500000001,
              -1
            ],
            [
              14.423889,
              -0.999722
            ],
            [
              14.424722,
              -0.993611
            ],
            [
              14.4275,
              -0.981667
            ],
            [
              14.431389,
              -0.971944
            ],
            [
              14.432222,
              -0.965833
            ],
            [
              14.432778,
              -0.959722
            ],
            [
              14.432222,
              -0.953333
            ],
            [
              14.431389,
              -0.947222
            ],
            [
              14.43,
              -0.942222
            ],
            [
              14.429444,
              -0.936111
            ],
            [
              14.432222,
              -0.925
            ],
            [
              14.434167,
              -0.92
            ],
            [
              14.432222,
              -0.915278
            ],
            [
              14.429444,
              -0.911111
            ],
            [
              14.43,
              -0.906389
            ],
            [
              14.433611,
              -0.902778
            ],
            [
              14.437778,
              -0.899444
            ],
            [
              14.441944,
              -0.897222
            ],
            [
              14.448611,
              -0.890278
            ],
            [
              14.4625,
              -0.869722
            ],
            [
              14.465833,
              -0.866111
            ],
            [
              14.469444,
              -0.862778
            ],
            [
              14.473333,
              -0.86
            ],
            [
              14.4775,
              -0.857222
            ],
            [
              14.481667,
              -0.855
            ],
            [
              14.485,
              -0.851667
            ],
            [
              14.487778,
              -0.8475
            ],
            [
              14.489167,
              -0.841111
            ],
            [
              14.49,
              -0.835
            ],
            [
              14.49,
              -0.815556
            ],
            [
              14.488611,
              -0.81
            ],
            [
              14.483056,
              -0.801667
            ],
            [
              14.480278,
              -0.798333
            ],
            [
              14.476111,
              -0.795556
            ],
            [
              14.465833,
              -0.785
            ],
            [
              14.465833,
              -0.779722
            ],
            [
              14.466667,
              -0.773333
            ],
            [
              14.468611,
              -0.768611
            ],
            [
              14.471389,
              -0.764444
            ],
            [
              14.473333,
              -0.759444
            ],
            [
              14.474722,
              -0.753333
            ],
            [
              14.474722,
              -0.746389
            ],
            [
              14.474167,
              -0.740278
            ],
            [
              14.474167,
              -0.726389
            ],
            [
              14.474722,
              -0.72
            ],
            [
              14.4775,
              -0.715833
            ],
            [
              14.481111,
              -0.7125
            ],
            [
              14.485,
              -0.709722
            ],
            [
              14.488611,
              -0.704722
            ],
            [
              14.490556,
              -0.700833
            ],
            [
              14.491944,
              -0.695
            ],
            [
              14.494167,
              -0.690278
            ],
            [
              14.496111,
              -0.685556
            ],
            [
              14.498889,
              -0.680556
            ],
            [
              14.501667,
              -0.676389
            ],
            [
              14.503611,
              -0.671667
            ],
            [
              14.507222,
              -0.668056
            ],
            [
              14.51,
              -0.664167
            ],
            [
              14.516667,
              -0.657222
            ],
            [
              14.520833,
              -0.653611
            ],
            [
              14.525,
              -0.651389
            ],
            [
              14.531944,
              -0.644722
            ],
            [
              14.533889,
              -0.639722
            ],
            [
              14.533333,
              -0.633611
            ],
            [
              14.531944,
              -0.628056
            ],
            [
              14.529167,
              -0.623889
            ],
            [
              14.527778,
              -0.618333
            ],
            [
              14.527222,
              -0.611944
            ],
            [
              14.530556,
              -0.607778
            ],
            [
              14.533889,
              -0.604444
            ],
            [
              14.536667,
              -0.600278
            ],
            [
              14.538889,
              -0.595556
            ],
            [
              14.539444,
              -0.589167
            ],
            [
              14.5375,
              -0.584444
            ],
            [
              14.534722,
              -0.580278
            ],
            [
              14.529722,
              -0.578056
            ],
            [
              14.524444,
              -0.576667
            ],
            [
              14.519444,
              -0.574722
            ],
            [
              14.515278,
              -0.571944
            ],
            [
              14.513333,
              -0.566944
            ],
            [
              14.511389,
              -0.562778
            ],
            [
              14.508611,
              -0.551944
            ],
            [
              14.505833,
              -0.5475
            ],
            [
              14.501667,
              -0.545
            ],
            [
              14.4975,
              -0.542222
            ],
            [
              14.494167,
              -0.538056
            ],
            [
              14.490556,
              -0.534444
            ],
            [
              14.487778,
              -0.530278
            ],
            [
              14.485833,
              -0.526111
            ],
            [
              14.480278,
              -0.504167
            ],
            [
              14.4775,
              -0.5
            ],
            [
              14.474167,
              -0.496389
            ],
            [
              14.47,
              -0.493611
            ],
            [
              14.463889,
              -0.493056
            ],
            [
              14.4575,
              -0.493611
            ],
            [
              14.450833,
              -0.493611
            ],
            [
              14.447222,
              -0.490833
            ],
            [
              14.445278,
              -0.486111
            ],
            [
              14.444444,
              -0.479722
            ],
            [
              14.444444,
              -0.472778
            ],
            [
              14.443889,
              -0.466667
            ],
            [
              14.438333,
              -0.458333
            ],
            [
              14.435,
              -0.455
            ],
            [
              14.4275,
              -0.449444
            ],
            [
              14.4225,
              -0.446667
            ],
            [
              14.417778,
              -0.444444
            ],
            [
              14.411667,
              -0.443889
            ],
            [
              14.400556,
              -0.441111
            ],
            [
              14.392222,
              -0.435556
            ],
            [
              14.388889,
              -0.431944
            ],
            [
              14.373611,
              -0.425833
            ],
            [
              14.368333,
              -0.424444
            ],
            [
              14.364167,
              -0.422222
            ],
            [
              14.360556,
              -0.418889
            ],
            [
              14.357778,
              -0.414722
            ],
            [
              14.355278,
              -0.410556
            ],
            [
              14.351667,
              -0.407222
            ],
            [
              14.346944,
              -0.405
            ],
            [
              14.341389,
              -0.405
            ],
            [
              14.335278,
              -0.405833
            ],
            [
              14.329722,
              -0.407222
            ],
            [
              14.323611,
              -0.407222
            ],
            [
              14.317222,
              -0.406389
            ],
            [
              14.3125,
              -0.404444
            ],
            [
              14.306944,
              -0.403056
            ],
            [
              14.302222,
              -0.400833
            ],
            [
              14.2975,
              -0.400278
            ],
            [
              14.291944,
              -0.400833
            ],
            [
              14.287222,
              -0.403611
            ],
            [
              14.285833,
              -0.409167
            ],
            [
              14.283611,
              -0.413333
            ],
            [
              14.280278,
              -0.416944
            ],
            [
              14.273889,
              -0.4175
            ],
            [
              14.260278,
              -0.4175
            ],
            [
              14.254722,
              -0.416111
            ],
            [
              14.25,
              -0.414167
            ],
            [
              14.247222,
              -0.410556
            ],
            [
              14.243889,
              -0.407222
            ],
            [
              14.241111,
              -0.403056
            ],
            [
              14.236944,
              -0.399444
            ],
            [
              14.231944,
              -0.3975
            ],
            [
              14.226667,
              -0.3975
            ],
            [
              14.218333,
              -0.403056
            ],
            [
              14.208056,
              -0.413333
            ],
            [
              14.205833,
              -0.418333
            ],
            [
              14.203056,
              -0.422222
            ],
            [
              14.196389,
              -0.429167
            ],
            [
              14.191389,
              -0.427222
            ],
            [
              14.189444,
              -0.423056
            ],
            [
              14.186667,
              -0.418889
            ],
            [
              14.184722,
              -0.414167
            ],
            [
              14.183889,
              -0.407778
            ],
            [
              14.183333,
              -0.401667
            ],
            [
              14.183333,
              -0.394722
            ],
            [
              14.183889,
              -0.388611
            ],
            [
              14.185278,
              -0.382222
            ],
            [
              14.186667,
              -0.370556
            ],
            [
              14.188056,
              -0.365
            ],
            [
              14.188611,
              -0.358611
            ],
            [
              14.189444,
              -0.3525
            ],
            [
              14.19,
              -0.346111
            ],
            [
              14.19,
              -0.34
            ],
            [
              14.188056,
              -0.335278
            ],
            [
              14.186667,
              -0.329722
            ],
            [
              14.183889,
              -0.325278
            ],
            [
              14.181944,
              -0.320556
            ],
            [
              14.180556,
              -0.315
            ],
            [
              14.179722,
              -0.308889
            ],
            [
              14.177778,
              -0.303889
            ],
            [
              14.175556,
              -0.299722
            ],
            [
              14.172222,
              -0.296389
            ],
            [
              14.169444,
              -0.292222
            ],
            [
              14.166111,
              -0.288056
            ],
            [
              14.163889,
              -0.283333
            ],
            [
              14.1625,
              -0.277778
            ],
            [
              14.160556,
              -0.273611
            ],
            [
              14.157778,
              -0.268611
            ],
            [
              14.155,
              -0.264444
            ],
            [
              14.153056,
              -0.260278
            ],
            [
              14.149444,
              -0.256944
            ],
            [
              14.146667,
              -0.252778
            ],
            [
              14.141944,
              -0.250556
            ],
            [
              14.136389,
              -0.251944
            ],
            [
              14.128333,
              -0.2575
            ],
            [
              14.121944,
              -0.256944
            ],
            [
              14.118611,
              -0.253333
            ],
            [
              14.113056,
              -0.245
            ],
            [
              14.109722,
              -0.241667
            ],
            [
              14.106944,
              -0.2375
            ],
            [
              14.102778,
              -0.234167
            ],
            [
              14.098611,
              -0.231944
            ],
            [
              14.095278,
              -0.228611
            ],
            [
              14.0925,
              -0.224444
            ],
            [
              14.089167,
              -0.220833
            ],
            [
              14.085,
              -0.218056
            ],
            [
              14.079444,
              -0.216667
            ],
            [
              14.076667,
              -0.215278
            ],
            [
              14.074722,
              -0.214722
            ],
            [
              14.068333,
              -0.213889
            ],
            [
              14.062222,
              -0.2125
            ],
            [
              14.056111,
              -0.211944
            ],
            [
              14.049167,
              -0.211944
            ],
            [
              14.043056,
              -0.211111
            ],
            [
              14.036667,
              -0.210556
            ],
            [
              14.03,
              -0.210556
            ],
            [
              14.024444,
              -0.209722
            ],
            [
              14.018889,
              -0.208333
            ],
            [
              14.014167,
              -0.205556
            ],
            [
              14.004444,
              -0.201667
            ],
            [
              14.000278,
              -0.198611
            ],
            [
              14,
              -0.19826981197839993
            ],
            [
              14,
              -1
            ]
          ]
        ]
      }
    }
  ]
}