{
  "type": "FeatureCollection",
  "features": [
    {
      "type": "Feature",
      "properties": {
        "osm_id": -195266,
        "boundary": "administrative",
        "admin_level": 2,
        "parents": null,
        "name": "Namibia",
        "local_name": "Namibia",
        "name_en": "Namibia",
        "all_tags": {
          "flag": "http://upload.wikimedia.org/wikipedia/commons/0/00/Flag_of_Namibia.svg",
          "name": "Namibia",
          "name:af": "Namibië",
          "name:am": "ናሚቢያ",
          "name:an": "Namibia",
          "name:ar": "ناميبيا",
          "name:az": "Namibiya",
          "name:ba": "Намибия",
          "name:be": "Намібія",
          "name:bg": "Намибия",
          "name:bm": "Namibia",
          "name:bn": "নামিবিয়া",
          "name:bo": "ན་མི་བྷི་ཡ།",
          "name:br": "Namibia",
          "name:bs": "Namibija",
          "name:ca": "Namíbia",
          "name:ce": "Намиби",
          "name:cs": "Namibie",
          "name:cv": "Намиби",
          "name:cy": "Namibia",
          "name:da": "Namibia",
          "name:de": "Namibia",
          "name:el": "Ναμίμπια",
          "name:en": "Namibia",
          "name:eo": "Namibio",
          "name:es": "Namibia",
          "name:et": "Namiibia",
          "name:eu": "Namibia",
          "name:fa": "نامیبیا",
          "name:fi": "Namibia",
          "name:fo": "Namibia",
          "name:fr": "Namibie",
          "name:fy": "Namybje",
          "name:ga": "An Namaib",
          "name:gd": "Naimibia",
          "name:gl": "Namibia",
          "name:gn": "Namívia",
          "name:gv": "Yn Nameeb",
          "name:he": "נמיביה",
          "name:hi": "नामीबिया",
          "name:hr": "Namibija",
          "name:ht": "Namibi",
          "name:hu": "Namíbia",
          "name:hy": "Նամիբիա",
          "name:ia": "Namibia",
          "name:id": "Namibia",
          "name:ie": "Namibia",
          "name:io": "Namibia",
          "name:is": "Namibía",
          "name:it": "Namibia",
          "name:ja": "ナミビア",
          "name:jv": "Namibia",
          "name:ka": "ნამიბია",
          "name:kg": "Namibia",
          "name:ki": "Namibia",
          "name:kk": "Намибия",
          "name:kn": "ನಮೀಬಿಯ",
          "name:ko": "나미비아",
          "name:ku": "Namîbya",
          "name:kw": "Namibi",
          "name:la": "Namibia",
          "name:lb": "Namibien",
          "name:li": "Namibië",
          "name:ln": "Namibia",
          "name:lt": "Namibija",
          "name:lv": "Namībija",
          "name:mg": "Namibia",
          "name:mi": "Namīpia",
          "name:mk": "Намибија",
          "name:ml": "നമീബിയ",
          "name:mn": "Намиби",
          "name:mr": "नामिबिया",
          "name:ms": "Namibia",
          "name:mt": "Namibja",
          "name:my": "နမီးဘီးယားနိုင်ငံ",
          "name:nl": "Namibië",
          "name:nn": "Namibia",
          "name:no": "Namibia",
          "name:nv": "Namííbya",
          "name:oc": "Namibia",
          "name:or": "ନାମିବିଆ",
          "name:os": "Намиби",
          "name:pa": "ਨਮੀਬੀਆ",
          "name:pl": "Namibia",
          "name:ps": "نېمبیا",
          "name:pt": "Namíbia",
          "name:qu": "Namiwya",
          "name:rm": "Namibia",
          "name:ro": "Namibia",
          "name:ru": "Намибия",
          "name:rw": "Namibiya",
          "name:sa": "नमीबिया",
          "name:sc": "Namìbia",
          "name:se": "Namibia",
          "name:sg": "Namibùii",
          "name:sh": "Namibija",
          "name:sk": "Namíbia",
          "name:sl": "Namibija",
          "name:sn": "Namibia",
          "name:so": "Nambiya",
          "name:sq": "Namibia",
          "name:sr": "Намибија",
          "name:ss": "INamibiya",
          "name:st": "Namibia",
          "name:su": "Namibia",
          "name:sv": "Namibia",
          "name:sw": "Namibia",
          "name:ta": "நமீபியா",
          "name:te": "నమీబియా",
          "name:tg": "Намибия",
          "name:th": "ประเทศนามิเบีย",
          "name:ti": "ናሚቢያ",
          "name:tk": "Namibiýa",
          "name:tl": "Namibya",
          "name:tn": "Namibia",
          "name:tr": "Namibya",
          "name:ts": "Namibia",
          "name:tt": "Намибия",
          "name:ug": "نامىبىيە",
          "name:uk": "Намібія",
          "name:ur": "نمیبیا",
          "name:uz": "Namibiya",
          "name:ve": "Namibia",
          "name:vi": "Namibia",
          "name:vo": "Namibiyän",
          "name:wo": "Namibi",
          "name:yi": "נאמיביע",
          "name:yo": "Nàmíbíà",
          "name:zh": "纳米比亚 / 納米比亞",
          "name:zu": "INamibhiya",
          "boundary": "administrative",
          "name:ace": "Namibia",
          "name:als": "Namibia",
          "name:ang": "Namibia",
          "name:arz": "ناميبيا",
          "name:ast": "Namibia",
          "name:bar": "Namibia",
          "name:bcl": "Namibya",
          "name:bjn": "Namibia",
          "name:bpy": "নামিবিয়া",
          "name:bxr": "Намиби",
          "name:ceb": "Namibya",
          "name:chy": "Namibia",
          "name:ckb": "نامیبیا",
          "name:crh": "Namibiya",
          "name:diq": "Namibya",
          "name:dsb": "Namibija",
          "name:ext": "Namibia",
          "name:frp": "Namibie",
          "name:gag": "Namibiya",
          "name:hak": "Na̍p-mí-pí-â",
          "name:hif": "Namibia",
          "name:hsb": "Namibija",
          "name:ilo": "Namibia",
          "name:jbo": "namibias",
          "name:kaa": "Namibiya",
          "name:krc": "Намибия",
          "name:lad": "Namibia",
          "name:lij": "Namibia",
          "name:lmo": "Namibia",
          "name:ltg": "Namibeja",
          "name:lzh": "納米比亞",
          "name:min": "Namibia",
          "name:nah": "Namibia",
          "name:nan": "Namibia",
          "name:nds": "Namibia",
          "name:nov": "Namibia",
          "name:nso": "Namibia",
          "name:pam": "Namibia",
          "name:pap": "Namibia",
          "name:pms": "Namibia",
          "name:pnb": "نامیبیا",
          "name:sah": "Намибия",
          "name:scn": "Namibbia",
          "name:sco": "Namibie",
          "name:smn": "Namibia",
          "name:sms": "Namibia",
          "name:stq": "Namibia",
          "name:szl": "Namibijo",
          "name:tzl": "Namibia",
          "name:vec": "Namibia",
          "name:vro": "Namiibia",
          "name:war": "Namibia",
          "name:xal": "Намибмудин Орн",
          "name:yue": "納米比亞",
          "name:zea": "Namibië",
          "timezone": "Africa/Windhoek",
          "way_area": "75.1584",
          "wikidata": "Q1030",
          "ISO3166-1": "NA",
          "wikipedia": "en:Namibia",
          "admin_level": "2",
          "name:simple": "Namibia",
          "driving_side": "left",
          "name:bat-smg": "Namibėjė",
          "name:zh-Hans": "纳米比亚",
          "name:zh-Hant": "納米比亞",
          "name:be-tarask": "Намібія",
          "ISO3166-1:alpha2": "NA",
          "ISO3166-1:alpha3": "NAM",
          "default_language": "en",
          "official_name:cs": "Namibijská republika",
          "official_name:en": "Namibia",
          "official_name:gn": "Tavakuairetã Namívia",
          "official_name:pt": "República da Namíbia",
          "ISO3166-1:numeric": "516",
          "official_name:ckb": "کۆماری نامیبیا"
        }
      },
      "geometry": {
        "type": "Polygon",
        "coordinates": [
          [
            [
              14.5805192,
              -25.2942799
            ],
            [
              14.5832853,
              -25.3313097
            ],
            [
              14.5887799,
              -25.3506212
            ],
            [
              14.5871733,
              -25.3697249
            ],
            [
              14.5900665,
              -25.3999381
            ],
            [
              14.5953634,
              -25.4260541
            ],
            [
              14.6002027,
              -25.4443633
            ],
            [
              14.6069767,
              -25.4625676
            ],
            [
              14.6177643,
              -25.4822142
            ],
            [
              14.61858,
              -25.4913268
            ],
            [
              14.6259903,
              -25.5237381
            ],
            [
              14.6390581,
              -25.5543247
            ],
            [
              14.6311257,
              -25.5785729
            ],
            [
              14.6269731,
              -25.5983892
            ],
            [
              14.6241012,
              -25.6060435
            ],
            [
              14.6173323,
              -25.6546119
            ],
            [
              14.6169245,
              -25.6730895
            ],
            [
              14.6139568,
              -25.6830734
            ],
            [
              14.6116208,
              -25.6982296
            ],
            [
              14.6076517,
              -25.7490525
            ],
            [
              14.6113483,
              -25.7862466
            ],
            [
              14.6225971,
              -25.8221758
            ],
            [
              14.6297069,
              -25.8362853
            ],
            [
              14.6437552,
              -25.859586
            ],
            [
              14.6521642,
              -25.8758743
            ],
            [
              14.6629502,
              -25.8895393
            ],
            [
              14.6711105,
              -25.9044108
            ],
            [
              14.6837563,
              -25.9197049
            ],
            [
              14.6853463,
              -25.9362176
            ],
            [
              14.6893838,
              -25.9565027
            ],
            [
              14.7001905,
              -25.9959947
            ],
            [
              14.701827087795197,
              -26
            ],
            [
              15,
              -26
            ],
            [
              15,
              -25
            ],
            [
              14.593981358961656,
              -25
            ],
            [
              14.5963925,
              -25.0061775
            ],
            [
              14.600154,
              -25.0143975
            ],
            [
              14.6048971,
              -25.0237086
            ],
            [
              14.6256725,
              -25.0584967
            ],
            [
              14.6369404,
              -25.0805814
            ],
            [
              14.63307,
              -25.0906544
            ],
            [
              14.6266874,
              -25.1146154
            ],
            [
              14.623408,
              -25.1312005
            ],
            [
              14.621355,
              -25.1504469
            ],
            [
              14.6086099,
              -25.19207
            ],
            [
              14.6024339,
              -25.2016425
            ],
            [
              14.5888186,
              -25.2354321
            ],
            [
              14.582051,
              -25.2708898
            ],
            [
              14.5805192,
              -25.2942799
            ]
          ]
        ]
      }
    }
  ]
}