{
  "type": "FeatureCollection",
  "features": [
    {
      "type": "Feature",
      "properties": {
        "osm_id": -192758,
        "boundary": "administrative",
        "admin_level": 2,
        "parents": null,
        "name": "Libya",
        "local_name": "ليبيا",
        "name_en": "Libya",
        "all_tags": {
          "flag": "http://upload.wikimedia.org/wikipedia/commons/0/05/Flag_of_Libya.svg",
          "name": "ليبيا",
          "name:af": "Libië",
          "name:am": "ሊቢያ",
          "name:an": "Libia",
          "name:ar": "ليبيا",
          "name:az": "Liviya",
          "name:ba": "Ливия",
          "name:be": "Лівія",
          "name:bg": "Либия",
          "name:bm": "Libya",
          "name:bn": "লিবিয়া",
          "name:bo": "ལི་པི་ཡ།",
          "name:br": "Libia",
          "name:bs": "Libija",
          "name:ca": "Líbia",
          "name:ce": "Ливи",
          "name:cs": "Libye",
          "name:cv": "Ливи",
          "name:cy": "Libya",
          "name:da": "Libyen",
          "name:de": "Libyen",
          "name:dv": "ލީބިޔާ",
          "name:ee": "Libya",
          "name:el": "Λιβύη",
          "name:en": "Libya",
          "name:eo": "Libio",
          "name:es": "Libia",
          "name:et": "Liibüa",
          "name:eu": "Libia",
          "name:fa": "لیبی",
          "name:fi": "Libya",
          "name:fo": "Libya",
          "name:fr": "Libye",
          "name:fy": "Lybje",
          "name:ga": "An Libia",
          "name:gd": "Libia",
          "name:gl": "Libia",
          "name:gn": "Livia",
          "name:gv": "Yn Leeb",
          "name:ha": "Libya",
          "name:he": "לוב",
          "name:hi": "लीबिया",
          "name:hr": "Libija",
          "name:ht": "Libi",
          "name:hu": "Líbia",
          "name:hy": "Լիբիա",
          "name:ia": "Libya",
          "name:id": "Libya",
          "name:ie": "Libya",
          "name:io": "Libia",
          "name:is": "Líbýa",
          "name:it": "Libia",
          "name:ja": "リビア",
          "name:jv": "Libya",
          "name:ka": "ლიბია",
          "name:kg": "Libia",
          "name:kk": "Ливия",
          "name:kl": "Libya",
          "name:kn": "ಲಿಬಿಯಾ",
          "name:ko": "리비아",
          "name:ks": "لِبیا",
          "name:ku": "Lîbya",
          "name:kw": "Libi",
          "name:ky": "Ливия",
          "name:la": "Libya",
          "name:lb": "Libyen",
          "name:li": "Libië",
          "name:ln": "Libîya",
          "name:lt": "Libija",
          "name:lv": "Lībija",
          "name:mg": "Libia",
          "name:mi": "Rīpia",
          "name:mk": "Либија",
          "name:ml": "ലിബിയ",
          "name:mn": "Ливи",
          "name:mr": "लीबिया",
          "name:ms": "Libya",
          "name:mt": "Libja",
          "name:my": "လစ်ဗျားနိုင်ငံ",
          "name:ne": "लिबिया",
          "name:nl": "Libië",
          "name:nn": "Libya",
          "name:no": "Libya",
          "name:nv": "Łíbya",
          "name:oc": "Libia",
          "name:or": "ଲିବିଆ",
          "name:os": "Ливи",
          "name:pa": "ਲੀਬੀਆ",
          "name:pl": "Libia",
          "name:ps": "لېبيا",
          "name:pt": "Líbia",
          "name:qu": "Libya",
          "name:ro": "Libia",
          "name:ru": "Ливия",
          "name:rw": "Libiya",
          "name:sa": "लिबिया",
          "name:sc": "Lìbia",
          "name:se": "Libya",
          "name:sg": "Libïi",
          "name:sh": "Libija",
          "name:si": "ලිබියාව",
          "name:sk": "Líbya",
          "name:sl": "Libija",
          "name:sm": "Libya",
          "name:sn": "Libya",
          "name:so": "Libiya",
          "name:sq": "Libia",
          "name:sr": "Либија",
          "name:ss": "ILibhiya",
          "name:su": "Libya",
          "name:sv": "Libyen",
          "name:sw": "Libya",
          "name:ta": "லிபியா",
          "name:te": "లిబియా",
          "name:tg": "Либия",
          "name:th": "ประเทศลิเบีย",
          "name:ti": "ሊቢያ",
          "name:tk": "Liwiýa",
          "name:tl": "Libya",
          "name:tr": "Libya",
          "name:ts": "Libiya",
          "name:tt": "Ливия",
          "name:ug": "لىۋىيە",
          "name:uk": "Лівія",
          "name:ur": "لیبیا",
          "name:uz": "Liviya",
          "name:vi": "Libya",
          "name:vo": "Lübän",
          "name:wa": "Libeye",
          "name:wo": "Libi",
          "name:yi": "ליביע",
          "name:yo": "Líbyà",
          "name:zh": "利比亚 / 利比亞",
          "name:zu": "ILibiya",
          "boundary": "administrative",
          "name:ace": "Libya",
          "name:als": "Libyen",
          "name:ang": "Libia",
          "name:arc": "ܠܘܒܐ",
          "name:arz": "ليبيا",
          "name:ast": "Libia",
          "name:bar": "Libyen",
          "name:bcl": "Libya",
          "name:ber": "ⵍⵉⴱⵢⴰ",
          "name:bjn": "Libya",
          "name:bpy": "লিবিয়া",
          "name:bug": "Libya",
          "name:bxr": "Ливи",
          "name:ceb": "Libya",
          "name:ckb": "لیبیا",
          "name:cop": "ⲧⲉⲙⲫⲁⲓⲁⲧ",
          "name:crh": "Libiya",
          "name:din": "Libya",
          "name:diq": "Libya",
          "name:dsb": "Libyska",
          "name:ext": "Líbia",
          "name:frp": "Libie",
          "name:frr": "Libyen",
          "name:gag": "Liviya",
          "name:hak": "Libya",
          "name:hif": "Libya",
          "name:hsb": "Libyska",
          "name:ilo": "Libya",
          "name:jbo": "libgu'e",
          "name:kab": "Libya",
          "name:lad": "Libya",
          "name:lij": "Libia",
          "name:lmo": "Libia",
          "name:lzh": "利比亞",
          "name:mdf": "Ливие",
          "name:min": "Libya",
          "name:mrj": "Ливи",
          "name:mzn": "لیبی",
          "name:nah": "Libia",
          "name:nan": "Libya",
          "name:nap": "Libbia",
          "name:nds": "Libyen",
          "name:new": "लिब्या",
          "name:nov": "Libia",
          "name:nso": "Libya",
          "name:pag": "Libia",
          "name:pam": "Libya",
          "name:pap": "Libia",
          "name:pfl": "Libye",
          "name:pih": "Libiia",
          "name:pms": "Libia",
          "name:pnb": "لبیا",
          "name:rue": "Лібія",
          "name:sah": "Лиибийэ",
          "name:scn": "Libbia",
          "name:sco": "Libie",
          "name:smn": "Libya",
          "name:sms": "Libya",
          "name:stq": "Libyen",
          "name:szl": "Libijo",
          "name:tzl": "Libia",
          "name:vec": "Łibia",
          "name:vls": "Libië",
          "name:vro": "Liibüä",
          "name:war": "Libya",
          "name:xal": "Либудин Аһу Социгализмин Араб Улс Орн",
          "name:xmf": "ლიბია",
          "name:yue": "利比亞",
          "name:zea": "Libië",
          "name:zgh": "ⵍⵉⴱⵢⴰ",
          "timezone": "Africa/Tripoli",
          "way_area": "157.672",
          "wikidata": "Q1016",
          "ISO3166-1": "LY",
          "wikipedia": "ar:ليبيا",
          "admin_level": "2",
          "alt_name:vi": "Libi",
          "name:nds-nl": "Libië",
          "name:simple": "Libya",
          "name:bat-smg": "Lėbėjė",
          "name:cbk-zam": "Libya",
          "name:ku-Arab": "لیبیا",
          "name:map-bms": "Libya",
          "name:zh-Hans": "利比亚",
          "name:zh-Hant": "利比亞",
          "official_name": "دولة ليبيا",
          "name:be-tarask": "Лібія",
          "ISO3166-1:alpha2": "LY",
          "ISO3166-1:alpha3": "LBY",
          "default_language": "ar",
          "official_name:ar": "دولة ليبيا",
          "official_name:cs": "Libyjský stát",
          "official_name:fa": "دولت لیبی",
          "official_name:ur": "ریاست لیبیا",
          "ISO3166-1:numeric": "434"
        }
      },
      "geometry": {
        "type": "Polygon",
        "coordinates": [
          [
            [
              14,
              23
            ],
            [
              14.996228130118785,
              23
            ],
            [
              14.9985831,
              23.0012385
            ],
            [
              15,
              23.001874569543798
            ],
            [
              15,
              24
            ],
            [
              14,
              24
            ],
            [
              14,
              23
            ]
          ]
        ]
      }
    },
    {
      "type": "Feature",
      "properties": {
        "osm_id": -192786,
        "boundary": "administrative",
        "admin_level": 2,
        "parents": null,
        "name": "Niger",
        "local_name": "Niger",
        "name_en": "Niger",
        "all_tags": {
          "flag": "http://upload.wikimedia.org/wikipedia/commons/f/f4/Flag_of_Niger.svg",
          "name": "Niger",
          "name:af": "Niger",
          "name:am": "ኒጄር",
          "name:an": "Nícher",
          "name:ar": "النيجر",
          "name:az": "Niger",
          "name:ba": "Нигер",
          "name:be": "Нігер",
          "name:bg": "Нигер",
          "name:bm": "Nijer",
          "name:bn": "নাইজার",
          "name:bo": "ནི་ཇར།",
          "name:br": "Niger",
          "name:bs": "Niger",
          "name:ca": "Níger",
          "name:ce": "Нигер",
          "name:cs": "Niger",
          "name:cy": "Niger",
          "name:da": "Niger",
          "name:de": "Niger",
          "name:dv": "ނީޖަރު",
          "name:ee": "Niger",
          "name:el": "Νίγηρας",
          "name:en": "Niger",
          "name:eo": "Niĝero",
          "name:es": "Níger",
          "name:et": "Niger",
          "name:eu": "Niger",
          "name:fa": "نیجر",
          "name:fi": "Niger",
          "name:fo": "Niger",
          "name:fr": "Niger",
          "name:fy": "Niger",
          "name:ga": "An Nígir",
          "name:gd": "Nìgeir",
          "name:gl": "Níxer",
          "name:gn": "Níher",
          "name:gu": "નાઈજર",
          "name:gv": "Yn Neegeyr",
          "name:ha": "Nijar",
          "name:he": "ניז'ר",
          "name:hi": "नाइजर",
          "name:hr": "Niger",
          "name:ht": "Nijè",
          "name:hu": "Niger",
          "name:hy": "Նիգեր",
          "name:ia": "Niger",
          "name:id": "Niger",
          "name:ie": "Niger",
          "name:ig": "Niger",
          "name:io": "Nijer",
          "name:is": "Níger",
          "name:it": "Niger",
          "name:ja": "ニジェール",
          "name:jv": "Niger",
          "name:ka": "ნიგერი",
          "name:kg": "Nijer",
          "name:kk": "Нигер",
          "name:ko": "니제르",
          "name:ku": "Nîjer",
          "name:kw": "Pow Nijer",
          "name:la": "Nigritania",
          "name:lb": "Niger",
          "name:li": "Niger",
          "name:ln": "Nizer",
          "name:lt": "Nigeris",
          "name:lv": "Nigēra",
          "name:mi": "Ngāika",
          "name:mk": "Нигер",
          "name:ml": "നീഷർ",
          "name:mn": "Нигер",
          "name:mr": "नायजर",
          "name:ms": "Niger",
          "name:mt": "Niġer",
          "name:my": "နိုင်ဂျာနိုင်ငံ",
          "name:nl": "Niger",
          "name:nn": "Niger",
          "name:no": "Niger",
          "name:oc": "Nigèr",
          "name:or": "ନାଇଜର",
          "name:os": "Нигер",
          "name:pa": "ਨਾਈਜਰ",
          "name:pl": "Niger",
          "name:ps": "نایجېر",
          "name:pt": "Níger",
          "name:qu": "Niqir",
          "name:ro": "Niger",
          "name:ru": "Нигер",
          "name:rw": "Nigeri",
          "name:sa": "नीजे",
          "name:sc": "Nixèr",
          "name:se": "Niger",
          "name:sg": "Nizëre",
          "name:sh": "Niger",
          "name:si": "නයිජර්",
          "name:sk": "Niger",
          "name:sl": "Niger",
          "name:sn": "Niger",
          "name:so": "Nayjar",
          "name:sq": "Nigeri",
          "name:sr": "Нигер",
          "name:ss": "INayijari",
          "name:su": "Niger",
          "name:sv": "Niger",
          "name:sw": "Niger",
          "name:ta": "நைஜர்",
          "name:te": "నైజర్",
          "name:tg": "Ниҷер",
          "name:th": "ประเทศไนเจอร์",
          "name:ti": "ናይጀር",
          "name:tk": "Niger",
          "name:tl": "Niyer",
          "name:tr": "Nijer",
          "name:ts": "Niger",
          "name:ug": "نىگېر",
          "name:uk": "Нігер",
          "name:ur": "نائجر",
          "name:uz": "Niger",
          "name:vi": "Niger",
          "name:vo": "Nigerän",
          "name:wo": "Niseer",
          "name:yi": "ניזשער",
          "name:yo": "Nìjẹ̀r",
          "name:zh": "尼日尔 / 尼日",
          "name:zu": "INayighe",
          "boundary": "administrative",
          "name:ace": "Niger",
          "name:als": "Niger",
          "name:arc": "ܢܝܓܪ",
          "name:arz": "نيجر",
          "name:ast": "Níxer",
          "name:bcl": "Niger",
          "name:bjn": "Niger",
          "name:bpy": "নাইজের",
          "name:bxr": "Нигер",
          "name:ceb": "Niger",
          "name:ckb": "نیجەر",
          "name:crh": "Niger",
          "name:din": "Nijer",
          "name:diq": "Nicer",
          "name:dsb": "Niger",
          "name:ext": "Nigi",
          "name:frp": "Nig·èr",
          "name:gag": "Niger",
          "name:hif": "Niger",
          "name:hsb": "Niger",
          "name:ilo": "Niger",
          "name:jbo": "gugdenu'e",
          "name:kab": "Nnijer",
          "name:lij": "Niger",
          "name:lmo": "Niger",
          "name:mrj": "Нигер",
          "name:nah": "Niger",
          "name:nan": "Niger",
          "name:nds": "Niger",
          "name:nov": "Niger",
          "name:nso": "Niger",
          "name:pam": "Niger",
          "name:pih": "Niijir",
          "name:pms": "Nìger",
          "name:pnb": "نائجر",
          "name:rue": "Ніґер",
          "name:sah": "Нигер",
          "name:scn": "Niger",
          "name:sco": "Niger",
          "name:smn": "Niger",
          "name:sms": "Niger",
          "name:stq": "Niger",
          "name:szl": "Ńiger",
          "name:tzl": "Niger",
          "name:vec": "Niger",
          "name:vro": "Niger",
          "name:war": "Niger",
          "name:xal": "Нигермудин Орн",
          "name:yue": "尼日爾",
          "timezone": "Africa/Niamey",
          "way_area": "100.534",
          "wikidata": "Q1032",
          "ISO3166-1": "NE",
          "wikipedia": "fr:Niger",
          "admin_level": "2",
          "alt_name:eo": "Niĝerlando",
          "name:bat-smg": "Nigeris",
          "name:zh-Hans": "尼日尔",
          "name:zh-Hant": "尼日",
          "name:be-tarask": "Нігер",
          "ISO3166-1:alpha2": "NE",
          "ISO3166-1:alpha3": "NER",
          "default_language": "fr",
          "official_name:ar": "جمهورية النيجر",
          "official_name:cs": "Nigerská republika",
          "official_name:de": "Republik Niger",
          "official_name:en": "Republic of Niger",
          "official_name:es": "República del Níger",
          "official_name:fr": "République du Niger",
          "official_name:gn": "Tavakuairetã Níger",
          "official_name:pt": "República do Níger",
          "official_name:ru": "Республика Нигер",
          "ISO3166-1:numeric": "562",
          "official_name:din": "Paankɔc ke Nijer",
          "official_name:nds": "Republiek Niger"
        }
      },
      "geometry": {
        "type": "Polygon",
        "coordinates": [
          [
            [
              14.996228130118785,
              23
            ],
            [
              14.998781901494667,
              23
            ],
            [
              14.9985831,
              23.0012385
            ],
            [
              14.996228130118785,
              23
            ]
          ]
        ]
      }
    },
    {
      "type": "Feature",
      "properties": {
        "osm_id": -2361304,
        "boundary": "administrative",
        "admin_level": 2,
        "parents": null,
        "name": "Chad",
        "local_name": "Tchad تشاد",
        "name_en": "Chad",
        "all_tags": {
          "flag": "http://upload.wikimedia.org/wikipedia/commons/4/4b/Flag_of_Chad.svg",
          "name": "Tchad تشاد",
          "name:af": "Tsjad",
          "name:am": "ቻድ",
          "name:an": "Chad",
          "name:ar": "تشاد",
          "name:az": "Çad",
          "name:ba": "Чад",
          "name:be": "Чад",
          "name:bg": "Чад",
          "name:bm": "Cad",
          "name:bn": "চাদ",
          "name:bo": "ཆཱ་ཌ།",
          "name:br": "Tchad",
          "name:bs": "Čad",
          "name:ca": "Txad",
          "name:ce": "Чад",
          "name:cs": "Čad",
          "name:cv": "Чад",
          "name:cy": "Tchad",
          "name:da": "Tchad",
          "name:de": "Tschad",
          "name:dv": "ޝާދު",
          "name:ee": "Chad",
          "name:el": "Τσαντ",
          "name:en": "Chad",
          "name:eo": "Ĉado",
          "name:es": "Chad",
          "name:et": "Tšaad",
          "name:eu": "Txad",
          "name:fa": "چاد",
          "name:fi": "Tšad",
          "name:fo": "Kjad",
          "name:fr": "Tchad",
          "name:fy": "Tsjaad",
          "name:ga": "Sead",
          "name:gd": "An t-Siad",
          "name:gl": "Chad - Tchad",
          "name:gn": "Cháde",
          "name:gu": "ચૅડ",
          "name:gv": "Shad",
          "name:ha": "Cadi",
          "name:he": "צ'אד",
          "name:hi": "चाड",
          "name:hr": "Čad",
          "name:ht": "Tchad",
          "name:hu": "Csád",
          "name:hy": "Չադ",
          "name:ia": "Tchad",
          "name:id": "Chad",
          "name:ie": "Chad",
          "name:ig": "Chad",
          "name:io": "Chad",
          "name:is": "Tsjad",
          "name:it": "Ciad",
          "name:ja": "チャド",
          "name:jv": "Chad",
          "name:ka": "ჩადი",
          "name:kg": "Tasadi",
          "name:kk": "Чад",
          "name:ko": "차드",
          "name:ku": "Çad",
          "name:kw": "Chad",
          "name:la": "Tzadia",
          "name:lb": "Tschad",
          "name:li": "Tsjaad",
          "name:ln": "Tshadi",
          "name:lt": "Čadas",
          "name:lv": "Čada",
          "name:mi": "Kāta",
          "name:mk": "Чад",
          "name:ml": "ഛാഡ്",
          "name:mr": "चाड",
          "name:ms": "Chad",
          "name:mt": "Ċad",
          "name:my": "ချဒ်သမ္မတနိုင်ငံ",
          "name:na": "Tsiad",
          "name:nl": "Tsjaad",
          "name:nn": "Tsjad",
          "name:no": "Tsjad",
          "name:oc": "Chad",
          "name:or": "ଚାଡ",
          "name:os": "Чад",
          "name:pa": "ਚਾਡ",
          "name:pl": "Czad",
          "name:ps": "چاډ",
          "name:pt": "Chade",
          "name:qu": "Chad",
          "name:rm": "Tschad",
          "name:ro": "Ciad",
          "name:ru": "Чад",
          "name:rw": "Cade",
          "name:sa": "चाड",
          "name:sc": "Chad",
          "name:se": "Chad",
          "name:sg": "Sâde",
          "name:sh": "Čad",
          "name:si": "චෑඩ්",
          "name:sk": "Čad",
          "name:sl": "Čad",
          "name:sn": "Chad",
          "name:so": "Jad",
          "name:sq": "Çadi",
          "name:sr": "Чад",
          "name:ss": "IShedi",
          "name:su": "Chad",
          "name:sv": "Tchad",
          "name:sw": "Chad",
          "name:ta": "சாட்",
          "name:te": "చాద్",
          "name:tg": "Чад",
          "name:th": "ประเทศชาด",
          "name:ti": "ቻድ",
          "name:tk": "Çad",
          "name:tl": "Tsad",
          "name:tr": "Çad",
          "name:ts": "Chad",
          "name:tt": "Чад",
          "name:ug": "چاد",
          "name:uk": "Чад",
          "name:ur": "چاڈ",
          "name:uz": "Chad",
          "name:vi": "Tchad",
          "name:vo": "Tjadän",
          "name:wa": "Tchad",
          "name:wo": "Cadd",
          "name:yi": "טשאד",
          "name:yo": "Tsad",
          "name:zh": "乍得 / 查德",
          "name:zu": "ITshedi",
          "boundary": "administrative",
          "currency": "XAF",
          "name:ace": "Chad",
          "name:als": "Tschad",
          "name:ang": "Cead",
          "name:arc": "ܬܫܐܕ",
          "name:arz": "تشاد",
          "name:ast": "Chad",
          "name:bcl": "Tsad",
          "name:ber": "ⵜⵛⴰⴷ",
          "name:bjn": "Chad",
          "name:bpy": "চাদ",
          "name:bxr": "Чад",
          "name:ceb": "Chad",
          "name:ckb": "چاد",
          "name:crh": "Çad",
          "name:din": "Cad",
          "name:diq": "Çad",
          "name:dsb": "Čad",
          "name:ext": "Chad",
          "name:frp": "Tch·ad",
          "name:gag": "Çad",
          "name:hif": "Chad",
          "name:hsb": "Čad",
          "name:ilo": "Chad",
          "name:jbo": "tcad",
          "name:kaa": "Chad",
          "name:kab": "Ččad",
          "name:lij": "Ciad",
          "name:lmo": "Ciad",
          "name:min": "Chad",
          "name:mrj": "Чад",
          "name:mzn": "چاد",
          "name:nah": "Chad",
          "name:nan": "Tchad",
          "name:nds": "Tschad",
          "name:nov": "Chad",
          "name:nso": "Chad",
          "name:pag": "Jhad",
          "name:pam": "Chad",
          "name:pih": "Chad",
          "name:pms": "Ciad",
          "name:pnb": "چڈ",
          "name:rue": "Чад",
          "name:sah": "Чад",
          "name:scn": "Ciad",
          "name:sco": "Chad",
          "name:smn": "Tšad",
          "name:sms": "Tšaad",
          "name:stq": "Tschad",
          "name:szl": "Czad",
          "name:tet": "Xade",
          "name:tzl": "Tschad",
          "name:vec": "Ciad",
          "name:vro": "Tšaad",
          "name:war": "Chad",
          "name:xal": "Чадигин Орн",
          "name:yue": "乍得",
          "name:zgh": "ⵜⵛⴰⴷ",
          "timezone": "Africa/Ndjamena",
          "way_area": "107.399",
          "wikidata": "Q657",
          "ISO3166-1": "TD",
          "wikipedia": "ar:تشاد",
          "admin_level": "2",
          "name:simple": "Chad",
          "name:bat-smg": "Čads",
          "name:zh-Hans": "乍得",
          "name:zh-Hant": "查德",
          "official_name": "جمهورية تشاد",
          "name:be-tarask": "Чад",
          "ISO3166-1:alpha2": "TD",
          "ISO3166-1:alpha3": "TCD",
          "official_name:ar": "جمهورية تشاد",
          "official_name:cs": "Čadská republika",
          "official_name:en": "Republic of Chad",
          "official_name:es": "República de Chad",
          "official_name:fa": "جمهوری چاد",
          "official_name:fr": "République du Tchad",
          "official_name:gn": "Tavakuairetã Cháde",
          "official_name:ku": "Komara Çad",
          "official_name:pt": "República do Chade",
          "official_name:ru": "Республика Чад",
          "official_name:ur": "جمہوریہ چاڈ",
          "ISO3166-1:numeric": "148",
          "official_name:ckb": "کۆماری چاد",
          "official_name:din": "Paankɔc ke Cad"
        }
      },
      "geometry": {
        "type": "Polygon",
        "coordinates": [
          [
            [
              14.9985831,
              23.0012385
            ],
            [
              14.998781901494667,
              23
            ],
            [
              15,
              23
            ],
            [
              15,
              23.001874569543798
            ],
            [
              14.9985831,
              23.0012385
            ]
          ]
        ]
      }
    }
  ]
}