{
  "type": "FeatureCollection",
  "features": [
    {
      "type": "Feature",
      "properties": {
        "osm_id": -214885,
        "boundary": "administrative",
        "admin_level": 2,
        "parents": null,
        "name": "Croatia",
        "local_name": "Hrvatska",
        "name_en": "Croatia",
        "all_tags": {
          "flag": "https://upload.wikimedia.org/wikipedia/commons/1/1b/Flag_of_Croatia.svg",
          "name": "Hrvatska",
          "name:ab": "Хорватиа",
          "name:af": "Kroasië",
          "name:am": "ክሮኤሽያ",
          "name:an": "Croacia",
          "name:ar": "كرواتيا",
          "name:az": "Xorvatiya",
          "name:ba": "Хорватия",
          "name:be": "Харватыя",
          "name:bg": "Хърватия",
          "name:bi": "Croatia",
          "name:bn": "ক্রোয়েশিয়া",
          "name:bo": "ཁུརོ་ཤི་ཡ།",
          "name:br": "Kroatia",
          "name:bs": "Hrvatska",
          "name:ca": "Cròacia",
          "name:ce": "Хорвати",
          "name:cs": "Chorvatsko",
          "name:cu": "Хръватьска",
          "name:cy": "Croatia",
          "name:da": "Kroatien",
          "name:de": "Kroatien",
          "name:dv": "ކުރޮއޭޝިއާ",
          "name:ee": "Croatia",
          "name:el": "Κροατία",
          "name:en": "Croatia",
          "name:eo": "Kroatio",
          "name:es": "Croacia",
          "name:et": "Horvaatia",
          "name:eu": "Kroazia",
          "name:fa": "کرواسی",
          "name:fi": "Kroatia",
          "name:fo": "Kroatia",
          "name:fr": "Croatie",
          "name:fy": "Kroaasje",
          "name:ga": "An Chróit",
          "name:gd": "Croàisia",
          "name:gl": "Croacia",
          "name:gn": "Kyoasia",
          "name:gu": "ક્રોએશિયા",
          "name:gv": "Yn Chroit",
          "name:he": "קרואטיה",
          "name:hi": "क्रोएशिया",
          "name:hr": "Hrvatska",
          "name:ht": "Kroasi",
          "name:hu": "Horvátország",
          "name:hy": "Խորվաթիա",
          "name:ia": "Croatia",
          "name:id": "Kroasia",
          "name:ie": "Croatia",
          "name:io": "Kroatia",
          "name:is": "Króatía",
          "name:it": "Croazia",
          "name:ja": "クロアチア",
          "name:jv": "Kroasia",
          "name:ka": "ხორვატია",
          "name:kg": "Kroatia",
          "name:kk": "Хорватия",
          "name:kl": "Kroatia",
          "name:kn": "ಕ್ರೊಯೆಶಿಯ",
          "name:ko": "크로아티아",
          "name:ku": "Kroatya",
          "name:kv": "Хорватия",
          "name:kw": "Kroati",
          "name:ky": "Хорватия",
          "name:la": "Croatia",
          "name:lb": "Kroatien",
          "name:li": "Kroatië",
          "name:ln": "Kroasia",
          "name:lt": "Kroatija",
          "name:lv": "Horvātija",
          "name:mi": "Koroātia",
          "name:mk": "Хрватска",
          "name:ml": "ക്രൊയേഷ്യ",
          "name:mn": "Хорват",
          "name:mr": "क्रोएशिया",
          "name:ms": "Croatia",
          "name:mt": "Kroazja",
          "name:my": "ခရိုအေးရှားနိုင်ငံ",
          "name:na": "Kroaitsiya",
          "name:ne": "क्रोएशिया",
          "name:nl": "Kroatië",
          "name:nn": "Kroatia",
          "name:no": "Kroatia",
          "name:nv": "Kwóóʼad Bikéyah",
          "name:oc": "Croàcia",
          "name:or": "କ୍ରୋଏସିଆ",
          "name:os": "Хорвати",
          "name:pa": "ਕ੍ਰੋਏਸ਼ੀਆ",
          "name:pl": "Chorwacja",
          "name:ps": "کروواسيا",
          "name:pt": "Croácia",
          "name:qu": "Hurwatsuyu",
          "name:rn": "Croacia",
          "name:ro": "Croația",
          "name:ru": "Хорватия",
          "name:rw": "Korowatiya",
          "name:sa": "क्रोएशिया",
          "name:sc": "Croatzia",
          "name:se": "Kroatia",
          "name:sg": "Kroasïi",
          "name:sh": "Hrvatska",
          "name:sk": "Chorvátsko",
          "name:sl": "Hrvaška",
          "name:sm": "Croatia",
          "name:so": "Kroatia",
          "name:sq": "Kroacia",
          "name:sr": "Хрватска",
          "name:ss": "IKhuroshiya",
          "name:st": "Kroatia",
          "name:su": "Kroasia",
          "name:sv": "Kroatien",
          "name:sw": "Kroatia",
          "name:ta": "குரோவாசியா",
          "name:te": "క్రొయేషియా",
          "name:tg": "Хорватия",
          "name:th": "ประเทศโครเอเชีย",
          "name:tk": "Horwatiýa",
          "name:tl": "Kroasya",
          "name:tr": "Hırvatistan",
          "name:tt": "Хорватия",
          "name:ug": "كرودىيە",
          "name:uk": "Хорватія",
          "name:ur": "کروشیا",
          "name:uz": "Xorvatiya",
          "name:vi": "Croatia",
          "name:vo": "Kroasän",
          "name:wa": "Crowaceye",
          "name:wo": "Korwaasi",
          "name:yi": "קראאטיע",
          "name:yo": "Kroatíà",
          "name:za": "Gwzlozdiya",
          "name:zh": "克羅地亞",
          "boundary": "administrative",
          "int_name": "Croatia",
          "name:ace": "Kroasia",
          "name:als": "Kroatien",
          "name:ang": "Croatia",
          "name:arc": "ܩܪܘܐܛܝܐ",
          "name:arz": "كرواتيا",
          "name:ast": "Croacia",
          "name:bar": "Krowozien",
          "name:bpy": "ক্রোয়েশিয়া",
          "name:bxr": "Хорват",
          "name:ceb": "Krowasya",
          "name:chy": "Croatia",
          "name:ckb": "کرواتیا",
          "name:crh": "Hırvatistan",
          "name:csb": "Chòrwackô",
          "name:diq": "Xırvatıstan",
          "name:dsb": "Chorwatska",
          "name:ext": "Croacia",
          "name:frp": "Croacie",
          "name:frr": "Kroatien",
          "name:fur": "Cravuazie",
          "name:gag": "Horvatiya",
          "name:hak": "Khiet-lò-thi-â",
          "name:haw": "Koloatia",
          "name:hif": "Croatia",
          "name:hsb": "Chorwatska",
          "name:ilo": "Kroásia",
          "name:jbo": "xrvatskas",
          "name:kaa": "Xorvatiya",
          "name:kbd": "Хоруатиэ",
          "name:koi": "Хӧрватска",
          "name:krc": "Хорватия",
          "name:lij": "Croaçia",
          "name:lmo": "Cruazia",
          "name:ltg": "Horvateja",
          "name:mdf": "Хорватие",
          "name:mhr": "Хорватий",
          "name:min": "Kroasia",
          "name:nah": "Croacia",
          "name:nan": "Hrvatska",
          "name:nap": "Croazia",
          "name:nds": "Kroatien",
          "name:new": "क्रोएसिया",
          "name:nov": "Kroatia",
          "name:pag": "Kroasiya",
          "name:pam": "Croasya",
          "name:pap": "Kroatia",
          "name:pcd": "Croachie",
          "name:pdc": "Kroaati",
          "name:pih": "Kroaysha",
          "name:pms": "Croassia",
          "name:pnb": "کروشیا",
          "name:pnt": "Κροατία",
          "name:rue": "Хорватія",
          "name:sah": "Хорватия",
          "name:scn": "Croazzia",
          "name:sco": "Croatie",
          "name:smn": "Kroatia",
          "name:sms": "Kroatia",
          "name:stq": "Kroatien",
          "name:szl": "Chorwacyjŏ",
          "name:tpi": "Krowesia",
          "name:tzl": "C'horvoiça",
          "name:udm": "Хорватия",
          "name:vec": "Croàsia",
          "name:vep": "Horvatii",
          "name:vls": "Kroatië",
          "name:vro": "Horvaatia",
          "name:war": "Kroasya",
          "name:wuu": "克罗地亚",
          "name:xal": "Хорватин Орн",
          "name:xmf": "ხორვატია",
          "name:yue": "克羅地亞",
          "name:zea": "Kroaotië",
          "timezone": "Europe/Zagreb",
          "way_area": "9.98241",
          "wikidata": "Q224",
          "ISO3166-1": "HR",
          "wikipedia": "hr:Hrvatska",
          "population": "3871833",
          "ref:nuts:1": "HR0",
          "admin_level": "2",
          "alt_name:eo": "Kroatujo",
          "name:nds-nl": "Kroasië",
          "driving_side": "right",
          "name:bat-smg": "Kruoatėjė",
          "name:roa-rup": "Croatia",
          "name:sr-Latn": "Hrvatska",
          "name:zh-Hans": "克罗地亚",
          "name:zh-Hant": "克羅地亞",
          "name:roa-tara": "Croazie",
          "official_name": "Republika Hrvatska",
          "name:be-tarask": "Харватыя",
          "population:date": "2021-08-31",
          "ISO3166-1:alpha2": "HR",
          "ISO3166-1:alpha3": "HRV",
          "default_language": "hr",
          "official_name:cs": "Chorvatská republika",
          "official_name:el": "Δημοκρατία της Κροατίας",
          "official_name:eo": "Respubliko Kroatio",
          "official_name:zh": "克罗地亚共和国",
          "ISO3166-1:numeric": "191",
          "official_name:zh-Hans": "克罗地亚共和国",
          "official_name:zh-Hant": "克羅地亞共和國"
        }
      },
      "geometry": {
        "type": "Polygon",
        "coordinates": [
          [
            [
              14,
              44.41916521101979
            ],
            [
              14.1277671,
              44.3424471
            ],
            [
              14.2727609,
              44.2603464
            ],
            [
              14.4020927,
              44.1866645
            ],
            [
              14.557749,
              44.062124
            ],
            [
              14.6226173,
              44.0082169
            ],
            [
              14.634582422590022,
              44
            ],
            [
              15,
              44
            ],
            [
              15,
              45
            ],
            [
              14,
              45
            ],
            [
              14,
              44.41916521101979
            ]
          ]
        ]
      }
    }
  ]
}