{
  "type": "FeatureCollection",
  "features": [
    {
      "type": "Feature",
      "properties": {
        "osm_id": -252645,
        "boundary": "administrative",
        "admin_level": 2,
        "parents": null,
        "name": "Bolivia",
        "local_name": "Bolivia",
        "name_en": "Bolivia",
        "all_tags": {
          "flag": "http://upload.wikimedia.org/wikipedia/commons/4/48/Flag_of_Bolivia.svg",
          "name": "Bolivia",
          "name:ab": "Ğ‘Ğ¾Ğ»Ğ¸ÌĞ²Ğ¸Ğ°",
          "name:af": "BoliviÃ«",
          "name:am": "á‰¦áˆŠá‰ªá‹«",
          "name:an": "Bolivia",
          "name:ar": "Ø¨ÙˆÙ„ÙŠÙÙŠØ§",
          "name:ay": "Wuliwya",
          "name:az": "Boliviya",
          "name:ba": "Ğ‘Ğ¾Ğ»Ğ¸Ğ²Ğ¸Ñ",
          "name:be": "Ğ‘Ğ°Ğ»Ñ–ÌĞ²Ñ–Ñ",
          "name:bg": "Ğ‘Ğ¾Ğ»Ğ¸Ğ²Ğ¸Ñ",
          "name:bh": "à¤¬à¥‹à¤²à¥€à¤µà¤¿à¤¯à¤¾",
          "name:bi": "Bolivia",
          "name:bm": "Bolivia",
          "name:bn": "à¦¬à¦²à¦¿à¦­à¦¿à¦¯à¦¼à¦¾",
          "name:bo": "à½–à¾·à½¼à¼‹à½£à½²à¼‹à½à½²à¼‹à½¡à¼",
          "name:br": "Bolivia",
          "name:bs": "Bolivija",
          "name:ca": "BolÃ­via",
          "name:ce": "Ğ‘Ğ¾Ğ»Ğ¸Ğ²Ğ¸",
          "name:co": "Bolivia",
          "name:cs": "BolÃ­vie",
          "name:cv": "Ğ‘Ğ¾Ğ»Ğ¸Ğ²Ğ¸",
          "name:cy": "Bolifia",
          "name:da": "Bolivia",
          "name:de": "Bolivien",
          "name:dv": "Ş„Ş®ŞŞ©ŞˆŞ¨Ş‡Ş§",
          "name:dz": "à½–à½¼à¼‹à½£à½²à¼‹à½à½²à½¡",
          "name:ee": "Bolivia",
          "name:el": "Î’Î¿Î»Î¹Î²Î¯Î±",
          "name:en": "Bolivia",
          "name:eo": "Bolivio",
          "name:es": "Bolivia",
          "name:et": "Boliivia",
          "name:eu": "Bolivia",
          "name:fa": "Ø¨ÙˆÙ„ÛŒÙˆÛŒ",
          "name:ff": "Boliwii",
          "name:fi": "Bolivia",
          "name:fo": "Bolivia",
          "name:fr": "Bolivie",
          "name:fy": "Bolivia",
          "name:ga": "an Bholaiv",
          "name:gd": "Boilibhia",
          "name:gl": "Bolivia",
          "name:gn": "VolÃ­via",
          "name:gu": "àª¬à«‹àª²à«€àªµàª¿àª¯àª¾",
          "name:gv": "yn Volivia",
          "name:ha": "Bolibiya",
          "name:he": "×‘×•×œ×™×‘×™×”",
          "name:hi": "à¤¬à¥‹à¤²à¤¿à¤µà¤¿à¤¯à¤¾",
          "name:hr": "Bolivija",
          "name:ht": "Bolivi",
          "name:hu": "BolÃ­via",
          "name:hy": "Ô²Õ¸Õ¬Õ«Õ¾Õ«Õ¡Õ¶",
          "name:ia": "Bolivia",
          "name:id": "Bolivia",
          "name:ie": "Bolivia",
          "name:ig": "Bolivia",
          "name:io": "Bolivia",
          "name:is": "BÃ³livÃ­a",
          "name:it": "Bolivia",
          "name:ja": "ãƒœãƒªãƒ“ã‚¢",
          "name:jv": "Bolivia",
          "name:ka": "áƒ‘áƒáƒšáƒ˜áƒ•áƒ˜áƒ",
          "name:kg": "Bolivia",
          "name:ki": "Bolivia",
          "name:kk": "Ğ‘Ğ¾Ğ»Ğ¸ÌĞ²Ğ¸Ñ",
          "name:kl": "Bolivia",
          "name:km": "á”á¼á›á¸áœá¸",
          "name:kn": "à²¬à³Šà²²à²¿à²µà²¿à²¯",
          "name:ko": "ë³¼ë¦¬ë¹„ì•„",
          "name:ks": "Ø¨ÙˆÙ„ÙÙˆÙÛŒØ§",
          "name:ku": "BolÃ®vya",
          "name:kw": "Bolivi",
          "name:ky": "Ğ‘Ğ¾Ğ»Ğ¸Ğ²Ğ¸Ñ",
          "name:la": "Bolivia",
          "name:lb": "Bolivien",
          "name:lg": "Boliviya",
          "name:li": "Bolivia",
          "name:ln": "Bolivia",
          "name:lo": "à»‚àºšàº¥àºµàº§àºµ",
          "name:lt": "Bolivija",
          "name:lv": "BolÄ«vija",
          "name:mg": "Bolivia",
          "name:mi": "Poriwia",
          "name:mk": "Ğ‘Ğ¾Ğ»Ğ¸Ğ²Ğ¸Ñ˜Ğ°",
          "name:ml": "à´¬àµŠà´³àµ€à´µà´¿à´¯",
          "name:mn": "Ğ‘Ğ¾Ğ»Ğ¸Ğ²Ğ¸",
          "name:mr": "à¤¬à¥‹à¤²à¤¿à¤µà¥à¤¹à¤¿à¤¯à¤¾",
          "name:ms": "Bolivia",
          "name:mt": "Bolivja",
          "name:my": "á€˜á€­á€¯á€œá€®á€¸á€—á€®á€¸á€šá€¬á€¸á€”á€­á€¯á€„á€ºá€„á€¶",
          "name:na": "Boribiya",
          "name:ne": "à¤¬à¥‹à¤²à¤¿à¤­à¤¿à¤¯à¤¾",
          "name:nl": "Bolivia",
          "name:nn": "Bolivia",
          "name:no": "Bolivia",
          "name:nv": "BolÃ­biya",
          "name:oc": "BolÃ­via",
          "name:om": "Boliiviyaa",
          "name:or": "à¬¬à­‹à¬²à¬¿à¬­à¬¿à¬†",
          "name:os": "Ğ‘Ğ¾Ğ»Ğ¸Ğ²Ğ¸",
          "name:pa": "à¨¬à©‹à¨²à©€à¨µà©€à¨†",
          "name:pi": "à¤¬à¥‹à¤²à¤¿à¤µà¤¿à¤¯à¤¾",
          "name:pl": "Boliwia",
          "name:ps": "Ø¨ÙˆÙ„ÛÙˆÛŒØ§",
          "name:pt": "BolÃ­via",
          "name:qu": "Wuliwiya",
          "name:rm": "Bolivia",
          "name:rn": "Boliviya",
          "name:ro": "Bolivia",
          "name:ru": "Ğ‘Ğ¾Ğ»Ğ¸Ğ²Ğ¸Ñ",
          "name:rw": "Boliviya",
          "name:sa": "à¤¬à¥‹à¤²à¤¿à¤µà¤¿à¤¯à¤¾",
          "name:sc": "BolÃ¬via",
          "name:se": "Bolivia",
          "name:sg": "BolivÃ¯i",
          "name:sh": "Bolivija",
          "name:si": "à¶¶à·œà¶½à·“à·€à·’à¶ºà·à·€",
          "name:sk": "BolÃ­via",
          "name:sl": "Bolivija",
          "name:sm": "Polevia",
          "name:sn": "Bolivia",
          "name:so": "Boliifia",
          "name:sq": "Bolivia",
          "name:sr": "Ğ‘Ğ¾Ğ»Ğ¸Ğ²Ğ¸Ñ˜Ğ°",
          "name:ss": "IBholiviya",
          "name:su": "Bolivia",
          "name:sv": "Bolivia",
          "name:sw": "Bolivia",
          "name:ta": "à®ªà¯Šà®²à®¿à®µà®¿à®¯à®¾",
          "name:te": "à°¬à±Šà°²à±€à°µà°¿à°¯à°¾",
          "name:tg": "Ğ‘Ğ¾Ğ»Ğ¸Ğ²Ğ¸Ñ",
          "name:th": "à¹‚à¸šà¸¥à¸´à¹€à¸§à¸µà¸¢",
          "name:ti": "á‰¦áˆŠá‰ªá‹«",
          "name:tk": "BoliwiÃ½a",
          "name:tl": "Bolivia",
          "name:to": "PolÄ«via",
          "name:tr": "Bolivya",
          "name:tt": "Ğ‘Ğ¾Ğ»Ğ¸ÌĞ²Ğ¸Ñ",
          "name:ug": "Ø¨ÙˆÙ„Ù‰Û‹Ù‰ÙŠÛ•",
          "name:uk": "Ğ‘Ğ¾Ğ»Ñ–ÌĞ²Ñ–Ñ",
          "name:ur": "Ø¨ÙˆÙ„ÛŒÙˆÛŒØ§",
          "name:uz": "Boliviya",
          "name:vi": "Bolivia",
          "name:vo": "BolivÃ¤n",
          "name:wa": "Boliveye",
          "name:wo": "Boliibi",
          "name:yi": "×‘××œ×™×•×•×™×¢",
          "name:yo": "BÃ²lÃ­fÃ­Ã ",
          "name:za": "Bolivia",
          "name:zh": "ç»åˆ©ç»´äºš / ç»åˆ©ç¶­äº",
          "name:zu": "i-Bolivia",
          "boundary": "administrative",
          "currency": "BOB",
          "int_name": "Bolivia",
          "name:ace": "Bolivia",
          "name:ady": "Ğ‘Ğ¾Ğ»Ğ¸Ğ²Ğ¸Ğµ",
          "name:als": "Bolivie",
          "name:ang": "Bolifia",
          "name:arz": "Ø¨ÙˆÙ„ÙŠÙÙŠØ§",
          "name:ast": "Bolivia",
          "name:azb": "Ø¨ÙˆÙ„ÛŒÙˆÛŒ",
          "name:bar": "Bolivien",
          "name:bcl": "Bolibya",
          "name:bpy": "à¦¬à¦²à¦¿à¦­à¦¿à¦¯à¦¼à¦¾",
          "name:bxr": "Ğ‘Ğ¾Ğ»Ğ¸Ğ²Ğ¸",
          "name:cdo": "Bolivia",
          "name:ceb": "Bolivia",
          "name:chr": "á‰áµá«á ",
          "name:ckb": "Ø¨Û†Ù„ÛŒÚ¤ÛŒØ§",
          "name:crh": "Boliviya",
          "name:diq": "Bolivya",
          "name:dsb": "Boliwiska",
          "name:dty": "à¤¬à¥‹à¤²à¤¿à¤­à¤¿à¤¯à¤¾",
          "name:ext": "BolÃ­via",
          "name:frp": "Bolivie",
          "name:frr": "Boliiwien",
          "name:fur": "Bolivie",
          "name:gag": "Boliviya",
          "name:gom": "à¤¬à¥‹à¤²à¤¿à¤µà¥à¤¹à¤¿à¤¯à¤¾",
          "name:hak": "PÃ´-li-vÃ¬-Ã¢",
          "name:hif": "Bolivia",
          "name:hsb": "Boliwiska",
          "name:ilo": "Bolivia",
          "name:jam": "Bolivia",
          "name:jbo": "bolivias",
          "name:kaa": "Boliviya",
          "name:kab": "Bolivia",
          "name:kbp": "Polivii",
          "name:krc": "Ğ‘Ğ¾Ğ»Ğ¸ÌĞ²Ğ¸Ñ",
          "name:ksh": "Bolliivije",
          "name:lad": "Bolivia",
          "name:lez": "Ğ‘Ğ¾Ğ»Ğ¸ÌĞ²Ğ¸Ñ",
          "name:lij": "Bolivia",
          "name:lmo": "Bulivia",
          "name:lrc": "Ø¨ÙˆÙ™Ù„ÛŒÚ¤ÛŒ",
          "name:ltg": "Boliveja",
          "name:lzh": "ç»åˆ©ç¶­äº",
          "name:mhr": "Ğ‘Ğ¾Ğ»Ğ¸Ğ²Ğ¸Ğ¹",
          "name:mrj": "Ğ‘Ğ¾Ğ»Ğ¸Ğ²Ğ¸",
          "name:mwl": "BolÃ­bia",
          "name:mzn": "Ø¨ÙˆÙ„ÛŒÙˆÛŒ",
          "name:nah": "Bolivia",
          "name:nan": "Bolivia",
          "name:nap": "Bolivia",
          "name:nds": "Bolivien",
          "name:new": "à¤¬à¥‹à¤²à¤¿à¤­à¤¿à¤¯à¤¾",
          "name:nov": "Bolivia",
          "name:olo": "Bolivii",
          "name:pam": "Bolivia",
          "name:pap": "Bolivia",
          "name:pfl": "Bolivje",
          "name:pih": "Boliwya",
          "name:pms": "Bolivia",
          "name:pnb": "Ø¨ÙˆÙ„ÛŒÙˆÛŒØ§",
          "name:rmy": "Boliviya",
          "name:rue": "Ğ‘Ğ¾Ğ»Ñ–ÌĞ²Ñ–Ñ",
          "name:sah": "Ğ‘Ğ¾Ğ»Ğ¸Ğ²Ğ¸Ñ",
          "name:scn": "Bolivia",
          "name:sco": "Bolivie",
          "name:smn": "Bolivia",
          "name:sms": "Bolivia",
          "name:stq": "Bolivien",
          "name:szl": "BoliwijÅ",
          "name:tet": "BolÃ­via",
          "name:tpi": "Bolivia",
          "name:tzl": "Bolivia",
          "name:vec": "BoÅ‚ivia",
          "name:vep": "Bolivii",
          "name:vro": "Boliivia",
          "name:war": "Bolivia",
          "name:wuu": "ç»åˆ©ç»´äºš",
          "name:xal": "Ğ‘Ğ¾Ğ»Ğ¸Ğ²Ğ¼ÑƒĞ´Ğ¸Ğ½",
          "name:xmf": "áƒ‘áƒáƒšáƒ˜áƒ•áƒ˜áƒ",
          "name:yue": "ç»åˆ©ç¶­äº",
          "name:zea": "Bolivia",
          "timezone": "America/La_Paz",
          "way_area": "91.9409",
          "wikidata": "Q750",
          "ISO3166-1": "BO",
          "wikipedia": "es:Bolivia",
          "admin_level": "2",
          "alt_name:bo": "à½–à½¼à¼‹à½£à½²à¼‹à½–à½²à¼‹à½¡",
          "alt_name:gd": "Bolibhia",
          "alt_name:nl": "BoliviÃ«",
          "name:simple": "Bolivia",
          "old_name:am": "á‹¨á‰¦áˆŠá‰ªá‹« áˆªáá‰¥áˆŠáŠ­",
          "old_name:ca": "RepÃºblica de BolÃ­via",
          "old_name:si": "à¶¶à·œà¶½à·“à·€à·’à¶ºà·à¶±à·” à¶»à·à¶¢à·Šâ€à¶º",
          "alt_name:new": "à¤¬à¥à¤²à¤¿à¤¬à¥à¤¯à¤¾",
          "name:bat-smg": "BuolÄ—vÄ—jÄ—",
          "name:cbk-zam": "Bolivia",
          "name:zh-Hans": "ç»åˆ©ç»´äºš",
          "name:zh-Hant": "ç»åˆ©ç¶­äº",
          "official_name": "Estado Plurinacional de Bolivia",
          "old_name:1825": "RepÃºblica de BolÃ­var",
          "name:be-tarask": "Ğ‘Ğ°Ğ»Ñ–Ğ²Ñ–Ñ",
          "ISO3166-1:alpha2": "BO",
          "ISO3166-1:alpha3": "BOL",
          "official_name:ab": "Ğ Ğ°Ñ†Ó™Ğ°Ğ½Ñ‹ ĞĞ¼Ğ¸Ğ»Ğ°Ò­Ò›Ó™Ğ° Ñ€Ò³Ó™Ñ‹Ğ½Ò­Ò›Ğ°Ñ€Ñ€Ğ° Ğ‘Ğ¾Ğ»Ğ¸Ğ²Ğ¸Ğ°",
          "official_name:af": "Plurinasionale Staat van BoliviÃ«",
          "official_name:am": "á‹¨á‰¦áˆŠá‰ªá‹« á‰¥á‹™-á‰¥áˆ”áˆ®á‰½ áˆªáá‰¥áˆŠáŠ­",
          "official_name:an": "Estato Plurinacional de Bolivia",
          "official_name:ar": "Ø¯ÙˆÙ„Ø© Ø¨ÙˆÙ„ÙŠÙÙŠØ§",
          "official_name:ay": "Wuliwya Suyu",
          "official_name:ba": "ĞšÒ¯Ğ¿ ĞœĞ¸Ğ»Ğ»Ó™Ñ‚Ğ»Ğµ Ğ‘Ğ¾Ğ»Ğ¸Ğ²Ğ¸Ñ Ğ”Ó™Ò¯Ğ»Ó™Ñ‚Ğµ",
          "official_name:be": "Ğ¨Ğ¼Ğ°Ñ‚Ğ½Ğ°Ñ†Ñ‹ÑĞ½Ğ°ÌĞ»ÑŒĞ½Ğ°Ñ Ğ”Ğ·ÑÑ€Ğ¶Ğ°ÌĞ²Ğ° Ğ‘Ğ°Ğ»Ñ–ÌĞ²Ñ–Ñ",
          "official_name:bg": "ĞœĞ½Ğ¾Ğ³Ğ¾Ğ½Ğ°Ñ†Ğ¸Ğ¾Ğ½Ğ°Ğ»Ğ½Ğ° Ğ´ÑŠÑ€Ğ¶Ğ°Ğ²Ğ° Ğ‘Ğ¾Ğ»Ğ¸Ğ²Ğ¸Ñ",
          "official_name:bm": "Bolivia ka Mantocaman Jamana",
          "official_name:br": "Stad Liesvroadel Bolivia",
          "official_name:ca": "Estat Plurinacional de BolÃ­via",
          "official_name:cs": "MnohonÃ¡rodnostnÃ­ stÃ¡t BolÃ­vie",
          "official_name:da": "Den Flernationale Stat Bolivia",
          "official_name:de": "Plurinationaler Staat Bolivien",
          "official_name:el": "Î Î¿Î»Ï…ÎµÎ¸Î½Î¿Ï„Î¹ÎºÏŒ ÎšÏÎ¬Ï„Î¿Ï‚ Ï„Î·Ï‚ Î’Î¿Î»Î¹Î²Î¯Î±Ï‚",
          "official_name:en": "Plurinational State of Bolivia",
          "official_name:es": "Estado Plurinacional de Bolivia",
          "official_name:et": "Boliivia Paljurahvuseline Riik",
          "official_name:eu": "Boliviako Estatu Plurinazionala",
          "official_name:fi": "Bolivian monikansainen valtio",
          "official_name:fr": "Ã‰tat plurinational de Bolivie",
          "official_name:gl": "Estado Plurinacional de Bolivia",
          "official_name:gn": "TetÃ£ HetÃ£voregua VolÃ­via",
          "official_name:gu": "àªªà«àª²à«àª°à«€àª¨à«‡àª¶àª¨àª² àª¸à«àªŸà«‡àªŸ àª“àª« àª¬à«‹àª²àª¿àªµàª¿àª¯àª¾",
          "official_name:he": "×”××“×™× ×” ×”×¨×‘-×œ××•××™×ª ×©×œ ×‘×•×œ×™×‘×™×”",
          "official_name:hr": "ViÅ¡enacionalna DrÅ¾ava Bolivija",
          "official_name:hu": "BolÃ­viai TÃ¶bbnemzetisÃ©gÅ± Ãllam",
          "official_name:ia": "Stato Plurinational de Bolivia",
          "official_name:id": "Negara Plurinasional Bolivia",
          "official_name:is": "FjÃ¶lÃ¾jÃ³Ã°arÃ­kiÃ° BÃ³livÃ­a",
          "official_name:it": "Stato Plurinazionale della Bolivia",
          "official_name:ja": "ãƒœãƒªãƒ“ã‚¢å¤šæ°‘æ—å›½",
          "official_name:ka": "áƒ‘áƒáƒšáƒ˜áƒ•áƒ˜áƒ˜áƒ¡ áƒ›áƒ áƒáƒ•áƒáƒšáƒ”áƒ áƒáƒ•áƒáƒœáƒ˜ áƒ¡áƒáƒ®áƒ”áƒšáƒ›áƒ¬áƒ˜áƒ¤áƒ",
          "official_name:kk": "ĞšÓ©Ğ¿Ò±Ğ»Ñ‚Ñ‚Ñ‹ Ğ‘Ğ¾Ğ»Ğ¸ÌĞ²Ğ¸Ñ Ğ¼ĞµĞ¼Ğ»ĞµĞºĞµÑ‚Ñ–",
          "official_name:ko": "ë³¼ë¦¬ë¹„ì•„ ë‹¤ë¯¼ì¡±êµ­",
          "official_name:ku": "Dewleta PirneteweyÃ® yÃªn BolÃ®vyayÃª",
          "official_name:li": "Estado Plurinacional de Bolvia",
          "official_name:lo": "àº¥àº±àº”àºàº°àº«àº¸àºŠàº»àº™àºŠàº²àº”à»àº«à»ˆàº‡à»‚àºšàº¥àºµàº§àºµ",
          "official_name:lt": "Bolivijos DaugiatautÄ— ValstybÄ—",
          "official_name:lv": "BolÄ«vijas DaudznacionÄlÄ Valsts",
          "official_name:mi": "Te Whenua o ngÄ Iwi Maha o Poriwia",
          "official_name:mk": "ĞŸĞ¾Ğ²ĞµÑœĞµĞ½Ğ°Ñ†Ğ¸Ğ¾Ğ½Ğ°Ğ»Ğ½Ğ° Ğ”Ñ€Ğ¶Ğ°Ğ²Ğ° Ğ‘Ğ¾Ğ»Ğ¸Ğ²Ğ¸Ñ˜Ğ°",
          "official_name:mn": "Ğ‘Ğ¾Ğ»Ğ¸Ğ²Ğ¸Ğ¹Ğ½ ĞĞ»Ğ¾Ğ½ Ò®Ğ½Ğ´ÑÑÑ‚Ğ½Ğ¸Ğ¹ Ğ£Ğ»Ñ",
          "official_name:mt": "Istat Plurinazzjonali tal-Bolivja",
          "official_name:nl": "Plurinationale Staat Bolivia",
          "official_name:nv": "AÅ‚hidadiikÊ¼Ä…Ì DineÊ¼Ã© BikÃ©yah",
          "official_name:oc": "Estat Plurinacionau de BolÃ­via",
          "official_name:pa": "à¨¬à©‹à¨²à©€à¨µà©€à¨† à¨¦à¨¾ à¨¬à¨¹à©-à¨•à©Œà¨®à©€ à¨®à©à¨²à¨•",
          "official_name:pl": "Wielonarodowe PaÅ„stwo Boliwia",
          "official_name:pt": "Estado Plurinacional da BolÃ­via",
          "official_name:qu": "Wuliwiya Achka aylluska Mama Llaqta",
          "official_name:ro": "Statul PlurinaÈ›ional al Boliviei",
          "official_name:ru": "ĞœĞ½Ğ¾Ğ³Ğ¾Ğ½Ğ°Ñ†Ğ¸Ğ¾Ğ½Ğ°Ğ»ÑŒĞ½Ğ¾Ğµ Ğ“Ğ¾ÑÑƒĞ´Ğ°Ñ€ÑÑ‚Ğ²Ğ¾ Ğ‘Ğ¾Ğ»Ğ¸Ğ²Ğ¸Ñ",
          "official_name:se": "Bolivia dÃ¡ssevÃ¡ldi",
          "official_name:si": "à¶¶à·œà¶½à·’à·€à·’à¶ºà· à¶¶à·„à·”à¶¢à·à¶­à·“à¶º à¶»à·à¶¢à·Šà¶ºà¶º",
          "official_name:sk": "BolÃ­vijskÃ½ mnohonÃ¡rodnÃ½ Å¡tÃ¡t",
          "official_name:sl": "Plurinacionalna drÅ¾ava Bolivija",
          "official_name:sm": "Malo Plurinational o Polevia",
          "official_name:sq": "Shteti ShumÃ«kombÃ«sh i BolivisÃ«",
          "official_name:sr": "Ğ’Ğ¸ÑˆĞµĞ½Ğ°Ñ†Ğ¸Ğ¾Ğ½Ğ°Ğ»Ğ½Ğ° Ğ”Ñ€Ğ¶Ğ°Ğ²Ğ° Ğ‘Ğ¾Ğ»Ğ¸Ğ²Ğ¸Ñ˜Ğ°",
          "official_name:su": "Nagara Multibangsa Bolivia",
          "official_name:sv": "MÃ¥ngnationella staten Bolivia",
          "official_name:ta": "à®ªà¯Šà®²à®¿à®µà®¿à®¯à®¾ à®•à¯à®Ÿà®¿à®¯à®°à®šà¯",
          "official_name:te": "à°¬à±Šà°²à±€à°µà°¿à°¯à°¾ à°—à°£à°¤à°‚à°¤à±à°°à°‚",
          "official_name:th": "à¸£à¸±à¸à¸à¸«à¸¸à¸Šà¸™à¸Šà¸²à¸•à¸´à¹à¸«à¹ˆà¸‡à¹‚à¸šà¸¥à¸´à¹€à¸§à¸µà¸¢",
          "official_name:tk": "KÃ¶pmilletli BoliwiÃ½a DÃ¶wleti",
          "official_name:tl": "Estadong Plurinasyunal ng Bolivia",
          "official_name:tr": "Bolivya Ã‡okuluslu Devleti",
          "official_name:tt": "ĞšÒ¯Ğ¿Ğ¼Ğ¸Ğ»Ğ»Ó™Ñ‚Ğ»ĞµÌ Ğ‘Ğ¾Ğ»Ğ¸ÌĞ²Ğ¸Ñ Ğ”Ó™Ò¯Ğ»Ó™Ñ‚ĞµÌ",
          "official_name:uk": "Ğ‘Ğ°Ğ³Ğ°Ñ‚Ğ¾Ğ½Ğ°Ñ†Ñ–Ğ¾Ğ½Ğ°ÌĞ»ÑŒĞ½Ğ° Ğ”ĞµÑ€Ğ¶Ğ°ÌĞ²Ğ° Ğ‘Ğ¾Ğ»Ñ–ÌĞ²Ñ–Ñ",
          "official_name:ur": "Ø¬Ù…ÛÙˆØ±ÛŒÛ Ø¨ÙˆÙ„ÛŒÙˆÛŒØ§",
          "official_name:vi": "Cá»™ng hoÃ  Äa dÃ¢n tá»™c Bolivia",
          "official_name:yi": "×¨×¢×¤×•×‘×œ×™×§ ×¤×•×Ÿ ×‘××œ×™×•×•×™×¢",
          "official_name:yo": "ÃŒpÃ­nláº¹Ì€ Ogunlá»Ìgá»Ì€ OrÃ­láº¹Ì€-Ã¨dÃ¨ iláº¹Ì€ BÃ²lÃ­fÃ­Ã ",
          "official_name:zh": "å¤šæ°‘æ—ç»åˆ©ç»´äºšå›½ / ç»åˆ©ç¶­äºå…±å’Œåœ‹",
          "ISO3166-1:numeric": "068",
          "official_name:chr": "áŠá·á¢á¾áá£á¾áµ áá¦ášá© á¾á¿ á‰áµá«á ",
          "official_name:ckb": "Ø¯Û•ÙˆÚµÛ•ØªÛŒ ÙØ±Û•Ù†Û•ØªÛ•ÙˆÛ•ÛŒÛŒ Ø¨Û†Ù„ÛŒÚ¤ÛŒØ§",
          "official_name:crh": "Boliviya Ã‡oqmilletli Devleti",
          "official_name:dsb": "Plurinacionalny stat Boliwiska",
          "official_name:ext": "Estau Plurinacional de BolÃ­via",
          "official_name:frr": "Stoot faan flook natjuunen Boliiwien",
          "official_name:hsb": "Plurinacionalny stat Boliwiska",
          "official_name:ilo": "Plurinasional nga Estado ti Bolivia",
          "official_name:jam": "Pluurinashinal Stiet a Bolivia",
          "official_name:krc": "ĞšÑ‘Ğ± ĞœĞ¸Ğ»Ğ»ĞµÑ‚Ğ»Ğ¸ ĞšÑŠÑ€Ğ°Ğ» Ğ‘Ğ¾Ğ»Ğ¸ÌĞ²Ğ¸Ñ",
          "official_name:lez": "Ğ“Ğ·Ğ°Ñ„-Ğ¥Ğ°Ğ»ĞºÑŒĞ°Ñ€Ğ¸Ğ½ Ğ“ÑŒÑƒĞºÑƒĞ¼Ğ°Ñ‚ Ğ‘Ğ¾Ğ»Ğ¸Ğ²Ğ¸Ñ",
          "official_name:lzh": "å¤šæ°‘æ—ç»åˆ©ç¶­äºåœ‹",
          "official_name:nah": "NepapantlÄcatiyÄn TlahtohcÄyÅtl Bolivia",
          "official_name:nds": "Plurinatschonalen Staat Bolivien",
          "official_name:olo": "Monikanzalline Bolivien Valdivo",
          "official_name:pfl": "Plurinadsionala Schdaad Bolivje",
          "official_name:pms": "Estado Plurinacional de Bolivia",
          "official_name:sco": "Plurinaitional State o Bolivie",
          "official_name:vep": "Bolivijan Ã„irahvahaline Valdkund",
          "official_name:vro": "Boliivia Hulga RahvidÃµga Riik",
          "official_name:war": "Plurinasyonal nga Estado han Bolivia",
          "official_name:xal": "Ğ”Ğ°Ğ»Ğ° Ğ£Ğ»ÑÑ‚Ğ° Ğ‘Ğ¾Ğ»Ğ¸Ğ²Ğ¼ÑƒĞ´Ğ¸Ğ½ ĞÑ€Ğ½",
          "official_name:xmf": "áƒ‘áƒáƒšáƒ˜áƒ•áƒ˜áƒáƒ¨ áƒ›áƒ˜áƒáƒ áƒ”áƒ”áƒ áƒ£áƒáƒœáƒ˜ áƒ¡áƒáƒ®áƒ”áƒœáƒ¬áƒ·áƒ¤áƒ",
          "official_name:yue": "ç»åˆ©ç¶­äºå…±å’Œåœ‹",
          "old_name:1825-2009": "RepÃºblica de Bolivia",
          "official_name:zh-Hans": "å¤šæ°‘æ—ç»åˆ©ç»´äºšå›½",
          "official_name:zh-Hant": "ç»åˆ©ç¶­äºå…±å’Œåœ‹"
        }
      },
      "geometry": {
        "type": "Polygon",
        "coordinates": [
          [
            [
              -58,
              -20.05694841637272
            ],
            [
              -57.9975941,
              -20.0568148
            ],
            [
              -57.9874851,
              -20.0587112
            ],
            [
              -57.979452,
              -20.0568026
            ],
            [
              -57.9778719,
              -20.0553808
            ],
            [
              -57.9723094,
              -20.0493508
            ],
            [
              -57.9688167,
              -20.0384707
            ],
            [
              -57.9680942,
              -20.035579
            ],
            [
              -57.9658245,
              -20.0314272
            ],
            [
              -57.9635929,
              -20.0280403
            ],
            [
              -57.961018,
              -20.0246534
            ],
            [
              -57.9534649,
              -20.0209438
            ],
            [
              -57.9471134,
              -20.0188471
            ],
            [
              -57.9419636,
              -20.0188471
            ],
            [
              -57.9366421,
              -20.0194922
            ],
            [
              -57.9266857,
              -20.023847
            ],
            [
              -57.9199909,
              -20.0296531
            ],
            [
              -57.9127812,
              -20.0369105
            ],
            [
              -57.9079931,
              -20.042204
            ],
            [
              -57.9054998,
              -20.0431602
            ],
            [
              -57.9038059,
              -20.0428673
            ],
            [
              -57.9024815,
              -20.0420711
            ],
            [
              -57.9005932,
              -20.0383619
            ],
            [
              -57.8949284,
              -20.0283629
            ],
            [
              -57.8892635,
              -20.0199761
            ],
            [
              -57.875874,
              -20.0017495
            ],
            [
              -57.874252443076834,
              -20
            ],
            [
              -58,
              -20
            ],
            [
              -58,
              -20.05694841637272
            ]
          ]
        ]
      }
    },
    {
      "type": "Feature",
      "properties": {
        "osm_id": -59470,
        "boundary": "administrative",
        "admin_level": 2,
        "parents": null,
        "name": "Brazil",
        "local_name": "Brasil",
        "name_en": "Brazil",
        "all_tags": {
          "flag": "http://upload.wikimedia.org/wikipedia/commons/0/05/Flag_of_Brazil.svg",
          "name": "Brasil",
          "name:aa": "Brazil",
          "name:af": "BrasiliÃ«",
          "name:ak": "Brazil",
          "name:am": "á‰¥áˆ«á‹šáˆ",
          "name:an": "Brasil",
          "name:ar": "Ø§Ù„Ø¨ÙØ±ÙØ§Ø²ÙÙŠÙ„",
          "name:as": "à¦¬à§à§°à¦¾à¦œà¦¿à¦²",
          "name:ay": "Wrasil",
          "name:az": "Braziliya",
          "name:ba": "Ğ‘Ñ€Ğ°Ğ·Ğ¸ÌĞ»Ğ¸Ñ",
          "name:be": "Ğ‘Ñ€Ğ°Ğ·Ñ–ÌĞ»Ñ–Ñ",
          "name:bg": "Ğ‘Ñ€Ğ°Ğ·Ğ¸Ğ»Ğ¸Ñ",
          "name:bh": "à¤¬à¥à¤°à¤¾à¤œà¤¼à¥€à¤²",
          "name:bi": "Brazil",
          "name:bm": "Brazil",
          "name:bn": "à¦¬à§à¦°à¦¾à¦œà¦¿à¦²",
          "name:bo": "à½”à½´à¼‹à½¢à½´à¼‹à½Ÿà½²à½£à¼",
          "name:br": "Brazil",
          "name:bs": "Brazil",
          "name:ca": "Brasil",
          "name:ce": "Ğ‘Ñ€Ğ°Ğ·Ğ¸ÌĞ»Ğ¸",
          "name:ch": "Brazil",
          "name:co": "Brasile",
          "name:cs": "BrazÃ­lie",
          "name:cu": "Ğ‘Ñ€Ğ°ê™Ñ—Ğ»Ñ–Ìê™—",
          "name:cv": "Ğ‘Ñ€Ğ°Ğ·Ğ¸Ğ»Ğ¸",
          "name:cy": "Brasil",
          "name:da": "Brasilien",
          "name:de": "Brasilien",
          "name:dv": "Ş„ŞªŞƒŞ¬Ş’Ş¨ŞŞ°",
          "name:dz": "à½–à½±à½¢à½±à¼‹à½›à½²à½£à¼‹",
          "name:ee": "Brazil",
          "name:el": "Î’ÏÎ±Î¶Î¹Î»Î¯Î±",
          "name:en": "Brazil",
          "name:eo": "Brazilo",
          "name:es": "Brasil",
          "name:et": "Brasiilia",
          "name:eu": "Brasil",
          "name:fa": "Ø¨Ø±Ø²ÛŒÙ„",
          "name:ff": "Barazil",
          "name:fi": "Brasilia",
          "name:fj": "Brazil",
          "name:fo": "Brasilia",
          "name:fr": "BrÃ©sil",
          "name:fy": "Brazylje",
          "name:ga": "an BhrasaÃ­l",
          "name:gd": "Braisil",
          "name:gl": "Brasil",
          "name:gn": "PindorÃ¡ma",
          "name:gu": "àª¬à«àª°àª¾àªàª¿àª²",
          "name:gv": "yn Vrasseel",
          "name:ha": "Brazil",
          "name:he": "×‘×¨×–×™×œ",
          "name:hi": "à¤¬à¥à¤°à¤¾à¤¸à¤¼à¥€à¤²",
          "name:hr": "Brazil",
          "name:ht": "Brezil",
          "name:hu": "BrazÃ­lia",
          "name:hy": "Ô²Ö€Õ¡Õ¦Õ«Õ¬Õ«Õ¡",
          "name:ia": "Brasil",
          "name:id": "Brasil",
          "name:ie": "Brasil",
          "name:ig": "Brazil",
          "name:ii": "ê€ ê‘­",
          "name:io": "Brazilia",
          "name:is": "BrasilÃ­a",
          "name:it": "Brasile",
          "name:ja": "ãƒ–ãƒ©ã‚¸ãƒ«",
          "name:jv": "Brasil",
          "name:ka": "áƒ‘áƒ áƒáƒ–áƒ˜áƒšáƒ˜áƒ",
          "name:kg": "Brazilia",
          "name:ki": "Brazil",
          "name:kk": "Ğ‘Ñ€Ğ°Ğ·Ğ¸Ğ»Ğ¸Ñ",
          "name:kl": "Brazil",
          "name:km": "á”áŸ’ášáŸáŸáŸŠá¸á›",
          "name:kn": "à²¬à³à²°à³†à²œà²¿à²²à³",
          "name:ko": "ë¸Œë¼ì§ˆ",
          "name:ks": "Ø¨Ø±Ù›Ø§Ø²ÙÙ„",
          "name:ku": "BrazÃ®l",
          "name:kv": "Ğ‘Ñ€Ğ°Ğ·Ğ¸Ğ»Ğ¸Ñ",
          "name:kw": "Brasil",
          "name:ky": "Ğ‘Ñ€Ğ°Ğ·Ğ¸Ğ»Ğ¸Ñ",
          "name:la": "Brasilia",
          "name:lb": "Brasilien",
          "name:lg": "Buraziiri",
          "name:li": "Braziel",
          "name:ln": "Brazil",
          "name:lo": "àºšàº°à»€àº£àºŠàº´àº™",
          "name:lt": "Brazilija",
          "name:lv": "BrazÄ«lija",
          "name:mg": "Brazila",
          "name:mi": "ParÄ«hi",
          "name:mk": "Ğ‘Ñ€Ğ°Ğ·Ğ¸Ğ»",
          "name:ml": "à´¬àµà´°à´¸àµ€àµ½",
          "name:mn": "Ğ‘Ñ€Ğ°Ğ·Ğ¸Ğ»",
          "name:mr": "à¤¬à¥à¤°à¤¾à¤à¥€à¤²",
          "name:ms": "Brazil",
          "name:mt": "BraÅ¼il",
          "name:my": "á€˜á€›á€¬á€‡á€®á€¸á€”á€­á€¯á€„á€ºá€„á€¶",
          "name:na": "Bradir",
          "name:ne": "à¤¬à¥à¤°à¤¾à¤œà¤¿à¤²",
          "name:nl": "BraziliÃ«",
          "name:nn": "Brasil",
          "name:no": "Brasil",
          "name:nv": "BwazÃ­Ã­l",
          "name:oc": "Brasil",
          "name:om": "Biraazil",
          "name:or": "à¬¬à­à¬°à¬¾à¬œà¬¿à¬²",
          "name:os": "Ğ‘Ñ€Ğ°Ğ·Ğ¸Ğ»Ğ¸",
          "name:pa": "à¨¬à©à¨°à¨¾à¨œà¨¼à©€à¨²",
          "name:pi": "à¤¬à¥à¤°à¤¾à¤¸à¥€à¤²",
          "name:pl": "Brazylia",
          "name:ps": "Ø¨Ø±Ø§Ø²ÛŒÙ„",
          "name:pt": "Brasil",
          "name:qu": "Prasil",
          "name:rm": "Brasilia",
          "name:rn": "Brazil",
          "name:ro": "Brazilia",
          "name:ru": "Ğ‘Ñ€Ğ°Ğ·Ğ¸Ğ»Ğ¸Ñ",
          "name:rw": "Burezile",
          "name:sa": "à¤¬à¥à¤°à¤¾à¤¸à¥€à¤²",
          "name:sc": "Brasile",
          "name:sd": "Ø¨Ø±Ø§Ø²ÙŠÙ„",
          "name:se": "Brasilia",
          "name:sh": "Brazil",
          "name:si": "à¶¶à·Šà¶»à·ƒà·“à¶½à¶º",
          "name:sk": "BrazÃ­lia",
          "name:sl": "Brazilija",
          "name:sm": "Pasila",
          "name:sn": "Brazil",
          "name:so": "Barasiil",
          "name:sq": "Brazili",
          "name:sr": "Ğ‘Ñ€Ğ°Ğ·Ğ¸Ğ»",
          "name:st": "Brazil",
          "name:su": "Brasil",
          "name:sv": "Brasilien",
          "name:sw": "Brazil",
          "name:ta": "à®ªà®¿à®°à¯‡à®šà®¿à®²à¯",
          "name:te": "à°¬à±à°°à±†à°œà°¿à°²à±",
          "name:tg": "Ğ‘Ñ€Ğ°Ğ·Ğ¸Ğ»Ğ¸Ñ",
          "name:th": "à¸šà¸£à¸²à¸‹à¸´à¸¥",
          "name:ti": "á‰¥áˆ«á‹šáˆ",
          "name:tk": "BraziliÃ½a",
          "name:tl": "Brasil",
          "name:to": "PalÄsili",
          "name:tr": "Brezilya",
          "name:tt": "Ğ‘Ñ€Ğ°Ğ·Ğ¸ÌĞ»Ğ¸Ñ",
          "name:tw": "Brazil",
          "name:ty": "ParÄ«ihi",
          "name:ug": "Ø¨Ø±Ø§Ø²Ù‰Ù„Ù‰ÙŠÛ•",
          "name:uk": "Ğ‘Ñ€Ğ°Ğ·Ğ¸ÌĞ»Ñ–Ñ",
          "name:ur": "Ø¨Ø±Ø§Ø²ÛŒÙ„",
          "name:uz": "Braziliya",
          "name:ve": "Brazil",
          "name:vi": "Brasil",
          "name:vo": "BrasilÃ¤n",
          "name:wa": "Braezi",
          "name:wo": "Breesil",
          "name:xh": "Brasil",
          "name:yi": "×‘×¨×Ö·×–×™×œ",
          "name:yo": "Brasil",
          "name:za": "Bahsih",
          "name:zh": "å·´è¥¿",
          "name:zu": "IBrazili",
          "boundary": "administrative",
          "currency": "BRL",
          "int_name": "Brazil",
          "name:ace": "Brasil",
          "name:ady": "Ğ‘Ñ€Ğ°Ğ·Ğ¸Ğ»Ğ¸Ğµ",
          "name:als": "Brasilie",
          "name:ang": "Brasil",
          "name:arc": "Ü’ÜªÜÜ™ÜÜ ",
          "name:arz": "Ø§Ù„Ø¨Ø±Ø§Ø²ÙŠÙ„",
          "name:ast": "Brasil",
          "name:azb": "Ø¨Ø±Ø²ÛŒÙ„",
          "name:bar": "Brasilien",
          "name:bcl": "Brasil",
          "name:bpy": "à¦¬à§à¦°à¦¾à¦œà¦¿à¦²",
          "name:brx": "à¤¬à¥à¤°à¤¾à¤œà¤¼à¥€à¤²",
          "name:bxr": "Ğ‘Ñ€Ğ°Ğ·Ğ¸Ğ»",
          "name:cdo": "BÄƒ-sÄƒÌ¤",
          "name:ceb": "Brasil",
          "name:chr": "á†ááµ",
          "name:chy": "Brazil",
          "name:ckb": "Ø¨Û•Ú•Ø§Ø²ÛŒÙ„",
          "name:crh": "Brazil",
          "name:csb": "BrazylskÃ´",
          "name:diq": "Brezilya",
          "name:dsb": "Brazilska",
          "name:dty": "à¤¬à¥à¤°à¤¾à¤œà¤¿à¤²",
          "name:eml": "Braá¹¡il",
          "name:ext": "Brasil",
          "name:frp": "BrÃ¨sil",
          "name:frr": "Brasiilien",
          "name:fur": "BrasÃ®l",
          "name:gag": "Braziliya",
          "name:gan": "å·´è¥¿",
          "name:glk": "Ø¨Ø±Ø²ÙŠÙ„",
          "name:gom": "à¤¬à¥à¤°à¤¾à¤à¥€à¤²",
          "name:got": "ğŒ±ğŒ±ğ‚ğŒ±ğ‚ğŒ°ğŒ±ğ‚ğŒ°ğŒ¶ğŒ±ğ‚ğŒ°ğŒ¶ğŒ¹ğŒ±ğ‚ğŒ°ğŒ¶ğŒ¹ğŒ»",
          "name:hak": "PÃ¢-sÃ®",
          "name:haw": "Palakila",
          "name:hif": "Brazil",
          "name:hsb": "Brazilska",
          "name:ilo": "Brasil",
          "name:jam": "Brazil",
          "name:jbo": "razgu'e",
          "name:kaa": "Braziliya",
          "name:kab": "Brazil",
          "name:kbd": "Ğ‘Ñ€Ğ°Ğ·Ğ¸Ğ»",
          "name:kbp": "Piresiili",
          "name:krc": "Ğ‘Ñ€Ğ°Ğ·Ğ¸Ğ»Ğ¸Ñ",
          "name:ksh": "Brasilije",
          "name:lad": "Brasil",
          "name:lez": "Ğ‘Ñ€Ğ°Ğ·Ğ¸Ğ»Ğ¸Ñ",
          "name:lij": "BraxÃ®",
          "name:lmo": "Brasil",
          "name:lrc": "Ø¨Ø±Ø²ÙŠÙ„",
          "name:ltg": "Brazileja",
          "name:lzh": "å·´è¥¿",
          "name:mai": "à¤¬à¥à¤°à¤¾à¤œà¤¿à¤²",
          "name:mdf": "Ğ‘Ñ€Ğ°Ğ·Ğ¸Ğ»Ğ¸Ğµ",
          "name:mhr": "Ğ‘Ñ€Ğ°Ğ·Ğ¸Ğ»Ğ¸Ğ¹",
          "name:min": "Brasil",
          "name:mrj": "Ğ‘Ñ€Ğ°Ğ·Ğ¸Ğ»Ğ¸",
          "name:mwl": "Brasil",
          "name:myv": "Ğ‘Ñ€Ğ°Ğ·Ğ¸Ğ»Ğ¸Ñ",
          "name:mzn": "Ø¨Ø±Ø²ÛŒÙ„",
          "name:nah": "Brasil",
          "name:nan": "Pa-se",
          "name:nap": "Brasile",
          "name:nds": "Brasilien",
          "name:new": "à¤¬à¥à¤°à¤¾à¤œà¤¿à¤²",
          "name:nov": "Brasilia",
          "name:nrm": "BrÃ©si",
          "name:nso": "Brazil",
          "name:olo": "Braziilii",
          "name:pag": "Brazil",
          "name:pam": "Brazil",
          "name:pap": "Brazil",
          "name:pcd": "BrÃ©sil",
          "name:pdc": "Brasilien",
          "name:pfl": "Brasilje",
          "name:pih": "Bresel",
          "name:pms": "Brasil",
          "name:pnb": "Ø¨Ø±Ø§Ø²ÛŒÙ„",
          "name:rmy": "Brazil",
          "name:rue": "Ğ‘Ñ€Ğ°Ğ·Ñ–Ğ»Ñ–Ñ",
          "name:sah": "Ğ‘Ñ€Ğ°Ğ·Ğ¸Ğ»Ğ¸Ñ",
          "name:scn": "Brasili",
          "name:sco": "Brazil",
          "name:smn": "Brasilia",
          "name:sms": "Brasilia",
          "name:srn": "Brasilkondre",
          "name:stq": "Brasilien",
          "name:szl": "BrazylijÅ",
          "name:tet": "BrazÃ­l",
          "name:tok": "ma Pasila",
          "name:tpi": "Brasil",
          "name:tum": "Brazil",
          "name:tyv": "Ğ‘Ñ€Ğ°Ğ·Ğ¸Ğ»Ğ¸Ñ",
          "name:tzl": "Brasil",
          "name:vec": "Braxil",
          "name:vep": "Brazilii",
          "name:vls": "BraziliÃ«",
          "name:vro": "Brasiilia",
          "name:war": "Brasil",
          "name:wuu": "å·´è¥¿",
          "name:xal": "Ğ‘Ñ€Ğ°Ğ·Ğ¸Ğ»Ğ¼ÑƒĞ´Ğ¸Ğ½",
          "name:xmf": "áƒ‘áƒ áƒáƒ–áƒ˜áƒšáƒ˜áƒ",
          "name:yue": "å·´è¥¿",
          "name:zea": "BreziliÃ«",
          "way_area": "728.951",
          "wikidata": "Q155",
          "ISO3166-1": "BR",
          "wikipedia": "pt:Brasil",
          "admin_level": "2",
          "alt_name:fo": "Brasil",
          "alt_name:gd": "Brasil",
          "alt_name:hi": "à¤¬à¥à¤°à¤¾à¤œà¤¼à¥€à¤²",
          "alt_name:ie": "Brazil",
          "alt_name:vi": "Brazil;Bra-xin",
          "name:nds-nl": "BraziliÃ«",
          "old_name:vi": "Ba TÃ¢y",
          "alt_name:csb": "BrazylÃ«jÃ´",
          "alt_name:nan": "Peh-laÌt-se-nÃ­",
          "driving_side": "right",
          "name:bat-smg": "BrazilÄ—jÄ—",
          "name:cbk-zam": "Brasil",
          "name:map-bms": "Brasil",
          "name:zh-Hans": "å·´è¥¿",
          "name:zh-Hant": "å·´è¥¿",
          "name:roa-tara": "Brasile",
          "official_name": "RepÃºblica Federativa do Brasil",
          "name:be-tarask": "Ğ‘Ñ€Ğ°Ğ·Ñ‹ÌĞ»Ñ–Ñ",
          "ISO3166-1:alpha2": "BR",
          "ISO3166-1:alpha3": "BRA",
          "default_language": "pt",
          "official_name:af": "Federale Republiek BrasiliÃ«",
          "official_name:am": "á‹¨á‰¥áˆ«á‹šáˆ áŒá‹´áˆ«áˆ‹á‹Š áˆªáá‰¥áˆŠáŠ­",
          "official_name:an": "RepÃºblica Federativa do Brasil",
          "official_name:ar": "Ø¬ÙÙ…Ù’Ù‡ÙÙˆØ±ÙÙŠÙÙ‘Ø© Ø§Ù„Ø¨ÙØ±ÙØ§Ø²ÙÙŠÙ„ Ø§Ù„Ø§ØªÙÙ‘Ø­Ø§Ø¯ÙÙŠÙÙ‘Ø©",
          "official_name:as": "à¦«à§‡à¦¡à¦¾à§°à§‡à¦Ÿà¦¿à¦­ à§°à¦¿à¦ªà¦¾à¦¬à§à¦²à¦¿à¦• à¦…à¦«à§ à¦¬à§à§°à¦¾à¦œà¦¿à¦²",
          "official_name:ay": "Tantasqa Republika Wrasil",
          "official_name:az": "Braziliya Federativ RespublikasÄ±",
          "official_name:ba": "Ğ‘Ñ€Ğ°Ğ·Ğ¸ÌĞ»Ğ¸Ñ Ğ¤ĞµĞ´ĞµÑ€Ğ°Ñ‚Ğ¸ÌĞ² Ğ ĞµÑĞ¿ÑƒĞ±Ğ»Ğ¸ĞºĞ°ÌÒ»Ñ‹",
          "official_name:be": "Ğ¤ĞµĞ´ÑÑ€Ğ°Ñ‚Ñ‹ÌÑĞ½Ğ°Ñ Ğ ÑÑĞ¿ÑƒÌĞ±Ğ»Ñ–ĞºĞ° Ğ‘Ñ€Ğ°Ğ·Ñ–ÌĞ»Ñ–Ñ",
          "official_name:bg": "Ğ¤ĞµĞ´ĞµÑ€Ğ°Ñ‚Ğ¸Ğ²Ğ½Ğ° Ñ€ĞµĞ¿ÑƒĞ±Ğ»Ğ¸ĞºĞ° Ğ‘Ñ€Ğ°Ğ·Ğ¸Ğ»Ğ¸Ñ",
          "official_name:bn": "à¦¸à¦‚à¦¯à§à¦•à§à¦¤ à¦ªà§à¦°à¦œà¦¾à¦¤à¦¨à§à¦¤à§à¦°à§€ à¦¬à§à¦°à¦¾à¦œà¦¿à¦²",
          "official_name:br": "Republik Kevreel Brazil",
          "official_name:bs": "Federativna republika Brazil",
          "official_name:ca": "RepÃºblica Federal del Brasil",
          "official_name:ce": "Ğ¤ĞµĞ´ĞµÑ€Ğ°Ñ‚Ğ¸ÌĞ²Ğ½Ğ¸ Ğ ĞµÑĞ¿ÑƒÌĞ±Ğ»Ğ¸ĞºĞ° Ğ‘Ñ€Ğ°Ğ·Ğ¸ÌĞ»Ğ¸",
          "official_name:co": "Republica Federale di u Brasile",
          "official_name:cs": "BrazilskÃ¡ federativnÃ­ republika",
          "official_name:cu": "Ğ‘Ñ€Ğ°ê™Ñ–ÌĞ»ÑŒÑĞºĞ° Ğ¡ÑŠĞ²Ñ«Ìê™ÑŒĞ½Ğ° Ğ”Ğ¸Ğ¼Ğ¾ĞºÑ€Ğ°Ñ‚Ñ–Ìê™—",
          "official_name:cv": "Ğ‘Ñ€Ğ°Ğ·Ğ¸Ğ»Ğ¸ Ğ¤ĞµĞ´ĞµÑ€Ğ°Ñ‚Ğ¸Ğ²Ğ»Äƒ Ğ ĞµÑĞ¿ÑƒĞ±Ğ»Ğ¸ĞºĞ¸",
          "official_name:cy": "Gweriniaeth Ffederal Brasil",
          "official_name:da": "Den FÃ¸derative Republik Brasilien",
          "official_name:de": "FÃ¶derative Republik Brasilien",
          "official_name:el": "ÎŸÎ¼Î¿ÏƒÏ€Î¿Î½Î´Î¹Î±ÎºÎ® Î”Î·Î¼Î¿ÎºÏÎ±Ï„Î¯Î± Ï„Î·Ï‚ Î’ÏÎ±Î¶Î¹Î»Î¯Î±Ï‚",
          "official_name:en": "Federative Republic of Brazil",
          "official_name:eo": "Federacia Respubliko Brazilo",
          "official_name:es": "RepÃºblica Federativa de Brasil",
          "official_name:et": "Brasiilia Liitvabariik",
          "official_name:eu": "Brasilgo Errepublika Federala",
          "official_name:fa": "Ø¬Ù…Ù‡ÙˆØ±ÛŒ ÙØ¯Ø±Ø§Ù„ Ø¨Ø±Ø²ÛŒÙ„",
          "official_name:fi": "Brasilian liittotasavalta",
          "official_name:fo": "Samveldis LÃ½Ã°veldiÃ° Brasil",
          "official_name:fr": "RÃ©publique fÃ©dÃ©rative du BrÃ©sil",
          "official_name:fy": "Federative Republyk Brazylje",
          "official_name:ga": "Poblacht ChÃ³naidhmitheach na BrasaÃ­le",
          "official_name:gl": "RepÃºblica Federativa do Brasil",
          "official_name:gn": "TetÃ£ Joaty PindorÃ¡ma",
          "official_name:gu": "àª¬à«àª°àª¾àªà«€àª²àª¨à«àª‚ àª¸àª‚àª˜à«€àª¯ àª—àª£àª°àª¾àªœà«àª¯",
          "official_name:gv": "Pobblaght Chonastagh ny Brasseel",
          "official_name:ha": "Jamhuriyar Brazil",
          "official_name:he": "×”×¨×¤×•×‘×œ×™×§×” ×”×¤×“×¨×œ×™×ª ×©×œ ×‘×¨×–×™×œ",
          "official_name:hi": "à¤¬à¥à¤°à¤¾à¤œà¤¼à¥€à¤² à¤•à¤¾ à¤¸à¤‚à¤˜à¥€à¤¯ à¤—à¤£à¤°à¤¾à¤œà¥à¤¯",
          "official_name:hr": "Savezna Republika Brazil",
          "official_name:hu": "Brazil SzÃ¶vetsÃ©gi KÃ¶ztÃ¡rsasÃ¡g",
          "official_name:hy": "Ô²Ö€Õ¡Õ¦Õ«Õ¬Õ«Õ¡ÕµÕ« Ô´Õ¡Õ·Õ¶Õ¡ÕµÕ«Õ¶ Õ€Õ¡Õ¶Ö€Õ¡ÕºÕ¥Õ¿Õ¸Ö‚Õ©ÕµÕ¸Ö‚Õ¶",
          "official_name:ia": "Republica Federative de Brasil",
          "official_name:id": "Republik Federal Brasil",
          "official_name:is": "SambandslÃ½Ã°veldiÃ° BrasilÃ­a",
          "official_name:it": "Repubblica Federale del Brasile",
          "official_name:ja": "ãƒ–ãƒ©ã‚¸ãƒ«é€£é‚¦å…±å’Œå›½",
          "official_name:jv": "RÃ©publik Federal Brasil",
          "official_name:ka": "áƒ‘áƒ áƒáƒ–áƒ˜áƒšáƒ˜áƒ˜áƒ¡ áƒ¤áƒ”áƒ“áƒ”áƒ áƒáƒªáƒ˜áƒ£áƒšáƒ˜ áƒ áƒ”áƒ¡áƒáƒ£áƒ‘áƒšáƒ˜áƒ™áƒ",
          "official_name:kk": "Ğ‘Ñ€Ğ°Ğ·Ğ¸Ğ»Ğ¸Ñ Ğ¤ĞµĞ´ĞµÑ€Ğ°Ñ‚Ğ¸Ğ²Ñ‚Ñ–Ğº Ğ ĞµÑĞ¿ÑƒĞ±Ğ»Ğ¸ĞºĞ°ÑÑ‹",
          "official_name:kl": "Kunngiitsuuffik Brazil",
          "official_name:km": "áŸá¶á’á¶ášáášáŠáŸ’á‹â€‹áŸá á–áŸá“áŸ’á’â€‹á”áŸ’ášáŸáŸáŸŠá¸á›",
          "official_name:kn": "à²¬à³à²°à³†à²œà²¿à²²à³ à²¸à²‚à²¯à³à²•à³à²¤ à²—à²£à²°à²¾à²œà³à²¯",
          "official_name:ko": "ë¸Œë¼ì§ˆ ì—°ë°© ê³µí™”êµ­",
          "official_name:ku": "Komara Federal a BrazÃ®lÃª",
          "official_name:kv": "Ğ¤ĞµĞ´ĞµÑ€Ğ°Ñ‚Ğ¸Ğ² Ğ‘Ñ€Ğ°Ğ·Ğ¸Ğ»Ğ¸Ñ Ğ ĞµÑĞ¿ÑƒĞ±Ğ»Ğ¸ĞºĞ°",
          "official_name:ky": "Ğ‘Ñ€Ğ°Ğ·Ğ¸Ğ»Ğ¸Ñ Ğ¤ĞµĞ´ĞµÑ€Ğ°Ñ†Ğ¸Ñ Ğ ĞµÑĞ¿ÑƒĞ±Ğ»Ğ¸ĞºĞ°ÑÑ‹",
          "official_name:la": "Respublica Foederativa Brasiliae",
          "official_name:li": "Federaol Rippubliek BraziliÃ«",
          "official_name:ln": "RepublÃ­ki Fedelali ya Brazil",
          "official_name:lo": "àºªàº°àº«àº°àºàº±àº™àºªàº²àº—àº²àº°àº¥àº°àº™àº°àº¥àº±àº”àºšàº°à»€àº£àºŠàº´àº™",
          "official_name:lt": "Brazilijos FederacinÄ— Respublika",
          "official_name:lv": "BrazÄ«lijas FederatÄ«vÄ Republika",
          "official_name:mg": "Repoblika federalin'i Brazila",
          "official_name:mi": "Whenua TÅ« Wehe o ParÄ«hi",
          "official_name:mk": "Ğ¤ĞµĞ´ĞµÑ€Ğ°Ñ‚Ğ¸Ğ²Ğ½Ğ° Ğ ĞµĞ¿ÑƒĞ±Ğ»Ğ¸ĞºĞ° Ğ‘Ñ€Ğ°Ğ·Ğ¸Ğ»",
          "official_name:ml": "à´«àµ†à´¡à´±àµ‡à´±àµà´±à´¿à´µàµ à´±à´¿à´ªàµà´ªà´¬àµà´²à´¿à´•àµà´•àµ à´“à´«àµ à´¬àµà´°à´¸àµ€àµ½",
          "official_name:mn": "Ğ¥Ğ¾Ğ»Ğ±Ğ¾Ğ¾Ğ½Ñ‹ Ğ‘Ò¯Ğ³Ğ´ ĞĞ°Ğ¹Ñ€Ğ°Ğ¼Ğ´Ğ°Ñ… Ğ‘Ñ€Ğ°Ğ·Ğ¸Ğ» Ğ£Ğ»Ñ",
          "official_name:ms": "Republik Persekutuan Brazil",
          "official_name:mt": "Repubblika Federattiva tal-BraÅ¼il",
          "official_name:my": "á€˜á€›á€¬á€‡á€®á€¸ á€–á€€á€ºá€’á€›á€šá€º á€á€™á€¹á€™á€á€”á€­á€¯á€„á€ºá€„á€¶",
          "official_name:ne": "à¤¸à¤‚à¤˜à¥€à¤¯ à¤—à¤£à¤¤à¤¨à¥à¤¤à¥à¤° à¤¬à¥à¤°à¤¾à¤œà¤¿à¤²",
          "official_name:nl": "Federale Republiek van BraziliÃ«",
          "official_name:no": "Forbundsrepublikken Brasil",
          "official_name:nv": "KintaaÊ¼anÃ©hÃ© DineÊ¼Ã© BikÃ©yah",
          "official_name:oc": "Republica Federala de Brasil",
          "official_name:os": "Ğ¤ĞµĞ´ĞµÑ€Ğ°Ñ‚Ğ¸Ğ²Ğ¾Ğ½ Ğ ĞµÑĞ¿ÑƒĞ±Ğ»Ğ¸ĞºÃ¦ Ğ‘Ñ€Ğ°Ğ·Ğ¸Ğ»Ğ¸",
          "official_name:pa": "à¨¬à©à¨°à¨¾à¨œà¨¼à©€à¨² à¨¦à¨¾ à¨¸à©°à¨˜à©€ à¨—à¨£à¨°à¨¾à¨œ",
          "official_name:pl": "Federacyjna Republika Brazylii",
          "official_name:ps": "Ø¯ Ø¨Ø±Ø§Ø²ÛŒÙ„ ÙØ¯Ø±Ø§ØªÛŒÙ ÙˆÙ„Ø³Ù…Ø´Ø±ÛŒØ²Ù‡",
          "official_name:pt": "RepÃºblica Federativa do Brasil",
          "official_name:qu": "Brasil Tantasqa Ripuwlika",
          "official_name:rm": "Republica federal da Brasilia",
          "official_name:ro": "Republica FederativÄƒ a Braziliei",
          "official_name:ru": "Ğ¤ĞµĞ´ĞµÑ€Ğ°Ñ‚Ğ¸Ğ²Ğ½Ğ°Ñ Ğ ĞµÑĞ¿ÑƒĞ±Ğ»Ğ¸ĞºĞ° Ğ‘Ñ€Ğ°Ğ·Ğ¸Ğ»Ğ¸Ñ",
          "official_name:sd": "ÙˆÙØ§Ù‚ÙŠ Ø¬Ù…Ù‡ÙˆØ±ÙŠÙ‡ Ø¨Ø±Ø§Ø²ÙŠÙ„",
          "official_name:se": "Brasilia lihttodÃ¡ssevÃ¡ldi",
          "official_name:sh": "Federativna Republika Brazil",
          "official_name:si": "à¶¶à·Šà¶»à·ƒà·’à¶½ à·ƒà¶¸à·”à·„à·à¶«à·Šà¶©à·” à·ƒà¶‚à·€à·’à¶°à·à¶±à¶º",
          "official_name:sk": "BrazÃ­lska federatÃ­vna republika",
          "official_name:sl": "Federativna republika Brazilija",
          "official_name:sm": "Ripapelika feterale o Pasila",
          "official_name:sq": "Republika Federative e Brazilit",
          "official_name:sr": "Ğ¡Ğ°Ğ²ĞµĞ·Ğ½Ğ° Ğ ĞµĞ¿ÑƒĞ±Ğ»Ğ¸ĞºĞ° Ğ‘Ñ€Ğ°Ğ·Ğ¸Ğ»",
          "official_name:su": "RÃ©publik FÃ©derasi Brasil",
          "official_name:sv": "FÃ¶rbundsrepubliken Brasilien",
          "official_name:sw": "Shirikisho la Jamhuri ya Brazil",
          "official_name:ta": "à®ªà®¿à®°à¯‡à®šà®¿à®²à¯ à®•à¯‚à®Ÿà¯à®Ÿà®¾à®Ÿà¯à®šà®¿à®•à¯ à®•à¯à®Ÿà®¿à®¯à®°à®šà¯",
          "official_name:te": "à°«à±†à°¡à°°à±‡à°Ÿà°¿à°µà± à°°à°¿à°ªà°¬à±à°²à°¿à°•à± à°†à°«à± à°¬à±à°°à±†à°œà°¿à°²à±",
          "official_name:th": "à¸ªà¸«à¸à¸±à¸™à¸˜à¹Œà¸ªà¸²à¸˜à¸²à¸£à¸“à¸£à¸±à¸à¸šà¸£à¸²à¸‹à¸´à¸¥",
          "official_name:tk": "BraziliÃ½a Federatiw Respublikasy",
          "official_name:tl": "Pederatibong Republika ng Brasil",
          "official_name:tr": "Brezilya Federal Cumhuriyeti",
          "official_name:tt": "Ğ‘Ñ€Ğ°Ğ·Ğ¸ÌĞ»Ğ¸Ñ Ğ¤ĞµĞ´ĞµÑ€Ğ°Ñ‚Ğ¸ÌĞ² Ğ ĞµÑĞ¿ÑƒÌĞ±Ğ»Ğ¸ĞºĞ°ÑÑ‹",
          "official_name:uk": "Ğ¤ĞµĞ´ĞµÑ€Ğ°Ñ‚Ğ¸ÌĞ²Ğ½Ğ° Ğ ĞµÑĞ¿ÑƒÌĞ±Ğ»Ñ–ĞºĞ° Ğ‘Ñ€Ğ°Ğ·Ğ¸ÌĞ»Ñ–Ñ",
          "official_name:ur": "ÙˆÙØ§Ù‚ÛŒ Ø¬Ù…ÛÙˆØ±ÛŒÛ Ø¨Ø±Ø§Ø²ÛŒÙ„",
          "official_name:uz": "Braziliya Federativ Respublikasi",
          "official_name:vi": "Cá»™ng hÃ²a LiÃªn bang Brasil",
          "official_name:wo": "RÃ©ewum Breesil",
          "official_name:yi": "×¤Ö¿×¢×“×¢×¨×Ö·×˜×™×°×¢ ×¨×¢×¤×•×‘×œ×™×§ ×¤Ö¿×•×Ÿ ×‘×¨×Ö·×–×™×œ",
          "official_name:yo": "OrÃ­láº¹Ì€-Ã¨dÃ¨ OlÃ³mÃ¬nira Aparapá»Ì€ iláº¹Ì€ BrÃ sÃ­l",
          "official_name:za": "Bahsih Lienzbangh Gunghozgoz",
          "official_name:zh": "å·´è¥¿è”é‚¦å…±å’Œå›½ / å·´è¥¿è¯é‚¦å…±å’Œåœ‹",
          "ISO3166-1:numeric": "076",
          "official_name:als": "FÃ¶derative Republik Brasilien",
          "official_name:arc": "Ü©Ü˜Ü›Ü¢ÜÜ˜Ü¬Ü Ü¦Ü•ÜªÜ ÜÜ¬Ü Ü•Ü’ÜªÜÜ™ÜÜ ",
          "official_name:arz": "Ø¬Ù…Ù‡ÙˆØ±ÙŠØ© Ø§Ù„Ø¨Ø±Ø§Ø²ÙŠÙ„ Ø§Ù„Ø§ØªØ­Ø§Ø¯ÙŠÙ‡",
          "official_name:ast": "RepÃºblica Federativa do Brasil",
          "official_name:azb": "Ø¨Ø±Ø²ÛŒÙ„ ÙØ¯Ø±Ø§ØªÛŒÙˆ Ø¬ÙˆÙ…Ù‡ÙˆØ±ÛŒØªÛŒ",
          "official_name:bpy": "à¦•à§‡à¦¨à§à¦¦à§à¦°à§€à¦¯à¦¼ à¦ªà§à¦°à¦œà¦¾à¦¤à¦¨à§à¦¤à§à¦°à¦¿ à¦¬à§à¦°à¦¾à¦œà¦¿à¦²",
          "official_name:bxr": "Ğ¥Ğ¾Ğ»Ğ±Ğ¾Ğ¾Ğ½Ğ¾Ğ¹ Ğ‘Ò¯Ğ³ÑĞ´Ñ ĞĞ°Ğ¹Ñ€Ğ°Ğ¼Ğ´Ğ°Ñ…Ğ° Ğ‘Ñ€Ğ°Ğ·Ğ¸Ğ» Ğ£Ğ»Ğ°Ñ",
          "official_name:ceb": "Pederatibong Republika sa Brasil",
          "official_name:chr": "á á°áŸ áá¦ášá© á¾á¿ á†ááµ",
          "official_name:ckb": "Ú©Û†Ù…Ø§Ø±ÛŒ ÙÛŒØ¯Ø±Ø§ÚµÛŒ Ø¨Û•Ú•Ø§Ø²ÛŒÙ„",
          "official_name:crh": "Brazil Federativ Cumhuriyeti",
          "official_name:diq": "CumhuriyetÃª Breziyayo Federal",
          "official_name:dsb": "Brazilska federatiwna republika",
          "official_name:dty": "à¤¸à¤‚à¤˜à¥€à¤¯ à¤—à¤£à¤¤à¤¨à¥à¤¤à¥à¤° à¤¬à¥à¤°à¤¾à¤œà¤¿à¤²",
          "official_name:eml": "Repubblica Federativa del Brasile",
          "official_name:ext": "RepÃºbrica Federativa del Brasil",
          "official_name:frr": "FÃ¶Ã¶deratiif Republiik faan Brasiilien",
          "official_name:gag": "Braziliya Federal RespublikasÄ±",
          "official_name:gan": "å·´è¥¿è¯é‚¦å…±å’Œåœ‹",
          "official_name:hsb": "Brazilska federatiwna republika",
          "official_name:ilo": "Pederatibo a Republika ti Brasil",
          "official_name:jbo": "razgu'e gumgu'e gubyseltru",
          "official_name:kbd": "Ğ¤ĞµĞ´ĞµÑ€Ğ°Ñ†Ğ¸ÑĞ¼ Ğ ĞµÑĞ¿ÑƒĞ±Ğ»Ğ¸ĞºÑ Ğ‘Ñ€Ğ°Ğ·Ğ¸Ğ»",
          "official_name:krc": "Ğ¤ĞµĞ´ĞµÑ€Ğ°Ñ‚Ğ¸Ğ² Ğ‘Ñ€Ğ°Ğ·Ğ¸Ğ»Ğ¸Ñ Ğ ĞµÑĞ¿ÑƒĞ±Ğ»Ğ¸ĞºĞ°",
          "official_name:lad": "Republika Federala del Brasil",
          "official_name:lez": "Ğ‘Ñ€Ğ°Ğ·Ğ¸Ğ»Ğ¸Ñ Ğ¤ĞµĞ´ĞµÑ€Ğ°Ñ‚Ğ¸Ğ²Ğ´Ğ¸Ğ½ Ğ ĞµÑĞ¿ÑƒĞ±Ğ»Ğ¸ĞºĞ°",
          "official_name:lmo": "RepÃºblica Federativa do Brasil",
          "official_name:lrc": "Ú©ÙˆÙ…Ø±Ù‡ ÙˆÙ„Ø§Øª ÙØ¯Ø±Ø§ØªÛŒÙˆ Ø¨Ø±Ø²ÛŒÙ„",
          "official_name:ltg": "Brazilejis Federativuo Republika",
          "official_name:lzh": "å·´è¥¿è¯é‚¦å…±å’Œåœ‹",
          "official_name:mai": "à¤¸à¤™à¥à¤˜à¥€à¤¯ à¤—à¤£à¤¤à¤¨à¥à¤¤à¥à¤° à¤¬à¥à¤°à¤¾à¤œà¤¿à¤²",
          "official_name:min": "RepÃºblica Federativa do Brasil",
          "official_name:mwl": "RepÃºblica Federativa do Brasil",
          "official_name:myv": "Ğ¤ĞµĞ´ĞµÑ€Ğ°Ñ‚Ğ¸ÌĞ²Ğ½Ğ°Ñ Ğ ĞµÑĞ¿ÑƒÌĞ±Ğ»Ğ¸ĞºĞ° Ğ‘Ñ€Ğ°Ğ·Ğ¸ÌĞ»Ğ¸Ñ",
          "official_name:mzn": "Ø¨Ø±Ø²ÛŒÙ„ ÙØ¯Ø±Ø§ØªÛŒÙˆ Ø¬Ù…Ù‡ÙˆØ±ÛŒ",
          "official_name:nah": "Nenahuatiliztlacatlahtohcayotl Brasil",
          "official_name:nan": "Pa-se LiÃ¢n-pang KiÅng-hÃ´-kok",
          "official_name:nap": "Repubbreca Federativa d'o Brasile",
          "official_name:nds": "Bundsrepubliek Brasilien",
          "official_name:olo": "Braziilien federatiivine tazavaldu",
          "official_name:pag": "Federative Republic na Brazil",
          "official_name:pam": "Federatibung Republica ning Brazil",
          "official_name:pap": "RepÃºblika Federativa di Brazil",
          "official_name:pcd": "RÃ©publike fÃ©dÃ©rative du BrÃ©sil",
          "official_name:pdc": "Bunnes-Republik Brasilien",
          "official_name:pfl": "Federadivi Republik Brasilje",
          "official_name:pih": "Federativii Repablik o' Bresel",
          "official_name:rmy": "Federalni Republika la Braziliyaki",
          "official_name:rue": "Ğ‘Ñ€Ğ°Ğ·Ñ–Ğ»ÑŒÑĞºĞ° Ñ„ĞµĞ´ĞµÑ€Ğ°Ñ‚Ñ–Ğ²Ğ½Ğ° Ñ€ĞµĞ¿ÑƒĞ±Ğ»Ñ–ĞºĞ°",
          "official_name:sah": "Ğ‘Ñ€Ğ°Ğ·Ğ¸Ğ»Ğ¸Ñ Ğ¤ĞµĞ´ĞµÑ€Ğ°Ñ‚Ğ¸Ğ² Ğ ĞµÑĞ¿ÑƒĞ±Ğ»Ğ¸ĞºĞ°Ñ‚Ğ°",
          "official_name:sco": "Federative Republic o Brazil",
          "official_name:srn": "Ripoliku Brasilkondre",
          "official_name:tet": "RepÃºblika Federativa BrazÃ­l nian",
          "official_name:tyv": "Ğ¤ĞµĞ´ĞµÑ€Ğ°Ñ‚Ğ¸Ğ²Ñ‚Ğ¸Ğ³ Ğ‘Ñ€Ğ°Ğ·Ğ¸Ğ»Ğ¸Ñ Ğ ĞµÑĞ¿ÑƒĞ±Ğ»Ğ¸ĞºĞ°Ğ·Ñ‹",
          "official_name:vec": "RepÃ¹blica FederaÅ‚e de Braxil",
          "official_name:vep": "Brazilijan Federativine Tazovaldkund",
          "official_name:vls": "Federoale Republiek BraziliÃ«",
          "official_name:vro": "Brasiilia Vabariik",
          "official_name:war": "Republika Federativa han Brasil",
          "official_name:wuu": "å·´è¥¿è”é‚¦å…±å’Œå›½",
          "official_name:xal": "ĞĞ¸Ğ¸Ñ†Ó™Ñ‚Ó™ Ğ‘Ñ€Ğ°Ğ·Ğ¸Ğ»Ğ¼ÑƒĞ´Ğ¸Ğ½ ĞÑ€Ğ½",
          "official_name:yue": "å·´è¥¿è¯é‚¦å…±å’Œåœ‹",
          "official_name:nds-nl": "Federale Reppubliek BraziliÃ«",
          "official_name:cbk-zam": "Republica Federativa del Brazil",
          "official_name:zh-Hans": "å·´è¥¿è”é‚¦å…±å’Œå›½",
          "official_name:zh-Hant": "å·´è¥¿è¯é‚¦å…±å’Œåœ‹",
          "official_name:roa-tara": "Repubbleche Federative d'u Brasile"
        }
      },
      "geometry": {
        "type": "Polygon",
        "coordinates": [
          [
            [
              -58,
              -20.626950257681195
            ],
            [
              -57.9994954,
              -20.6274558
            ],
            [
              -57.9924573,
              -20.632918
            ],
            [
              -57.9795408,
              -20.6371308
            ],
            [
              -57.9704846,
              -20.6425567
            ],
            [
              -57.970168,
              -20.6456923
            ],
            [
              -57.9708279,
              -20.6485003
            ],
            [
              -57.9756345,
              -20.6626354
            ],
            [
              -57.9843892,
              -20.6788571
            ],
            [
              -57.9878483,
              -20.6845846
            ],
            [
              -57.9900249,
              -20.691271
            ],
            [
              -57.9884817,
              -20.6987868
            ],
            [
              -57.9836607,
              -20.7046787
            ],
            [
              -57.9759778,
              -20.7067993
            ],
            [
              -57.9659433,
              -20.7046893
            ],
            [
              -57.9593045,
              -20.7051141
            ],
            [
              -57.9548696,
              -20.7042329
            ],
            [
              -57.9512521,
              -20.7017794
            ],
            [
              -57.9488149,
              -20.6971718
            ],
            [
              -57.9444146,
              -20.6852835
            ],
            [
              -57.9392422,
              -20.6788571
            ],
            [
              -57.9337491,
              -20.6668115
            ],
            [
              -57.9308308,
              -20.6652053
            ],
            [
              -57.924136,
              -20.6639204
            ],
            [
              -57.9197479,
              -20.6649561
            ],
            [
              -57.915553,
              -20.668257
            ],
            [
              -57.9089788,
              -20.6782924
            ],
            [
              -57.9064984,
              -20.684474
            ],
            [
              -57.9045843,
              -20.6871769
            ],
            [
              -57.9023499,
              -20.6898712
            ],
            [
              -57.8798136,
              -20.7116463
            ],
            [
              -57.8698911,
              -20.7255851
            ],
            [
              -57.8673161,
              -20.7326492
            ],
            [
              -57.8664661,
              -20.7384279
            ],
            [
              -57.863862,
              -20.7450388
            ],
            [
              -57.8654279,
              -20.7482213
            ],
            [
              -57.8686894,
              -20.7499871
            ],
            [
              -57.8755559,
              -20.7503081
            ],
            [
              -57.8886021,
              -20.7490239
            ],
            [
              -57.9014767,
              -20.7470976
            ],
            [
              -57.9114331,
              -20.7446896
            ],
            [
              -57.9193295,
              -20.7424422
            ],
            [
              -57.925681,
              -20.7422816
            ],
            [
              -57.9347791,
              -20.7456528
            ],
            [
              -57.9437054,
              -20.7568896
            ],
            [
              -57.9488553,
              -20.7653969
            ],
            [
              -57.9533073,
              -20.7797695
            ],
            [
              -57.9562931,
              -20.7855315
            ],
            [
              -57.9618284,
              -20.7916005
            ],
            [
              -57.9618542,
              -20.7935584
            ],
            [
              -57.9612512,
              -20.7959395
            ],
            [
              -57.9592535,
              -20.7978933
            ],
            [
              -57.9563417,
              -20.7993115
            ],
            [
              -57.9466237,
              -20.8005445
            ],
            [
              -57.9405038,
              -20.800509
            ],
            [
              -57.9341309,
              -20.7990888
            ],
            [
              -57.9239195,
              -20.7954207
            ],
            [
              -57.9186256,
              -20.7928081
            ],
            [
              -57.9154799,
              -20.7908402
            ],
            [
              -57.9092035,
              -20.7887018
            ],
            [
              -57.9037447,
              -20.7879094
            ],
            [
              -57.8986313,
              -20.7887198
            ],
            [
              -57.8938637,
              -20.7906965
            ],
            [
              -57.8885167,
              -20.7945658
            ],
            [
              -57.8831881,
              -20.7987737
            ],
            [
              -57.8788174,
              -20.8037539
            ],
            [
              -57.8707494,
              -20.8104935
            ],
            [
              -57.8650845,
              -20.81627
            ],
            [
              -57.8617627,
              -20.8205267
            ],
            [
              -57.8587501,
              -20.8260221
            ],
            [
              -57.8551987,
              -20.8340256
            ],
            [
              -57.8542483,
              -20.837321
            ],
            [
              -57.8540272,
              -20.8408565
            ],
            [
              -57.8548233,
              -20.8445785
            ],
            [
              -57.8559584,
              -20.8480336
            ],
            [
              -57.8577094,
              -20.8506765
            ],
            [
              -57.859986,
              -20.8527259
            ],
            [
              -57.8623357,
              -20.8537927
            ],
            [
              -57.8657712,
              -20.8539725
            ],
            [
              -57.872101,
              -20.8538127
            ],
            [
              -57.8863253,
              -20.863309
            ],
            [
              -57.8956938,
              -20.866864
            ],
            [
              -57.9004101,
              -20.8688189
            ],
            [
              -57.904545,
              -20.8710224
            ],
            [
              -57.9086542,
              -20.8745812
            ],
            [
              -57.9149971,
              -20.8817987
            ],
            [
              -57.9188145,
              -20.88509
            ],
            [
              -57.927226,
              -20.8931089
            ],
            [
              -57.9283974,
              -20.8949939
            ],
            [
              -57.9289188,
              -20.8968923
            ],
            [
              -57.9289682,
              -20.8985481
            ],
            [
              -57.9283652,
              -20.9003643
            ],
            [
              -57.925904,
              -20.903329
            ],
            [
              -57.9243526,
              -20.9040106
            ],
            [
              -57.9225867,
              -20.9045277
            ],
            [
              -57.9208336,
              -20.904648
            ],
            [
              -57.9177846,
              -20.9043347
            ],
            [
              -57.9015388,
              -20.9022065
            ],
            [
              -57.8975842,
              -20.9026114
            ],
            [
              -57.893636,
              -20.9040527
            ],
            [
              -57.8890698,
              -20.9063719
            ],
            [
              -57.8844735,
              -20.9103768
            ],
            [
              -57.8813107,
              -20.9141872
            ],
            [
              -57.8798816,
              -20.918234
            ],
            [
              -57.8776328,
              -20.9298768
            ],
            [
              -57.8764097,
              -20.9345485
            ],
            [
              -57.8746976,
              -20.9386483
            ],
            [
              -57.8718629,
              -20.9424886
            ],
            [
              -57.8680091,
              -20.9460217
            ],
            [
              -57.8638205,
              -20.9484665
            ],
            [
              -57.8592179,
              -20.9498332
            ],
            [
              -57.8546066,
              -20.9493803
            ],
            [
              -57.8494224,
              -20.9482621
            ],
            [
              -57.8454227,
              -20.9466549
            ],
            [
              -57.8431761,
              -20.9446269
            ],
            [
              -57.8397715,
              -20.9409243
            ],
            [
              -57.8356529,
              -20.9376193
            ],
            [
              -57.829587,
              -20.9338691
            ],
            [
              -57.826776,
              -20.9336827
            ],
            [
              -57.8240144,
              -20.9340715
            ],
            [
              -57.8216562,
              -20.935272
            ],
            [
              -57.8199117,
              -20.9373883
            ],
            [
              -57.8191907,
              -20.940665
            ],
            [
              -57.8186607,
              -20.9465868
            ],
            [
              -57.8193409,
              -20.9503041
            ],
            [
              -57.8231992,
              -20.9566036
            ],
            [
              -57.8242655,
              -20.9597242
            ],
            [
              -57.8244008,
              -20.9626952
            ],
            [
              -57.8228558,
              -20.9684658
            ],
            [
              -57.8205009,
              -20.9739485
            ],
            [
              -57.816504,
              -20.9795643
            ],
            [
              -57.8185456,
              -20.9822725
            ],
            [
              -57.8203412,
              -20.9831877
            ],
            [
              -57.8250874,
              -20.9880204
            ],
            [
              -57.83547490264566,
              -21
            ],
            [
              -57,
              -21
            ],
            [
              -57,
              -20
            ],
            [
              -57.874252443076834,
              -20
            ],
            [
              -57.875874,
              -20.0017495
            ],
            [
              -57.8892635,
              -20.0199761
            ],
            [
              -57.8949284,
              -20.0283629
            ],
            [
              -57.9005932,
              -20.0383619
            ],
            [
              -57.9024815,
              -20.0420711
            ],
            [
              -57.9038059,
              -20.0428673
            ],
            [
              -57.9054998,
              -20.0431602
            ],
            [
              -57.9079931,
              -20.042204
            ],
            [
              -57.9127812,
              -20.0369105
            ],
            [
              -57.9199909,
              -20.0296531
            ],
            [
              -57.9266857,
              -20.023847
            ],
            [
              -57.9366421,
              -20.0194922
            ],
            [
              -57.9419636,
              -20.0188471
            ],
            [
              -57.9471134,
              -20.0188471
            ],
            [
              -57.9534649,
              -20.0209438
            ],
            [
              -57.961018,
              -20.0246534
            ],
            [
              -57.9635929,
              -20.0280403
            ],
            [
              -57.9658245,
              -20.0314272
            ],
            [
              -57.9680942,
              -20.035579
            ],
            [
              -57.9688167,
              -20.0384707
            ],
            [
              -57.9723094,
              -20.0493508
            ],
            [
              -57.9778719,
              -20.0553808
            ],
            [
              -57.979452,
              -20.0568026
            ],
            [
              -57.9874851,
              -20.0587112
            ],
            [
              -57.9975941,
              -20.0568148
            ],
            [
              -58,
              -20.05694841637272
            ],
            [
              -58,
              -20.432690785696362
            ],
            [
              -57.9984654,
              -20.4355116
            ],
            [
              -57.9962594,
              -20.4478519
            ],
            [
              -57.9977617,
              -20.4535529
            ],
            [
              -58,
              -20.458447048826518
            ],
            [
              -58,
              -20.555347778719568
            ],
            [
              -57.9985631,
              -20.5561796
            ],
            [
              -57.9952421,
              -20.561592
            ],
            [
              -57.995073,
              -20.5678105
            ],
            [
              -57.9964127,
              -20.5720896
            ],
            [
              -57.9979504,
              -20.5781263
            ],
            [
              -58,
              -20.580656852749243
            ],
            [
              -58,
              -20.626950257681195
            ]
          ]
        ]
      }
    },
    {
      "type": "Feature",
      "properties": {
        "osm_id": -287077,
        "boundary": "administrative",
        "admin_level": 2,
        "parents": null,
        "name": "Paraguay",
        "local_name": "Paraguay / ParaguÃ¡i",
        "name_en": "Paraguay",
        "all_tags": {
          "flag": "http://upload.wikimedia.org/wikipedia/commons/2/27/Flag_of_Paraguay.svg",
          "name": "Paraguay / ParaguÃ¡i",
          "name:af": "Paraguay",
          "name:am": "á“áˆ«áŒ“á‹­",
          "name:an": "Paraguai",
          "name:ar": "Ø¨Ø§Ø±Ø§ØºÙˆØ§ÙŠ",
          "name:ay": "Parawayi",
          "name:az": "Paraqvay",
          "name:ba": "ĞŸĞ°Ñ€Ğ°Ğ³Ğ²Ğ°Ğ¹",
          "name:be": "ĞŸĞ°Ñ€Ğ°Ğ³Ğ²Ğ°Ğ¹",
          "name:bg": "ĞŸĞ°Ñ€Ğ°Ğ³Ğ²Ğ°Ğ¹",
          "name:bi": "Paraguay",
          "name:bn": "à¦ªà§à¦¯à¦¾à¦°à¦¾à¦—à§à¦¯à¦¼à§‡",
          "name:bo": "à½”à¼‹à½¢à¼‹à½‚à½´à¼‹à½¡à½ºà¼",
          "name:br": "Paraguay",
          "name:bs": "Paragvaj",
          "name:ca": "Paraguai",
          "name:ce": "ĞŸĞ°Ñ€Ğ°Ğ³Ğ²Ğ°Ğ¹",
          "name:co": "Paraguay",
          "name:cs": "Paraguay",
          "name:cv": "ĞŸĞ°Ñ€Ğ°Ğ³Ğ²Ğ°Ğ¹",
          "name:cy": "Paraguay",
          "name:da": "Paraguay",
          "name:de": "Paraguay",
          "name:dv": "Ş•Ş¬ŞƒŞ¦ŞŞªŞ‡Ş­",
          "name:ee": "Paraguay",
          "name:el": "Î Î±ÏÎ±Î³Î¿Ï…Î¬Î·",
          "name:en": "Paraguay",
          "name:eo": "Paragvajo",
          "name:es": "Paraguay",
          "name:et": "Paraguay",
          "name:eu": "Paraguai",
          "name:fa": "Ù¾Ø§Ø±Ø§Ú¯ÙˆØ¦Ù‡",
          "name:fi": "Paraguay",
          "name:fo": "Paraguei",
          "name:fr": "Paraguay",
          "name:fy": "Paraguay",
          "name:ga": "Paragua",
          "name:gd": "Paraguaidh",
          "name:gl": "Paraguai",
          "name:gn": "ParaguÃ¡i",
          "name:gv": "Yn Pharaguay",
          "name:he": "×¤×¨×’×•×•××™",
          "name:hi": "à¤ªà¥ˆà¤°à¤¾à¤—à¥à¤µà¥‡",
          "name:hr": "Paragvaj",
          "name:ht": "Paragwe",
          "name:hu": "Paraguay",
          "name:hy": "ÕŠÕ¡Ö€Õ¡Õ£Õ¾Õ¡Õµ",
          "name:ia": "Paraguay",
          "name:id": "Paraguay",
          "name:ie": "Paraguay",
          "name:io": "Paraguay",
          "name:is": "ParagvÃ¦",
          "name:it": "Paraguay",
          "name:ja": "ãƒ‘ãƒ©ã‚°ã‚¢ã‚¤",
          "name:jv": "Paraguay",
          "name:ka": "áƒáƒáƒ áƒáƒ’áƒ•áƒáƒ˜",
          "name:kk": "ĞŸĞ°Ñ€Ğ°Ğ³Ğ²Ğ°Ğ¹",
          "name:kl": "Paraguay",
          "name:kn": "à²ªà³†à²°à²—à³à²µà³†",
          "name:ko": "íŒŒë¼ê³¼ì´",
          "name:ku": "Paraguay",
          "name:kw": "Paragway",
          "name:la": "Paraquaria",
          "name:lb": "Paraguay",
          "name:li": "Paraguay",
          "name:ln": "Palagway",
          "name:lt": "Paragvajus",
          "name:lv": "Paragvaja",
          "name:mk": "ĞŸĞ°Ñ€Ğ°Ğ³Ğ²Ğ°Ñ˜",
          "name:ml": "à´ªà´°à´—àµà´µàµ†",
          "name:mn": "ĞŸĞ°Ñ€Ğ°Ğ³Ğ²Ğ°Ğ¹",
          "name:mr": "à¤ªà¥‡à¤°à¤¾à¤—à¥à¤µà¥‡",
          "name:ms": "Paraguay",
          "name:mt": "Paragwaj",
          "name:my": "á€•á€«á€›á€¬á€‚á€½á€±á€¸á€”á€­á€¯á€„á€ºá€„á€¶",
          "name:ne": "à¤ªà¤¾à¤°à¤¾à¤—à¥à¤µà¥‡",
          "name:nl": "Paraguay",
          "name:nn": "Paraguay",
          "name:no": "Paraguay",
          "name:oc": "Paraguai",
          "name:or": "à¬ªà¬¾à¬°à¬¾à¬—à­à¬",
          "name:os": "ĞŸĞ°Ñ€Ğ°Ğ³Ğ²Ğ°Ğ¹",
          "name:pa": "à¨ªà©ˆà¨°à¨¾à¨—à©à¨",
          "name:pl": "Paragwaj",
          "name:pt": "Paraguai",
          "name:qu": "Parawayi",
          "name:rm": "Paraguay",
          "name:ro": "Paraguay",
          "name:ru": "ĞŸĞ°Ñ€Ğ°Ğ³Ğ²Ğ°Ğ¹",
          "name:rw": "Paragwe",
          "name:sa": "à¤ªà¥‡à¤°à¥‡à¤—à¥à¤µà¤¾à¤¯",
          "name:se": "Paraguay",
          "name:sh": "Paragvaj",
          "name:sk": "Paraguaj",
          "name:sl": "Paragvaj",
          "name:so": "Paraguay",
          "name:sq": "Paraguaji",
          "name:sr": "ĞŸĞ°Ñ€Ğ°Ğ³Ğ²Ğ°Ñ˜",
          "name:su": "Paraguay",
          "name:sv": "Paraguay",
          "name:sw": "Paraguay",
          "name:ta": "à®ªà®°à®•à¯à®µà¯ˆ",
          "name:tg": "ĞŸĞ°Ñ€Ğ°Ğ³Ğ²Ğ°Ğ¹",
          "name:th": "à¸›à¸£à¸°à¹€à¸—à¸¨à¸›à¸²à¸£à¸²à¸à¸§à¸±à¸¢",
          "name:tl": "Paraguay",
          "name:tr": "Paraguay",
          "name:tt": "ĞŸĞ°Ñ€Ğ°Ğ³Ğ²Ğ°Ğ¹",
          "name:ug": "Ù¾Ø§Ø±Ø§Ú¯Û‹Ø§ÙŠ",
          "name:uk": "ĞŸĞ°Ñ€Ğ°Ğ³Ğ²Ğ°Ğ¹",
          "name:ur": "Ù¾ÛŒØ±Ø§Ú¯ÙˆØ¦Û’",
          "name:uz": "Paragvay",
          "name:vi": "Paraguay",
          "name:vo": "ParagvÃ¤n",
          "name:wo": "Paraguwaay",
          "name:yi": "×¤××¨××’×•×•×™×™",
          "name:yo": "ParagÃºÃ¡Ã¬",
          "name:zh": "å·´æ‹‰åœ­",
          "boundary": "administrative",
          "name:ace": "Paraguay",
          "name:als": "Paraguay",
          "name:ang": "Paraguay",
          "name:arz": "Ø¨Ø§Ø±Ø§Ø¬ÙˆØ§Ù‰",
          "name:ast": "ParaguÃ¡i",
          "name:bar": "Paraguay",
          "name:bcl": "Paraguay",
          "name:bpy": "à¦ªà¦¾à¦°à¦¾à¦—à§à¦¯à¦¼à§‡",
          "name:ceb": "Paraguay",
          "name:ckb": "Ù¾Ø§Ø±Ø§Ú¯ÙˆØ§ÛŒ",
          "name:crh": "Paragvay",
          "name:diq": "Paraguay",
          "name:dsb": "Paraguay",
          "name:ext": "Paraguai",
          "name:frp": "Paragoayi",
          "name:frr": "Paraguay",
          "name:gag": "Paragvay",
          "name:hak": "PÃ¢-lÃ¢-kÃ»i",
          "name:hif": "Paraguay",
          "name:hsb": "Paraguay",
          "name:ilo": "Paraguay",
          "name:jbo": "paraguais",
          "name:lad": "Paraguay",
          "name:lez": "ĞŸĞ°Ñ€Ğ°Ğ³Ğ²Ğ°Ğ¹",
          "name:lij": "Paraguay",
          "name:lmo": "Paraguay",
          "name:ltg": "Paragvajs",
          "name:mhr": "ĞŸĞ°Ñ€Ğ°Ğ³Ğ²Ğ°Ğ¹",
          "name:mrj": "ĞŸĞ°Ñ€Ğ°Ğ³Ğ²Ğ°Ğ¹",
          "name:nah": "Paraguay",
          "name:nan": "Paraguay",
          "name:nap": "Paraguay",
          "name:nds": "Paraguay",
          "name:nov": "Paraguay",
          "name:pam": "Paraguay",
          "name:pap": "Paraguay",
          "name:pdc": "Paraguay",
          "name:pms": "Paraguay",
          "name:pnb": "Ù¾ÛŒØ±Ø§Ú¯ÙˆÛ“",
          "name:rmy": "Paraguay",
          "name:sah": "ĞŸĞ°Ñ€Ğ°Ğ³ÑƒĞ°Ğ¹",
          "name:sco": "Paraguay",
          "name:smn": "Paraguay",
          "name:sms": "Paraguay",
          "name:szl": "Paragwaj",
          "name:tet": "Paraguai",
          "name:tok": "ma Palakawi",
          "name:tzl": "Paraguai",
          "name:vec": "Paraguay",
          "name:vro": "Paraguay",
          "name:war": "Paraguay",
          "name:wuu": "å·´æ‹‰åœ­",
          "name:xal": "ĞŸĞ°Ñ€Ğ°Ğ³Ğ°Ğ¹Ğ¼ÑƒĞ´Ğ¸Ğ½ ĞÑ€Ğ½",
          "name:xmf": "áƒáƒáƒ áƒáƒ’áƒ•áƒáƒ˜",
          "name:yue": "å·´æ‹‰åœ­",
          "timezone": "America/Asuncion",
          "way_area": "35.2754",
          "wikidata": "Q733",
          "ISO3166-1": "PY",
          "wikipedia": "en:Paraguay",
          "population": "7012433",
          "admin_level": "2",
          "border_type": "nation",
          "name:simple": "Paraguay",
          "name:bat-smg": "Paragvajos",
          "name:zh-Hans": "å·´æ‹‰åœ­",
          "name:zh-Hant": "å·´æ‹‰åœ­",
          "name:be-tarask": "ĞŸĞ°Ñ€Ğ°Ğ³Ğ²Ğ°Ğ¹",
          "population:date": "2015",
          "ISO3166-1:alpha2": "PY",
          "ISO3166-1:alpha3": "PRY",
          "official_name:cs": "ParaguayskÃ¡ republika",
          "official_name:en": "Republic of Paraguay",
          "official_name:es": "RepÃºblica del Paraguay",
          "official_name:gn": "TavakuairetÃ£ ParaguÃ¡i",
          "official_name:ru": "Ğ ĞµÑĞ¿ÑƒĞ±Ğ»Ğ¸ĞºĞ° ĞŸĞ°Ñ€Ğ°Ğ³Ğ²Ğ°Ğ¹",
          "ISO3166-1:numeric": "600"
        }
      },
      "geometry": {
        "type": "MultiPolygon",
        "coordinates": [
          [
            [
              [
                -58,
                -21
              ],
              [
                -57.83547490264566,
                -21
              ],
              [
                -57.8250874,
                -20.9880204
              ],
              [
                -57.8203412,
                -20.9831877
              ],
              [
                -57.8185456,
                -20.9822725
              ],
              [
                -57.816504,
                -20.9795643
              ],
              [
                -57.8205009,
                -20.9739485
              ],
              [
                -57.8228558,
                -20.9684658
              ],
              [
                -57.8244008,
                -20.9626952
              ],
              [
                -57.8242655,
                -20.9597242
              ],
              [
                -57.8231992,
                -20.9566036
              ],
              [
                -57.8193409,
                -20.9503041
              ],
              [
                -57.8186607,
                -20.9465868
              ],
              [
                -57.8191907,
                -20.940665
              ],
              [
                -57.8199117,
                -20.9373883
              ],
              [
                -57.8216562,
                -20.935272
              ],
              [
                -57.8240144,
                -20.9340715
              ],
              [
                -57.826776,
                -20.9336827
              ],
              [
                -57.829587,
                -20.9338691
              ],
              [
                -57.8356529,
                -20.9376193
              ],
              [
                -57.8397715,
                -20.9409243
              ],
              [
                -57.8431761,
                -20.9446269
              ],
              [
                -57.8454227,
                -20.9466549
              ],
              [
                -57.8494224,
                -20.9482621
              ],
              [
                -57.8546066,
                -20.9493803
              ],
              [
                -57.8592179,
                -20.9498332
              ],
              [
                -57.8638205,
                -20.9484665
              ],
              [
                -57.8680091,
                -20.9460217
              ],
              [
                -57.8718629,
                -20.9424886
              ],
              [
                -57.8746976,
                -20.9386483
              ],
              [
                -57.8764097,
                -20.9345485
              ],
              [
                -57.8776328,
                -20.9298768
              ],
              [
                -57.8798816,
                -20.918234
              ],
              [
                -57.8813107,
                -20.9141872
              ],
              [
                -57.8844735,
                -20.9103768
              ],
              [
                -57.8890698,
                -20.9063719
              ],
              [
                -57.893636,
                -20.9040527
              ],
              [
                -57.8975842,
                -20.9026114
              ],
              [
                -57.9015388,
                -20.9022065
              ],
              [
                -57.9177846,
                -20.9043347
              ],
              [
                -57.9208336,
                -20.904648
              ],
              [
                -57.9225867,
                -20.9045277
              ],
              [
                -57.9243526,
                -20.9040106
              ],
              [
                -57.925904,
                -20.903329
              ],
              [
                -57.9283652,
                -20.9003643
              ],
              [
                -57.9289682,
                -20.8985481
              ],
              [
                -57.9289188,
                -20.8968923
              ],
              [
                -57.9283974,
                -20.8949939
              ],
              [
                -57.927226,
                -20.8931089
              ],
              [
                -57.9188145,
                -20.88509
              ],
              [
                -57.9149971,
                -20.8817987
              ],
              [
                -57.9086542,
                -20.8745812
              ],
              [
                -57.904545,
                -20.8710224
              ],
              [
                -57.9004101,
                -20.8688189
              ],
              [
                -57.8956938,
                -20.866864
              ],
              [
                -57.8863253,
                -20.863309
              ],
              [
                -57.872101,
                -20.8538127
              ],
              [
                -57.8657712,
                -20.8539725
              ],
              [
                -57.8623357,
                -20.8537927
              ],
              [
                -57.859986,
                -20.8527259
              ],
              [
                -57.8577094,
                -20.8506765
              ],
              [
                -57.8559584,
                -20.8480336
              ],
              [
                -57.8548233,
                -20.8445785
              ],
              [
                -57.8540272,
                -20.8408565
              ],
              [
                -57.8542483,
                -20.837321
              ],
              [
                -57.8551987,
                -20.8340256
              ],
              [
                -57.8587501,
                -20.8260221
              ],
              [
                -57.8617627,
                -20.8205267
              ],
              [
                -57.8650845,
                -20.81627
              ],
              [
                -57.8707494,
                -20.8104935
              ],
              [
                -57.8788174,
                -20.8037539
              ],
              [
                -57.8831881,
                -20.7987737
              ],
              [
                -57.8885167,
                -20.7945658
              ],
              [
                -57.8938637,
                -20.7906965
              ],
              [
                -57.8986313,
                -20.7887198
              ],
              [
                -57.9037447,
                -20.7879094
              ],
              [
                -57.9092035,
                -20.7887018
              ],
              [
                -57.9154799,
                -20.7908402
              ],
              [
                -57.9186256,
                -20.7928081
              ],
              [
                -57.9239195,
                -20.7954207
              ],
              [
                -57.9341309,
                -20.7990888
              ],
              [
                -57.9405038,
                -20.800509
              ],
              [
                -57.9466237,
                -20.8005445
              ],
              [
                -57.9563417,
                -20.7993115
              ],
              [
                -57.9592535,
                -20.7978933
              ],
              [
                -57.9612512,
                -20.7959395
              ],
              [
                -57.9618542,
                -20.7935584
              ],
              [
                -57.9618284,
                -20.7916005
              ],
              [
                -57.9562931,
                -20.7855315
              ],
              [
                -57.9533073,
                -20.7797695
              ],
              [
                -57.9488553,
                -20.7653969
              ],
              [
                -57.9437054,
                -20.7568896
              ],
              [
                -57.9347791,
                -20.7456528
              ],
              [
                -57.925681,
                -20.7422816
              ],
              [
                -57.9193295,
                -20.7424422
              ],
              [
                -57.9114331,
                -20.7446896
              ],
              [
                -57.9014767,
                -20.7470976
              ],
              [
                -57.8886021,
                -20.7490239
              ],
              [
                -57.8755559,
                -20.7503081
              ],
              [
                -57.8686894,
                -20.7499871
              ],
              [
                -57.8654279,
                -20.7482213
              ],
              [
                -57.863862,
                -20.7450388
              ],
              [
                -57.8664661,
                -20.7384279
              ],
              [
                -57.8673161,
                -20.7326492
              ],
              [
                -57.8698911,
                -20.7255851
              ],
              [
                -57.8798136,
                -20.7116463
              ],
              [
                -57.9023499,
                -20.6898712
              ],
              [
                -57.9045843,
                -20.6871769
              ],
              [
                -57.9064984,
                -20.684474
              ],
              [
                -57.9089788,
                -20.6782924
              ],
              [
                -57.915553,
                -20.668257
              ],
              [
                -57.9197479,
                -20.6649561
              ],
              [
                -57.924136,
                -20.6639204
              ],
              [
                -57.9308308,
                -20.6652053
              ],
              [
                -57.9337491,
                -20.6668115
              ],
              [
                -57.9392422,
                -20.6788571
              ],
              [
                -57.9444146,
                -20.6852835
              ],
              [
                -57.9488149,
                -20.6971718
              ],
              [
                -57.9512521,
                -20.7017794
              ],
              [
                -57.9548696,
                -20.7042329
              ],
              [
                -57.9593045,
                -20.7051141
              ],
              [
                -57.9659433,
                -20.7046893
              ],
              [
                -57.9759778,
                -20.7067993
              ],
              [
                -57.9836607,
                -20.7046787
              ],
              [
                -57.9884817,
                -20.6987868
              ],
              [
                -57.9900249,
                -20.691271
              ],
              [
                -57.9878483,
                -20.6845846
              ],
              [
                -57.9843892,
                -20.6788571
              ],
              [
                -57.9756345,
                -20.6626354
              ],
              [
                -57.9708279,
                -20.6485003
              ],
              [
                -57.970168,
                -20.6456923
              ],
              [
                -57.9704846,
                -20.6425567
              ],
              [
                -57.9795408,
                -20.6371308
              ],
              [
                -57.9924573,
                -20.632918
              ],
              [
                -57.9994954,
                -20.6274558
              ],
              [
                -58,
                -20.626950257681195
              ],
              [
                -58,
                -21
              ]
            ]
          ],
          [
            [
              [
                -58,
                -20.580656852749243
              ],
              [
                -57.9979504,
                -20.5781263
              ],
              [
                -57.9964127,
                -20.5720896
              ],
              [
                -57.995073,
                -20.5678105
              ],
              [
                -57.9952421,
                -20.561592
              ],
              [
                -57.9985631,
                -20.5561796
              ],
              [
                -58,
                -20.555347778719568
              ],
              [
                -58,
                -20.580656852749243
              ]
            ]
          ],
          [
            [
              [
                -58,
                -20.458447048826518
              ],
              [
                -57.9977617,
                -20.4535529
              ],
              [
                -57.9962594,
                -20.4478519
              ],
              [
                -57.9984654,
                -20.4355116
              ],
              [
                -58,
                -20.432690785696362
              ],
              [
                -58,
                -20.458447048826518
              ]
            ]
          ]
        ]
      }
    }
  ]
}