{
  "type": "FeatureCollection",
  "features": [
    {
      "type": "Feature",
      "properties": {
        "osm_id": -184633,
        "boundary": "administrative",
        "admin_level": 2,
        "parents": null,
        "name": "Nepal",
        "local_name": "नेपाल",
        "name_en": "Nepal",
        "all_tags": {
          "flag": "http://upload.wikimedia.org/wikipedia/commons/9/9b/Flag_of_Nepal.svg",
          "name": "नेपाल",
          "name:af": "Nepal",
          "name:am": "ኔፓል",
          "name:an": "Nepal",
          "name:ar": "نيبال",
          "name:as": "নেপাল",
          "name:az": "Nepal",
          "name:ba": "Непал",
          "name:be": "Непал",
          "name:bg": "Непал",
          "name:bh": "नेपाल",
          "name:bn": "নেপাল",
          "name:bo": "བལ་ཡུལ།",
          "name:br": "Nepal",
          "name:bs": "Nepal",
          "name:ca": "Nepal",
          "name:ce": "Непал",
          "name:cs": "Nepál",
          "name:cv": "Непал",
          "name:cy": "Nepal",
          "name:da": "Nepal",
          "name:de": "Nepal",
          "name:dv": "ނޭޕާލް",
          "name:dz": "བལ་ཡུལ་",
          "name:el": "Νεπάλ",
          "name:en": "Nepal",
          "name:eo": "Nepalo",
          "name:es": "Nepal",
          "name:et": "Nepal",
          "name:eu": "Nepal",
          "name:fa": "نپال",
          "name:fi": "Nepal",
          "name:fo": "Nepal",
          "name:fr": "Népal",
          "name:fy": "Nepal",
          "name:ga": "Neipeal",
          "name:gd": "Neapàl",
          "name:gl": "Nepal",
          "name:gn": "Nepal",
          "name:gu": "નેપાળ",
          "name:gv": "Nepaal",
          "name:he": "נפאל",
          "name:hi": "नेपाल",
          "name:hr": "Nepal",
          "name:ht": "Nepal",
          "name:hu": "Nepál",
          "name:hy": "Նեպալ",
          "name:ia": "Nepal",
          "name:id": "Nepal",
          "name:ie": "Nepal",
          "name:io": "Nepal",
          "name:is": "Nepal",
          "name:it": "Nepal",
          "name:ja": "ネパール",
          "name:jv": "Nepal",
          "name:ka": "ნეპალი",
          "name:kk": "Непал",
          "name:kl": "Nepal",
          "name:km": "នេប៉ាល់",
          "name:kn": "ನೇಪಾಳ",
          "name:ko": "네팔",
          "name:ku": "Nepal",
          "name:kv": "Непал",
          "name:kw": "Nepal",
          "name:ky": "Непал",
          "name:la": "Nepalia",
          "name:lb": "Nepal",
          "name:lg": "Nepal",
          "name:li": "Nepal",
          "name:ln": "Nepáli",
          "name:lt": "Nepalas",
          "name:lv": "Nepāla",
          "name:mg": "Nepal",
          "name:mi": "Nepōra",
          "name:mk": "Непал",
          "name:ml": "നേപ്പാൾ",
          "name:mn": "Балба",
          "name:mr": "नेपाळ",
          "name:ms": "Nepal",
          "name:my": "နီပေါနိုင်ငံ",
          "name:na": "Nepar",
          "name:ne": "नेपाल",
          "name:nl": "Nepal",
          "name:nn": "Nepal",
          "name:no": "Nepal",
          "name:nv": "Dziłgaiitsoh Honeezkʼazii Bikéyah",
          "name:oc": "Nepal",
          "name:or": "ନେପାଳ",
          "name:os": "Непал",
          "name:pa": "ਨੇਪਾਲ",
          "name:pi": "नेपाल",
          "name:pl": "Nepal",
          "name:ps": "نيپال",
          "name:pt": "Nepal",
          "name:qu": "Nipal",
          "name:ro": "Nepal",
          "name:ru": "Непал",
          "name:rw": "Nepali",
          "name:sa": "नेपालदेशः",
          "name:sd": "نيپال",
          "name:se": "Nepal",
          "name:sh": "Nepal",
          "name:si": "නේපාලය",
          "name:sk": "Nepál",
          "name:sl": "Nepal",
          "name:so": "Nebal",
          "name:sq": "Nepali",
          "name:sr": "Непал",
          "name:ss": "INephali",
          "name:su": "Nepal",
          "name:sv": "Nepal",
          "name:sw": "Nepal",
          "name:ta": "நேபாளம்",
          "name:te": "నేపాల్",
          "name:tg": "Непал",
          "name:th": "ประเทศเนปาล",
          "name:tk": "Nepal",
          "name:tl": "Nepal",
          "name:tr": "Nepal",
          "name:tt": "Непал",
          "name:tw": "Nepal",
          "name:ug": "نېپال",
          "name:uk": "Непал",
          "name:ur": "نیپال",
          "name:uz": "Nepal",
          "name:vi": "Nepal",
          "name:vo": "Nepalän",
          "name:wo": "Nepaal",
          "name:yi": "נעפאל",
          "name:yo": "Nepal",
          "name:zh": "尼泊尔 / 尼泊爾",
          "boundary": "administrative",
          "name:ace": "Nepal",
          "name:als": "Nepal",
          "name:arz": "نيبال",
          "name:ast": "Nepal",
          "name:bar": "Nepal",
          "name:bcl": "Nepal",
          "name:bjn": "Nepal",
          "name:bpy": "নেপাল",
          "name:bxr": "Балба",
          "name:ceb": "Nepal",
          "name:ckb": "نیپال",
          "name:crh": "Nepal",
          "name:csb": "Nepal",
          "name:din": "Nïpal",
          "name:diq": "Nepal",
          "name:ext": "Nepal",
          "name:frp": "Nèpal",
          "name:gag": "Nepal",
          "name:hak": "Nì-pok",
          "name:haw": "Nepala",
          "name:hif": "Nepal",
          "name:hsb": "Nepal",
          "name:ilo": "Nepal",
          "name:jbo": "nepal",
          "name:krc": "Непал",
          "name:lez": "Непал",
          "name:lij": "Nepal",
          "name:lmo": "Nepal",
          "name:mzn": "نپال",
          "name:nah": "Nepal",
          "name:nan": "Nepal",
          "name:nds": "Nepal",
          "name:new": "नेपाः",
          "name:nov": "Nepal",
          "name:pam": "Nepal",
          "name:pap": "Nepal",
          "name:pih": "Nepal",
          "name:pms": "Nepal",
          "name:pnb": "نیپال",
          "name:sah": "Непал",
          "name:scn": "Nepal",
          "name:sco": "Nepal",
          "name:smn": "Nepal",
          "name:sms": "Nepal",
          "name:szl": "Nepal",
          "name:tzl": "Nepal",
          "name:udm": "Непал",
          "name:vec": "Nèpal",
          "name:vro": "Nepal",
          "name:war": "Nepal",
          "name:wuu": "尼泊尔",
          "name:xal": "Балвудин Улсин Ниицәтә Орн",
          "name:yue": "尼泊爾",
          "name:zea": "Nepal",
          "timezone": "Asia/Kathmandu",
          "way_area": "13.61",
          "wikidata": "Q837",
          "ISO3166-1": "NP",
          "wikipedia": "en:Nepal",
          "admin_level": "2",
          "driving_side": "left",
          "name:bat-smg": "Nepals",
          "name:zh-Hans": "尼泊尔",
          "name:zh-Hant": "尼泊爾",
          "name:be-tarask": "Нэпал",
          "ISO3166-1:alpha2": "NP",
          "ISO3166-1:alpha3": "NPL",
          "default_language": "ne",
          "official_name:ar": "جمهورية نيبال الديمقراطية الاتحادية",
          "official_name:cs": "Nepálská federativní demokratická republika",
          "official_name:de": "Demokratische Bundesrepublik Nepal",
          "official_name:en": "Federal Democratic Republic of Nepal",
          "official_name:eo": "Federacia Demokratia Respubliko Nepalo",
          "official_name:es": "República Federal Democrática de Nepal",
          "official_name:fa": "جمهوری فدرال دموکراتیک نپال",
          "official_name:fr": "République démocratique fédérale du Népal",
          "official_name:gn": "Nepal Tavakuairetã Ñembyatypyre Jekopytyjojáva",
          "official_name:pl": "Federalna Demokratyczna Republika Nepalu",
          "official_name:pt": "República Democrática Federal do Nepal",
          "official_name:ru": "Федеративная Демократическая Республика Непал",
          "official_name:ur": "وفاقی جمہوری جمہوریہ نیپال",
          "ISO3166-1:numeric": "524",
          "official_name:ckb": "کۆماری دیموکراتیی فیدراڵیی نیپال"
        }
      },
      "geometry": {
        "type": "Polygon",
        "coordinates": [
          [
            [
              81,
              29
            ],
            [
              82,
              29
            ],
            [
              82,
              30
            ],
            [
              81,
              30
            ],
            [
              81,
              29
            ]
          ]
        ]
      }
    }
  ]
}