{
  "type": "FeatureCollection",
  "features": [
    {
      "type": "Feature",
      "properties": {
        "osm_id": -307584,
        "boundary": "administrative",
        "admin_level": 2,
        "parents": null,
        "name": "Saudi Arabia",
        "local_name": "السعودية",
        "name_en": "Saudi Arabia",
        "all_tags": {
          "flag": "http://upload.wikimedia.org/wikipedia/commons/0/0d/Flag_of_Saudi_Arabia.svg",
          "name": "السعودية",
          "name:af": "Saoedi-Arabië",
          "name:am": "ሳዑዲ አረቢያ",
          "name:an": "Arabia Saudí",
          "name:ar": "السعودية",
          "name:av": "СагIудиязул ГIарабия",
          "name:az": "Səudiyyə Ərəbistanı",
          "name:ba": "Сәғүд Ғәрәбстаны",
          "name:be": "Саудаўская Аравія",
          "name:bg": "Саудитска Арабия",
          "name:bm": "Saudia Arabu ka Faamamara",
          "name:bn": "সৌদি আরব",
          "name:bo": "སའུ་དི་ཨ་ར་པི་ཡ།",
          "name:br": "Arabia Saoudat",
          "name:bs": "Saudijska Arabija",
          "name:ca": "Aràbia Saudita",
          "name:ce": "СаӀудийн Ӏаьрбийчоь",
          "name:cs": "Saúdská Arábie",
          "name:cv": "Сауд Аравийĕ",
          "name:cy": "Saudi Arabia",
          "name:da": "Saudi-Arabien",
          "name:de": "Saudi-Arabien",
          "name:dv": "ސައޫދީ އަރަބިއްޔާ",
          "name:dz": "སའུ་དི་ཨེ་ར་སྦི་ཡ་",
          "name:el": "Σαουδική Αραβία",
          "name:en": "Saudi Arabia",
          "name:eo": "Sauda Arabio",
          "name:es": "Arabia Saudita",
          "name:et": "Saudi Araabia",
          "name:eu": "Saudi Arabia",
          "name:fa": "عربستان سعودی",
          "name:fi": "Saudi-Arabia",
          "name:fo": "Saudi-Arabia",
          "name:fr": "Arabie saoudite",
          "name:fy": "Saûdy-Araabje",
          "name:ga": "An Araib Shádach",
          "name:gd": "Aràibia nan Sabhd",
          "name:gl": "Arabia Saudí",
          "name:gn": "Aravia Saudíta",
          "name:gu": "સાઉદી અરેબિયા",
          "name:gv": "Yn Araab Saudi",
          "name:he": "ערב הסעודית",
          "name:hi": "सउदी अरब",
          "name:hr": "Saudijska Arabija",
          "name:ht": "Arabi Sawoudit",
          "name:hu": "Szaúd-Arábia",
          "name:hy": "Սաուդյան Արաբիա",
          "name:ia": "Arabia Saudita",
          "name:id": "Arab Saudi",
          "name:ie": "Saudi Arabia",
          "name:io": "Saudia Arabia",
          "name:is": "Sádí-Arabía",
          "name:it": "Arabia Saudita",
          "name:ja": "サウジアラビア",
          "name:jv": "Arab Saudi",
          "name:ka": "საუდის არაბეთი",
          "name:kk": "Сауд Арабиясы",
          "name:kl": "Saudi Arabia",
          "name:km": "អារ៉ាប៊ីសាអូឌីត",
          "name:kn": "ಸೌದಿ ಅರೆಬಿಯ",
          "name:ko": "사우디아라비아",
          "name:ku": "Erebistana Siyûdî",
          "name:kv": "Саудса Аравия",
          "name:kw": "Arabi Saoudek",
          "name:ky": "Сауд Арабия Падышалыгы",
          "name:la": "Arabia Saudiana",
          "name:lb": "Saudi-Arabien",
          "name:li": "Saoedi-Arabië",
          "name:ln": "Saudi Arabia",
          "name:lt": "Saudo Arabija",
          "name:lv": "Saūda Arābija",
          "name:mk": "Саудиска Арабија",
          "name:ml": "സൗദി അറേബ്യ",
          "name:mn": "Саудын Араб",
          "name:mr": "सौदी अरेबिया",
          "name:ms": "Arab Saudi",
          "name:mt": "Arabja Sawdija",
          "name:my": "ဆော်ဒီအာရေဗျနိုင်ငံ",
          "name:na": "Taudiarabiya",
          "name:ne": "साउदी अरब",
          "name:nl": "Saoedi-Arabië",
          "name:nn": "Saudi-Arabia",
          "name:no": "Saudi-Arabia",
          "name:nv": "Ásáí Bikéyah Saʼoodí",
          "name:oc": "Arabia Saudita",
          "name:or": "ସାଉଦି ଆରବ",
          "name:os": "Сауды Арави",
          "name:pa": "ਸਉਦੀ ਅਰਬ",
          "name:pl": "Arabia Saudyjska",
          "name:ps": "سعودي عربستان",
          "name:pt": "Arábia Saudita",
          "name:qu": "Sawud Arabya",
          "name:rm": "Arabia Saudita",
          "name:ro": "Arabia Saudită",
          "name:ru": "Саудовская Аравия",
          "name:rw": "Arabiya Sawudite",
          "name:sa": "सऊदी अरब",
          "name:se": "Saudi-Arábia",
          "name:sh": "Saudijska Arabija",
          "name:si": "සවුදි අරාබියාව",
          "name:sk": "Saudská Arábia",
          "name:sl": "Saudova Arabija",
          "name:so": "Sacuudi Carabiya",
          "name:sq": "Arabia Saudite",
          "name:sr": "Саудијска Арабија",
          "name:ss": "I-Arabhiya",
          "name:su": "Saudi Arabia",
          "name:sv": "Saudiarabien",
          "name:sw": "Saudia",
          "name:ta": "சவூதி அரேபியா",
          "name:te": "సౌదీ అరేబియా",
          "name:tg": "Арабистони Саудӣ",
          "name:th": "ประเทศซาอุดีอาระเบีย",
          "name:tk": "Saud Arabystany",
          "name:tl": "Arabyang Saudi",
          "name:tr": "Suudi Arabistan",
          "name:tt": "Согуд Гарәбстаны",
          "name:ug": "سەئۇدى ئەرەبىستان",
          "name:uk": "Саудівська Аравія",
          "name:ur": "سعودی عرب",
          "name:uz": "Saudiya Arabistoni",
          "name:vi": "Ả Rập Saudi",
          "name:vo": "Sauda-Larabän",
          "name:wo": "Araabi Sawdit",
          "name:yi": "סאודי אראביע",
          "name:yo": "Sáúdí Arábíà",
          "name:zh": "沙特阿拉伯 / 沙烏地阿拉伯",
          "boundary": "administrative",
          "name:ace": "Arab Saudi",
          "name:als": "Saudi-Arabien",
          "name:ang": "Saudisc Arabea",
          "name:arc": "ܣܥܘܕܝܐ",
          "name:arz": "المملكه العربيه السعوديه",
          "name:ast": "Arabia Saudita",
          "name:bar": "Saudi Arabien",
          "name:bcl": "Arabya Saudita",
          "name:bpy": "সৌদি আরব",
          "name:bug": "Arab Saudi",
          "name:bxr": "Саудын Араб",
          "name:ceb": "Arabyang Saudita",
          "name:ckb": "عەرەبستانی سعوودی",
          "name:crh": "Saudiy Arabistan",
          "name:csb": "Saudëjskô Arabijô",
          "name:diq": "Erebıstanê Seudi",
          "name:dsb": "Saudiska-Arabska",
          "name:ext": "Arabia Saudita",
          "name:frp": "Arabie saoudita",
          "name:gag": "Saudi Arabiya",
          "name:gan": "沙特阿拉伯",
          "name:hak": "Sâ-vû-thi Â-lâ-pak",
          "name:haw": "Saudi ʻAlapia",
          "name:hif": "Saudi Arabia",
          "name:hsb": "Sawdi-Arabska",
          "name:ilo": "Saudi Arabia",
          "name:jbo": "djogu'e",
          "name:kbd": "Сауд Хьэрыпей",
          "name:lbe": "Саоьдуллал Аьрабусттан",
          "name:lez": "Сауди Арабистан",
          "name:lij": "Arabia Saudïa",
          "name:lmo": "Arabia Saudita",
          "name:lzh": "沙特阿拉伯",
          "name:nah": "Saudarabia",
          "name:nan": "Saud ê A-la-pek",
          "name:nds": "Saudi-Arabien",
          "name:nov": "Saudi Arabia",
          "name:nrm": "Arabie Saudi",
          "name:pam": "Saudita Arabia",
          "name:pap": "Saudi Arabia",
          "name:pdc": "Saudi Arabia",
          "name:pms": "Arabia Saodita",
          "name:pnb": "سعودی عرب",
          "name:rue": "Саудьска Арабія",
          "name:sah": "Сауд Арабията",
          "name:scn": "Arabbia Saudita",
          "name:sco": "Saudi Arabie",
          "name:smn": "Saudi-Arabia",
          "name:sms": "Saudi-Arabia",
          "name:szl": "Saudyjskŏ Arabijŏ",
          "name:tok": "ma Sawusi",
          "name:tzl": "Arabxha Saudì",
          "name:udm": "Сауд Аравия",
          "name:vec": "Arabia Saudìa",
          "name:vro": "Saudi Araabia",
          "name:war": "Arabya Saudita",
          "name:wuu": "沙特阿拉伯",
          "name:xal": "Саудин Араб Нутг",
          "name:yue": "沙地阿拉伯",
          "name:zea": "Saoedi-Araobië",
          "timezone": "Asia/Riyadh",
          "way_area": "182.048",
          "wikidata": "Q851",
          "ISO3166-1": "SA",
          "wikipedia": "ar:السعودية",
          "population": "32175224",
          "admin_level": "2",
          "alt_name:eo": "Sauda Arabujo;Saud-Arabio;Saud-Arabujo",
          "alt_name:vi": "Ả Rập Xê Út;A-rập Xê-út",
          "border_type": "nation",
          "name:bat-smg": "Sauda Arabėjė",
          "name:roa-rup": "Arabia Saudescã",
          "name:zh-Hans": "沙特阿拉伯",
          "name:zh-Hant": "沙烏地阿拉伯",
          "name:roa-tara": "Arabie Saudite",
          "official_name": "المملكة العربية السعودية",
          "name:be-tarask": "Саудаўская Арабія",
          "population:date": "2022",
          "ISO3166-1:alpha2": "SA",
          "ISO3166-1:alpha3": "SAU",
          "default_language": "ar",
          "official_name:ar": "المملكة العربية السعودية",
          "official_name:cs": "Království Saúdská Arábie",
          "official_name:en": "Kingdom of Saudi Arabia",
          "official_name:eo": "Reĝlando Sauda Arabio",
          "official_name:es": "Reino de Arabia Saudita",
          "official_name:fr": "Royaume d’Arabie saoudite",
          "official_name:pt": "Reino da Arábia Saudita",
          "official_name:ru": "Королевство Саудовская Аравия",
          "ISO3166-1:numeric": "682"
        }
      },
      "geometry": {
        "type": "Polygon",
        "coordinates": [
          [
            [
              43,
              16.52152827586237
            ],
            [
              43.0013333,
              16.5215
            ],
            [
              43.0103333,
              16.5224722
            ],
            [
              43.0200278,
              16.5231667
            ],
            [
              43.0215,
              16.5225278
            ],
            [
              43.0308611,
              16.5231667
            ],
            [
              43.0401667,
              16.5241944
            ],
            [
              43.0495,
              16.5245
            ],
            [
              43.0588333,
              16.5251667
            ],
            [
              43.0671667,
              16.5296667
            ],
            [
              43.0761667,
              16.5283611
            ],
            [
              43.0858611,
              16.5286111
            ],
            [
              43.1023056,
              16.5283056
            ],
            [
              43.1118889,
              16.5283056
            ],
            [
              43.1207222,
              16.5285833
            ],
            [
              43.1264167,
              16.5746667
            ],
            [
              43.12975,
              16.5739167
            ],
            [
              43.131,
              16.5842222
            ],
            [
              43.1294722,
              16.5926111
            ],
            [
              43.1398333,
              16.5966111
            ],
            [
              43.1421667,
              16.6054444
            ],
            [
              43.1416111,
              16.6138611
            ],
            [
              43.1393056,
              16.6219722
            ],
            [
              43.1444167,
              16.6286389
            ],
            [
              43.1463333,
              16.6364167
            ],
            [
              43.143,
              16.6455
            ],
            [
              43.1408056,
              16.6550278
            ],
            [
              43.1359444,
              16.6627222
            ],
            [
              43.1286111,
              16.6715278
            ],
            [
              43.1495833,
              16.6737222
            ],
            [
              43.1516389,
              16.67725
            ],
            [
              43.1557222,
              16.6665833
            ],
            [
              43.1573889,
              16.6656389
            ],
            [
              43.1764722,
              16.6596667
            ],
            [
              43.1929444,
              16.6537778
            ],
            [
              43.2062222,
              16.6476389
            ],
            [
              43.2154444,
              16.6471389
            ],
            [
              43.2236111,
              16.6478889
            ],
            [
              43.2268611,
              16.6416944
            ],
            [
              43.2347222,
              16.6428333
            ],
            [
              43.2345556,
              16.65075
            ],
            [
              43.2346667,
              16.6595
            ],
            [
              43.2364167,
              16.6670278
            ],
            [
              43.2268889,
              16.6696389
            ],
            [
              43.2337778,
              16.6760833
            ],
            [
              43.23325,
              16.6851111
            ],
            [
              43.2295833,
              16.6928611
            ],
            [
              43.2276389,
              16.7019444
            ],
            [
              43.2191944,
              16.7000833
            ],
            [
              43.2103333,
              16.7006944
            ],
            [
              43.2116667,
              16.7096944
            ],
            [
              43.2183611,
              16.7168611
            ],
            [
              43.2305278,
              16.7305278
            ],
            [
              43.224,
              16.7371667
            ],
            [
              43.2263056,
              16.7458889
            ],
            [
              43.2320833,
              16.74275
            ],
            [
              43.2396944,
              16.7414444
            ],
            [
              43.2478889,
              16.7437778
            ],
            [
              43.2514444,
              16.7426389
            ],
            [
              43.2556389,
              16.7373611
            ],
            [
              43.2673611,
              16.74425
            ],
            [
              43.2754722,
              16.7468611
            ],
            [
              43.2680278,
              16.7533611
            ],
            [
              43.2588056,
              16.7553056
            ],
            [
              43.2530556,
              16.7697222
            ],
            [
              43.2593889,
              16.7735
            ],
            [
              43.2518333,
              16.7792778
            ],
            [
              43.2573611,
              16.7862778
            ],
            [
              43.2625278,
              16.7869722
            ],
            [
              43.2666111,
              16.7949444
            ],
            [
              43.2616389,
              16.8008611
            ],
            [
              43.2523611,
              16.8047222
            ],
            [
              43.2413611,
              16.8054722
            ],
            [
              43.2325556,
              16.8069444
            ],
            [
              43.2246111,
              16.82325
            ],
            [
              43.2212963,
              16.8382216
            ],
            [
              43.2022778,
              16.8496667
            ],
            [
              43.1993019,
              16.8533
            ],
            [
              43.1939444,
              16.8516389
            ],
            [
              43.1899722,
              16.8483333
            ],
            [
              43.1799722,
              16.8490556
            ],
            [
              43.1750833,
              16.8578611
            ],
            [
              43.1759722,
              16.8668889
            ],
            [
              43.1677778,
              16.8709167
            ],
            [
              43.1596667,
              16.8760556
            ],
            [
              43.1516389,
              16.8800556
            ],
            [
              43.1498006,
              16.8902909
            ],
            [
              43.1453611,
              16.9001111
            ],
            [
              43.1394722,
              16.902
            ],
            [
              43.1375,
              16.9105833
            ],
            [
              43.1381111,
              16.9175833
            ],
            [
              43.1436944,
              16.9246389
            ],
            [
              43.1465013,
              16.9250978
            ],
            [
              43.1523333,
              16.9281111
            ],
            [
              43.1541944,
              16.9289167
            ],
            [
              43.1642778,
              16.9305556
            ],
            [
              43.17225,
              16.9314444
            ],
            [
              43.1754722,
              16.9368889
            ],
            [
              43.18275,
              16.93875
            ],
            [
              43.1902222,
              16.9418889
            ],
            [
              43.1946667,
              16.9445278
            ],
            [
              43.1936667,
              16.9506111
            ],
            [
              43.1947778,
              16.9551389
            ],
            [
              43.1865278,
              16.9593611
            ],
            [
              43.1780556,
              16.9633333
            ],
            [
              43.1775,
              16.9714722
            ],
            [
              43.1774444,
              16.9755278
            ],
            [
              43.1776667,
              16.9780278
            ],
            [
              43.17925,
              16.9785
            ],
            [
              43.1833056,
              16.9789722
            ],
            [
              43.1811667,
              16.9805278
            ],
            [
              43.18175,
              16.9839444
            ],
            [
              43.1796758,
              16.9866326
            ],
            [
              43.1775556,
              16.9897778
            ],
            [
              43.177,
              16.99325
            ],
            [
              43.1783889,
              16.9966389
            ],
            [
              43.17859620026009,
              17
            ],
            [
              43,
              17
            ],
            [
              43,
              16.52152827586237
            ]
          ]
        ]
      }
    },
    {
      "type": "Feature",
      "properties": {
        "osm_id": -305092,
        "boundary": "administrative",
        "admin_level": 2,
        "parents": null,
        "name": "Yemen",
        "local_name": "اليمن",
        "name_en": "Yemen",
        "all_tags": {
          "flag": "http://upload.wikimedia.org/wikipedia/commons/8/89/Flag_of_Yemen.svg",
          "name": "اليمن",
          "name:af": "Jemen",
          "name:am": "የመን (አገር)",
          "name:an": "Yemen",
          "name:ar": "اليمن",
          "name:az": "Yəmən",
          "name:ba": "Йемен",
          "name:be": "Емен",
          "name:bg": "Йемен",
          "name:bn": "ইয়েমেন",
          "name:bo": "ཡེ་མེན།",
          "name:br": "Yemen",
          "name:bs": "Jemen",
          "name:ca": "Iemen",
          "name:ce": "Йемен",
          "name:co": "Yemen",
          "name:cs": "Jemen",
          "name:cv": "Йемен",
          "name:cy": "Yemen",
          "name:da": "Yemen",
          "name:de": "Jemen",
          "name:dv": "ޔަމަން",
          "name:el": "Υεμένη",
          "name:en": "Yemen",
          "name:eo": "Jemeno",
          "name:es": "Yemen",
          "name:et": "Jeemen",
          "name:eu": "Yemen",
          "name:fa": "یمن",
          "name:fi": "Jemen",
          "name:fo": "Jemen",
          "name:fr": "Yémen",
          "name:fy": "Jemen",
          "name:ga": "Poblacht Éimin",
          "name:gd": "Iemen",
          "name:gl": "Iemen - اليمن",
          "name:gn": "Jemẽ",
          "name:gu": "યેમેન",
          "name:gv": "Yn Yeaman",
          "name:he": "תימן",
          "name:hi": "यमन",
          "name:hr": "Jemen",
          "name:ht": "Yemèn",
          "name:hu": "Jemen",
          "name:hy": "Եմեն",
          "name:ia": "Yemen",
          "name:id": "Yaman",
          "name:ie": "Yemen",
          "name:io": "Yemen",
          "name:is": "Jemen",
          "name:it": "Yemen",
          "name:ja": "イエメン",
          "name:jv": "Yaman",
          "name:ka": "იემენი",
          "name:ki": "Yemen",
          "name:kk": "Йемен",
          "name:kl": "Yemen",
          "name:kn": "ಯೆಮೆನ್",
          "name:ko": "예멘",
          "name:ks": "یَمَن",
          "name:ku": "Yemen",
          "name:kv": "Йемен",
          "name:kw": "Yemen",
          "name:ky": "Йемен",
          "name:la": "Iemenia",
          "name:lb": "Jemen",
          "name:li": "Jeme",
          "name:ln": "Yeméni",
          "name:lt": "Jemenas",
          "name:lv": "Jemena",
          "name:mk": "Јемен",
          "name:ml": "യെമൻ",
          "name:mn": "Йемен",
          "name:mr": "येमेनचे प्रजासत्ताक",
          "name:ms": "Yaman",
          "name:mt": "Jemen",
          "name:my": "ယီမင်နိုင်ငံ",
          "name:na": "Yemen",
          "name:ne": "गणतन्त्र यमन",
          "name:nl": "Jemen",
          "name:nn": "Jemen",
          "name:no": "Jemen",
          "name:nv": "Shádiʼááhjí Ásáí Bikéyah",
          "name:oc": "Iemèn",
          "name:or": "ୟେମେନ",
          "name:os": "Йемен",
          "name:pa": "ਯਮਨ",
          "name:pl": "Jemen",
          "name:ps": "یمن",
          "name:pt": "Iémen",
          "name:qu": "Yaman",
          "name:ro": "Yemen",
          "name:ru": "Йемен",
          "name:rw": "Yemeni",
          "name:sa": "यमन",
          "name:sd": "يمن",
          "name:se": "Jemen",
          "name:sh": "Jemen",
          "name:sk": "Jemen",
          "name:sl": "Jemen",
          "name:so": "Yemen",
          "name:sq": "Jemeni",
          "name:sr": "Јемен",
          "name:ss": "IYemeni",
          "name:su": "Yaman",
          "name:sv": "Jemen",
          "name:sw": "Yemen",
          "name:ta": "யெமன்",
          "name:te": "యెమన్",
          "name:tg": "Яман",
          "name:th": "ประเทศเยเมน",
          "name:tk": "Ýemen",
          "name:tl": "Yemen",
          "name:tr": "Yemen",
          "name:tt": "Йәмән",
          "name:ug": "يەمەن",
          "name:uk": "Ємен",
          "name:ur": "یمن",
          "name:uz": "Yaman",
          "name:vi": "Yemen",
          "name:vo": "Yämän",
          "name:wo": "Yaman",
          "name:yi": "תימן",
          "name:yo": "Yemen",
          "name:zh": "也门 / 葉門",
          "name:zu": "IYemen",
          "boundary": "administrative",
          "name:ace": "Yaman",
          "name:als": "Jemen",
          "name:ang": "Gemen",
          "name:arc": "ܝܡܢ",
          "name:arz": "اليمن",
          "name:ast": "Yeme",
          "name:azb": "یمن",
          "name:bar": "Jemen",
          "name:bcl": "Yemen",
          "name:ber": "ⵢⴰⵎⴰⵏ",
          "name:bpy": "ইয়েমেন",
          "name:bug": "Yaman",
          "name:bxr": "Йемен",
          "name:ceb": "Yemen",
          "name:ckb": "یەمەن",
          "name:crh": "Yemen",
          "name:csb": "Jemen",
          "name:diq": "Yemen",
          "name:dsb": "Jemen",
          "name:ext": "Yemen",
          "name:frp": "Yèmen",
          "name:gag": "Yemen",
          "name:hak": "Ya̍p-mùn",
          "name:haw": "Iemene",
          "name:hif": "Yemen",
          "name:hsb": "Jemen",
          "name:ilo": "Yemen",
          "name:jbo": "djemen",
          "name:kaa": "Yemen",
          "name:kab": "Yamen",
          "name:kbd": "Йемен",
          "name:kmr": "یەمەن",
          "name:lad": "Teman",
          "name:lez": "Йемен",
          "name:lij": "Yemen",
          "name:lmo": "Yemen",
          "name:mzn": "یمن",
          "name:nah": "Yemen",
          "name:nan": "Yemen",
          "name:nap": "Yemen",
          "name:nds": "Jemen",
          "name:new": "गणतन्त्र यमन",
          "name:nov": "Yemen",
          "name:pam": "Yemen",
          "name:pap": "Yemen",
          "name:pih": "Yemen",
          "name:pms": "Yemen",
          "name:pnb": "یمن",
          "name:sah": "Йиэмэн",
          "name:scn": "Yemen",
          "name:sco": "Yemen",
          "name:smn": "Jemen",
          "name:sms": "Jemeeʹn",
          "name:stq": "Jemen",
          "name:szl": "Jymyn",
          "name:tpi": "Yemen",
          "name:tzl": "Iemén",
          "name:udm": "Йемен",
          "name:vec": "Jemen",
          "name:vro": "Jeemen",
          "name:war": "Yemen",
          "name:wuu": "也门",
          "name:xal": "Йеменмудин Орн",
          "name:yue": "也門",
          "name:zea": "Jeem’n",
          "timezone": "Asia/Aden",
          "way_area": "44.0982",
          "wikidata": "Q805",
          "ISO3166-1": "YE",
          "wikipedia": "ar:اليمن",
          "population": "30491000",
          "admin_level": "2",
          "border_type": "nation",
          "name:bat-smg": "Jemens",
          "name:zh-Hans": "也门",
          "name:zh-Hant": "葉門",
          "official_name": "الجمهورية اليمنية",
          "name:be-tarask": "Емэн",
          "population:date": "2021-07-01",
          "ISO3166-1:alpha2": "YE",
          "ISO3166-1:alpha3": "YEM",
          "default_language": "ar",
          "official_name:ar": "الجمهورية اليمنية",
          "official_name:cs": "Jemenská republika",
          "official_name:eo": "Jemena Respubliko",
          "official_name:fa": "جمهوری یمن",
          "official_name:ru": "Йеменская Республика",
          "official_name:ur": "جمہوریہ یمن",
          "ISO3166-1:numeric": "887",
          "official_name:azb": "یمن جومهوریتی"
        }
      },
      "geometry": {
        "type": "Polygon",
        "coordinates": [
          [
            [
              43,
              16
            ],
            [
              44,
              16
            ],
            [
              44,
              17
            ],
            [
              43.17859620026009,
              17
            ],
            [
              43.1783889,
              16.9966389
            ],
            [
              43.177,
              16.99325
            ],
            [
              43.1775556,
              16.9897778
            ],
            [
              43.1796758,
              16.9866326
            ],
            [
              43.18175,
              16.9839444
            ],
            [
              43.1811667,
              16.9805278
            ],
            [
              43.1833056,
              16.9789722
            ],
            [
              43.17925,
              16.9785
            ],
            [
              43.1776667,
              16.9780278
            ],
            [
              43.1774444,
              16.9755278
            ],
            [
              43.1775,
              16.9714722
            ],
            [
              43.1780556,
              16.9633333
            ],
            [
              43.1865278,
              16.9593611
            ],
            [
              43.1947778,
              16.9551389
            ],
            [
              43.1936667,
              16.9506111
            ],
            [
              43.1946667,
              16.9445278
            ],
            [
              43.1902222,
              16.9418889
            ],
            [
              43.18275,
              16.93875
            ],
            [
              43.1754722,
              16.9368889
            ],
            [
              43.17225,
              16.9314444
            ],
            [
              43.1642778,
              16.9305556
            ],
            [
              43.1541944,
              16.9289167
            ],
            [
              43.1523333,
              16.9281111
            ],
            [
              43.1465013,
              16.9250978
            ],
            [
              43.1436944,
              16.9246389
            ],
            [
              43.1381111,
              16.9175833
            ],
            [
              43.1375,
              16.9105833
            ],
            [
              43.1394722,
              16.902
            ],
            [
              43.1453611,
              16.9001111
            ],
            [
              43.1498006,
              16.8902909
            ],
            [
              43.1516389,
              16.8800556
            ],
            [
              43.1596667,
              16.8760556
            ],
            [
              43.1677778,
              16.8709167
            ],
            [
              43.1759722,
              16.8668889
            ],
            [
              43.1750833,
              16.8578611
            ],
            [
              43.1799722,
              16.8490556
            ],
            [
              43.1899722,
              16.8483333
            ],
            [
              43.1939444,
              16.8516389
            ],
            [
              43.1993019,
              16.8533
            ],
            [
              43.2022778,
              16.8496667
            ],
            [
              43.2212963,
              16.8382216
            ],
            [
              43.2246111,
              16.82325
            ],
            [
              43.2325556,
              16.8069444
            ],
            [
              43.2413611,
              16.8054722
            ],
            [
              43.2523611,
              16.8047222
            ],
            [
              43.2616389,
              16.8008611
            ],
            [
              43.2666111,
              16.7949444
            ],
            [
              43.2625278,
              16.7869722
            ],
            [
              43.2573611,
              16.7862778
            ],
            [
              43.2518333,
              16.7792778
            ],
            [
              43.2593889,
              16.7735
            ],
            [
              43.2530556,
              16.7697222
            ],
            [
              43.2588056,
              16.7553056
            ],
            [
              43.2680278,
              16.7533611
            ],
            [
              43.2754722,
              16.7468611
            ],
            [
              43.2673611,
              16.74425
            ],
            [
              43.2556389,
              16.7373611
            ],
            [
              43.2514444,
              16.7426389
            ],
            [
              43.2478889,
              16.7437778
            ],
            [
              43.2396944,
              16.7414444
            ],
            [
              43.2320833,
              16.74275
            ],
            [
              43.2263056,
              16.7458889
            ],
            [
              43.224,
              16.7371667
            ],
            [
              43.2305278,
              16.7305278
            ],
            [
              43.2183611,
              16.7168611
            ],
            [
              43.2116667,
              16.7096944
            ],
            [
              43.2103333,
              16.7006944
            ],
            [
              43.2191944,
              16.7000833
            ],
            [
              43.2276389,
              16.7019444
            ],
            [
              43.2295833,
              16.6928611
            ],
            [
              43.23325,
              16.6851111
            ],
            [
              43.2337778,
              16.6760833
            ],
            [
              43.2268889,
              16.6696389
            ],
            [
              43.2364167,
              16.6670278
            ],
            [
              43.2346667,
              16.6595
            ],
            [
              43.2345556,
              16.65075
            ],
            [
              43.2347222,
              16.6428333
            ],
            [
              43.2268611,
              16.6416944
            ],
            [
              43.2236111,
              16.6478889
            ],
            [
              43.2154444,
              16.6471389
            ],
            [
              43.2062222,
              16.6476389
            ],
            [
              43.1929444,
              16.6537778
            ],
            [
              43.1764722,
              16.6596667
            ],
            [
              43.1573889,
              16.6656389
            ],
            [
              43.1557222,
              16.6665833
            ],
            [
              43.1516389,
              16.67725
            ],
            [
              43.1495833,
              16.6737222
            ],
            [
              43.1286111,
              16.6715278
            ],
            [
              43.1359444,
              16.6627222
            ],
            [
              43.1408056,
              16.6550278
            ],
            [
              43.143,
              16.6455
            ],
            [
              43.1463333,
              16.6364167
            ],
            [
              43.1444167,
              16.6286389
            ],
            [
              43.1393056,
              16.6219722
            ],
            [
              43.1416111,
              16.6138611
            ],
            [
              43.1421667,
              16.6054444
            ],
            [
              43.1398333,
              16.5966111
            ],
            [
              43.1294722,
              16.5926111
            ],
            [
              43.131,
              16.5842222
            ],
            [
              43.12975,
              16.5739167
            ],
            [
              43.1264167,
              16.5746667
            ],
            [
              43.1207222,
              16.5285833
            ],
            [
              43.1118889,
              16.5283056
            ],
            [
              43.1023056,
              16.5283056
            ],
            [
              43.0858611,
              16.5286111
            ],
            [
              43.0761667,
              16.5283611
            ],
            [
              43.0671667,
              16.5296667
            ],
            [
              43.0588333,
              16.5251667
            ],
            [
              43.0495,
              16.5245
            ],
            [
              43.0401667,
              16.5241944
            ],
            [
              43.0308611,
              16.5231667
            ],
            [
              43.0215,
              16.5225278
            ],
            [
              43.0200278,
              16.5231667
            ],
            [
              43.0103333,
              16.5224722
            ],
            [
              43.0013333,
              16.5215
            ],
            [
              43,
              16.52152827586237
            ],
            [
              43,
              16
            ]
          ]
        ]
      }
    }
  ]
}