{
  "type": "FeatureCollection",
  "features": [
    {
      "type": "Feature",
      "properties": {
        "osm_id": -304934,
        "boundary": "administrative",
        "admin_level": 2,
        "parents": null,
        "name": "Iraq",
        "local_name": "العراق",
        "name_en": "Iraq",
        "all_tags": {
          "flag": "http://upload.wikimedia.org/wikipedia/commons/f/f6/Flag_of_Iraq.svg",
          "name": "العراق",
          "name:af": "Irak",
          "name:ak": "Irak",
          "name:am": "ኢራቅ",
          "name:an": "Iraq",
          "name:ar": "العراق",
          "name:av": "ГӀиракъ",
          "name:az": "İrak",
          "name:be": "Ірак",
          "name:bg": "Ирак",
          "name:bm": "Iraki",
          "name:bn": "ইরাক",
          "name:bo": "ཡི་ལའ་ཁོ།",
          "name:br": "Irak",
          "name:bs": "Irak",
          "name:ca": "Iraq",
          "name:ce": "Ӏиракъ",
          "name:cs": "Irák",
          "name:cv": "Ирак",
          "name:cy": "Irac",
          "name:da": "Irak",
          "name:de": "Irak",
          "name:dv": "ޢިރާޤު",
          "name:dz": "ཨི་རཱཀ",
          "name:ee": "iraqdukɔ",
          "name:el": "Ιράκ",
          "name:en": "Iraq",
          "name:eo": "Irako",
          "name:es": "Irak",
          "name:et": "Iraak",
          "name:eu": "Irak",
          "name:fa": "عراق",
          "name:ff": "Iraak",
          "name:fi": "Irak",
          "name:fo": "Irak",
          "name:fr": "Irak",
          "name:fy": "Irak",
          "name:ga": "An Iaráic",
          "name:gd": "Ioràc",
          "name:gl": "Iraq",
          "name:gn": "Iráke",
          "name:gu": "ઈરાક",
          "name:gv": "Yn Earack",
          "name:ha": "Iraƙi",
          "name:he": "עיראק",
          "name:hi": "इराक़",
          "name:hr": "Irak",
          "name:ht": "Irak",
          "name:hu": "Irak",
          "name:hy": "Իրաք",
          "name:ia": "Irak",
          "name:id": "Irak",
          "name:ie": "Irak",
          "name:io": "Irak",
          "name:is": "Írak",
          "name:it": "Iraq",
          "name:iu": "ᐃᕉᒃ",
          "name:ja": "イラク",
          "name:jv": "Irak",
          "name:ka": "ერაყი",
          "name:ki": "Iraq",
          "name:kk": "Ирак",
          "name:kl": "Iraq",
          "name:km": "អ៊ីរ៉ាក់",
          "name:kn": "ಇರಾಕ್",
          "name:ko": "이라크",
          "name:ks": "ایٖراق",
          "name:ku": "Êraq",
          "name:kv": "Ирак",
          "name:kw": "Irak",
          "name:ky": "Ирак",
          "name:la": "Iraca",
          "name:lb": "Irak",
          "name:lg": "Yiraaka",
          "name:li": "Irak",
          "name:ln": "Irak",
          "name:lo": "ອີລັກ",
          "name:lt": "Irakas",
          "name:lv": "Irāka",
          "name:mg": "Irak",
          "name:mi": "Īrāki",
          "name:mk": "Ирак",
          "name:ml": "ഇറാഖ്",
          "name:mn": "Ирак",
          "name:mr": "इराक",
          "name:ms": "Iraq",
          "name:mt": "Iraq",
          "name:my": "အီရတ်နိုင်ငံ",
          "name:na": "Irak",
          "name:nb": "Irak",
          "name:ne": "इराक",
          "name:nl": "Irak",
          "name:nn": "Irak",
          "name:no": "Irak",
          "name:nv": "Iiwááʼ",
          "name:oc": "Iraq",
          "name:or": "ଇରାକ",
          "name:os": "Ирак",
          "name:pa": "ਇਰਾਕ",
          "name:pl": "Irak",
          "name:ps": "عراق",
          "name:pt": "Iraque",
          "name:qu": "Iraq",
          "name:rm": "Irac",
          "name:rn": "Iraki",
          "name:ro": "Irak",
          "name:ru": "Ирак",
          "name:rw": "Irake",
          "name:sa": "ईराक",
          "name:se": "Irak",
          "name:sg": "Irâki",
          "name:sh": "Irak",
          "name:si": "ඉරාක",
          "name:sk": "Irak",
          "name:sl": "Irak",
          "name:sn": "Iraq",
          "name:so": "Ciraaq",
          "name:sq": "Iraku",
          "name:sr": "Ирак",
          "name:ss": "I-Irakhi",
          "name:su": "Irak",
          "name:sv": "Irak",
          "name:sw": "Iraq",
          "name:ta": "ஈராக்கு",
          "name:te": "ఇరాక్",
          "name:tg": "Ироқ",
          "name:th": "ประเทศอิรัก",
          "name:ti": "ኢራቅ",
          "name:tk": "Yrak",
          "name:tl": "Irak",
          "name:to": "ʻIulaaki",
          "name:tr": "Irak",
          "name:tt": "Гыйрак",
          "name:tw": "Irak",
          "name:ug": "ئىراق",
          "name:uk": "Ірак",
          "name:ur": "عراق",
          "name:uz": "Iroq",
          "name:vi": "Iraq",
          "name:vo": "Lirakän",
          "name:wa": "Irak",
          "name:wo": "Iraak",
          "name:yi": "איראק",
          "name:yo": "Irak",
          "name:zh": "伊拉克",
          "name:zu": "I-Iraki",
          "alt_name": "العِرَاقُ",
          "boundary": "administrative",
          "int_name": "Iraq",
          "name:ace": "Irak",
          "name:als": "Irak",
          "name:ang": "Irac",
          "name:arc": "ܥܝܪܐܩ",
          "name:arz": "العراق",
          "name:ast": "Iraq",
          "name:bar": "Irak",
          "name:bcl": "Iraq",
          "name:bpy": "ইরাক",
          "name:bug": "Irak",
          "name:bxr": "Ирак",
          "name:cdo": "Ĭ-lăk",
          "name:ceb": "Iraq",
          "name:chr": "ᎢᎳᎩ",
          "name:ckb": "عێراق",
          "name:crh": "Iraq",
          "name:csb": "Irak",
          "name:din": "Irak",
          "name:diq": "Iraq",
          "name:dsb": "Irak",
          "name:ext": "Iraq",
          "name:frp": "Iraq",
          "name:fur": "Iraq",
          "name:gag": "İrak",
          "name:gan": "伊拉克",
          "name:hak": "Yî-là-khiet",
          "name:haw": "‘Ilaka",
          "name:hif": "Iraq",
          "name:hsb": "Irak",
          "name:ilo": "Irak",
          "name:jbo": "raksygu'e",
          "name:kab": "Lɛiraq",
          "name:kbd": "Ирак",
          "name:ksh": "der Irak",
          "name:lad": "Irak",
          "name:lez": "Ирак",
          "name:lfn": "Irac",
          "name:lij": "Iraq",
          "name:lmo": "Irak",
          "name:lzh": "伊拉克",
          "name:mdf": "Ирак",
          "name:mzn": "عراق",
          "name:nah": "Irac",
          "name:nan": "Iraq",
          "name:nds": "Irak",
          "name:new": "इराक",
          "name:nov": "Irak",
          "name:pam": "Irak",
          "name:pap": "Irak",
          "name:pdc": "Iraek",
          "name:pih": "Eraak",
          "name:pms": "Irak",
          "name:pnb": "عراق",
          "name:rue": "Ірак",
          "name:sah": "Ирак",
          "name:scn": "Iraq",
          "name:sco": "Iraq",
          "name:sdh": "عێراق",
          "name:smn": "Irak",
          "name:sms": "Irakk",
          "name:stq": "Irak",
          "name:szl": "Irak",
          "name:tok": "ma Ilakija",
          "name:tpi": "Irak",
          "name:udm": "Ирак",
          "name:vec": "Iraq",
          "name:vep": "Irak",
          "name:vro": "Iraak",
          "name:war": "Irak",
          "name:wuu": "伊拉克",
          "name:xal": "Иракудин Орн",
          "name:yue": "伊拉克",
          "name:zea": "Irak",
          "timezone": "Asia/Baghdad",
          "way_area": "42.4981",
          "wikidata": "Q796",
          "ISO3166-1": "IQ",
          "wikipedia": "ar:العراق",
          "admin_level": "2",
          "alt_name:vi": "I-rắc",
          "border_type": "nation",
          "name:simple": "Iraq",
          "alt_name:ckb": "ئێراق",
          "alt_name:sdh": "ئێراق",
          "name:bat-smg": "Iraks",
          "name:roa-rup": "Irac",
          "name:zh-Hans": "伊拉克",
          "name:zh-Hant": "伊拉克",
          "name:roa-tara": "Iraq",
          "official_name": "جمهورية العراق",
          "name:be-tarask": "Ірак",
          "name:zh_pinyin": "Yīlākè",
          "ISO3166-1:alpha2": "IQ",
          "ISO3166-1:alpha3": "IRQ",
          "default_language": "ar",
          "official_name:ar": "جمهورية العراق",
          "official_name:be": "Рэспубліка Ірак",
          "official_name:cs": "Irácká republika",
          "official_name:de": "Republik Irak",
          "official_name:el": "Δημοκρατία του Ιράκ",
          "official_name:en": "Republic of Iraq",
          "official_name:eo": "Respubliko Irako",
          "official_name:es": "República de Irak",
          "official_name:et": "Iraagi Vabariik",
          "official_name:gd": "Poblachd Ioràic",
          "official_name:gn": "Tetã Iráke",
          "official_name:id": "Republik Irak",
          "official_name:ku": "Komara Êraqê",
          "official_name:lb": "Republik Irak",
          "official_name:lt": "Irako Respublika",
          "official_name:lv": "Irākas Republika",
          "official_name:pl": "Republika Federalna Iraku",
          "official_name:pt": "República do Iraque",
          "official_name:ru": "Республика Ирак",
          "official_name:sr": "Република Ирак",
          "official_name:sv": "Republiken Irak",
          "official_name:tl": "Republika ng Irak",
          "official_name:vi": "Cộng hoà Iraq",
          "ISO3166-1:numeric": "368",
          "official_name:ckb": "كۆماری عێراق",
          "official_name:sdh": "کۆماری عێراق"
        }
      },
      "geometry": {
        "type": "Polygon",
        "coordinates": [
          [
            [
              43,
              37
            ],
            [
              44,
              37
            ],
            [
              44,
              37.31057778227349
            ],
            [
              43.9995111,
              37.3100576
            ],
            [
              43.9978612,
              37.3089639
            ],
            [
              43.9970952,
              37.3076606
            ],
            [
              43.997166,
              37.306322
            ],
            [
              43.996867,
              37.30559
            ],
            [
              43.996867,
              37.304801
            ],
            [
              43.996196,
              37.303899
            ],
            [
              43.995153,
              37.30142
            ],
            [
              43.993587,
              37.299166
            ],
            [
              43.993066,
              37.298828
            ],
            [
              43.991947,
              37.298603
            ],
            [
              43.991575,
              37.298828
            ],
            [
              43.990084,
              37.298772
            ],
            [
              43.988891,
              37.298265
            ],
            [
              43.988593,
              37.297532
            ],
            [
              43.987698,
              37.296912
            ],
            [
              43.98576,
              37.296067
            ],
            [
              43.980691,
              37.295842
            ],
            [
              43.978082,
              37.295447
            ],
            [
              43.973237,
              37.295504
            ],
            [
              43.971075,
              37.295166
            ],
            [
              43.968764,
              37.293081
            ],
            [
              43.968168,
              37.292292
            ],
            [
              43.966751,
              37.292348
            ],
            [
              43.964142,
              37.293081
            ],
            [
              43.96034,
              37.292461
            ],
            [
              43.956315,
              37.293024
            ],
            [
              43.95542,
              37.292855
            ],
            [
              43.95475,
              37.292179
            ],
            [
              43.954228,
              37.289306
            ],
            [
              43.95475,
              37.286488
            ],
            [
              43.954824,
              37.28322
            ],
            [
              43.9546,
              37.282882
            ],
            [
              43.9546,
              37.282431
            ],
            [
              43.955495,
              37.281981
            ],
            [
              43.956091,
              37.281417
            ],
            [
              43.95639,
              37.280854
            ],
            [
              43.957135,
              37.280347
            ],
            [
              43.957359,
              37.279952
            ],
            [
              43.957657,
              37.278205
            ],
            [
              43.957955,
              37.277473
            ],
            [
              43.957135,
              37.276064
            ],
            [
              43.95706,
              37.275219
            ],
            [
              43.957955,
              37.271895
            ],
            [
              43.957806,
              37.2715
            ],
            [
              43.956911,
              37.270993
            ],
            [
              43.954824,
              37.270937
            ],
            [
              43.949681,
              37.269415
            ],
            [
              43.944835,
              37.268796
            ],
            [
              43.944239,
              37.268458
            ],
            [
              43.9439122,
              37.2678408
            ],
            [
              43.943941,
              37.267049
            ],
            [
              43.944611,
              37.265415
            ],
            [
              43.945431,
              37.264344
            ],
            [
              43.94573,
              37.263499
            ],
            [
              43.946326,
              37.262992
            ],
            [
              43.946848,
              37.260118
            ],
            [
              43.947146,
              37.259442
            ],
            [
              43.946922,
              37.258597
            ],
            [
              43.947071,
              37.258259
            ],
            [
              43.94573,
              37.256681
            ],
            [
              43.945059,
              37.256456
            ],
            [
              43.944462,
              37.255723
            ],
            [
              43.944462,
              37.254878
            ],
            [
              43.943866,
              37.252737
            ],
            [
              43.943456,
              37.251969
            ],
            [
              43.942781,
              37.249807
            ],
            [
              43.938598,
              37.248343
            ],
            [
              43.935922,
              37.248421
            ],
            [
              43.932759,
              37.246864
            ],
            [
              43.930882,
              37.246259
            ],
            [
              43.933521,
              37.244884
            ],
            [
              43.93844,
              37.243238
            ],
            [
              43.93844,
              37.242385
            ],
            [
              43.935134,
              37.241471
            ],
            [
              43.930941,
              37.239216
            ],
            [
              43.927474,
              37.238972
            ],
            [
              43.926103,
              37.237997
            ],
            [
              43.925861,
              37.237388
            ],
            [
              43.925781,
              37.236535
            ],
            [
              43.924974,
              37.235438
            ],
            [
              43.923926,
              37.234402
            ],
            [
              43.923765,
              37.233793
            ],
            [
              43.922475,
              37.232757
            ],
            [
              43.92183,
              37.231538
            ],
            [
              43.921507,
              37.229405
            ],
            [
              43.920701,
              37.226784
            ],
            [
              43.919411,
              37.224773
            ],
            [
              43.916589,
              37.223494
            ],
            [
              43.9132331,
              37.2231192
            ],
            [
              43.9104869,
              37.2223917
            ],
            [
              43.909171,
              37.222214
            ],
            [
              43.9078,
              37.222214
            ],
            [
              43.904333,
              37.22264
            ],
            [
              43.902479,
              37.222519
            ],
            [
              43.901511,
              37.222275
            ],
            [
              43.900624,
              37.221787
            ],
            [
              43.897802,
              37.22069
            ],
            [
              43.896512,
              37.219898
            ],
            [
              43.895464,
              37.219533
            ],
            [
              43.891432,
              37.220081
            ],
            [
              43.890142,
              37.220325
            ],
            [
              43.889175,
              37.22069
            ],
            [
              43.888368,
              37.221178
            ],
            [
              43.887562,
              37.222153
            ],
            [
              43.887078,
              37.223311
            ],
            [
              43.885708,
              37.224712
            ],
            [
              43.88474,
              37.224773
            ],
            [
              43.883208,
              37.224591
            ],
            [
              43.880628,
              37.224042
            ],
            [
              43.879257,
              37.22392
            ],
            [
              43.876516,
              37.223981
            ],
            [
              43.873129,
              37.223494
            ],
            [
              43.870791,
              37.223676
            ],
            [
              43.868937,
              37.224164
            ],
            [
              43.86676,
              37.224469
            ],
            [
              43.864018,
              37.224164
            ],
            [
              43.861841,
              37.223189
            ],
            [
              43.861035,
              37.223189
            ],
            [
              43.858777,
              37.223676
            ],
            [
              43.858293,
              37.224286
            ],
            [
              43.85781,
              37.22453
            ],
            [
              43.855713,
              37.224591
            ],
            [
              43.854262,
              37.224408
            ],
            [
              43.853214,
              37.223737
            ],
            [
              43.852327,
              37.222884
            ],
            [
              43.8509461,
              37.2201669
            ],
            [
              43.8500415,
              37.219729
            ],
            [
              43.8480579,
              37.2195527
            ],
            [
              43.8471397,
              37.2188283
            ],
            [
              43.8465579,
              37.2181427
            ],
            [
              43.843377,
              37.216546
            ],
            [
              43.842974,
              37.21545
            ],
            [
              43.841764,
              37.21417
            ],
            [
              43.842974,
              37.20966
            ],
            [
              43.842812,
              37.208868
            ],
            [
              43.842087,
              37.207771
            ],
            [
              43.840797,
              37.206613
            ],
            [
              43.840635,
              37.205943
            ],
            [
              43.840313,
              37.205455
            ],
            [
              43.840635,
              37.203444
            ],
            [
              43.840071,
              37.201799
            ],
            [
              43.838862,
              37.200275
            ],
            [
              43.838378,
              37.199971
            ],
            [
              43.83741,
              37.198203
            ],
            [
              43.835798,
              37.196802
            ],
            [
              43.8331451,
              37.1952357
            ],
            [
              43.831862,
              37.195005
            ],
            [
              43.8318618,
              37.1946948
            ],
            [
              43.8315527,
              37.1941294
            ],
            [
              43.8311525,
              37.1940083
            ],
            [
              43.8306316,
              37.1933922
            ],
            [
              43.8307467,
              37.1926234
            ],
            [
              43.8298964,
              37.1933253
            ],
            [
              43.8298366,
              37.193688
            ],
            [
              43.830491,
              37.1950401
            ],
            [
              43.830395,
              37.196741
            ],
            [
              43.829508,
              37.19863
            ],
            [
              43.828218,
              37.200275
            ],
            [
              43.827331,
              37.201068
            ],
            [
              43.824509,
              37.202347
            ],
            [
              43.823622,
              37.203018
            ],
            [
              43.823219,
              37.204054
            ],
            [
              43.823219,
              37.204846
            ],
            [
              43.823058,
              37.205273
            ],
            [
              43.822171,
              37.206309
            ],
            [
              43.820075,
              37.207527
            ],
            [
              43.819349,
              37.208502
            ],
            [
              43.818623,
              37.208929
            ],
            [
              43.818623,
              37.209538
            ],
            [
              43.81822,
              37.210574
            ],
            [
              43.817091,
              37.211062
            ],
            [
              43.816124,
              37.211184
            ],
            [
              43.8152712,
              37.2117199
            ],
            [
              43.8147173,
              37.2126161
            ],
            [
              43.814914,
              37.214353
            ],
            [
              43.814431,
              37.21612
            ],
            [
              43.812496,
              37.219289
            ],
            [
              43.811609,
              37.222031
            ],
            [
              43.810318,
              37.223798
            ],
            [
              43.80919,
              37.224651
            ],
            [
              43.806368,
              37.225931
            ],
            [
              43.803384,
              37.22648
            ],
            [
              43.79766,
              37.226967
            ],
            [
              43.792015,
              37.228734
            ],
            [
              43.789677,
              37.2291
            ],
            [
              43.788548,
              37.228978
            ],
            [
              43.787178,
              37.229161
            ],
            [
              43.781856,
              37.228125
            ],
            [
              43.778066,
              37.228003
            ],
            [
              43.776373,
              37.228125
            ],
            [
              43.773148,
              37.228917
            ],
            [
              43.771294,
              37.228978
            ],
            [
              43.769923,
              37.229588
            ],
            [
              43.768713,
              37.22977
            ],
            [
              43.767343,
              37.23038
            ],
            [
              43.761537,
              37.231781
            ],
            [
              43.759522,
              37.231964
            ],
            [
              43.7542,
              37.233061
            ],
            [
              43.74904,
              37.234646
            ],
            [
              43.748314,
              37.235072
            ],
            [
              43.747508,
              37.235133
            ],
            [
              43.746137,
              37.234219
            ],
            [
              43.745895,
              37.231721
            ],
            [
              43.74525,
              37.230624
            ],
            [
              43.743637,
              37.230258
            ],
            [
              43.741622,
              37.230136
            ],
            [
              43.740251,
              37.230319
            ],
            [
              43.735091,
              37.233061
            ],
            [
              43.734284,
              37.233305
            ],
            [
              43.732511,
              37.233549
            ],
            [
              43.728237,
              37.233427
            ],
            [
              43.726221,
              37.233793
            ],
            [
              43.723319,
              37.234402
            ],
            [
              43.722593,
              37.234768
            ],
            [
              43.721706,
              37.235804
            ],
            [
              43.721142,
              37.235986
            ],
            [
              43.719852,
              37.235925
            ],
            [
              43.717836,
              37.235316
            ],
            [
              43.71711,
              37.234768
            ],
            [
              43.716384,
              37.234524
            ],
            [
              43.714369,
              37.233975
            ],
            [
              43.712434,
              37.233671
            ],
            [
              43.710821,
              37.233488
            ],
            [
              43.707838,
              37.234036
            ],
            [
              43.706548,
              37.233975
            ],
            [
              43.706628,
              37.233
            ],
            [
              43.706225,
              37.231599
            ],
            [
              43.705096,
              37.231294
            ],
            [
              43.703322,
              37.231233
            ],
            [
              43.701952,
              37.231599
            ],
            [
              43.701226,
              37.232391
            ],
            [
              43.699533,
              37.233305
            ],
            [
              43.697195,
              37.233975
            ],
            [
              43.69405,
              37.235316
            ],
            [
              43.692195,
              37.235438
            ],
            [
              43.689132,
              37.235255
            ],
            [
              43.688486,
              37.235011
            ],
            [
              43.688083,
              37.233366
            ],
            [
              43.68768,
              37.232574
            ],
            [
              43.68639,
              37.231355
            ],
            [
              43.683568,
              37.230502
            ],
            [
              43.682762,
              37.230989
            ],
            [
              43.681391,
              37.228978
            ],
            [
              43.679698,
              37.22782
            ],
            [
              43.678488,
              37.227455
            ],
            [
              43.677843,
              37.227028
            ],
            [
              43.675666,
              37.227211
            ],
            [
              43.673247,
              37.227028
            ],
            [
              43.667926,
              37.225444
            ],
            [
              43.660427,
              37.224651
            ],
            [
              43.658089,
              37.224591
            ],
            [
              43.653735,
              37.223494
            ],
            [
              43.652042,
              37.223311
            ],
            [
              43.651155,
              37.224469
            ],
            [
              43.6510575,
              37.2247832
            ],
            [
              43.6513098,
              37.2252407
            ],
            [
              43.651111,
              37.225525
            ],
            [
              43.650303,
              37.224762
            ],
            [
              43.646962,
              37.22325
            ],
            [
              43.645511,
              37.222336
            ],
            [
              43.644382,
              37.2213
            ],
            [
              43.643915,
              37.22001
            ],
            [
              43.644059,
              37.219411
            ],
            [
              43.643817,
              37.217887
            ],
            [
              43.643414,
              37.2174
            ],
            [
              43.642527,
              37.217217
            ],
            [
              43.64156,
              37.2174
            ],
            [
              43.640754,
              37.218375
            ],
            [
              43.639544,
              37.218984
            ],
            [
              43.637045,
              37.21935
            ],
            [
              43.635351,
              37.21935
            ],
            [
              43.630514,
              37.219837
            ],
            [
              43.626966,
              37.220386
            ],
            [
              43.624224,
              37.220568
            ],
            [
              43.620515,
              37.221483
            ],
            [
              43.619548,
              37.223189
            ],
            [
              43.619306,
              37.224225
            ],
            [
              43.619709,
              37.224956
            ],
            [
              43.619306,
              37.226784
            ],
            [
              43.618742,
              37.228003
            ],
            [
              43.6185,
              37.229344
            ],
            [
              43.618096,
              37.230319
            ],
            [
              43.616403,
              37.231721
            ],
            [
              43.615678,
              37.233122
            ],
            [
              43.612372,
              37.237144
            ],
            [
              43.609953,
              37.238241
            ],
            [
              43.605034,
              37.238058
            ],
            [
              43.603664,
              37.237388
            ],
            [
              43.601325,
              37.235377
            ],
            [
              43.598665,
              37.233793
            ],
            [
              43.597616,
              37.233427
            ],
            [
              43.597294,
              37.233122
            ],
            [
              43.595843,
              37.232635
            ],
            [
              43.594472,
              37.233488
            ],
            [
              43.593343,
              37.234524
            ],
            [
              43.59036,
              37.235925
            ],
            [
              43.58907,
              37.236718
            ],
            [
              43.584474,
              37.238424
            ],
            [
              43.584071,
              37.239704
            ],
            [
              43.584393,
              37.240923
            ],
            [
              43.582942,
              37.242934
            ],
            [
              43.581007,
              37.244701
            ],
            [
              43.580684,
              37.245615
            ],
            [
              43.578749,
              37.248174
            ],
            [
              43.578099,
              37.250037
            ],
            [
              43.572876,
              37.254508
            ],
            [
              43.570967,
              37.254991
            ],
            [
              43.56865,
              37.256288
            ],
            [
              43.567486,
              37.25719
            ],
            [
              43.56595,
              37.257579
            ],
            [
              43.564424,
              37.257459
            ],
            [
              43.563165,
              37.256629
            ],
            [
              43.560672,
              37.253746
            ],
            [
              43.556003,
              37.251448
            ],
            [
              43.553207,
              37.251108
            ],
            [
              43.550654,
              37.251383
            ],
            [
              43.548109,
              37.25125
            ],
            [
              43.542792,
              37.249554
            ],
            [
              43.540382,
              37.249015
            ],
            [
              43.536434,
              37.248967
            ],
            [
              43.534644,
              37.249352
            ],
            [
              43.533117,
              37.249231
            ],
            [
              43.531711,
              37.249519
            ],
            [
              43.53031,
              37.249502
            ],
            [
              43.529299,
              37.249082
            ],
            [
              43.52628,
              37.247109
            ],
            [
              43.5237836,
              37.2476384
            ],
            [
              43.519951,
              37.245094
            ],
            [
              43.517197,
              37.242615
            ],
            [
              43.515578,
              37.240761
            ],
            [
              43.513385,
              37.239574
            ],
            [
              43.512565,
              37.23976
            ],
            [
              43.512565,
              37.240125
            ],
            [
              43.511758,
              37.241039
            ],
            [
              43.509904,
              37.241466
            ],
            [
              43.507807,
              37.242807
            ],
            [
              43.50684,
              37.243051
            ],
            [
              43.505469,
              37.243112
            ],
            [
              43.500389,
              37.242197
            ],
            [
              43.498498,
              37.242385
            ],
            [
              43.497994,
              37.242537
            ],
            [
              43.4949,
              37.24546
            ],
            [
              43.494127,
              37.245943
            ],
            [
              43.491436,
              37.24701
            ],
            [
              43.490898,
              37.247341
            ],
            [
              43.489923,
              37.248332
            ],
            [
              43.488511,
              37.248688
            ],
            [
              43.488175,
              37.249196
            ],
            [
              43.486436,
              37.2503
            ],
            [
              43.484423,
              37.250384
            ],
            [
              43.48323,
              37.250891
            ],
            [
              43.48159,
              37.251877
            ],
            [
              43.475925,
              37.252694
            ],
            [
              43.47462,
              37.25306
            ],
            [
              43.474397,
              37.253877
            ],
            [
              43.475179,
              37.255313
            ],
            [
              43.475403,
              37.256468
            ],
            [
              43.474881,
              37.259426
            ],
            [
              43.476596,
              37.26182
            ],
            [
              43.476223,
              37.263087
            ],
            [
              43.474434,
              37.263566
            ],
            [
              43.473465,
              37.263651
            ],
            [
              43.472048,
              37.264242
            ],
            [
              43.469328,
              37.264271
            ],
            [
              43.466122,
              37.266806
            ],
            [
              43.465302,
              37.267087
            ],
            [
              43.46437,
              37.267172
            ],
            [
              43.463774,
              37.26751
            ],
            [
              43.463289,
              37.268439
            ],
            [
              43.462618,
              37.268946
            ],
            [
              43.461128,
              37.269679
            ],
            [
              43.459189,
              37.271143
            ],
            [
              43.455909,
              37.271143
            ],
            [
              43.453449,
              37.271819
            ],
            [
              43.449685,
              37.27227
            ],
            [
              43.446703,
              37.273031
            ],
            [
              43.443237,
              37.273509
            ],
            [
              43.441224,
              37.274467
            ],
            [
              43.439808,
              37.274861
            ],
            [
              43.438466,
              37.274946
            ],
            [
              43.43649,
              37.275481
            ],
            [
              43.434776,
              37.276439
            ],
            [
              43.43362,
              37.27672
            ],
            [
              43.429595,
              37.278636
            ],
            [
              43.426688,
              37.278946
            ],
            [
              43.423184,
              37.279932
            ],
            [
              43.420761,
              37.280692
            ],
            [
              43.417593,
              37.2821
            ],
            [
              43.41599,
              37.282551
            ],
            [
              43.414499,
              37.283255
            ],
            [
              43.412114,
              37.285396
            ],
            [
              43.410884,
              37.288945
            ],
            [
              43.408088,
              37.292889
            ],
            [
              43.404138,
              37.291621
            ],
            [
              43.398621,
              37.293367
            ],
            [
              43.39467,
              37.295086
            ],
            [
              43.390794,
              37.297423
            ],
            [
              43.389378,
              37.298494
            ],
            [
              43.389899,
              37.301029
            ],
            [
              43.389378,
              37.305846
            ],
            [
              43.385203,
              37.307085
            ],
            [
              43.379575,
              37.307874
            ],
            [
              43.372269,
              37.307705
            ],
            [
              43.371673,
              37.308099
            ],
            [
              43.369698,
              37.311254
            ],
            [
              43.369213,
              37.312944
            ],
            [
              43.369288,
              37.313761
            ],
            [
              43.369586,
              37.31438
            ],
            [
              43.370704,
              37.315704
            ],
            [
              43.371077,
              37.316521
            ],
            [
              43.371077,
              37.317676
            ],
            [
              43.370704,
              37.318098
            ],
            [
              43.369809,
              37.318324
            ],
            [
              43.367163,
              37.319619
            ],
            [
              43.36392,
              37.322183
            ],
            [
              43.362616,
              37.325535
            ],
            [
              43.361721,
              37.327112
            ],
            [
              43.361088,
              37.327591
            ],
            [
              43.359112,
              37.328098
            ],
            [
              43.357509,
              37.328041
            ],
            [
              43.35613,
              37.328436
            ],
            [
              43.354602,
              37.328548
            ],
            [
              43.351769,
              37.327703
            ],
            [
              43.350614,
              37.327703
            ],
            [
              43.344762,
              37.328492
            ],
            [
              43.343346,
              37.328323
            ],
            [
              43.341147,
              37.327225
            ],
            [
              43.340699,
              37.326802
            ],
            [
              43.335705,
              37.326887
            ],
            [
              43.332648,
              37.327281
            ],
            [
              43.3300099,
              37.3269509
            ],
            [
              43.327318,
              37.326182
            ],
            [
              43.325641,
              37.325281
            ],
            [
              43.324113,
              37.324098
            ],
            [
              43.323889,
              37.322239
            ],
            [
              43.323405,
              37.321225
            ],
            [
              43.321467,
              37.319817
            ],
            [
              43.318336,
              37.318014
            ],
            [
              43.317441,
              37.317141
            ],
            [
              43.316845,
              37.316183
            ],
            [
              43.316547,
              37.314352
            ],
            [
              43.317665,
              37.30624
            ],
            [
              43.315913,
              37.305508
            ],
            [
              43.313826,
              37.305198
            ],
            [
              43.31267,
              37.304437
            ],
            [
              43.31103,
              37.303705
            ],
            [
              43.305961,
              37.30331
            ],
            [
              43.303911,
              37.303339
            ],
            [
              43.301488,
              37.303705
            ],
            [
              43.299178,
              37.304803
            ],
            [
              43.296792,
              37.306268
            ],
            [
              43.294369,
              37.307282
            ],
            [
              43.292394,
              37.309451
            ],
            [
              43.29176,
              37.31038
            ],
            [
              43.290381,
              37.311394
            ],
            [
              43.288443,
              37.312155
            ],
            [
              43.286095,
              37.312465
            ],
            [
              43.283337,
              37.312409
            ],
            [
              43.281063,
              37.312718
            ],
            [
              43.279647,
              37.313141
            ],
            [
              43.278305,
              37.313225
            ],
            [
              43.276814,
              37.31331
            ],
            [
              43.273832,
              37.313028
            ],
            [
              43.269173,
              37.314408
            ],
            [
              43.269471,
              37.315282
            ],
            [
              43.269434,
              37.316211
            ],
            [
              43.269024,
              37.317056
            ],
            [
              43.268838,
              37.318267
            ],
            [
              43.269918,
              37.320774
            ],
            [
              43.269658,
              37.321873
            ],
            [
              43.268539,
              37.323253
            ],
            [
              43.268428,
              37.323929
            ],
            [
              43.268763,
              37.324605
            ],
            [
              43.27003,
              37.325647
            ],
            [
              43.269881,
              37.326915
            ],
            [
              43.269434,
              37.327788
            ],
            [
              43.269248,
              37.328886
            ],
            [
              43.2687934,
              37.3290997
            ],
            [
              43.267148,
              37.3291543
            ],
            [
              43.2665185,
              37.3296338
            ],
            [
              43.2657482,
              37.3293716
            ],
            [
              43.2643543,
              37.3295628
            ],
            [
              43.2637128,
              37.3293278
            ],
            [
              43.2625993,
              37.3292352
            ],
            [
              43.2610379,
              37.3294886
            ],
            [
              43.2601482,
              37.3289218
            ],
            [
              43.2598701,
              37.3289023
            ],
            [
              43.2590656,
              37.3290465
            ],
            [
              43.2590022,
              37.3293843
            ],
            [
              43.258741,
              37.3293649
            ],
            [
              43.257851,
              37.3288961
            ],
            [
              43.2570684,
              37.3288177
            ],
            [
              43.2559654,
              37.3291411
            ],
            [
              43.2555341,
              37.3296605
            ],
            [
              43.2549117,
              37.3300279
            ],
            [
              43.2542462,
              37.3301455
            ],
            [
              43.253593,
              37.3299299
            ],
            [
              43.252512,
              37.330464
            ],
            [
              43.2511836,
              37.3307139
            ],
            [
              43.250276,
              37.330154
            ],
            [
              43.2496169,
              37.3305932
            ],
            [
              43.2491133,
              37.3311799
            ],
            [
              43.2489401,
              37.3322689
            ],
            [
              43.2477398,
              37.3334859
            ],
            [
              43.2474389,
              37.3352042
            ],
            [
              43.2475145,
              37.3358853
            ],
            [
              43.247086,
              37.336644
            ],
            [
              43.246733,
              37.3369076
            ],
            [
              43.2467303,
              37.3371421
            ],
            [
              43.247212,
              37.3378833
            ],
            [
              43.245766,
              37.339139
            ],
            [
              43.2443638,
              37.3398167
            ],
            [
              43.2444318,
              37.3404673
            ],
            [
              43.2442687,
              37.3408322
            ],
            [
              43.243641,
              37.341083
            ],
            [
              43.243157,
              37.341505
            ],
            [
              43.242598,
              37.342519
            ],
            [
              43.242001,
              37.342914
            ],
            [
              43.2418079,
              37.3433365
            ],
            [
              43.2421342,
              37.3440687
            ],
            [
              43.2420756,
              37.3451343
            ],
            [
              43.2408902,
              37.3454098
            ],
            [
              43.2403863,
              37.345682
            ],
            [
              43.2387949,
              37.3456924
            ],
            [
              43.2383078,
              37.3464611
            ],
            [
              43.2378056,
              37.3468751
            ],
            [
              43.2370917,
              37.3473042
            ],
            [
              43.2358888,
              37.3475435
            ],
            [
              43.2353595,
              37.3479576
            ],
            [
              43.2348488,
              37.3481155
            ],
            [
              43.23231,
              37.347674
            ],
            [
              43.231565,
              37.347336
            ],
            [
              43.2301362,
              37.3472887
            ],
            [
              43.2297889,
              37.347455
            ],
            [
              43.2286904,
              37.3471388
            ],
            [
              43.2280046,
              37.3473504
            ],
            [
              43.226794,
              37.347223
            ],
            [
              43.2260167,
              37.347848
            ],
            [
              43.2249021,
              37.3478314
            ],
            [
              43.224334,
              37.34759
            ],
            [
              43.223067,
              37.347533
            ],
            [
              43.221427,
              37.346914
            ],
            [
              43.220048,
              37.345871
            ],
            [
              43.219451,
              37.345787
            ],
            [
              43.218818,
              37.345871
            ],
            [
              43.217662,
              37.346435
            ],
            [
              43.216432,
              37.346688
            ],
            [
              43.213674,
              37.346632
            ],
            [
              43.208418,
              37.347223
            ],
            [
              43.207561,
              37.347533
            ],
            [
              43.206219,
              37.348463
            ],
            [
              43.205101,
              37.34897
            ],
            [
              43.202306,
              37.349392
            ],
            [
              43.20074,
              37.350125
            ],
            [
              43.198355,
              37.352406
            ],
            [
              43.198355,
              37.353336
            ],
            [
              43.1985493,
              37.3535759
            ],
            [
              43.1983773,
              37.3538185
            ],
            [
              43.1968702,
              37.355107
            ],
            [
              43.1964184,
              37.3560288
            ],
            [
              43.1947567,
              37.357442
            ],
            [
              43.1942597,
              37.3574477
            ],
            [
              43.1936739,
              37.357166
            ],
            [
              43.192354,
              37.35711
            ],
            [
              43.1913,
              37.3578522
            ],
            [
              43.1904083,
              37.358045
            ],
            [
              43.189493,
              37.3585787
            ],
            [
              43.1876468,
              37.3592186
            ],
            [
              43.1872091,
              37.3595131
            ],
            [
              43.1861382,
              37.3590075
            ],
            [
              43.1851421,
              37.3590333
            ],
            [
              43.1832286,
              37.3587526
            ],
            [
              43.1822359,
              37.3582295
            ],
            [
              43.1812704,
              37.3582198
            ],
            [
              43.1793036,
              37.3575188
            ],
            [
              43.1769597,
              37.3580115
            ],
            [
              43.1753388,
              37.3577104
            ],
            [
              43.1737555,
              37.3577569
            ],
            [
              43.1722262,
              37.3573428
            ],
            [
              43.1692882,
              37.3570532
            ],
            [
              43.1693182,
              37.357517
            ],
            [
              43.16969,
              37.3581983
            ],
            [
              43.169573,
              37.3586388
            ],
            [
              43.1686366,
              37.3596458
            ],
            [
              43.1672424,
              37.3600452
            ],
            [
              43.1660892,
              37.3598455
            ],
            [
              43.1637615,
              37.3580865
            ],
            [
              43.1622487,
              37.3577042
            ],
            [
              43.1608874,
              37.3584502
            ],
            [
              43.1604852,
              37.358909
            ],
            [
              43.1599909,
              37.3600236
            ],
            [
              43.1603747,
              37.3610271
            ],
            [
              43.1611779,
              37.3620641
            ],
            [
              43.1611755,
              37.3623544
            ],
            [
              43.1581264,
              37.363893
            ],
            [
              43.1565715,
              37.3644046
            ],
            [
              43.1553468,
              37.3651038
            ],
            [
              43.1537125,
              37.3652932
            ],
            [
              43.1530918,
              37.3654659
            ],
            [
              43.1526696,
              37.3657682
            ],
            [
              43.1519577,
              37.3666674
            ],
            [
              43.1513479,
              37.3671004
            ],
            [
              43.1508275,
              37.3679728
            ],
            [
              43.1510958,
              37.3708742
            ],
            [
              43.1502177,
              37.3715139
            ],
            [
              43.1499981,
              37.3718887
            ],
            [
              43.1485021,
              37.372186
            ],
            [
              43.1469378,
              37.3728965
            ],
            [
              43.1444609,
              37.3727683
            ],
            [
              43.1433192,
              37.3729246
            ],
            [
              43.1409322,
              37.372142
            ],
            [
              43.1401285,
              37.3714801
            ],
            [
              43.1389706,
              37.3710861
            ],
            [
              43.13769,
              37.370237
            ],
            [
              43.1363823,
              37.3700458
            ],
            [
              43.1355598,
              37.3702972
            ],
            [
              43.1338832,
              37.371152
            ],
            [
              43.133042,
              37.371688
            ],
            [
              43.132638,
              37.372349
            ],
            [
              43.132099,
              37.372731
            ],
            [
              43.131627,
              37.372757
            ],
            [
              43.129707,
              37.372095
            ],
            [
              43.128798,
              37.372044
            ],
            [
              43.127316,
              37.372044
            ],
            [
              43.125632,
              37.3724
            ],
            [
              43.125228,
              37.372349
            ],
            [
              43.124049,
              37.371229
            ],
            [
              43.122163,
              37.371077
            ],
            [
              43.121456,
              37.370644
            ],
            [
              43.117953,
              37.371408
            ],
            [
              43.116673,
              37.372248
            ],
            [
              43.115966,
              37.372502
            ],
            [
              43.1148725,
              37.37227
            ],
            [
              43.1118153,
              37.3723216
            ],
            [
              43.1109209,
              37.3716496
            ],
            [
              43.1096362,
              37.3716949
            ],
            [
              43.108826,
              37.370771
            ],
            [
              43.1087793,
              37.369793
            ],
            [
              43.1076206,
              37.3688722
            ],
            [
              43.1066121,
              37.368983
            ],
            [
              43.1056465,
              37.3684714
            ],
            [
              43.1054105,
              37.3680792
            ],
            [
              43.1049491,
              37.3677893
            ],
            [
              43.1039406,
              37.3675079
            ],
            [
              43.101416,
              37.36764
            ],
            [
              43.100608,
              37.367233
            ],
            [
              43.098958,
              37.3668
            ],
            [
              43.098351,
              37.366851
            ],
            [
              43.097341,
              37.367309
            ],
            [
              43.094647,
              37.367843
            ],
            [
              43.090167,
              37.367156
            ],
            [
              43.089056,
              37.367462
            ],
            [
              43.0876672,
              37.3674546
            ],
            [
              43.0861062,
              37.3677999
            ],
            [
              43.0843091,
              37.3672968
            ],
            [
              43.0833382,
              37.3675484
            ],
            [
              43.0814874,
              37.3677317
            ],
            [
              43.0810046,
              37.3675526
            ],
            [
              43.0806345,
              37.3667596
            ],
            [
              43.0801785,
              37.3664441
            ],
            [
              43.0789931,
              37.3660738
            ],
            [
              43.0765577,
              37.3660948
            ],
            [
              43.0750209,
              37.3659333
            ],
            [
              43.0717848,
              37.3665019
            ],
            [
              43.0704025,
              37.3654357
            ],
            [
              43.069993,
              37.365374
            ],
            [
              43.069117,
              37.364152
            ],
            [
              43.068645,
              37.363796
            ],
            [
              43.067265,
              37.361683
            ],
            [
              43.06585,
              37.360053
            ],
            [
              43.06484,
              37.359213
            ],
            [
              43.063055,
              37.35845
            ],
            [
              43.06063,
              37.357049
            ],
            [
              43.060057,
              37.356922
            ],
            [
              43.058508,
              37.3571
            ],
            [
              43.056352,
              37.356388
            ],
            [
              43.054197,
              37.356209
            ],
            [
              43.05258,
              37.356438
            ],
            [
              43.049246,
              37.355497
            ],
            [
              43.048033,
              37.355369
            ],
            [
              43.045642,
              37.355446
            ],
            [
              43.044598,
              37.354911
            ],
            [
              43.044227,
              37.354962
            ],
            [
              43.043284,
              37.355675
            ],
            [
              43.042678,
              37.355827
            ],
            [
              43.042375,
              37.355573
            ],
            [
              43.042308,
              37.355013
            ],
            [
              43.041735,
              37.354784
            ],
            [
              43.040725,
              37.354605
            ],
            [
              43.037997,
              37.354784
            ],
            [
              43.035572,
              37.354453
            ],
            [
              43.034427,
              37.354045
            ],
            [
              43.033955,
              37.354478
            ],
            [
              43.032574,
              37.355064
            ],
            [
              43.031934,
              37.355624
            ],
            [
              43.031429,
              37.355751
            ],
            [
              43.030108,
              37.35679
            ],
            [
              43.029518,
              37.356975
            ],
            [
              43.026692,
              37.356811
            ],
            [
              43.022714,
              37.355927
            ],
            [
              43.02247,
              37.353918
            ],
            [
              43.022874,
              37.351321
            ],
            [
              43.02274,
              37.350685
            ],
            [
              43.022335,
              37.350049
            ],
            [
              43.022201,
              37.346739
            ],
            [
              43.020954,
              37.344066
            ],
            [
              43.019439,
              37.342462
            ],
            [
              43.018698,
              37.342106
            ],
            [
              43.0182019,
              37.3414933
            ],
            [
              43.017098,
              37.3407703
            ],
            [
              43.0165198,
              37.3400577
            ],
            [
              43.0147895,
              37.3386666
            ],
            [
              43.0146438,
              37.3377675
            ],
            [
              43.0139161,
              37.3363384
            ],
            [
              43.011625,
              37.33485
            ],
            [
              43.011255,
              37.334367
            ],
            [
              43.010749,
              37.333017
            ],
            [
              43.010143,
              37.332355
            ],
            [
              43.009301,
              37.331974
            ],
            [
              43.007247,
              37.332101
            ],
            [
              43.005495,
              37.331184
            ],
            [
              43.004114,
              37.330904
            ],
            [
              43.00142,
              37.329912
            ],
            [
              43,
              37.32994835432668
            ],
            [
              43,
              37
            ]
          ]
        ]
      }
    },
    {
      "type": "Feature",
      "properties": {
        "osm_id": -174737,
        "boundary": "administrative",
        "admin_level": 2,
        "parents": null,
        "name": "Turkey",
        "local_name": "Türkiye",
        "name_en": "Turkey",
        "all_tags": {
          "flag": "http://upload.wikimedia.org/wikipedia/commons/b/b4/Flag_of_Turkey.svg",
          "name": "Türkiye",
          "name:aa": "Torusko",
          "name:ab": "Ҭырқәтәыла",
          "name:af": "Turkye",
          "name:ak": "Turki",
          "name:am": "ቱርክ",
          "name:an": "Turquía",
          "name:ar": "تركيا",
          "name:av": "Туркия",
          "name:ay": "Turkiya",
          "name:az": "Türkiyə",
          "name:ba": "Төркиә",
          "name:be": "Турцыя",
          "name:bg": "Турция",
          "name:bi": "Turkey",
          "name:bn": "তুরস্ক",
          "name:bo": "ཏུར་ཀི།",
          "name:br": "Turkia",
          "name:bs": "Turska",
          "name:ca": "Turquia",
          "name:ce": "Туркойчоь",
          "name:co": "Turchia",
          "name:cr": "ᑐᕒᑭ",
          "name:cs": "Turecko",
          "name:cu": "Тѷрци",
          "name:cv": "Турци",
          "name:cy": "Twrci",
          "name:da": "Tyrkiet",
          "name:de": "Türkei",
          "name:dv": "ތުރުކީވިލާތް",
          "name:dz": "བྱའི་རིགས་ཅིག",
          "name:ee": "Turkey",
          "name:el": "Τουρκία",
          "name:en": "Turkey",
          "name:eo": "Turkio",
          "name:es": "Turquía",
          "name:et": "Türgi",
          "name:eu": "Turkia",
          "name:fa": "ترکیه",
          "name:fi": "Turkki",
          "name:fo": "Turkaland",
          "name:fr": "Turquie",
          "name:fy": "Turkije",
          "name:ga": "An Tuirc",
          "name:gd": "An Tuirc",
          "name:gl": "Turquía",
          "name:gn": "Tuykia",
          "name:gu": "તુર્કસ્તાન",
          "name:gv": "Yn Turkee",
          "name:ha": "Turkiyya",
          "name:he": "טורקיה",
          "name:hi": "तुर्की",
          "name:hr": "Turska",
          "name:ht": "Tiki",
          "name:hu": "Törökország",
          "name:hy": "Թուրքիա",
          "name:ia": "Turchia",
          "name:id": "Turki",
          "name:ie": "Turcia",
          "name:ik": "Turkey",
          "name:io": "Turkia",
          "name:is": "Tyrkland",
          "name:it": "Turchia",
          "name:ja": "トルコ",
          "name:jv": "Turki",
          "name:ka": "თურქეთი",
          "name:kg": "Turki",
          "name:ki": "Turkey",
          "name:kk": "Түркия",
          "name:kl": "Tyrkia",
          "name:km": "តួកគី",
          "name:kn": "ಟರ್ಕಿ",
          "name:ko": "튀르키예",
          "name:ku": "Tirkiye",
          "name:kv": "Турция",
          "name:kw": "Turki",
          "name:ky": "Түркия",
          "name:la": "Turcia",
          "name:lb": "Tierkei",
          "name:lg": "Buturuki",
          "name:li": "Turkije",
          "name:ln": "Turkí",
          "name:lt": "Turkija",
          "name:lv": "Turcija",
          "name:mg": "Torkia",
          "name:mi": "Tākei",
          "name:mk": "Турција",
          "name:ml": "തുർക്കി",
          "name:mn": "Турк",
          "name:mr": "तुर्कस्तान",
          "name:ms": "Turki",
          "name:mt": "Turkija",
          "name:my": "တူရကီနိုင်ငံ",
          "name:na": "Terki",
          "name:ne": "टर्की",
          "name:nl": "Turkije",
          "name:nn": "Tyrkia",
          "name:no": "Tyrkia",
          "name:nv": "Tʼóok Bikéyah",
          "name:oc": "Turquia",
          "name:or": "ତୁର୍କୀ",
          "name:os": "Турк",
          "name:pa": "ਤੁਰਕੀ",
          "name:pl": "Turcja",
          "name:ps": "تورکيه",
          "name:pt": "Turquia",
          "name:qu": "Turkiya",
          "name:rm": "Tirchia",
          "name:rn": "Turukiya",
          "name:ro": "Turcia",
          "name:ru": "Турция",
          "name:rw": "Turukiya",
          "name:sa": "तुर्की",
          "name:sc": "Turkia",
          "name:se": "Durka",
          "name:sh": "Turska",
          "name:si": "තුර්කිය",
          "name:sk": "Turecko",
          "name:sl": "Turčija",
          "name:sm": "Take",
          "name:so": "Turkiga",
          "name:sq": "Turqia",
          "name:sr": "Турска",
          "name:ss": "IThekhi",
          "name:su": "Turki",
          "name:sv": "Turkiet",
          "name:sw": "Uturuki",
          "name:ta": "துருக்கி",
          "name:te": "టర్కీ",
          "name:tg": "Туркия",
          "name:th": "ประเทศตุรกี",
          "name:ti": "ቱርኪ",
          "name:tk": "Türkiýe",
          "name:tl": "Turkiya",
          "name:tr": "Türkiye",
          "name:tt": "Төркия",
          "name:tw": "Turkey",
          "name:ty": "Turiti",
          "name:ug": "تۈركىيە",
          "name:uk": "Туреччина",
          "name:ur": "ترکی",
          "name:uz": "Turkiya",
          "name:vi": "Thổ Nhĩ Kỳ",
          "name:vo": "Türkän",
          "name:wa": "Tourkeye",
          "name:wo": "Tirki",
          "name:xh": "ITurkiya",
          "name:yi": "טערקיי",
          "name:yo": "Túrkì",
          "name:za": "Dujwjgiz",
          "name:zh": "土耳其",
          "name:zu": "ITheki",
          "boundary": "administrative",
          "int_name": "Türkiye",
          "name:ace": "Turuki",
          "name:ady": "Тыркуе",
          "name:als": "Türkei",
          "name:ang": "Turcland",
          "name:apc": "تركيا",
          "name:arc": "ܛܘܪܩܝܐ",
          "name:ary": "أنقارا",
          "name:arz": "توركيا",
          "name:ast": "Turquía",
          "name:azb": "تورکیه",
          "name:bar": "Tiakei",
          "name:bcl": "Turkiya",
          "name:bjn": "Turki",
          "name:bpy": "তুরস্ক",
          "name:bug": "Turki",
          "name:bxr": "Тюрк Улас",
          "name:cdo": "Tū-ī-gì",
          "name:ceb": "Turkiya",
          "name:chr": "ᎬᏂᏱ",
          "name:chy": "Turkey",
          "name:ckb": "تورکیا",
          "name:cnr": "Турска",
          "name:crh": "Türkiye",
          "name:csb": "Tëreckô",
          "name:din": "Turkia",
          "name:diq": "Tırkiya",
          "name:dsb": "Turkojska",
          "name:eml": "Turchî",
          "name:ext": "Turquia",
          "name:frp": "Turquie",
          "name:frr": "Türkei",
          "name:fur": "Turchie",
          "name:gag": "Türkiye",
          "name:gan": "土耳其",
          "name:glk": "تۊرکيه",
          "name:got": "𐍄𐍅𐍂𐌺𐌾𐌰",
          "name:hak": "Thú-ngí-khì",
          "name:haw": "Tureke",
          "name:hif": "Turkey",
          "name:hsb": "Turkowska",
          "name:hyw": "Թուրքիա",
          "name:ilo": "Turkia",
          "name:inh": "Туркий",
          "name:jbo": "turk",
          "name:kaa": "Túrkiya",
          "name:kab": "Tturk",
          "name:kbd": "Тырку",
          "name:kiu": "Tırkiya",
          "name:koi": "Тюркия",
          "name:krc": "Тюрк",
          "name:ksh": "Türkei",
          "name:lad": "Turkia",
          "name:lbe": "Туркия",
          "name:lez": "Турция",
          "name:lij": "Turchia",
          "name:lmo": "Türchia",
          "name:ltg": "Turceja",
          "name:lzh": "土耳其",
          "name:mdf": "Туркамастор",
          "name:mhr": "Турций",
          "name:mrj": "Турци",
          "name:mwl": "Turquie",
          "name:mzn": "ترکیه",
          "name:nah": "Turquia",
          "name:nan": "Türkiye",
          "name:nap": "Turchia",
          "name:nds": "Törkie",
          "name:new": "टर्की",
          "name:nov": "Turkia",
          "name:nrm": "Turtchie",
          "name:nso": "Turkey",
          "name:pam": "Turkia",
          "name:pap": "Turkia",
          "name:pcd": "Turkie",
          "name:pdc": "Turkie",
          "name:pes": "ترکیه",
          "name:pfl": "Tirkei",
          "name:pih": "Turkii",
          "name:pms": "Turchìa",
          "name:pnb": "ترکی",
          "name:pnt": "Τουρκία",
          "name:prs": "ترکیه",
          "name:rmy": "Turkiya",
          "name:rue": "Турція",
          "name:sah": "Түркийэ",
          "name:scn": "Turchìa",
          "name:sco": "Turkey",
          "name:smn": "Turkki",
          "name:sms": "Turkk",
          "name:srn": "Turkiyakondre",
          "name:stq": "Turkäi",
          "name:szl": "Turcyjŏ",
          "name:tet": "Turkia",
          "name:tpi": "Teki",
          "name:tsd": "Τουρκία",
          "name:tum": "Turkey",
          "name:tzl": "Türchia",
          "name:udm": "Турция",
          "name:vec": "Turchia",
          "name:vep": "Turcii",
          "name:vls": "Turkeye",
          "name:vro": "Türgü",
          "name:war": "Turkeya",
          "name:wuu": "土耳其",
          "name:xal": "Түргүдин Орн",
          "name:xmf": "თურქეთი",
          "name:yue": "土耳其",
          "name:zea": "Turkije",
          "name:zza": "Tırkiya",
          "timezone": "Europe/Istanbul",
          "way_area": "89.1987",
          "wikidata": "Q43",
          "ISO3166-1": "TR",
          "name:vlca": "Turquia",
          "wikipedia": "tr:Türkiye",
          "population": "85279553",
          "admin_level": "2",
          "alt_name:ar": "تركيا",
          "alt_name:eo": "Turkujo",
          "alt_name:vi": "Thổ Nhĩ Kì",
          "name:nds-nl": "Turkije",
          "old_name:ko": "터키",
          "alt_name:haw": "Kuleke",
          "alt_name:lad": "Turkiya",
          "alt_name:tzl": "ma Tuki",
          "name:bat-smg": "Torkėjė",
          "name:cbk-zam": "Turquía",
          "name:ks-Arab": "تُرکی",
          "name:mn-Mong": "ᠲᠦᠷᠻ",
          "name:roa-rup": "Turchia",
          "name:zh-Hans": "土耳其",
          "name:zh-Hant": "土耳其",
          "name:cnr-Latn": "Turska",
          "name:lad-Hebr": "טורקײה",
          "name:roa-tara": "Turchie",
          "official_name": "Türkiye Cumhuriyeti",
          "name:be-tarask": "Турэччына",
          "population:date": "2022",
          "ISO3166-1:alpha2": "TR",
          "ISO3166-1:alpha3": "TUR",
          "default_language": "tr",
          "official_name:ar": "الجمهورية التركية",
          "official_name:cs": "Turecká republika",
          "official_name:de": "Republik Turkei",
          "official_name:el": "Δημοκρατία της Τουρκίας",
          "official_name:en": "Republic of Türkiye",
          "official_name:eo": "Turka Respubliko",
          "official_name:es": "República de Turquía",
          "official_name:fi": "Turkin tasavalta",
          "official_name:fr": "République de Turquie",
          "official_name:he": "הרפובליקה הטורקית",
          "official_name:ko": "튀르키예 공화국",
          "official_name:ku": "Komara Tirkiyeyê",
          "official_name:ky": "Түркия Республикасы",
          "official_name:ru": "Турецкая Республика",
          "official_name:zh": "土耳其共和國 / 土耳其共和国",
          "ISO3166-1:numeric": "792",
          "official_name:xal": "Түргүдин Орн",
          "official_name:zh-Hans": "土耳其共和国",
          "official_name:zh-Hant": "土耳其共和國"
        }
      },
      "geometry": {
        "type": "Polygon",
        "coordinates": [
          [
            [
              43,
              37.32994835432668
            ],
            [
              43.00142,
              37.329912
            ],
            [
              43.004114,
              37.330904
            ],
            [
              43.005495,
              37.331184
            ],
            [
              43.007247,
              37.332101
            ],
            [
              43.009301,
              37.331974
            ],
            [
              43.010143,
              37.332355
            ],
            [
              43.010749,
              37.333017
            ],
            [
              43.011255,
              37.334367
            ],
            [
              43.011625,
              37.33485
            ],
            [
              43.0139161,
              37.3363384
            ],
            [
              43.0146438,
              37.3377675
            ],
            [
              43.0147895,
              37.3386666
            ],
            [
              43.0165198,
              37.3400577
            ],
            [
              43.017098,
              37.3407703
            ],
            [
              43.0182019,
              37.3414933
            ],
            [
              43.018698,
              37.342106
            ],
            [
              43.019439,
              37.342462
            ],
            [
              43.020954,
              37.344066
            ],
            [
              43.022201,
              37.346739
            ],
            [
              43.022335,
              37.350049
            ],
            [
              43.02274,
              37.350685
            ],
            [
              43.022874,
              37.351321
            ],
            [
              43.02247,
              37.353918
            ],
            [
              43.022714,
              37.355927
            ],
            [
              43.026692,
              37.356811
            ],
            [
              43.029518,
              37.356975
            ],
            [
              43.030108,
              37.35679
            ],
            [
              43.031429,
              37.355751
            ],
            [
              43.031934,
              37.355624
            ],
            [
              43.032574,
              37.355064
            ],
            [
              43.033955,
              37.354478
            ],
            [
              43.034427,
              37.354045
            ],
            [
              43.035572,
              37.354453
            ],
            [
              43.037997,
              37.354784
            ],
            [
              43.039984,
              37.354605
            ],
            [
              43.041735,
              37.354784
            ],
            [
              43.042308,
              37.355013
            ],
            [
              43.042375,
              37.355573
            ],
            [
              43.042678,
              37.355827
            ],
            [
              43.043284,
              37.355675
            ],
            [
              43.044227,
              37.354962
            ],
            [
              43.044598,
              37.354911
            ],
            [
              43.045642,
              37.355446
            ],
            [
              43.048033,
              37.355369
            ],
            [
              43.049246,
              37.355497
            ],
            [
              43.05258,
              37.356438
            ],
            [
              43.054197,
              37.356209
            ],
            [
              43.056352,
              37.356388
            ],
            [
              43.058508,
              37.3571
            ],
            [
              43.060057,
              37.356922
            ],
            [
              43.06063,
              37.357049
            ],
            [
              43.063055,
              37.35845
            ],
            [
              43.06484,
              37.359213
            ],
            [
              43.06585,
              37.360053
            ],
            [
              43.067265,
              37.361683
            ],
            [
              43.068645,
              37.363796
            ],
            [
              43.069117,
              37.364152
            ],
            [
              43.069993,
              37.365374
            ],
            [
              43.0704025,
              37.3654357
            ],
            [
              43.0717848,
              37.3665019
            ],
            [
              43.0750209,
              37.3659333
            ],
            [
              43.0765577,
              37.3660948
            ],
            [
              43.0789931,
              37.3660738
            ],
            [
              43.0801785,
              37.3664441
            ],
            [
              43.0806345,
              37.3667596
            ],
            [
              43.0810046,
              37.3675526
            ],
            [
              43.0814874,
              37.3677317
            ],
            [
              43.0833382,
              37.3675484
            ],
            [
              43.0843091,
              37.3672968
            ],
            [
              43.0861062,
              37.3677999
            ],
            [
              43.0876672,
              37.3674546
            ],
            [
              43.089056,
              37.367462
            ],
            [
              43.090167,
              37.367156
            ],
            [
              43.094647,
              37.367843
            ],
            [
              43.097341,
              37.367309
            ],
            [
              43.098351,
              37.366851
            ],
            [
              43.098958,
              37.3668
            ],
            [
              43.100608,
              37.367233
            ],
            [
              43.101416,
              37.36764
            ],
            [
              43.1039406,
              37.3675079
            ],
            [
              43.1049491,
              37.3677893
            ],
            [
              43.1054105,
              37.3680792
            ],
            [
              43.1056465,
              37.3684714
            ],
            [
              43.1066121,
              37.368983
            ],
            [
              43.1076206,
              37.3688722
            ],
            [
              43.1087793,
              37.369793
            ],
            [
              43.108826,
              37.370771
            ],
            [
              43.1096362,
              37.3716949
            ],
            [
              43.1109209,
              37.3716496
            ],
            [
              43.1118153,
              37.3723216
            ],
            [
              43.1148725,
              37.37227
            ],
            [
              43.115966,
              37.372502
            ],
            [
              43.116673,
              37.372248
            ],
            [
              43.117953,
              37.371408
            ],
            [
              43.121456,
              37.370644
            ],
            [
              43.122163,
              37.371077
            ],
            [
              43.124049,
              37.371229
            ],
            [
              43.125228,
              37.372349
            ],
            [
              43.125632,
              37.3724
            ],
            [
              43.127316,
              37.372044
            ],
            [
              43.128798,
              37.372044
            ],
            [
              43.129707,
              37.372095
            ],
            [
              43.131627,
              37.372757
            ],
            [
              43.132099,
              37.372731
            ],
            [
              43.132638,
              37.372349
            ],
            [
              43.133042,
              37.371688
            ],
            [
              43.1338832,
              37.371152
            ],
            [
              43.1355598,
              37.3702972
            ],
            [
              43.1363823,
              37.3700458
            ],
            [
              43.13769,
              37.370237
            ],
            [
              43.1389706,
              37.3710861
            ],
            [
              43.1401285,
              37.3714801
            ],
            [
              43.1409322,
              37.372142
            ],
            [
              43.1433192,
              37.3729246
            ],
            [
              43.1444609,
              37.3727683
            ],
            [
              43.1469378,
              37.3728965
            ],
            [
              43.1485021,
              37.372186
            ],
            [
              43.1499981,
              37.3718887
            ],
            [
              43.1502177,
              37.3715139
            ],
            [
              43.1510958,
              37.3708742
            ],
            [
              43.1508275,
              37.3679728
            ],
            [
              43.1513479,
              37.3671004
            ],
            [
              43.1519577,
              37.3666674
            ],
            [
              43.1526696,
              37.3657682
            ],
            [
              43.1530918,
              37.3654659
            ],
            [
              43.1537125,
              37.3652932
            ],
            [
              43.1553468,
              37.3651038
            ],
            [
              43.1565715,
              37.3644046
            ],
            [
              43.1581264,
              37.363893
            ],
            [
              43.1611755,
              37.3623544
            ],
            [
              43.1611779,
              37.3620641
            ],
            [
              43.1603747,
              37.3610271
            ],
            [
              43.1599909,
              37.3600236
            ],
            [
              43.1604852,
              37.358909
            ],
            [
              43.1608874,
              37.3584502
            ],
            [
              43.1622487,
              37.3577042
            ],
            [
              43.1637615,
              37.3580865
            ],
            [
              43.1660892,
              37.3598455
            ],
            [
              43.1672424,
              37.3600452
            ],
            [
              43.1686366,
              37.3596458
            ],
            [
              43.169573,
              37.3586388
            ],
            [
              43.16969,
              37.3581983
            ],
            [
              43.1693182,
              37.357517
            ],
            [
              43.1692882,
              37.3570532
            ],
            [
              43.1722262,
              37.3573428
            ],
            [
              43.1737555,
              37.3577569
            ],
            [
              43.1753388,
              37.3577104
            ],
            [
              43.1769597,
              37.3580115
            ],
            [
              43.1793036,
              37.3575188
            ],
            [
              43.1812704,
              37.3582198
            ],
            [
              43.1822359,
              37.3582295
            ],
            [
              43.1832286,
              37.3587526
            ],
            [
              43.1851421,
              37.3590333
            ],
            [
              43.1861382,
              37.3590075
            ],
            [
              43.1872091,
              37.3595131
            ],
            [
              43.1876468,
              37.3592186
            ],
            [
              43.189493,
              37.3585787
            ],
            [
              43.1904083,
              37.358045
            ],
            [
              43.1913,
              37.3578522
            ],
            [
              43.192354,
              37.35711
            ],
            [
              43.1936739,
              37.357166
            ],
            [
              43.1942597,
              37.3574477
            ],
            [
              43.1947567,
              37.357442
            ],
            [
              43.1964184,
              37.3560288
            ],
            [
              43.1968702,
              37.355107
            ],
            [
              43.1983773,
              37.3538185
            ],
            [
              43.1985493,
              37.3535759
            ],
            [
              43.198355,
              37.353336
            ],
            [
              43.198355,
              37.352406
            ],
            [
              43.20074,
              37.350125
            ],
            [
              43.202306,
              37.349392
            ],
            [
              43.205101,
              37.34897
            ],
            [
              43.206219,
              37.348463
            ],
            [
              43.207561,
              37.347533
            ],
            [
              43.208418,
              37.347223
            ],
            [
              43.213674,
              37.346632
            ],
            [
              43.216432,
              37.346688
            ],
            [
              43.217662,
              37.346435
            ],
            [
              43.218818,
              37.345871
            ],
            [
              43.219451,
              37.345787
            ],
            [
              43.220048,
              37.345871
            ],
            [
              43.221427,
              37.346914
            ],
            [
              43.223067,
              37.347533
            ],
            [
              43.224334,
              37.34759
            ],
            [
              43.2249021,
              37.3478314
            ],
            [
              43.2260167,
              37.347848
            ],
            [
              43.226794,
              37.347223
            ],
            [
              43.2280046,
              37.3473504
            ],
            [
              43.2286904,
              37.3471388
            ],
            [
              43.2297889,
              37.347455
            ],
            [
              43.2301362,
              37.3472887
            ],
            [
              43.231565,
              37.347336
            ],
            [
              43.23231,
              37.347674
            ],
            [
              43.2348488,
              37.3481155
            ],
            [
              43.2353595,
              37.3479576
            ],
            [
              43.2358888,
              37.3475435
            ],
            [
              43.2370917,
              37.3473042
            ],
            [
              43.2378056,
              37.3468751
            ],
            [
              43.2383078,
              37.3464611
            ],
            [
              43.2387949,
              37.3456924
            ],
            [
              43.2403863,
              37.345682
            ],
            [
              43.2408902,
              37.3454098
            ],
            [
              43.2420756,
              37.3451343
            ],
            [
              43.2421342,
              37.3440687
            ],
            [
              43.2418079,
              37.3433365
            ],
            [
              43.242001,
              37.342914
            ],
            [
              43.242598,
              37.342519
            ],
            [
              43.243157,
              37.341505
            ],
            [
              43.243641,
              37.341083
            ],
            [
              43.2442687,
              37.3408322
            ],
            [
              43.2444318,
              37.3404673
            ],
            [
              43.2443638,
              37.3398167
            ],
            [
              43.245766,
              37.339139
            ],
            [
              43.247212,
              37.3378833
            ],
            [
              43.2467303,
              37.3371421
            ],
            [
              43.246733,
              37.3369076
            ],
            [
              43.247086,
              37.336644
            ],
            [
              43.2475145,
              37.3358853
            ],
            [
              43.2474389,
              37.3352042
            ],
            [
              43.2477398,
              37.3334859
            ],
            [
              43.2489401,
              37.3322689
            ],
            [
              43.2491133,
              37.3311799
            ],
            [
              43.2496169,
              37.3305932
            ],
            [
              43.250276,
              37.330154
            ],
            [
              43.2511836,
              37.3307139
            ],
            [
              43.252512,
              37.330464
            ],
            [
              43.253593,
              37.3299299
            ],
            [
              43.2542462,
              37.3301455
            ],
            [
              43.2549117,
              37.3300279
            ],
            [
              43.2555341,
              37.3296605
            ],
            [
              43.2559654,
              37.3291411
            ],
            [
              43.2570684,
              37.3288177
            ],
            [
              43.257851,
              37.3288961
            ],
            [
              43.258741,
              37.3293649
            ],
            [
              43.2590022,
              37.3293843
            ],
            [
              43.2590656,
              37.3290465
            ],
            [
              43.2598701,
              37.3289023
            ],
            [
              43.2601482,
              37.3289218
            ],
            [
              43.2610379,
              37.3294886
            ],
            [
              43.2625993,
              37.3292352
            ],
            [
              43.2637128,
              37.3293278
            ],
            [
              43.2643543,
              37.3295628
            ],
            [
              43.2657482,
              37.3293716
            ],
            [
              43.2665185,
              37.3296338
            ],
            [
              43.267148,
              37.3291543
            ],
            [
              43.2687934,
              37.3290997
            ],
            [
              43.269248,
              37.328886
            ],
            [
              43.269434,
              37.327788
            ],
            [
              43.269881,
              37.326915
            ],
            [
              43.27003,
              37.325647
            ],
            [
              43.268763,
              37.324605
            ],
            [
              43.268428,
              37.323929
            ],
            [
              43.268539,
              37.323253
            ],
            [
              43.269658,
              37.321873
            ],
            [
              43.269918,
              37.320774
            ],
            [
              43.268838,
              37.318267
            ],
            [
              43.269024,
              37.317056
            ],
            [
              43.269434,
              37.316211
            ],
            [
              43.269471,
              37.315282
            ],
            [
              43.269173,
              37.314408
            ],
            [
              43.273832,
              37.313028
            ],
            [
              43.276814,
              37.31331
            ],
            [
              43.278305,
              37.313225
            ],
            [
              43.279647,
              37.313141
            ],
            [
              43.281063,
              37.312718
            ],
            [
              43.283337,
              37.312409
            ],
            [
              43.286095,
              37.312465
            ],
            [
              43.288443,
              37.312155
            ],
            [
              43.290381,
              37.311394
            ],
            [
              43.29176,
              37.31038
            ],
            [
              43.292394,
              37.309451
            ],
            [
              43.294369,
              37.307282
            ],
            [
              43.296792,
              37.306268
            ],
            [
              43.299178,
              37.304803
            ],
            [
              43.301488,
              37.303705
            ],
            [
              43.303911,
              37.303339
            ],
            [
              43.305961,
              37.30331
            ],
            [
              43.31103,
              37.303705
            ],
            [
              43.31267,
              37.304437
            ],
            [
              43.313826,
              37.305198
            ],
            [
              43.315913,
              37.305508
            ],
            [
              43.317665,
              37.30624
            ],
            [
              43.316547,
              37.314352
            ],
            [
              43.316845,
              37.316183
            ],
            [
              43.317441,
              37.317141
            ],
            [
              43.318336,
              37.318014
            ],
            [
              43.321467,
              37.319817
            ],
            [
              43.323405,
              37.321225
            ],
            [
              43.323889,
              37.322239
            ],
            [
              43.324113,
              37.324098
            ],
            [
              43.325641,
              37.325281
            ],
            [
              43.327318,
              37.326182
            ],
            [
              43.3300099,
              37.3269509
            ],
            [
              43.332648,
              37.327281
            ],
            [
              43.335705,
              37.326887
            ],
            [
              43.340699,
              37.326802
            ],
            [
              43.341147,
              37.327225
            ],
            [
              43.343346,
              37.328323
            ],
            [
              43.344762,
              37.328492
            ],
            [
              43.350614,
              37.327703
            ],
            [
              43.351769,
              37.327703
            ],
            [
              43.354602,
              37.328548
            ],
            [
              43.35613,
              37.328436
            ],
            [
              43.357509,
              37.328041
            ],
            [
              43.359112,
              37.328098
            ],
            [
              43.361088,
              37.327591
            ],
            [
              43.361721,
              37.327112
            ],
            [
              43.362616,
              37.325535
            ],
            [
              43.36392,
              37.322183
            ],
            [
              43.367163,
              37.319619
            ],
            [
              43.369809,
              37.318324
            ],
            [
              43.370704,
              37.318098
            ],
            [
              43.371077,
              37.317676
            ],
            [
              43.371077,
              37.316521
            ],
            [
              43.370704,
              37.315704
            ],
            [
              43.369586,
              37.31438
            ],
            [
              43.369288,
              37.313761
            ],
            [
              43.369213,
              37.312944
            ],
            [
              43.369698,
              37.311254
            ],
            [
              43.371673,
              37.308099
            ],
            [
              43.372269,
              37.307705
            ],
            [
              43.379575,
              37.307874
            ],
            [
              43.385203,
              37.307085
            ],
            [
              43.389378,
              37.305846
            ],
            [
              43.389899,
              37.301029
            ],
            [
              43.389378,
              37.298494
            ],
            [
              43.390794,
              37.297423
            ],
            [
              43.39467,
              37.295086
            ],
            [
              43.398621,
              37.293367
            ],
            [
              43.404138,
              37.291621
            ],
            [
              43.408088,
              37.292889
            ],
            [
              43.410884,
              37.288945
            ],
            [
              43.412114,
              37.285396
            ],
            [
              43.414499,
              37.283255
            ],
            [
              43.41599,
              37.282551
            ],
            [
              43.417593,
              37.2821
            ],
            [
              43.420761,
              37.280692
            ],
            [
              43.423184,
              37.279932
            ],
            [
              43.426688,
              37.278946
            ],
            [
              43.429595,
              37.278636
            ],
            [
              43.43362,
              37.27672
            ],
            [
              43.434776,
              37.276439
            ],
            [
              43.43649,
              37.275481
            ],
            [
              43.438466,
              37.274946
            ],
            [
              43.439808,
              37.274861
            ],
            [
              43.441224,
              37.274467
            ],
            [
              43.443237,
              37.273509
            ],
            [
              43.446703,
              37.273031
            ],
            [
              43.449685,
              37.27227
            ],
            [
              43.453449,
              37.271819
            ],
            [
              43.455909,
              37.271143
            ],
            [
              43.459189,
              37.271143
            ],
            [
              43.461128,
              37.269679
            ],
            [
              43.462618,
              37.268946
            ],
            [
              43.463289,
              37.268439
            ],
            [
              43.463774,
              37.26751
            ],
            [
              43.46437,
              37.267172
            ],
            [
              43.465302,
              37.267087
            ],
            [
              43.466122,
              37.266806
            ],
            [
              43.469328,
              37.264271
            ],
            [
              43.472048,
              37.264242
            ],
            [
              43.473465,
              37.263651
            ],
            [
              43.474434,
              37.263566
            ],
            [
              43.476223,
              37.263087
            ],
            [
              43.476596,
              37.26182
            ],
            [
              43.474881,
              37.259426
            ],
            [
              43.475403,
              37.256468
            ],
            [
              43.475179,
              37.255313
            ],
            [
              43.474397,
              37.253877
            ],
            [
              43.47462,
              37.25306
            ],
            [
              43.475925,
              37.252694
            ],
            [
              43.48159,
              37.251877
            ],
            [
              43.48323,
              37.250891
            ],
            [
              43.484423,
              37.250384
            ],
            [
              43.486436,
              37.2503
            ],
            [
              43.488175,
              37.249196
            ],
            [
              43.488511,
              37.248688
            ],
            [
              43.489923,
              37.248332
            ],
            [
              43.490898,
              37.247341
            ],
            [
              43.491436,
              37.24701
            ],
            [
              43.494127,
              37.245943
            ],
            [
              43.4949,
              37.24546
            ],
            [
              43.497994,
              37.242537
            ],
            [
              43.498498,
              37.242385
            ],
            [
              43.500389,
              37.242197
            ],
            [
              43.505469,
              37.243112
            ],
            [
              43.50684,
              37.243051
            ],
            [
              43.507807,
              37.242807
            ],
            [
              43.509904,
              37.241466
            ],
            [
              43.511758,
              37.241039
            ],
            [
              43.512565,
              37.240125
            ],
            [
              43.512565,
              37.23976
            ],
            [
              43.513385,
              37.239574
            ],
            [
              43.515578,
              37.240761
            ],
            [
              43.517197,
              37.242615
            ],
            [
              43.519951,
              37.245094
            ],
            [
              43.5237836,
              37.2476384
            ],
            [
              43.52628,
              37.247109
            ],
            [
              43.529299,
              37.249082
            ],
            [
              43.53031,
              37.249502
            ],
            [
              43.531711,
              37.249519
            ],
            [
              43.533117,
              37.249231
            ],
            [
              43.534644,
              37.249352
            ],
            [
              43.536434,
              37.248967
            ],
            [
              43.540382,
              37.249015
            ],
            [
              43.542792,
              37.249554
            ],
            [
              43.548109,
              37.25125
            ],
            [
              43.550654,
              37.251383
            ],
            [
              43.553207,
              37.251108
            ],
            [
              43.556003,
              37.251448
            ],
            [
              43.560672,
              37.253746
            ],
            [
              43.563165,
              37.256629
            ],
            [
              43.564424,
              37.257459
            ],
            [
              43.56595,
              37.257579
            ],
            [
              43.567486,
              37.25719
            ],
            [
              43.56865,
              37.256288
            ],
            [
              43.570967,
              37.254991
            ],
            [
              43.572876,
              37.254508
            ],
            [
              43.578099,
              37.250037
            ],
            [
              43.578749,
              37.248174
            ],
            [
              43.580684,
              37.245615
            ],
            [
              43.581007,
              37.244701
            ],
            [
              43.582942,
              37.242934
            ],
            [
              43.584393,
              37.240923
            ],
            [
              43.584071,
              37.239704
            ],
            [
              43.584474,
              37.238424
            ],
            [
              43.58907,
              37.236718
            ],
            [
              43.59036,
              37.235925
            ],
            [
              43.593343,
              37.234524
            ],
            [
              43.594472,
              37.233488
            ],
            [
              43.595843,
              37.232635
            ],
            [
              43.597294,
              37.233122
            ],
            [
              43.597616,
              37.233427
            ],
            [
              43.598665,
              37.233793
            ],
            [
              43.601325,
              37.235377
            ],
            [
              43.603664,
              37.237388
            ],
            [
              43.605034,
              37.238058
            ],
            [
              43.609953,
              37.238241
            ],
            [
              43.612372,
              37.237144
            ],
            [
              43.615678,
              37.233122
            ],
            [
              43.616403,
              37.231721
            ],
            [
              43.618096,
              37.230319
            ],
            [
              43.6185,
              37.229344
            ],
            [
              43.618742,
              37.228003
            ],
            [
              43.619306,
              37.226784
            ],
            [
              43.619709,
              37.224956
            ],
            [
              43.619306,
              37.224225
            ],
            [
              43.619548,
              37.223189
            ],
            [
              43.620515,
              37.221483
            ],
            [
              43.624224,
              37.220568
            ],
            [
              43.626966,
              37.220386
            ],
            [
              43.630514,
              37.219837
            ],
            [
              43.635351,
              37.21935
            ],
            [
              43.637045,
              37.21935
            ],
            [
              43.639544,
              37.218984
            ],
            [
              43.640754,
              37.218375
            ],
            [
              43.64156,
              37.2174
            ],
            [
              43.642527,
              37.217217
            ],
            [
              43.643414,
              37.2174
            ],
            [
              43.643817,
              37.217887
            ],
            [
              43.644059,
              37.219411
            ],
            [
              43.643915,
              37.22001
            ],
            [
              43.644382,
              37.2213
            ],
            [
              43.645511,
              37.222336
            ],
            [
              43.646962,
              37.22325
            ],
            [
              43.650303,
              37.224762
            ],
            [
              43.651111,
              37.225525
            ],
            [
              43.6513098,
              37.2252407
            ],
            [
              43.6510575,
              37.2247832
            ],
            [
              43.651155,
              37.224469
            ],
            [
              43.652042,
              37.223311
            ],
            [
              43.653735,
              37.223494
            ],
            [
              43.658089,
              37.224591
            ],
            [
              43.660427,
              37.224651
            ],
            [
              43.667926,
              37.225444
            ],
            [
              43.673247,
              37.227028
            ],
            [
              43.675666,
              37.227211
            ],
            [
              43.677843,
              37.227028
            ],
            [
              43.678488,
              37.227455
            ],
            [
              43.679698,
              37.22782
            ],
            [
              43.681391,
              37.228978
            ],
            [
              43.682762,
              37.230989
            ],
            [
              43.683568,
              37.230502
            ],
            [
              43.68639,
              37.231355
            ],
            [
              43.68768,
              37.232574
            ],
            [
              43.688083,
              37.233366
            ],
            [
              43.688486,
              37.235011
            ],
            [
              43.689132,
              37.235255
            ],
            [
              43.692195,
              37.235438
            ],
            [
              43.69405,
              37.235316
            ],
            [
              43.697195,
              37.233975
            ],
            [
              43.699533,
              37.233305
            ],
            [
              43.701226,
              37.232391
            ],
            [
              43.701952,
              37.231599
            ],
            [
              43.703322,
              37.231233
            ],
            [
              43.705096,
              37.231294
            ],
            [
              43.706225,
              37.231599
            ],
            [
              43.706628,
              37.233
            ],
            [
              43.706548,
              37.233975
            ],
            [
              43.707838,
              37.234036
            ],
            [
              43.710821,
              37.233488
            ],
            [
              43.712434,
              37.233671
            ],
            [
              43.714369,
              37.233975
            ],
            [
              43.716384,
              37.234524
            ],
            [
              43.71711,
              37.234768
            ],
            [
              43.717836,
              37.235316
            ],
            [
              43.719852,
              37.235925
            ],
            [
              43.721142,
              37.235986
            ],
            [
              43.721706,
              37.235804
            ],
            [
              43.722593,
              37.234768
            ],
            [
              43.723319,
              37.234402
            ],
            [
              43.726221,
              37.233793
            ],
            [
              43.728237,
              37.233427
            ],
            [
              43.732511,
              37.233549
            ],
            [
              43.734284,
              37.233305
            ],
            [
              43.735091,
              37.233061
            ],
            [
              43.740251,
              37.230319
            ],
            [
              43.741622,
              37.230136
            ],
            [
              43.743637,
              37.230258
            ],
            [
              43.74525,
              37.230624
            ],
            [
              43.745895,
              37.231721
            ],
            [
              43.746137,
              37.234219
            ],
            [
              43.747508,
              37.235133
            ],
            [
              43.748314,
              37.235072
            ],
            [
              43.74904,
              37.234646
            ],
            [
              43.7542,
              37.233061
            ],
            [
              43.759522,
              37.231964
            ],
            [
              43.761537,
              37.231781
            ],
            [
              43.767343,
              37.23038
            ],
            [
              43.768713,
              37.22977
            ],
            [
              43.769923,
              37.229588
            ],
            [
              43.771294,
              37.228978
            ],
            [
              43.773148,
              37.228917
            ],
            [
              43.776373,
              37.228125
            ],
            [
              43.778066,
              37.228003
            ],
            [
              43.781856,
              37.228125
            ],
            [
              43.787178,
              37.229161
            ],
            [
              43.788548,
              37.228978
            ],
            [
              43.789677,
              37.2291
            ],
            [
              43.792015,
              37.228734
            ],
            [
              43.79766,
              37.226967
            ],
            [
              43.803384,
              37.22648
            ],
            [
              43.806368,
              37.225931
            ],
            [
              43.80919,
              37.224651
            ],
            [
              43.810318,
              37.223798
            ],
            [
              43.811609,
              37.222031
            ],
            [
              43.812496,
              37.219289
            ],
            [
              43.814431,
              37.21612
            ],
            [
              43.814914,
              37.214353
            ],
            [
              43.8147173,
              37.2126161
            ],
            [
              43.8152712,
              37.2117199
            ],
            [
              43.816124,
              37.211184
            ],
            [
              43.817091,
              37.211062
            ],
            [
              43.81822,
              37.210574
            ],
            [
              43.818623,
              37.209538
            ],
            [
              43.818623,
              37.208929
            ],
            [
              43.819349,
              37.208502
            ],
            [
              43.820075,
              37.207527
            ],
            [
              43.822171,
              37.206309
            ],
            [
              43.823058,
              37.205273
            ],
            [
              43.823219,
              37.204846
            ],
            [
              43.823219,
              37.204054
            ],
            [
              43.823622,
              37.203018
            ],
            [
              43.824509,
              37.202347
            ],
            [
              43.827331,
              37.201068
            ],
            [
              43.828218,
              37.200275
            ],
            [
              43.829508,
              37.19863
            ],
            [
              43.830395,
              37.196741
            ],
            [
              43.830491,
              37.1950401
            ],
            [
              43.8298366,
              37.193688
            ],
            [
              43.8298964,
              37.1933253
            ],
            [
              43.8307467,
              37.1926234
            ],
            [
              43.8306316,
              37.1933922
            ],
            [
              43.8311525,
              37.1940083
            ],
            [
              43.8315527,
              37.1941294
            ],
            [
              43.8318618,
              37.1946948
            ],
            [
              43.831862,
              37.195005
            ],
            [
              43.8331451,
              37.1952357
            ],
            [
              43.835798,
              37.196802
            ],
            [
              43.83741,
              37.198203
            ],
            [
              43.838378,
              37.199971
            ],
            [
              43.838862,
              37.200275
            ],
            [
              43.840071,
              37.201799
            ],
            [
              43.840635,
              37.203444
            ],
            [
              43.840313,
              37.205455
            ],
            [
              43.840635,
              37.205943
            ],
            [
              43.840797,
              37.206613
            ],
            [
              43.842087,
              37.207771
            ],
            [
              43.842812,
              37.208868
            ],
            [
              43.842974,
              37.20966
            ],
            [
              43.841764,
              37.21417
            ],
            [
              43.842974,
              37.21545
            ],
            [
              43.843377,
              37.216546
            ],
            [
              43.8465579,
              37.2181427
            ],
            [
              43.8471397,
              37.2188283
            ],
            [
              43.8480579,
              37.2195527
            ],
            [
              43.8500415,
              37.219729
            ],
            [
              43.8509461,
              37.2201669
            ],
            [
              43.852327,
              37.222884
            ],
            [
              43.853214,
              37.223737
            ],
            [
              43.854262,
              37.224408
            ],
            [
              43.855713,
              37.224591
            ],
            [
              43.85781,
              37.22453
            ],
            [
              43.858293,
              37.224286
            ],
            [
              43.858777,
              37.223676
            ],
            [
              43.861035,
              37.223189
            ],
            [
              43.861841,
              37.223189
            ],
            [
              43.864018,
              37.224164
            ],
            [
              43.86676,
              37.224469
            ],
            [
              43.868937,
              37.224164
            ],
            [
              43.870791,
              37.223676
            ],
            [
              43.873129,
              37.223494
            ],
            [
              43.876516,
              37.223981
            ],
            [
              43.879257,
              37.22392
            ],
            [
              43.880628,
              37.224042
            ],
            [
              43.883208,
              37.224591
            ],
            [
              43.88474,
              37.224773
            ],
            [
              43.885708,
              37.224712
            ],
            [
              43.887078,
              37.223311
            ],
            [
              43.887562,
              37.222153
            ],
            [
              43.888368,
              37.221178
            ],
            [
              43.889175,
              37.22069
            ],
            [
              43.890142,
              37.220325
            ],
            [
              43.891432,
              37.220081
            ],
            [
              43.895464,
              37.219533
            ],
            [
              43.896512,
              37.219898
            ],
            [
              43.897802,
              37.22069
            ],
            [
              43.900624,
              37.221787
            ],
            [
              43.901511,
              37.222275
            ],
            [
              43.902479,
              37.222519
            ],
            [
              43.904333,
              37.22264
            ],
            [
              43.9078,
              37.222214
            ],
            [
              43.909171,
              37.222214
            ],
            [
              43.9104869,
              37.2223917
            ],
            [
              43.9132331,
              37.2231192
            ],
            [
              43.916589,
              37.223494
            ],
            [
              43.919411,
              37.224773
            ],
            [
              43.920701,
              37.226784
            ],
            [
              43.921507,
              37.229405
            ],
            [
              43.92183,
              37.231538
            ],
            [
              43.922475,
              37.232757
            ],
            [
              43.923765,
              37.233793
            ],
            [
              43.923926,
              37.234402
            ],
            [
              43.924974,
              37.235438
            ],
            [
              43.925781,
              37.236535
            ],
            [
              43.925861,
              37.237388
            ],
            [
              43.926103,
              37.237997
            ],
            [
              43.927474,
              37.238972
            ],
            [
              43.930941,
              37.239216
            ],
            [
              43.935134,
              37.241471
            ],
            [
              43.93844,
              37.242385
            ],
            [
              43.93844,
              37.243238
            ],
            [
              43.933521,
              37.244884
            ],
            [
              43.930882,
              37.246259
            ],
            [
              43.932759,
              37.246864
            ],
            [
              43.935922,
              37.248421
            ],
            [
              43.938598,
              37.248343
            ],
            [
              43.942781,
              37.249807
            ],
            [
              43.943456,
              37.251969
            ],
            [
              43.943866,
              37.252737
            ],
            [
              43.944462,
              37.254878
            ],
            [
              43.944462,
              37.255723
            ],
            [
              43.945059,
              37.256456
            ],
            [
              43.94573,
              37.256681
            ],
            [
              43.947071,
              37.258259
            ],
            [
              43.946922,
              37.258597
            ],
            [
              43.947146,
              37.259442
            ],
            [
              43.946848,
              37.260118
            ],
            [
              43.946326,
              37.262992
            ],
            [
              43.94573,
              37.263499
            ],
            [
              43.945431,
              37.264344
            ],
            [
              43.944611,
              37.265415
            ],
            [
              43.943941,
              37.267049
            ],
            [
              43.9439122,
              37.2678408
            ],
            [
              43.944239,
              37.268458
            ],
            [
              43.944835,
              37.268796
            ],
            [
              43.949681,
              37.269415
            ],
            [
              43.954824,
              37.270937
            ],
            [
              43.956911,
              37.270993
            ],
            [
              43.957806,
              37.2715
            ],
            [
              43.957955,
              37.271895
            ],
            [
              43.95706,
              37.275219
            ],
            [
              43.957135,
              37.276064
            ],
            [
              43.957955,
              37.277473
            ],
            [
              43.957657,
              37.278205
            ],
            [
              43.957359,
              37.279952
            ],
            [
              43.957135,
              37.280347
            ],
            [
              43.95639,
              37.280854
            ],
            [
              43.956091,
              37.281417
            ],
            [
              43.955495,
              37.281981
            ],
            [
              43.9546,
              37.282431
            ],
            [
              43.9546,
              37.282882
            ],
            [
              43.954824,
              37.28322
            ],
            [
              43.95475,
              37.286488
            ],
            [
              43.954228,
              37.289306
            ],
            [
              43.95475,
              37.292179
            ],
            [
              43.95542,
              37.292855
            ],
            [
              43.956315,
              37.293024
            ],
            [
              43.96034,
              37.292461
            ],
            [
              43.964142,
              37.293081
            ],
            [
              43.966751,
              37.292348
            ],
            [
              43.968168,
              37.292292
            ],
            [
              43.968764,
              37.293081
            ],
            [
              43.971075,
              37.295166
            ],
            [
              43.973237,
              37.295504
            ],
            [
              43.978082,
              37.295447
            ],
            [
              43.980691,
              37.295842
            ],
            [
              43.98576,
              37.296067
            ],
            [
              43.987698,
              37.296912
            ],
            [
              43.988593,
              37.297532
            ],
            [
              43.988891,
              37.298265
            ],
            [
              43.990084,
              37.298772
            ],
            [
              43.991575,
              37.298828
            ],
            [
              43.991947,
              37.298603
            ],
            [
              43.993066,
              37.298828
            ],
            [
              43.993587,
              37.299166
            ],
            [
              43.995153,
              37.30142
            ],
            [
              43.996196,
              37.303899
            ],
            [
              43.996867,
              37.304801
            ],
            [
              43.996867,
              37.30559
            ],
            [
              43.997166,
              37.306322
            ],
            [
              43.9970952,
              37.3076606
            ],
            [
              43.9978612,
              37.3089639
            ],
            [
              43.9995111,
              37.3100576
            ],
            [
              44,
              37.31057778227349
            ],
            [
              44,
              38
            ],
            [
              43,
              38
            ],
            [
              43,
              37.32994835432668
            ]
          ]
        ]
      }
    }
  ]
}