{
  "type": "FeatureCollection",
  "features": [
    {
      "type": "Feature",
      "properties": {
        "osm_id": -28699,
        "boundary": "administrative",
        "admin_level": 2,
        "parents": null,
        "name": "Georgia",
        "local_name": "საქართველო",
        "name_en": "Georgia",
        "all_tags": {
          "flag": "http://upload.wikimedia.org/wikipedia/commons/0/0f/Flag_of_Georgia.svg",
          "name": "საქართველო",
          "int_ref": "GE",
          "name:ab": "Қырҭтәыла",
          "name:af": "Georgië",
          "name:am": "ጂዮርጂያ",
          "name:an": "Cheorchia",
          "name:ar": "جورجيا",
          "name:av": "Гуржи",
          "name:az": "Gürcüstan",
          "name:be": "Грузія",
          "name:bg": "Грузия",
          "name:bn": "জর্জিয়া (রাষ্ট্র)",
          "name:bo": "འཇོར་ཇི་ཡ། (རྒྱལ་ཁབ།)",
          "name:br": "Jorjia (bro)",
          "name:bs": "Gruzija",
          "name:ca": "Geòrgia",
          "name:ce": "Гуьржийчоь",
          "name:cs": "Gruzie",
          "name:cu": "Гєѡргїꙗ",
          "name:cv": "Грузи",
          "name:cy": "Georgia",
          "name:da": "Georgien",
          "name:de": "Georgien",
          "name:dv": "ޖޯޖިޔާ (ޤައުމު)",
          "name:dz": "ཇཽ་ཇཱ",
          "name:ee": "Georgia",
          "name:el": "Γεωργία",
          "name:en": "Georgia",
          "name:eo": "Kartvelio",
          "name:es": "Georgia",
          "name:et": "Gruusia",
          "name:eu": "Georgia",
          "name:fa": "گرجستان",
          "name:fi": "Georgia",
          "name:fo": "Georgia (land)",
          "name:fr": "Géorgie",
          "name:fy": "Geörgje",
          "name:ga": "An tSeoirsia",
          "name:gd": "A' Chairtbheil",
          "name:gl": "Xeorxia - საქართველო",
          "name:gn": "Geórgia",
          "name:gu": "જ્યોર્જીયા (દેશ)",
          "name:gv": "Yn Çhorshey",
          "name:he": "גאורגיה",
          "name:hi": "जॉर्जिया",
          "name:hr": "Gruzija",
          "name:ht": "Jeoji",
          "name:hu": "Grúzia",
          "name:hy": "Վրաստան",
          "name:ia": "Georgia",
          "name:id": "Georgia",
          "name:ie": "Georgia",
          "name:io": "Gruzia",
          "name:is": "Georgía",
          "name:it": "Georgia",
          "name:ja": "ジョージア",
          "name:jv": "Georgia",
          "name:ka": "საქართველო",
          "name:kk": "Грузия",
          "name:kn": "ಜಾರ್ಜಿಯ",
          "name:ko": "조지아",
          "name:ku": "Gurcistan",
          "name:kv": "Грузия",
          "name:kw": "Pow Grouzi",
          "name:ky": "Грузия",
          "name:la": "Georgia",
          "name:lb": "Georgien",
          "name:li": "Georgië",
          "name:lt": "Gruzija",
          "name:lv": "Gruzija",
          "name:mi": "Hōria",
          "name:mk": "Грузија",
          "name:ml": "ജോർജ്ജിയ",
          "name:mn": "Гүрж",
          "name:mr": "जॉर्जिया",
          "name:ms": "Georgia",
          "name:mt": "Ġeorġja",
          "name:my": "ဂျော်ဂျီယာနိုင်ငံ",
          "name:na": "Djiordjiya",
          "name:ne": "जर्जिया (देश)",
          "name:nl": "Georgië",
          "name:nn": "Georgia",
          "name:no": "Georgia",
          "name:nv": "Jóojah (Kéyah)",
          "name:oc": "Georgia (Caucàs)",
          "name:or": "ଜର୍ଜିଆ",
          "name:os": "Гуырдзыстон",
          "name:pl": "Gruzja",
          "name:ps": "ګرجستان",
          "name:pt": "Geórgia",
          "name:qu": "Kartulsuyu",
          "name:ro": "Georgia",
          "name:ru": "Грузия",
          "name:rw": "Geworugiya",
          "name:sc": "Georgia",
          "name:se": "Georgia",
          "name:sh": "Gruzija",
          "name:si": "ජෝර්ජියා (රට)",
          "name:sk": "Gruzínsko",
          "name:sl": "Gruzija",
          "name:so": "Joorjiya",
          "name:sq": "Gjeorgjia",
          "name:sr": "Грузија",
          "name:ss": "IJojiya",
          "name:su": "Géorgia",
          "name:sv": "Georgien",
          "name:sw": "Georgia (nchi)",
          "name:ta": "சியார்சியா (நாடு)",
          "name:te": "జార్జియా (దేశం)",
          "name:tg": "Гурҷистон",
          "name:th": "ประเทศจอร์เจีย",
          "name:tk": "Gruziýa",
          "name:tl": "Heorhiya",
          "name:tr": "Gürcistan",
          "name:tt": "Гөрҗистан",
          "name:ug": "گرۇزىيە",
          "name:uk": "Грузія",
          "name:ur": "جارجیا",
          "name:uz": "Gurjiston",
          "name:vi": "Gruzia",
          "name:vo": "Grusiyän",
          "name:wo": "Jeoorji",
          "name:yi": "גרוזיע",
          "name:yo": "Georgia",
          "name:zh": "格鲁吉亚 / 喬治亞",
          "boundary": "administrative",
          "int_name": "Georgia",
          "name:ace": "Georgia",
          "name:als": "Georgien",
          "name:ang": "Georgia",
          "name:arc": "ܓܘܪܓܝܐ",
          "name:arz": "جيورجيا",
          "name:ast": "Xeorxa",
          "name:bar": "Georgien",
          "name:bcl": "Georgya",
          "name:bjn": "Jorjiya",
          "name:bxr": "Гүрж",
          "name:cdo": "Gáh-lū-gék-ā",
          "name:ceb": "Georgia",
          "name:ckb": "گورجستان",
          "name:crh": "Gürcistan",
          "name:csb": "Grëzóńskô",
          "name:diq": "Gurcıstan",
          "name:dsb": "Georgiska",
          "name:ext": "Geólgia",
          "name:frp": "Jôrg·ie",
          "name:frr": "Georgien",
          "name:gag": "Gruziya",
          "name:hak": "Kak-lû-kit-â",
          "name:haw": "Keokia",
          "name:hif": "Georgia",
          "name:hsb": "Georgiska",
          "name:ilo": "Georgia",
          "name:kaa": "Gruziya",
          "name:kbd": "Хъырцей",
          "name:krc": "Гюрджю",
          "name:lbe": "Гуржисттан",
          "name:lez": "Гуржистан",
          "name:lij": "Geòrgia",
          "name:lmo": "Georgia",
          "name:ltg": "Gruzeja",
          "name:mdf": "Грузие",
          "name:mhr": "Грузий",
          "name:min": "Georgia",
          "name:mzn": "گرجستون",
          "name:nah": "Georgia",
          "name:nan": "Sakartvelo",
          "name:nds": "Georgien",
          "name:new": "ज्योर्जिया",
          "name:nov": "Georgia",
          "name:pam": "Georgya",
          "name:pih": "Jorja",
          "name:pms": "Geòrgia",
          "name:pnb": "گرجستان",
          "name:pnt": "Γρουζία",
          "name:sah": "Грузия",
          "name:scn": "Giorgia",
          "name:sco": "Georgie",
          "name:smn": "Georgia",
          "name:sms": "Georgia",
          "name:stq": "Georgien",
          "name:szl": "Gruzyjŏ",
          "name:tok": "ma Katelo",
          "name:tzl": "Cartavia",
          "name:udm": "Грузия",
          "name:vec": "Zorzania",
          "name:vep": "Gruzii",
          "name:vro": "Gruusia",
          "name:war": "Georgia",
          "name:wuu": "格鲁吉亚",
          "name:xal": "Гүрҗмүдин Орн",
          "name:xmf": "საქორთუო",
          "name:yue": "格魯吉亞",
          "name:zea": "Georhië",
          "timezone": "Asia/Tbilisi",
          "way_area": "8.26176",
          "wikidata": "Q230",
          "ISO3166-1": "GE",
          "wikipedia": "en:Georgia (country)",
          "population": "3729500",
          "admin_level": "2",
          "alt_name:eo": "Kartvelujo",
          "border_type": "International",
          "old_name:fi": "Gruusia",
          "old_name:ja": "グルジア",
          "addr:country": "GE",
          "alt_name:ckb": "جۆرجیا",
          "name:bat-smg": "Grozėjė",
          "name:zh-Hans": "格鲁吉亚",
          "name:zh-Hant": "喬治亞",
          "name:be-tarask": "Грузія",
          "population:date": "2015",
          "ISO3166-1:alpha2": "GE",
          "ISO3166-1:alpha3": "GEO",
          "default_language": "ka",
          "ISO3166-1:numeric": "268"
        }
      },
      "geometry": {
        "type": "Polygon",
        "coordinates": [
          [
            [
              43,
              43
            ],
            [
              43.08643649265353,
              43
            ],
            [
              43.0863097,
              43.0001569
            ],
            [
              43.0843517,
              43.0012398
            ],
            [
              43.0844322,
              43.0018165
            ],
            [
              43.0831662,
              43.0022049
            ],
            [
              43.0822206,
              43.0029288
            ],
            [
              43.081491,
              43.0047491
            ],
            [
              43.0806301,
              43.0050551
            ],
            [
              43.0784655,
              43.007707
            ],
            [
              43.0778218,
              43.0075893
            ],
            [
              43.0764017,
              43.0082699
            ],
            [
              43.0716971,
              43.0077975
            ],
            [
              43.0709446,
              43.0086092
            ],
            [
              43.0703652,
              43.011308
            ],
            [
              43.0707723,
              43.0128
            ],
            [
              43.0696142,
              43.0139478
            ],
            [
              43.0677903,
              43.0141596
            ],
            [
              43.0673933,
              43.0144421
            ],
            [
              43.0653763,
              43.0143479
            ],
            [
              43.0647755,
              43.0149912
            ],
            [
              43.0618143,
              43.0162228
            ],
            [
              43.0609024,
              43.0167719
            ],
            [
              43.0592179,
              43.0172033
            ],
            [
              43.0580485,
              43.018129
            ],
            [
              43.0574799,
              43.0183172
            ],
            [
              43.056525,
              43.0182153
            ],
            [
              43.0558813,
              43.0186075
            ],
            [
              43.0541432,
              43.0190546
            ],
            [
              43.0531347,
              43.0191487
            ],
            [
              43.0514825,
              43.0190389
            ],
            [
              43.0509247,
              43.0192119
            ],
            [
              43.0493537,
              43.0209295
            ],
            [
              43.0490256,
              43.0217294
            ],
            [
              43.0485964,
              43.0221373
            ],
            [
              43.0483602,
              43.0228642
            ],
            [
              43.0478345,
              43.0235054
            ],
            [
              43.0459464,
              43.0243648
            ],
            [
              43.0444443,
              43.0248119
            ],
            [
              43.0441091,
              43.0252433
            ],
            [
              43.0429316,
              43.0268276
            ],
            [
              43.043586,
              43.0287649
            ],
            [
              43.0425775,
              43.0291649
            ],
            [
              43.0403245,
              43.0292511
            ],
            [
              43.0381251,
              43.0297374
            ],
            [
              43.0363441,
              43.029604
            ],
            [
              43.0350352,
              43.0298707
            ],
            [
              43.0370125,
              43.0318991
            ],
            [
              43.0375799,
              43.0331197
            ],
            [
              43.0386537,
              43.0387251
            ],
            [
              43.0363166,
              43.0409521
            ],
            [
              43.0358098,
              43.0432046
            ],
            [
              43.0333652,
              43.0441262
            ],
            [
              43.0334721,
              43.0444426
            ],
            [
              43.0317424,
              43.0454016
            ],
            [
              43.0312358,
              43.0452942
            ],
            [
              43.0304211,
              43.0454627
            ],
            [
              43.0300766,
              43.0461531
            ],
            [
              43.026987,
              43.0478653
            ],
            [
              43.0257681,
              43.0480084
            ],
            [
              43.0259944,
              43.0497391
            ],
            [
              43.0276111,
              43.0511489
            ],
            [
              43.027544,
              43.0528153
            ],
            [
              43.0251279,
              43.0558863
            ],
            [
              43.0235743,
              43.0585363
            ],
            [
              43.0237294,
              43.0592464
            ],
            [
              43.023016,
              43.0611274
            ],
            [
              43.0232475,
              43.0616599
            ],
            [
              43.0227081,
              43.0626827
            ],
            [
              43.0229111,
              43.0629838
            ],
            [
              43.0218807,
              43.0636177
            ],
            [
              43.019125,
              43.0662699
            ],
            [
              43.0179352,
              43.0667275
            ],
            [
              43.0166162,
              43.0686311
            ],
            [
              43.0156191,
              43.0711493
            ],
            [
              43.0191796,
              43.072964
            ],
            [
              43.0208916,
              43.075038
            ],
            [
              43.0237711,
              43.0772478
            ],
            [
              43.027075,
              43.0789344
            ],
            [
              43.0270647,
              43.0800212
            ],
            [
              43.0286478,
              43.0815171
            ],
            [
              43.0306269,
              43.0811991
            ],
            [
              43.0316416,
              43.0813928
            ],
            [
              43.0334732,
              43.0823345
            ],
            [
              43.0361405,
              43.0824879
            ],
            [
              43.0374175,
              43.0834727
            ],
            [
              43.0396183,
              43.0844473
            ],
            [
              43.0418587,
              43.08615
            ],
            [
              43.0430542,
              43.0880049
            ],
            [
              43.0417821,
              43.0887272
            ],
            [
              43.0413741,
              43.0897373
            ],
            [
              43.0415444,
              43.0904069
            ],
            [
              43.0412311,
              43.0907638
            ],
            [
              43.0349537,
              43.0913494
            ],
            [
              43.0328487,
              43.0925114
            ],
            [
              43.032147,
              43.0926395
            ],
            [
              43.0302675,
              43.0945244
            ],
            [
              43.0292401,
              43.0951008
            ],
            [
              43.0290299,
              43.0957534
            ],
            [
              43.0275028,
              43.0978118
            ],
            [
              43.027746,
              43.0990185
            ],
            [
              43.0263529,
              43.0995533
            ],
            [
              43.0256657,
              43.0990949
            ],
            [
              43.0212511,
              43.1004687
            ],
            [
              43.0190828,
              43.1009721
            ],
            [
              43.0168584,
              43.1018743
            ],
            [
              43.0159805,
              43.1026256
            ],
            [
              43.014858,
              43.1041744
            ],
            [
              43.0100516,
              43.1057401
            ],
            [
              43.0091759,
              43.1071555
            ],
            [
              43.0081674,
              43.1076098
            ],
            [
              43.0080601,
              43.1083852
            ],
            [
              43.0073306,
              43.1092155
            ],
            [
              43.0041119,
              43.11097
            ],
            [
              43.0033287,
              43.1111345
            ],
            [
              43.0008105,
              43.1134725
            ],
            [
              43,
              43.11377871275083
            ],
            [
              43,
              43
            ]
          ]
        ]
      }
    },
    {
      "type": "Feature",
      "properties": {
        "osm_id": -60189,
        "boundary": "administrative",
        "admin_level": 2,
        "parents": null,
        "name": "Russia",
        "local_name": "Россия",
        "name_en": "Russia",
        "all_tags": {
          "flag": "https://upload.wikimedia.org/wikipedia/commons/f/f3/Flag_of_Russia.svg",
          "name": "Россия",
          "int_ref": "RU",
          "name:ab": "Урыстәыла",
          "name:af": "Rusland",
          "name:ak": "Russia",
          "name:am": "ሩሲያ",
          "name:an": "Rusia",
          "name:ar": "روسيا",
          "name:as": "ৰুশিযা",
          "name:av": "Россиялъул Федерация",
          "name:ay": "Rusiya",
          "name:az": "Rusiya",
          "name:ba": "Рәсәй",
          "name:be": "Расія",
          "name:bg": "Русия",
          "name:bi": "Rusia",
          "name:bm": "Risila",
          "name:bn": "রাশিয়া",
          "name:bo": "ཨུ་རུ་སུ།",
          "name:br": "Rusia",
          "name:bs": "Rusija",
          "name:ca": "Rússia",
          "name:ce": "Росси",
          "name:ch": "Russia",
          "name:co": "Russia",
          "name:cs": "Rusko",
          "name:cu": "Рѡсїꙗ",
          "name:cv": "Раççей Патшалăхĕ",
          "name:cy": "Rwsia",
          "name:da": "Rusland",
          "name:de": "Russland",
          "name:dv": "ރޫސީވިލާތް",
          "name:dz": "ར་ཤི་ཡཱན་ཕེ་ཌི་རེ་ཤཱན",
          "name:ee": "Russia",
          "name:el": "Ρωσία",
          "name:en": "Russia",
          "name:eo": "Rusio",
          "name:es": "Rusia",
          "name:et": "Venemaa",
          "name:eu": "Errusia",
          "name:fa": "روسیه",
          "name:ff": "Roosiya",
          "name:fi": "Venäjä",
          "name:fo": "Russland",
          "name:fr": "Russie",
          "name:fy": "Ruslân",
          "name:ga": "An Rúis",
          "name:gd": "An Ruis",
          "name:gl": "Rusia",
          "name:gn": "Rrúsia",
          "name:gu": "રશિયા",
          "name:gv": "Yn Roosh",
          "name:ha": "Rasha",
          "name:he": "רוסיה",
          "name:hi": "रूस",
          "name:hr": "Ruska Federacija",
          "name:ht": "Risi",
          "name:hu": "Oroszország",
          "name:hy": "Ռուսաստան",
          "name:ia": "Russia",
          "name:id": "Rusia",
          "name:ie": "Russia",
          "name:ig": "Mpaghara Russia",
          "name:ik": "Russia",
          "name:io": "Rusia",
          "name:is": "Rússland",
          "name:it": "Russia",
          "name:iu": "ᐅᓛᓴ",
          "name:ja": "ロシア",
          "name:jv": "Rusia",
          "name:ka": "რუსეთი",
          "name:kg": "Rusia",
          "name:ki": "Russia",
          "name:kk": "Ресей",
          "name:kl": "Ruslandi",
          "name:km": "រុស្ស៊ី",
          "name:kn": "ರಷ್ಯಾ",
          "name:ko": "러시아",
          "name:ks": "روٗس",
          "name:ku": "Rûsya",
          "name:kv": "Рочму",
          "name:kw": "Russi",
          "name:ky": "Орусия",
          "name:la": "Russia",
          "name:lb": "Russland",
          "name:lg": "Rwasha",
          "name:li": "Rusland",
          "name:ln": "Rusí",
          "name:lo": "ລັດເຊັຽ",
          "name:lt": "Rusija",
          "name:lv": "Krievija",
          "name:mg": "Rosia",
          "name:mi": "Ruhia",
          "name:mk": "Русија",
          "name:ml": "റഷ്യ",
          "name:mn": "Оросын Холбооны Улс",
          "name:mo": "Русия",
          "name:mr": "रशिया",
          "name:ms": "Rusia",
          "name:mt": "Russja",
          "name:my": "ရုရှားနိုင်ငံ",
          "name:na": "Ratsiya",
          "name:ne": "रुस",
          "name:nl": "Rusland",
          "name:nn": "Russland",
          "name:no": "Russland",
          "name:nv": "Biʼééʼ Łichííʼí Bikéyah",
          "name:ny": "Russia",
          "name:oc": "Russia",
          "name:om": "Raashiyaa",
          "name:or": "ଋଷିଆ",
          "name:os": "Уæрæсе",
          "name:pa": "ਰੂਸ",
          "name:pl": "Rosja",
          "name:ps": "روسیه",
          "name:pt": "Rússia",
          "name:qu": "Rusiya",
          "name:rm": "Russia",
          "name:rn": "Uburusiya",
          "name:ro": "Rusia",
          "name:ru": "Россия",
          "name:rw": "Uburusiya",
          "name:sc": "Rùssia",
          "name:sd": "روس",
          "name:se": "Ruošša",
          "name:sg": "Rusïi",
          "name:sh": "Rusija",
          "name:si": "රුසියාව",
          "name:sk": "Rusko",
          "name:sl": "Rusija",
          "name:sm": "Lusia",
          "name:sn": "Russia",
          "name:so": "Ruushka",
          "name:sq": "Rusia",
          "name:sr": "Русија",
          "name:ss": "IRashiya",
          "name:st": "Russia",
          "name:su": "Rusia",
          "name:sv": "Ryssland",
          "name:sw": "Shirikisho la Urusi",
          "name:ta": "உருசியா",
          "name:te": "రష్యా",
          "name:tg": "Русия",
          "name:th": "ประเทศรัสเซีย",
          "name:ti": "ራሻ",
          "name:tk": "Russiýa",
          "name:tl": "Pederasyong Ruso",
          "name:to": "Lūsia",
          "name:tr": "Rusya Federasyonu",
          "name:ts": "Russia",
          "name:tt": "Русия",
          "name:tw": "Russia",
          "name:ty": "Rūtia",
          "name:ug": "روسىيە",
          "name:uk": "Росія",
          "name:ur": "روس",
          "name:uz": "Rossiya Federatsiyasi",
          "name:ve": "Rashia",
          "name:vi": "Liên bang Nga",
          "name:vo": "Rusän",
          "name:wa": "Federåcion d' Rûsseye",
          "name:wo": "Federaasioŋ bu Riisi",
          "name:xh": "IRashiya",
          "name:yi": "רוסלאנד",
          "name:yo": "Rọ́síà",
          "name:za": "Ezlozswh Lienzbangh",
          "name:zh": "俄罗斯",
          "name:zu": "IRashiya",
          "boundary": "administrative",
          "currency": "RUB",
          "int_name": "Russia",
          "name:ace": "Rusia",
          "name:als": "Russland",
          "name:ang": "Russland",
          "name:arc": "ܪܘܣܝܐ",
          "name:arz": "روسيا",
          "name:ast": "Rusia",
          "name:bar": "Russland",
          "name:bcl": "Rusya",
          "name:bjn": "Rusia",
          "name:bpy": "রাশিয়া",
          "name:bug": "Russia",
          "name:bxr": "Ородой Холбооной Улас",
          "name:cdo": "Ngò̤-lò̤-sṳ̆",
          "name:ceb": "Rusya",
          "name:chr": "ᏲᏂᏱ",
          "name:chy": "Russia",
          "name:ckb": "ڕووسیا",
          "name:crh": "Rusiye",
          "name:csb": "Ruskô",
          "name:diq": "Rusya",
          "name:dsb": "Rusojska",
          "name:eml": "Rossia",
          "name:ext": "Russia",
          "name:frp": "Russie",
          "name:frr": "Ruslönj",
          "name:fur": "Russie",
          "name:gag": "Rusiya",
          "name:gan": "俄羅斯",
          "name:hak": "Ngò-lò-sṳ̂",
          "name:haw": "Rūsia",
          "name:hif": "Russia",
          "name:hsb": "Ruska federacija",
          "name:ilo": "Rusia",
          "name:jbo": "rukygu'e",
          "name:kaa": "Rossiya",
          "name:kab": "Rrus",
          "name:kbd": "Урысей",
          "name:koi": "Рочму",
          "name:krc": "Россия Федерация",
          "name:lad": "Rusia",
          "name:lbe": "Аьрасат",
          "name:lez": "Урусат",
          "name:lij": "Ruscia",
          "name:lmo": "Rüssia",
          "name:ltg": "Krīveja",
          "name:lzh": "俄羅斯",
          "name:mdf": "Рузмастор",
          "name:mhr": "Россий",
          "name:min": "Rusia",
          "name:mrj": "Россий",
          "name:mwl": "Rússia",
          "name:myv": "Россия Мастор",
          "name:mzn": "ئوروسیا",
          "name:nah": "Rusia",
          "name:nan": "Lō͘-se-a",
          "name:nap": "Russia",
          "name:nds": "Russ'sche Föderatschoon",
          "name:new": "रुस",
          "name:nov": "Rusia",
          "name:nrm": "Russie",
          "name:nso": "Russia",
          "name:pag": "Rusia",
          "name:pam": "Rusia",
          "name:pap": "Rusia",
          "name:pcd": "Russie",
          "name:pdc": "Russland",
          "name:pfl": "Russlond",
          "name:pih": "Rusha",
          "name:pms": "Russia",
          "name:pnb": "روس",
          "name:pnt": "Ρουσία",
          "name:rmy": "Rusiya",
          "name:rue": "Росія",
          "name:sah": "Арассыыйа",
          "name:scn": "Russia",
          "name:sco": "Roushie",
          "name:smn": "Ruoššâ",
          "name:sms": "Ruõššjânnam",
          "name:srn": "Rusland",
          "name:stq": "Ruslound",
          "name:szl": "Rusyjŏ",
          "name:tet": "Rúsia",
          "name:tok": "ma Losi",
          "name:tpi": "Rasia",
          "name:tum": "Russia",
          "name:tzl": "Rußía",
          "name:udm": "Россия",
          "name:vec": "Rusia",
          "name:vep": "Venäma",
          "name:vls": "Rusland",
          "name:vro": "Vinnemaa",
          "name:war": "Rusya",
          "name:wuu": "俄罗斯",
          "name:xal": "Орсн Орн Нутг",
          "name:xmf": "რუსეთი",
          "name:yue": "俄羅斯",
          "name:zea": "Rusland",
          "old_name": "Московия;Русское Царство;Российская Империя;Российская Советская Федеративная Социалистическая Республика",
          "way_area": "3241.56",
          "wikidata": "Q159",
          "ISO3166-1": "RU",
          "wikipedia": "ru:Россия",
          "name:UN:ar": "الاتحاد الروسي",
          "name:UN:en": "Russian Federation (the)",
          "name:UN:es": "Federación de Rusia (la)",
          "name:UN:fr": "Fédération de Russie (la)",
          "name:UN:ru": "Российская Федерация",
          "name:UN:zh": "俄罗斯联邦",
          "population": "146447424",
          "short_name": "РФ",
          "admin_level": "2",
          "alt_name:eo": "Rusujo;Ruslando",
          "border_type": "nation",
          "name:nds-nl": "Ruslaand",
          "name:bat-smg": "Rosėjė",
          "name:cbk-zam": "Rusia",
          "name:map-bms": "Rusia",
          "name:roa-rup": "Arusia",
          "name:zh-Hans": "俄罗斯",
          "name:zh-Hant": "俄羅斯",
          "name:roa-tara": "Russie",
          "official_name": "Российская Федерация",
          "short_name:ru": "РФ",
          "name:be-tarask": "Расея",
          "old_short_name": "РСФСР",
          "according_to:RU": "yes",
          "according_to:UA": "no",
          "population:date": "2023-01-01",
          "ISO3166-1:alpha2": "RU",
          "ISO3166-1:alpha3": "RUS",
          "default_language": "ru",
          "official_name:ar": "الاتحاد الروسي",
          "official_name:be": "Расійская Федэрацыя",
          "official_name:cs": "Ruská federace",
          "official_name:de": "Russische Föderation",
          "official_name:en": "Russian Federation",
          "official_name:eo": "Rusa Federacio",
          "official_name:es": "Federación Rusa",
          "official_name:et": "Venemaa Föderatsioon",
          "official_name:fi": "Venäjän Federaatio",
          "official_name:fr": "Fédération de Russie",
          "official_name:nl": "Russische Federatie",
          "official_name:pl": "Federacja Rosyjska",
          "official_name:pt": "Federação Russa",
          "official_name:ru": "Российская Федерация",
          "official_name:sk": "Ruská federácia",
          "official_name:sl": "Ruska federacija",
          "official_name:sv": "Ryska Federationen",
          "official_name:uk": "Російська Федерація",
          "official_name:yi": "רוסישע פֿעדעראַציע",
          "official_name:zh": "俄罗斯联邦",
          "ISO3166-1:numeric": "643",
          "official_name:ast": "Federación Rusa",
          "old_short_name:en": "RSFSR",
          "old_short_name:ru": "РСФСР",
          "official_name:zh-Hans": "俄罗斯联邦",
          "official_name:zh-Hant": "俄羅斯聯邦"
        }
      },
      "geometry": {
        "type": "Polygon",
        "coordinates": [
          [
            [
              43,
              43.11377871275083
            ],
            [
              43.0008105,
              43.1134725
            ],
            [
              43.0033287,
              43.1111345
            ],
            [
              43.0041119,
              43.11097
            ],
            [
              43.0073306,
              43.1092155
            ],
            [
              43.0080601,
              43.1083852
            ],
            [
              43.0081674,
              43.1076098
            ],
            [
              43.0091759,
              43.1071555
            ],
            [
              43.0100516,
              43.1057401
            ],
            [
              43.014858,
              43.1041744
            ],
            [
              43.0159805,
              43.1026256
            ],
            [
              43.0168584,
              43.1018743
            ],
            [
              43.0190828,
              43.1009721
            ],
            [
              43.0212511,
              43.1004687
            ],
            [
              43.0256657,
              43.0990949
            ],
            [
              43.0263529,
              43.0995533
            ],
            [
              43.027746,
              43.0990185
            ],
            [
              43.0275028,
              43.0978118
            ],
            [
              43.0290299,
              43.0957534
            ],
            [
              43.0292401,
              43.0951008
            ],
            [
              43.0302675,
              43.0945244
            ],
            [
              43.032147,
              43.0926395
            ],
            [
              43.0328487,
              43.0925114
            ],
            [
              43.0349537,
              43.0913494
            ],
            [
              43.0412311,
              43.0907638
            ],
            [
              43.0415444,
              43.0904069
            ],
            [
              43.0413741,
              43.0897373
            ],
            [
              43.0417821,
              43.0887272
            ],
            [
              43.0430542,
              43.0880049
            ],
            [
              43.0418587,
              43.08615
            ],
            [
              43.0396183,
              43.0844473
            ],
            [
              43.0374175,
              43.0834727
            ],
            [
              43.0361405,
              43.0824879
            ],
            [
              43.0334732,
              43.0823345
            ],
            [
              43.0316416,
              43.0813928
            ],
            [
              43.0306269,
              43.0811991
            ],
            [
              43.0286478,
              43.0815171
            ],
            [
              43.0270647,
              43.0800212
            ],
            [
              43.027075,
              43.0789344
            ],
            [
              43.0237711,
              43.0772478
            ],
            [
              43.0208916,
              43.075038
            ],
            [
              43.0191796,
              43.072964
            ],
            [
              43.0156191,
              43.0711493
            ],
            [
              43.0166162,
              43.0686311
            ],
            [
              43.0179352,
              43.0667275
            ],
            [
              43.019125,
              43.0662699
            ],
            [
              43.0218807,
              43.0636177
            ],
            [
              43.0229111,
              43.0629838
            ],
            [
              43.0227081,
              43.0626827
            ],
            [
              43.0232475,
              43.0616599
            ],
            [
              43.023016,
              43.0611274
            ],
            [
              43.0237294,
              43.0592464
            ],
            [
              43.0235743,
              43.0585363
            ],
            [
              43.0251279,
              43.0558863
            ],
            [
              43.027544,
              43.0528153
            ],
            [
              43.0276111,
              43.0511489
            ],
            [
              43.0259944,
              43.0497391
            ],
            [
              43.0257681,
              43.0480084
            ],
            [
              43.026987,
              43.0478653
            ],
            [
              43.0300766,
              43.0461531
            ],
            [
              43.0304211,
              43.0454627
            ],
            [
              43.0312358,
              43.0452942
            ],
            [
              43.0317424,
              43.0454016
            ],
            [
              43.0334721,
              43.0444426
            ],
            [
              43.0333652,
              43.0441262
            ],
            [
              43.0358098,
              43.0432046
            ],
            [
              43.0363166,
              43.0409521
            ],
            [
              43.0386537,
              43.0387251
            ],
            [
              43.0375799,
              43.0331197
            ],
            [
              43.0370125,
              43.0318991
            ],
            [
              43.0350352,
              43.0298707
            ],
            [
              43.0363441,
              43.029604
            ],
            [
              43.0381251,
              43.0297374
            ],
            [
              43.0403245,
              43.0292511
            ],
            [
              43.0425775,
              43.0291649
            ],
            [
              43.043586,
              43.0287649
            ],
            [
              43.0429316,
              43.0268276
            ],
            [
              43.0441091,
              43.0252433
            ],
            [
              43.0444443,
              43.0248119
            ],
            [
              43.0459464,
              43.0243648
            ],
            [
              43.0478345,
              43.0235054
            ],
            [
              43.0483602,
              43.0228642
            ],
            [
              43.0485964,
              43.0221373
            ],
            [
              43.0490256,
              43.0217294
            ],
            [
              43.0493537,
              43.0209295
            ],
            [
              43.0509247,
              43.0192119
            ],
            [
              43.0514825,
              43.0190389
            ],
            [
              43.0531347,
              43.0191487
            ],
            [
              43.0541432,
              43.0190546
            ],
            [
              43.0558813,
              43.0186075
            ],
            [
              43.056525,
              43.0182153
            ],
            [
              43.0574799,
              43.0183172
            ],
            [
              43.0580485,
              43.018129
            ],
            [
              43.0592179,
              43.0172033
            ],
            [
              43.0609024,
              43.0167719
            ],
            [
              43.0618143,
              43.0162228
            ],
            [
              43.0647755,
              43.0149912
            ],
            [
              43.0653763,
              43.0143479
            ],
            [
              43.0673933,
              43.0144421
            ],
            [
              43.0677903,
              43.0141596
            ],
            [
              43.0696142,
              43.0139478
            ],
            [
              43.0707723,
              43.0128
            ],
            [
              43.0703652,
              43.011308
            ],
            [
              43.0709446,
              43.0086092
            ],
            [
              43.0716971,
              43.0077975
            ],
            [
              43.0764017,
              43.0082699
            ],
            [
              43.0778218,
              43.0075893
            ],
            [
              43.0784655,
              43.007707
            ],
            [
              43.0806301,
              43.0050551
            ],
            [
              43.081491,
              43.0047491
            ],
            [
              43.0822206,
              43.0029288
            ],
            [
              43.0831662,
              43.0022049
            ],
            [
              43.0844322,
              43.0018165
            ],
            [
              43.0843517,
              43.0012398
            ],
            [
              43.0863097,
              43.0001569
            ],
            [
              43.08643649265353,
              43
            ],
            [
              44,
              43
            ],
            [
              44,
              44
            ],
            [
              43,
              44
            ],
            [
              43,
              43.11377871275083
            ]
          ]
        ]
      }
    }
  ]
}