{
  "type": "FeatureCollection",
  "features": [
    {
      "type": "Feature",
      "properties": {
        "osm_id": -62149,
        "boundary": "administrative",
        "admin_level": 2,
        "parents": null,
        "name": "United Kingdom",
        "local_name": "United Kingdom",
        "name_en": "United Kingdom",
        "all_tags": {
          "flag": "https://upload.wikimedia.org/wikipedia/commons/a/ae/Flag_of_the_United_Kingdom.svg",
          "name": "United Kingdom",
          "name:ab": "Ğ‘Ñ€Ğ¸Ñ‚Ğ°Ğ½Ğ¸Ğ° Ğ”Ñƒ",
          "name:af": "Verenigde Koninkryk",
          "name:ak": "United Kingdom",
          "name:am": "á‹©áŠ“á‹­á‰µá‹µ áŠªáŠ•áŒá‹°áˆ",
          "name:an": "Reino Unito",
          "name:ar": "Ø§Ù„Ù…Ù…Ù„ÙƒØ© Ø§Ù„Ù…ØªØ­Ø¯Ø©",
          "name:as": "à¦¯à§à¦•à§à¦¤à§°à¦¾à¦œà§à¦¯",
          "name:av": "ĞšÓÑƒĞ´Ğ°Ğ±Ğ¸Ñ€Ğ¸Ñ‚Ğ°Ğ½",
          "name:az": "BÃ¶yÃ¼k Britaniya",
          "name:ba": "Ğ‘Ó©Ğ¹Ó©Ğº Ğ‘Ñ€Ğ¸Ñ‚Ğ°Ğ½Ğ¸Ñ",
          "name:be": "Ğ’ÑĞ»Ñ–ĞºĞ°Ğ±Ñ€Ñ‹Ñ‚Ğ°Ğ½Ñ–Ñ",
          "name:bg": "ĞĞ±ĞµĞ´Ğ¸Ğ½ĞµĞ½Ğ¾ ĞºÑ€Ğ°Ğ»ÑÑ‚Ğ²Ğ¾ Ğ’ĞµĞ»Ğ¸ĞºĞ¾Ğ±Ñ€Ğ¸Ñ‚Ğ°Ğ½Ğ¸Ñ Ğ¸ Ğ¡ĞµĞ²ĞµÑ€Ğ½Ğ° Ğ˜Ñ€Ğ»Ğ°Ğ½Ğ´Ğ¸Ñ",
          "name:bh": "à¤¯à¥‚à¤¨à¤¾à¤‡à¤Ÿà¥‡à¤¡ à¤•à¤¿à¤‚à¤—à¤¡à¤®",
          "name:bi": "Unaeted Kingdom",
          "name:bn": "à¦¯à§à¦•à§à¦¤à¦°à¦¾à¦œà§à¦¯",
          "name:bo": "à½‘à½–à¾±à½²à½“à¼‹à½‡à½²à¼‹à½˜à½‰à½˜à¼‹à½ à½–à¾²à½ºà½£à¼",
          "name:br": "Rouantelezh-Unanet",
          "name:bs": "Ujedinjeno Kraljevstvo Velike Britanije i Sjeverne Irske",
          "name:ca": "Regne Unit",
          "name:ce": "Ğ™Ğ¾ĞºĞºÑ…Ğ° Ğ‘Ñ€Ğ¸Ñ‚Ğ°Ğ½Ğ¸",
          "name:ch": "Reinu Unidu",
          "name:co": "Regnu Unitu",
          "name:cs": "SpojenÃ© krÃ¡lovstvÃ­",
          "name:cu": "Ğ’Ñ”Ğ»Ğ¸ĞºĞ° Ğ‘Ñ€Ğ¸Ñ‚Ğ°Ğ½Ñ—ê™—",
          "name:cv": "ĞÑĞ»Äƒ Ğ‘Ñ€Ğ¸Ñ‚Ğ°Ğ½Ğ¸",
          "name:cy": "Deyrnas Unedig",
          "name:da": "Storbritannien",
          "name:de": "Vereinigtes KÃ¶nigreich",
          "name:dv": "Ş”ŞªŞ‚Ş¦Ş‡Ş¨Ş“Ş¬Ş‘Ş° Ş†Ş¨Ş‚Ş°ŞŞ°Ş‘Ş¦Ş‰Ş°",
          "name:dz": "à½¡à½´à¼‹à½“à½ à½²à¼‹à½Šà½ºà½Šà¼‹à½€à½²à½„à¼‹à½Œà½˜",
          "name:ee": "United Kingdom",
          "name:el": "Î—Î½Ï‰Î¼Î­Î½Î¿ Î’Î±ÏƒÎ¯Î»ÎµÎ¹Î¿",
          "name:en": "United Kingdom",
          "name:eo": "UnuiÄinta ReÄlando",
          "name:es": "Reino Unido",
          "name:et": "Suurbritannia",
          "name:eu": "Erresuma Batua",
          "name:fa": "Ø¨Ø±ÛŒØªØ§Ù†ÛŒØ§",
          "name:ff": "Biritaani-Mawndi",
          "name:fi": "Yhdistynyt kuningaskunta",
          "name:fj": "Matanitu Cokovata",
          "name:fo": "StÃ³ra Bretland",
          "name:fr": "Royaume-Uni",
          "name:fy": "Feriene Keninkryk",
          "name:ga": "An RÃ­ocht Aontaithe",
          "name:gd": "An RÃ¬oghachd Aonaichte",
          "name:gl": "Reino Unido",
          "name:gn": "TavetÃ£ Joaju",
          "name:gu": "àª¯à«àª¨àª¾àª‡àªŸà«‡àª¡ àª•àª¿àª‚àª—àª¡àª®",
          "name:gv": "Reeriaght Unnaneysit",
          "name:ha": "Birtaniya",
          "name:he": "×”×××œ×›×” ×”×××•×—×“×ª",
          "name:hi": "à¤¯à¥‚à¤¨à¤¾à¤‡à¤Ÿà¥‡à¤¡ à¤•à¤¿à¤‚à¤—à¤¡à¤®",
          "name:hr": "Ujedinjeno Kraljevstvo",
          "name:ht": "WayÃ²m Ini",
          "name:hu": "EgyesÃ¼lt KirÃ¡lysÃ¡g",
          "name:hy": "Õ„Õ«Õ¡ÖÕµÕ¡Õ¬ Ô¹Õ¡Õ£Õ¡Õ¾Õ¸Ö€Õ¸Ö‚Õ©ÕµÕ¸Ö‚Õ¶",
          "name:ia": "Regno Unite",
          "name:id": "Britania Raya",
          "name:ie": "Reyatu Unit",
          "name:ig": "ObodoÃ©zÃ¨ NÃ  OfÃº",
          "name:ik": "Tannapta Umialgutia",
          "name:io": "Unionita Rejio",
          "name:is": "Bretland",
          "name:it": "Regno Unito",
          "name:iu": "á‘á“—áƒá‘¦ á“„á“ˆá‘¦",
          "name:ja": "ã‚¤ã‚®ãƒªã‚¹",
          "name:jv": "Britania Raya",
          "name:ka": "áƒ’áƒáƒ”áƒ áƒ—áƒ˜áƒáƒœáƒ”áƒ‘áƒ£áƒšáƒ˜ áƒ¡áƒáƒ›áƒ”áƒ¤áƒ",
          "name:kg": "Royaume-Uni",
          "name:ki": "United Kingdom",
          "name:kk": "Ò°Ğ»Ñ‹Ğ±Ñ€Ğ¸Ñ‚Ğ°Ğ½Ğ¸Ñ",
          "name:kl": "Tuluit Nunaat",
          "name:km": "ášá¶á‡á¶áá¶á…á€áŸ’ášášá½á˜",
          "name:kn": "à²¯à³à²¨à³ˆà²Ÿà³†à²¡à³ à²•à²¿à²‚à²—à³â€Œà²¡à²‚",
          "name:ko": "ì˜êµ­",
          "name:ku": "Keyaniya YekbÃ»yÃ®",
          "name:kv": "Ğ«Ğ´Ğ¶Ñ‹Ğ´ Ğ‘Ñ€Ğ¸Ñ‚Ğ°Ğ½Ğ¸Ñ",
          "name:kw": "Ruvaneth Unys",
          "name:ky": "Ğ£Ğ»ÑƒÑƒ Ğ‘Ñ€Ğ¸Ñ‚Ğ°Ğ½Ğ¸Ñ Ğ¶Ğ°Ğ½Ğ° Ğ¢Ò¯Ğ½Ğ´Ò¯Ğº Ğ˜Ñ€Ğ»Ğ°Ğ½Ğ´Ğ¸Ñ",
          "name:la": "Britanniarum Regnum",
          "name:lb": "Groussbritannien an Nordirland",
          "name:li": "Vereineg Keuninkriek",
          "name:ln": "IngÉ›lÉ›ÌtÉ›lÉ›",
          "name:lo": "àºªàº°àº«àº°àº£àº²àºŠàº­àº²àº™àº²àºˆàº±àº",
          "name:lt": "JungtinÄ— KaralystÄ—",
          "name:lv": "ApvienotÄ Karaliste",
          "name:mg": "Fanjakana Mitambatra",
          "name:mi": "KÄ«ngitanga Kotahi",
          "name:mk": "ĞĞ±ĞµĞ´Ğ¸Ğ½ĞµÑ‚Ğ¾ ĞšÑ€Ğ°Ğ»ÑÑ‚Ğ²Ğ¾",
          "name:ml": "à´¯àµà´£àµˆà´±àµà´±à´¡àµ à´•à´¿à´™àµà´¡à´‚",
          "name:mn": "Ğ˜Ñ… Ğ‘Ñ€Ğ¸Ñ‚Ğ°Ğ½Ğ¸",
          "name:mr": "à¤¯à¥à¤¨à¤¾à¤¯à¤Ÿà¥‡à¤¡ à¤•à¤¿à¤‚à¤—à¥à¤¡à¤®",
          "name:ms": "United Kingdom",
          "name:mt": "Renju Unit",
          "name:my": "á€šá€°á€”á€­á€¯á€€á€ºá€á€€á€ºá€€á€„á€ºá€¸á€’á€™á€ºá€¸á€”á€­á€¯á€„á€ºá€„á€¶",
          "name:na": "Ingerand",
          "name:ne": "à¤¸à¤‚à¤¯à¥à¤•à¥à¤¤ à¤…à¤§à¤¿à¤°à¤¾à¤œà¥à¤¯",
          "name:nl": "Verenigd Koninkrijk",
          "name:nn": "Storbritannia",
          "name:no": "Storbritannia",
          "name:nv": "TÃ³taÊ¼ DineÊ¼Ã© BikÃ©yah",
          "name:ny": "United Kingdom",
          "name:oc": "Reialme Unit",
          "name:om": "Yunaayitid Kingidem",
          "name:or": "à¬¯à­à¬•à­à¬¤à¬°à¬¾à¬œà­à­Ÿ",
          "name:os": "Ğ¡Ñ‚Ñ‹Ñ€ Ğ‘Ñ€Ğ¸Ñ‚Ğ°Ğ½Ğ¸",
          "name:pa": "à¨¸à©°à¨¯à©à¨•à¨¤ à¨¬à¨¾à¨¦à¨¸à¨¼à¨¾à¨¹à©€",
          "name:pl": "Wielka Brytania",
          "name:ps": "Ø¨Ø±ÙŠØªØ§Ù†ÙŠØ§",
          "name:pt": "Reino Unido",
          "name:qu": "Hukllachasqa Qhapaq Suyu",
          "name:rm": "Reginavel UnÃ¬",
          "name:ro": "Regatul Unit al Marii Britanii È™i al Irlandei de Nord",
          "name:ru": "Ğ’ĞµĞ»Ğ¸ĞºĞ¾Ğ±Ñ€Ğ¸Ñ‚Ğ°Ğ½Ğ¸Ñ",
          "name:rw": "Ubwongereza",
          "name:sa": "à¤¸à¤‚à¤¯à¥à¤•à¥à¤¤ à¤…à¤§à¤¿à¤°à¤¾à¤œà¥à¤¯",
          "name:sc": "Rennu Auniadu",
          "name:sd": "Ú¯ÚÙŠÙ„ Ø¨Ø§Ø¯Ø´Ø§Ú¾Øª",
          "name:se": "Ovttastuvvan gonagasriika",
          "name:sh": "Ujedinjeno Kraljevstvo",
          "name:si": "à¶‘à¶šà·Šà·ƒà¶­à·Š à¶»à·à¶¢à¶°à·à¶±à·’à¶º",
          "name:sk": "SpojenÃ© krÃ¡Ä¾ovstvo",
          "name:sl": "ZdruÅ¾eno kraljestvo",
          "name:sm": "PeretÄnia",
          "name:sn": "United Kingdom",
          "name:so": "Midowga boqortooyada Britan",
          "name:sq": "MbretÃ«ria e Bashkuar e BritanisÃ« dhe IrlandÃ«s sÃ« Veriut",
          "name:sr": "Ğ£Ñ˜ĞµĞ´Ğ¸ÑšĞµĞ½Ğ¾ ĞšÑ€Ğ°Ñ™ĞµĞ²ÑÑ‚Ğ²Ğ¾",
          "name:ss": "United Kingdom",
          "name:su": "Britania",
          "name:sv": "Storbritannien",
          "name:sw": "Ufalme wa Muungano",
          "name:ta": "à®à®•à¯à®•à®¿à®¯ à®‡à®°à®¾à®šà¯à®šà®¿à®¯à®®à¯",
          "name:te": "à°¯à±à°¨à±ˆà°Ÿà±†à°¡à± à°•à°¿à°‚à°—à±â€Œà°¡à°®à±",
          "name:tg": "ĞŸĞ¾Ğ´ÑˆĞ¾Ò³Ğ¸Ğ¸ ĞœÑƒÑ‚Ñ‚Ğ°Ò³Ğ¸Ğ´Ğ°",
          "name:th": "à¸ªà¸«à¸£à¸²à¸Šà¸­à¸²à¸“à¸²à¸ˆà¸±à¸à¸£",
          "name:tk": "BirleÅŸen PatyÅŸalyk",
          "name:tl": "Nagkakaisang Kaharian",
          "name:to": "PilitÄnia",
          "name:tr": "BirleÅŸik KrallÄ±k",
          "name:ts": "United Kingdom",
          "name:tt": "Ğ‘Ó©ĞµĞºĞ±Ñ€Ğ¸Ñ‚Ğ°Ğ½Ğ¸Ñ",
          "name:tw": "United Kingdom",
          "name:ty": "ParatÄne",
          "name:ug": "Ø¨ÛˆÙŠÛˆÙƒ Ø¨ÛØ±Ù‰ØªØ§Ù†Ù‰ÙŠÛ•",
          "name:uk": "Ğ’ĞµĞ»Ğ¸ĞºĞ° Ğ‘Ñ€Ğ¸Ñ‚Ğ°Ğ½Ñ–Ñ",
          "name:ur": "Ø¨Ø±Ø·Ø§Ù†ÛŒÛ",
          "name:uz": "Birlashgan Qirollik",
          "name:vi": "VÆ°Æ¡ng quá»‘c Anh",
          "name:vo": "RegÃ¤n PebalÃ¶l",
          "name:wa": "RweyÃ¥me-Uni",
          "name:wo": "Nguur-Yu-Bennoo",
          "name:yi": "×¤××¨××™×™× ×™×’×˜×¢ ×§×¢× ×™×’×¨×™×™×š",
          "name:yo": "Iláº¹Ì€á»ba Aá¹£á»Ì€kan",
          "name:za": "Yinghgoz",
          "name:zh": "è‹±å›½ / è‹±åœ‹",
          "name:zu": "Umbuso Ohlangeneyo",
          "ref:gss": "K02000001",
          "boundary": "administrative",
          "currency": "GBP",
          "int_name": "United Kingdom",
          "name:ace": "KeurajeuÃ«n InggrÃ©h",
          "name:ady": "Ğ‘Ñ€Ğ¸Ñ‚Ğ°Ğ½Ğ¸ĞµÑˆÑ…Ğ¾ ĞŸĞ°Ñ‡ÑŠÑ‹Ñ…ÑŒÑ‹Ğ³ÑŠĞ¾",
          "name:als": "Vereinigtes KÃ¶nigreich",
          "name:ang": "GeÄned CynerÄ«ce",
          "name:arc": "Ü¡Ü ÜŸÜ˜Ü¬Ü Ü¡ÜšÜÜ•Ü¬Ü",
          "name:ary": "Ù„Ù…Ù…Ù„ÙƒØ© Ù„Ù…ØªØ­Ø¯Ø©",
          "name:arz": "Ø§Ù„Ù…Ù…Ù„ÙƒÙ‡ Ø§Ù„Ù…ØªØ­Ø¯Ù‡",
          "name:ast": "Reinu XunÃ­u",
          "name:avk": "Tanaragazaxo",
          "name:awa": "à¤¯à¥‚à¤¨à¤¾à¤‡à¤Ÿà¥‡à¤¡ à¤•à¤¿à¤‚à¤—à¤¡à¤®",
          "name:azb": "Ø¨ÛŒØ±Ù„Ø´Ù…ÛŒØ´ Ø´Ø§Ù‡Ù„ÛŒÙ‚",
          "name:ban": "Britania Agung",
          "name:bar": "Vaeinigts Kinireich",
          "name:bcl": "Reyno Unido",
          "name:bjn": "Britania Raya",
          "name:bpy": "à¦¤à¦¿à¦²à¦ªà¦¾à¦°à¦¾à¦œà§à¦¯",
          "name:bug": "United Kingdom",
          "name:bxr": "ĞÑĞ³Ğ´ÑÑĞ½ Ğ’Ğ°Ğ½Ñ‚ Ğ£Ğ»Ñ",
          "name:cdo": "Ä¬ng-guÃ³k",
          "name:ceb": "Hiniusang Gingharian",
          "name:chr": "á¡áµáá¯",
          "name:chy": "United Kingdom",
          "name:ckb": "Ø´Ø§Ù†Ø´ÛŒÙ†ÛŒ ÛŒÛ•Ú©Ú¯Ø±ØªÙˆÙˆ",
          "name:crh": "BÃ¼yÃ¼k Britaniya",
          "name:csb": "WiÃ´lgÃ´ BritanijÃ´",
          "name:din": "Amatnhom MÃ¤cÅ‹aknhom",
          "name:diq": "Qraliya Yewbiyayiye",
          "name:dsb": "Wjelika Britaniska",
          "name:dty": "à¤¸à¤‚à¤¯à¥à¤•à¥à¤¤ à¤…à¤§à¤¿à¤°à¤¾à¤œà¥à¤¯",
          "name:eml": "RÃ©gn UnÃ®",
          "name:ext": "RÃ©inu Uniu",
          "name:frp": "RoyÃ´mo-Uni",
          "name:frr": "Feriind Kiningrik",
          "name:fur": "Ream UnÃ®t",
          "name:gag": "BÃ¼Ã¼k Britaniya",
          "name:gan": "è‹±åœ‹",
          "name:gcr": "RwÃ©yonm-Ini",
          "name:gom": "à¤¯à¥à¤¨à¤¾à¤¯à¤Ÿà¥‡à¤¡ à¤•à¤¿à¤‚à¤—à¤¡à¤®",
          "name:hak": "YÃ®n-koet",
          "name:haw": "Aupuni MÅÊ»Ä« Hui PÅ« Ê»ia",
          "name:hif": "United Kingdom",
          "name:hsb": "ZjednoÄ‡ene kralestwo",
          "name:ilo": "Nagkaykaysa a Pagarian",
          "name:inh": "Ğ’ĞµĞ»Ğ¸ĞºĞ¾Ğ±Ñ€Ğ¸Ñ‚Ğ°Ğ½Ğ¸",
          "name:jam": "Yunaitid Kindom",
          "name:jbo": "ritygu'e",
          "name:kaa": "UllÄ± Britaniya",
          "name:kab": "Legliz",
          "name:kbd": "Ğ‘Ñ€Ğ¸Ñ‚Ğ°Ğ½Ğ¸ÑÑˆÑ…ÑƒÑ",
          "name:koi": "Ğ«Ğ´Ğ¶Ñ‹Ñ‚ Ğ‘Ñ€Ğ¸Ñ‚Ğ¼Ñƒ",
          "name:krc": "Ğ£Ğ»Ğ»Ñƒ Ğ‘Ñ€Ğ¸Ñ‚Ğ°Ğ½Ğ¸Ñ",
          "name:ksh": "JruÃŸbritannie",
          "name:lad": "Reyno Unido",
          "name:lez": "Ğ§IĞµÑ…Ğ¸Ğ±Ñ€Ğ¸Ñ‚Ğ°Ğ½Ğ¸Ñ",
          "name:lij": "Regno UnÃ¯o",
          "name:lmo": "Regn ÃœnÃ¬",
          "name:ltg": "Lelbrytaneja",
          "name:lzh": "è‹±åœ‹",
          "name:mad": "Britania Raya",
          "name:mai": "à¤¸à¤‚à¤¯à¥à¤•à¥à¤¤ à¤…à¤§à¤¿à¤°à¤¾à¤œà¥à¤¯",
          "name:mdf": "ĞÑ†Ñ Ğ‘Ñ€Ğ¸Ñ‚Ğ°Ğ½Ğ¸Ñ",
          "name:mhr": "Ğ£ÑˆÑ‹Ğ¼Ğ¾ ĞšĞ¾Ñ€Ğ¾Ğ»ĞµĞ²ÑÑ‚Ğ²Ğµ",
          "name:min": "Baritania Rayo",
          "name:mni": "ê¯Œê¯¨ê¯…ê¯¥ê¯¢ê¯‡ê¯¦ê¯— ê¯€ê¯¤ê¯¡ê¯—ê¯",
          "name:mrj": "ĞšĞ¾Ğ³Ğ¾ Ğ‘Ñ€Ğ¸Ñ‚Ğ°Ğ½Ğ¸",
          "name:mwl": "Reino Ounido",
          "name:myv": "Ğ˜Ğ½ĞµĞ±Ñ€Ğ¸Ñ‚Ğ°Ğ½Ğ¸Ñ ĞœĞ°ÑÑ‚Ğ¾Ñ€",
          "name:mzn": "Ø¨Ø±ÛŒØªØ§Ù†ÛŒØ§",
          "name:nah": "TlacetilÄ«lli HuÄ“yitlahtohcÄyÅtl",
          "name:nan": "LiÃ¢n-haÌp Ã”ng-kok",
          "name:nap": "Gran Vretagna",
          "name:nds": "Vereenigt KÃ¶nigriek vun Grootbritannien un Noordirland",
          "name:new": "à¤¸à¤‚à¤¯à¥à¤•à¥à¤¤ à¤…à¤§à¤¿à¤°à¤¾à¤œà¥à¤¯",
          "name:nov": "Unionati Regia",
          "name:nqo": "ß¡ßŠß²ß¬ß›ßŠß¬ßŸßŠß« ß˜ßß¬ß£ßß²",
          "name:nrm": "Rouoyaume Unni",
          "name:nso": "United Kingdom",
          "name:pag": "Reino Unido",
          "name:pam": "Pisanmetung a Ka-arian",
          "name:pap": "Reino Uni",
          "name:pcd": "RoÃ©yÃ´me-Uni",
          "name:pih": "Yunitid Kingdum",
          "name:pms": "Regn UnÃ¬",
          "name:pnb": "Ø¨Ø±Ø·Ø§Ù†ÛŒÛ",
          "name:pnt": "Î—Î½Ï‰Î¼Î­Î½Î¿ Î’Î±ÏƒÎ¯Î»ÎµÎ¹Î¿",
          "name:rmy": "Phandlo Thagaripen la Bare Britaniyako thai le Nordutne Irlandesko",
          "name:rue": "Ğ’ĞµĞ»Ğ¸ĞºĞ° Ğ‘Ñ€Ñ–Ñ‚Ğ°Ğ½Ñ–Ñ",
          "name:sah": "Ğ¥Ğ¾Ğ»Ğ±Ğ¾hÑƒĞºÑ‚Ğ°Ğ°Ñ… Ğ¥Ğ¾Ñ€ÑƒĞ¾Ğ»Ğ»ÑƒĞº",
          "name:sat": "á±¥á±®á±á±®á±« á±«á±¤á±¥á±šá±¢",
          "name:scn": "Regnu Unitu",
          "name:sco": "Unitit Kinrick",
          "name:shi": "Briá¹­anya",
          "name:shn": "á€™á€­á€°á€„á€ºá€¸á‚á€°á€™á€ºá‚ˆá€á€¯á€™á€ºá‚á€±á‚ƒá¶á€™á€ºá€¸ á€•á€›á€­á€á€ºá‚ˆá€á€µá¼á€ºá‚‡",
          "name:skr": "Ø¨Ø±Ø·Ø§Ù†ÛŒÛ",
          "name:smn": "OvtÃ¢stum kunÃ¢gÃ¢skodde",
          "name:sms": "Ã•httÃµÃµvvÃ¢m koonÇ¥ÃµskÃ¥Ê¹dd",
          "name:srn": "Ingriskondre",
          "name:stq": "Fereeniged KÃ¶Ã¶nichriek fon Groot-Britannien un Noudirlound",
          "name:szl": "WielgÅ BrytanijÅ",
          "name:tcy": "à²¯à³à²¨à³ˆà²Ÿà³†à²¡à³ à²•à²¿à²‚à²—à³à²¡à²®à³",
          "name:tet": "Reinu Naklibur",
          "name:tok": "ma Juke",
          "name:tpi": "Yunaitet Kingdom",
          "name:trv": "United Kingdom",
          "name:tzl": "RegipÃ¤ts ViensiÃ§at",
          "name:udm": "Ğ’ĞµĞ»Ğ¸ĞºĞ¾Ğ±Ñ€Ğ¸Ñ‚Ğ°Ğ½Ğ¸Ñ",
          "name:vec": "Regno UnÃ¬o",
          "name:vep": "Sur' Britanii",
          "name:vls": "VerÃªnigd Keunienkryk",
          "name:vro": "Ãœtiskuningriik",
          "name:war": "Reino Unido",
          "name:wuu": "è‹±å›½",
          "name:xal": "Ğ˜Ğº Ğ‘Ñ€Ğ¸Ñ‚Ğ¸ÑˆĞ¸Ğ½ Ğ±Ğ¾Ğ»Ğ½ ĞÑ€ Ğ“Ó™Ó™Ğ»Ğ³Ò¯Ğ´Ğ¸Ğ½ ĞĞ¸Ğ¸Ñ†Ó™Ñ‚Ó™ ĞÑƒÑ‚Ğ³",
          "name:xmf": "áƒ’áƒáƒáƒ áƒ—áƒáƒ˜áƒáƒœáƒáƒ¤áƒ˜áƒšáƒ˜ áƒáƒ›áƒáƒ¤áƒ”",
          "name:yue": "è‹±åœ‹",
          "name:zea": "VereÃªnigd Konienkriek",
          "timezone": "Europe/London",
          "way_area": "56.5151",
          "wikidata": "Q145",
          "ISO3166-1": "GB",
          "wikipedia": "en:United Kingdom",
          "short_name": "UK",
          "admin_level": "2",
          "alt_name:be": "Ğ’ÑĞ»Ñ–ĞºĞ°Ñ Ğ‘Ñ€Ñ‹Ñ‚Ğ°Ğ½Ñ–Ñ;Ğ‘Ñ€Ñ‹Ñ‚Ğ°Ğ½Ñ–Ñ;Ğ—Ğ»ÑƒÑ‡Ğ°Ğ½Ğ°Ğµ ĞšĞ°Ñ€Ğ°Ğ»ĞµÑÑÑ‚Ğ²Ğ°",
          "alt_name:eo": "Britio;Britujo",
          "name:nds-nl": "Verienigd Keuninkriek",
          "native_name": "United Kingdom of Great Britain and Northern Ireland",
          "driving_side": "left",
          "name:bat-smg": "JongtÄ—nÄ— KaralÄ«stÄ—",
          "name:cbk-zam": "Reinos Unidos de Gran Britania y Norte Irelandia",
          "name:roa-rup": "Britania Mari",
          "name:zh-Hans": "è‹±å›½",
          "name:zh-Hant": "è‹±åœ‹",
          "name:roa-tara": "Regne AunÃ¬te",
          "official_name": "United Kingdom of Great Britain and Northern Ireland",
          "short_name:el": "Î—Î’",
          "short_name:fr": "RU",
          "short_name:nl": "VK",
          "short_name:vo": "BritÃ¤n",
          "short_name:wa": "RU",
          "name:be-tarask": "Ğ’ÑĞ»Ñ–ĞºĞ°Ğ±Ñ€Ñ‹Ñ‚Ğ°Ğ½Ñ–Ñ",
          "native_name:da": "Det Forenede Kongerige Storbritannien og Nordirland",
          "native_name:es": "Reino Unido de Gran BretaÃ±a e Irlanda del Norte",
          "native_name:vi": "VÆ°Æ¡ng quá»‘c LiÃªn hiá»‡p Anh vÃ  Báº¯c Ireland",
          "short_name:pcd": "RU",
          "short_name:vls": "VK",
          "ISO3166-1:alpha2": "GB",
          "ISO3166-1:alpha3": "GBR",
          "official_name:be": "Ğ—Ğ»ÑƒÑ‡Ğ°Ğ½Ğ°Ğµ ĞšĞ°Ñ€Ğ°Ğ»ĞµÑÑÑ‚Ğ²Ğ° Ğ’ÑĞ»Ñ–ĞºĞ°Ğ±Ñ€Ñ‹Ñ‚Ğ°Ğ½Ñ–Ñ– Ñ– ĞŸĞ°ÑĞ½Ğ¾Ñ‡Ğ½Ğ°Ğ¹ Ğ†Ñ€Ğ»Ğ°Ğ½Ğ´Ñ‹Ñ–",
          "official_name:ca": "Regne Unit de Gran Bretanya i Irlanda del Nord",
          "official_name:cs": "SpojenÃ© krÃ¡lovstvÃ­ VelkÃ© BritÃ¡nie a SevernÃ­ho Irska",
          "official_name:de": "Vereinigtes KÃ¶nigreich GroÃŸbritannien und Nordirland",
          "official_name:el": "Î—Î½Ï‰Î¼Î­Î½Î¿ Î’Î±ÏƒÎ¯Î»ÎµÎ¹Î¿ Ï„Î·Ï‚ ÎœÎµÎ³Î¬Î»Î·Ï‚ Î’ÏÎµÏ„Î±Î½Î¯Î±Ï‚ ÎºÎ±Î¹ Ï„Î·Ï‚ Î’ÏŒÏÎµÎ¹Î±Ï‚ Î™ÏÎ»Î±Î½Î´Î¯Î±Ï‚",
          "official_name:en": "United Kingdom of Great Britain and Northern Ireland",
          "official_name:eo": "UnuiÄinta ReÄlando de Granda Britio kaj Nord-Irlando",
          "official_name:fr": "Royaume-Uni de Grande-Bretagne et d'Irlande du Nord",
          "official_name:hr": "Ujedinjeno Kraljevstvo Velike Britanije i Sjeverne Irske",
          "official_name:is": "SameinaÃ°a konungsveldi StÃ³ra-Bretlands og NorÃ°ur-Ãrlands",
          "official_name:it": "Regno Unito di Gran Bretagna e Irlanda del Nord",
          "official_name:la": "Coniunctum Britanniae Maioris et Hiberniae Septentrionalis Regnum",
          "official_name:nl": "Verenigd Koninkrijk van Groot-BrittanniÃ« en Noord-Ierland",
          "official_name:pl": "Zjednoczone KrÃ³lestwo Wielkiej Brytanii i Irlandii PÃ³Å‚nocnej",
          "official_name:ru": "Ğ¡Ğ¾ĞµĞ´Ğ¸Ğ½Ñ‘Ğ½Ğ½Ğ¾Ğµ ĞºĞ¾Ñ€Ğ¾Ğ»ĞµĞ²ÑÑ‚Ğ²Ğ¾ Ğ’ĞµĞ»Ğ¸ĞºĞ¾Ğ±Ñ€Ğ¸Ñ‚Ğ°Ğ½Ğ¸Ğ¸ Ğ¸ Ğ¡ĞµĞ²ĞµÑ€Ğ½Ğ¾Ğ¹ Ğ˜Ñ€Ğ»Ğ°Ğ½Ğ´Ğ¸Ğ¸",
          "official_name:sk": "SpojenÃ© krÃ¡Ä¾ovstvo VeÄ¾kej BritÃ¡nie a SevernÃ©ho Ãrska",
          "official_name:sl": "ZdruÅ¾eno kraljestvo Velike Britanije in Severne Irske",
          "official_name:wa": "RoÃ©yÃ´me-uni Ã©d Grande-Bretagne pi d'Irlinde-du-Nord",
          "official_name:zh": "å¤§ä¸åˆ—é¡›æš¨åŒ—æ„›çˆ¾è˜­è¯åˆç‹åœ‹/å¤§ä¸åˆ—é¢ åŠåŒ—çˆ±å°”å…°è”åˆç‹å›½",
          "ISO3166-1:numeric": "826",
          "official_name:din": "Amatnhom MÃ¤cÅ‹aknhom nÃ« Britain DÃ¯t ku Parut Ireland",
          "official_name:pcd": "RweyÃ¥me-Uni di Grande Burtaegne et d' Irlande do NÃ´r",
          "official_name:vls": "VerÃªnigd Keunienkryk van GrÃ´ot-BrittanniÃ« en NÃ´ord-Ierland",
          "official_name:zh-Hans": "å¤§ä¸åˆ—é¢ åŠåŒ—çˆ±å°”å…°è”åˆç‹å›½",
          "official_name:zh-Hant": "å¤§ä¸åˆ—é¡›æš¨åŒ—æ„›çˆ¾è˜­è¯åˆç‹åœ‹"
        }
      },
      "geometry": {
        "type": "Polygon",
        "coordinates": [
          [
            [
              -7,
              55
            ],
            [
              -6,
              55
            ],
            [
              -6,
              56
            ],
            [
              -6.963188007943166,
              56
            ],
            [
              -6.8860504,
              55.6691664
            ],
            [
              -6.8859045,
              55.6675193
            ],
            [
              -6.885201,
              55.6656564
            ],
            [
              -6.8832117,
              55.6587803
            ],
            [
              -6.8820376,
              55.6552984
            ],
            [
              -6.8794157,
              55.6484905
            ],
            [
              -6.8779123,
              55.6450279
            ],
            [
              -6.8746736,
              55.638325
            ],
            [
              -6.8710152,
              55.6316719
            ],
            [
              -6.8647299,
              55.6217767
            ],
            [
              -6.8608113,
              55.6163198
            ],
            [
              -6.8575377,
              55.6120797
            ],
            [
              -6.8522347,
              55.6057203
            ],
            [
              -6.8508467,
              55.6044117
            ],
            [
              -6.8494638,
              55.6026095
            ],
            [
              -6.8453562,
              55.5981943
            ],
            [
              -6.84076,
              55.592
            ],
            [
              -6.8358871,
              55.586
            ],
            [
              -6.8296536,
              55.579
            ],
            [
              -6.8227954,
              55.572
            ],
            [
              -6.8130791,
              55.563
            ],
            [
              -6.802199,
              55.554
            ],
            [
              -6.7955841,
              55.549
            ],
            [
              -6.7899739,
              55.545
            ],
            [
              -6.7778273,
              55.537
            ],
            [
              -6.769545,
              55.532
            ],
            [
              -6.7606678,
              55.527
            ],
            [
              -6.7511285,
              55.522
            ],
            [
              -6.7408436,
              55.517
            ],
            [
              -6.7320079,
              55.513
            ],
            [
              -6.7225576,
              55.509
            ],
            [
              -6.7052039,
              55.5023405
            ],
            [
              -6.5787357,
              55.4435849
            ],
            [
              -6.7442693,
              55.4149759
            ],
            [
              -6.7194258,
              55.2801706
            ],
            [
              -6.8217241,
              55.2164676
            ],
            [
              -6.827951,
              55.214798
            ],
            [
              -6.9419925,
              55.2046076
            ],
            [
              -6.9448559,
              55.2040865
            ],
            [
              -6.9782285,
              55.1954879
            ],
            [
              -6.9788233,
              55.1951003
            ],
            [
              -6.9881383,
              55.1806395
            ],
            [
              -6.9891594,
              55.1798349
            ],
            [
              -7,
              55.174557076245826
            ],
            [
              -7,
              55
            ]
          ]
        ]
      }
    },
    {
      "type": "Feature",
      "properties": {
        "osm_id": -62273,
        "boundary": "administrative",
        "admin_level": 2,
        "parents": null,
        "name": "Ireland",
        "local_name": "Ã‰ire / Ireland",
        "name_en": "Ireland",
        "all_tags": {
          "flag": "http://upload.wikimedia.org/wikipedia/commons/4/45/Flag_of_Ireland.svg",
          "name": "Ã‰ire / Ireland",
          "name:ab": "Ğ˜Ñ€Ğ»Ğ°Ğ½Ğ´Ğ¸Ğ°",
          "name:af": "Ierland",
          "name:ak": "Aereland",
          "name:am": "áŠ á‹¨áˆ­áˆ‹áŠ•á‹µ",
          "name:an": "Irlanda",
          "name:ar": "Ø£ÙŠØ±Ù„Ù†Ø¯Ø§",
          "name:av": "Ğ˜Ñ€Ğ»Ğ°Ğ½Ğ´Ğ¸Ñ",
          "name:ay": "Irlandiya",
          "name:az": "Ä°rlandiya",
          "name:ba": "Ğ˜Ñ€Ğ»Ğ°Ğ½Ğ´Ğ¸Ñ",
          "name:be": "Ğ†Ñ€Ğ»Ğ°Ğ½Ğ´Ñ‹Ñ",
          "name:bg": "Ğ˜Ñ€Ğ»Ğ°Ğ½Ğ´Ğ¸Ñ",
          "name:bh": "à¤†à¤¯à¤°à¤²à¥ˆà¤‚à¤¡ à¤°à¤¿à¤ªà¤¬à¥à¤²à¤¿à¤•",
          "name:bi": "Ireland",
          "name:bm": "Irilandi",
          "name:bn": "à¦†à¦¯à¦¼à¦¾à¦°à¦²à§à¦¯à¦¾à¦¨à§à¦¡",
          "name:bo": "à½¨à¼‹à½¡à½¢à¼‹à½£à½“à½Œà¼",
          "name:br": "Iwerzhon",
          "name:bs": "Irska",
          "name:ca": "Irlanda",
          "name:ce": "Ğ˜Ñ€Ğ»Ğ°Ğ½Ğ´Ğ¸",
          "name:ch": "Irlanda",
          "name:co": "Irlanda",
          "name:cs": "Irsko",
          "name:cu": "Ğ„Ğ¸Ñ€ÑŒ",
          "name:cv": "Ğ˜Ñ€Ğ»Ğ°Ğ½Ğ´Ğ¸ Ğ ĞµÑĞ¿ÑƒĞ±Ğ»Ğ¸ĞºĞ¸",
          "name:cy": "Iwerddon",
          "name:da": "Irland",
          "name:de": "Irland",
          "name:dv": "Ş‡Ş¦Ş”Ş¦ŞŞ­Ş‚Ş°Ş‘ŞªŞŞ¬ Ş–ŞªŞ‰Ş°Ş€Ş«ŞƒŞ¨Ş‡Ş°Ş”Ş§",
          "name:dz": "à½¨à½±à¼‹à½¡à¼‹à½£à½ºà½“à½Œ",
          "name:ee": "Ireland nutome",
          "name:el": "Î™ÏÎ»Î±Î½Î´Î¯Î±",
          "name:en": "Ireland",
          "name:eo": "Irlando",
          "name:es": "Irlanda",
          "name:et": "Iirimaa",
          "name:eu": "Irlanda",
          "name:fa": "Ø§ÛŒØ±Ù„Ù†Ø¯",
          "name:ff": "Irlannda",
          "name:fi": "Irlanti",
          "name:fo": "Ãrland",
          "name:fr": "Irlande",
          "name:fy": "IerlÃ¢n",
          "name:ga": "Ã‰ire",
          "name:gd": "Ãˆirinn",
          "name:gl": "Irlanda",
          "name:gn": "Ilandia",
          "name:gu": "àª†àª¯àª°à«àª²à«‡àª‚àª¡",
          "name:gv": "Nerin",
          "name:ha": "Ayalan",
          "name:he": "××™×¨×œ× ×“",
          "name:hi": "à¤†à¤¯à¤°à¤²à¥ˆà¤‚à¤¡",
          "name:hr": "Irska",
          "name:ht": "Ilann",
          "name:hu": "ÃrorszÃ¡g",
          "name:hy": "Ô»Õ¼Õ¬Õ¡Õ¶Õ¤Õ«Õ¡",
          "name:ia": "Irlanda",
          "name:id": "Irlandia",
          "name:ie": "Irland",
          "name:ig": "Ireland",
          "name:io": "Irlando",
          "name:is": "Ãrland",
          "name:it": "Irlanda",
          "name:ja": "ã‚¢ã‚¤ãƒ«ãƒ©ãƒ³ãƒ‰",
          "name:jv": "Republik Irlandia",
          "name:ka": "áƒ˜áƒ áƒšáƒáƒœáƒ“áƒ˜áƒ",
          "name:ki": "Ayalandi",
          "name:kk": "Ğ˜Ñ€Ğ»Ğ°Ğ½Ğ´Ğ¸Ñ",
          "name:kl": "Irlandi",
          "name:km": "á¢áŸ€ášá¡á„áŸ‹",
          "name:kn": "à²à²°à³à²²à³†à²‚à²¡à³",
          "name:ko": "ì•„ì¼ëœë“œ",
          "name:ks": "Ø§ÙÛŒÙØ±Ù„ÛŒÙ†Ù›Ú‘",
          "name:ku": "Ãrland",
          "name:kv": "Ğ˜Ñ€Ğ»Ğ°Ğ½Ğ´Ğ¸Ñ",
          "name:kw": "Repoblek Iwerdhon",
          "name:ky": "Ğ˜Ñ€Ğ»Ğ°Ğ½Ğ´Ğ¸Ñ",
          "name:la": "Hibernia",
          "name:lb": "Irland",
          "name:lg": "Ayalandi",
          "name:li": "Ierland",
          "name:ln": "IrelandÉ›",
          "name:lo": "à»„àº­à»àº¥àº™",
          "name:lt": "Airija",
          "name:lv": "Äªrija",
          "name:mg": "Irlandy",
          "name:mi": "Airangi",
          "name:mk": "Ğ˜Ñ€ÑĞºĞ°",
          "name:ml": "à´…à´¯àµ¼à´²à´¾àµ»à´¡àµ",
          "name:mn": "Ğ˜Ñ€Ğ»Ğ°Ğ½Ğ´",
          "name:mr": "à¤†à¤¯à¤°à¥à¤²à¤‚à¤¡",
          "name:ms": "Ireland",
          "name:mt": "Irlanda",
          "name:my": "á€¡á€­á€¯á€„á€ºá€šá€¬á€œá€”á€º",
          "name:na": "Ripubrikit Airerand",
          "name:ne": "à¤†à¤‡à¤°à¤²à¥à¤¯à¤¾à¤£à¥à¤¡",
          "name:nl": "Ierland",
          "name:nn": "Irland",
          "name:no": "Irland",
          "name:nv": "BitsiighaÊ¼ ÅichÃ­Ã­Ê¼Ã­ BikÃ©yah",
          "name:oc": "Republica d'Irlanda",
          "name:om": "Aayerlaandi",
          "name:or": "à¬†à­Ÿà¬°à¬²à­à­Ÿà¬¾à¬£à­à¬¡",
          "name:os": "Ğ˜Ñ€Ğ»Ğ°Ğ½Ğ´Ğ¸",
          "name:pa": "à¨†à¨‡à¨°à¨²à©ˆà¨‚à¨¡ à¨—à¨£à¨°à¨¾à¨œ",
          "name:pl": "Irlandia",
          "name:ps": "Ø¯ Ø¢ÙŠØ±Ù„ÛÙ†Ú‰ Ø¬Ù…Ù‡ÙˆØ±ÙŠØª",
          "name:pt": "Irlanda",
          "name:qu": "Ilanda",
          "name:rm": "Irlanda",
          "name:rn": "Irilandi",
          "name:ro": "Irlanda",
          "name:ru": "Ğ˜Ñ€Ğ»Ğ°Ğ½Ğ´Ğ¸Ñ",
          "name:rw": "Irilande",
          "name:sa": "à¤à¤°à¥à¤²à¥‡à¤£à¥à¤¡à¥ à¤—à¤£à¤°à¤¾à¤œà¥à¤¯à¤®à¥",
          "name:sc": "Irlanda",
          "name:sd": "Ø¬Ù…Ú¾ÙˆØ±ÙŠØ§ Ø¢Ø¦Ø±Ù„ÙŠÙ†ÚŠ",
          "name:se": "IrlÃ¡nda",
          "name:sg": "IrlÃ¢nde",
          "name:sh": "Irska",
          "name:si": "à¶…à¶ºà¶»à·Šà¶½à¶±à·Šà¶­à¶º",
          "name:sk": "Ãrsko",
          "name:sl": "Irska",
          "name:sm": "Ripapelika o Aialani",
          "name:sn": "Ireland",
          "name:so": "Ayrlaand",
          "name:sq": "IrlandÃ«",
          "name:sr": "Ğ˜Ñ€ÑĞºĞ°",
          "name:ss": "IYalendi",
          "name:sv": "Irland",
          "name:sw": "Ayalandi",
          "name:ta": "à®…à®¯à®°à¯à®²à®¾à®¨à¯à®¤à¯",
          "name:te": "à°à°°à± à°²à°¾à°‚à°¡à±",
          "name:tg": "Ò¶ÑƒĞ¼Ò³ÑƒÑ€Ğ¸Ğ¸ Ğ˜Ñ€Ğ»Ğ°Ğ½Ğ´Ğ¸Ñ",
          "name:th": "à¸ªà¸²à¸˜à¸²à¸£à¸“à¸£à¸±à¸à¹„à¸­à¸£à¹Œà¹à¸¥à¸™à¸”à¹Œ",
          "name:ti": "áŠ á‹¨áˆ­áˆ‹áŠ•á‹µ",
          "name:tk": "IrlandiÃ½a",
          "name:tl": "Irlanda",
          "name:to": "Ê»Aealani",
          "name:tr": "Ä°rlanda",
          "name:ts": "Ireland",
          "name:tt": "Ğ˜Ñ€Ğ»Ğ°Ğ½Ğ´Ğ¸Ñ",
          "name:uk": "Ğ†Ñ€Ğ»Ğ°Ğ½Ğ´Ñ–Ñ",
          "name:ur": "Ø¢Ø¦Ø±Ù„ÛŒÙ†Úˆ",
          "name:uz": "Irlandiya",
          "name:ve": "Ireland",
          "name:vi": "Ai-len",
          "name:vo": "LireyÃ¤n",
          "name:wa": "Irlande",
          "name:wo": "Irlaand",
          "name:yi": "××™×¨×œ×× ×“",
          "name:yo": "OrÃ­láº¹ÌÃ¨de Ailandi",
          "name:za": "Aiwjlanz Gunghozgoz",
          "name:zh": "çˆ±å°”å…° / æ„›çˆ¾è˜­",
          "name:zu": "i-Ireland",
          "alt_name": "Republic of Ireland",
          "boundary": "administrative",
          "currency": "EUR",
          "int_name": "Ireland",
          "name:ace": "Irlandia",
          "name:ady": "Ğ˜Ñ€Ğ»Ğ°Ğ½Ğ´Ğ¸Ğµ",
          "name:als": "Irland",
          "name:ang": "Äªrland CynewÄ«se",
          "name:arc": "Ü©Ü˜Ü›Ü¢ÜÜ˜Ü¬Ü Ü•ÜÜÜªÜ Ü¢Ü•",
          "name:ary": "Ø¥Ø±Ù„Ø§Ù†Ø¯Ø§",
          "name:arz": "Ø¬Ù…Ù‡ÙˆØ±ÙŠØ© Ø§ÙŠØ±Ù„Ø§Ù†Ø¯Ø§",
          "name:ast": "RepÃºblica d'Irlanda",
          "name:avk": "Eirea",
          "name:awa": "à¤†à¤¯à¤°à¤²à¥ˆà¤‚à¤¡ à¤—à¤£à¤°à¤¾à¤œà¥à¤¯",
          "name:azb": "Ø§ÛŒØ±Ù„Ù†Ø¯",
          "name:ban": "Irlandia",
          "name:bar": "Irland",
          "name:bcl": "Irlandya",
          "name:bpy": "à¦†à¦¯à¦¼à¦¾à¦°à¦²à§à¦¯à¦¾à¦¨à§à¦¡",
          "name:bug": "Irlandia",
          "name:bxr": "Ğ˜Ñ€Ğ»Ğ°Ğ½Ğ´",
          "name:cdo": "Ãi-Ä«-lÃ ng",
          "name:ceb": "Irlanda",
          "name:chr": "á á¢á´á‚á—",
          "name:chy": "Ireland",
          "name:ckb": "Ø¦ÛŒØ±Ù„Û•Ù†Ø¯",
          "name:crh": "Ä°rlandiya",
          "name:csb": "IrlandÃ«jÃ´",
          "name:diq": "CumhuriyetÃª Ä°rlanda",
          "name:dsb": "Irska",
          "name:dty": "à¤—à¤£à¤¤à¤¨à¥à¤¤à¥à¤° à¤†à¤¯à¤°à¤²à¥à¤¯à¤¾à¤¨à¥à¤¡",
          "name:eml": "IrlÃ nda",
          "name:ext": "Irlanda",
          "name:frp": "Irlande",
          "name:frr": "IrlÃ¶nj",
          "name:fur": "Irlande",
          "name:gag": "Ä°rlandiya",
          "name:gan": "æ„›çˆ¾è˜­",
          "name:gcr": "Irlann",
          "name:gom": "à¤†à¤¯à¤°à¥à¤²à¤‚à¤¡",
          "name:got": "ğŒ´ğŒ¹ğ‚ğŒ°ğŒ»ğŒ°ğŒ½ğŒ³",
          "name:hak": "Ireland",
          "name:haw": "â€˜Ilelani",
          "name:hif": "Republic of Ireland",
          "name:hsb": "Irska",
          "name:hyw": "Ô»Ö€Õ¬Õ¡Õ¶Õ¿Õ¡",
          "name:ilo": "Republika iti IrlÃ¡nda",
          "name:jam": "Ripoblik a Airilan",
          "name:jbo": "airland",
          "name:kaa": "Ä°rlandiya",
          "name:kab": "Lirlund",
          "name:kbd": "Ğ˜Ñ€Ğ»ÑĞ½Ğ´",
          "name:koi": "Ğ˜Ñ€Ğ¼Ñƒ",
          "name:krc": "Ğ˜Ñ€Ğ»Ğ°Ğ½Ğ´Ğ¸Ñ",
          "name:ksh": "Irrland",
          "name:lad": "Irlanda",
          "name:lez": "Ğ˜Ñ€Ğ»Ğ°Ğ½Ğ´Ğ¸Ñ",
          "name:lij": "Ã‰ire",
          "name:lld": "Irlanda",
          "name:lmo": "Irlanda",
          "name:ltg": "Eireja",
          "name:lzh": "æ„›çˆ¾è˜­å…±å’Œåœ‹",
          "name:mad": "Republik Irlandia",
          "name:mdf": "Ğ˜Ñ€Ğ»Ğ°Ğ½Ğ´Ğ¸Ñ Ğ¼Ğ°ÑÑ‚Ğ¾Ñ€",
          "name:mhr": "Ğ˜Ñ€Ğ»Ğ°Ğ½Ğ´Ğ¸Ğ¹",
          "name:mrj": "Ğ˜Ñ€Ğ»Ğ°Ğ½Ğ´Ğ¸",
          "name:mwl": "Irlanda",
          "name:myv": "Ğ˜Ñ€Ğ»Ğ°Ğ½Ğ´Ğ¸Ñ ĞœĞ°ÑÑ‚Ğ¾Ñ€",
          "name:mzn": "Ø§ÛŒØ±Ù„Ù†Ø¯ Ø¬Ù…Ù‡ÙˆØ±ÛŒ",
          "name:nah": "IrtlÄlpan",
          "name:nan": "Ã‰ire",
          "name:nds": "Irland",
          "name:new": "à¤—à¤£à¤¤à¤¨à¥à¤¤à¥à¤° à¤†à¤¯à¤°à¤²à¥à¤¯à¤¾à¤¨à¥à¤¦",
          "name:nov": "Republike de Irlande",
          "name:nrm": "RÃ©publyique d'Irlande",
          "name:nso": "Ireland",
          "name:pag": "Irlanda",
          "name:pam": "Irlanda",
          "name:pap": "Irlandia",
          "name:pcd": "Irlinde",
          "name:pdc": "Irland",
          "name:pih": "Repablik o' Airiland",
          "name:pms": "Irlanda",
          "name:pnb": "Ù„ÙˆÚ©Ø±Ø§Ø¬ Ø¢Ø¦Ø±Ù„ÛŒÙ†Úˆ",
          "name:pnt": "Î™ÏÎ»Î±Î½Î´Î¯Î±",
          "name:rmy": "Republika Irland",
          "name:rue": "Ğ†Ñ€ÑŒÑĞºĞ¾",
          "name:sah": "Ğ˜Ñ€Ğ»Ğ°Ğ½Ğ´Ğ¸Ñ Ğ ĞµÑĞ¿ÑƒĞ±Ğ»Ğ¸ĞºĞ°Ñ‚Ğ°",
          "name:sat": "á±Ÿá±­á±Ÿá±¨á±á±®á±±á±° á±¨á±®á±±á±Ÿá±œ á±Ÿá±¹á±¯á±±á±Ÿá±¹á±›",
          "name:scn": "Irlanda",
          "name:sco": "Republic o Ireland",
          "name:shn": "á€™á€­á€°á€„á€ºá€¸á€¢á¢á‚†á‚‡á€šá‚ƒá‚‡á€œá‚…á¼á€ºá‚‡",
          "name:smn": "Irland",
          "name:sms": "Irlantt",
          "name:srn": "Irikondre",
          "name:stq": "Irlound",
          "name:szl": "IrlandyjÅ",
          "name:tet": "Irlanda",
          "name:tok": "ma Alan",
          "name:tpi": "Ripablik bilong Aialan",
          "name:tzl": "Oira",
          "name:udm": "Ğ˜Ñ€Ğ»Ğ°Ğ½Ğ´Ğ¸Ñ",
          "name:vec": "Irlanda",
          "name:vep": "Irlandii",
          "name:vls": "Republiek Ierland",
          "name:vro": "Iirimaa",
          "name:war": "Republika han Irlanda",
          "name:wuu": "çˆ±å°”å…°",
          "name:xal": "Ğ“Ó™Ó™Ğ»Ğ³Ò¯Ğ´Ğ¸Ğ½ ĞÑ€Ğ½",
          "name:xmf": "áƒ˜áƒ áƒšáƒáƒœáƒ“áƒ˜áƒ",
          "name:yue": "æ„›çˆ¾è˜­å…±å’Œåœ‹",
          "name:zea": "Ierland",
          "timezone": "Europe/Dublin",
          "way_area": "14.613",
          "wikidata": "Q27",
          "ISO3166-1": "IE",
          "wikipedia": "en:Republic of Ireland",
          "population": "5123536",
          "ref:nuts:1": "IE0",
          "admin_level": "2",
          "alt_name:vi": "Ireland;Ãi NhÄ© Lan",
          "description": "Republic of Ireland",
          "geonames:id": "2963597",
          "is_in:ocean": "Atlantic",
          "name:nds-nl": "Ierlaand",
          "capital_city": "Dublin",
          "driving_side": "left",
          "name:bat-smg": "AirÄ—jÄ—",
          "name:roa-rup": "Irlanda",
          "name:zh-Hans": "çˆ±å°”å…°",
          "name:zh-Hant": "æ„›çˆ¾è˜­",
          "name:roa-tara": "Irlanne",
          "official_name": "Ã‰ire",
          "name:be-tarask": "Ğ†Ñ€Ğ»ÑĞ½Ğ´Ñ‹Ñ",
          "name:zh_pinyin": "Ã€iÄ›rlÃ¡n",
          "name:zh-min-nan": "Ã€i-nÃ­-lÃ¢n",
          "population:date": "2022",
          "ISO3166-1:alpha2": "IE",
          "ISO3166-1:alpha3": "IRL",
          "default_language": "en",
          "official_name:cs": "IrskÃ¡ republika",
          "official_name:en": "Ireland",
          "official_name:eo": "Respubliko de Irlando",
          "official_name:fi": "Irlannin tasavalta",
          "official_name:ga": "Ã‰ire",
          "official_name:io": "Republiko di Irlando",
          "official_name:la": "Hibernia",
          "official_name:pt": "RepÃºblica da Irlanda",
          "ISO3166-1:numeric": "372",
          "country_code_fips": "EI"
        }
      },
      "geometry": {
        "type": "Polygon",
        "coordinates": [
          [
            [
              -7,
              55.174557076245826
            ],
            [
              -6.9891594,
              55.1798349
            ],
            [
              -6.9881383,
              55.1806395
            ],
            [
              -6.9788233,
              55.1951003
            ],
            [
              -6.9782285,
              55.1954879
            ],
            [
              -6.9448559,
              55.2040865
            ],
            [
              -6.9419925,
              55.2046076
            ],
            [
              -6.827951,
              55.214798
            ],
            [
              -6.8217241,
              55.2164676
            ],
            [
              -6.7194258,
              55.2801706
            ],
            [
              -6.7442693,
              55.4149759
            ],
            [
              -6.7559281,
              55.418
            ],
            [
              -6.7665937,
              55.422
            ],
            [
              -6.7751902,
              55.425
            ],
            [
              -6.7875986,
              55.429
            ],
            [
              -6.7977552,
              55.432
            ],
            [
              -6.8088086,
              55.435
            ],
            [
              -6.820981,
              55.438
            ],
            [
              -6.8346124,
              55.441
            ],
            [
              -6.8447759,
              55.443
            ],
            [
              -6.8670602,
              55.449
            ],
            [
              -6.8690224,
              55.45
            ],
            [
              -6.8704045,
              55.458
            ],
            [
              -6.8723638,
              55.466
            ],
            [
              -6.8749104,
              55.474
            ],
            [
              -6.8772137,
              55.48
            ],
            [
              -6.8808226,
              55.488
            ],
            [
              -6.8850649,
              55.496
            ],
            [
              -6.8899654,
              55.504
            ],
            [
              -6.8940905,
              55.51
            ],
            [
              -6.9002191,
              55.518
            ],
            [
              -6.9053099,
              55.524
            ],
            [
              -6.9118158,
              55.531
            ],
            [
              -6.91897,
              55.538
            ],
            [
              -6.92682,
              55.545
            ],
            [
              -6.934146,
              55.551
            ],
            [
              -6.9434514,
              55.558
            ],
            [
              -6.9521392,
              55.564
            ],
            [
              -6.9599307,
              55.569
            ],
            [
              -6.9665582,
              55.573
            ],
            [
              -6.9753822,
              55.578
            ],
            [
              -6.9829148,
              55.582
            ],
            [
              -6.990913,
              55.586
            ],
            [
              -6.9994275,
              55.59
            ],
            [
              -7,
              55.59025184484598
            ],
            [
              -7,
              55.174557076245826
            ]
          ]
        ]
      }
    }
  ]
}