{
  "type": "FeatureCollection",
  "features": [
    {
      "type": "Feature",
      "properties": {
        "osm_id": -307763,
        "boundary": "administrative",
        "admin_level": 2,
        "parents": null,
        "name": "United Arab Emirates",
        "local_name": "الإمارات العربية المتحدة",
        "name_en": "United Arab Emirates",
        "all_tags": {
          "ref": "AE",
          "flag": "http://upload.wikimedia.org/wikipedia/commons/c/cb/Flag_of_the_United_Arab_Emirates.svg",
          "name": "الإمارات العربية المتحدة",
          "name:af": "Verenigde Arabiese Emirate",
          "name:am": "የተባበሩት የዓረብ ግዛቶች",
          "name:an": "Emiratos Arabes Unitos",
          "name:ar": "الإمارات العربية المتحدة",
          "name:as": "সংযুক্ত আৰৱ আমিৰাত",
          "name:av": "ГIарабазул Цолъарал Имаратал",
          "name:az": "Birləşmiş Ərəb Əmirlikləri",
          "name:ba": "Берләшкән Ғәрәп Әмирлектәре",
          "name:be": "Аб'яднаныя Арабскія Эміраты",
          "name:bg": "Обединени арабски емирства",
          "name:bh": "यूनाइटेड अरब अमीरात",
          "name:bi": "Yunaeted Arab Emirets",
          "name:bn": "সংযুক্ত আরব আমিরাত",
          "name:bo": "ཡི་ནེ་ཁྲེ་ཀྲི་ཨ་རབ་ཨེ་མེ་རེ་ཁྲི།",
          "name:br": "Emirelezhioù Arab Unanet",
          "name:bs": "Ujedinjeni Arapski Emirati",
          "name:ca": "Emirats Àrabs Units",
          "name:ce": "Ӏарбийн Цхьаьнакхетта Эмираташ",
          "name:cs": "Spojené arabské emiráty",
          "name:cy": "Yr Emiradau Arabaidd Unedig",
          "name:da": "Forenede Arabiske Emirater",
          "name:de": "Vereinigte Arabische Emirate",
          "name:dv": "އެކުވެރި ޢަރަބި އިމާރާތު",
          "name:dz": "ཡུ་ནའི་ཊེཊ་ཨ་རབ་ཨེ་མི་རེཊསི་",
          "name:el": "Ηνωμένα Αραβικά Εμιράτα",
          "name:en": "United Arab Emirates",
          "name:eo": "Unuiĝintaj Arabaj Emirlandoj",
          "name:es": "Emiratos Árabes Unidos",
          "name:et": "Araabia Ühendemiraadid",
          "name:eu": "Arabiar Emirerri Batuak",
          "name:fa": "امارات متحده عربی",
          "name:ff": "Imaaraatuuji Aarabe Dentuɗi",
          "name:fi": "Yhdistyneet arabiemiirikunnat",
          "name:fo": "Sameindu Emirríkini",
          "name:fr": "Émirats arabes unis",
          "name:fy": "Feriene Arabyske Emiraten",
          "name:ga": "Aontas na nÉimíríochtaí Arabacha",
          "name:gd": "Na h-Iomaratan Arabach Aonaichte",
          "name:gl": "Emiratos Árabes Unidos",
          "name:gn": "Aravia Emiryvy Joaju",
          "name:gu": "સંયુક્ત આરબ અમીરાત",
          "name:gv": "Ny h-Emmiraidyn Arabagh Unnaneysit",
          "name:ha": "Haɗaɗɗiyar Daular Larabawa",
          "name:he": "איחוד האמירויות",
          "name:hi": "संयुक्त अरब अमीरात",
          "name:hr": "Ujedinjeni Arapski Emirati",
          "name:ht": "Emira Arab Ini",
          "name:hu": "Egyesült Arab Emírségek",
          "name:hy": "Արաբական Միացյալ Էմիրություններ",
          "name:ia": "Emiratos Arabe Unite",
          "name:id": "Uni Emirat Arab",
          "name:ie": "Unit Arabic Emiratus",
          "name:io": "Unionita Araba Emirati",
          "name:is": "Sameinuðu arabísku furstadæmin",
          "name:it": "Emirati Arabi Uniti",
          "name:ja": "アラブ首長国連邦",
          "name:jv": "Uni Emirat Arab",
          "name:ka": "არაბთა გაერთიანებული საამიროები",
          "name:kg": "United Arab Emirates",
          "name:ki": "United Arab Emirates",
          "name:kk": "Біріккен Араб Әмірліктері",
          "name:kl": "United Arab Emirates",
          "name:km": "អេមីរ៉ាតអារ៉ាប់រួម",
          "name:kn": "ಸಂಯುಕ್ತ ಅರಬ ಅಮೀರಾತ",
          "name:ko": "아랍에미리트",
          "name:ku": "Mîrnişînên Erebî yên Yekbûyî",
          "name:kv": "Ӧтувтчӧм Араб Эмиратъяс",
          "name:kw": "Pennternasedh Unys Arabek",
          "name:ky": "Бириккен Араб Эмирликтери",
          "name:la": "Emiratus Arabici Coniuncti",
          "name:lb": "Vereenegt Arabesch Emiraten",
          "name:li": "Vereinegde Arabische Emiraote",
          "name:lt": "Jungtiniai Arabų Emyratai",
          "name:lv": "Apvienotie Arābu Emirāti",
          "name:mg": "Emirata Arabo Mitambatra",
          "name:mi": "Te Kotahitanga o ngā Whenua Ārapi",
          "name:mk": "Обединети Арапски Емирати",
          "name:ml": "ഐക്യ അറബ് എമിറേറ്റുകൾ",
          "name:mn": "Арабын Нэгдсэн Эмирт Улс",
          "name:mr": "संयुक्त अरब अमिराती",
          "name:ms": "Emiriah Arab Bersatu",
          "name:mt": "Emirati Għarab Magħquda",
          "name:my": "အာရပ်စော်ဘွားများပြည်ထောင်စုနိုင်ငံ",
          "name:na": "Emireitit Arabiya",
          "name:ne": "संयुक्त अरब इमिरेट्स",
          "name:nl": "Verenigde Arabische Emiraten",
          "name:nn": "Dei sameinte arabiske emirata",
          "name:no": "De forente arabiske emirater",
          "name:nv": "Ásáí Bikéyah Yázhí Ałhidadiidzooígíí",
          "name:ny": "United Arab Emirates",
          "name:oc": "Emirats Arabis Units",
          "name:om": "Yunaayitid Arab Imireetis",
          "name:or": "ୟୁନାଇଟେଡ଼ ଆରବ ଏମିରଟ",
          "name:os": "Араббы Иугонд Эмираттæ",
          "name:pa": "ਸੰਯੁਕਤ ਅਰਬ ਇਮਰਾਤ",
          "name:pl": "Emiraty Arabskie",
          "name:ps": "عربي متحده امارات",
          "name:pt": "Emirados Árabes Unidos",
          "name:qu": "Hukllachasqa Arab Imiratukuna",
          "name:ro": "Emiratele Arabe Unite",
          "name:ru": "Объединённые Арабские Эмираты",
          "name:rw": "Nyarabu Zunze Ubumwe",
          "name:sc": "Emirados Àrabos Unidos",
          "name:sd": "گڏيل عرب امارات",
          "name:se": "Ovttastuvvan arábaemiráhtat",
          "name:sh": "Ujedinjeni Arapski Emirati",
          "name:si": "එක්සත් අරාබි එමීර් රාජ්‍යය",
          "name:sk": "Spojené arabské emiráty",
          "name:sl": "Združeni arabski emirati",
          "name:sm": "Malo Alapi Lotogatasi",
          "name:so": "Imaaraatka Carabta",
          "name:sq": "Emiratet e Bashkuara Arabe",
          "name:sr": "Уједињени Арапски Емирати",
          "name:ss": "Bunye bema-Arabhu",
          "name:su": "Uni Émirat Arab",
          "name:sv": "Förenade Arabemiraten",
          "name:sw": "Falme za Kiarabu",
          "name:ta": "ஐக்கிய அரபு அமீரகம்",
          "name:te": "యునైటెడ్ అరబ్ ఎమిరేట్స్",
          "name:tg": "Аморати Муттаҳидаи Араб",
          "name:th": "สหรัฐอาหรับเอมิเรตส์",
          "name:tk": "Birleşen Arap Emirlikleri",
          "name:tl": "United Arab Emirates",
          "name:tr": "Birleşik Arap Emirlikleri",
          "name:tt": "Берләшкән Гарәп Әмирлекләре",
          "name:ug": "ئەرەب بىرلەشمە خەلىپىلىكى",
          "name:uk": "Об'єднані Арабські Емірати",
          "name:ur": "متحدہ عرب امارات",
          "name:uz": "Birlashgan Arab Amirliklari",
          "name:vi": "Các Tiểu vương quốc Ả Rập Thống nhất",
          "name:vo": "Lemiräns Larabik Pebalöl",
          "name:wo": "Imaaraat yu Araab yu Bennoo yi",
          "name:yi": "פאראייניגטע אראבישע עמיראטן",
          "name:yo": "Àwọn Ẹ́mírétì Árábù Aṣọ̀kan",
          "name:za": "Bouxdaeuzgoz Ahlazbwz Lienzhab",
          "name:zh": "阿拉伯联合酋长国 / 阿拉伯聯合大公國",
          "boundary": "administrative",
          "name:ace": "Uni Emirat Arab",
          "name:ady": "Араб Эмират Зэхэтхэр",
          "name:als": "Vereinigte Arabische Emirate",
          "name:ang": "Geānedan Arabiscan Bregorīce",
          "name:arc": "ܐܡܝܪܘܬܐ ܥܪܒܝܬܐ ܡܚܝܕܬܐ",
          "name:arz": "الامارات",
          "name:ast": "Emiratos Árabes Xuníos",
          "name:awa": "संयुक्त अरब इमिरेट्स",
          "name:azb": "ایمارات",
          "name:ban": "Uni Émirat Arab",
          "name:bar": "Vaeinigte Arabische Emirate",
          "name:bjn": "Syarikat Amiriah Arab",
          "name:bpy": "তিলপা আরব আমিরাত",
          "name:bug": "Emiriyah Arab Bersatu",
          "name:bxr": "Арабын Нэгэдэһэн Эмир Улас",
          "name:ceb": "Hiniusang Emiratong Arabo",
          "name:ckb": "میرنشینە یەکگرتووە عەرەبییەکان",
          "name:crh": "Birleşken Arap Emirlikleri",
          "name:diq": "Yewiya Emiranê Erebi",
          "name:dsb": "Zjadnośone Arabske Emiraty",
          "name:ext": "Emiratus Árabis Unius",
          "name:frp": "Èmirats arabos unis",
          "name:frr": "Ferianagt Araabisk Emiraaten",
          "name:gag": "Birleşik Arab Emirlikleri",
          "name:gom": "संयुक्त अरब अमीरात",
          "name:hak": "Â-lâ-pak Lièn-ha̍p Thai-kûng-koet",
          "name:hif": "United Arab Emirates",
          "name:hsb": "Zjednoćene arabske emiraty",
          "name:ilo": "Dagiti Nagkaykaysa nga Emirato nga Arabo",
          "name:jam": "Yunaitid Arab Emiret",
          "name:jbo": "gunma xrabo nolseltru",
          "name:kaa": "Birlesken Arab A'mirlikleri",
          "name:kab": "Limarat Taɛrabin Yeddukklen",
          "name:kbd": "Хьарып Ӏэмирэт Зэгуэт",
          "name:kmr": "ئەمیرتیێن یەکبوویی یێنئە رەبی",
          "name:lbe": "ЦачIунхьу Аьрабнал Эмиратру",
          "name:lez": "Садхьанвай Араб Эмиратар",
          "name:lfn": "Amirias Arabi Unida",
          "name:lij": "Emirati Àrabi Unïi",
          "name:lmo": "Emiraa Arab Ünii",
          "name:lrc": "اْمارٱتؽا یٱکاگیر کرداٛ عرۉیی",
          "name:mad": "Uni Emirat Arab",
          "name:mai": "संयुक्त अरब इमिरेट्स",
          "name:mzn": "متحده عربی امارات",
          "name:nah": "Tlacetilīlli Arabiaemiryōtl",
          "name:nan": "A-la-pek Liân-ha̍p Thâu-lâng-kok",
          "name:nds": "Vereenigte Araabsche Emiraten",
          "name:nov": "Unionati Arabi Emirates",
          "name:pag": "Emiratos diad Unido ya Arabo",
          "name:pam": "Emiratos Arabes Unidos",
          "name:pms": "Emirà Àrabo Unì",
          "name:pnb": "متحدہ عرب امارات",
          "name:rue": "Споєны Арабскы Еміраты",
          "name:sah": "Холбоhуктаах Араб Эмираттара",
          "name:sat": "ᱥᱮᱞᱮᱫ ᱟᱨᱚᱵᱽ ᱟᱢᱤᱨᱟᱛ",
          "name:scn": "Emirati Àrabbi Uniti",
          "name:sco": "Unitit Arab Emirates",
          "name:shn": "မိူင်းႁူမ်ႈတုမ် ၸဝ်ႈၾႃႉ ဢႃႇရၢပ်ႈ",
          "name:smn": "Ovtâstum arabiemiirikodeh",
          "name:sms": "Õhttõõvvâm araabemiirkååʹdd",
          "name:stq": "Fereende Arabiske Emiroate",
          "name:szl": "Zjednoczōne Arabske Ymiraty",
          "name:tet": "Emiratu Arabi Naklibur Sira",
          "name:tpi": "United Arab Emirates",
          "name:trv": "United Arab Emirates",
          "name:udm": "Огазеяськем Араб Эмиратъёс",
          "name:vec": "Emirai Àrabi Unii",
          "name:vep": "Araban Ühtenzoittud Valdkundad",
          "name:vro": "Araabia Ütisemiraadiq",
          "name:war": "Emiratos Arabes Unidos",
          "name:wuu": "阿拉伯联合酋长国",
          "name:xal": "Ниицәтә Араб Нутгуд",
          "name:yue": "阿拉伯聯合酋長國",
          "name:zea": "Vereênigde Araobische Emiraoten",
          "timezone": "Asia/Dubai",
          "way_area": "9.34506",
          "wikidata": "Q878",
          "ISO3166-1": "AE",
          "wikipedia": "ar:الإمارات العربية المتحدة",
          "short_name": "الإمارات",
          "state_code": "AE",
          "admin_level": "2",
          "alt_name:ar": "الإمارات العربيّة المتّحدة",
          "alt_name:la": "Emiratus Arabici Uniti",
          "alt_name:pa": "ਸੰਯੁਕਤ ਅਰਬ ਅਮੀਰਾਤ",
          "alt_name:pl": "Zjednoczone Emiraty Arabskie",
          "alt_name:vi": "Các quốc gia ngừng bắn;Oman ngừng bắn",
          "border_type": "nation",
          "name:bat-smg": "Jongtėnē Arabu Emīratā",
          "name:cbk-zam": "Emiratos Unidos del Arabo",
          "name:zh-Hans": "阿拉伯联合酋长国",
          "name:zh-Hant": "阿拉伯聯合大公國",
          "name:roa-tara": "Emirate Arabe Aunìte",
          "official_name": "دولة الإمارات العربية المتحدة",
          "short_name:ar": "الإمارات",
          "short_name:bg": "ОАЕ",
          "short_name:eo": "UAE",
          "short_name:pl": "ZEA",
          "short_name:ru": "ОАЭ",
          "name:be-tarask": "Аб’яднаныя Арабскія Эміраты",
          "ISO3166-1:alpha2": "AE",
          "ISO3166-1:alpha3": "ARE",
          "default_language": "ar",
          "official_name:ar": "دولة الإمارات العربية المتحدة",
          "official_name:cs": "Stát Spojené arabské emiráty",
          "official_name:pl": "Państwo Zjednoczonych Emiratów Arabskich",
          "ISO3166-1:numeric": "784"
        }
      },
      "geometry": {
        "type": "Polygon",
        "coordinates": [
          [
            [
              52,
              23.640215215923323
            ],
            [
              52.0041684,
              23.6351234
            ],
            [
              52.007939,
              23.6302995
            ],
            [
              52.1634312,
              23.4426169
            ],
            [
              52.3378928,
              23.2328071
            ],
            [
              52.53069182435787,
              23
            ],
            [
              53,
              23
            ],
            [
              53,
              24
            ],
            [
              52,
              24
            ],
            [
              52,
              23.640215215923323
            ]
          ]
        ]
      }
    },
    {
      "type": "Feature",
      "properties": {
        "osm_id": -307584,
        "boundary": "administrative",
        "admin_level": 2,
        "parents": null,
        "name": "Saudi Arabia",
        "local_name": "السعودية",
        "name_en": "Saudi Arabia",
        "all_tags": {
          "flag": "http://upload.wikimedia.org/wikipedia/commons/0/0d/Flag_of_Saudi_Arabia.svg",
          "name": "السعودية",
          "name:af": "Saoedi-Arabië",
          "name:am": "ሳዑዲ አረቢያ",
          "name:an": "Arabia Saudí",
          "name:ar": "السعودية",
          "name:av": "СагIудиязул ГIарабия",
          "name:az": "Səudiyyə Ərəbistanı",
          "name:ba": "Сәғүд Ғәрәбстаны",
          "name:be": "Саудаўская Аравія",
          "name:bg": "Саудитска Арабия",
          "name:bm": "Saudia Arabu ka Faamamara",
          "name:bn": "সৌদি আরব",
          "name:bo": "སའུ་དི་ཨ་ར་པི་ཡ།",
          "name:br": "Arabia Saoudat",
          "name:bs": "Saudijska Arabija",
          "name:ca": "Aràbia Saudita",
          "name:ce": "СаӀудийн Ӏаьрбийчоь",
          "name:cs": "Saúdská Arábie",
          "name:cv": "Сауд Аравийĕ",
          "name:cy": "Saudi Arabia",
          "name:da": "Saudi-Arabien",
          "name:de": "Saudi-Arabien",
          "name:dv": "ސައޫދީ އަރަބިއްޔާ",
          "name:dz": "སའུ་དི་ཨེ་ར་སྦི་ཡ་",
          "name:el": "Σαουδική Αραβία",
          "name:en": "Saudi Arabia",
          "name:eo": "Sauda Arabio",
          "name:es": "Arabia Saudita",
          "name:et": "Saudi Araabia",
          "name:eu": "Saudi Arabia",
          "name:fa": "عربستان سعودی",
          "name:fi": "Saudi-Arabia",
          "name:fo": "Saudi-Arabia",
          "name:fr": "Arabie saoudite",
          "name:fy": "Saûdy-Araabje",
          "name:ga": "An Araib Shádach",
          "name:gd": "Aràibia nan Sabhd",
          "name:gl": "Arabia Saudí",
          "name:gn": "Aravia Saudíta",
          "name:gu": "સાઉદી અરેબિયા",
          "name:gv": "Yn Araab Saudi",
          "name:he": "ערב הסעודית",
          "name:hi": "सउदी अरब",
          "name:hr": "Saudijska Arabija",
          "name:ht": "Arabi Sawoudit",
          "name:hu": "Szaúd-Arábia",
          "name:hy": "Սաուդյան Արաբիա",
          "name:ia": "Arabia Saudita",
          "name:id": "Arab Saudi",
          "name:ie": "Saudi Arabia",
          "name:io": "Saudia Arabia",
          "name:is": "Sádí-Arabía",
          "name:it": "Arabia Saudita",
          "name:ja": "サウジアラビア",
          "name:jv": "Arab Saudi",
          "name:ka": "საუდის არაბეთი",
          "name:kk": "Сауд Арабиясы",
          "name:kl": "Saudi Arabia",
          "name:km": "អារ៉ាប៊ីសាអូឌីត",
          "name:kn": "ಸೌದಿ ಅರೆಬಿಯ",
          "name:ko": "사우디아라비아",
          "name:ku": "Erebistana Siyûdî",
          "name:kv": "Саудса Аравия",
          "name:kw": "Arabi Saoudek",
          "name:ky": "Сауд Арабия Падышалыгы",
          "name:la": "Arabia Saudiana",
          "name:lb": "Saudi-Arabien",
          "name:li": "Saoedi-Arabië",
          "name:ln": "Saudi Arabia",
          "name:lt": "Saudo Arabija",
          "name:lv": "Saūda Arābija",
          "name:mk": "Саудиска Арабија",
          "name:ml": "സൗദി അറേബ്യ",
          "name:mn": "Саудын Араб",
          "name:mr": "सौदी अरेबिया",
          "name:ms": "Arab Saudi",
          "name:mt": "Arabja Sawdija",
          "name:my": "ဆော်ဒီအာရေဗျနိုင်ငံ",
          "name:na": "Taudiarabiya",
          "name:ne": "साउदी अरब",
          "name:nl": "Saoedi-Arabië",
          "name:nn": "Saudi-Arabia",
          "name:no": "Saudi-Arabia",
          "name:nv": "Ásáí Bikéyah Saʼoodí",
          "name:oc": "Arabia Saudita",
          "name:or": "ସାଉଦି ଆରବ",
          "name:os": "Сауды Арави",
          "name:pa": "ਸਉਦੀ ਅਰਬ",
          "name:pl": "Arabia Saudyjska",
          "name:ps": "سعودي عربستان",
          "name:pt": "Arábia Saudita",
          "name:qu": "Sawud Arabya",
          "name:rm": "Arabia Saudita",
          "name:ro": "Arabia Saudită",
          "name:ru": "Саудовская Аравия",
          "name:rw": "Arabiya Sawudite",
          "name:sa": "सऊदी अरब",
          "name:se": "Saudi-Arábia",
          "name:sh": "Saudijska Arabija",
          "name:si": "සවුදි අරාබියාව",
          "name:sk": "Saudská Arábia",
          "name:sl": "Saudova Arabija",
          "name:so": "Sacuudi Carabiya",
          "name:sq": "Arabia Saudite",
          "name:sr": "Саудијска Арабија",
          "name:ss": "I-Arabhiya",
          "name:su": "Saudi Arabia",
          "name:sv": "Saudiarabien",
          "name:sw": "Saudia",
          "name:ta": "சவூதி அரேபியா",
          "name:te": "సౌదీ అరేబియా",
          "name:tg": "Арабистони Саудӣ",
          "name:th": "ประเทศซาอุดีอาระเบีย",
          "name:tk": "Saud Arabystany",
          "name:tl": "Arabyang Saudi",
          "name:tr": "Suudi Arabistan",
          "name:tt": "Согуд Гарәбстаны",
          "name:ug": "سەئۇدى ئەرەبىستان",
          "name:uk": "Саудівська Аравія",
          "name:ur": "سعودی عرب",
          "name:uz": "Saudiya Arabistoni",
          "name:vi": "Ả Rập Saudi",
          "name:vo": "Sauda-Larabän",
          "name:wo": "Araabi Sawdit",
          "name:yi": "סאודי אראביע",
          "name:yo": "Sáúdí Arábíà",
          "name:zh": "沙特阿拉伯 / 沙烏地阿拉伯",
          "boundary": "administrative",
          "name:ace": "Arab Saudi",
          "name:als": "Saudi-Arabien",
          "name:ang": "Saudisc Arabea",
          "name:arc": "ܣܥܘܕܝܐ",
          "name:arz": "المملكه العربيه السعوديه",
          "name:ast": "Arabia Saudita",
          "name:bar": "Saudi Arabien",
          "name:bcl": "Arabya Saudita",
          "name:bpy": "সৌদি আরব",
          "name:bug": "Arab Saudi",
          "name:bxr": "Саудын Араб",
          "name:ceb": "Arabyang Saudita",
          "name:ckb": "عەرەبستانی سعوودی",
          "name:crh": "Saudiy Arabistan",
          "name:csb": "Saudëjskô Arabijô",
          "name:diq": "Erebıstanê Seudi",
          "name:dsb": "Saudiska-Arabska",
          "name:ext": "Arabia Saudita",
          "name:frp": "Arabie saoudita",
          "name:gag": "Saudi Arabiya",
          "name:gan": "沙特阿拉伯",
          "name:hak": "Sâ-vû-thi Â-lâ-pak",
          "name:haw": "Saudi ʻAlapia",
          "name:hif": "Saudi Arabia",
          "name:hsb": "Sawdi-Arabska",
          "name:ilo": "Saudi Arabia",
          "name:jbo": "djogu'e",
          "name:kbd": "Сауд Хьэрыпей",
          "name:lbe": "Саоьдуллал Аьрабусттан",
          "name:lez": "Сауди Арабистан",
          "name:lij": "Arabia Saudïa",
          "name:lmo": "Arabia Saudita",
          "name:lzh": "沙特阿拉伯",
          "name:nah": "Saudarabia",
          "name:nan": "Saud ê A-la-pek",
          "name:nds": "Saudi-Arabien",
          "name:nov": "Saudi Arabia",
          "name:nrm": "Arabie Saudi",
          "name:pam": "Saudita Arabia",
          "name:pap": "Saudi Arabia",
          "name:pdc": "Saudi Arabia",
          "name:pms": "Arabia Saodita",
          "name:pnb": "سعودی عرب",
          "name:rue": "Саудьска Арабія",
          "name:sah": "Сауд Арабията",
          "name:scn": "Arabbia Saudita",
          "name:sco": "Saudi Arabie",
          "name:smn": "Saudi-Arabia",
          "name:sms": "Saudi-Arabia",
          "name:szl": "Saudyjskŏ Arabijŏ",
          "name:tok": "ma Sawusi",
          "name:tzl": "Arabxha Saudì",
          "name:udm": "Сауд Аравия",
          "name:vec": "Arabia Saudìa",
          "name:vro": "Saudi Araabia",
          "name:war": "Arabya Saudita",
          "name:wuu": "沙特阿拉伯",
          "name:xal": "Саудин Араб Нутг",
          "name:yue": "沙地阿拉伯",
          "name:zea": "Saoedi-Araobië",
          "timezone": "Asia/Riyadh",
          "way_area": "182.048",
          "wikidata": "Q851",
          "ISO3166-1": "SA",
          "wikipedia": "ar:السعودية",
          "population": "32175224",
          "admin_level": "2",
          "alt_name:eo": "Sauda Arabujo;Saud-Arabio;Saud-Arabujo",
          "alt_name:vi": "Ả Rập Xê Út;A-rập Xê-út",
          "border_type": "nation",
          "name:bat-smg": "Sauda Arabėjė",
          "name:roa-rup": "Arabia Saudescã",
          "name:zh-Hans": "沙特阿拉伯",
          "name:zh-Hant": "沙烏地阿拉伯",
          "name:roa-tara": "Arabie Saudite",
          "official_name": "المملكة العربية السعودية",
          "name:be-tarask": "Саудаўская Арабія",
          "population:date": "2022",
          "ISO3166-1:alpha2": "SA",
          "ISO3166-1:alpha3": "SAU",
          "default_language": "ar",
          "official_name:ar": "المملكة العربية السعودية",
          "official_name:cs": "Království Saúdská Arábie",
          "official_name:en": "Kingdom of Saudi Arabia",
          "official_name:eo": "Reĝlando Sauda Arabio",
          "official_name:es": "Reino de Arabia Saudita",
          "official_name:fr": "Royaume d’Arabie saoudite",
          "official_name:pt": "Reino da Arábia Saudita",
          "official_name:ru": "Королевство Саудовская Аравия",
          "ISO3166-1:numeric": "682"
        }
      },
      "geometry": {
        "type": "Polygon",
        "coordinates": [
          [
            [
              52,
              23
            ],
            [
              52.53069182435787,
              23
            ],
            [
              52.3378928,
              23.2328071
            ],
            [
              52.1634312,
              23.4426169
            ],
            [
              52.007939,
              23.6302995
            ],
            [
              52.0041684,
              23.6351234
            ],
            [
              52,
              23.640215215923323
            ],
            [
              52,
              23
            ]
          ]
        ]
      }
    }
  ]
}