{
  "type": "FeatureCollection",
  "features": [
    {
      "type": "Feature",
      "properties": {
        "osm_id": -195266,
        "boundary": "administrative",
        "admin_level": 2,
        "parents": null,
        "name": "Namibia",
        "local_name": "Namibia",
        "name_en": "Namibia",
        "all_tags": {
          "flag": "http://upload.wikimedia.org/wikipedia/commons/0/00/Flag_of_Namibia.svg",
          "name": "Namibia",
          "name:af": "Namibië",
          "name:am": "ናሚቢያ",
          "name:an": "Namibia",
          "name:ar": "ناميبيا",
          "name:az": "Namibiya",
          "name:ba": "Намибия",
          "name:be": "Намібія",
          "name:bg": "Намибия",
          "name:bm": "Namibia",
          "name:bn": "নামিবিয়া",
          "name:bo": "ན་མི་བྷི་ཡ།",
          "name:br": "Namibia",
          "name:bs": "Namibija",
          "name:ca": "Namíbia",
          "name:ce": "Намиби",
          "name:cs": "Namibie",
          "name:cv": "Намиби",
          "name:cy": "Namibia",
          "name:da": "Namibia",
          "name:de": "Namibia",
          "name:el": "Ναμίμπια",
          "name:en": "Namibia",
          "name:eo": "Namibio",
          "name:es": "Namibia",
          "name:et": "Namiibia",
          "name:eu": "Namibia",
          "name:fa": "نامیبیا",
          "name:fi": "Namibia",
          "name:fo": "Namibia",
          "name:fr": "Namibie",
          "name:fy": "Namybje",
          "name:ga": "An Namaib",
          "name:gd": "Naimibia",
          "name:gl": "Namibia",
          "name:gn": "Namívia",
          "name:gv": "Yn Nameeb",
          "name:he": "נמיביה",
          "name:hi": "नामीबिया",
          "name:hr": "Namibija",
          "name:ht": "Namibi",
          "name:hu": "Namíbia",
          "name:hy": "Նամիբիա",
          "name:ia": "Namibia",
          "name:id": "Namibia",
          "name:ie": "Namibia",
          "name:io": "Namibia",
          "name:is": "Namibía",
          "name:it": "Namibia",
          "name:ja": "ナミビア",
          "name:jv": "Namibia",
          "name:ka": "ნამიბია",
          "name:kg": "Namibia",
          "name:ki": "Namibia",
          "name:kk": "Намибия",
          "name:kn": "ನಮೀಬಿಯ",
          "name:ko": "나미비아",
          "name:ku": "Namîbya",
          "name:kw": "Namibi",
          "name:la": "Namibia",
          "name:lb": "Namibien",
          "name:li": "Namibië",
          "name:ln": "Namibia",
          "name:lt": "Namibija",
          "name:lv": "Namībija",
          "name:mg": "Namibia",
          "name:mi": "Namīpia",
          "name:mk": "Намибија",
          "name:ml": "നമീബിയ",
          "name:mn": "Намиби",
          "name:mr": "नामिबिया",
          "name:ms": "Namibia",
          "name:mt": "Namibja",
          "name:my": "နမီးဘီးယားနိုင်ငံ",
          "name:nl": "Namibië",
          "name:nn": "Namibia",
          "name:no": "Namibia",
          "name:nv": "Namííbya",
          "name:oc": "Namibia",
          "name:or": "ନାମିବିଆ",
          "name:os": "Намиби",
          "name:pa": "ਨਮੀਬੀਆ",
          "name:pl": "Namibia",
          "name:ps": "نېمبیا",
          "name:pt": "Namíbia",
          "name:qu": "Namiwya",
          "name:rm": "Namibia",
          "name:ro": "Namibia",
          "name:ru": "Намибия",
          "name:rw": "Namibiya",
          "name:sa": "नमीबिया",
          "name:sc": "Namìbia",
          "name:se": "Namibia",
          "name:sg": "Namibùii",
          "name:sh": "Namibija",
          "name:sk": "Namíbia",
          "name:sl": "Namibija",
          "name:sn": "Namibia",
          "name:so": "Nambiya",
          "name:sq": "Namibia",
          "name:sr": "Намибија",
          "name:ss": "INamibiya",
          "name:st": "Namibia",
          "name:su": "Namibia",
          "name:sv": "Namibia",
          "name:sw": "Namibia",
          "name:ta": "நமீபியா",
          "name:te": "నమీబియా",
          "name:tg": "Намибия",
          "name:th": "ประเทศนามิเบีย",
          "name:ti": "ናሚቢያ",
          "name:tk": "Namibiýa",
          "name:tl": "Namibya",
          "name:tn": "Namibia",
          "name:tr": "Namibya",
          "name:ts": "Namibia",
          "name:tt": "Намибия",
          "name:ug": "نامىبىيە",
          "name:uk": "Намібія",
          "name:ur": "نمیبیا",
          "name:uz": "Namibiya",
          "name:ve": "Namibia",
          "name:vi": "Namibia",
          "name:vo": "Namibiyän",
          "name:wo": "Namibi",
          "name:yi": "נאמיביע",
          "name:yo": "Nàmíbíà",
          "name:zh": "纳米比亚 / 納米比亞",
          "name:zu": "INamibhiya",
          "boundary": "administrative",
          "name:ace": "Namibia",
          "name:als": "Namibia",
          "name:ang": "Namibia",
          "name:arz": "ناميبيا",
          "name:ast": "Namibia",
          "name:bar": "Namibia",
          "name:bcl": "Namibya",
          "name:bjn": "Namibia",
          "name:bpy": "নামিবিয়া",
          "name:bxr": "Намиби",
          "name:ceb": "Namibya",
          "name:chy": "Namibia",
          "name:ckb": "نامیبیا",
          "name:crh": "Namibiya",
          "name:diq": "Namibya",
          "name:dsb": "Namibija",
          "name:ext": "Namibia",
          "name:frp": "Namibie",
          "name:gag": "Namibiya",
          "name:hak": "Na̍p-mí-pí-â",
          "name:hif": "Namibia",
          "name:hsb": "Namibija",
          "name:ilo": "Namibia",
          "name:jbo": "namibias",
          "name:kaa": "Namibiya",
          "name:krc": "Намибия",
          "name:lad": "Namibia",
          "name:lij": "Namibia",
          "name:lmo": "Namibia",
          "name:ltg": "Namibeja",
          "name:lzh": "納米比亞",
          "name:min": "Namibia",
          "name:nah": "Namibia",
          "name:nan": "Namibia",
          "name:nds": "Namibia",
          "name:nov": "Namibia",
          "name:nso": "Namibia",
          "name:pam": "Namibia",
          "name:pap": "Namibia",
          "name:pms": "Namibia",
          "name:pnb": "نامیبیا",
          "name:sah": "Намибия",
          "name:scn": "Namibbia",
          "name:sco": "Namibie",
          "name:smn": "Namibia",
          "name:sms": "Namibia",
          "name:stq": "Namibia",
          "name:szl": "Namibijo",
          "name:tzl": "Namibia",
          "name:vec": "Namibia",
          "name:vro": "Namiibia",
          "name:war": "Namibia",
          "name:xal": "Намибмудин Орн",
          "name:yue": "納米比亞",
          "name:zea": "Namibië",
          "timezone": "Africa/Windhoek",
          "way_area": "75.1584",
          "wikidata": "Q1030",
          "ISO3166-1": "NA",
          "wikipedia": "en:Namibia",
          "admin_level": "2",
          "name:simple": "Namibia",
          "driving_side": "left",
          "name:bat-smg": "Namibėjė",
          "name:zh-Hans": "纳米比亚",
          "name:zh-Hant": "納米比亞",
          "name:be-tarask": "Намібія",
          "ISO3166-1:alpha2": "NA",
          "ISO3166-1:alpha3": "NAM",
          "default_language": "en",
          "official_name:cs": "Namibijská republika",
          "official_name:en": "Namibia",
          "official_name:gn": "Tavakuairetã Namívia",
          "official_name:pt": "República da Namíbia",
          "ISO3166-1:numeric": "516",
          "official_name:ckb": "کۆماری نامیبیا"
        }
      },
      "geometry": {
        "type": "Polygon",
        "coordinates": [
          [
            [
              19,
              -26
            ],
            [
              19.998941238070675,
              -26
            ],
            [
              19.99894,
              -25.9988
            ],
            [
              19.9992236,
              -25.9061234
            ],
            [
              19.9991272,
              -25.7803801
            ],
            [
              19.99939,
              -25.71337
            ],
            [
              19.9992025,
              -25.608926
            ],
            [
              19.9993757,
              -25.5231545
            ],
            [
              19.9988418,
              -25.4865081
            ],
            [
              19.9986898,
              -25.4526588
            ],
            [
              19.9992478,
              -25.4392134
            ],
            [
              19.9993243,
              -25.4188385
            ],
            [
              19.999137990016546,
              -25
            ],
            [
              19,
              -25
            ],
            [
              19,
              -26
            ]
          ]
        ]
      }
    },
    {
      "type": "Feature",
      "properties": {
        "osm_id": -1252792,
        "boundary": "land_area",
        "admin_level": 2,
        "parents": null,
        "name": "South Africa (land mass)",
        "local_name": "South Africa (land mass)",
        "name_en": "South Africa (land mass)",
        "all_tags": {
          "flag": "http://upload.wikimedia.org/wikipedia/commons/a/af/Flag_of_South_Africa.svg",
          "name": "South Africa (land mass)",
          "name:af": "Suid-Afrika",
          "name:ak": "Afrika Anaafo",
          "name:am": "ደቡብ አፍሪካ",
          "name:an": "Sudafrica",
          "name:ar": "جنوب أفريقيا",
          "name:az": "Cənub Afrika",
          "name:be": "Паўднёва-Афрыканская Рэспубліка",
          "name:bg": "Южна Африка",
          "name:bm": "Worodugu Afriki",
          "name:bn": "দক্ষিণ আফ্রিকা",
          "name:bo": "ལྷོ་ ཨཕྲི་ཀ།",
          "name:br": "Suafrika",
          "name:bs": "Južna Afrika",
          "name:ca": "Sud-àfrica",
          "name:cs": "Jižní Afrika",
          "name:cv": "Кăнтăр Африка",
          "name:cy": "De Affrica",
          "name:da": "Sydafrika",
          "name:de": "Südafrika (Landmass)",
          "name:dv": "ދެކުނު އެފްރިކާ",
          "name:dz": "སཱའུཐ་ ཨཕ་རི་ཀ",
          "name:ee": "Anyiehe Afrika nutome",
          "name:el": "Νότια Αφρική",
          "name:en": "South Africa (land mass)",
          "name:eo": "Sudafriko",
          "name:es": "Sudáfrica",
          "name:et": "Lõuna-Aafrika",
          "name:eu": "Hegoafrika",
          "name:fa": "آفریقای جنوبی",
          "name:ff": "Afrik bŋ Worgo",
          "name:fi": "Etelä-Afrikka",
          "name:fo": "Suðurafrika",
          "name:fr": "Afrique du Sud (terres)",
          "name:fy": "Súd-Afrika",
          "name:ga": "An Afraic Theas",
          "name:gd": "Afraga a Deas",
          "name:gl": "Sudáfrica",
          "name:gn": "Yvyafrika",
          "name:gu": "દક્ષિણ આફ્રિકા",
          "name:gv": "Yn Affrick Yiass",
          "name:ha": "Afirka ta Kudu",
          "name:he": "דרום אפריקה",
          "name:hi": "दक्षिण अफ़्रीका",
          "name:hr": "Južna Afrika",
          "name:ht": "Afrik disid",
          "name:hu": "Dél-Afrika",
          "name:hy": "Հարավային Աֆրիկա",
          "name:ia": "Africa del Sud",
          "name:id": "Afrika Selatan",
          "name:ie": "Sudafrica",
          "name:io": "Sud-Afrika",
          "name:is": "Suður-Afríka",
          "name:it": "Sudafrica",
          "name:ja": "南アフリカ",
          "name:jv": "Afrika Kidul",
          "name:ka": "სამხრეთ აფრიკა",
          "name:kg": "Afelika ya Sudi",
          "name:ki": "Abĩrika Kusini",
          "name:kk": "Оңтүстік Африка",
          "name:km": "អាព្រិក​ភាគ​ខាង​ត្បូង",
          "name:kn": "ದಕ್ಷಿಣ ಆಫ್ರಿಕಾ",
          "name:ko": "남아프리카",
          "name:ks": "جَنوٗبی اَفریٖکا",
          "name:ku": "Afrîkaya Başûr",
          "name:kv": "Лунвыв Африкаса Республика",
          "name:kw": "Afrika Dhyhow",
          "name:ky": "Африкаанс тили",
          "name:la": "Africa Australis",
          "name:lb": "Südafrika",
          "name:lg": "Sawusafirika",
          "name:li": "Zuud-Afrika",
          "name:ln": "Sidafríka",
          "name:lo": "ອາຟະລິກາໃຕ້",
          "name:lt": "Pietų Afrika",
          "name:lv": "Dienvidāfrika",
          "name:mg": "Afrika Atsimo",
          "name:mi": "Āwherika-ki-te-tonga",
          "name:mk": "Јужна Африка",
          "name:ml": "ദക്ഷിണാഫ്രിക്ക",
          "name:mn": "Өмнөд Африк",
          "name:mr": "दक्षिण अफ्रिका",
          "name:ms": "Afrika Selatan",
          "name:mt": "Afrika t’Isfel",
          "name:my": "တောင်အာဖရိက",
          "name:ne": "दक्षिण अफ्रिका",
          "name:nl": "Zuid-Afrika",
          "name:nn": "Sør-Afrika",
          "name:no": "Sør-Afrika",
          "name:oc": "Sud-Africa",
          "name:or": "ଦକ୍ଷିଣ ଆଫ୍ରିକା",
          "name:os": "Хуссар Африкæйы",
          "name:pa": "ਦੱਖਣੀ ਅਫ਼ਰੀਕਾ",
          "name:pl": "Republika Południowej Afryki",
          "name:ps": "سویلي افریقا",
          "name:pt": "África do Sul",
          "name:qu": "Urin Aphrika",
          "name:rm": "Africa dal Sid",
          "name:rn": "Afurika y'Epfo",
          "name:ro": "Africa de Sud",
          "name:ru": "Южная Африка",
          "name:rw": "Afurika y’Epfo",
          "name:sa": "दक्षिण-आफ्रिका",
          "name:sc": "Sudàfrica",
          "name:se": "Lulli-Afrihká",
          "name:sg": "Afrîka-Mbongo",
          "name:sh": "Južna Afrika",
          "name:si": "දකුණු අප්‍රිකාව",
          "name:sk": "Južná Afrika",
          "name:sl": "Južna Afrika",
          "name:so": "Koonfur Afrika",
          "name:sq": "Afrika e Jugut",
          "name:sr": "Јужна Африка",
          "name:ss": "INingizimu Afrika",
          "name:st": "Afrika Borwa",
          "name:su": "Afrika Kidul",
          "name:sv": "Sydafrika",
          "name:sw": "Afrika Kusini",
          "name:ta": "தென் ஆப்பிரிக்கா",
          "name:te": "దక్షిణ ఆఫ్రికా రాజ్యం",
          "name:tg": "Африқои Ҷанубӣ",
          "name:th": "แอฟริกาใต้",
          "name:ti": "ደቡብ አፍሪካ",
          "name:tk": "Günorta Afrika",
          "name:tn": "Aferika Borwa",
          "name:to": "ʻAfilika tonga",
          "name:tr": "Güney Afrika",
          "name:ts": "Afrika-Dzonga",
          "name:tt": "Көньяк Африка",
          "name:ug": "جەنۇبىي ئافرىقا",
          "name:uk": "Південний Африки",
          "name:ur": "جنوبی افریقہ",
          "name:uz": "Janubiy Afrika",
          "name:ve": "Afurika Tshipembe",
          "name:vi": "Nam Phi",
          "name:vo": "Sulüdafrikän",
          "name:wa": "Nonne-Afrike",
          "name:wo": "Afrig gu Bëj-saalum",
          "name:xh": "uMzantsi Afrika",
          "name:yi": "דרום אפריקע",
          "name:yo": "Gúúsù Áfríkà",
          "name:zh": "南非",
          "name:zu": "iNingizimu Afrika",
          "boundary": "land_area",
          "int_name": "South Africa",
          "name:ace": "Afrika Seulatan",
          "name:als": "Südafrika",
          "name:ang": "Sūðaffrica",
          "name:arz": "جنوب افريقيا",
          "name:ast": "Sudáfrica",
          "name:bar": "Südafrika",
          "name:bjn": "Aprika Salatan",
          "name:bpy": "খা আফ্রিকা",
          "name:ceb": "Habagatang Aprika",
          "name:chy": "Mo'hetaneho'e hánêsóvóne",
          "name:ckb": "ئەفریقای باشوور",
          "name:crh": "Cenübiy Afrika",
          "name:diq": "Afrikaya Veroci",
          "name:dsb": "Pódpołdnjowa Afrika",
          "name:ext": "Sudáfrica",
          "name:frp": "Africa du Sud",
          "name:fur": "Sud Afriche",
          "name:gag": "Üülen Afrika Respublikası",
          "name:gan": "南非",
          "name:hak": "Nàm-fî",
          "name:haw": "ʻApelika Hema",
          "name:hif": "South Africa",
          "name:ilo": "Abagatan nga Áprika",
          "name:jbo": "nanfi'ogu'e",
          "name:kaa": "Qubla Afrika",
          "name:kab": "Tafriqt Wadda",
          "name:krc": "Къыбыла-Африкан Республика",
          "name:ksh": "Södaffrika",
          "name:lad": "Sud-Afrika",
          "name:lij": "Sudafrica",
          "name:lmo": "Südafrica",
          "name:ltg": "Dīnavydu Afrikys",
          "name:mdf": "Лямбеширень Африк",
          "name:min": "Afrika Selatan",
          "name:mzn": "جنوبی آفریخا",
          "name:nah": "Africa Huitztlāmpa",
          "name:nan": "Lâm-hui",
          "name:nds": "Süüdafrika",
          "name:new": "दक्षिण अफ्रिका",
          "name:nov": "Sud Afrika",
          "name:nso": "Afrika Borwa",
          "name:pam": "Mauling Aprika",
          "name:pap": "Sur Afrika",
          "name:pdc": "Saut Afrikaa",
          "name:pih": "Sowth Afreka",
          "name:pms": "Sudàfrica",
          "name:pnb": "دکھنی افریقہ",
          "name:rue": "Южна Африка",
          "name:sah": "Соҕуруу Африка",
          "name:scn": "Àfrica dû Sud",
          "name:sco": "Sooth Africae",
          "name:stq": "Suud-Afrikoa",
          "name:szl": "Połedńowyj Afriki",
          "name:tzl": "Südafrica",
          "name:vec": "Sudàfrica",
          "name:war": "Salatan nga Apriká",
          "name:wuu": "南非",
          "name:xal": "Өмн Априкин",
          "name:xmf": "ობჟათე აფრიკა",
          "name:yue": "南非",
          "name:zea": "Zuud-Afrika",
          "timezone": "Africa/Johannesburg",
          "way_area": "113.121",
          "wikidata": "Q258",
          "ISO3166-1": "ZA",
          "land_area": "administrative",
          "wikipedia": "en:South Africa",
          "population": "49991300",
          "admin_level": "2",
          "alt_name:gl": "África do Sur",
          "alt_name:ln": "Afríka ya Súdi",
          "alt_name:oc": "Africa del Sud",
          "alt_name:wo": "Afrig gu Bëj-gànnaar",
          "name:nds-nl": "Zuud-Afrika",
          "capital_city": "Pretoria;Bloemfontein;Cape Town",
          "official_name": "Republic of South Africa",
          "short_name:af": "ZAR",
          "short_name:be": "ПАР",
          "short_name:bg": "РЮА",
          "short_name:cv": "КАР",
          "short_name:en": "RSA",
          "short_name:fr": "RSA",
          "short_name:kv": "ЛАР",
          "short_name:ky": "ТАР",
          "short_name:mn": "ӨАБНУ",
          "short_name:os": "ХАР",
          "short_name:pl": "RPA",
          "short_name:ru": "ЮАР",
          "short_name:sl": "JAR",
          "short_name:tk": "GAR",
          "short_name:tt": "КАҖ",
          "short_name:uk": "ПАР",
          "short_name:uz": "JAR",
          "name:zh_pinyin": "Nán Fēi",
          "short_name:kbd": "ИАР",
          "short_name:krc": "КъАР",
          "short_name:mdf": "ЛАР",
          "short_name:sah": "САР",
          "ISO3166-1:alpha2": "ZA",
          "ISO3166-1:alpha3": "ZAF",
          "official_name:af": "Zuid-Afrikaansche Republiek",
          "official_name:am": "የደቡብ አፍሪካ ሬፑብሊክ",
          "official_name:an": "Republica de Sudafrica",
          "official_name:ar": "جمهورية جنوب أفريقيا",
          "official_name:az": "Cənubi Afrika Respublikası",
          "official_name:be": "Паўднёва-Афрыканская Рэспубліка",
          "official_name:bg": "Република Южна Африка",
          "official_name:bm": "Worodugu Afrika ka Fasojamana",
          "official_name:bn": "রিপাবলিক অফ সাউথ আফ্রিকা",
          "official_name:br": "Republik Suafrika",
          "official_name:bs": "Južnoafrička Republika",
          "official_name:ca": "República de Sud-àfrica",
          "official_name:cs": "Jihoafrická republika",
          "official_name:cv": "Кăнтăр Африка Республики",
          "official_name:cy": "Gweriniaeth De Affrica",
          "official_name:da": "Republikken Sydafrika",
          "official_name:de": "Republik Südafrika",
          "official_name:el": "Δημοκρατία της Νοτίου Αφρικής",
          "official_name:en": "Republic of South Africa",
          "official_name:eo": "Respubliko de Sud-Afriko",
          "official_name:es": "República de Sudáfrica",
          "official_name:et": "Lõuna-Aafrika Vabariik",
          "official_name:eu": "Hegoafrikako Errepublika",
          "official_name:fa": "جمهوری آفریقای جنوبی",
          "official_name:fi": "Etelä-Afrikan tasavalta",
          "official_name:fo": "Tjóðveldið Suðurafrika",
          "official_name:fr": "République d'Afrique du Sud",
          "official_name:fy": "Súd-Afrikaanske Republyk",
          "official_name:ga": "Poblacht na hAfraice Theas",
          "official_name:gd": "Poblachd Afraga a Deas",
          "official_name:gl": "República de Sudáfrica",
          "official_name:gn": "Tetã Yvyafrika",
          "official_name:gu": "દક્ષિણ આફ્રિકાનું ગણરાજ્ય",
          "official_name:gv": "Pobblaght yn Affrick Yiass",
          "official_name:ha": "Jamhuriyar Afrika ta Kudu",
          "official_name:he": "רפובליקת דרום אפריקה",
          "official_name:hi": "दक्षिण अफ़्रीका गणराज्य",
          "official_name:hr": "Južnoafrička Republika",
          "official_name:ht": "Repiblik Afrik disid",
          "official_name:hu": "Dél-Afrikai Köztársaság",
          "official_name:ia": "Republica del Africa del Sud",
          "official_name:id": "Republik Afrika Selatan",
          "official_name:ie": "Republic de Sudafrica",
          "official_name:io": "Republiko di Sud-Afrika",
          "official_name:is": "Lýðveldið Suður-Afríku",
          "official_name:it": "Repubblica del Sudafrica",
          "official_name:ja": "南アフリカ共和国",
          "official_name:jv": "Republik Afrika Kidul",
          "official_name:ka": "სამხრეთ აფრიკის რესპუბლიკა",
          "official_name:kg": "Repubilika ya Afelika ya Sudi",
          "official_name:kk": "Оңтүстік Африка Республикасы",
          "official_name:ku": "Komara Afrîkaya Başûr",
          "official_name:kv": "Лунвыв Африкаса Республика",
          "official_name:ky": "Түштүк-Африка Республикасы",
          "official_name:la": "Res Publica Africae Australis",
          "official_name:lb": "Republik Südafrika",
          "official_name:ln": "Republíki ya Sidafríka",
          "official_name:lt": "Pietų Afrikos Respublika",
          "official_name:lv": "Dienvidāfrikas Republika",
          "official_name:mk": "Јужноафриканска Република",
          "official_name:ml": "റിപബ്ലിക്ക് ഓഫ് സൗത്ത് ആഫ്രിക്ക",
          "official_name:mn": "Өмнөд Африкийн Бүгд Найрамдах Улс",
          "official_name:mr": "दक्षिण आफ्रिकेचे गणराज्य",
          "official_name:ms": "Republik Afrika Selatan",
          "official_name:mt": "Repubblika tal-Afrika t'Isfel",
          "official_name:my": "တောင်အာဖရိက သမ္မတနိုင်ငံ",
          "official_name:nl": "Republiek Zuid-Afrika",
          "official_name:nn": "Sørafrikanske republikken",
          "official_name:no": "Republikken Sør-Afrika",
          "official_name:nr": "iRiphabliki yeSewula Afrika",
          "official_name:nv": "Kéyah Naakai Łizhinii Bikéyah Shádiʼááhjí Siʼánígíí",
          "official_name:oc": "Republica Sud-Africana",
          "official_name:os": "Хуссар Африкæйы Республикæ",
          "official_name:pa": "ਦੱਖਣ ਅਫ਼ਰੀਕਾ ਗਣਰਾਜ",
          "official_name:pl": "Republika Południowej Afryki",
          "official_name:pt": "República da África do Sul",
          "official_name:qu": "Urin Aphrika Republika",
          "official_name:rm": "Republica Sidafricana",
          "official_name:ro": "Republica Africa de Sud",
          "official_name:ru": "Южно-Африканская Республика",
          "official_name:rw": "Repubulika ’Afurika y ’Epfo",
          "official_name:sc": "Repubblica de su Sudàfrica",
          "official_name:se": "Lulli-Afrihká dásseváldi",
          "official_name:sg": "Ködörösêse tî Afrîka-Mbongo",
          "official_name:sh": "Južnoafrička Republika;Republika Južna Afrika",
          "official_name:sk": "Juhoafrická republika",
          "official_name:sl": "Južnoafriška republika;Republika Južna Afrika",
          "official_name:so": "Jamhuuriyadda Koonfur Afrika",
          "official_name:sq": "Republika Jugafrikane",
          "official_name:sr": "Јужноафричка Република;Република Јужна Африка",
          "official_name:ss": "iRiphabhulikhi yeNingizimu Afrika",
          "official_name:st": "Rephabliki ya Afrika Borwa",
          "official_name:su": "Republik Afrika Kidul",
          "official_name:sv": "Republiken Sydafrika",
          "official_name:sw": "Jamhuri ya Afrika Kusini",
          "official_name:tg": "Ҷазираҳои Африқои Ҷанубӣ",
          "official_name:th": "ประเทศแอฟริกาใต้",
          "official_name:tk": "Günorta Afrika Respublikasy",
          "official_name:tn": "Rephaboliki ya Aforika Borwa",
          "official_name:ts": "Riphabliki ya Afrika-Dzonga",
          "official_name:tt": "Көньяк Африка Җөмһүрияте",
          "official_name:uk": "Південно-Африканська Республіка",
          "official_name:uz": "Janubiy Afrika Respublikasi",
          "official_name:ve": "Riphabuḽiki ya Afurika Tshipembe",
          "official_name:vi": "Cộng hòa Nam Phi",
          "official_name:vo": "Repüblikän Sulüdafrikäna",
          "official_name:wa": "Republike di Nonne-Afrike",
          "official_name:wo": "Republik bu Afrig gu Bëj-saalum",
          "official_name:xh": "iRiphabliki yaseMzantsi Afrika",
          "official_name:yi": "רעפובליק פון דרום אפריקע",
          "official_name:yo": "Orílẹ̀-èdè Olómìnira ilẹ̀ Gúúsù Áfríkà",
          "official_name:zh": "南非共和国",
          "official_name:zu": "iRiphabliki yaseNingizimu Afrika",
          "ISO3166-1:numeric": "710",
          "country_code_fips": "SF",
          "official_name:ace": "Republik Afrika Seulatan",
          "official_name:als": "Republik Südafrika",
          "official_name:ang": "Cynewīse Sūþaffrice",
          "official_name:arz": "جمهورية جنوب افريقيا",
          "official_name:ast": "República Sudafricana",
          "official_name:bar": "Republik Südafrika",
          "official_name:bjn": "Republik Aprika Salatan",
          "official_name:bpy": "প্রজাতন্ত্রি খা আফ্রিকা",
          "official_name:ceb": "Republikang Habagatang Aprikano",
          "official_name:ckb": "کۆماری ئافریقای باشوور",
          "official_name:crh": "Cenübiy Afrika Cumhuriyeti",
          "official_name:diq": "Cumhuriyetê Afrikaya Veroci",
          "official_name:dsb": "Pódpołdnjowa Afrika Republika",
          "official_name:ext": "Repúbrica de Sudáfrica",
          "official_name:frp": "Rèpublica de l'Africa du Sud",
          "official_name:gag": "Üülen Afrika Respublikası",
          "official_name:gan": "南非共和國",
          "official_name:hif": "Republic of South Africa",
          "official_name:hsb": "Republika Južna Afrika",
          "official_name:ilo": "Republika iti Abagatan nga Áprika",
          "official_name:kaa": "Qubla Afrika Respublikası",
          "official_name:kbd": "Ипшъэ Африкэ Республикэ",
          "official_name:krc": "Къыбыла-Африкан Республика",
          "official_name:lad": "Repuvlika de Sud-Afrika",
          "official_name:lmo": "Repübliga de Südafrica",
          "official_name:ltg": "Dīnavydu Afrikys Republika",
          "official_name:mdf": "Лямбеширень Африконь Республик",
          "official_name:nah": "Tlācatlahtohcāyōtl Africa Huitztlāmpa",
          "official_name:nan": "Lâm-hui Kiōng-hô-kok",
          "official_name:nds": "Süüdafrikaansche Republiek",
          "official_name:nov": "Sud Afrikani Republike",
          "official_name:nso": "Repabliki le Afrika Borwa",
          "official_name:pam": "Republika ning Mauling Aprika",
          "official_name:pap": "Republika di Sur Afrika",
          "official_name:pdc": "Republik vun Saut Afrikaa",
          "official_name:pih": "Sowth Afrekan Repablik",
          "official_name:pms": "Repùblica Sudafrican-a",
          "official_name:sah": "Соҕуруу Африка Республиката",
          "official_name:scn": "Ripùbbrica dû Àfrica dû Sud",
          "official_name:sco": "Sooth African Republic",
          "official_name:stq": "Suud-afrikoanske Republik",
          "official_name:szl": "Połedńowoafrikańsko Republika;Republika Połedńowyj Afriki",
          "official_name:vec": "Republica Sudafricana",
          "official_name:war": "Republika han Salatan nga Aprika",
          "official_name:xal": "Өмн Априкин Орн",
          "official_name:xmf": "ობჟათე აფრიკაშ რესპუბლიკა",
          "official_name:yue": "南非共和國",
          "official_name:zea": "Zuud-Afrikaonse Republiek",
          "official_name:nds-nl": "Rippebliek Zuud-Afrika",
          "capital_city:judicial": "Bloemfontein",
          "capital_city:legislative": "Cape Town",
          "capital_city:administrative": "Pretoria",
          "country_code_iso3166_1_alpha_2": "ZA"
        }
      },
      "geometry": {
        "type": "Polygon",
        "coordinates": [
          [
            [
              19.9986898,
              -25.4526588
            ],
            [
              19.9988418,
              -25.4865081
            ],
            [
              19.9993757,
              -25.5231545
            ],
            [
              19.9992025,
              -25.608926
            ],
            [
              19.99939,
              -25.71337
            ],
            [
              19.9991272,
              -25.7803801
            ],
            [
              19.9992236,
              -25.9061234
            ],
            [
              19.99894,
              -25.9988
            ],
            [
              19.998941238070675,
              -26
            ],
            [
              20,
              -26
            ],
            [
              20,
              -25
            ],
            [
              19.999137990016546,
              -25
            ],
            [
              19.9993243,
              -25.4188385
            ],
            [
              19.9992478,
              -25.4392134
            ],
            [
              19.9986898,
              -25.4526588
            ]
          ]
        ]
      }
    }
  ]
}