{
  "type": "FeatureCollection",
  "features": [
    {
      "type": "Feature",
      "properties": {
        "osm_id": -21335,
        "boundary": "administrative",
        "admin_level": 2,
        "parents": null,
        "name": "Hungary",
        "local_name": "Magyarország",
        "name_en": "Hungary",
        "all_tags": {
          "flag": "https://upload.wikimedia.org/wikipedia/commons/c/c1/Flag_of_Hungary.svg",
          "name": "Magyarország",
          "name:ab": "Мадиартәыла",
          "name:af": "Hongarye",
          "name:ak": "Hangari",
          "name:am": "ሀንጋሪ",
          "name:an": "Hongría",
          "name:ar": "المجر",
          "name:ay": "Hunkariya",
          "name:az": "Macarıstan",
          "name:ba": "Венгрия",
          "name:be": "Венгрыя",
          "name:bg": "Унгария",
          "name:bi": "Hungary",
          "name:bm": "Hɔngri",
          "name:bn": "হাঙ্গেরি",
          "name:bo": "ཧུང་གྷ་རི།",
          "name:br": "Hungaria",
          "name:bs": "Mađarska",
          "name:ca": "Hongria",
          "name:ce": "Венгри",
          "name:co": "Ungheria",
          "name:cs": "Maďarsko",
          "name:cu": "Ѫгри",
          "name:cv": "Венгри",
          "name:cy": "Hwngari",
          "name:da": "Ungarn",
          "name:de": "Ungarn",
          "name:dv": "ހަންގޭރީ",
          "name:dz": "ཧཱང་གྷ་རི",
          "name:ee": "Hungary",
          "name:el": "Ουγγαρία",
          "name:en": "Hungary",
          "name:eo": "Hungario",
          "name:es": "Hungría",
          "name:et": "Ungari",
          "name:eu": "Hungaria",
          "name:fa": "مجارستان",
          "name:ff": "Hunngariya",
          "name:fi": "Unkari",
          "name:fo": "Ungarn",
          "name:fr": "Hongrie",
          "name:fy": "Hongarije",
          "name:ga": "An Ungáir",
          "name:gd": "An Ungair",
          "name:gl": "Hungría",
          "name:gn": "Hungyria",
          "name:gu": "હંગેરી",
          "name:gv": "Yn Ungaar",
          "name:ha": "Hungari",
          "name:he": "הונגריה",
          "name:hi": "हंगरी",
          "name:hr": "Mađarska",
          "name:ht": "Ongri",
          "name:hu": "Magyarország",
          "name:hy": "Հունգարիա",
          "name:ia": "Hungaria",
          "name:id": "Hongaria",
          "name:ie": "Hungaria",
          "name:io": "Hungaria",
          "name:is": "Ungverjaland",
          "name:it": "Ungheria",
          "name:ja": "ハンガリー",
          "name:jv": "Hongaria",
          "name:ka": "უნგრეთი",
          "name:kg": "Hongrie",
          "name:ki": "Macartsa",
          "name:kk": "Мажарстан",
          "name:kl": "Ungarni",
          "name:km": "ប្រទេសហុងគ្រី",
          "name:kn": "ಹಂಗೇರಿ",
          "name:ko": "헝가리",
          "name:ks": "ہَنٛگری",
          "name:ku": "Macaristan",
          "name:kv": "Мадьяр Му",
          "name:kw": "Hungari",
          "name:ky": "Мажарстан",
          "name:la": "Hungaria",
          "name:lb": "Ungarn",
          "name:lg": "Hangare",
          "name:li": "Hongarieë",
          "name:ln": "Ungri",
          "name:lo": "ຮັງກາຣີ",
          "name:lt": "Vengrija",
          "name:lv": "Ungārija",
          "name:mg": "Hongria",
          "name:mi": "Hanekeria",
          "name:mk": "Унгарија",
          "name:ml": "ഹംഗറി",
          "name:mn": "Унгар",
          "name:mr": "हंगेरी",
          "name:ms": "Hungary",
          "name:mt": "Ungerija",
          "name:my": "ဟန်ဂေရီနိုင်ငံ",
          "name:na": "Ungari",
          "name:ne": "हंगेरी",
          "name:nl": "Hongarije",
          "name:nn": "Ungarn",
          "name:no": "Ungarn",
          "name:nv": "Hángewii",
          "name:oc": "Ongria",
          "name:or": "ହଙ୍ଗେରୀ",
          "name:os": "Венгри",
          "name:pa": "ਹੰਗਰੀ",
          "name:pl": "Węgry",
          "name:ps": "هنګري",
          "name:pt": "Hungria",
          "name:qu": "Unriya",
          "name:rm": "Ungaria",
          "name:rn": "Hungariya",
          "name:ro": "Ungaria",
          "name:ru": "Венгрия",
          "name:rw": "Hongiriya",
          "name:sa": "हंगरी",
          "name:se": "Ungára",
          "name:sg": "Hongirùii",
          "name:sh": "Mađarska",
          "name:si": "හන්ගේරියානු සමුහාණ්ඩුව",
          "name:sk": "Maďarsko",
          "name:sl": "Madžarska",
          "name:sm": "Hungary",
          "name:sn": "Hungary",
          "name:so": "Hungaria",
          "name:sq": "Hungaria",
          "name:sr": "Мађарска",
          "name:ss": "IHangareyi",
          "name:st": "Hungary",
          "name:su": "Hungaria",
          "name:sv": "Ungern",
          "name:sw": "Hungaria",
          "name:ta": "அங்கேரி",
          "name:te": "హంగేరి",
          "name:tg": "Маҷористон",
          "name:th": "ประเทศฮังการี",
          "name:ti": "ሀንጋሪ",
          "name:tk": "Wengriýa",
          "name:tl": "Unggarya",
          "name:to": "Hangakalia",
          "name:tr": "Macaristan",
          "name:ts": "Hungary",
          "name:tt": "Маҗарстан",
          "name:ug": "ۋېنگرىيە",
          "name:uk": "Угорщина",
          "name:ur": "مجارستان",
          "name:uz": "Mojariston",
          "name:vi": "Hungary",
          "name:vo": "Macarän",
          "name:wo": "Ongiri",
          "name:yi": "אונגארן",
          "name:yo": "Húngárì",
          "name:zh": "匈牙利",
          "name:zu": "i-Hungary",
          "boundary": "administrative",
          "int_name": "Hungary",
          "name:ace": "Hongaria",
          "name:als": "Ungarn",
          "name:ang": "Ungerland",
          "name:arc": "ܡܓܪ",
          "name:arz": "المجر",
          "name:ast": "Hungría",
          "name:bar": "Ungarn",
          "name:bcl": "Hungriya",
          "name:bpy": "হাঙ্গেরী",
          "name:bxr": "Унгар",
          "name:ceb": "Unggriya",
          "name:chr": "ᎲᏂᎦᎵ",
          "name:ckb": "مەجارستان",
          "name:crh": "Macaristan",
          "name:csb": "Madżarskô",
          "name:diq": "Macarıstan",
          "name:dsb": "Hungorska",
          "name:eml": "Ungherî",
          "name:ext": "Ungria",
          "name:frp": "Hongrie",
          "name:frr": "Ungarn",
          "name:fur": "Ongjarie",
          "name:gag": "Vengriya",
          "name:hak": "Hiûng-ngà-li",
          "name:haw": "Hunakalia",
          "name:hif": "Hungary",
          "name:hsb": "Madźarska",
          "name:ilo": "Hungaria",
          "name:jbo": "madjiar",
          "name:kaa": "Vengriya",
          "name:kab": "Hungri",
          "name:kbd": "Мэжарей",
          "name:koi": "Мадьярму",
          "name:krc": "Маджар",
          "name:ksh": "Unjann",
          "name:lad": "Madjaristan",
          "name:lez": "Венгрия",
          "name:lfn": "Magiar",
          "name:lij": "Ungaja",
          "name:lmo": "Üngheria",
          "name:ltg": "Vengreja",
          "name:lzh": "匈牙利",
          "name:mdf": "Венгеронь мастор",
          "name:mhr": "Венгрий",
          "name:mrj": "Венгри",
          "name:myv": "Мадьяронь Мастор",
          "name:mzn": "مجارستون",
          "name:nah": "Hungria",
          "name:nan": "Magyar-kok",
          "name:nap": "Ungaria",
          "name:nds": "Ungarn",
          "name:nov": "Hungaria",
          "name:nrm": "Hongrie",
          "name:pag": "Hungary",
          "name:pam": "Hungrya",
          "name:pap": "Hongaria",
          "name:pcd": "Hongrie",
          "name:pdc": "Ungarn",
          "name:pih": "Hungrii",
          "name:pms": "Ungherìa",
          "name:pnb": "ہنگری",
          "name:pnt": "Ουγγαρία",
          "name:rmy": "Ungariya",
          "name:rue": "Мадярьско",
          "name:sah": "Венгрия",
          "name:scn": "Unghirìa",
          "name:sco": "Hungary",
          "name:smn": "Unkari",
          "name:sms": "Unkar",
          "name:stq": "Ungarn",
          "name:szl": "Madziary",
          "name:tet": "Ungria",
          "name:tok": "ma Mosijo",
          "name:tpi": "Hangari",
          "name:tzl": "Máxharphäts",
          "name:udm": "Венгрия",
          "name:vec": "Ongarìa",
          "name:vep": "Mad'jaranma",
          "name:vls": "Hongareye",
          "name:vro": "Ungari",
          "name:war": "Hungarya",
          "name:wuu": "匈牙利",
          "name:xal": "Хунһармудин Орн",
          "name:xmf": "უნგრეთი",
          "name:yue": "匈牙利",
          "name:zea": "Honharije",
          "timezone": "Europe/Budapest",
          "way_area": "11.0349",
          "wikidata": "Q28",
          "ISO3166-1": "HU",
          "land_area": "administrative",
          "wikipedia": "hu:Magyarország",
          "admin_level": "2",
          "alt_name:eo": "Hungarujo",
          "alt_name:vi": "Hung-ga-ri",
          "name:nds-nl": "Hongaarnlaand",
          "old_name:vi": "Hung Gia Lợi",
          "alt_name:lfn": "Ungaria",
          "name:bat-smg": "Vengrėjė",
          "name:roa-rup": "Ungaria",
          "name:sr-Latn": "Mađarska",
          "name:zh-Hans": "匈牙利",
          "name:zh-Hant": "匈牙利",
          "name:roa-tara": "Ungherie",
          "name:be-tarask": "Вугоршчына",
          "name:zh_pinyin": "Xiōngyálì",
          "ISO3166-1:alpha2": "HU",
          "ISO3166-1:alpha3": "HUN",
          "default_language": "hu",
          "ISO3166-1:numeric": "348",
          "country_code_fips": "HU",
          "old_name:-2011-12-31": "Magyar Köztársaság",
          "old_name:be:-2011-12-31": "Венгерская Рэспубліка",
          "old_name:cs:-2011-12-31": "Maďarská republika",
          "old_name:el:-2011-12-31": "Δημοκρατία της Ουγγαρίας",
          "old_name:en:-2011-12-31": "Republic of Hungary",
          "old_name:es:-2011-12-31": "República de Hungría",
          "old_name:et:-2011-12-31": "Ungari Vabariik",
          "old_name:fr:-2011-12-31": "République de Hongrie",
          "old_name:id:-2011-12-31": "Republik Hongaria",
          "old_name:it:-2011-12-31": "Repubblica d'Ungheria",
          "old_name:ja:-2011-12-31": "ハンガリー共和国",
          "old_name:ku:-2011-12-31": "Komara Macaristanê",
          "old_name:lb:-2011-12-31": "Republik Ungarn",
          "old_name:lt:-2011-12-31": "Vengrijos Respublika",
          "old_name:lv:-2011-12-31": "Ungārijas Republika",
          "old_name:pl:-2011-12-31": "Republika Węgier",
          "old_name:ru:-2011-12-31": "Венге́рская Респу́блика",
          "old_name:sk:-2011-12-31": "Maďarská republika",
          "old_name:sr:-2011-12-31": "Република Мађарска",
          "old_name:sv:-2011-12-31": "Republiken Ungern",
          "old_name:vi:-2011-12-31": "Cộng Hòa Hungary"
        }
      },
      "geometry": {
        "type": "Polygon",
        "coordinates": [
          [
            [
              19,
              46
            ],
            [
              19.065671202353606,
              46
            ],
            [
              19.0656569,
              46.0000364
            ],
            [
              19.0730327,
              46.0066447
            ],
            [
              19.0760069,
              46.0099686
            ],
            [
              19.090097,
              46.0237999
            ],
            [
              19.1009562,
              46.0353297
            ],
            [
              19.10459,
              46.0400025
            ],
            [
              19.105068,
              46.0397853
            ],
            [
              19.1136395,
              46.0379544
            ],
            [
              19.1337859,
              46.0371064
            ],
            [
              19.1391006,
              46.0277623
            ],
            [
              19.1445001,
              46.0124125
            ],
            [
              19.1472095,
              46.0080098
            ],
            [
              19.1456915,
              46.0013992
            ],
            [
              19.146165243123853,
              46
            ],
            [
              19.294832504869714,
              46
            ],
            [
              19.285155,
              46.0103581
            ],
            [
              19.2816008,
              46.0145217
            ],
            [
              19.364162,
              46.0521699
            ],
            [
              19.3693805,
              46.0478369
            ],
            [
              19.3801798,
              46.0358061
            ],
            [
              19.3950701,
              46.0419678
            ],
            [
              19.4083186,
              46.0442588
            ],
            [
              19.4154393,
              46.0457307
            ],
            [
              19.4230059,
              46.0549398
            ],
            [
              19.4330976,
              46.0622432
            ],
            [
              19.4382518,
              46.0661783
            ],
            [
              19.440984,
              46.067873
            ],
            [
              19.4490755,
              46.0724171
            ],
            [
              19.4665282,
              46.081649
            ],
            [
              19.4669294,
              46.089006
            ],
            [
              19.4644229,
              46.0952749
            ],
            [
              19.4707825,
              46.0965902
            ],
            [
              19.4713281,
              46.097744
            ],
            [
              19.4735442,
              46.0986942
            ],
            [
              19.4767619,
              46.1004848
            ],
            [
              19.4803497,
              46.1017651
            ],
            [
              19.4818399,
              46.1048042
            ],
            [
              19.4850057,
              46.1047375
            ],
            [
              19.4857724,
              46.1034945
            ],
            [
              19.4897417,
              46.1046705
            ],
            [
              19.4914073,
              46.1054046
            ],
            [
              19.4959525,
              46.1069619
            ],
            [
              19.5089664,
              46.1107236
            ],
            [
              19.5225381,
              46.1180513
            ],
            [
              19.5270685,
              46.1209367
            ],
            [
              19.510374,
              46.1319442
            ],
            [
              19.5080822,
              46.133599
            ],
            [
              19.5074731,
              46.13463
            ],
            [
              19.5094421,
              46.1373526
            ],
            [
              19.502454,
              46.1420863
            ],
            [
              19.5133766,
              46.1491872
            ],
            [
              19.5131308,
              46.1493828
            ],
            [
              19.5167587,
              46.1517353
            ],
            [
              19.5265629,
              46.1476923
            ],
            [
              19.5303949,
              46.150229
            ],
            [
              19.5305808,
              46.1501012
            ],
            [
              19.5338513,
              46.1522275
            ],
            [
              19.5344803,
              46.1518824
            ],
            [
              19.5604429,
              46.1662977
            ],
            [
              19.5586322,
              46.168016
            ],
            [
              19.5631693,
              46.1697583
            ],
            [
              19.5598325,
              46.1739294
            ],
            [
              19.5642619,
              46.1756179
            ],
            [
              19.5631497,
              46.1769784
            ],
            [
              19.5676294,
              46.1787179
            ],
            [
              19.6055112,
              46.1731399
            ],
            [
              19.606366,
              46.1721282
            ],
            [
              19.6079765,
              46.1727729
            ],
            [
              19.6314762,
              46.1692611
            ],
            [
              19.6315021,
              46.1694898
            ],
            [
              19.6615385,
              46.1902839
            ],
            [
              19.6638492,
              46.1892546
            ],
            [
              19.6649294,
              46.1872743
            ],
            [
              19.6679328,
              46.1851059
            ],
            [
              19.6695821,
              46.184251
            ],
            [
              19.6697504,
              46.1860199
            ],
            [
              19.6702835,
              46.1867916
            ],
            [
              19.6722004,
              46.1855847
            ],
            [
              19.6732719,
              46.1841165
            ],
            [
              19.6758493,
              46.1829493
            ],
            [
              19.6765567,
              46.1820726
            ],
            [
              19.6780785,
              46.1817868
            ],
            [
              19.6799142,
              46.1809274
            ],
            [
              19.6819938,
              46.1803344
            ],
            [
              19.6825437,
              46.1799668
            ],
            [
              19.6844609,
              46.179909
            ],
            [
              19.6849051,
              46.1801687
            ],
            [
              19.6857177,
              46.1800609
            ],
            [
              19.6865235,
              46.1803422
            ],
            [
              19.6868934,
              46.1810895
            ],
            [
              19.686297,
              46.1820297
            ],
            [
              19.696453,
              46.187677
            ],
            [
              19.6980954,
              46.1881615
            ],
            [
              19.6998298,
              46.1874615
            ],
            [
              19.7007843,
              46.1866738
            ],
            [
              19.7019883,
              46.1852353
            ],
            [
              19.703298,
              46.1839813
            ],
            [
              19.7176724,
              46.1759806
            ],
            [
              19.7174101,
              46.1750673
            ],
            [
              19.7179942,
              46.1741885
            ],
            [
              19.7175239,
              46.1732442
            ],
            [
              19.7179406,
              46.1715819
            ],
            [
              19.7218051,
              46.1695877
            ],
            [
              19.7247592,
              46.1692721
            ],
            [
              19.726121,
              46.168266
            ],
            [
              19.7270598,
              46.1681038
            ],
            [
              19.7303053,
              46.1688606
            ],
            [
              19.7327051,
              46.1701338
            ],
            [
              19.7340335,
              46.1698249
            ],
            [
              19.741041,
              46.1656458
            ],
            [
              19.7447558,
              46.1603514
            ],
            [
              19.7484024,
              46.1564859
            ],
            [
              19.7498262,
              46.1556361
            ],
            [
              19.7530693,
              46.1524758
            ],
            [
              19.7557647,
              46.1502338
            ],
            [
              19.757239,
              46.149217
            ],
            [
              19.7584888,
              46.1478743
            ],
            [
              19.7616286,
              46.1465662
            ],
            [
              19.7656265,
              46.1460259
            ],
            [
              19.7680684,
              46.1449764
            ],
            [
              19.7717827,
              46.144152
            ],
            [
              19.7755723,
              46.1439609
            ],
            [
              19.7806854,
              46.1445304
            ],
            [
              19.7828984,
              46.1436662
            ],
            [
              19.7848598,
              46.1426921
            ],
            [
              19.7871586,
              46.1411667
            ],
            [
              19.7915018,
              46.1393009
            ],
            [
              19.7919439,
              46.1392855
            ],
            [
              19.7930986,
              46.1400417
            ],
            [
              19.7935632,
              46.1401779
            ],
            [
              19.7951874,
              46.1394729
            ],
            [
              19.7973065,
              46.1394639
            ],
            [
              19.7981298,
              46.138943
            ],
            [
              19.7980168,
              46.1385685
            ],
            [
              19.7995002,
              46.1363786
            ],
            [
              19.8017284,
              46.1349509
            ],
            [
              19.8049873,
              46.1335286
            ],
            [
              19.8062376,
              46.1331776
            ],
            [
              19.8082851,
              46.1319399
            ],
            [
              19.8125725,
              46.1312818
            ],
            [
              19.8141569,
              46.1304416
            ],
            [
              19.8166724,
              46.1284652
            ],
            [
              19.8178337,
              46.1277866
            ],
            [
              19.8218397,
              46.1304195
            ],
            [
              19.8442445,
              46.1414042
            ],
            [
              19.8495182,
              46.1457372
            ],
            [
              19.8526973,
              46.1494536
            ],
            [
              19.8531941,
              46.1497905
            ],
            [
              19.8627122,
              46.1500232
            ],
            [
              19.8733725,
              46.1513556
            ],
            [
              19.881985,
              46.1542083
            ],
            [
              19.8978213,
              46.1598806
            ],
            [
              19.9053309,
              46.1615643
            ],
            [
              19.9102354,
              46.1630491
            ],
            [
              19.9148804,
              46.1639849
            ],
            [
              19.9218436,
              46.1669527
            ],
            [
              19.9279217,
              46.1709708
            ],
            [
              19.9351389,
              46.1761932
            ],
            [
              19.965342,
              46.1757516
            ],
            [
              19.9722758,
              46.1759767
            ],
            [
              19.9725622,
              46.1758619
            ],
            [
              19.9884824,
              46.1759375
            ],
            [
              20,
              46.17621408916125
            ],
            [
              20,
              47
            ],
            [
              19,
              47
            ],
            [
              19,
              46
            ]
          ]
        ]
      }
    },
    {
      "type": "Feature",
      "properties": {
        "osm_id": -1741311,
        "boundary": "administrative",
        "admin_level": 2,
        "parents": null,
        "name": "Serbia",
        "local_name": "Србија",
        "name_en": "Serbia",
        "all_tags": {
          "flag": "https://upload.wikimedia.org/wikipedia/commons/f/ff/Flag_of_Serbia.svg",
          "name": "Србија",
          "name:af": "Serwië",
          "name:am": "ሰርቢያ",
          "name:an": "Serbia",
          "name:ar": "صربيا",
          "name:ay": "Sirwiya",
          "name:az": "Serbiya",
          "name:ba": "Сербия",
          "name:be": "Сербія",
          "name:bg": "Сърбия",
          "name:bi": "Serbia",
          "name:bn": "সার্বিয়া",
          "name:bo": "སེར་བྷི་ཡ།",
          "name:br": "Serbia",
          "name:bs": "Srbija",
          "name:ca": "Sèrbia",
          "name:ce": "Серби",
          "name:co": "Serbia",
          "name:cs": "Srbsko",
          "name:cu": "Срьбїꙗ",
          "name:cv": "Серби",
          "name:cy": "Serbia",
          "name:da": "Serbien",
          "name:de": "Serbien",
          "name:dv": "ސާބިއާ",
          "name:ee": "Serbia",
          "name:el": "Σερβία",
          "name:en": "Serbia",
          "name:eo": "Serbio",
          "name:es": "Serbia",
          "name:et": "Serbia",
          "name:eu": "Serbia",
          "name:fa": "صربستان",
          "name:fi": "Serbia",
          "name:fo": "Serbia",
          "name:fr": "Serbie",
          "name:fy": "Servje",
          "name:ga": "An tSeirbia",
          "name:gd": "An t-Sèirb",
          "name:gl": "Serbia",
          "name:gn": "Sevia",
          "name:gv": "Yn Serb",
          "name:he": "סרביה",
          "name:hi": "सर्बिया",
          "name:hr": "Srbija",
          "name:ht": "Sèbi",
          "name:hu": "Szerbia",
          "name:hy": "Սերբիա",
          "name:ia": "Serbia",
          "name:id": "Serbia",
          "name:ie": "Serbia",
          "name:io": "Serbia",
          "name:is": "Serbía",
          "name:it": "Serbia",
          "name:ja": "セルビア",
          "name:jv": "Serbia",
          "name:ka": "სერბეთი",
          "name:kg": "Serbie",
          "name:kk": "Сербия",
          "name:kl": "Serbia",
          "name:ko": "세르비아",
          "name:ku": "Serbistan",
          "name:kv": "Сербия",
          "name:kw": "Serbi",
          "name:ky": "Сербия",
          "name:la": "Serbia",
          "name:lb": "Serbien",
          "name:li": "Servië",
          "name:ln": "Serbia",
          "name:lt": "Serbija",
          "name:lv": "Serbija",
          "name:mg": "Serbia",
          "name:mi": "Serbia",
          "name:mk": "Србија",
          "name:ml": "സെർബിയ",
          "name:mn": "Серби",
          "name:mr": "सर्बिया",
          "name:ms": "Serbia",
          "name:mt": "Serbja",
          "name:my": "ဆားဘီးယားနိုင်ငံ",
          "name:na": "Terbiya",
          "name:ne": "सर्बिया",
          "name:nl": "Servië",
          "name:nn": "Serbia",
          "name:no": "Serbia",
          "name:oc": "Serbia",
          "name:or": "ସର୍ବିଆ",
          "name:os": "Серби",
          "name:pa": "ਸਰਬੀਆ",
          "name:pl": "Serbia",
          "name:ps": "سربيا",
          "name:pt": "Sérvia",
          "name:qu": "Sirbya",
          "name:rm": "Serbia",
          "name:ro": "Serbia",
          "name:ru": "Сербия",
          "name:rw": "Seribiya",
          "name:sa": "सर्बिया",
          "name:sc": "Sèrbia",
          "name:se": "Serbia",
          "name:sh": "Srbija",
          "name:sk": "Srbsko",
          "name:sl": "Srbija",
          "name:sm": "Serbia",
          "name:so": "Serbia",
          "name:sq": "Serbia",
          "name:sr": "Србија",
          "name:ss": "ISebhiya",
          "name:st": "Serbia",
          "name:su": "Sérbia",
          "name:sv": "Serbien",
          "name:sw": "Serbia",
          "name:ta": "செர்பியா",
          "name:te": "సెర్బియా",
          "name:tg": "Сербия",
          "name:th": "ประเทศเซอร์เบีย",
          "name:tk": "Serbiýa",
          "name:tl": "Serbiya",
          "name:tr": "Sırbistan",
          "name:tt": "Сербия",
          "name:tw": "Serbia",
          "name:ty": "Terepia",
          "name:ug": "Sérbiye",
          "name:uk": "Сербія",
          "name:ur": "سروبا",
          "name:uz": "Serbiya",
          "name:vi": "Serbia",
          "name:vo": "Särbän",
          "name:wo": "Seerbi",
          "name:yi": "סערביע",
          "name:yo": "Sérbíà",
          "name:zh": "塞爾維亞",
          "name:zu": "ISerbiya",
          "boundary": "administrative",
          "int_name": "Serbia",
          "name:ace": "Sèrbia",
          "name:als": "Serbien",
          "name:ang": "Serbia",
          "name:arc": "ܣܪܒܝܐ",
          "name:arz": "صيربيا",
          "name:ast": "Serbia",
          "name:bar": "Serbien",
          "name:bcl": "Serbya",
          "name:bpy": "সার্বিয়া",
          "name:bxr": "Серби",
          "name:ceb": "Serbya",
          "name:chr": "ᏒᏈᏯ",
          "name:chy": "Serbia",
          "name:ckb": "سربیا",
          "name:crh": "Sırbistan",
          "name:csb": "Serbskô",
          "name:diq": "Sırbıstan",
          "name:dsb": "Serbiska",
          "name:ext": "Sérbia",
          "name:frp": "Sèrbie",
          "name:frr": "Serbien",
          "name:gag": "Serbiya",
          "name:haw": "Seripia",
          "name:hif": "Serbia",
          "name:hsb": "Serbiska",
          "name:ilo": "Serbia",
          "name:jbo": "serbias",
          "name:kaa": "Serbiya",
          "name:kab": "Serbi",
          "name:kbd": "Сербиэ",
          "name:koi": "Сӧрбия",
          "name:krc": "Сербия",
          "name:ksh": "Serbien",
          "name:lad": "Serbia",
          "name:lij": "Serbia",
          "name:lmo": "Serbia",
          "name:ltg": "Serbeja",
          "name:lzh": "塞爾維亞",
          "name:mdf": "Сербие",
          "name:mhr": "Сербий",
          "name:nah": "Serbia",
          "name:nan": "Srbija",
          "name:nap": "Serbia",
          "name:nds": "Serbien",
          "name:nov": "Serbia",
          "name:nrm": "Sèrbie",
          "name:pap": "Serbia",
          "name:pcd": "Serbie",
          "name:pih": "Serbya",
          "name:pms": "Serbia",
          "name:pnb": "سربیا",
          "name:pnt": "Σερβία",
          "name:rue": "Сербія",
          "name:sah": "Сербия",
          "name:scn": "Serbia",
          "name:sco": "Serbie",
          "name:smn": "Serbia",
          "name:sms": "Serbia",
          "name:stq": "Serbien",
          "name:szl": "Syrbijŏ",
          "name:tpi": "Sebia",
          "name:tzl": "Siarvia",
          "name:vec": "Servia",
          "name:vep": "Serbii",
          "name:vls": "Servië",
          "name:vro": "Serbiä",
          "name:war": "Serbia",
          "name:wuu": "塞尔维亚",
          "name:xal": "Серпудин Орн",
          "name:xmf": "სერბეთი",
          "name:yue": "塞爾維亞",
          "name:zea": "Servië",
          "timezone": "Europe/Belgrade",
          "way_area": "8.74158",
          "wikidata": "Q403",
          "ISO3166-1": "RS",
          "headlight": "required",
          "land_area": "administrative",
          "wikipedia": "sr:Србија",
          "population": "6647003",
          "admin_level": "2",
          "alt_name:eo": "Serbujo",
          "alt_name:ur": "سرویا;سرویہ",
          "name:nds-nl": "Servië",
          "driving_side": "right",
          "name:bat-smg": "Serbėjė",
          "name:cbk-zam": "Serbia",
          "name:roa-rup": "Sărghia",
          "name:sr-Latn": "Srbija",
          "name:zh-Hans": "塞尔维亚",
          "name:zh-Hant": "塞爾維亞",
          "name:roa-tara": "Serbie",
          "official_name": "Република Србија",
          "ref:RS:drzave": "RS",
          "name:be-tarask": "Сэрбія",
          "according_to:CN": "no",
          "according_to:ES": "no",
          "according_to:IN": "no",
          "according_to:RS": "no",
          "according_to:RU": "no",
          "according_to:UA": "no",
          "according_to:XK": "yes",
          "population:date": "2022",
          "ISO3166-1:alpha2": "RS",
          "ISO3166-1:alpha3": "SRB",
          "default_language": "sr",
          "official_name:cs": "Srbská republika",
          "official_name:de": "Republik Serbien",
          "official_name:el": "Δημοκρατία της Σερβίας",
          "official_name:en": "Republic of Serbia",
          "official_name:eo": "Respubliko Serbio",
          "official_name:es": "República de Serbia",
          "official_name:fr": "République de Serbie",
          "official_name:ru": "Республика Сербия",
          "official_name:sr": "Република Србија",
          "ISO3166-1:numeric": "688",
          "official_name:sr-Latn": "Republika Srbija",
          "population:census:2022": "6647003"
        }
      },
      "geometry": {
        "type": "MultiPolygon",
        "coordinates": [
          [
            [
              [
                19.0656569,
                46.0000364
              ],
              [
                19.065671202353606,
                46
              ],
              [
                19.146165243123853,
                46
              ],
              [
                19.1456915,
                46.0013992
              ],
              [
                19.1472095,
                46.0080098
              ],
              [
                19.1445001,
                46.0124125
              ],
              [
                19.1391006,
                46.0277623
              ],
              [
                19.1337859,
                46.0371064
              ],
              [
                19.1136395,
                46.0379544
              ],
              [
                19.105068,
                46.0397853
              ],
              [
                19.10459,
                46.0400025
              ],
              [
                19.1009562,
                46.0353297
              ],
              [
                19.090097,
                46.0237999
              ],
              [
                19.0760069,
                46.0099686
              ],
              [
                19.0730327,
                46.0066447
              ],
              [
                19.0656569,
                46.0000364
              ]
            ]
          ],
          [
            [
              [
                19.2816008,
                46.0145217
              ],
              [
                19.285155,
                46.0103581
              ],
              [
                19.294832504869714,
                46
              ],
              [
                20,
                46
              ],
              [
                20,
                46.17621408916125
              ],
              [
                19.9884824,
                46.1759375
              ],
              [
                19.9725622,
                46.1758619
              ],
              [
                19.9722758,
                46.1759767
              ],
              [
                19.965342,
                46.1757516
              ],
              [
                19.9351389,
                46.1761932
              ],
              [
                19.9279217,
                46.1709708
              ],
              [
                19.9218436,
                46.1669527
              ],
              [
                19.9148804,
                46.1639849
              ],
              [
                19.9102354,
                46.1630491
              ],
              [
                19.9053309,
                46.1615643
              ],
              [
                19.8978213,
                46.1598806
              ],
              [
                19.881985,
                46.1542083
              ],
              [
                19.8733725,
                46.1513556
              ],
              [
                19.8627122,
                46.1500232
              ],
              [
                19.8531941,
                46.1497905
              ],
              [
                19.8526973,
                46.1494536
              ],
              [
                19.8495182,
                46.1457372
              ],
              [
                19.8442445,
                46.1414042
              ],
              [
                19.8218397,
                46.1304195
              ],
              [
                19.8178337,
                46.1277866
              ],
              [
                19.8166724,
                46.1284652
              ],
              [
                19.8141569,
                46.1304416
              ],
              [
                19.8125725,
                46.1312818
              ],
              [
                19.8082851,
                46.1319399
              ],
              [
                19.8062376,
                46.1331776
              ],
              [
                19.8049873,
                46.1335286
              ],
              [
                19.8017284,
                46.1349509
              ],
              [
                19.7995002,
                46.1363786
              ],
              [
                19.7980168,
                46.1385685
              ],
              [
                19.7981298,
                46.138943
              ],
              [
                19.7973065,
                46.1394639
              ],
              [
                19.7951874,
                46.1394729
              ],
              [
                19.7935632,
                46.1401779
              ],
              [
                19.7930986,
                46.1400417
              ],
              [
                19.7919439,
                46.1392855
              ],
              [
                19.7915018,
                46.1393009
              ],
              [
                19.7871586,
                46.1411667
              ],
              [
                19.7848598,
                46.1426921
              ],
              [
                19.7828984,
                46.1436662
              ],
              [
                19.7806854,
                46.1445304
              ],
              [
                19.7755723,
                46.1439609
              ],
              [
                19.7717827,
                46.144152
              ],
              [
                19.7680684,
                46.1449764
              ],
              [
                19.7656265,
                46.1460259
              ],
              [
                19.7616286,
                46.1465662
              ],
              [
                19.7584888,
                46.1478743
              ],
              [
                19.757239,
                46.149217
              ],
              [
                19.7557647,
                46.1502338
              ],
              [
                19.7530693,
                46.1524758
              ],
              [
                19.7498262,
                46.1556361
              ],
              [
                19.7484024,
                46.1564859
              ],
              [
                19.7447558,
                46.1603514
              ],
              [
                19.741041,
                46.1656458
              ],
              [
                19.7340335,
                46.1698249
              ],
              [
                19.7327051,
                46.1701338
              ],
              [
                19.7303053,
                46.1688606
              ],
              [
                19.7270598,
                46.1681038
              ],
              [
                19.726121,
                46.168266
              ],
              [
                19.7247592,
                46.1692721
              ],
              [
                19.7218051,
                46.1695877
              ],
              [
                19.7179406,
                46.1715819
              ],
              [
                19.7175239,
                46.1732442
              ],
              [
                19.7179942,
                46.1741885
              ],
              [
                19.7174101,
                46.1750673
              ],
              [
                19.7176724,
                46.1759806
              ],
              [
                19.703298,
                46.1839813
              ],
              [
                19.7019883,
                46.1852353
              ],
              [
                19.7007843,
                46.1866738
              ],
              [
                19.6998298,
                46.1874615
              ],
              [
                19.6980954,
                46.1881615
              ],
              [
                19.696453,
                46.187677
              ],
              [
                19.686297,
                46.1820297
              ],
              [
                19.6868934,
                46.1810895
              ],
              [
                19.6865235,
                46.1803422
              ],
              [
                19.6857177,
                46.1800609
              ],
              [
                19.6849051,
                46.1801687
              ],
              [
                19.6844609,
                46.179909
              ],
              [
                19.6825437,
                46.1799668
              ],
              [
                19.6819938,
                46.1803344
              ],
              [
                19.6799142,
                46.1809274
              ],
              [
                19.6780785,
                46.1817868
              ],
              [
                19.6765567,
                46.1820726
              ],
              [
                19.6758493,
                46.1829493
              ],
              [
                19.6732719,
                46.1841165
              ],
              [
                19.6722004,
                46.1855847
              ],
              [
                19.6702835,
                46.1867916
              ],
              [
                19.6697504,
                46.1860199
              ],
              [
                19.6695821,
                46.184251
              ],
              [
                19.6679328,
                46.1851059
              ],
              [
                19.6649294,
                46.1872743
              ],
              [
                19.6638492,
                46.1892546
              ],
              [
                19.6615385,
                46.1902839
              ],
              [
                19.6315021,
                46.1694898
              ],
              [
                19.6314762,
                46.1692611
              ],
              [
                19.6079765,
                46.1727729
              ],
              [
                19.606366,
                46.1721282
              ],
              [
                19.6055112,
                46.1731399
              ],
              [
                19.5676294,
                46.1787179
              ],
              [
                19.5631497,
                46.1769784
              ],
              [
                19.5642619,
                46.1756179
              ],
              [
                19.5598325,
                46.1739294
              ],
              [
                19.5631693,
                46.1697583
              ],
              [
                19.5586322,
                46.168016
              ],
              [
                19.5604429,
                46.1662977
              ],
              [
                19.5344803,
                46.1518824
              ],
              [
                19.5338513,
                46.1522275
              ],
              [
                19.5305808,
                46.1501012
              ],
              [
                19.5303949,
                46.150229
              ],
              [
                19.5265629,
                46.1476923
              ],
              [
                19.5167587,
                46.1517353
              ],
              [
                19.5131308,
                46.1493828
              ],
              [
                19.5133766,
                46.1491872
              ],
              [
                19.502454,
                46.1420863
              ],
              [
                19.5094421,
                46.1373526
              ],
              [
                19.5074731,
                46.13463
              ],
              [
                19.5080822,
                46.133599
              ],
              [
                19.510374,
                46.1319442
              ],
              [
                19.5270685,
                46.1209367
              ],
              [
                19.5225381,
                46.1180513
              ],
              [
                19.5089664,
                46.1107236
              ],
              [
                19.4959525,
                46.1069619
              ],
              [
                19.4914073,
                46.1054046
              ],
              [
                19.4897417,
                46.1046705
              ],
              [
                19.4857724,
                46.1034945
              ],
              [
                19.4850057,
                46.1047375
              ],
              [
                19.4818399,
                46.1048042
              ],
              [
                19.4803497,
                46.1017651
              ],
              [
                19.4767619,
                46.1004848
              ],
              [
                19.4735442,
                46.0986942
              ],
              [
                19.4713281,
                46.097744
              ],
              [
                19.4707825,
                46.0965902
              ],
              [
                19.4644229,
                46.0952749
              ],
              [
                19.4669294,
                46.089006
              ],
              [
                19.4665282,
                46.081649
              ],
              [
                19.4490755,
                46.0724171
              ],
              [
                19.440984,
                46.067873
              ],
              [
                19.4382518,
                46.0661783
              ],
              [
                19.4330976,
                46.0622432
              ],
              [
                19.4230059,
                46.0549398
              ],
              [
                19.4154393,
                46.0457307
              ],
              [
                19.4083186,
                46.0442588
              ],
              [
                19.3950701,
                46.0419678
              ],
              [
                19.3801798,
                46.0358061
              ],
              [
                19.3693805,
                46.0478369
              ],
              [
                19.364162,
                46.0521699
              ],
              [
                19.2816008,
                46.0145217
              ]
            ]
          ]
        ]
      }
    }
  ]
}