{
  "type": "FeatureCollection",
  "features": [
    {
      "type": "Feature",
      "properties": {
        "osm_id": -184629,
        "boundary": "administrative",
        "admin_level": 2,
        "parents": null,
        "name": "Bhutan",
        "local_name": "‡Ω†‡Ωñ‡æ≤‡Ω¥‡ΩÇ‡Ω°‡Ω¥‡Ω£‡ºã",
        "name_en": "Bhutan",
        "all_tags": {
          "flag": "http://upload.wikimedia.org/wikipedia/commons/9/91/Flag_of_Bhutan.svg",
          "name": "‡Ω†‡Ωñ‡æ≤‡Ω¥‡ΩÇ‡Ω°‡Ω¥‡Ω£‡ºã",
          "name:ab": "–ë—É—Ç–∞–Ω",
          "name:af": "Bhoetan",
          "name:ak": "Butan",
          "name:am": "·â°·â≥·äï",
          "name:an": "But√°n",
          "name:ar": "ÿ®Ÿàÿ™ÿßŸÜ",
          "name:as": "‡¶≠‡ßÇ‡¶ü‡¶æ‡¶®",
          "name:az": "Butan",
          "name:ba": "–ë—É—Ç–∞ÃÅ–Ω",
          "name:be": "–ë—É—Ç–∞–Ω",
          "name:bg": "–ë—É—Ç–∞–Ω",
          "name:bh": "‡§≠‡•Ç‡§ü‡§æ‡§®",
          "name:bi": "Bhutan",
          "name:bn": "‡¶≠‡ßÅ‡¶ü‡¶æ‡¶®",
          "name:bo": "‡Ω†‡Ωñ‡æ≤‡Ω¥‡ΩÇ‡ºã‡Ω°‡Ω¥‡Ω£‡ºç",
          "name:br": "Bhoutan",
          "name:bs": "Butan",
          "name:ca": "Bhutan",
          "name:ce": "–ë—É—Ç–∞–Ω",
          "name:cs": "Bh√∫t√°n",
          "name:cv": "–ë—É—Ç–∞–Ω",
          "name:cy": "Bhwtan",
          "name:da": "Bhutan",
          "name:de": "Bhutan",
          "name:dv": "ﬁÑﬁ´ﬁìﬁßﬁÇﬁ∞",
          "name:dz": "‡Ω†‡Ωñ‡æ≤‡Ω¥‡ΩÇ‡Ω°‡Ω¥‡Ω£‡ºã",
          "name:el": "ŒúœÄŒøœÖœÑŒ¨ŒΩ",
          "name:en": "Bhutan",
          "name:eo": "Butano",
          "name:es": "But√°n",
          "name:et": "Bhutan",
          "name:eu": "Bhutan",
          "name:fa": "ÿ®Ÿàÿ™ÿßŸÜ",
          "name:ff": "Butaan",
          "name:fi": "Bhutan",
          "name:fo": "Butan",
          "name:fr": "Bhoutan",
          "name:fy": "B√ªtan",
          "name:ga": "an Bh√∫t√°in",
          "name:gd": "But√†n",
          "name:gl": "But√°n",
          "name:gn": "Vut√£",
          "name:gr": "Œí·ΩÅœÖœÑŒ¨ŒΩŒ∑",
          "name:gu": "‡™≠‡´Ç‡™§‡™æ‡™®",
          "name:gv": "yn Vutaan",
          "name:ha": "Bhutan",
          "name:he": "◊ë◊î◊ï◊ò◊ü",
          "name:hi": "‡§≠‡•Ç‡§ü‡§æ‡§®",
          "name:hr": "Butan",
          "name:ht": "Boutan",
          "name:hu": "Bhut√°n",
          "name:hy": "‘≤’∏÷Ç’©’°’∂",
          "name:ia": "Bhutan",
          "name:id": "Bhutan",
          "name:ie": "Bhutan",
          "name:io": "Bhutan",
          "name:is": "B√∫tan",
          "name:it": "Bhutan",
          "name:ja": "„Éñ„Éº„Çø„É≥",
          "name:jv": "Bhutan",
          "name:ka": "·Éë·É∞·É£·É¢·Éê·Éú·Éò",
          "name:kg": "Bhutan",
          "name:ki": "Bhutan",
          "name:kk": "–ë—É—Ç–∞–Ω",
          "name:kl": "Bhutan",
          "name:km": "·ûî·üä·ûº·ûè·û∂·ûì",
          "name:kn": "‡≤≠‡≥Ç‡≤§‡≤æ‡≤®‡≥ç",
          "name:ko": "Î∂ÄÌÉÑ",
          "name:ks": "ÿ®ŸàŸóŸπÿßŸÜ",
          "name:ku": "B√ªtan",
          "name:kv": "–ë—É—Ç–∞–Ω",
          "name:kw": "Bhoutan",
          "name:ky": "–ë—É—Ç–∞–Ω",
          "name:la": "Butania",
          "name:lb": "Bhutan",
          "name:lg": "Butaani",
          "name:li": "Bhutan",
          "name:ln": "But√°ni",
          "name:lo": "‡∫ö‡∫π‡∫ï‡∫≤‡∫ô",
          "name:lt": "Butanas",
          "name:lv": "ButƒÅna",
          "name:mg": "Bot√†na",
          "name:mi": "PutƒÅna",
          "name:mk": "–ë—É—Ç–∞–Ω",
          "name:ml": "‡¥≠‡µÇ‡¥ü‡µç‡¥ü‡¥æ‡µª",
          "name:mn": "–ë—É—Ç–∞–Ω",
          "name:mr": "‡§≠‡•Ç‡§§‡§æ‡§®",
          "name:ms": "Bhutan",
          "name:mt": "Butan",
          "name:my": "·Äò·Ä∞·Äê·Äî·Ä∫·Äî·Ä≠·ÄØ·ÄÑ·Ä∫·ÄÑ·Ä∂",
          "name:na": "Butan",
          "name:ne": "‡§≠‡•Ç‡§ü‡§æ‡§®",
          "name:nl": "Bhutan",
          "name:nn": "Bhutan",
          "name:no": "Bhutan",
          "name:nv": "Bik√©yah",
          "name:oc": "Botan",
          "name:om": "Buutan",
          "name:or": "‡¨≠‡≠Å‡¨ü‡¨æ‡¨®",
          "name:os": "–ë—É—Ç–∞–Ω",
          "name:pa": "‡®≠‡©Ç‡®ü‡®æ‡®®",
          "name:pi": "‡§≠‡•Ç‡§ü‡§æ‡§®",
          "name:pl": "Bhutan",
          "name:ps": "ÿ®Ÿàÿ™ÿßŸÜ",
          "name:pt": "But√£o",
          "name:qu": "Butan",
          "name:rm": "Bhutan",
          "name:rn": "Butani",
          "name:ro": "Bhutan",
          "name:ru": "–ë—É—Ç–∞–Ω",
          "name:rw": "Butani",
          "name:sa": "‡§≠‡•Ç‡§ü‡§æ‡§®",
          "name:se": "Bhutan",
          "name:sg": "But√§an",
          "name:sh": "Butan",
          "name:si": "‡∂∑‡∑ñ‡∂≠‡∑è‡∂±‡∂∫",
          "name:sk": "Bhut√°n",
          "name:sl": "Butan",
          "name:sn": "Bhutan",
          "name:so": "Butaan",
          "name:sq": "Butani",
          "name:sr": "–ë—É—Ç–∞–Ω",
          "name:ss": "iBhuthani",
          "name:su": "Butan",
          "name:sv": "Bhutan",
          "name:sw": "Bhutan",
          "name:ta": "‡Æ™‡ØÇ‡Æü‡Øç‡Æü‡Ææ‡Æ©‡Øç",
          "name:te": "‡∞≠‡±Ç‡∞ü‡∞æ‡∞®‡±ç",
          "name:tg": "–ë—É—Ç–∞–Ω",
          "name:th": "‡∏õ‡∏£‡∏∞‡πÄ‡∏ó‡∏®‡∏†‡∏π‡∏è‡∏≤‡∏ô",
          "name:ti": "·â°·àÖ·â≥·äï",
          "name:tk": "Butan",
          "name:tl": "Butan",
          "name:to": "P≈´tani",
          "name:tr": "Bhutan",
          "name:tt": "–ë—É—Ç–∞–Ω",
          "name:tw": "Butan",
          "name:ug": "ÿ®€áÿ™ÿßŸÜ",
          "name:uk": "–ë—É—Ç–∞–Ω",
          "name:ur": "ÿ®⁄æŸàŸπÿßŸÜ",
          "name:uz": "Butan",
          "name:vi": "Bhutan",
          "name:vo": "But√§n",
          "name:wo": "Butaan",
          "name:yi": "◊ë◊î◊ï◊ò◊ê◊ü",
          "name:yo": "Bh√πt√°n",
          "name:za": "Budanh",
          "name:zh": "‰∏ç‰∏π",
          "name:zu": "i-Bhutan",
          "boundary": "administrative",
          "name:ace": "Bhutan",
          "name:ady": "–ë—É—Ç–∞–Ω",
          "name:als": "Bhutan",
          "name:ang": "Bhutan",
          "name:arz": "ÿ®Ÿàÿ™ÿßŸÜ",
          "name:ast": "But√°n",
          "name:azb": "ÿ®Ÿàÿ™ÿßŸÜ",
          "name:bar": "Bhutan",
          "name:bcl": "Butan",
          "name:bjn": "Bhutan",
          "name:bpy": "‡¶≠‡ßÅ‡¶ü‡¶æ‡¶®",
          "name:bxr": "–ë—É—Ç–∞–Ω",
          "name:cdo": "Bhutan",
          "name:ceb": "Bhutan",
          "name:chr": "·èä·èî·èÇ",
          "name:ckb": "ÿ®ŸàŸàÿ™ÿßŸÜ",
          "name:crh": "Butan",
          "name:csb": "Bhutan",
          "name:din": "But…õÃàn",
          "name:diq": "Butan",
          "name:dsb": "Bhutan",
          "name:dty": "‡§≠‡•Ç‡§ü‡§æ‡§®",
          "name:ext": "Bhut√°n",
          "name:frp": "Botan",
          "name:frr": "Bhuutaan",
          "name:fur": "Bhutan",
          "name:gag": "Butan",
          "name:gom": "‡§≠‡•Ç‡§§‡§æ‡§®",
          "name:grc": "Œí·ΩÅœÖœÑŒ¨ŒΩŒ∑",
          "name:hak": "Bhutan",
          "name:haw": "Butana",
          "name:hif": "Bhutan",
          "name:hsb": "Bhutan",
          "name:ilo": "Butan",
          "name:jam": "Buutan",
          "name:jbo": "butyn",
          "name:kaa": "Butan",
          "name:kab": "Butan",
          "name:ksh": "Buttaan",
          "name:lez": "–ë—É—Ç–∞–Ω",
          "name:lij": "Bhutan",
          "name:lmo": "Bhutan",
          "name:lrc": "ÿ®ŸàŸôÿ™ÿßŸÜ",
          "name:lzh": "‰∏ç‰∏π",
          "name:mai": "‡§≠‡•Å‡§ü‡§æ‡§®",
          "name:mwl": "Buton",
          "name:mzn": "ÿ®Ÿàÿ™ÿßŸÜ",
          "name:nah": "Butan",
          "name:nan": "Bhutan",
          "name:nap": "Bhutan",
          "name:nds": "Bhutan",
          "name:new": "‡§≠‡•Å‡§ü‡§æ‡§®",
          "name:nov": "Butan",
          "name:olo": "Butan",
          "name:pag": "Bhutan",
          "name:pam": "Butan",
          "name:pap": "Bhutan",
          "name:pcd": "Bhoutan",
          "name:pih": "Buuten",
          "name:pms": "Bhutan",
          "name:pnb": "ÿ®⁄æŸàŸπÿßŸÜ",
          "name:rue": "–ë–≥—É—Ç–∞–Ω",
          "name:sah": "–ë—É—Ç–∞–Ω",
          "name:scn": "Bhutan",
          "name:sco": "Bhutan",
          "name:smn": "Bhutan",
          "name:sms": "Bhutaan",
          "name:srn": "Butankondre",
          "name:stq": "Bhutan",
          "name:szl": "Bhutan",
          "name:tcy": "‡≤≠‡≥Ç‡≤§‡≤æ‡≤®‡≥ç",
          "name:tet": "Butaun",
          "name:tpi": "Bhutan",
          "name:tum": "Bhutan",
          "name:tzl": "Bhut√†",
          "name:udm": "–ë—É—Ç–∞–Ω",
          "name:vec": "Butan",
          "name:vep": "Butan",
          "name:vro": "Bhutan",
          "name:war": "Butan",
          "name:wuu": "‰∏ç‰∏π",
          "name:xal": "–ë—É—Ç–∞–Ω–º—É–¥–∏–Ω –ù—É—Ç–≥",
          "name:xmf": "·Éë·É∞·É£·É¢·Éê·Éú·Éò",
          "name:yue": "‰∏ç‰∏π",
          "name:zea": "Bhutan",
          "timezone": "Asia/Thimphu",
          "way_area": "3.45481",
          "wikidata": "Q917",
          "ISO3166-1": "BT",
          "wikipedia": "dz:‡Ω†‡Ωñ‡æ≤‡Ω¥‡ΩÇ",
          "admin_level": "2",
          "alt_name:gd": "Butan",
          "alt_name:it": "Butan",
          "alt_name:nl": "Bhoetan",
          "alt_name:uz": "Butan Qirolligi",
          "alt_name:war": "Bhutan",
          "driving_side": "left",
          "name:az-Arab": "ÿ®Ÿàÿ™ÿßŸÜ",
          "name:bat-smg": "Butans",
          "name:cbk-zam": "But√°n",
          "name:roa-rup": "Bhutan",
          "name:zh-Hans": "‰∏ç‰∏π",
          "name:zh-Hant": "‰∏ç‰∏π",
          "official_name": "‡Ω†‡Ωñ‡æ≤‡Ω¥‡ΩÇ‡ºã‡Ω¢‡æí‡æ±‡Ω£‡ºã‡ΩÅ‡Ωñ‡ºã",
          "name:be-tarask": "–ë—É—Ç–∞–Ω",
          "name:zh_pinyin": "B√πdƒÅn",
          "ISO3166-1:alpha2": "BT",
          "ISO3166-1:alpha3": "BTN",
          "default_language": "dz",
          "official_name:ab": "–ë—É—Ç–∞–Ω –∞–∫—Ä–∞ÃÅ–ª—Ä–∞",
          "official_name:af": "Koninkryk van Bhoetan",
          "official_name:am": "·â°·â≥·äï ·àò·äï·åç·à•·â±",
          "official_name:an": "Reino de But√°n",
          "official_name:ar": "ŸÖŸÖŸÑŸÉÿ© ÿ®Ÿàÿ™ÿßŸÜ",
          "official_name:as": "‡¶≠‡ßÅ‡¶ü‡¶æ‡¶® ‡¶∏‡¶Æ‡ßç‡ß∞‡¶æ‡¶ú‡ßç‡¶Ø",
          "official_name:az": "Butan Krallƒ±ƒüƒ±",
          "official_name:ba": "–ö–æ—Ä–æ–ª–µ–≤—Å—Ç–≤–æ –ë—É—Ç–∞–Ω",
          "official_name:be": "–ö–∞—Ä–∞–ª–µ—û—Å—Ç–≤–∞ –ë—É—Ç–∞–Ω",
          "official_name:bg": "–ö—Ä–∞–ª—Å—Ç–≤–æ –ë—É—Ç–∞–Ω",
          "official_name:bh": "‡§≠‡•Ç‡§ü‡§æ‡§® ‡§∞‡§æ‡§ú‡§§‡§Ç‡§§‡•ç‡§∞",
          "official_name:bn": "‡¶≠‡ßÇ‡¶ü‡¶æ‡¶® ‡¶∏‡¶æ‡¶Æ‡ßç‡¶∞‡¶æ‡¶ú‡ßç‡¶Ø",
          "official_name:bs": "Kraljevina Butan",
          "official_name:cs": "Bh√∫t√°nsk√© kr√°lovstv√≠",
          "official_name:cv": "–ë—É—Ç–∞–Ω –ø–∞—Ç—à–∞–ªƒÉ—Öƒï",
          "official_name:cy": "Teyrnas Bhwtan",
          "official_name:da": "Konged√∏mmet Bhutan",
          "official_name:de": "K√∂nigreich Bhutan",
          "official_name:dz": "‡Ω†‡Ωñ‡æ≤‡Ω¥‡ΩÇ‡ºã‡Ω¢‡æí‡æ±‡Ω£‡ºã‡ΩÅ‡Ωñ‡ºã",
          "official_name:el": "ŒíŒ±œÉŒØŒªŒµŒπŒø œÑŒøœÖ ŒúœÄŒøœÖœÑŒ¨ŒΩ",
          "official_name:en": "Kingdom of Bhutan",
          "official_name:eo": "Reƒùlando Butano",
          "official_name:es": "Reino de But√°n",
          "official_name:et": "Bhutani Kuningriik",
          "official_name:eu": "Bhutango Erresuma",
          "official_name:fa": "ŸæÿßÿØÿ¥ÿßŸá€å ÿ®Ÿàÿ™ÿßŸÜ",
          "official_name:fi": "Bhutanin kuningaskunta",
          "official_name:fo": "Kongar√≠ki√∞ Bhutan",
          "official_name:fr": "Royaume du Bhoutan",
          "official_name:fy": "keninkryk B√ªtan",
          "official_name:ga": "R√≠ocht na B√∫t√°ine",
          "official_name:gd": "R√¨oghachd Bhut√†in",
          "official_name:gl": "Reino de But√°n",
          "official_name:gn": "Tet√£ Vut√£",
          "official_name:gu": "‡™≠‡´Ç‡™§‡™æ‡™®‡™®‡´Å‡™Ç ‡™∞‡™æ‡™ú‡´ç‡™Ø",
          "official_name:gv": "Reeriaght ny Butaan",
          "official_name:he": "◊û◊û◊ú◊õ◊™ ◊ë÷∞÷º◊î◊ï÷º◊ò÷∏◊ü",
          "official_name:hi": "‡§≠‡•Ç‡§ü‡§æ‡§® ‡§ï‡§æ ‡§∞‡§æ‡§ú‡§§‡§Ç‡§§‡•ç‡§∞",
          "official_name:hr": "Kraljevina Butan",
          "official_name:hu": "Bhut√°ni Kir√°lys√°g",
          "official_name:hy": "‘≤’∏÷Ç’©’°’∂’´ ‘π’°’£’°’æ’∏÷Ä’∏÷Ç’©’µ’∏÷Ç’∂",
          "official_name:id": "Kerajaan Bhutan",
          "official_name:is": "Konungsr√≠ki√∞ B√∫tan",
          "official_name:it": "Regno del Bhutan",
          "official_name:ja": "„Éñ„Éº„Çø„É≥ÁéãÂõΩ",
          "official_name:jv": "Karajan Bhutan",
          "official_name:ka": "·Éë·É∞·É£·É¢·Éê·Éú·Éò·É° ·É°·Éê·Éõ·Éî·É§·Éù",
          "official_name:kk": "–ë—É—Ç–∞–Ω –∫–æ—Ä–æ–ª—å–¥—ñ–≥—ñ",
          "official_name:kn": "‡≤≠‡≥Ç‡≤§‡≤æ‡≤®‡≥ç ‡≤∞‡≤æ‡≤ú‡≥ç‡≤Ø",
          "official_name:ko": "Î∂ÄÌÉÑ ÏôïÍµ≠",
          "official_name:ku": "Keyatiya B√ªtan√™",
          "official_name:kv": "–ë—É—Ç–∞–Ω –∫–æ—Ä–æ–ª—å—É–≤",
          "official_name:kw": "Rywvaneth Bhoutan",
          "official_name:ky": "–ë—É—Ç–∞–Ω –ö–æ—Ä–æ–ª–¥—É–≥—É",
          "official_name:la": "Regnum Butaniae",
          "official_name:lb": "Kinnekr√§ich Bhutan",
          "official_name:lt": "Butano Karalystƒó",
          "official_name:lv": "ButƒÅnas Karaliste",
          "official_name:mk": "–ö—Ä–∞–ª—Å—Ç–≤–æ—Ç–æ –ë—É—Ç–∞–Ω",
          "official_name:mn": "–ë—É—Ç–∞–Ω—ã –í–∞–Ω—Ç –£–ª—Å",
          "official_name:mr": "‡§≠‡•Ç‡§§‡§æ‡§®‡§ö‡•á ‡§∞‡§æ‡§ú‡§∏‡§§‡•ç‡§§‡§æ‡§ï",
          "official_name:ms": "Kerajaan Bhutan",
          "official_name:mt": "Renju tal-Butan",
          "official_name:my": "·Äò·Ä∞·Äê·Äî·Ä∫ ·Äò·ÄØ·Äõ·ÄÑ·Ä∑·Ä∫·Äî·Ä≠·ÄØ·ÄÑ·Ä∫·ÄÑ·Ä∂",
          "official_name:nl": "Koninkrijk Bhutan",
          "official_name:no": "Kongeriket Bhutan",
          "official_name:nv": "Ii ºni º T≈Ç ºiishtsoh Bik√©yah",
          "official_name:pa": "‡®≠‡©Ç‡®ü‡®æ‡®® ‡®¨‡®æ‡®¶‡®∏‡®º‡®æ‡®π‡©Ä",
          "official_name:pl": "Kr√≥lestwo Bhutanu",
          "official_name:ps": "ÿØ ÿ®Ÿàÿ™ÿßŸÜ ŸæÿßÿØÿ¥ÿßŸáŸä",
          "official_name:pt": "Reino do But√£o",
          "official_name:qu": "Butan Qhapaq Suyu",
          "official_name:ro": "Regatul Bhutanului",
          "official_name:ru": "–ö–æ—Ä–æ–ª–µ–≤—Å—Ç–≤–æ –ë—É—Ç–∞–Ω",
          "official_name:se": "Bhutana gonagasriika",
          "official_name:sh": "Kraljevina Butan",
          "official_name:si": "‡∂∑‡∑ñ‡∂≠‡∑è‡∂± ‡∂ª‡∑è‡∂¢‡∂∞‡∑è‡∂±‡∑í‡∂∫",
          "official_name:sk": "Bhut√°nske kr√°ƒæovstvo",
          "official_name:sl": "Kraljevina Butan",
          "official_name:so": "Boqortooyada Butaan",
          "official_name:sq": "Mbret√´ria e Butanit",
          "official_name:sr": "–ö—Ä–∞—ô–µ–≤–∏–Ω–∞ –ë—É—Ç–∞–Ω",
          "official_name:su": "Karajaan Butan",
          "official_name:sv": "Konungariket Bhutan",
          "official_name:sw": "Ufalme wa Bhutan",
          "official_name:ta": "‡Æ™‡ØÇ‡Æü‡Øç‡Æü‡Ææ‡Æ©‡Øç ‡Æá‡Æ∞‡Ææ‡Æö‡Øç‡Æö‡Æø‡ÆØ‡ÆÆ‡Øç",
          "official_name:te": "‡∞≠‡±Ç‡∞ü‡∞®‡±ç ‡∞∞‡∞æ‡∞ú‡±ç‡∞Ø‡∞Æ‡±Å",
          "official_name:tg": "–®–æ“≥–∏–≥–∞—Ä–∏–∏ –ë—É—Ç–∞–Ω",
          "official_name:th": "‡∏£‡∏≤‡∏ä‡∏≠‡∏≤‡∏ì‡∏≤‡∏à‡∏±‡∏Å‡∏£‡∏†‡∏π‡∏è‡∏≤‡∏ô",
          "official_name:tk": "Butan Korollygy",
          "official_name:tl": "Kaharian ng Bhutan",
          "official_name:tr": "Bhutan Krallƒ±ƒüƒ±",
          "official_name:tt": "–ë—É—Ç–∞–Ω –ü–∞—Ç—à–∞–ª—ã–≥—ã",
          "official_name:uk": "–ö–æ—Ä–æ–ª—ñ–≤—Å—Ç–≤–æ –ë—É—Ç–∞–Ω",
          "official_name:ur": "ŸÖŸÖŸÑ⁄©ÿ™ ÿ®⁄æŸàŸπÿßŸÜ",
          "official_name:uz": "Butan podsholigi",
          "official_name:vi": "V∆∞∆°ng qu·ªëc Bhutan",
          "official_name:vo": "Reg√§n But√§na",
          "official_name:wo": "Ruwaayom bu Butaan",
          "official_name:yi": "◊û◊ú◊õ◊ï◊™ ◊§◊ï◊ü ◊ë◊î◊ï◊ò◊ê◊ü",
          "official_name:yo": "Il·∫πÃÄ·ªçba il·∫πÃÄ Bh√πt√°n",
          "official_name:zh": "‰∏ç‰∏πÁéãÂõΩ / ‰∏ç‰∏πÁéãÂúã",
          "ISO3166-1:numeric": "064",
          "official_name:ace": "Keurajeu√´n Bhutan",
          "official_name:ady": "–ü–∞—á—ä—ã—Ö—å—ã–≥—ä–æ—É –ë—É—Ç–∞–Ω",
          "official_name:als": "K√∂nigreich Bhutan",
          "official_name:arz": "ŸÖŸÖŸÑŸÉÿ© ÿ®Ÿàÿ™ÿßŸÜ",
          "official_name:ast": "Reinu de But√°n",
          "official_name:azb": "ÿ®Ÿàÿ™ÿßŸÜ ÿ¥ÿßŸáŸÑ€åÿ∫€å",
          "official_name:bar": "Kenigreich Bhutan",
          "official_name:bjn": "Karajaan Bhutan",
          "official_name:bpy": "‡¶∞‡¶æ‡¶ú‡¶§‡¶æ‡¶®‡ßç‡¶§‡ßç‡¶∞‡¶ø‡¶ï ‡¶≠‡ßÅ‡¶ü‡¶æ‡¶®",
          "official_name:bxr": "–ë—É—Ç–∞–Ω—ã–Ω –í–∞–Ω—Ç –£–ª–∞—Å",
          "official_name:ceb": "Gingharian sa Bhutan",
          "official_name:chr": "·é§·é¨·è´·è≥·éØ ·é®·èí ·éæ·éø ·èä·èî·èÇ",
          "official_name:ckb": "ÿ¥ÿßŸÜÿ¥€åŸÜ€å ÿ®ŸàŸàÿ™ÿßŸÜ",
          "official_name:crh": "Butan Qƒ±rallƒ±ƒüƒ±",
          "official_name:dsb": "Bhutanske kralojstwo",
          "official_name:dty": "‡§∞‡§æ‡§ú‡§§‡§®‡•ç‡§§‡•ç‡§∞ ‡§≠‡•Ç‡§ü‡§æ‡§®",
          "official_name:ext": "R√©inu de But√°n",
          "official_name:frr": "K√∂ningrik faan Bhuutaan",
          "official_name:hak": "Bhutan V√≤ng-koet",
          "official_name:hsb": "Kralestwo Bhutan",
          "official_name:ilo": "Pagarian ti Butan",
          "official_name:jam": "Kindom ah Buutan",
          "official_name:lzh": "‰∏ç‰∏πÁéãÂúã",
          "official_name:mwl": "Reino de l Buton",
          "official_name:mzn": "ÿ®Ÿàÿ™ÿßŸÜ ÿ≥ŸÑÿ∑ŸÜÿ™",
          "official_name:nah": "HuƒìyitlahtohcƒÅy≈çtl Butan",
          "official_name:nan": "Bhutan √îng-kok",
          "official_name:nap": "Regno 'e Bhutan",
          "official_name:new": "‡§≠‡•Å‡§ü‡§æ‡§® ‡§∞‡§æ‡§ú‡§§‡§®‡•ç‡§§‡•ç‡§∞",
          "official_name:olo": "Kuningasvaldu Butan",
          "official_name:pam": "Kaarian ning Bhutan",
          "official_name:pcd": "Ro√©y√¥me du Bhoutan",
          "official_name:sah": "–ë—É—Ç–∞–Ω –•–æ—Ä—É–æ–ª–ª—É–≥–∞",
          "official_name:sco": "Kinrick o Bhutan",
          "official_name:szl": "Kr≈Ølestwo Bhutanu",
          "official_name:tcy": "‡≤≠‡≥Ç‡≤§‡≤æ‡≤®‡≥ç ‡≤∞‡≤æ‡≤ú‡≥ç‡≤Ø",
          "official_name:vec": "Regno de el Butan",
          "official_name:vep": "Butanan Kunigahuz",
          "official_name:vro": "Bhutani Kuningriik",
          "official_name:war": "Ginhadi-an han Bhutan",
          "official_name:wuu": "‰∏ç‰∏πÁéãÂõΩ",
          "official_name:xmf": "·Éë·É∞·É£·É¢·Éê·Éú·Éò·É® ·Éù·Éõ·Éê·É§·Éî",
          "official_name:yue": "‰∏ç‰∏πÁéãÂúã",
          "official_name:az-Arab": "ÿ®Ÿàÿ™ÿßŸÜ ÿ¥ÿßŸáŸÑ€åÿ∫€å",
          "official_name:bat-smg": "Butana Karalƒ´ste",
          "official_name:roa-rup": "V√£silia Bhutan",
          "official_name:zh-Hans": "‰∏ç‰∏πÁéãÂõΩ",
          "official_name:zh-Hant": "‰∏ç‰∏πÁéãÂúã",
          "official_name:be-tarask": "–ö–∞—Ä–∞–ª–µ—û—Å—Ç–≤–∞ –ë—É—Ç–∞–Ω"
        }
      },
      "geometry": {
        "type": "Polygon",
        "coordinates": [
          [
            [
              91.2736485,
              28.0003247
            ],
            [
              91.27401625624877,
              28
            ],
            [
              91.46427811181556,
              28
            ],
            [
              91.4653159,
              28.006305
            ],
            [
              91.4602529,
              28.007369
            ],
            [
              91.45804,
              28.007464
            ],
            [
              91.4561122,
              28.008202
            ],
            [
              91.4552078,
              28.008725
            ],
            [
              91.4528999,
              28.008654
            ],
            [
              91.4521381,
              28.008821
            ],
            [
              91.4503781,
              28.009749
            ],
            [
              91.4483549,
              28.009725
            ],
            [
              91.4462611,
              28.01001
            ],
            [
              91.4456902,
              28.009868
            ],
            [
              91.4446199,
              28.009154
            ],
            [
              91.4440961,
              28.00844
            ],
            [
              91.442835,
              28.00587
            ],
            [
              91.4416448,
              28.004775
            ],
            [
              91.4400511,
              28.003752
            ],
            [
              91.43879,
              28.002634
            ],
            [
              91.436981,
              28.002896
            ],
            [
              91.4358391,
              28.0033
            ],
            [
              91.433983,
              28.004371
            ],
            [
              91.43208,
              28.007203
            ],
            [
              91.431247,
              28.009296
            ],
            [
              91.4311282,
              28.011295
            ],
            [
              91.4312711,
              28.014769
            ],
            [
              91.4315321,
              28.016316
            ],
            [
              91.4305331,
              28.01653
            ],
            [
              91.4272729,
              28.016768
            ],
            [
              91.4249891,
              28.018267
            ],
            [
              91.423418,
              28.01979
            ],
            [
              91.4217289,
              28.019719
            ],
            [
              91.4201348,
              28.020266
            ],
            [
              91.4196352,
              28.020004
            ],
            [
              91.4188741,
              28.019219
            ],
            [
              91.41647,
              28.018481
            ],
            [
              91.4145188,
              28.018529
            ],
            [
              91.4133769,
              28.019266
            ],
            [
              91.412973,
              28.019338
            ],
            [
              91.409855,
              28.019385
            ],
            [
              91.409522,
              28.019885
            ],
            [
              91.406691,
              28.020789
            ],
            [
              91.4060009,
              28.022621
            ],
            [
              91.404977,
              28.023668
            ],
            [
              91.4032879,
              28.024763
            ],
            [
              91.402551,
              28.027476
            ],
            [
              91.4013061,
              28.027987
            ],
            [
              91.4001271,
              28.028126
            ],
            [
              91.3995529,
              28.02858
            ],
            [
              91.3978508,
              28.030958
            ],
            [
              91.3968799,
              28.030529
            ],
            [
              91.395806,
              28.03071
            ],
            [
              91.3922989,
              28.030547
            ],
            [
              91.3899341,
              28.030628
            ],
            [
              91.385285,
              28.03124
            ],
            [
              91.383898,
              28.031852
            ],
            [
              91.3824299,
              28.032219
            ],
            [
              91.3815742,
              28.032708
            ],
            [
              91.3785149,
              28.036664
            ],
            [
              91.3757299,
              28.039304
            ],
            [
              91.3741499,
              28.039362
            ],
            [
              91.3728589,
              28.040614
            ],
            [
              91.371992,
              28.041057
            ],
            [
              91.3708361,
              28.042059
            ],
            [
              91.370354,
              28.042291
            ],
            [
              91.3684079,
              28.042637
            ],
            [
              91.368099,
              28.042907
            ],
            [
              91.3677329,
              28.043736
            ],
            [
              91.3668851,
              28.044584
            ],
            [
              91.366596,
              28.0452
            ],
            [
              91.3660178,
              28.045566
            ],
            [
              91.3651898,
              28.046761
            ],
            [
              91.3616831,
              28.049382
            ],
            [
              91.360642,
              28.048071
            ],
            [
              91.3597949,
              28.047879
            ],
            [
              91.3589662,
              28.047898
            ],
            [
              91.3580791,
              28.048187
            ],
            [
              91.3540331,
              28.048765
            ],
            [
              91.3519321,
              28.048437
            ],
            [
              91.3512391,
              28.04863
            ],
            [
              91.35041,
              28.048303
            ],
            [
              91.3494661,
              28.048572
            ],
            [
              91.349235,
              28.048534
            ],
            [
              91.3491389,
              28.048245
            ],
            [
              91.3483289,
              28.047994
            ],
            [
              91.3459781,
              28.048669
            ],
            [
              91.3443019,
              28.049516
            ],
            [
              91.342625,
              28.04994
            ],
            [
              91.3427219,
              28.051077
            ],
            [
              91.3423561,
              28.052715
            ],
            [
              91.342413,
              28.053659
            ],
            [
              91.3432039,
              28.055008
            ],
            [
              91.343416,
              28.056087
            ],
            [
              91.3425098,
              28.058342
            ],
            [
              91.3424911,
              28.061637
            ],
            [
              91.3419511,
              28.06262
            ],
            [
              91.340024,
              28.063853
            ],
            [
              91.339542,
              28.064315
            ],
            [
              91.338926,
              28.065683
            ],
            [
              91.3360162,
              28.06578
            ],
            [
              91.3346669,
              28.066223
            ],
            [
              91.3337039,
              28.065491
            ],
            [
              91.3328179,
              28.065163
            ],
            [
              91.3307749,
              28.062966
            ],
            [
              91.3298692,
              28.062581
            ],
            [
              91.328405,
              28.061521
            ],
            [
              91.3253411,
              28.062677
            ],
            [
              91.3244738,
              28.062832
            ],
            [
              91.3217951,
              28.062832
            ],
            [
              91.32116,
              28.062716
            ],
            [
              91.320466,
              28.062215
            ],
            [
              91.3195598,
              28.062157
            ],
            [
              91.3185968,
              28.062273
            ],
            [
              91.317402,
              28.062658
            ],
            [
              91.3165538,
              28.062639
            ],
            [
              91.3087699,
              28.060673
            ],
            [
              91.3081884,
              28.0593321
            ],
            [
              91.3091755,
              28.0566243
            ],
            [
              91.3070082,
              28.0545792
            ],
            [
              91.306386,
              28.0532915
            ],
            [
              91.3064611,
              28.0519375
            ],
            [
              91.3124905,
              28.0468716
            ],
            [
              91.3120352,
              28.0420061
            ],
            [
              91.3082787,
              28.0398245
            ],
            [
              91.3084901,
              28.037284
            ],
            [
              91.3075144,
              28.03615
            ],
            [
              91.3072705,
              28.0315855
            ],
            [
              91.2990582,
              28.0276811
            ],
            [
              91.2960823,
              28.0283845
            ],
            [
              91.2945699,
              28.0307099
            ],
            [
              91.2928299,
              28.0308821
            ],
            [
              91.2903711,
              28.0296302
            ],
            [
              91.2901962,
              28.0285006
            ],
            [
              91.2883016,
              28.0264931
            ],
            [
              91.2868171,
              28.0243486
            ],
            [
              91.2849813,
              28.0232755
            ],
            [
              91.2824983,
              28.0211318
            ],
            [
              91.2829481,
              28.0180341
            ],
            [
              91.279754,
              28.0131491
            ],
            [
              91.2742424,
              28.0116797
            ],
            [
              91.2740406,
              28.0085816
            ],
            [
              91.2755702,
              28.0056424
            ],
            [
              91.2736485,
              28.0003247
            ]
          ]
        ]
      }
    },
    {
      "type": "Feature",
      "properties": {
        "osm_id": -270056,
        "boundary": "administrative",
        "admin_level": 2,
        "parents": null,
        "name": "China",
        "local_name": "‰∏≠ÂõΩ",
        "name_en": "China",
        "all_tags": {
          "flag": "http://upload.wikimedia.org/wikipedia/commons/f/fa/Flag_of_the_People%27s_Republic_of_China.svg",
          "name": "‰∏≠ÂõΩ",
          "name:aa": "China",
          "name:ab": "–ß—ã–Ω“≠",
          "name:af": "China",
          "name:ak": "China",
          "name:am": "·ã®·âª·ã≠·äì",
          "name:an": "China",
          "name:ar": "ÿßŸÑÿµŸäŸÜ",
          "name:as": "‡¶ö‡ßÄ‡¶®",
          "name:av": "–ß–∏–Ω",
          "name:ay": "China",
          "name:az": "√áin",
          "name:ba": "“†—ã—Ç–∞–π",
          "name:be": "–ö—ñ—Ç–∞–π",
          "name:bg": "–ö–∏—Ç–∞–π",
          "name:bh": "‡§ö‡•Ä‡§®",
          "name:bi": "Jaena",
          "name:bm": "China",
          "name:bn": "‡¶ó‡¶£‡¶ö‡ßÄ‡¶®",
          "name:bo": "‡ΩÄ‡æ≤‡Ω¥‡ΩÑ‡ºã‡ΩÇ‡Ωº‡ºç",
          "name:br": "Sina",
          "name:bs": "Kina",
          "name:ca": "Xina",
          "name:ce": "–¶–∏–π–Ω-–º–æ—Ö–∫",
          "name:ch": "China",
          "name:co": "China",
          "name:cs": "ƒå√≠na",
          "name:cu": "–°—Ä—£–¥–∏–ΩÍôó–Ω—î",
          "name:cv": "–ö–∏—Ç–∞–π",
          "name:cy": "Tsieina",
          "name:da": "Kina",
          "name:de": "China",
          "name:dv": "ﬁêﬁ©ﬁÇﬁ™ﬁÜﬁ¶ﬁÉﬁ¶",
          "name:dz": "‡Ω¢‡æí‡æ±‡ºã‡Ωì‡ΩÇ",
          "name:ee": "China",
          "name:el": "ŒöŒØŒΩŒ±",
          "name:en": "China",
          "name:eo": "ƒàinio",
          "name:es": "China",
          "name:et": "Hiina",
          "name:eu": "Txina",
          "name:fa": "⁄Ü€åŸÜ",
          "name:ff": "Ciina",
          "name:fi": "Kiina",
          "name:fj": "Jaina",
          "name:fo": "Kina",
          "name:fr": "Chine",
          "name:fy": "Sina",
          "name:ga": "S√≠ne",
          "name:gd": "S√¨ona",
          "name:gl": "China",
          "name:gn": "Ch√≠na",
          "name:gu": "‡™ö‡´Ä‡™®",
          "name:gv": "Sheen",
          "name:ha": "Sin",
          "name:he": "◊°◊ô◊ü",
          "name:hi": "‡§ö‡•Ä‡§®‡•Ä",
          "name:hr": "Kina",
          "name:ht": "Chin",
          "name:hu": "K√≠na",
          "name:hy": "’â’´’∂’°’Ω’ø’°’∂",
          "name:ia": "China",
          "name:id": "Tiongkok",
          "name:ie": "China",
          "name:ig": "Chaina",
          "name:ii": "ÍçèÍá©",
          "name:ik": "China",
          "name:io": "Chinia",
          "name:is": "K√≠na",
          "name:it": "Cina",
          "name:iu": "·ì¥·êÉ·ìá",
          "name:ja": "‰∏≠ÂõΩ",
          "name:jv": "Cina",
          "name:ka": "·É©·Éò·Éú·Éî·Éó·Éò",
          "name:kg": "Sina",
          "name:ki": "China",
          "name:kk": "“ö—ã—Ç–∞–π",
          "name:kl": "Kina",
          "name:km": "·ûÖ·û∑·ûì",
          "name:kn": "‡≤ö‡≥Ä‡≤®‡≤ø",
          "name:ko": "Ï§ëÍµ≠",
          "name:ks": "⁄Ü€åŸñŸÜ",
          "name:ku": "√á√Æn",
          "name:kv": "–ö–∏—Ç–∞–π",
          "name:kw": "China",
          "name:ky": "–ö—ã—Ç–∞–π",
          "name:la": "Sinae",
          "name:lb": "China",
          "name:lg": "Cayina",
          "name:li": "China",
          "name:ln": "S√≠na",
          "name:lo": "‡∫õ‡∫∞‡ªÄ‡∫ó‡∫î‡∫à‡∫µ‡∫ô",
          "name:lt": "Kinija",
          "name:lv": "ƒ∂ƒ´na",
          "name:mg": "Sina",
          "name:mi": "Haina",
          "name:mk": "–ö–∏–Ω–∞",
          "name:ml": "‡¥ö‡µÄ‡¥®",
          "name:mn": "–•—è—Ç–∞–¥",
          "name:mr": "‡§ö‡•Ä‡§®",
          "name:ms": "China",
          "name:mt": "ƒäina",
          "name:my": "·Äê·Äõ·ÄØ·Äê·Ä∫",
          "name:na": "Tsiene",
          "name:nb": "Kina",
          "name:ne": "‡§ö‡•Ä‡§®",
          "name:nl": "China",
          "name:nn": "Kina",
          "name:no": "Kina",
          "name:nv": "Tsii ºyishbizh√≠ Dine º√© Bik√©yah",
          "name:ny": "China",
          "name:oc": "China",
          "name:om": "Chaayinaan",
          "name:or": "‡¨ö‡≠Ä‡¨®",
          "name:os": "–ö–∏—Ç–∞–π",
          "name:pa": "‡®ö‡©Ä‡®®",
          "name:pl": "Chiny",
          "name:ps": "⁄ÜŸäŸÜ",
          "name:pt": "China",
          "name:qu": "Chunkuk",
          "name:rm": "China",
          "name:rn": "Ubushinwa",
          "name:ro": "China",
          "name:ru": "–ö–∏—Ç–∞–π",
          "name:rw": "Ubushinwa",
          "name:sc": "Cina",
          "name:sd": "⁄ÜŸäŸÜ",
          "name:se": "Kiinn√°",
          "name:sg": "S√Æn√§",
          "name:sh": "Kina",
          "name:si": "‡∂†‡∑ì‡∂±‡∂∫",
          "name:sk": "ƒå√≠na",
          "name:sl": "Kit√°jska",
          "name:sm": "Saina",
          "name:sn": "China",
          "name:so": "Shiinaha",
          "name:sq": "Kina",
          "name:sr": "–ö–∏–Ω–∞",
          "name:ss": "iShayina",
          "name:st": "Tjhaena",
          "name:su": "Tiongkok",
          "name:sv": "Kina",
          "name:sw": "China",
          "name:ta": "‡Æö‡ØÄ‡Æ©‡Ææ",
          "name:te": "‡∞ö‡±à‡∞®‡∞æ",
          "name:tg": "–•–∏—Ç–æÃÅ–π",
          "name:th": "‡∏õ‡∏£‡∏∞‡πÄ‡∏ó‡∏®‡∏à‡∏µ‡∏ô",
          "name:ti": "·ã®·âª·ã≠·äì",
          "name:tk": "Hyta√Ω",
          "name:tl": "Tsina",
          "name:tn": "China",
          "name:to": "Siaina",
          "name:tr": "√áin",
          "name:ts": "Chayina",
          "name:tt": "–ö—ã—Ç–∞–π",
          "name:tw": "China",
          "name:ty": "Tinit≈ç",
          "name:ug": "ÿ¨€á⁄≠ÿÆ€áÿß ÿÆ€ïŸÑŸÇ ÿ¨€áŸÖ⁄æ€áÿ±ŸâŸäŸâÿ™Ÿâ",
          "name:uk": "–ö–∏—Ç–∞–π",
          "name:ur": "⁄Ü€åŸÜ",
          "name:uz": "Xitoy",
          "name:ve": "China",
          "name:vi": "Trung Qu·ªëc",
          "name:vo": "Tsyin√§n",
          "name:wo": "Siin",
          "name:xh": "IShayina",
          "name:yi": "◊õ◊ô◊†◊¢",
          "name:yo": "·π¢√°√≠n√†",
          "name:za": "Cunghgoz",
          "name:zh": "‰∏≠ÂõΩ",
          "name:zu": "IShayina",
          "website": "https://www.gov.cn",
          "boundary": "administrative",
          "int_name": "China",
          "name:ace": "Cina",
          "name:ady": "–ö–∏—Ç–∞–π",
          "name:als": "China",
          "name:ang": "Cƒ´na",
          "name:arc": "‹ï‹®‹ù‹¢",
          "name:arz": "ÿßŸÑÿµŸäŸÜ",
          "name:ast": "China",
          "name:azb": "⁄Ü€åŸÜ",
          "name:bar": "Kina",
          "name:bcl": "Tsina",
          "name:bjn": "Cina",
          "name:bpy": "‡¶ó‡¶£‡¶ö‡ßÄ‡¶®",
          "name:bxr": "–•–∏—Ç–∞–¥ –£–ª–∞—Å",
          "name:cal": "Siila",
          "name:ceb": "Tsina",
          "name:chr": "·è•·éæ",
          "name:chy": "China",
          "name:ckb": "⁄Ü€åŸÜ",
          "name:crh": "√áin",
          "name:csb": "Chi≈Ñsk√¥ L√´dow√¥ Rep√πblika",
          "name:diq": "√áin",
          "name:dsb": "Chinska",
          "name:dty": "‡§ö‡•Ä‡§®",
          "name:eml": "Cina",
          "name:ext": "China",
          "name:frp": "Ch¬∑ina",
          "name:frr": "Sina",
          "name:fur": "Cine",
          "name:gag": "Kitay",
          "name:gan": "‰∏≠Âúã",
          "name:gom": "‡§ö‡•Ä‡§®",
          "name:hak": "Ch√ªng-f√†",
          "name:haw": "Kina",
          "name:hif": "China",
          "name:hsb": "China",
          "name:ilo": "Ts√≠na",
          "name:jam": "Chaina",
          "name:jbo": "jugygu'e",
          "name:kaa": "Qƒ±tay",
          "name:kab": "Ccinwa",
          "name:kbd": "–•—ä—É—Ç–µ–π",
          "name:kbp": "Siini",
          "name:koi": "–ö–∏–Ω–∞",
          "name:krc": "–ö—ä—ã—Ç–∞–π",
          "name:ksh": "Schiina",
          "name:lad": "Kina",
          "name:lez": "–ö–∏—Ç–∞–π",
          "name:lmo": "Cina",
          "name:lrc": "⁄Ü€åŸÜ",
          "name:lzh": "‰∏≠Âúã",
          "name:mai": "‡§ö‡•Ä‡§®",
          "name:mdf": "–ö–∏—Ç–∞–π",
          "name:mhr": "–ö–∏—Ç–∞–π",
          "name:min": "Cino",
          "name:mwl": "China",
          "name:myv": "–ö–∏—Ç–∞–π",
          "name:mzn": "⁄Ü€åŸÜ",
          "name:nah": "China",
          "name:nan": "Tiong-kok",
          "name:nap": "Cina",
          "name:nds": "Kina",
          "name:new": "‡§ö‡•Ä‡§®",
          "name:nov": "China",
          "name:nrm": "Chinne",
          "name:nso": "T≈°haena",
          "name:olo": "Kitai",
          "name:pag": "Jhina",
          "name:pam": "Tsina",
          "name:pap": "Zh≈çnggu√≥",
          "name:pcd": "Kine",
          "name:pih": "Shiina",
          "name:pms": "Cin-a",
          "name:pnb": "⁄Ü€åŸÜ",
          "name:pnt": "ŒöŒØŒΩŒ±",
          "name:rmy": "Shin",
          "name:rue": "–ö—ñ—Ç–∞–π—Å–∫–∞",
          "name:sah": "–ö—ã—Ç–∞–π",
          "name:scn": "Cina",
          "name:sco": "Cheenae",
          "name:smn": "Kiina",
          "name:sms": "«®iina",
          "name:srn": "Sneysa",
          "name:stq": "China",
          "name:szl": "China",
          "name:tet": "Xina",
          "name:tok": "ma Sonko",
          "name:tpi": "Saina",
          "name:tum": "China",
          "name:tyv": "–ö—ã–¥–∞—Ç",
          "name:tzl": "Cina",
          "name:udm": "–ö–∏—Ç–∞ÃÅ–π",
          "name:vec": "Cina",
          "name:vep": "Kitai",
          "name:vls": "China",
          "name:vro": "Hiina",
          "name:war": "Tsina",
          "name:wuu": "‰∏≠ÂõΩ",
          "name:xal": "–ö–∏—Ç–¥–∏–Ω –£–ª—Å –û—Ä–Ω",
          "name:xmf": "·É©·Éò·Éú·Éî·Éó·Éò",
          "name:yue": "‰∏≠Âúã",
          "name:zea": "China",
          "way_area": "987.772",
          "wikidata": "Q148",
          "ISO3166-1": "CN",
          "name:Zsye": "üá®üá≥",
          "wikipedia": "zh:‰∏≠Âçé‰∫∫Ê∞ëÂÖ±ÂíåÂõΩ",
          "name:UN:ar": "ÿßŸÑÿµŸäŸÜ",
          "name:UN:en": "China",
          "name:UN:es": "China",
          "name:UN:fr": "Chine (la)",
          "name:UN:ru": "–ö–∏—Ç–∞–π",
          "name:UN:zh": "‰∏≠ÂõΩ",
          "population": "1411778724",
          "admin_level": "2",
          "alt_name:af": "Rooi-China",
          "alt_name:av": "–•–∞—Ç–∞–π-–•—É—Ç–∞–π",
          "alt_name:be": "–ß–∂—É–Ω–≥–æ",
          "alt_name:cy": "Tseina",
          "alt_name:en": "P.R. China",
          "alt_name:eo": "ƒàinujo",
          "alt_name:gd": "An t-S√¨n",
          "alt_name:jv": "Tiongkok",
          "alt_name:la": "Terra Serica",
          "alt_name:ln": "Sh√≠na",
          "alt_name:qu": "Chunwakuk",
          "alt_name:ru": "–ö–∏—Ç–∞–π",
          "alt_name:sl": "LR Kitajska",
          "alt_name:sr": "–ù–† –ö–∏–Ω–∞",
          "alt_name:su": "Tjina",
          "alt_name:sw": "Uchina;Sina",
          "alt_name:za": "Cu≈ã∆Öva∆® Yin∆®min∆® Gu≈ãho∆®go∆®",
          "alt_name:zh": "‰∏≠ÂõΩ",
          "name:nan-HJ": "‰∏≠ÂõΩ",
          "name:nan-TL": "Tiong-kok",
          "name:nds-nl": "China",
          "old_name:eo": "ƒ§inujo",
          "alt_name:als": "Rotchina",
          "alt_name:chr": "·èì·é∂·èÇ·é®·èç·èõ",
          "alt_name:crh": "Qƒ±tay",
          "alt_name:jbo": ".djunguos.",
          "alt_name:koi": "–î–∂—É–Ω–≥–æ",
          "alt_name:lez": "–ß–∏–Ω",
          "alt_name:min": "Tiongkok",
          "alt_name:nan": "Tiong-kok",
          "alt_name:nds": "Schina",
          "alt_name:nrm": "Chinne;Ch√®ne",
          "alt_name:rmy": "China",
          "alt_name:tpi": "China",
          "name:cbk-zam": "China",
          "name:ko-Hani": "‰∏≠Âúã",
          "name:nan-POJ": "Tiong-kok",
          "name:za-Hani": "‰∏≠ËèØ‰∫∫Ê∞ëÂÖ±ÂíåÂúã",
          "name:zh-Hans": "‰∏≠ÂõΩ",
          "name:zh-Hant": "‰∏≠Âúã",
          "name:roa-tara": "Cine",
          "official_name": "‰∏≠Âçé‰∫∫Ê∞ëÂÖ±ÂíåÂõΩ",
          "short_name:ab": "–ß–ñ–†",
          "short_name:av": "–ß–•–ñ",
          "short_name:az": "√áXR",
          "short_name:ba": "“†–•–†",
          "short_name:be": "–ö–ù–†",
          "short_name:ce": "–¶–•–†",
          "short_name:cs": "ƒåLR",
          "short_name:cv": "–ö–•–†",
          "short_name:cy": "GPT",
          "short_name:en": "PRC",
          "short_name:et": "Hiina RV",
          "short_name:fr": "RPC",
          "short_name:ga": "DPS",
          "short_name:hy": "’â‘∫’Ä",
          "short_name:id": "RRT",
          "short_name:jv": "RRC",
          "short_name:mk": "–ù–† –ö–∏–Ω–∞",
          "short_name:ml": "PRC",
          "short_name:ms": "RRC",
          "short_name:mt": "RPƒä",
          "short_name:ne": "PRC",
          "short_name:pl": "ChRL",
          "short_name:pt": "RPC",
          "short_name:ru": "–ö–ù–†",
          "short_name:sl": "LRK",
          "short_name:sr": "–ù–†–ö",
          "short_name:su": "RRT",
          "short_name:tg": "“∂–•–ß",
          "short_name:tk": "HHR",
          "short_name:tr": "√áHC",
          "short_name:tt": "–ö–•“ñ",
          "short_name:uz": "XXR",
          "short_name:zh": "‰∏≠ÂõΩ",
          "name:be-tarask": "–ö—ñ—Ç–∞–π",
          "short_name:ang": "PRC",
          "short_name:bjn": "RRC",
          "short_name:ceb": "RPT",
          "short_name:dty": "PRC",
          "short_name:ilo": "PRC",
          "short_name:krc": "–ö—ä–•–†",
          "short_name:min": "RRC",
          "short_name:mwl": "RPC",
          "short_name:nan": "Tiong-kok",
          "short_name:sco": "FRC",
          "short_name:szl": "CHLR",
          "short_name:vec": "PRC",
          "alt_name:nan-HJ": "‰∏≠ÂõΩ",
          "alt_name:nan-TL": "Tiong-kok",
          "population:date": "2020",
          "ISO3166-1:alpha2": "CN",
          "ISO3166-1:alpha3": "CHN",
          "alt_name:nan-POJ": "Tiong-kok",
          "alt_name:zh-Hans": "‰∏≠ÂõΩ",
          "alt_name:zh-Hant": "‰∏≠Âúã",
          "default_language": "zh",
          "official_name:ab": "–ê—á—ã–Ω“≠–∞—Ç”ô–∏ –ê–∂”ô–ª–∞—Ä—Ç”ô –†–µ—Å–ø—É–±–ª–∏–∫–∞",
          "official_name:af": "Volksrepubliek van Sjina",
          "official_name:am": "·ã®·âª·ã≠·äì ·àï·ãù·â£·ãä ·à¨·çë·â•·àä·ä≠",
          "official_name:an": "Republica Popular de China",
          "official_name:ar": "ÿ¨ŸÖŸáŸàÿ±Ÿäÿ© ÿßŸÑÿµŸäŸÜ ÿßŸÑÿ¥ÿπÿ®Ÿäÿ©",
          "official_name:as": "‡¶ó‡¶£‡¶™‡ßç‡ß∞‡¶ú‡¶æ‡¶§‡¶®‡ßç‡¶§‡ßç‡ß∞‡ßÄ ‡¶ö‡ßÄ‡¶®",
          "official_name:av": "–ß–∏–Ω–∞–ª—ä—É–ª –•–∞–ª–∫—ä–∏—è–± –ñ—É–º–≥—å—É—Ä–∏—è—Ç",
          "official_name:ay": "Markani Republika China",
          "official_name:az": "√áin Xalq Respublikasƒ±",
          "official_name:ba": "“†—ã—Ç–∞–π –•–∞–ª—ã“° –†–µ—Å–ø—É–±–ª–∏–∫–∞“ª—ã",
          "official_name:be": "–ö—ñ—Ç–∞–π—Å–∫–∞—è –ù–∞—Ä–æ–¥–Ω–∞—è –†—ç—Å–ø—É–±–ª—ñ–∫–∞",
          "official_name:bg": "–ö–∏—Ç–∞–π—Å–∫–∞—Ç–∞ –Ω–∞—Ä–æ–¥–Ω–∞ —Ä–µ–ø—É–±–ª–∏–∫–∞",
          "official_name:bh": "‡§ö‡•Ä‡§® ‡§ï‡•á ‡§ú‡§®‡§µ‡§æ‡§¶‡•Ä ‡§™‡•ç‡§∞‡§ú‡§æ‡§§‡§Ç‡§§‡•ç‡§∞",
          "official_name:bm": "China ka Foroba Fasojamana",
          "official_name:bn": "‡¶ó‡¶£‡¶™‡ßç‡¶∞‡¶ú‡¶æ‡¶§‡¶®‡ßç‡¶§‡ßç‡¶∞‡ßÄ ‡¶ö‡ßÄ‡¶®",
          "official_name:bo": "‡ΩÄ‡æ≤‡Ω¥‡ΩÑ‡ºã‡Ωß‡æ≠‡ºã‡Ωò‡Ω≤‡ºã‡Ωë‡Ωò‡ΩÑ‡Ω¶‡ºã‡Ω¶‡æ§‡æ±‡Ω≤‡ºã‡Ωò‡Ωê‡Ω¥‡Ωì‡ºã‡Ω¢‡æí‡æ±‡Ω£‡ºã‡ΩÅ‡Ωñ‡ºç",
          "official_name:br": "Republik Poblel Sina",
          "official_name:bs": "Narodna Republika Kina",
          "official_name:ca": "Rep√∫blica Popular de la Xina",
          "official_name:ce": "–¶–∏–π–Ω –•–∞–ª–∫—ä–∞–Ω –†–µ—Å–ø—ÉÃÅ–±–ª–∏–∫–∞",
          "official_name:co": "Republica Pupulare Chinesa",
          "official_name:cs": "ƒå√≠nsk√° lidov√° republika",
          "official_name:cu": "–°—Ä—£–¥–∏–Ω—å—Å–∫–∞ –ù–∞—Ä–æ–¥—å–Ω–∞ –î–∏–º–æ–∫—Ä–∞—Ç—ñÃÅÍôó",
          "official_name:cv": "–ö–∏—Ç–∞–π –•–∞–ªƒÉ—Ö –†–µ—Å–ø—É–±–ª–∏–∫–∏",
          "official_name:cy": "Gweriniaeth Pobl Tsieina",
          "official_name:da": "Folkerepublikken Kina",
          "official_name:de": "Volksrepublik China",
          "official_name:el": "ŒõŒ±œäŒ∫ŒÆ ŒîŒ∑ŒºŒøŒ∫œÅŒ±œÑŒØŒ± œÑŒ∑œÇ ŒöŒØŒΩŒ±œÇ",
          "official_name:en": "People's Republic of China",
          "official_name:eo": "ƒàina Popola Respubliko",
          "official_name:es": "Rep√∫blica Popular China",
          "official_name:et": "Hiina Rahvavabariik",
          "official_name:eu": "Txinako Herri Errepublika",
          "official_name:fa": "ÿ¨ŸÖŸáŸàÿ±€å ÿÆŸÑŸÇ ⁄Ü€åŸÜ",
          "official_name:fi": "Kiinan kansantasavalta",
          "official_name:fo": "F√≥lkal√Ω√∞veldi√∞ Kina",
          "official_name:fr": "R√©publique populaire de Chine",
          "official_name:fy": "Folksrepublyk Sina",
          "official_name:ga": "Daon-Phoblacht na S√≠ne",
          "official_name:gd": "Sluagh-phoblachd na S√¨ne",
          "official_name:gl": "Rep√∫blica Popular da China",
          "official_name:gn": "Ch√≠na Tetar√£ Ret√£",
          "official_name:gu": "‡™ö‡´Ä‡™®‡´Ä ‡™ú‡™®‡™µ‡™æ‡™¶‡´Ä ‡™ó‡™£‡™∞‡™æ‡™ú‡´ç‡™Ø",
          "official_name:gv": "Deynphobblaght ny Sheen",
          "official_name:ha": "Jamhuriyar jama'ar Sin",
          "official_name:he": "◊î◊®◊§◊ï◊ë◊ú◊ô◊ß◊î ◊î◊¢◊û◊û◊ô◊™ ◊©◊ú ◊°◊ô◊ü",
          "official_name:hi": "‡§ö‡•Ä‡§®‡•Ä ‡§ú‡§®‡§µ‡§æ‡§¶‡•Ä ‡§ó‡§£‡§∞‡§æ‡§ú‡•ç‡§Ø",
          "official_name:hr": "Narodna Republika Kina",
          "official_name:hu": "K√≠nai N√©pk√∂zt√°rsas√°g",
          "official_name:hy": "’â’´’∂’°’Ω’ø’°’∂’´ ‘∫’∏’≤’∏’æ÷Ä’§’°’Ø’°’∂ ’Ä’°’∂÷Ä’°’∫’•’ø’∏÷Ç’©’µ’∏÷Ç’∂",
          "official_name:ia": "Republica Popular de China",
          "official_name:id": "Republik Rakyat Tiongkok",
          "official_name:io": "Populala Republiko di Chinia",
          "official_name:is": "Al√æ√Ω√∞ul√Ω√∞veldi√∞ K√≠na",
          "official_name:it": "Repubblica Popolare Cinese",
          "official_name:ja": "‰∏≠ËèØ‰∫∫Ê∞ëÂÖ±ÂíåÂõΩ",
          "official_name:jv": "R√©publik Rakyat Cina",
          "official_name:ka": "·É©·Éò·Éú·Éî·Éó·Éò·É° ·É°·Éê·ÉÆ·Éê·Éö·ÉÆ·Éù ·É†·Éî·É°·Éû·É£·Éë·Éö·Éò·Éô·Éê",
          "official_name:kg": "Repubilika ya Bantu ya Sina",
          "official_name:ki": "R≈©thiomi rwa kƒ© China",
          "official_name:kk": "“ö—ã—Ç–∞–π –•–∞–ª—ã“õ –†–µ—Å–ø—É–±–ª–∏–∫–∞—Å—ã",
          "official_name:kl": "Innuttaasut Kunngiitsuuffik Kina",
          "official_name:km": "·ûü·û∂·ûí·û∂·ûö·ûé·ûö·ûä·üí·ûã·ûî·üí·ûö·ûá·û∂·ûò·û∂·ûì·û∑·ûè·ûÖ·û∑·ûì",
          "official_name:kn": "‡≤ö‡≥Ä‡≤®‡≤ø ‡≤ú‡≤®‡≤∞ ‡≤ó‡≤£‡≤∞‡≤æ‡≤ú‡≥ç‡≤Ø",
          "official_name:ko": "Ï§ëÌôîÏù∏ÎØºÍ≥µÌôîÍµ≠",
          "official_name:ku": "Komara Gel a √á√Ænistan√™",
          "official_name:kw": "Repoblek an Werin China",
          "official_name:ky": "–ö—ã—Ç–∞–π –≠–ª –†–µ—Å–ø—É–±–ª–∏–∫–∞—Å—ã",
          "official_name:la": "Res publica popularis Sinarum",
          "official_name:lb": "Volleksrepublik China",
          "official_name:li": "Volksrippebliek China",
          "official_name:lo": "‡∫™‡∫≤‡∫ó‡∫≤‡∫•‡∫∞‡∫ô‡∫∞‡∫•‡∫±‡∫î‡∫õ‡∫∞‡∫ä‡∫≤‡∫ä‡∫ª‡∫ô‡∫à‡∫µ‡∫ô",
          "official_name:lt": "Kinijos Liaudies Respublika",
          "official_name:lv": "ƒ∂ƒ´nas Tautas Republika",
          "official_name:mg": "Repoblika Entim-bahoakan'i Sina",
          "official_name:mi": "T≈´wehe-ƒÅ-Iwi o Haina",
          "official_name:mk": "–ù–∞—Ä–æ–¥–Ω–∞ –†–µ–ø—É–±–ª–∏–∫–∞ –ö–∏–Ω–∞",
          "official_name:ml": "‡¥™‡µÄ‡¥™‡µç‡¥™‡¥ø‡µæ‡¥∏‡µç‚Äå ‡¥±‡¥ø‡¥™‡µç‡¥™‡¥¨‡µç‡¥≤‡¥ø‡¥ï‡µç‡¥ï‡µç ‡¥ì‡¥´‡µç‚Äå ‡¥ö‡µà‡¥®",
          "official_name:mn": "–ë“Ø–≥–¥ –ù–∞–π—Ä–∞–º–¥–∞—Ö –•—è—Ç–∞–¥ –ê—Ä–¥ –£–ª—Å",
          "official_name:mr": "‡§ö‡•Ä‡§®‡§ö‡•á ‡§ú‡§®‡§§‡•á‡§ö‡•á ‡§™‡•ç‡§∞‡§ú‡§æ‡§∏‡§§‡•ç‡§§‡§æ‡§ï",
          "official_name:ms": "Republik Rakyat China",
          "official_name:mt": "Repubblika Popolari taƒã-ƒäina",
          "official_name:my": "·Äê·Äõ·ÄØ·Äê·Ä∫·Äï·Äº·Ää·Ä∫·Äû·Ä∞·Ä∑·Äû·Äô·Äπ·Äô·Äê·Äî·Ä≠·ÄØ·ÄÑ·Ä∫·ÄÑ·Ä∂",
          "official_name:ne": "‡§ú‡§®‡§µ‡§æ‡§¶‡•Ä ‡§ó‡§£‡§§‡§®‡•ç‡§§‡•ç‡§∞ ‡§ö‡•Ä‡§®",
          "official_name:nl": "Volksrepubliek China",
          "official_name:nn": "Folkerepublikken Kina",
          "official_name:no": "Folkerepublikken Kina",
          "official_name:oc": "Republica Populara de China",
          "official_name:om": "Riippabiliika Ummataa Chaayina",
          "official_name:os": "–ö–∏—Ç–∞–π—ã –ê–¥√¶–º–æ–Ω –†–µ—Å–ø—É–±–ª–∏–∫√¶",
          "official_name:pa": "‡®ö‡©Ä‡®® ‡®¶‡®æ ‡®≤‡©ã‡®ï‡®∞‡®æ‡®ú‡©Ä ‡®ó‡®£‡®§‡©∞‡®§‡®∞",
          "official_name:pl": "Chi≈Ñska Republika Ludowa",
          "official_name:ps": "⁄ÜŸäŸÜ ÿØ ÿÆŸÑ⁄©Ÿà ÿ¨ŸÖŸáŸàÿ±Ÿäÿ™",
          "official_name:pt": "Rep√∫blica Popular da China",
          "official_name:qu": "Chunwa Runallaqta Ripuwlika",
          "official_name:ro": "Republica PopularƒÉ ChinezƒÉ",
          "official_name:ru": "–ö–∏—Ç–∞–π—Å–∫–∞—è –ù–∞—Ä–æ–¥–Ω–∞—è –†–µ—Å–ø—É–±–ª–∏–∫–∞",
          "official_name:sd": "ÿπŸàÿßŸÖŸä ÿ¨ŸÖŸáŸàÿ±ŸäŸá ⁄ÜŸäŸÜ",
          "official_name:se": "Kiinn√° √°lbmotd√°ssev√°ldi",
          "official_name:sg": "Hal√´zo K√∂d√∂r√∂s√™se t√Æ S√Æn√§",
          "official_name:sh": "Narodna Republika Kina",
          "official_name:si": "‡∂†‡∑ì‡∂± ‡∂∏‡∑Ñ‡∂¢‡∂± ‡∑É‡∂∏‡∑ñ‡∑Ñ‡∑è‡∂´‡∑ä‡∂©‡∑î‡∑Ä",
          "official_name:sk": "ƒå√≠nska ƒæudov√° republika",
          "official_name:sl": "Lj√∫dska rep√∫blika Kit√°jska",
          "official_name:sm": "Tagata o le Ripapelika o Saina",
          "official_name:sq": "Republika Popullore e Kin√´s",
          "official_name:sr": "–ù–∞—Ä–æ–¥–Ω–∞ –†–µ–ø—É–±–ª–∏–∫–∞ –ö–∏–Ω–∞",
          "official_name:su": "R√©publik Rahayat Tiongkok",
          "official_name:sv": "Folkrepubliken Kina",
          "official_name:sw": "Jamhuri ya Watu wa China",
          "official_name:ta": "‡Æö‡ØÄ‡Æ© ‡ÆÆ‡Æï‡Øç‡Æï‡Æ≥‡Øç ‡Æï‡ØÅ‡Æü‡Æø‡ÆØ‡Æ∞‡Æö‡ØÅ",
          "official_name:te": "‡∞™‡±Ä‡∞™‡±Å‡∞≤‡±ç‡∞∏‡±ç ‡∞∞‡∞ø‡∞™‡∞¨‡±ç‡∞≤‡∞ø‡∞ï‡±ç ‡∞Ü‡∞´‡±ç ‡∞ö‡±à‡∞®‡∞æ",
          "official_name:tg": "“∂—É–º“≥—É—Ä–∏ÃÅ–∏ –•–∞–ª“õ–∏ÃÅ–∏ –ß–∏–Ω",
          "official_name:th": "‡∏™‡∏≤‡∏ò‡∏≤‡∏£‡∏ì‡∏£‡∏±‡∏ê‡∏õ‡∏£‡∏∞‡∏ä‡∏≤‡∏ä‡∏ô‡∏à‡∏µ‡∏ô",
          "official_name:ti": "·ã®·âª·ã≠·äì ·àÖ·ãù·â¶·âΩ ·à™·çê·â•·àä·ä≠",
          "official_name:tk": "Hyta√Ω Halk Respublikasy",
          "official_name:tl": "Republikang Bayan ng Tsina",
          "official_name:tr": "√áin Halk Cumhuriyeti",
          "official_name:tt": "–ö—ã—Ç–∞–π –•–∞–ª—ã–∫ “ñ”©–º“ª“Ø—Ä–∏—è—Ç–µ",
          "official_name:ug": "ÿ¨€á⁄≠ÿÆ€áÿß ÿÆ€ïŸÑŸÇ ÿ¨€áŸÖ⁄æ€áÿ±ŸâŸäŸâÿ™Ÿâ",
          "official_name:uk": "–ö–∏—Ç–∞ÃÅ–π—Å—å–∫–∞ –ù–∞—Ä–æÃÅ–¥–Ω–∞ –†–µ—Å–ø—ÉÃÅ–±–ª—ñ–∫–∞",
          "official_name:ur": "ÿπŸàÿßŸÖ€å ÿ¨ŸÖ€ÅŸàÿ±€å€Å ⁄Ü€åŸÜ",
          "official_name:uz": "Xitoy Xalq Respublikasi",
          "official_name:vi": "C·ªông h√≤a Nh√¢n d√¢n Trung Hoa",
          "official_name:wo": "Republik Popileer bu Ciin",
          "official_name:yi": "◊û◊¢◊†◊ò◊©◊†◊° ◊®◊¢◊§◊ï◊ë◊ú◊ô◊ß ◊§◊ï◊ü ◊õ◊ô◊†◊¢",
          "official_name:yo": "Or√≠l·∫πÃÄ-√®d√® Ol√≥m√¨nira √†w·ªçn Ar√° il·∫πÃÄ ·π¢√°√≠n√†",
          "official_name:za": "Cunghvaz Yinzminz Gunghozgoz",
          "official_name:zh": "‰∏≠Âçé‰∫∫Ê∞ëÂÖ±ÂíåÂõΩ",
          "ISO3166-1:numeric": "156",
          "official_name:ace": "R√®publik Rakyat Cina",
          "official_name:als": "Volksrepublik China",
          "official_name:ang": "Cƒ´nan Folclice Cynewƒ´se",
          "official_name:arc": "‹©‹ò‹õ‹¢‹ù‹ò‹¨‹ê ‹•‹°‹°‹ù‹¨‹ê ‹ï‹®‹ù‹¢",
          "official_name:arz": "ÿ¨ŸÖŸáŸàÿ±Ÿäÿ© ÿßŸÑÿµŸäŸÜ ÿßŸÑÿ¥ÿπÿ®Ÿäÿ©",
          "official_name:ast": "Rep√∫blica Popular de China",
          "official_name:azb": "⁄Ü€åŸÜ ÿÆÿßŸÑŸÇ ÿ¨ŸàŸÖŸáŸàÿ±€åÿ™€å",
          "official_name:bar": "Voiksrepublik Kina",
          "official_name:bcl": "Republikang Popular kan Tsina",
          "official_name:bjn": "Ripublik Rakyat Cina",
          "official_name:bpy": "‡¶ó‡¶£ ‡¶™‡ßç‡¶∞‡¶ú‡¶æ‡¶§‡¶®‡ßç‡¶§‡ßç‡¶∞‡¶ø ‡¶ö‡ßÄ‡¶®",
          "official_name:bxr": "–ë“Ø–≥—ç–¥—ç –ù–∞–π—Ä–∞–º–¥–∞—Ö–∞ –•–∏—Ç–∞–¥ –ê—Ä–∞–¥ –£–ª–∞—Å",
          "official_name:cdo": "D·π≥ÃÜng-hu√† √ång-m√¨ng G√™Ã§·π≥ng-hu√≤-gu√≥k",
          "official_name:ceb": "Pangmasang Republika sa Tsina",
          "official_name:chr": "·è¥·è´ ·é§·éæ·è§·éµ·èç·é¶·èö·é© ·éæ·éø ·èì·é∂·èÇ·é®·èç·èõ",
          "official_name:ckb": "⁄©€ÜŸÖÿßÿ±€å ÿÆ€ï⁄µ⁄©€å ⁄Ü€åŸÜ",
          "official_name:crh": "√áin Halq Cumhuriyeti",
          "official_name:csb": "Chi≈Ñsk√¥ L√´dow√¥ Rep√πblika",
          "official_name:diq": "Cumhuriyet√™ ≈ûari√™ √áini",
          "official_name:dsb": "Chinska ludowa republika",
          "official_name:dty": "‡§ú‡§®‡§µ‡§æ‡§¶‡•Ä ‡§ó‡§£‡§§‡§®‡•ç‡§§‡•ç‡§∞ ‡§ö‡•Ä‡§®",
          "official_name:eml": "Rep√≥blica popul√®ra dla Cina",
          "official_name:ext": "Rep√∫brica Populal China",
          "official_name:frp": "R√®publica popul√®ra de Ch¬∑ina",
          "official_name:frr": "F√∂ljksrepubliik Sina",
          "official_name:gag": "Kitay Halk Respublikasƒ±",
          "official_name:gan": "‰∏≠ËèØ‰∫∫Ê∞ëÂÖ±ÂíåÂúã",
          "official_name:hak": "Ch√ªng-f√† Ng√¨n-m√¨n Khiung-f√≤-koet",
          "official_name:hif": "People's Republic of China",
          "official_name:hsb": "Chinska ludowa republika",
          "official_name:ilo": "Republika ti Tattao iti Tsina",
          "official_name:jam": "Piiplz Ripoblik a Chaina",
          "official_name:jbo": "jungo ke prenu gubyseltru",
          "official_name:kbd": "–•—ä—É—Ç–µ–π –ñ—ã–ª—ç –†–µ—Å–ø—É–±–ª–∏–∫—ç",
          "official_name:koi": "–ö–∏—Ç–∞–π –æ—Ç–∏—Ä —Ä–µ—Å–ø—É–±–ª–∏–∫–∞",
          "official_name:krc": "–ö—ä—ã—Ç–∞–π –•–∞–ª–∫—ä –†–µ—Å–ø—É–±–ª–∏–∫–∞",
          "official_name:lad": "Repuvlika Popular de Kina",
          "official_name:lez": "–ö–∏—Ç–∞–π–¥–∏–Ω –•–∞–ª–∫—å–¥–∏–Ω –†–µ—Å–ø—É–±–ª–∏–∫–∞",
          "official_name:lmo": "Rep√ºbliga Pupulara de la Cina",
          "official_name:lrc": "⁄©ŸàŸôŸÖÿ£ÿ±€ï ⁄§ŸàŸÑÿßÿ™ ÿÆÿ£ŸÑ⁄© ⁄Ü€åŸÜ",
          "official_name:lzh": "‰∏≠ËèØ‰∫∫Ê∞ëÂÖ±ÂíåÂúã",
          "official_name:mai": "‡§ú‡§®‡§¨‡§æ‡§¶‡•Ä ‡§ó‡§£‡§§‡§®‡•ç‡§§‡•ç‡§∞ ‡§ö‡•Ä‡§®",
          "official_name:mdf": "–ö–∏—Ç–∞–π –ö–∞–ª–∫–æ–Ω—å –†–µ—Å–ø—É–±–ª–∏–∫—Å—å",
          "official_name:min": "Republik Rakyaik Cino",
          "official_name:mwl": "Rep√∫blica Popular de la China",
          "official_name:myv": "–ö–∏—Ç–∞–µ–Ω—å –†–∞—Å—å–∫–µ–Ω—å –†–µ—Å–ø—É–±–ª–∏–∫–∞—Å—å",
          "official_name:mzn": "⁄Ü€åŸÜ ŸÖÿ±ÿØŸÖ ÿ¨ŸÖŸáŸàÿ±€å",
          "official_name:nah": "TlƒÅcatlahtocƒÅy≈çtl ƒÄltepƒìhuahcƒÅy≈çtl China",
          "official_name:nan": "Tiong-ho√¢ J√Æn-b√Æn Ki≈çng-h√¥-kok",
          "official_name:nap": "Repubbreca Populare Cinese",
          "official_name:nds": "Volksrepubliek China",
          "official_name:new": "‡§ú‡§®‡§µ‡§æ‡§¶‡•Ä ‡§ó‡§£‡§§‡§®‡•ç‡§§‡•ç‡§∞ ‡§ö‡•Ä‡§®",
          "official_name:nov": "Populen Republike de China",
          "official_name:nrm": "R√©publyique du Peupl'ye d'la Chinne",
          "official_name:nso": "Repabliki ya Batho ya T≈°haena",
          "official_name:olo": "Kitain Rahvahan tazavaldu",
          "official_name:pag": "Republika ya Too na Zhongguo",
          "official_name:pam": "Maldang Republica ning Tsina",
          "official_name:pap": "Republika di Pueblo di China",
          "official_name:pcd": "R√©publique populo√®re Kine",
          "official_name:pih": "Piopel's Repablik o' Shiina",
          "official_name:pnt": "ŒõŒ±œäŒ∫œåŒΩ Œ∑ ŒîŒ∑ŒºŒøŒ∫œÅŒ±œÑŒØŒ±ŒΩ œÑŒ∑ ŒöŒØŒΩŒ±œÇ",
          "official_name:rue": "–ö—ñ—Ç–∞–π—Å–∫–∞ –ù–∞—Ä–æ–¥–Ω–∞ –†–µ–ø—É–±–ª—ñ–∫–∞",
          "official_name:sah": "–ö—ã—Ç–∞–π –î—å–æ–Ω ”®—Ä”©—Å–ø“Ø“Ø–±“Ø–ª“Ø–∫—ç—Ç—ç",
          "official_name:scn": "Rip√πbblica Pupulari Cin√¨sa",
          "official_name:sco": "Fowkrepublic o Cheenae",
          "official_name:srn": "Pipel Republiki Sneysa",
          "official_name:stq": "Foulksrepublik China",
          "official_name:szl": "Chi≈Ñsk≈è Ludow≈è Republika",
          "official_name:tet": "Rep√∫blika Popul√°r Xina nian",
          "official_name:tpi": "Republik bilong Manmeri bilong Saina",
          "official_name:udm": "–ö–∏—Ç–∞ÃÅ–π –ö–∞–ª—ãÃÅ–∫ –†–µ—Å–ø—ÉÃÅ–±–ª–∏–∫–∞",
          "official_name:vec": "Republica Popo≈Çare Cinexe",
          "official_name:vep": "Kitain Rahvahaline Tazovaldkund",
          "official_name:vls": "Volksrepubliek China",
          "official_name:vro": "Hiina Rahvavabariik",
          "official_name:war": "Kanan Katawhan Republika han Tsina",
          "official_name:wuu": "‰∏≠Âçé‰∫∫Ê∞ëÂÖ±ÂíåÂõΩ",
          "official_name:xmf": "·É©·Éò·Éú·Éî·Éó·Éò·É® ·Éù·Éô·Éê·Éó·Éî ·É†·Éî·É°·Éû·É£·Éë·Éö·Éò·Éô·Éê",
          "official_name:yue": "‰∏≠ËèØ‰∫∫Ê∞ëÂÖ±ÂíåÂúã",
          "official_name:zea": "Volksrepubliek China",
          "short_name:nan-HJ": "‰∏≠ÂõΩ",
          "short_name:nan-TL": "Tiong-kok",
          "short_name:bat-smg": "Kƒónƒójƒós LR",
          "short_name:nan-POJ": "Tiong-kok",
          "short_name:zh-Hans": "‰∏≠ÂõΩ",
          "short_name:zh-Hant": "‰∏≠Âúã",
          "name:zh-Latn-pinyin": "Zh≈çnggu√≥",
          "official_name:nan-HJ": "‰∏≠Âçé‰∫∫Ê∞ëÂÖ±ÂíåÂõΩ",
          "official_name:nan-TL": "Tiong-hu√¢ J√Æn-b√Æn Ki≈çng-h√¥-kok",
          "official_name:nds-nl": "Volksrippebliek China",
          "official_name:bat-smg": "Kƒónƒójƒós Liaudƒóis Respoblƒóka",
          "official_name:cbk-zam": "Rep√∫blica Popular China",
          "official_name:ko-Hani": "‰∏≠ËèØ‰∫∫Ê∞ëÂÖ±ÂíåÂúã",
          "official_name:nan-POJ": "Tiong-ho√¢ J√Æn-b√Æn Ki≈çng-h√¥-kok",
          "official_name:zh-Hans": "‰∏≠Âçé‰∫∫Ê∞ëÂÖ±ÂíåÂõΩ",
          "official_name:zh-Hant": "‰∏≠ËèØ‰∫∫Ê∞ëÂÖ±ÂíåÂúã",
          "official_name:roa-tara": "Repubbleche Populare Cenise",
          "official_name:be-tarask": "–ö—ñ—Ç–∞–π—Å–∫–∞—è –ù–∞—Ä–æ–¥–Ω–∞—è –†—ç—Å–ø—É–±–ª—ñ–∫–∞"
        }
      },
      "geometry": {
        "type": "Polygon",
        "coordinates": [
          [
            [
              91,
              28
            ],
            [
              91.27401625624877,
              28
            ],
            [
              91.2736485,
              28.0003247
            ],
            [
              91.2755702,
              28.0056424
            ],
            [
              91.2740406,
              28.0085816
            ],
            [
              91.2742424,
              28.0116797
            ],
            [
              91.279754,
              28.0131491
            ],
            [
              91.2829481,
              28.0180341
            ],
            [
              91.2824983,
              28.0211318
            ],
            [
              91.2849813,
              28.0232755
            ],
            [
              91.2868171,
              28.0243486
            ],
            [
              91.2883016,
              28.0264931
            ],
            [
              91.2901962,
              28.0285006
            ],
            [
              91.2903711,
              28.0296302
            ],
            [
              91.2928299,
              28.0308821
            ],
            [
              91.2945699,
              28.0307099
            ],
            [
              91.2960823,
              28.0283845
            ],
            [
              91.2990582,
              28.0276811
            ],
            [
              91.3072705,
              28.0315855
            ],
            [
              91.3075144,
              28.03615
            ],
            [
              91.3084901,
              28.037284
            ],
            [
              91.3082787,
              28.0398245
            ],
            [
              91.3120352,
              28.0420061
            ],
            [
              91.3124905,
              28.0468716
            ],
            [
              91.3064611,
              28.0519375
            ],
            [
              91.306386,
              28.0532915
            ],
            [
              91.3070082,
              28.0545792
            ],
            [
              91.3091755,
              28.0566243
            ],
            [
              91.3081884,
              28.0593321
            ],
            [
              91.3087699,
              28.060673
            ],
            [
              91.3165538,
              28.062639
            ],
            [
              91.317402,
              28.062658
            ],
            [
              91.3185968,
              28.062273
            ],
            [
              91.3195598,
              28.062157
            ],
            [
              91.320466,
              28.062215
            ],
            [
              91.32116,
              28.062716
            ],
            [
              91.3217951,
              28.062832
            ],
            [
              91.3244738,
              28.062832
            ],
            [
              91.3253411,
              28.062677
            ],
            [
              91.328405,
              28.061521
            ],
            [
              91.3298692,
              28.062581
            ],
            [
              91.3307749,
              28.062966
            ],
            [
              91.3328179,
              28.065163
            ],
            [
              91.3337039,
              28.065491
            ],
            [
              91.3346669,
              28.066223
            ],
            [
              91.3360162,
              28.06578
            ],
            [
              91.338926,
              28.065683
            ],
            [
              91.339542,
              28.064315
            ],
            [
              91.340024,
              28.063853
            ],
            [
              91.3419511,
              28.06262
            ],
            [
              91.3423169,
              28.062157
            ],
            [
              91.3425289,
              28.061194
            ],
            [
              91.3425098,
              28.058342
            ],
            [
              91.343416,
              28.056087
            ],
            [
              91.3432039,
              28.055008
            ],
            [
              91.342413,
              28.053659
            ],
            [
              91.3423561,
              28.052715
            ],
            [
              91.3427219,
              28.051077
            ],
            [
              91.342625,
              28.04994
            ],
            [
              91.3443019,
              28.049516
            ],
            [
              91.3459781,
              28.048669
            ],
            [
              91.3483289,
              28.047994
            ],
            [
              91.3491389,
              28.048245
            ],
            [
              91.349235,
              28.048534
            ],
            [
              91.3494661,
              28.048572
            ],
            [
              91.35041,
              28.048303
            ],
            [
              91.3512391,
              28.04863
            ],
            [
              91.3519321,
              28.048437
            ],
            [
              91.3540331,
              28.048765
            ],
            [
              91.3580791,
              28.048187
            ],
            [
              91.3589662,
              28.047898
            ],
            [
              91.3597949,
              28.047879
            ],
            [
              91.360642,
              28.048071
            ],
            [
              91.3616831,
              28.049382
            ],
            [
              91.3651898,
              28.046761
            ],
            [
              91.3660178,
              28.045566
            ],
            [
              91.366596,
              28.0452
            ],
            [
              91.3668851,
              28.044584
            ],
            [
              91.3677329,
              28.043736
            ],
            [
              91.368099,
              28.042907
            ],
            [
              91.3684079,
              28.042637
            ],
            [
              91.370354,
              28.042291
            ],
            [
              91.3708361,
              28.042059
            ],
            [
              91.371992,
              28.041057
            ],
            [
              91.3728589,
              28.040614
            ],
            [
              91.3741499,
              28.039362
            ],
            [
              91.3757299,
              28.039304
            ],
            [
              91.3785149,
              28.036664
            ],
            [
              91.3815742,
              28.032708
            ],
            [
              91.3824299,
              28.032219
            ],
            [
              91.383898,
              28.031852
            ],
            [
              91.385285,
              28.03124
            ],
            [
              91.3899341,
              28.030628
            ],
            [
              91.3922989,
              28.030547
            ],
            [
              91.395806,
              28.03071
            ],
            [
              91.3968799,
              28.030529
            ],
            [
              91.3978508,
              28.030958
            ],
            [
              91.3995529,
              28.02858
            ],
            [
              91.4001271,
              28.028126
            ],
            [
              91.4013061,
              28.027987
            ],
            [
              91.402551,
              28.027476
            ],
            [
              91.4032879,
              28.024763
            ],
            [
              91.404977,
              28.023668
            ],
            [
              91.4060009,
              28.022621
            ],
            [
              91.406691,
              28.020789
            ],
            [
              91.409522,
              28.019885
            ],
            [
              91.409855,
              28.019385
            ],
            [
              91.412973,
              28.019338
            ],
            [
              91.4133769,
              28.019266
            ],
            [
              91.4145188,
              28.018529
            ],
            [
              91.41647,
              28.018481
            ],
            [
              91.4188741,
              28.019219
            ],
            [
              91.4196352,
              28.020004
            ],
            [
              91.4201348,
              28.020266
            ],
            [
              91.4217289,
              28.019719
            ],
            [
              91.423418,
              28.01979
            ],
            [
              91.4249891,
              28.018267
            ],
            [
              91.4272729,
              28.016768
            ],
            [
              91.4305331,
              28.01653
            ],
            [
              91.4315321,
              28.016316
            ],
            [
              91.4312711,
              28.014769
            ],
            [
              91.4311282,
              28.011295
            ],
            [
              91.431247,
              28.009296
            ],
            [
              91.43208,
              28.007203
            ],
            [
              91.433983,
              28.004371
            ],
            [
              91.4358391,
              28.0033
            ],
            [
              91.436981,
              28.002896
            ],
            [
              91.43879,
              28.002634
            ],
            [
              91.4400511,
              28.003752
            ],
            [
              91.4416448,
              28.004775
            ],
            [
              91.442835,
              28.00587
            ],
            [
              91.4440961,
              28.00844
            ],
            [
              91.4446199,
              28.009154
            ],
            [
              91.4456902,
              28.009868
            ],
            [
              91.4462611,
              28.01001
            ],
            [
              91.4483549,
              28.009725
            ],
            [
              91.4503781,
              28.009749
            ],
            [
              91.4521381,
              28.008821
            ],
            [
              91.4528999,
              28.008654
            ],
            [
              91.4552078,
              28.008725
            ],
            [
              91.4561122,
              28.008202
            ],
            [
              91.45804,
              28.007464
            ],
            [
              91.4602529,
              28.007369
            ],
            [
              91.4653159,
              28.006305
            ],
            [
              91.46427811181556,
              28
            ],
            [
              92,
              28
            ],
            [
              92,
              29
            ],
            [
              91,
              29
            ],
            [
              91,
              28
            ]
          ]
        ]
      }
    }
  ]
}