{
  "type": "FeatureCollection",
  "features": [
    {
      "type": "Feature",
      "properties": {
        "osm_id": -161033,
        "boundary": "administrative",
        "admin_level": 2,
        "parents": null,
        "name": "Mongolia",
        "local_name": "Монгол улс ᠮᠤᠩᠭᠤᠯ ᠤᠯᠤᠰ",
        "name_en": "Mongolia",
        "all_tags": {
          "flag": "http://upload.wikimedia.org/wikipedia/commons/4/4c/Flag_of_Mongolia.svg",
          "name": "Монгол улс ᠮᠤᠩᠭᠤᠯ ᠤᠯᠤᠰ",
          "name:af": "Mongolië",
          "name:am": "ሞንጎልያ",
          "name:an": "Mongolia",
          "name:ar": "منغوليا",
          "name:as": "মঙ্গোলিয়া",
          "name:az": "Monqolustan",
          "name:ba": "Монголия",
          "name:be": "Манголія",
          "name:bg": "Монголия",
          "name:bn": "মঙ্গোলিয়া",
          "name:bo": "མོང་གོལ།",
          "name:br": "Mongolia",
          "name:bs": "Mongolija",
          "name:ca": "Mongòlia",
          "name:ce": "Монголи",
          "name:cs": "Mongolsko",
          "name:cu": "Мѫголи",
          "name:cv": "Монголи",
          "name:cy": "Mongolia",
          "name:da": "Mongoliet",
          "name:de": "Mongolei",
          "name:dv": "މޮންގޯލިއާ",
          "name:dz": "སོག་པོ་",
          "name:ee": "Mongolia",
          "name:el": "Μογγολία",
          "name:en": "Mongolia",
          "name:eo": "Mongolio",
          "name:es": "Mongolia",
          "name:et": "Mongoolia",
          "name:eu": "Mongolia",
          "name:fa": "مغولستان",
          "name:fi": "Mongolia",
          "name:fo": "Mongolia",
          "name:fr": "Mongolie",
          "name:fy": "Mongoalje",
          "name:ga": "An Mhongóil",
          "name:gd": "Mongòilia",
          "name:gl": "Mongolia",
          "name:gn": "Mongolia",
          "name:gu": "મંગોલિયા",
          "name:gv": "Yn Vongoil",
          "name:he": "מונגוליה",
          "name:hi": "मंगोलिया",
          "name:hr": "Mongolija",
          "name:ht": "Mongoli",
          "name:hu": "Mongólia",
          "name:hy": "Մոնղոլիա",
          "name:ia": "Mongolia",
          "name:id": "Mongolia",
          "name:ie": "Mongolia",
          "name:io": "Mongolia",
          "name:is": "Mongólía",
          "name:it": "Mongolia",
          "name:ja": "モンゴル国",
          "name:jv": "Mongolia",
          "name:ka": "მონღოლეთი",
          "name:kk": "Моңғолия",
          "name:kl": "Mongolia",
          "name:km": "ម៉ុងហ្គោលី",
          "name:kn": "ಮಂಗೋಲಿಯ",
          "name:ko": "몽골",
          "name:ku": "Mongolya",
          "name:kv": "Монголия",
          "name:kw": "Mongoli",
          "name:ky": "Моңголстан",
          "name:la": "Mongolia",
          "name:lb": "Mongolei",
          "name:li": "Mongolië",
          "name:ln": "Mongolí",
          "name:lt": "Mongolija",
          "name:lv": "Mongolija",
          "name:mi": "Mongōria",
          "name:mk": "Монголија",
          "name:ml": "മംഗോളിയ",
          "name:mo": "Монголия",
          "name:mr": "मंगोलिया",
          "name:ms": "Mongolia",
          "name:my": "မွန်ဂိုးလီးယားနိုင်ငံ",
          "name:na": "Mongoriya",
          "name:ne": "मङ्गोलिया",
          "name:nl": "Mongolië",
          "name:nn": "Mongolia",
          "name:no": "Mongolia",
          "name:nv": "Chʼah Diʼilii Bikéyah",
          "name:oc": "Mongolia",
          "name:or": "ମଙ୍ଗୋଲିଆ",
          "name:os": "Мангол",
          "name:pa": "ਮੰਗੋਲੀਆ",
          "name:pl": "Mongolia",
          "name:ps": "مغولستان",
          "name:pt": "Mongólia",
          "name:qu": "Mungul suyu",
          "name:ro": "Mongolia",
          "name:ru": "Монголия",
          "name:rw": "Mongoliya",
          "name:sa": "मंगोलिया",
          "name:se": "Mongolia",
          "name:sh": "Mongolija",
          "name:si": "මොංගෝලියාව",
          "name:sk": "Mongolsko",
          "name:sl": "Mongolija",
          "name:sm": "Mogitolia",
          "name:so": "Mongolia",
          "name:sq": "Mongolia",
          "name:sr": "Монголија",
          "name:ss": "IMongoliya",
          "name:su": "Mongolia",
          "name:sv": "Mongoliet",
          "name:sw": "Mongolia",
          "name:ta": "மங்கோலியா",
          "name:te": "మంగోలియా",
          "name:tg": "Муғулистон",
          "name:th": "ประเทศมองโกเลีย",
          "name:tk": "Mongoliýa",
          "name:tl": "Monggolya",
          "name:tr": "Moğolistan",
          "name:tt": "Монголия",
          "name:ug": "موڭغۇلىيە",
          "name:uk": "Монголія",
          "name:ur": "منگولیا",
          "name:uz": "Moʻgʻuliston",
          "name:vi": "Mông Cổ",
          "name:vo": "Mongolän",
          "name:wo": "Mongoli",
          "name:yi": "מאנגאליי",
          "name:yo": "Mòngólíà",
          "name:za": "Mungzguj",
          "name:zh": "蒙古",
          "boundary": "administrative",
          "int_name": "Mongolia",
          "name:ace": "Mongolia",
          "name:als": "Mongolei",
          "name:arz": "مونجوليا",
          "name:ast": "Mongolia",
          "name:bcl": "Mongolya",
          "name:bpy": "মঙ্গোলিয়া",
          "name:bug": "Mongolia",
          "name:bxr": "Монгол Улас",
          "name:cdo": "Mūng-gū",
          "name:ceb": "Mongolia",
          "name:chr": "ᎼᏂᎪᎵᏱ",
          "name:ckb": "مەنگۆلیا",
          "name:crh": "Moğolistan",
          "name:csb": "Mòngolskô",
          "name:diq": "Moğolıstan",
          "name:dsb": "Mongolska",
          "name:ext": "Mongolia",
          "name:frp": "Mongolie",
          "name:gag": "Mongoliya",
          "name:hak": "Mùng-kú-koet",
          "name:haw": "Monokolia",
          "name:hif": "Mongolia",
          "name:hsb": "Mongolska",
          "name:ilo": "Mongolia",
          "name:jbo": "mongolo",
          "name:kbd": "Монгол",
          "name:lez": "Монголия",
          "name:lij": "Mongòllia",
          "name:lmo": "Mungolia",
          "name:mdf": "Монголие",
          "name:mzn": "موغولئون",
          "name:nah": "Mongolia",
          "name:nan": "Bông-kó͘",
          "name:nds": "Mongolei",
          "name:new": "मंगोलिया",
          "name:nov": "Mongolia",
          "name:nrm": "Mongolie",
          "name:pam": "Mongolia",
          "name:pap": "Mongolia",
          "name:pih": "Mongoelya",
          "name:pms": "Mongòlia",
          "name:pnb": "منگولیا",
          "name:sah": "Монголия",
          "name:scn": "Mongolia",
          "name:sco": "Mongolie",
          "name:smn": "Mongolia",
          "name:sms": "Mongolia",
          "name:szl": "Mōngolijŏ",
          "name:tzl": "Mongoglh",
          "name:udm": "Монголия",
          "name:vec": "Mongołia",
          "name:vro": "Mongoolia",
          "name:war": "Mongolya",
          "name:wuu": "蒙古国",
          "name:xal": "Моңһлмудин Орн",
          "name:yue": "蒙古國",
          "name:zea": "Monholië",
          "way_area": "184.687",
          "wikidata": "Q711",
          "ISO3166-1": "MN",
          "land_area": "administrative",
          "wikipedia": "en:Mongolia",
          "admin_level": "2",
          "alt_name:eo": "Mongolujo",
          "alt_name:zh": "蒙古",
          "name:nds-nl": "Mongolië",
          "name:bat-smg": "Monguolėjė",
          "name:mn-Cyrl": "Монгол улс",
          "name:mn-Mong": "ᠮᠤᠩᠭᠤᠯ ᠤᠯᠤᠰ",
          "name:zh-Hans": "蒙古国",
          "name:zh-Hant": "蒙古國",
          "name:be-tarask": "Манголія",
          "ISO3166-1:alpha2": "MN",
          "ISO3166-1:alpha3": "MNG",
          "default_language": "mn",
          "ISO3166-1:numeric": "496"
        }
      },
      "geometry": {
        "type": "Polygon",
        "coordinates": [
          [
            [
              91,
              50
            ],
            [
              92,
              50
            ],
            [
              92,
              50.71287580585559
            ],
            [
              91.9998272,
              50.7129471
            ],
            [
              91.9960785,
              50.7131455
            ],
            [
              91.9952202,
              50.7124526
            ],
            [
              91.993289,
              50.7123439
            ],
            [
              91.9923465,
              50.7126724
            ],
            [
              91.9913792,
              50.7134988
            ],
            [
              91.9905209,
              50.7138792
            ],
            [
              91.9879736,
              50.7143992
            ],
            [
              91.9872594,
              50.7155096
            ],
            [
              91.986444,
              50.7158221
            ],
            [
              91.983161,
              50.7158493
            ],
            [
              91.981852,
              50.7165965
            ],
            [
              91.9786119,
              50.7174117
            ],
            [
              91.9779038,
              50.7179823
            ],
            [
              91.9769475,
              50.7182371
            ],
            [
              91.9740414,
              50.7186344
            ],
            [
              91.9719126,
              50.7185315
            ],
            [
              91.9690203,
              50.7193816
            ],
            [
              91.9648902,
              50.7191084
            ],
            [
              91.8550843,
              50.7338299
            ],
            [
              91.8243956,
              50.7246643
            ],
            [
              91.7993235,
              50.720305
            ],
            [
              91.7502794,
              50.6990369
            ],
            [
              91.7232583,
              50.6974786
            ],
            [
              91.7219674,
              50.694847
            ],
            [
              91.7205298,
              50.6931887
            ],
            [
              91.7153552,
              50.6895568
            ],
            [
              91.6611094,
              50.6400594
            ],
            [
              91.6516238,
              50.6198592
            ],
            [
              91.6515112,
              50.6155399
            ],
            [
              91.6499476,
              50.5862385
            ],
            [
              91.6470373,
              50.5861454
            ],
            [
              91.6453636,
              50.5866427
            ],
            [
              91.643368,
              50.5865132
            ],
            [
              91.6424668,
              50.5862953
            ],
            [
              91.6398811,
              50.5846127
            ],
            [
              91.6374349,
              50.5835772
            ],
            [
              91.6325037,
              50.5836895
            ],
            [
              91.6302144,
              50.5832502
            ],
            [
              91.627779,
              50.5831481
            ],
            [
              91.623922,
              50.5841495
            ],
            [
              91.6214544,
              50.5835432
            ],
            [
              91.6118091,
              50.5825656
            ],
            [
              91.608156,
              50.5818298
            ],
            [
              91.6008604,
              50.5814075
            ],
            [
              91.598657,
              50.580505
            ],
            [
              91.5940153,
              50.5825349
            ],
            [
              91.5892303,
              50.5840337
            ],
            [
              91.5858614,
              50.5842687
            ],
            [
              91.5786,
              50.5841
            ],
            [
              91.575315,
              50.5844288
            ],
            [
              91.5701973,
              50.584347
            ],
            [
              91.556877,
              50.5834354
            ],
            [
              91.5475541,
              50.5819831
            ],
            [
              91.5421041,
              50.5814617
            ],
            [
              91.5343069,
              50.5814176
            ],
            [
              91.5338051,
              50.5745501
            ],
            [
              91.5339694,
              50.5725608
            ],
            [
              91.5258121,
              50.5704209
            ],
            [
              91.5243047,
              50.57038
            ],
            [
              91.5225291,
              50.5707956
            ],
            [
              91.5247134,
              50.5619628
            ],
            [
              91.4876282,
              50.5540265
            ],
            [
              91.4549029,
              50.5485247
            ],
            [
              91.4590257,
              50.508449
            ],
            [
              91.4424801,
              50.4941628
            ],
            [
              91.441462,
              50.4935827
            ],
            [
              91.440196,
              50.492518
            ],
            [
              91.4398742,
              50.4919037
            ],
            [
              91.4396381,
              50.4906477
            ],
            [
              91.4385652,
              50.4902382
            ],
            [
              91.4369103,
              50.4900931
            ],
            [
              91.4331364,
              50.4889959
            ],
            [
              91.4308512,
              50.4895385
            ],
            [
              91.4299822,
              50.4885863
            ],
            [
              91.4276862,
              50.4868525
            ],
            [
              91.4263129,
              50.486361
            ],
            [
              91.4243817,
              50.4862654
            ],
            [
              91.4234376,
              50.485692
            ],
            [
              91.421442,
              50.4849821
            ],
            [
              91.4207178,
              50.4842004
            ],
            [
              91.4194518,
              50.4832993
            ],
            [
              91.4175153,
              50.4822104
            ],
            [
              91.4161205,
              50.4818144
            ],
            [
              91.4151871,
              50.4810157
            ],
            [
              91.4141249,
              50.4811863
            ],
            [
              91.4117646,
              50.4810361
            ],
            [
              91.4106703,
              50.4805582
            ],
            [
              91.4100265,
              50.4807084
            ],
            [
              91.4085459,
              50.4802305
            ],
            [
              91.4079666,
              50.4802032
            ],
            [
              91.4072871,
              50.4804515
            ],
            [
              91.4068508,
              50.4801554
            ],
            [
              91.40625,
              50.4790699
            ],
            [
              91.4059281,
              50.4788719
            ],
            [
              91.4054239,
              50.4789333
            ],
            [
              91.4049196,
              50.4787353
            ],
            [
              91.4047587,
              50.4784144
            ],
            [
              91.4047801,
              50.477957
            ],
            [
              91.4045119,
              50.4774381
            ],
            [
              91.4038682,
              50.4771718
            ],
            [
              91.4023876,
              50.4775269
            ],
            [
              91.4016151,
              50.4774723
            ],
            [
              91.4005094,
              50.4765146
            ],
            [
              91.4007568,
              50.4738808
            ],
            [
              91.400392,
              50.4725834
            ],
            [
              91.3999917,
              50.4721336
            ],
            [
              91.4003485,
              50.4714858
            ],
            [
              91.4000339,
              50.4667973
            ],
            [
              91.4044761,
              50.4606934
            ],
            [
              91.4074523,
              50.4552905
            ],
            [
              91.4094,
              50.4506
            ],
            [
              91.3952,
              50.4549
            ],
            [
              91.3796,
              50.4583
            ],
            [
              91.3568,
              50.4643
            ],
            [
              91.32,
              50.4709
            ],
            [
              91.2933,
              50.4696
            ],
            [
              91.2516,
              50.4546
            ],
            [
              91.2085,
              50.4396
            ],
            [
              91.16,
              50.4201
            ],
            [
              91.1557,
              50.4199
            ],
            [
              91.1203,
              50.4274
            ],
            [
              91.1103,
              50.431
            ],
            [
              91.0932,
              50.436
            ],
            [
              91.0876,
              50.4359
            ],
            [
              91.0765,
              50.4311
            ],
            [
              91.0568,
              50.4309
            ],
            [
              91.0383,
              50.4351
            ],
            [
              91.0257,
              50.4348
            ],
            [
              91.0118,
              50.4301
            ],
            [
              91.0048,
              50.4291
            ],
            [
              91,
              50.42949529411764
            ],
            [
              91,
              50
            ]
          ]
        ]
      }
    },
    {
      "type": "Feature",
      "properties": {
        "osm_id": -60189,
        "boundary": "administrative",
        "admin_level": 2,
        "parents": null,
        "name": "Russia",
        "local_name": "Россия",
        "name_en": "Russia",
        "all_tags": {
          "flag": "https://upload.wikimedia.org/wikipedia/commons/f/f3/Flag_of_Russia.svg",
          "name": "Россия",
          "int_ref": "RU",
          "name:ab": "Урыстәыла",
          "name:af": "Rusland",
          "name:ak": "Russia",
          "name:am": "ሩሲያ",
          "name:an": "Rusia",
          "name:ar": "روسيا",
          "name:as": "ৰুশিযা",
          "name:av": "Россиялъул Федерация",
          "name:ay": "Rusiya",
          "name:az": "Rusiya",
          "name:ba": "Рәсәй",
          "name:be": "Расія",
          "name:bg": "Русия",
          "name:bi": "Rusia",
          "name:bm": "Risila",
          "name:bn": "রাশিয়া",
          "name:bo": "ཨུ་རུ་སུ།",
          "name:br": "Rusia",
          "name:bs": "Rusija",
          "name:ca": "Rússia",
          "name:ce": "Росси",
          "name:ch": "Russia",
          "name:co": "Russia",
          "name:cs": "Rusko",
          "name:cu": "Рѡсїꙗ",
          "name:cv": "Раççей Патшалăхĕ",
          "name:cy": "Rwsia",
          "name:da": "Rusland",
          "name:de": "Russland",
          "name:dv": "ރޫސީވިލާތް",
          "name:dz": "ར་ཤི་ཡཱན་ཕེ་ཌི་རེ་ཤཱན",
          "name:ee": "Russia",
          "name:el": "Ρωσία",
          "name:en": "Russia",
          "name:eo": "Rusio",
          "name:es": "Rusia",
          "name:et": "Venemaa",
          "name:eu": "Errusia",
          "name:fa": "روسیه",
          "name:ff": "Roosiya",
          "name:fi": "Venäjä",
          "name:fo": "Russland",
          "name:fr": "Russie",
          "name:fy": "Ruslân",
          "name:ga": "An Rúis",
          "name:gd": "An Ruis",
          "name:gl": "Rusia",
          "name:gn": "Rrúsia",
          "name:gu": "રશિયા",
          "name:gv": "Yn Roosh",
          "name:ha": "Rasha",
          "name:he": "רוסיה",
          "name:hi": "रूस",
          "name:hr": "Ruska Federacija",
          "name:ht": "Risi",
          "name:hu": "Oroszország",
          "name:hy": "Ռուսաստան",
          "name:ia": "Russia",
          "name:id": "Rusia",
          "name:ie": "Russia",
          "name:ig": "Mpaghara Russia",
          "name:ik": "Russia",
          "name:io": "Rusia",
          "name:is": "Rússland",
          "name:it": "Russia",
          "name:iu": "ᐅᓛᓴ",
          "name:ja": "ロシア",
          "name:jv": "Rusia",
          "name:ka": "რუსეთი",
          "name:kg": "Rusia",
          "name:ki": "Russia",
          "name:kk": "Ресей",
          "name:kl": "Ruslandi",
          "name:km": "រុស្ស៊ី",
          "name:kn": "ರಷ್ಯಾ",
          "name:ko": "러시아",
          "name:ks": "روٗس",
          "name:ku": "Rûsya",
          "name:kv": "Рочму",
          "name:kw": "Russi",
          "name:ky": "Орусия",
          "name:la": "Russia",
          "name:lb": "Russland",
          "name:lg": "Rwasha",
          "name:li": "Rusland",
          "name:ln": "Rusí",
          "name:lo": "ລັດເຊັຽ",
          "name:lt": "Rusija",
          "name:lv": "Krievija",
          "name:mg": "Rosia",
          "name:mi": "Ruhia",
          "name:mk": "Русија",
          "name:ml": "റഷ്യ",
          "name:mn": "Оросын Холбооны Улс",
          "name:mo": "Русия",
          "name:mr": "रशिया",
          "name:ms": "Rusia",
          "name:mt": "Russja",
          "name:my": "ရုရှားနိုင်ငံ",
          "name:na": "Ratsiya",
          "name:ne": "रुस",
          "name:nl": "Rusland",
          "name:nn": "Russland",
          "name:no": "Russland",
          "name:nv": "Biʼééʼ Łichííʼí Bikéyah",
          "name:ny": "Russia",
          "name:oc": "Russia",
          "name:om": "Raashiyaa",
          "name:or": "ଋଷିଆ",
          "name:os": "Уæрæсе",
          "name:pa": "ਰੂਸ",
          "name:pl": "Rosja",
          "name:ps": "روسیه",
          "name:pt": "Rússia",
          "name:qu": "Rusiya",
          "name:rm": "Russia",
          "name:rn": "Uburusiya",
          "name:ro": "Rusia",
          "name:ru": "Россия",
          "name:rw": "Uburusiya",
          "name:sc": "Rùssia",
          "name:sd": "روس",
          "name:se": "Ruošša",
          "name:sg": "Rusïi",
          "name:sh": "Rusija",
          "name:si": "රුසියාව",
          "name:sk": "Rusko",
          "name:sl": "Rusija",
          "name:sm": "Lusia",
          "name:sn": "Russia",
          "name:so": "Ruushka",
          "name:sq": "Rusia",
          "name:sr": "Русија",
          "name:ss": "IRashiya",
          "name:st": "Russia",
          "name:su": "Rusia",
          "name:sv": "Ryssland",
          "name:sw": "Shirikisho la Urusi",
          "name:ta": "உருசியா",
          "name:te": "రష్యా",
          "name:tg": "Русия",
          "name:th": "ประเทศรัสเซีย",
          "name:ti": "ራሻ",
          "name:tk": "Russiýa",
          "name:tl": "Pederasyong Ruso",
          "name:to": "Lūsia",
          "name:tr": "Rusya Federasyonu",
          "name:ts": "Russia",
          "name:tt": "Русия",
          "name:tw": "Russia",
          "name:ty": "Rūtia",
          "name:ug": "روسىيە",
          "name:uk": "Росія",
          "name:ur": "روس",
          "name:uz": "Rossiya Federatsiyasi",
          "name:ve": "Rashia",
          "name:vi": "Liên bang Nga",
          "name:vo": "Rusän",
          "name:wa": "Federåcion d' Rûsseye",
          "name:wo": "Federaasioŋ bu Riisi",
          "name:xh": "IRashiya",
          "name:yi": "רוסלאנד",
          "name:yo": "Rọ́síà",
          "name:za": "Ezlozswh Lienzbangh",
          "name:zh": "俄罗斯",
          "name:zu": "IRashiya",
          "boundary": "administrative",
          "currency": "RUB",
          "int_name": "Russia",
          "name:ace": "Rusia",
          "name:als": "Russland",
          "name:ang": "Russland",
          "name:arc": "ܪܘܣܝܐ",
          "name:arz": "روسيا",
          "name:ast": "Rusia",
          "name:bar": "Russland",
          "name:bcl": "Rusya",
          "name:bjn": "Rusia",
          "name:bpy": "রাশিয়া",
          "name:bug": "Russia",
          "name:bxr": "Ородой Холбооной Улас",
          "name:cdo": "Ngò̤-lò̤-sṳ̆",
          "name:ceb": "Rusya",
          "name:chr": "ᏲᏂᏱ",
          "name:chy": "Russia",
          "name:ckb": "ڕووسیا",
          "name:crh": "Rusiye",
          "name:csb": "Ruskô",
          "name:diq": "Rusya",
          "name:dsb": "Rusojska",
          "name:eml": "Rossia",
          "name:ext": "Russia",
          "name:frp": "Russie",
          "name:frr": "Ruslönj",
          "name:fur": "Russie",
          "name:gag": "Rusiya",
          "name:gan": "俄羅斯",
          "name:hak": "Ngò-lò-sṳ̂",
          "name:haw": "Rūsia",
          "name:hif": "Russia",
          "name:hsb": "Ruska federacija",
          "name:ilo": "Rusia",
          "name:jbo": "rukygu'e",
          "name:kaa": "Rossiya",
          "name:kab": "Rrus",
          "name:kbd": "Урысей",
          "name:koi": "Рочму",
          "name:krc": "Россия Федерация",
          "name:lad": "Rusia",
          "name:lbe": "Аьрасат",
          "name:lez": "Урусат",
          "name:lij": "Ruscia",
          "name:lmo": "Rüssia",
          "name:ltg": "Krīveja",
          "name:lzh": "俄羅斯",
          "name:mdf": "Рузмастор",
          "name:mhr": "Россий",
          "name:min": "Rusia",
          "name:mrj": "Россий",
          "name:mwl": "Rússia",
          "name:myv": "Россия Мастор",
          "name:mzn": "ئوروسیا",
          "name:nah": "Rusia",
          "name:nan": "Lō͘-se-a",
          "name:nap": "Russia",
          "name:nds": "Russ'sche Föderatschoon",
          "name:new": "रुस",
          "name:nov": "Rusia",
          "name:nrm": "Russie",
          "name:nso": "Russia",
          "name:pag": "Rusia",
          "name:pam": "Rusia",
          "name:pap": "Rusia",
          "name:pcd": "Russie",
          "name:pdc": "Russland",
          "name:pfl": "Russlond",
          "name:pih": "Rusha",
          "name:pms": "Russia",
          "name:pnb": "روس",
          "name:pnt": "Ρουσία",
          "name:rmy": "Rusiya",
          "name:rue": "Росія",
          "name:sah": "Арассыыйа",
          "name:scn": "Russia",
          "name:sco": "Roushie",
          "name:smn": "Ruoššâ",
          "name:sms": "Ruõššjânnam",
          "name:srn": "Rusland",
          "name:stq": "Ruslound",
          "name:szl": "Rusyjŏ",
          "name:tet": "Rúsia",
          "name:tok": "ma Losi",
          "name:tpi": "Rasia",
          "name:tum": "Russia",
          "name:tzl": "Rußía",
          "name:udm": "Россия",
          "name:vec": "Rusia",
          "name:vep": "Venäma",
          "name:vls": "Rusland",
          "name:vro": "Vinnemaa",
          "name:war": "Rusya",
          "name:wuu": "俄罗斯",
          "name:xal": "Орсн Орн Нутг",
          "name:xmf": "რუსეთი",
          "name:yue": "俄羅斯",
          "name:zea": "Rusland",
          "old_name": "Московия;Русское Царство;Российская Империя;Российская Советская Федеративная Социалистическая Республика",
          "way_area": "3241.56",
          "wikidata": "Q159",
          "ISO3166-1": "RU",
          "wikipedia": "ru:Россия",
          "name:UN:ar": "الاتحاد الروسي",
          "name:UN:en": "Russian Federation (the)",
          "name:UN:es": "Federación de Rusia (la)",
          "name:UN:fr": "Fédération de Russie (la)",
          "name:UN:ru": "Российская Федерация",
          "name:UN:zh": "俄罗斯联邦",
          "population": "146447424",
          "short_name": "РФ",
          "admin_level": "2",
          "alt_name:eo": "Rusujo;Ruslando",
          "border_type": "nation",
          "name:nds-nl": "Ruslaand",
          "name:bat-smg": "Rosėjė",
          "name:cbk-zam": "Rusia",
          "name:map-bms": "Rusia",
          "name:roa-rup": "Arusia",
          "name:zh-Hans": "俄罗斯",
          "name:zh-Hant": "俄羅斯",
          "name:roa-tara": "Russie",
          "official_name": "Российская Федерация",
          "short_name:ru": "РФ",
          "name:be-tarask": "Расея",
          "old_short_name": "РСФСР",
          "according_to:RU": "yes",
          "according_to:UA": "no",
          "population:date": "2023-01-01",
          "ISO3166-1:alpha2": "RU",
          "ISO3166-1:alpha3": "RUS",
          "default_language": "ru",
          "official_name:ar": "الاتحاد الروسي",
          "official_name:be": "Расійская Федэрацыя",
          "official_name:cs": "Ruská federace",
          "official_name:de": "Russische Föderation",
          "official_name:en": "Russian Federation",
          "official_name:eo": "Rusa Federacio",
          "official_name:es": "Federación Rusa",
          "official_name:et": "Venemaa Föderatsioon",
          "official_name:fi": "Venäjän Federaatio",
          "official_name:fr": "Fédération de Russie",
          "official_name:nl": "Russische Federatie",
          "official_name:pl": "Federacja Rosyjska",
          "official_name:pt": "Federação Russa",
          "official_name:ru": "Российская Федерация",
          "official_name:sk": "Ruská federácia",
          "official_name:sl": "Ruska federacija",
          "official_name:sv": "Ryska Federationen",
          "official_name:uk": "Російська Федерація",
          "official_name:yi": "רוסישע פֿעדעראַציע",
          "official_name:zh": "俄罗斯联邦",
          "ISO3166-1:numeric": "643",
          "official_name:ast": "Federación Rusa",
          "old_short_name:en": "RSFSR",
          "old_short_name:ru": "РСФСР",
          "official_name:zh-Hans": "俄罗斯联邦",
          "official_name:zh-Hant": "俄羅斯聯邦"
        }
      },
      "geometry": {
        "type": "Polygon",
        "coordinates": [
          [
            [
              91,
              50.42949529411764
            ],
            [
              91.0048,
              50.4291
            ],
            [
              91.0118,
              50.4301
            ],
            [
              91.0257,
              50.4348
            ],
            [
              91.0383,
              50.4351
            ],
            [
              91.0568,
              50.4309
            ],
            [
              91.0765,
              50.4311
            ],
            [
              91.0876,
              50.4359
            ],
            [
              91.0932,
              50.436
            ],
            [
              91.1103,
              50.431
            ],
            [
              91.1203,
              50.4274
            ],
            [
              91.1557,
              50.4199
            ],
            [
              91.16,
              50.4201
            ],
            [
              91.2085,
              50.4396
            ],
            [
              91.2516,
              50.4546
            ],
            [
              91.2933,
              50.4696
            ],
            [
              91.32,
              50.4709
            ],
            [
              91.3568,
              50.4643
            ],
            [
              91.3796,
              50.4583
            ],
            [
              91.3952,
              50.4549
            ],
            [
              91.4094,
              50.4506
            ],
            [
              91.4074523,
              50.4552905
            ],
            [
              91.4044761,
              50.4606934
            ],
            [
              91.4000339,
              50.4667973
            ],
            [
              91.4003485,
              50.4714858
            ],
            [
              91.3999917,
              50.4721336
            ],
            [
              91.400392,
              50.4725834
            ],
            [
              91.4007568,
              50.4738808
            ],
            [
              91.4005094,
              50.4765146
            ],
            [
              91.4016151,
              50.4774723
            ],
            [
              91.4023876,
              50.4775269
            ],
            [
              91.4038682,
              50.4771718
            ],
            [
              91.4045119,
              50.4774381
            ],
            [
              91.4047801,
              50.477957
            ],
            [
              91.4047587,
              50.4784144
            ],
            [
              91.4049196,
              50.4787353
            ],
            [
              91.4054239,
              50.4789333
            ],
            [
              91.4059281,
              50.4788719
            ],
            [
              91.40625,
              50.4790699
            ],
            [
              91.4068508,
              50.4801554
            ],
            [
              91.4072871,
              50.4804515
            ],
            [
              91.4079666,
              50.4802032
            ],
            [
              91.4085459,
              50.4802305
            ],
            [
              91.4100265,
              50.4807084
            ],
            [
              91.4106703,
              50.4805582
            ],
            [
              91.4117646,
              50.4810361
            ],
            [
              91.4141249,
              50.4811863
            ],
            [
              91.4151871,
              50.4810157
            ],
            [
              91.4161205,
              50.4818144
            ],
            [
              91.4175153,
              50.4822104
            ],
            [
              91.4194518,
              50.4832993
            ],
            [
              91.4207178,
              50.4842004
            ],
            [
              91.421442,
              50.4849821
            ],
            [
              91.4234376,
              50.485692
            ],
            [
              91.4243817,
              50.4862654
            ],
            [
              91.4263129,
              50.486361
            ],
            [
              91.4276862,
              50.4868525
            ],
            [
              91.4299822,
              50.4885863
            ],
            [
              91.4308512,
              50.4895385
            ],
            [
              91.4331364,
              50.4889959
            ],
            [
              91.4369103,
              50.4900931
            ],
            [
              91.4385652,
              50.4902382
            ],
            [
              91.4396381,
              50.4906477
            ],
            [
              91.4398742,
              50.4919037
            ],
            [
              91.440196,
              50.492518
            ],
            [
              91.441462,
              50.4935827
            ],
            [
              91.4424801,
              50.4941628
            ],
            [
              91.4590257,
              50.508449
            ],
            [
              91.4549029,
              50.5485247
            ],
            [
              91.4876282,
              50.5540265
            ],
            [
              91.5247134,
              50.5619628
            ],
            [
              91.5225291,
              50.5707956
            ],
            [
              91.5243047,
              50.57038
            ],
            [
              91.5258121,
              50.5704209
            ],
            [
              91.5339694,
              50.5725608
            ],
            [
              91.5338051,
              50.5745501
            ],
            [
              91.5343069,
              50.5814176
            ],
            [
              91.5421041,
              50.5814617
            ],
            [
              91.5475541,
              50.5819831
            ],
            [
              91.556877,
              50.5834354
            ],
            [
              91.5701973,
              50.584347
            ],
            [
              91.575315,
              50.5844288
            ],
            [
              91.5786,
              50.5841
            ],
            [
              91.5858614,
              50.5842687
            ],
            [
              91.5892303,
              50.5840337
            ],
            [
              91.5940153,
              50.5825349
            ],
            [
              91.598657,
              50.580505
            ],
            [
              91.6008604,
              50.5814075
            ],
            [
              91.608156,
              50.5818298
            ],
            [
              91.6118091,
              50.5825656
            ],
            [
              91.6214544,
              50.5835432
            ],
            [
              91.623922,
              50.5841495
            ],
            [
              91.627779,
              50.5831481
            ],
            [
              91.6302144,
              50.5832502
            ],
            [
              91.6325037,
              50.5836895
            ],
            [
              91.6374349,
              50.5835772
            ],
            [
              91.6398811,
              50.5846127
            ],
            [
              91.6424668,
              50.5862953
            ],
            [
              91.643368,
              50.5865132
            ],
            [
              91.6453636,
              50.5866427
            ],
            [
              91.6470373,
              50.5861454
            ],
            [
              91.6499476,
              50.5862385
            ],
            [
              91.6515112,
              50.6155399
            ],
            [
              91.6516238,
              50.6198592
            ],
            [
              91.6611094,
              50.6400594
            ],
            [
              91.7153552,
              50.6895568
            ],
            [
              91.7205298,
              50.6931887
            ],
            [
              91.7219674,
              50.694847
            ],
            [
              91.7232583,
              50.6974786
            ],
            [
              91.7502794,
              50.6990369
            ],
            [
              91.7993235,
              50.720305
            ],
            [
              91.8243956,
              50.7246643
            ],
            [
              91.8550843,
              50.7338299
            ],
            [
              91.9648902,
              50.7191084
            ],
            [
              91.9690203,
              50.7193816
            ],
            [
              91.9719126,
              50.7185315
            ],
            [
              91.9740414,
              50.7186344
            ],
            [
              91.9769475,
              50.7182371
            ],
            [
              91.9779038,
              50.7179823
            ],
            [
              91.9786119,
              50.7174117
            ],
            [
              91.981852,
              50.7165965
            ],
            [
              91.983161,
              50.7158493
            ],
            [
              91.986444,
              50.7158221
            ],
            [
              91.9872594,
              50.7155096
            ],
            [
              91.9879736,
              50.7143992
            ],
            [
              91.9905209,
              50.7138792
            ],
            [
              91.9913792,
              50.7134988
            ],
            [
              91.9923465,
              50.7126724
            ],
            [
              91.993289,
              50.7123439
            ],
            [
              91.9952202,
              50.7124526
            ],
            [
              91.9960785,
              50.7131455
            ],
            [
              91.9998272,
              50.7129471
            ],
            [
              92,
              50.71287580585559
            ],
            [
              92,
              51
            ],
            [
              91,
              51
            ],
            [
              91,
              50.42949529411764
            ]
          ]
        ]
      }
    }
  ]
}