{
  "type": "FeatureCollection",
  "features": [
    {
      "type": "Feature",
      "properties": {
        "osm_id": -286393,
        "boundary": "administrative",
        "admin_level": 2,
        "parents": null,
        "name": "Argentina",
        "local_name": "Argentina",
        "name_en": "Argentina",
        "all_tags": {
          "flag": "http://upload.wikimedia.org/wikipedia/commons/1/1a/Flag_of_Argentina.svg",
          "name": "Argentina",
          "name:af": "Argentinië",
          "name:ak": "Agyɛntina",
          "name:am": "አርጀንቲና",
          "name:an": "Archentina",
          "name:ar": "الأرجنتين",
          "name:as": "আৰ্জেণ্টিনা",
          "name:av": "Аргентина",
          "name:ay": "Arxintina",
          "name:az": "Argentina",
          "name:ba": "Аргенти́на",
          "name:be": "Аргенці́на",
          "name:bg": "Аржентѝна",
          "name:bh": "अर्जेन्टीना",
          "name:bi": "Argentina",
          "name:bm": "Argentina",
          "name:bn": "আর্জেন্টিনা",
          "name:bo": "ཨར་ཇེན་ཊི་ན།",
          "name:br": "Arc'hantina",
          "name:bs": "Argentina",
          "name:ca": "Argentina",
          "name:ce": "Аргенти́на",
          "name:ch": "Argentina",
          "name:co": "Argentina",
          "name:cs": "Argentina",
          "name:cv": "Аргентина",
          "name:cy": "Ariannin",
          "name:da": "Argentina",
          "name:de": "Argentinien",
          "name:dv": "އާޖެންޓީނާ",
          "name:dz": "ཨར་ཇེན་ཊི་ན",
          "name:ee": "Argentina",
          "name:el": "Αργεντινή",
          "name:en": "Argentina",
          "name:eo": "Argentino",
          "name:es": "Argentina",
          "name:et": "Argentina",
          "name:eu": "Argentina",
          "name:fa": "آرژانتین",
          "name:ff": "Arjantiin",
          "name:fi": "Argentiina",
          "name:fj": "Argentina",
          "name:fo": "Argentina",
          "name:fr": "Argentine",
          "name:fy": "Argentynje",
          "name:ga": "an Airgintín",
          "name:gd": "Argentina",
          "name:gl": "Arxentina",
          "name:gn": "Argentina",
          "name:gu": "આર્જેન્ટીના",
          "name:gv": "yn Argenteen",
          "name:ha": "Argentina",
          "name:he": "ארגנטינה",
          "name:hi": "अर्जेण्टीना",
          "name:hr": "Argentina",
          "name:ht": "Ajantin",
          "name:hu": "Argentína",
          "name:hy": "Արգենտինա",
          "name:ia": "Argentina",
          "name:id": "Argentina",
          "name:ie": "Argentina",
          "name:ig": "Argentina",
          "name:io": "Arjentinia",
          "name:is": "Argentína",
          "name:it": "Argentina",
          "name:ja": "アルゼンチン",
          "name:jv": "Argèntina",
          "name:ka": "არგენტინა",
          "name:kg": "Arhentina",
          "name:ki": "Argentina",
          "name:kk": "Аргентина",
          "name:kl": "Argentina",
          "name:km": "អាហ្សង់ទីន",
          "name:kn": "ಅರ್ಜೆಂಟೀನ",
          "name:ko": "아르헨티나",
          "name:ks": "أرجَنٹینا",
          "name:ku": "Arjentîn",
          "name:kv": "Аргентина",
          "name:kw": "Arghantina",
          "name:ky": "Аргентина",
          "name:la": "Argentina",
          "name:lb": "Argentinien",
          "name:lg": "Arigentina",
          "name:li": "Argentinië",
          "name:ln": "Argentina",
          "name:lo": "ອາກຊັງຕີນ",
          "name:lt": "Argentina",
          "name:lv": "Argentīna",
          "name:mg": "Arjentina",
          "name:mi": "Āketina",
          "name:mk": "Аргентина",
          "name:ml": "അർജന്റീന",
          "name:mn": "Аргентин",
          "name:mr": "आर्जेन्टिना",
          "name:ms": "Argentina",
          "name:mt": "Arġentina",
          "name:my": "အာဂျင်တီးနားနိုင်ငံ",
          "name:na": "Ardjentina",
          "name:ne": "अर्जेन्टिना",
          "name:nl": "Argentinië",
          "name:nn": "Argentina",
          "name:no": "Argentina",
          "name:nv": "Béésh Łigaii Bikéyah",
          "name:oc": "Argentina",
          "name:om": "Arjentiinaa",
          "name:or": "ଆର୍ଜେଣ୍ଟିନା",
          "name:os": "Аргентинæ",
          "name:pa": "ਅਰਜਨਟੀਨਾ",
          "name:pi": "अर्जन्टीना",
          "name:pl": "Argentyna",
          "name:ps": "ارجنټاین",
          "name:pt": "Argentina",
          "name:qu": "Arhintina",
          "name:rm": "Argentinia",
          "name:rn": "Argentine",
          "name:ro": "Argentina",
          "name:ru": "Аргентина",
          "name:rw": "Arijantine",
          "name:sa": "अर्जण्टिना",
          "name:sc": "Argentina",
          "name:se": "Argentiinná",
          "name:sg": "Arzantîna",
          "name:sh": "Argentina",
          "name:si": "ආජන්ටිනාව",
          "name:sk": "Argentína",
          "name:sl": "Argentina",
          "name:sm": "Atenitina",
          "name:sn": "Argentina",
          "name:so": "Arjantiina",
          "name:sq": "Argjentina",
          "name:sr": "Аргентина",
          "name:su": "Argéntina",
          "name:sv": "Argentina",
          "name:sw": "Argentina",
          "name:ta": "அர்கெந்தீனா",
          "name:te": "అర్జెంటీనా",
          "name:tg": "Аргенти́на",
          "name:th": "อาร์เจนตินา",
          "name:ti": "አርጀንቲና",
          "name:tk": "Argentina",
          "name:tl": "Arhentina",
          "name:to": "ʻAsenitina",
          "name:tr": "Arjantin",
          "name:ts": "Arjentina",
          "name:tt": "Аргенти́на",
          "name:tw": "Argentina",
          "name:ty": "’Atetina",
          "name:ug": "ئارگېنتىنا",
          "name:uk": "Аргенти́на",
          "name:ur": "ارجنٹائن",
          "name:uz": "Argentina",
          "name:vi": "Argentina",
          "name:vo": "Largäntän",
          "name:wa": "Årdjintene",
          "name:wo": "Arsantin",
          "name:yi": "אַרגענטינע",
          "name:yo": "Argẹntínà",
          "name:za": "Argentina",
          "name:zh": "阿根廷",
          "name:zu": "i-Argentina",
          "boundary": "administrative",
          "int_name": "Argentina",
          "name:ace": "Argentina",
          "name:ady": "Аргентинэ",
          "name:als": "Argentinie",
          "name:ang": "Argentina",
          "name:arz": "ارجنتين",
          "name:ast": "Arxentina",
          "name:azb": "آرژانتین",
          "name:bar": "Argentinien",
          "name:bcl": "Argentina",
          "name:bpy": "আর্জেন্টিনা",
          "name:bxr": "Аргентина",
          "name:cdo": "Ā-gŏng-dìng",
          "name:ceb": "Arhentina",
          "name:chr": "ᎠᏥᏂᏘᏂᎠ",
          "name:ckb": "ئەرجەنتین",
          "name:crh": "Argentina",
          "name:csb": "Argentina",
          "name:diq": "Arcantin",
          "name:dsb": "Argentinska",
          "name:dty": "अर्जेन्टिना",
          "name:ext": "Argentina",
          "name:frp": "Argentena",
          "name:frr": "Argentiinien",
          "name:fur": "Argjentine",
          "name:gag": "Argentina",
          "name:gan": "阿根廷",
          "name:gom": "आर्जेन्टिना",
          "name:hak": "Â-kîn-thìn",
          "name:haw": "ʻAlekina",
          "name:hif": "Argentina",
          "name:hsb": "Argentinska",
          "name:ilo": "Arhentina",
          "name:jam": "Aajentiina",
          "name:jbo": "getygu'e",
          "name:kaa": "Argentina",
          "name:kab": "Tarjentint",
          "name:kbd": "Архенти́нэ",
          "name:kbp": "Arzantiini",
          "name:krc": "Аргенти́на",
          "name:ksh": "Ajjentiinije",
          "name:lad": "Arjentina",
          "name:lez": "Аргентина",
          "name:lij": "Argentinn-a",
          "name:lmo": "Argentina",
          "name:lrc": "آرجانتین",
          "name:ltg": "Argeņtina",
          "name:lzh": "阿根廷",
          "name:mai": "अर्जेन्टिना",
          "name:mhr": "Аргентине",
          "name:min": "Argentina",
          "name:mrj": "Аргентина",
          "name:mwl": "Argentina",
          "name:mzn": "آرژانتین",
          "name:nah": "Argentina",
          "name:nan": "Argentina",
          "name:nap": "Argentina",
          "name:nds": "Argentinien",
          "name:new": "अर्जेन्टिना",
          "name:nov": "Argentina",
          "name:nrm": "Argentinne",
          "name:nso": "Argentina",
          "name:olo": "Argentiinu",
          "name:pag": "Argentina",
          "name:pam": "Argentina",
          "name:pap": "Argentina",
          "name:pdc": "Artschenti",
          "name:pfl": "Argentinje",
          "name:pih": "Aajentiina",
          "name:pms": "Argentin-a",
          "name:pnb": "ارجنٹاین",
          "name:rmy": "Arxentina",
          "name:rue": "Арґентина",
          "name:sah": "Аргентина",
          "name:scn": "Argintina",
          "name:sco": "Argentinae",
          "name:smn": "Argentiina",
          "name:sms": "Argentiin",
          "name:srn": "Argentinikondre",
          "name:stq": "Argentinien",
          "name:szl": "Argyntyna",
          "name:tet": "Arjentina",
          "name:tok": "ma Alensina",
          "name:tpi": "Ajentina",
          "name:tum": "Argentina",
          "name:tyv": "Аргентина",
          "name:tzl": "Arxhentì",
          "name:udm": "Аргентина",
          "name:vec": "Argentina",
          "name:vep": "Argentin",
          "name:vls": "Argentinië",
          "name:vro": "Argentina",
          "name:war": "Argentina",
          "name:wuu": "阿根廷",
          "name:xal": "Эрҗентудин",
          "name:xmf": "არგენტინა",
          "name:yue": "阿根廷",
          "name:zea": "Arhentinië",
          "way_area": "294.963",
          "wikidata": "Q414",
          "ISO3166-1": "AR",
          "wikipedia": "es:Argentina",
          "population": "47327407",
          "admin_level": "2",
          "alt_name:co": "Arghjintina",
          "alt_name:gn": "Arahentína",
          "alt_name:kn": "ಅರ್ಜೆಂಟೀನ ಗಣರಾಜ್ಯ",
          "alt_name:oc": "Riu de la Plata",
          "alt_name:qu": "Qullqillaqta",
          "alt_name:rw": "Arijantina",
          "alt_name:ta": "அர்ஜெந்தீனா",
          "alt_name:wo": "Argentiin",
          "geonames:id": "3865483",
          "name:nds-nl": "Argentinië",
          "old_name:vi": "Á Căn Đình",
          "alt_name:ckb": "ئارجەنتین",
          "alt_name:mzn": "آرجانتین",
          "alt_name:nah": "Argentina Tlācatlahtohcāyōtl",
          "capital_city": "Buenos Aires",
          "name:bat-smg": "Argentėna",
          "name:cbk-zam": "Argentina",
          "name:roa-rup": "Arghentina",
          "name:zh-Hans": "阿根廷",
          "name:zh-Hant": "阿根廷",
          "name:roa-tara": "Argendine",
          "official_name": "República Argentina",
          "name:be-tarask": "Аргенты́на",
          "population:date": "2022-05-20",
          "ISO3166-1:alpha2": "AR",
          "ISO3166-1:alpha3": "ARG",
          "alt_name:roa-rup": "Arghentinescã",
          "default_language": "es",
          "official_name:af": "Argentynse Republiek",
          "official_name:am": "አርጀንቲናዊ ሬፑብሊክ",
          "official_name:an": "Republica Archentina",
          "official_name:ar": "جمهورية الأرجنتين",
          "official_name:av": "ЖумхIурият Аргентина",
          "official_name:ay": "Arjintina Republika",
          "official_name:az": "Argentina Respublikası",
          "official_name:ba": "Аргентина Республикаһы",
          "official_name:be": "Аргенці́нская Рэспу́бліка",
          "official_name:bg": "Република Аржентина",
          "official_name:bm": "Argentina Fasojamana",
          "official_name:bn": "আর্জেন্টিনীয় প্রজাতন্ত্র",
          "official_name:bs": "Republika Argentina",
          "official_name:ca": "República Argentina",
          "official_name:ce": "Аргентинан Пачхьалкх",
          "official_name:cs": "Argentinská republika",
          "official_name:cv": "Аргентина Республики",
          "official_name:cy": "Gweriniaeth yr Ariannin",
          "official_name:da": "Argentinske Republik",
          "official_name:de": "Argentinische Republik",
          "official_name:el": "Δημοκρατία της Αργεντινής",
          "official_name:en": "Argentine Republic",
          "official_name:eo": "Argentina Respubliko",
          "official_name:es": "República Argentina",
          "official_name:et": "Argentina Vabariik",
          "official_name:eu": "Argentinako Errepublika",
          "official_name:fa": "جمهوری آرژانتین",
          "official_name:fi": "Argentiinan tasavalta",
          "official_name:fo": "Lýðveldið Argentina",
          "official_name:fr": "République Argentine",
          "official_name:fy": "Argentynske Republyk",
          "official_name:gd": "an Argantain",
          "official_name:gl": "República Arxentina",
          "official_name:gn": "Tetã Argentina",
          "official_name:gu": "આર્જેન્ટીના ગણરાજ્ય",
          "official_name:gv": "Pobblaght ny h-Argenteen",
          "official_name:ha": "Jamhuriyar Argentina",
          "official_name:he": "הרפובליקה הארגנטינאית",
          "official_name:hi": "अर्जेन्टीना गणराज्य",
          "official_name:hr": "Argentinska Republika",
          "official_name:hu": "Argentin Köztársaság",
          "official_name:hy": "Արգենտինայի Հանրապետություն",
          "official_name:ia": "Republica Argentin",
          "official_name:id": "Republik Argentina",
          "official_name:io": "Republiko Arjentinia",
          "official_name:is": "Argentínska lýðveldið",
          "official_name:it": "Repubblica Argentina",
          "official_name:ja": "アルゼンチン共和国",
          "official_name:ka": "არგენტინის რესპუბლიკა",
          "official_name:kk": "Аргентина Республикасы",
          "official_name:kl": "Kunngiitsuuffik Argentina",
          "official_name:kn": "ರಿಪಬ್ಲಿಕ ಅರ್ಜೆಂಟೀನ",
          "official_name:ko": "아르헨티나 공화국",
          "official_name:ku": "Komara Arjentînê",
          "official_name:kv": "Аргентина Республика",
          "official_name:kw": "Repoblek Arghantinek",
          "official_name:ky": "Аргентинa Республикaсы",
          "official_name:la": "res publica Argentina",
          "official_name:lb": "Republik Argentinien",
          "official_name:li": "Rippebliek Argentinië",
          "official_name:lo": "ສາທາລະນະລັດອາກຊັງຕິນ",
          "official_name:lt": "Argentinos Respublika",
          "official_name:lv": "Argentīnas Republika",
          "official_name:mg": "Repoblika Arjentina",
          "official_name:mi": "Te Whenua Tū Wehe o Āketina",
          "official_name:mk": "Аргентинска Република",
          "official_name:ml": "അർജന്റീന റിപ്പബ്ലിക്ക്",
          "official_name:mn": "Бүгд Найрамдах Аргентин Улс",
          "official_name:mr": "आर्जेन्टिनाचे प्रजासत्ताक",
          "official_name:ms": "Republik Argentina",
          "official_name:mt": "Repubblika Arġentina",
          "official_name:ne": "अर्जेन्टिनी गणतन्त्र",
          "official_name:nl": "Argentijnse Republiek",
          "official_name:nn": "Republikk Argentina",
          "official_name:no": "Republikken Argentina",
          "official_name:oc": "Republica Argentina",
          "official_name:os": "Аргентинæйы Республикæ",
          "official_name:pa": "ਅਰਜਨਟੀਨ ਗਣਰਾਜ",
          "official_name:pl": "Republika Argentyńska",
          "official_name:pt": "República Argentina",
          "official_name:qu": "Arhintina Ripuwlika",
          "official_name:rm": "Republica Argentinia",
          "official_name:ro": "Republica Argentina",
          "official_name:ru": "Аргентинская Республика",
          "official_name:sc": "Repubblica Argentina",
          "official_name:se": "Argentiinná dásseváldi",
          "official_name:sh": "Argentinska Republika",
          "official_name:si": "ආජන්ටිනා සමුහාණ්ඩුව",
          "official_name:sk": "Argentínska republika",
          "official_name:sl": "Argentinska republika",
          "official_name:so": "Jamhuuriyadda Arjantiina",
          "official_name:sq": "Republika Argjentine",
          "official_name:sr": "Република Аргентина",
          "official_name:su": "Républik Argéntina",
          "official_name:sv": "Republiken Argentina",
          "official_name:sw": "Jamhuri ya Argentina",
          "official_name:ta": "அர்கெந்தீனா குடியரசு",
          "official_name:te": "రిపబ్లికా అర్జెంటీనా",
          "official_name:tg": "Ҷумҳурии Аргентина",
          "official_name:th": "สาธารณรัฐอาร์เจนตินา",
          "official_name:tk": "Argentina Respublikasy",
          "official_name:tl": "Republikang Arhentino",
          "official_name:tr": "Arjantin Cumhuriyeti",
          "official_name:tt": "Аргентина Җөмһүрияте",
          "official_name:ug": "ئاندوررا كېنەزلىكى",
          "official_name:uk": "Аргенти́нська Респу́бліка",
          "official_name:ur": "جمہوریہ ارجنٹائن",
          "official_name:uz": "Argenti-na Respublikasi",
          "official_name:vi": "Cộng hòa Argentina",
          "official_name:vo": "Republik Largäntänik",
          "official_name:wo": "Republik bu Argentiin",
          "official_name:yi": "אַרגענטינער רעפובליק",
          "official_name:yo": "Republic Argẹntínà",
          "official_name:zh": "阿根廷共和国 / 阿根廷共和國",
          "ISO3166-1:numeric": "032",
          "country_code_fips": "AR",
          "official_name:als": "Argentinischi Republik",
          "official_name:arz": "الجمهوريه الارچنتينيه",
          "official_name:ast": "República Arxentina",
          "official_name:azb": "آرژانتین جومهوریسی",
          "official_name:bar": "Argentinische Republik",
          "official_name:bpy": "প্রজাতন্ত্রি আর্জেন্টিনা",
          "official_name:bxr": "Бүгэдэ Найрамдаха Аргентинэ Улас",
          "official_name:chr": "ᎠᏥᏂᏘᏂᎠ ᏍᎦᏚᎩ",
          "official_name:ckb": "کۆماری ئەرجەنتین",
          "official_name:crh": "Argentina Cumhuriyeti",
          "official_name:dsb": "Republika Argentinska",
          "official_name:ext": "Repúbrica Argentina",
          "official_name:frp": "Rèpublica argentina",
          "official_name:frr": "Argentiinsk Republiik",
          "official_name:fur": "Republiche Argjentine",
          "official_name:gan": "阿根廷共和國",
          "official_name:haw": "Lepupalika o ʻAlekina",
          "official_name:hif": "República Argentina",
          "official_name:hsb": "Republika Argentinska",
          "official_name:ilo": "Arhentino a Republika",
          "official_name:jam": "Aajentiin Ripoblik",
          "official_name:kbd": "Республикэ Архентинэ",
          "official_name:krc": "Аргенти́на Респу́блика",
          "official_name:lad": "Republika Arjentina",
          "official_name:lez": "Аргентинадин Республика",
          "official_name:lmo": "Repübliga Argentina",
          "official_name:ltg": "Argeņtinys Republika",
          "official_name:lzh": "阿根廷共和國",
          "official_name:mai": "अर्जेन्टिना गणतन्त्र",
          "official_name:mrj": "Аргентина Республика",
          "official_name:mwl": "República Argentina",
          "official_name:mzn": "آرژانتین جمهوری",
          "official_name:nah": "Ticpatlahua Argentina",
          "official_name:nan": "Argentina Kiōng-hô-kok",
          "official_name:nap": "Repubbreca Argentina",
          "official_name:nds": "Republiek Argentinien",
          "official_name:new": "गणतन्त्र अर्जेन्टिना",
          "official_name:nov": "Republike de Argentina",
          "official_name:pam": "Argentina Republica",
          "official_name:pap": "Repúblika Argentino",
          "official_name:pfl": "Republik Argentinje",
          "official_name:pms": "Repùblica Argentin-a",
          "official_name:rmy": "Republika Arxentina",
          "official_name:rue": "Арґентиньска републіка",
          "official_name:sah": "Аргентина Республиката",
          "official_name:scn": "Ripubblicca Argintina",
          "official_name:sco": "Argentine Republic",
          "official_name:stq": "Republik Argentinien",
          "official_name:szl": "Republika Argyntyńskŏ",
          "official_name:tet": "Repúblika Arjentina",
          "official_name:udm": "Аргентина Республика",
          "official_name:vec": "Republica Argentina",
          "official_name:vep": "Argentinan Tazovaldkund",
          "official_name:vls": "Republiek Argentinië",
          "official_name:vro": "Argentina Vabariik",
          "official_name:war": "Republika Argentina",
          "official_name:wuu": "阿根廷共和国",
          "official_name:xal": "Эрҗентудин Орн",
          "official_name:xmf": "არგენტინაშ რესპუბლიკა",
          "official_name:yue": "阿根廷共和國",
          "official_name:zea": "Rippebliek Arhentinië",
          "alt_name:be-tarask": "Аргенціна",
          "official_name:nds-nl": "Republiek Argentinië",
          "official_name:bat-smg": "Argentėnas Respoblėka",
          "official_name:cbk-zam": "República Argentina",
          "official_name:roa-rup": "Republica Arghentinescã",
          "official_name:zh-Hans": "阿根廷共和国",
          "official_name:zh-Hant": "阿根廷共和國",
          "official_name:roa-tara": "Repubbleche Argendine",
          "official_name:be-tarask": "Рэспу́бліка Аргенты́на"
        }
      },
      "geometry": {
        "type": "Polygon",
        "coordinates": [
          [
            [
              -70,
              -29.39662568215207
            ],
            [
              -69.9954933,
              -29.3980184
            ],
            [
              -69.9909121,
              -29.4012432
            ],
            [
              -69.9830876,
              -29.4018149
            ],
            [
              -69.979854,
              -29.403001
            ],
            [
              -69.9772212,
              -29.4044113
            ],
            [
              -69.9742685,
              -29.4095726
            ],
            [
              -69.970462,
              -29.4093387
            ],
            [
              -69.9674374,
              -29.4126459
            ],
            [
              -69.9667686,
              -29.4146286
            ],
            [
              -69.9690328,
              -29.4212921
            ],
            [
              -69.9691757,
              -29.4239236
            ],
            [
              -69.9667215,
              -29.4263741
            ],
            [
              -69.9670587,
              -29.4283942
            ],
            [
              -69.9678099,
              -29.4298573
            ],
            [
              -69.9721572,
              -29.4333259
            ],
            [
              -69.9733631,
              -29.436644
            ],
            [
              -69.972509,
              -29.4394949
            ],
            [
              -69.9781523,
              -29.4484456
            ],
            [
              -69.981427,
              -29.4521543
            ],
            [
              -69.9734745,
              -29.4549851
            ],
            [
              -69.9698482,
              -29.460366
            ],
            [
              -69.9655781,
              -29.4621223
            ],
            [
              -69.9614028,
              -29.4632536
            ],
            [
              -69.9561498,
              -29.4669888
            ],
            [
              -69.9591837,
              -29.469483
            ],
            [
              -69.9601386,
              -29.4709027
            ],
            [
              -69.9583898,
              -29.4741906
            ],
            [
              -69.9577139,
              -29.4764602
            ],
            [
              -69.9512659,
              -29.4819053
            ],
            [
              -69.9490342,
              -29.4860147
            ],
            [
              -69.9481545,
              -29.4908896
            ],
            [
              -69.9497638,
              -29.4943822
            ],
            [
              -69.9504473,
              -29.4966031
            ],
            [
              -69.9531049,
              -29.4987492
            ],
            [
              -69.952961,
              -29.5028612
            ],
            [
              -69.9498174,
              -29.5068855
            ],
            [
              -69.9471459,
              -29.5132441
            ],
            [
              -69.9476847,
              -29.5166955
            ],
            [
              -69.9469241,
              -29.518608
            ],
            [
              -69.9501117,
              -29.5202964
            ],
            [
              -69.9492082,
              -29.5228667
            ],
            [
              -69.9468885,
              -29.5251197
            ],
            [
              -69.9487553,
              -29.5283403
            ],
            [
              -69.9540554,
              -29.5302728
            ],
            [
              -69.9538623,
              -29.5327372
            ],
            [
              -69.9556432,
              -29.5349029
            ],
            [
              -69.953948,
              -29.5383193
            ],
            [
              -69.952725,
              -29.5435278
            ],
            [
              -69.9508367,
              -29.5461693
            ],
            [
              -69.9473606,
              -29.548064
            ],
            [
              -69.9459337,
              -29.5513026
            ],
            [
              -69.9458371,
              -29.5552505
            ],
            [
              -69.9419103,
              -29.5566318
            ],
            [
              -69.939786,
              -29.5618206
            ],
            [
              -69.9365888,
              -29.5639857
            ],
            [
              -69.9350009,
              -29.5664119
            ],
            [
              -69.9348185,
              -29.5685113
            ],
            [
              -69.9353281,
              -29.5705502
            ],
            [
              -69.9332548,
              -29.5748076
            ],
            [
              -69.9336276,
              -29.5787291
            ],
            [
              -69.9314819,
              -29.5843646
            ],
            [
              -69.932829,
              -29.5866765
            ],
            [
              -69.9331341,
              -29.5913247
            ],
            [
              -69.9349795,
              -29.5951496
            ],
            [
              -69.9368677,
              -29.604609
            ],
            [
              -69.938924,
              -29.6080687
            ],
            [
              -69.9410015,
              -29.6126386
            ],
            [
              -69.9406055,
              -29.6149836
            ],
            [
              -69.9387485,
              -29.6185708
            ],
            [
              -69.9379738,
              -29.6217327
            ],
            [
              -69.9366698,
              -29.6248204
            ],
            [
              -69.9388179,
              -29.627642
            ],
            [
              -69.9394641,
              -29.6303143
            ],
            [
              -69.9411593,
              -29.6423532
            ],
            [
              -69.9418245,
              -29.6461111
            ],
            [
              -69.9408803,
              -29.6487125
            ],
            [
              -69.9403654,
              -29.6522836
            ],
            [
              -69.9400328,
              -29.6535516
            ],
            [
              -69.9375544,
              -29.6569454
            ],
            [
              -69.9354623,
              -29.6587728
            ],
            [
              -69.9340783,
              -29.6620172
            ],
            [
              -69.9337426,
              -29.663802
            ],
            [
              -69.9324904,
              -29.6651683
            ],
            [
              -69.9313449,
              -29.6658893
            ],
            [
              -69.9250737,
              -29.6709923
            ],
            [
              -69.9239288,
              -29.6726821
            ],
            [
              -69.9231027,
              -29.6743787
            ],
            [
              -69.9231349,
              -29.6760006
            ],
            [
              -69.9219332,
              -29.6781259
            ],
            [
              -69.9207101,
              -29.6798597
            ],
            [
              -69.9219522,
              -29.6825549
            ],
            [
              -69.9218473,
              -29.6843339
            ],
            [
              -69.9201389,
              -29.686323
            ],
            [
              -69.9183284,
              -29.6876521
            ],
            [
              -69.9137793,
              -29.6896093
            ],
            [
              -69.9116121,
              -29.6917343
            ],
            [
              -69.9110756,
              -29.693095
            ],
            [
              -69.9102173,
              -29.6970094
            ],
            [
              -69.9092303,
              -29.6985565
            ],
            [
              -69.9063764,
              -29.6986311
            ],
            [
              -69.9023638,
              -29.6968417
            ],
            [
              -69.8972783,
              -29.6929833
            ],
            [
              -69.8939233,
              -29.6946872
            ],
            [
              -69.8909356,
              -29.6991071
            ],
            [
              -69.8892961,
              -29.7018929
            ],
            [
              -69.8847041,
              -29.7061051
            ],
            [
              -69.8819714,
              -29.7088338
            ],
            [
              -69.8836527,
              -29.7117894
            ],
            [
              -69.8840958,
              -29.7158784
            ],
            [
              -69.8869143,
              -29.7191506
            ],
            [
              -69.8853908,
              -29.722039
            ],
            [
              -69.8833309,
              -29.7235297
            ],
            [
              -69.8797184,
              -29.7246182
            ],
            [
              -69.8799368,
              -29.7272045
            ],
            [
              -69.8796401,
              -29.7300516
            ],
            [
              -69.8796249,
              -29.7336572
            ],
            [
              -69.8809276,
              -29.7350079
            ],
            [
              -69.8833334,
              -29.7357168
            ],
            [
              -69.8868713,
              -29.7383803
            ],
            [
              -69.8875151,
              -29.7401317
            ],
            [
              -69.8900042,
              -29.7433734
            ],
            [
              -69.890648,
              -29.7478448
            ],
            [
              -69.8952613,
              -29.7513471
            ],
            [
              -69.897171,
              -29.7533591
            ],
            [
              -69.897096,
              -29.7563862
            ],
            [
              -69.8940168,
              -29.7586868
            ],
            [
              -69.8941241,
              -29.7608476
            ],
            [
              -69.8933087,
              -29.7641539
            ],
            [
              -69.8934803,
              -29.7675905
            ],
            [
              -69.8978362,
              -29.7709059
            ],
            [
              -69.8985443,
              -29.7742957
            ],
            [
              -69.899231,
              -29.7764655
            ],
            [
              -69.9031792,
              -29.7795665
            ],
            [
              -69.9034437,
              -29.7829784
            ],
            [
              -69.9057895,
              -29.7852729
            ],
            [
              -69.911376,
              -29.7915596
            ],
            [
              -69.9126635,
              -29.7948743
            ],
            [
              -69.911655,
              -29.797146
            ],
            [
              -69.9133716,
              -29.8005722
            ],
            [
              -69.9126528,
              -29.8030858
            ],
            [
              -69.9134789,
              -29.8067911
            ],
            [
              -69.9004541,
              -29.8105707
            ],
            [
              -69.8996452,
              -29.8123326
            ],
            [
              -69.899995,
              -29.8143924
            ],
            [
              -69.8940275,
              -29.8190323
            ],
            [
              -69.8929439,
              -29.821499
            ],
            [
              -69.8962698,
              -29.8239749
            ],
            [
              -69.8990593,
              -29.8288521
            ],
            [
              -69.8971925,
              -29.8330963
            ],
            [
              -69.9000464,
              -29.8364094
            ],
            [
              -69.9003683,
              -29.8390526
            ],
            [
              -69.8996602,
              -29.8425331
            ],
            [
              -69.8983727,
              -29.8470372
            ],
            [
              -69.8928581,
              -29.8534579
            ],
            [
              -69.8886095,
              -29.8530951
            ],
            [
              -69.8864208,
              -29.8532905
            ],
            [
              -69.8838244,
              -29.8569938
            ],
            [
              -69.8776502,
              -29.8615257
            ],
            [
              -69.877303,
              -29.8627913
            ],
            [
              -69.8808847,
              -29.8649026
            ],
            [
              -69.8822463,
              -29.867887
            ],
            [
              -69.8837328,
              -29.8693405
            ],
            [
              -69.8853421,
              -29.8719269
            ],
            [
              -69.8874128,
              -29.8733131
            ],
            [
              -69.8913181,
              -29.8746062
            ],
            [
              -69.8918331,
              -29.874969
            ],
            [
              -69.8925519,
              -29.8757319
            ],
            [
              -69.8934424,
              -29.8763273
            ],
            [
              -69.8937428,
              -29.8777971
            ],
            [
              -69.8941505,
              -29.8783088
            ],
            [
              -69.8967147,
              -29.8781134
            ],
            [
              -69.8967469,
              -29.8784576
            ],
            [
              -69.8959422,
              -29.8792949
            ],
            [
              -69.8949123,
              -29.8808484
            ],
            [
              -69.8940969,
              -29.8817508
            ],
            [
              -69.8932171,
              -29.8834345
            ],
            [
              -69.8919726,
              -29.8850252
            ],
            [
              -69.8908353,
              -29.8853973
            ],
            [
              -69.8892582,
              -29.8855647
            ],
            [
              -69.8886681,
              -29.8858345
            ],
            [
              -69.8884964,
              -29.8862438
            ],
            [
              -69.8886144,
              -29.8876391
            ],
            [
              -69.8898697,
              -29.8901599
            ],
            [
              -69.8924661,
              -29.8920202
            ],
            [
              -69.8940164,
              -29.8928666
            ],
            [
              -69.8949793,
              -29.8942688
            ],
            [
              -69.8955989,
              -29.8947013
            ],
            [
              -69.895725,
              -29.895657
            ],
            [
              -69.8955801,
              -29.8959965
            ],
            [
              -69.8936248,
              -29.8973033
            ],
            [
              -69.8910499,
              -29.8982892
            ],
            [
              -69.8901487,
              -29.899424
            ],
            [
              -69.8895478,
              -29.9021398
            ],
            [
              -69.8881927,
              -29.9037563
            ],
            [
              -69.8885461,
              -29.9049207
            ],
            [
              -69.8893167,
              -29.9064467
            ],
            [
              -69.8927869,
              -29.9080296
            ],
            [
              -69.8967931,
              -29.9118476
            ],
            [
              -69.8965483,
              -29.9131205
            ],
            [
              -69.8981574,
              -29.9148219
            ],
            [
              -69.9020112,
              -29.9166952
            ],
            [
              -69.9039389,
              -29.9187771
            ],
            [
              -69.9045607,
              -29.922031
            ],
            [
              -69.9059628,
              -29.9246104
            ],
            [
              -69.9084273,
              -29.9269665
            ],
            [
              -69.9093359,
              -29.9352607
            ],
            [
              -69.9091111,
              -29.9361756
            ],
            [
              -69.9074641,
              -29.9372557
            ],
            [
              -69.9069419,
              -29.9382242
            ],
            [
              -69.9068522,
              -29.9393801
            ],
            [
              -69.9045471,
              -29.9379458
            ],
            [
              -69.9022967,
              -29.9372681
            ],
            [
              -69.8993913,
              -29.9366496
            ],
            [
              -69.8961921,
              -29.9362958
            ],
            [
              -69.8964804,
              -29.9371141
            ],
            [
              -69.8959427,
              -29.9406791
            ],
            [
              -69.8967503,
              -29.9445348
            ],
            [
              -69.8987067,
              -29.9458499
            ],
            [
              -69.8991714,
              -29.9483229
            ],
            [
              -69.8998939,
              -29.9493849
            ],
            [
              -69.9006454,
              -29.9500205
            ],
            [
              -69.9006746,
              -29.951051
            ],
            [
              -69.9002695,
              -29.9521818
            ],
            [
              -69.898941,
              -29.9537078
            ],
            [
              -69.898351,
              -29.9560742
            ],
            [
              -69.8986187,
              -29.9581478
            ],
            [
              -69.8997911,
              -29.9596356
            ],
            [
              -69.9022703,
              -29.9639349
            ],
            [
              -69.9037235,
              -29.964419
            ],
            [
              -69.9049493,
              -29.9655548
            ],
            [
              -69.9054024,
              -29.966263
            ],
            [
              -69.9054789,
              -29.9669598
            ],
            [
              -69.9061666,
              -29.9677842
            ],
            [
              -69.9074274,
              -29.968443
            ],
            [
              -69.9118627,
              -29.9759641
            ],
            [
              -69.914194,
              -29.9793538
            ],
            [
              -69.9188924,
              -29.9825304
            ],
            [
              -69.9205164,
              -29.9860013
            ],
            [
              -69.9216632,
              -29.987189
            ],
            [
              -69.9214232,
              -29.9897249
            ],
            [
              -69.9215068,
              -29.9908043
            ],
            [
              -69.9233964,
              -29.9960156
            ],
            [
              -69.9249915,
              -29.9984568
            ],
            [
              -69.9251753,
              -29.9994781
            ],
            [
              -69.92566545425791,
              -30
            ],
            [
              -69,
              -30
            ],
            [
              -69,
              -29
            ],
            [
              -69.77172373806214,
              -29
            ],
            [
              -69.7733312,
              -29.0022274
            ],
            [
              -69.7758123,
              -29.0046641
            ],
            [
              -69.7767712,
              -29.0085032
            ],
            [
              -69.777258,
              -29.0114602
            ],
            [
              -69.7791999,
              -29.013637
            ],
            [
              -69.7846609,
              -29.0156074
            ],
            [
              -69.7814423,
              -29.0194164
            ],
            [
              -69.7868925,
              -29.0285165
            ],
            [
              -69.7874719,
              -29.0312181
            ],
            [
              -69.7857982,
              -29.0370716
            ],
            [
              -69.7878527,
              -29.0384786
            ],
            [
              -69.7875899,
              -29.0405235
            ],
            [
              -69.7892958,
              -29.042287
            ],
            [
              -69.7896683,
              -29.0452405
            ],
            [
              -69.7906086,
              -29.048913
            ],
            [
              -69.7928148,
              -29.0506346
            ],
            [
              -69.7934371,
              -29.0546113
            ],
            [
              -69.7924929,
              -29.057725
            ],
            [
              -69.7929791,
              -29.0609935
            ],
            [
              -69.7909872,
              -29.0651983
            ],
            [
              -69.7945744,
              -29.0687909
            ],
            [
              -69.792965,
              -29.0765551
            ],
            [
              -69.7950035,
              -29.0793962
            ],
            [
              -69.7961408,
              -29.0823498
            ],
            [
              -69.7943168,
              -29.0838311
            ],
            [
              -69.7928185,
              -29.0855497
            ],
            [
              -69.7910124,
              -29.0879753
            ],
            [
              -69.7893669,
              -29.0913356
            ],
            [
              -69.7885447,
              -29.0940693
            ],
            [
              -69.785133,
              -29.1005941
            ],
            [
              -69.7851008,
              -29.1036126
            ],
            [
              -69.785605,
              -29.104925
            ],
            [
              -69.7873217,
              -29.1081497
            ],
            [
              -69.7910124,
              -29.111468
            ],
            [
              -69.7915489,
              -29.1139801
            ],
            [
              -69.7901541,
              -29.1168295
            ],
            [
              -69.7880727,
              -29.123859
            ],
            [
              -69.7888022,
              -29.1261834
            ],
            [
              -69.7886262,
              -29.1286559
            ],
            [
              -69.7871134,
              -29.1300549
            ],
            [
              -69.8069769,
              -29.1321814
            ],
            [
              -69.8152362,
              -29.1305622
            ],
            [
              -69.8180914,
              -29.1312174
            ],
            [
              -69.8225551,
              -29.130963
            ],
            [
              -69.8389822,
              -29.129307
            ],
            [
              -69.842468,
              -29.1308969
            ],
            [
              -69.8438412,
              -29.1322001
            ],
            [
              -69.8447724,
              -29.1338017
            ],
            [
              -69.8456012,
              -29.1342446
            ],
            [
              -69.8533898,
              -29.1334559
            ],
            [
              -69.8581728,
              -29.1331373
            ],
            [
              -69.8612004,
              -29.1350865
            ],
            [
              -69.864741,
              -29.1359674
            ],
            [
              -69.8656773,
              -29.1374496
            ],
            [
              -69.8697954,
              -29.138598
            ],
            [
              -69.8745772,
              -29.1383577
            ],
            [
              -69.8786531,
              -29.1407764
            ],
            [
              -69.8830734,
              -29.1440374
            ],
            [
              -69.8893958,
              -29.1527594
            ],
            [
              -69.8889995,
              -29.1557814
            ],
            [
              -69.8971154,
              -29.1574699
            ],
            [
              -69.9013382,
              -29.1599798
            ],
            [
              -69.9025787,
              -29.1653993
            ],
            [
              -69.9052523,
              -29.1702843
            ],
            [
              -69.9124953,
              -29.174984
            ],
            [
              -69.9159044,
              -29.1787759
            ],
            [
              -69.9200281,
              -29.1805272
            ],
            [
              -69.9236315,
              -29.1862646
            ],
            [
              -69.9258696,
              -29.1871149
            ],
            [
              -69.9332607,
              -29.1887545
            ],
            [
              -69.9420194,
              -29.1883914
            ],
            [
              -69.9453378,
              -29.1873244
            ],
            [
              -69.9525185,
              -29.1890485
            ],
            [
              -69.9518178,
              -29.1920149
            ],
            [
              -69.9495676,
              -29.1951221
            ],
            [
              -69.949286,
              -29.1980384
            ],
            [
              -69.9460004,
              -29.202116
            ],
            [
              -69.9443066,
              -29.2046091
            ],
            [
              -69.9449926,
              -29.2072207
            ],
            [
              -69.9467419,
              -29.2089707
            ],
            [
              -69.9494353,
              -29.2105401
            ],
            [
              -69.9506221,
              -29.2122511
            ],
            [
              -69.9514138,
              -29.2150153
            ],
            [
              -69.9514379,
              -29.216561
            ],
            [
              -69.950522,
              -29.2221051
            ],
            [
              -69.9477247,
              -29.2254327
            ],
            [
              -69.9472293,
              -29.2282698
            ],
            [
              -69.9429189,
              -29.2310154
            ],
            [
              -69.9395714,
              -29.2334684
            ],
            [
              -69.9393997,
              -29.2359213
            ],
            [
              -69.9385522,
              -29.2377188
            ],
            [
              -69.9382625,
              -29.2413138
            ],
            [
              -69.9386273,
              -29.2427086
            ],
            [
              -69.9361167,
              -29.245826
            ],
            [
              -69.9378977,
              -29.248653
            ],
            [
              -69.9383366,
              -29.2505244
            ],
            [
              -69.9410461,
              -29.2531645
            ],
            [
              -69.9415426,
              -29.2552334
            ],
            [
              -69.9434982,
              -29.2576767
            ],
            [
              -69.9461803,
              -29.2628059
            ],
            [
              -69.9501071,
              -29.2658758
            ],
            [
              -69.953476,
              -29.2666995
            ],
            [
              -69.9568764,
              -29.2685949
            ],
            [
              -69.9594743,
              -29.2693058
            ],
            [
              -69.9641834,
              -29.2697693
            ],
            [
              -69.9672048,
              -29.2722847
            ],
            [
              -69.9703397,
              -29.2741134
            ],
            [
              -69.9737106,
              -29.2742054
            ],
            [
              -69.9784742,
              -29.2740369
            ],
            [
              -69.9827013,
              -29.2754032
            ],
            [
              -69.9852977,
              -29.276807
            ],
            [
              -69.9885594,
              -29.2799156
            ],
            [
              -69.9918524,
              -29.2813114
            ],
            [
              -69.9964859,
              -29.285201
            ],
            [
              -69.9977734,
              -29.2870219
            ],
            [
              -69.9995115,
              -29.2904822
            ],
            [
              -70,
              -29.29185739065998
            ],
            [
              -70,
              -29.296935628158472
            ],
            [
              -69.9977991,
              -29.3001309
            ],
            [
              -69.9965417,
              -29.3035029
            ],
            [
              -69.9988033,
              -29.3074173
            ],
            [
              -69.9997422,
              -29.3080044
            ],
            [
              -70,
              -29.30808986897464
            ],
            [
              -70,
              -29.39662568215207
            ]
          ]
        ]
      }
    },
    {
      "type": "Feature",
      "properties": {
        "osm_id": -167454,
        "boundary": "administrative",
        "admin_level": 2,
        "parents": null,
        "name": "Chile",
        "local_name": "Chile",
        "name_en": "Chile",
        "all_tags": {
          "flag": "http://upload.wikimedia.org/wikipedia/commons/7/78/Flag_of_Chile.svg",
          "name": "Chile",
          "name:ab": "Чили",
          "name:af": "Chili",
          "name:ak": "Chile",
          "name:am": "ቺሌ",
          "name:an": "Chile",
          "name:ar": "تشيلي",
          "name:as": "চিলি",
          "name:av": "Чили",
          "name:ay": "Chili",
          "name:az": "Çili",
          "name:ba": "Чи́ли",
          "name:be": "Чылі",
          "name:bg": "Чили",
          "name:bh": "चिली",
          "name:bi": "Chile",
          "name:bm": "Chile",
          "name:bn": "চিলি",
          "name:bo": "ཅི་ལི།",
          "name:br": "Chile",
          "name:bs": "Čile",
          "name:ca": "Xile",
          "name:ce": "Чили",
          "name:ch": "Chile",
          "name:co": "Cile",
          "name:cs": "Chile",
          "name:cu": "Чилє",
          "name:cv": "Чили",
          "name:cy": "Chile",
          "name:da": "Chile",
          "name:de": "Chile",
          "name:dv": "ޗިލީ",
          "name:dz": "ཅི་ལེ",
          "name:ee": "Chile",
          "name:el": "Χιλή",
          "name:en": "Chile",
          "name:eo": "Ĉilio",
          "name:es": "Chile",
          "name:et": "Tšiili",
          "name:eu": "Txile",
          "name:fa": "شیلی",
          "name:ff": "Ciile",
          "name:fi": "Chile",
          "name:fj": "Chile",
          "name:fo": "Kili",
          "name:fr": "Chili",
          "name:fy": "Sily",
          "name:ga": "an tSile",
          "name:gd": "an t-Sile",
          "name:gl": "Chile",
          "name:gn": "Chile",
          "name:gu": "ચીલી",
          "name:gv": "yn Çhillee",
          "name:ha": "Chile",
          "name:he": "צ'ילה",
          "name:hi": "चिली",
          "name:hr": "Čile",
          "name:ht": "Chili",
          "name:hu": "Chile",
          "name:hy": "Չիլի",
          "name:ia": "Chile",
          "name:id": "Chili",
          "name:ie": "Chile",
          "name:ig": "Chile",
          "name:ik": "Cili",
          "name:io": "Chili",
          "name:is": "Síle",
          "name:it": "Cile",
          "name:iu": "ᓯᓕ",
          "name:ja": "チリ",
          "name:jv": "Chili",
          "name:ka": "ჩილე",
          "name:kg": "Chile",
          "name:ki": "Chile",
          "name:kk": "Чили",
          "name:kl": "Chile",
          "name:km": "ឈីលី",
          "name:kn": "ಚಿಲಿ",
          "name:ko": "칠레",
          "name:ks": "چِلی",
          "name:ku": "Şîle",
          "name:kv": "Чили",
          "name:kw": "Chile",
          "name:ky": "Чили",
          "name:la": "Chilia",
          "name:lb": "Chile",
          "name:lg": "Chile",
          "name:li": "Chili",
          "name:ln": "Shili",
          "name:lo": "ປະເທດຈີເລ",
          "name:lt": "Čilė",
          "name:lv": "Čīle",
          "name:mg": "Silia",
          "name:mi": "Hiri",
          "name:mk": "Чиле",
          "name:ml": "ചിലി",
          "name:mn": "Чили",
          "name:mr": "चिली",
          "name:ms": "Chile",
          "name:mt": "Ċili",
          "name:my": "ချီလီနိုင်ငံ",
          "name:na": "Tsire",
          "name:ne": "चिली",
          "name:nl": "Chili",
          "name:nn": "Chile",
          "name:no": "Chile",
          "name:nv": "Chíilii",
          "name:ny": "Chile",
          "name:oc": "Chile",
          "name:om": "Chiilii",
          "name:or": "ଚିଲି",
          "name:os": "Чили",
          "name:pa": "ਚਿਲੀ",
          "name:pi": "चिले",
          "name:pl": "Chile",
          "name:ps": "چېلي",
          "name:pt": "Chile",
          "name:qu": "Chili",
          "name:rm": "Chile",
          "name:rn": "Chile",
          "name:ro": "Chile",
          "name:ru": "Чили",
          "name:rw": "Shili",
          "name:sa": "चिले",
          "name:sc": "Cile",
          "name:sd": "چلي",
          "name:se": "Chile",
          "name:sg": "Shilïi",
          "name:sh": "Čile",
          "name:si": "චිලි",
          "name:sk": "Čile",
          "name:sl": "Čile",
          "name:sm": "Shili",
          "name:sn": "Chile",
          "name:so": "Jili",
          "name:sq": "Kilia",
          "name:sr": "Чиле",
          "name:ss": "iShile",
          "name:st": "Chile",
          "name:su": "Cilé",
          "name:sv": "Chile",
          "name:sw": "Chile",
          "name:ta": "சிலி",
          "name:te": "చిలీ",
          "name:tg": "Чиле",
          "name:th": "ชิลี",
          "name:ti": "ቺሌ",
          "name:tk": "Çili",
          "name:tl": "Chile",
          "name:tn": "Chile",
          "name:to": "Sile",
          "name:tr": "Şili",
          "name:ts": "Chile",
          "name:tt": "Чи́ли",
          "name:tw": "Kyili",
          "name:ty": "Tīri",
          "name:ug": "چىلى",
          "name:uk": "Чи́лі",
          "name:ur": "چلی",
          "name:uz": "Chili",
          "name:ve": "Shile",
          "name:vi": "Chi-lê",
          "name:vo": "Cilän",
          "name:wa": "Tchili",
          "name:wo": "Ciili",
          "name:xh": "iChile",
          "name:yi": "טשילע",
          "name:yo": "Tsílè",
          "name:za": "Chile",
          "name:zh": "智利",
          "name:zu": "ITshile",
          "boundary": "administrative",
          "int_name": "Chile",
          "name:ace": "Chili",
          "name:ady": "Чили",
          "name:als": "Chile",
          "name:ang": "Cile",
          "name:arc": "ܬܫܝܠܝ",
          "name:arz": "تشيلى",
          "name:ast": "Chile",
          "name:azb": "شیلی",
          "name:bar": "Chile",
          "name:bcl": "Tsile",
          "name:bjn": "Cili",
          "name:bpy": "চিলি",
          "name:bug": "Chili",
          "name:bxr": "Чили",
          "name:cdo": "Chile",
          "name:ceb": "Chile",
          "name:chr": "ᏥᎵ",
          "name:chy": "Chile",
          "name:ckb": "چیلی",
          "name:crh": "Çile",
          "name:csb": "Chile",
          "name:din": "Cile",
          "name:diq": "Şili",
          "name:dsb": "Chilska",
          "name:dty": "चिली",
          "name:eml": "Cîl",
          "name:ext": "Chili",
          "name:frp": "Ch·ili",
          "name:frr": "Chiile",
          "name:fur": "Cile",
          "name:gag": "Çili",
          "name:gan": "智利",
          "name:glk": "چیلی",
          "name:gom": "चिली",
          "name:got": "𐍄𐍄𐍃𐍄𐍃𐌾𐍄𐍃𐌾𐌹𐍄𐍃𐌾𐌹𐌻𐍄𐍃𐌾𐌹𐌻𐌴𐍄𐍃𐌾𐌹𐌻𐌴𐌹",
          "name:hak": "Chṳ-li",
          "name:haw": "Chile",
          "name:hif": "Chile",
          "name:hsb": "Chilska",
          "name:ilo": "Chile",
          "name:jam": "Chili",
          "name:jbo": "tciles",
          "name:kaa": "Chili",
          "name:kab": "Cili",
          "name:kbd": "Чили",
          "name:kbp": "Silii",
          "name:koi": "Чили",
          "name:krc": "Чили",
          "name:ksh": "Chile",
          "name:lad": "Chile",
          "name:lbe": "Чилй",
          "name:lez": "Чили",
          "name:lij": "Cile",
          "name:lmo": "Cile",
          "name:lrc": "شیلی",
          "name:ltg": "Čile",
          "name:lzh": "智利",
          "name:mai": "चिली",
          "name:mdf": "Чиле",
          "name:mhr": "Чили",
          "name:min": "Chili",
          "name:mrj": "Чили",
          "name:mwl": "Chile",
          "name:myv": "Чили Мастор",
          "name:mzn": "شیلی",
          "name:nah": "Chile",
          "name:nan": "Chile",
          "name:nap": "Cile",
          "name:nds": "Chile",
          "name:new": "चिली",
          "name:nov": "Chile",
          "name:nrm": "Chili",
          "name:nso": "Chile",
          "name:olo": "Čili",
          "name:pag": "Chile",
          "name:pam": "Chile",
          "name:pap": "Chile",
          "name:pcd": "Kili",
          "name:pdc": "Chile",
          "name:pfl": "Chile",
          "name:pih": "Chili",
          "name:pms": "Cile",
          "name:pnb": "چلی",
          "name:pnt": "Χιλή",
          "name:rmy": "Shile",
          "name:rue": "Чіле",
          "name:sah": "Чиили",
          "name:scn": "Cili",
          "name:sco": "Chile",
          "name:smn": "Chile",
          "name:sms": "Chile",
          "name:srn": "Sili",
          "name:stq": "Chile",
          "name:szl": "Čile",
          "name:tcy": "ಚಿಲಿ",
          "name:tet": "Xile",
          "name:tok": "ma Sile",
          "name:tpi": "Sili",
          "name:tum": "Chile",
          "name:tyv": "Чили",
          "name:tzl": "Cile",
          "name:udm": "Чили",
          "name:vec": "Ciłe",
          "name:vep": "Čili",
          "name:vls": "Chili",
          "name:vro": "Tsiili",
          "name:war": "Chile",
          "name:wuu": "智利",
          "name:xal": "Чилмудин Орн",
          "name:xmf": "ჩილე",
          "name:yue": "智利",
          "name:zea": "Chili",
          "way_area": "109.692",
          "wikidata": "Q298",
          "ISO3166-1": "CL",
          "wikipedia": "es:Chile",
          "admin_level": "2",
          "alt_name:gd": "Tilì",
          "alt_name:gu": "ચિલી",
          "alt_name:id": "Chile;Cili;Cile",
          "alt_name:is": "Chile",
          "alt_name:jv": "Cilé",
          "alt_name:la": "Chile",
          "alt_name:ln": "Shíle",
          "alt_name:my": "ချီလီပြည်သူ့သမ္မတနိုင်ငံ",
          "alt_name:os": "Республикæ Чили",
          "alt_name:sa": "चिलि",
          "alt_name:sm": "Malo o Shili",
          "alt_name:so": "Chili",
          "alt_name:te": "చిలె",
          "alt_name:tw": "Chile",
          "alt_name:vi": "Chile",
          "alt_name:wo": "Sili",
          "name:nds-nl": "Chili",
          "name:simple": "Chile",
          "old_name:vi": "Chí Lợi",
          "alt_name:glk": "شيلي",
          "alt_name:pnt": "Χιλε",
          "alt_name:rmy": "Chile",
          "alt_name:szl": "Czile",
          "name:bat-smg": "Čilė",
          "name:cbk-zam": "Chile",
          "name:map-bms": "Chile",
          "name:roa-rup": "Cile",
          "name:zh-Hans": "智利",
          "name:zh-Hant": "智利",
          "name:roa-tara": "Cile",
          "official_name": "República de Chile",
          "name:be-tarask": "Чылі",
          "ISO3166-1:alpha2": "CL",
          "ISO3166-1:alpha3": "CHL",
          "default_language": "es",
          "official_name:af": "Republiek van Chili",
          "official_name:am": "ቺሌ ሪፑብሊክ",
          "official_name:an": "Republica de Chile",
          "official_name:ar": "جمهورية تشيلي",
          "official_name:av": "ЖумхIурият Чили",
          "official_name:ay": "Ripoblik a Chili",
          "official_name:az": "Çili Respublikası",
          "official_name:ba": "Чи́ли Респу́бликаһы",
          "official_name:be": "Рэспу́бліка Чылі",
          "official_name:bg": "Република Чили",
          "official_name:bm": "Chile Fasojamana",
          "official_name:bn": "চিলি প্রজাতন্ত্র",
          "official_name:br": "Republik Chile",
          "official_name:bs": "Republika Čile",
          "official_name:ca": "República de Xile",
          "official_name:cs": "Chilská republika",
          "official_name:cu": "Чилє Димократїꙗ",
          "official_name:cy": "Gweriniaeth Chile",
          "official_name:da": "Republikken Chile",
          "official_name:de": "Republik Chile",
          "official_name:el": "Δημοκρατία της Χιλής",
          "official_name:en": "Republic of Chile",
          "official_name:eo": "Ĉilia Respubliko",
          "official_name:es": "República de Chile",
          "official_name:et": "Tšiili Vabariik",
          "official_name:eu": "Txileko Errepublika",
          "official_name:fa": "جمهوری شیلی",
          "official_name:ff": "Ndenndaandi Ciile",
          "official_name:fi": "Chilen tasavalta",
          "official_name:fo": "Lýðveldið Kili",
          "official_name:fr": "République du Chili",
          "official_name:fy": "Republyk Sily",
          "official_name:gd": "Poblachd na Sile",
          "official_name:gl": "República de Chile",
          "official_name:gn": "República de Chile",
          "official_name:gu": "ચિલી ગણરાજ્ય",
          "official_name:gv": "Pobblaght ny Shillee",
          "official_name:he": "הרפובליקה של צ'ילה",
          "official_name:hi": "चिली गणराज्य",
          "official_name:hr": "Republika Čile",
          "official_name:ht": "Repiblik Chili",
          "official_name:hu": "Chilei Köztársaság",
          "official_name:hy": "Չիլիի Հանրապետություն",
          "official_name:ia": "Republica de Chile",
          "official_name:id": "Republik Chili",
          "official_name:is": "Lýðveldið Síle",
          "official_name:it": "Repubblica del Cile",
          "official_name:ja": "チリ共和国",
          "official_name:ka": "ჩილეს რესპუბლიკა",
          "official_name:kg": "Repubilika ya Chile",
          "official_name:kl": "Kunngiitsuuffik Chile",
          "official_name:km": "សាធារណរដ្ឋឈីលី",
          "official_name:kn": "ಚಿಲಿ ಗಣರಾಜ್ಯ",
          "official_name:ko": "칠레 공화국",
          "official_name:ku": "Komara Şîleyê",
          "official_name:kw": "Repoblek Chile",
          "official_name:la": "res publica Chile",
          "official_name:lb": "Republik Chile",
          "official_name:lg": "Ripablik ya Chile",
          "official_name:li": "Rippubliek vaan Chili",
          "official_name:lo": "ສາທາລະນະລັດຈີເລ",
          "official_name:lt": "Čilės Respublika",
          "official_name:lv": "Čīles Republika",
          "official_name:mi": "Te Whenua Tū Wehe o Hiri",
          "official_name:mk": "Република Чиле",
          "official_name:ml": "റിപബ്ലിക് ഓഫ് ചിലി",
          "official_name:mn": "Чилийн Бүгд Найрамдах Улс",
          "official_name:mr": "चिलीचे प्रजासत्ताक",
          "official_name:ms": "Republik Chile",
          "official_name:mt": "Repubblika taċ-Ċili",
          "official_name:my": "ချီလီသမ္မတနိုင်ငံ",
          "official_name:ne": "गणातन्त्र चिली",
          "official_name:nl": "Republiek Chili",
          "official_name:nn": "Republikken Chile",
          "official_name:no": "Republikken Chile",
          "official_name:os": "Чилийы Республикæ",
          "official_name:pa": "ਚਿਲੀ ਦਾ ਗਣਰਾਜ",
          "official_name:pl": "Republika Chile",
          "official_name:ps": "د چېلي ولسمشریزه",
          "official_name:pt": "República do Chile",
          "official_name:qu": "Chili Ripuwlika",
          "official_name:rm": "Republica da Chile",
          "official_name:ro": "Republica Chile",
          "official_name:ru": "Республика Чили",
          "official_name:sd": "جمهوريه چلي",
          "official_name:se": "Chile dásseváldi",
          "official_name:sg": "Ködörösêse tî Shilïi",
          "official_name:sh": "Republika Čile",
          "official_name:si": "චිලි ජනරජය",
          "official_name:sl": "Republika Čile",
          "official_name:sm": "Lepulika o Shili",
          "official_name:so": "Jamhuuriyadda Chili",
          "official_name:sq": "Republika e Kilit",
          "official_name:sr": "Република Чиле",
          "official_name:su": "Républik Cilé",
          "official_name:sv": "Republiken Chile",
          "official_name:sw": "Jamhuri ya Chile",
          "official_name:ta": "சிலி குடியரசு",
          "official_name:te": "చిలీ గణతంత్రం",
          "official_name:th": "สาธารณรัฐชิลี",
          "official_name:tk": "Çili Respublikasy",
          "official_name:tl": "Republika ng Chile",
          "official_name:tr": "Şili Cumhuriyeti",
          "official_name:tt": "Чи́ли Җөмһүрияте́",
          "official_name:uk": "Респу́бліка Чи́лі",
          "official_name:ur": "جمہوریہ چلی",
          "official_name:uz": "Chili Respublikasi",
          "official_name:vi": "Cộng hòa Chile",
          "official_name:vo": "Republik Ciläna",
          "official_name:wo": "Republik bu Ciili",
          "official_name:yi": "רעפובליק פון טשילע",
          "official_name:yo": "Olominira ile Tsílè",
          "official_name:zh": "智利共和国 / 智利共和國",
          "ISO3166-1:numeric": "152",
          "official_name:als": "Republik Chile",
          "official_name:arc": "ܩܘܛܢܝܘܬܐ ܕܬܫܝܠܝ",
          "official_name:arz": "جمهورية تشيلى",
          "official_name:ast": "República de Chile",
          "official_name:bar": "Republik Chile",
          "official_name:bpy": "প্রজাতন্ত্রি চিলি",
          "official_name:chr": "ᏍᎦᏚᎩ ᏥᎵ",
          "official_name:ckb": "کۆماری چیلی",
          "official_name:crh": "Çile Cumhuriyeti",
          "official_name:din": "Paankɔc ke Cile",
          "official_name:dsb": "Republika Chilska",
          "official_name:ext": "Repúbrica de Chili",
          "official_name:frr": "Republiik faan Chiile",
          "official_name:gan": "智利共和國",
          "official_name:haw": "Lepupalika ʻo Chile",
          "official_name:hsb": "Republika Chilska",
          "official_name:ilo": "Republika ti Chile",
          "official_name:jam": "Ripoblik a Chili",
          "official_name:koi": "Чили Республика",
          "official_name:krc": "Чили Респу́блика",
          "official_name:ksh": "Republik Chile",
          "official_name:lad": "Repuvlika de Chile",
          "official_name:lez": "Республика Чили",
          "official_name:ltg": "Čilis Republika",
          "official_name:lzh": "智利共和國",
          "official_name:min": "Republk Chili",
          "official_name:myv": "Чили Республикась",
          "official_name:nah": "Tlacatlahtohcāyōtl Chile",
          "official_name:nan": "Chile Kiōng-hô-kok",
          "official_name:nap": "Repubbreca 'e Cile",
          "official_name:nds": "Republiek Chile",
          "official_name:nso": "Repabliki ya Chile",
          "official_name:olo": "Čilin tazavaldu",
          "official_name:pam": "Republica ning Chile",
          "official_name:pap": "Republika di Chile",
          "official_name:pcd": "Républike du Kili",
          "official_name:pfl": "Republik Chile",
          "official_name:pnb": "لوکراج چلی",
          "official_name:rmy": "Ketnepen Shile",
          "official_name:rue": "Републіка Чіле",
          "official_name:sah": "Чиили Өрөспүүбүлүкэтэ",
          "official_name:scn": "Ripùbblica di Cili",
          "official_name:sco": "Republic o Chile",
          "official_name:srn": "Ripoliku Sili",
          "official_name:stq": "Republik Chile",
          "official_name:szl": "Republika Čile",
          "official_name:tet": "Repúblika Xile niam",
          "official_name:tpi": "Ripablik bilong Sili",
          "official_name:tyv": "Чили Республика",
          "official_name:udm": "Чили Республика",
          "official_name:vec": "Republica del Ciłe",
          "official_name:vep": "Čilin Tazovaldkund",
          "official_name:vls": "Republiek Chili",
          "official_name:vro": "Tsiili Vabariik",
          "official_name:war": "Republika han Chile",
          "official_name:wuu": "智利共和国",
          "official_name:xmf": "ჩილეშ რესპუბლიკა",
          "official_name:yue": "智利共和國",
          "official_name:zea": "Rippebliek Chili",
          "official_name:nds-nl": "Rippubliek Chili",
          "official_name:bat-smg": "Čilės Respoblėka",
          "official_name:cbk-zam": "República de Chile",
          "official_name:zh-Hans": "智利共和国",
          "official_name:zh-Hant": "智利共和國",
          "official_name:roa-tara": "Repubblica Cilese",
          "official_name:be-tarask": "Рэспубліка Чылі"
        }
      },
      "geometry": {
        "type": "MultiPolygon",
        "coordinates": [
          [
            [
              [
                -70,
                -30
              ],
              [
                -69.92566545425791,
                -30
              ],
              [
                -69.9251753,
                -29.9994781
              ],
              [
                -69.9249915,
                -29.9984568
              ],
              [
                -69.9233964,
                -29.9960156
              ],
              [
                -69.9215068,
                -29.9908043
              ],
              [
                -69.9214232,
                -29.9897249
              ],
              [
                -69.9216632,
                -29.987189
              ],
              [
                -69.9205164,
                -29.9860013
              ],
              [
                -69.9188924,
                -29.9825304
              ],
              [
                -69.914194,
                -29.9793538
              ],
              [
                -69.9118627,
                -29.9759641
              ],
              [
                -69.9074274,
                -29.968443
              ],
              [
                -69.9061666,
                -29.9677842
              ],
              [
                -69.9054789,
                -29.9669598
              ],
              [
                -69.9054024,
                -29.966263
              ],
              [
                -69.9049493,
                -29.9655548
              ],
              [
                -69.9037235,
                -29.964419
              ],
              [
                -69.9022703,
                -29.9639349
              ],
              [
                -69.8997911,
                -29.9596356
              ],
              [
                -69.8986187,
                -29.9581478
              ],
              [
                -69.898351,
                -29.9560742
              ],
              [
                -69.898941,
                -29.9537078
              ],
              [
                -69.9002695,
                -29.9521818
              ],
              [
                -69.9006746,
                -29.951051
              ],
              [
                -69.9006454,
                -29.9500205
              ],
              [
                -69.8998939,
                -29.9493849
              ],
              [
                -69.8991714,
                -29.9483229
              ],
              [
                -69.8987067,
                -29.9458499
              ],
              [
                -69.8967503,
                -29.9445348
              ],
              [
                -69.8959427,
                -29.9406791
              ],
              [
                -69.8964804,
                -29.9371141
              ],
              [
                -69.8961921,
                -29.9362958
              ],
              [
                -69.8993913,
                -29.9366496
              ],
              [
                -69.9022967,
                -29.9372681
              ],
              [
                -69.9045471,
                -29.9379458
              ],
              [
                -69.9068522,
                -29.9393801
              ],
              [
                -69.9069419,
                -29.9382242
              ],
              [
                -69.9074641,
                -29.9372557
              ],
              [
                -69.9091111,
                -29.9361756
              ],
              [
                -69.9093359,
                -29.9352607
              ],
              [
                -69.9084273,
                -29.9269665
              ],
              [
                -69.9059628,
                -29.9246104
              ],
              [
                -69.9045607,
                -29.922031
              ],
              [
                -69.9039389,
                -29.9187771
              ],
              [
                -69.9020112,
                -29.9166952
              ],
              [
                -69.8981574,
                -29.9148219
              ],
              [
                -69.8965483,
                -29.9131205
              ],
              [
                -69.8967931,
                -29.9118476
              ],
              [
                -69.8927869,
                -29.9080296
              ],
              [
                -69.8893167,
                -29.9064467
              ],
              [
                -69.8885461,
                -29.9049207
              ],
              [
                -69.8881927,
                -29.9037563
              ],
              [
                -69.8895478,
                -29.9021398
              ],
              [
                -69.8901487,
                -29.899424
              ],
              [
                -69.8910499,
                -29.8982892
              ],
              [
                -69.8936248,
                -29.8973033
              ],
              [
                -69.8955801,
                -29.8959965
              ],
              [
                -69.895725,
                -29.895657
              ],
              [
                -69.8955989,
                -29.8947013
              ],
              [
                -69.8949793,
                -29.8942688
              ],
              [
                -69.8940164,
                -29.8928666
              ],
              [
                -69.8924661,
                -29.8920202
              ],
              [
                -69.8898697,
                -29.8901599
              ],
              [
                -69.8886144,
                -29.8876391
              ],
              [
                -69.8884964,
                -29.8862438
              ],
              [
                -69.8886681,
                -29.8858345
              ],
              [
                -69.8892582,
                -29.8855647
              ],
              [
                -69.8908353,
                -29.8853973
              ],
              [
                -69.8919726,
                -29.8850252
              ],
              [
                -69.8932171,
                -29.8834345
              ],
              [
                -69.8940969,
                -29.8817508
              ],
              [
                -69.8949123,
                -29.8808484
              ],
              [
                -69.8959422,
                -29.8792949
              ],
              [
                -69.8967469,
                -29.8784576
              ],
              [
                -69.8967147,
                -29.8781134
              ],
              [
                -69.8941505,
                -29.8783088
              ],
              [
                -69.8937428,
                -29.8777971
              ],
              [
                -69.8934424,
                -29.8763273
              ],
              [
                -69.8925519,
                -29.8757319
              ],
              [
                -69.8918331,
                -29.874969
              ],
              [
                -69.8913181,
                -29.8746062
              ],
              [
                -69.8874128,
                -29.8733131
              ],
              [
                -69.8853421,
                -29.8719269
              ],
              [
                -69.8837328,
                -29.8693405
              ],
              [
                -69.8822463,
                -29.867887
              ],
              [
                -69.8808847,
                -29.8649026
              ],
              [
                -69.877303,
                -29.8627913
              ],
              [
                -69.8776502,
                -29.8615257
              ],
              [
                -69.8838244,
                -29.8569938
              ],
              [
                -69.8864208,
                -29.8532905
              ],
              [
                -69.8886095,
                -29.8530951
              ],
              [
                -69.8928581,
                -29.8534579
              ],
              [
                -69.8983727,
                -29.8470372
              ],
              [
                -69.8996602,
                -29.8425331
              ],
              [
                -69.9003683,
                -29.8390526
              ],
              [
                -69.9000464,
                -29.8364094
              ],
              [
                -69.8971925,
                -29.8330963
              ],
              [
                -69.8990593,
                -29.8288521
              ],
              [
                -69.8962698,
                -29.8239749
              ],
              [
                -69.8929439,
                -29.821499
              ],
              [
                -69.8940275,
                -29.8190323
              ],
              [
                -69.899995,
                -29.8143924
              ],
              [
                -69.8996452,
                -29.8123326
              ],
              [
                -69.9004541,
                -29.8105707
              ],
              [
                -69.9134789,
                -29.8067911
              ],
              [
                -69.9126528,
                -29.8030858
              ],
              [
                -69.9133716,
                -29.8005722
              ],
              [
                -69.911655,
                -29.797146
              ],
              [
                -69.9126635,
                -29.7948743
              ],
              [
                -69.911376,
                -29.7915596
              ],
              [
                -69.9057895,
                -29.7852729
              ],
              [
                -69.9034437,
                -29.7829784
              ],
              [
                -69.9031792,
                -29.7795665
              ],
              [
                -69.899231,
                -29.7764655
              ],
              [
                -69.8985443,
                -29.7742957
              ],
              [
                -69.8978362,
                -29.7709059
              ],
              [
                -69.8934803,
                -29.7675905
              ],
              [
                -69.8933087,
                -29.7641539
              ],
              [
                -69.8941241,
                -29.7608476
              ],
              [
                -69.8940168,
                -29.7586868
              ],
              [
                -69.897096,
                -29.7563862
              ],
              [
                -69.897171,
                -29.7533591
              ],
              [
                -69.8952613,
                -29.7513471
              ],
              [
                -69.890648,
                -29.7478448
              ],
              [
                -69.8900042,
                -29.7433734
              ],
              [
                -69.8875151,
                -29.7401317
              ],
              [
                -69.8868713,
                -29.7383803
              ],
              [
                -69.8833334,
                -29.7357168
              ],
              [
                -69.8809276,
                -29.7350079
              ],
              [
                -69.8796249,
                -29.7336572
              ],
              [
                -69.8796401,
                -29.7300516
              ],
              [
                -69.8799368,
                -29.7272045
              ],
              [
                -69.8797184,
                -29.7246182
              ],
              [
                -69.8833309,
                -29.7235297
              ],
              [
                -69.8853908,
                -29.722039
              ],
              [
                -69.8869143,
                -29.7191506
              ],
              [
                -69.8840958,
                -29.7158784
              ],
              [
                -69.8836527,
                -29.7117894
              ],
              [
                -69.8819714,
                -29.7088338
              ],
              [
                -69.8847041,
                -29.7061051
              ],
              [
                -69.8892961,
                -29.7018929
              ],
              [
                -69.8909356,
                -29.6991071
              ],
              [
                -69.8939233,
                -29.6946872
              ],
              [
                -69.8972783,
                -29.6929833
              ],
              [
                -69.9023638,
                -29.6968417
              ],
              [
                -69.9063764,
                -29.6986311
              ],
              [
                -69.9092303,
                -29.6985565
              ],
              [
                -69.9102173,
                -29.6970094
              ],
              [
                -69.9110756,
                -29.693095
              ],
              [
                -69.9116121,
                -29.6917343
              ],
              [
                -69.9137793,
                -29.6896093
              ],
              [
                -69.9183284,
                -29.6876521
              ],
              [
                -69.9201389,
                -29.686323
              ],
              [
                -69.9218473,
                -29.6843339
              ],
              [
                -69.9219522,
                -29.6825549
              ],
              [
                -69.9207101,
                -29.6798597
              ],
              [
                -69.9219332,
                -29.6781259
              ],
              [
                -69.9231349,
                -29.6760006
              ],
              [
                -69.9231027,
                -29.6743787
              ],
              [
                -69.9239288,
                -29.6726821
              ],
              [
                -69.9250737,
                -29.6709923
              ],
              [
                -69.9313449,
                -29.6658893
              ],
              [
                -69.9324904,
                -29.6651683
              ],
              [
                -69.9337426,
                -29.663802
              ],
              [
                -69.9340783,
                -29.6620172
              ],
              [
                -69.9354623,
                -29.6587728
              ],
              [
                -69.9375544,
                -29.6569454
              ],
              [
                -69.9400328,
                -29.6535516
              ],
              [
                -69.9403654,
                -29.6522836
              ],
              [
                -69.9408803,
                -29.6487125
              ],
              [
                -69.9418245,
                -29.6461111
              ],
              [
                -69.9411593,
                -29.6423532
              ],
              [
                -69.9394641,
                -29.6303143
              ],
              [
                -69.9388179,
                -29.627642
              ],
              [
                -69.9366698,
                -29.6248204
              ],
              [
                -69.9379738,
                -29.6217327
              ],
              [
                -69.9387485,
                -29.6185708
              ],
              [
                -69.9406055,
                -29.6149836
              ],
              [
                -69.9410015,
                -29.6126386
              ],
              [
                -69.938924,
                -29.6080687
              ],
              [
                -69.9368677,
                -29.604609
              ],
              [
                -69.9349795,
                -29.5951496
              ],
              [
                -69.9331341,
                -29.5913247
              ],
              [
                -69.932829,
                -29.5866765
              ],
              [
                -69.9314819,
                -29.5843646
              ],
              [
                -69.9336276,
                -29.5787291
              ],
              [
                -69.9332548,
                -29.5748076
              ],
              [
                -69.9353281,
                -29.5705502
              ],
              [
                -69.9348185,
                -29.5685113
              ],
              [
                -69.9350009,
                -29.5664119
              ],
              [
                -69.9365888,
                -29.5639857
              ],
              [
                -69.939786,
                -29.5618206
              ],
              [
                -69.9419103,
                -29.5566318
              ],
              [
                -69.9458371,
                -29.5552505
              ],
              [
                -69.9459337,
                -29.5513026
              ],
              [
                -69.9473606,
                -29.548064
              ],
              [
                -69.9508367,
                -29.5461693
              ],
              [
                -69.952725,
                -29.5435278
              ],
              [
                -69.953948,
                -29.5383193
              ],
              [
                -69.9556432,
                -29.5349029
              ],
              [
                -69.9538623,
                -29.5327372
              ],
              [
                -69.9540554,
                -29.5302728
              ],
              [
                -69.9487553,
                -29.5283403
              ],
              [
                -69.9468885,
                -29.5251197
              ],
              [
                -69.9492082,
                -29.5228667
              ],
              [
                -69.9501117,
                -29.5202964
              ],
              [
                -69.9469241,
                -29.518608
              ],
              [
                -69.9476847,
                -29.5166955
              ],
              [
                -69.9471459,
                -29.5132441
              ],
              [
                -69.9498174,
                -29.5068855
              ],
              [
                -69.952961,
                -29.5028612
              ],
              [
                -69.9531049,
                -29.4987492
              ],
              [
                -69.9504473,
                -29.4966031
              ],
              [
                -69.9497638,
                -29.4943822
              ],
              [
                -69.9481545,
                -29.4908896
              ],
              [
                -69.9490342,
                -29.4860147
              ],
              [
                -69.9512659,
                -29.4819053
              ],
              [
                -69.9577139,
                -29.4764602
              ],
              [
                -69.9583898,
                -29.4741906
              ],
              [
                -69.9601386,
                -29.4709027
              ],
              [
                -69.9591837,
                -29.469483
              ],
              [
                -69.9561498,
                -29.4669888
              ],
              [
                -69.9614028,
                -29.4632536
              ],
              [
                -69.9655781,
                -29.4621223
              ],
              [
                -69.9698482,
                -29.460366
              ],
              [
                -69.9734745,
                -29.4549851
              ],
              [
                -69.981427,
                -29.4521543
              ],
              [
                -69.9781523,
                -29.4484456
              ],
              [
                -69.972509,
                -29.4394949
              ],
              [
                -69.9733631,
                -29.436644
              ],
              [
                -69.9721572,
                -29.4333259
              ],
              [
                -69.9678099,
                -29.4298573
              ],
              [
                -69.9670587,
                -29.4283942
              ],
              [
                -69.9667215,
                -29.4263741
              ],
              [
                -69.9691757,
                -29.4239236
              ],
              [
                -69.9690328,
                -29.4212921
              ],
              [
                -69.9667686,
                -29.4146286
              ],
              [
                -69.9674374,
                -29.4126459
              ],
              [
                -69.970462,
                -29.4093387
              ],
              [
                -69.9742685,
                -29.4095726
              ],
              [
                -69.9772212,
                -29.4044113
              ],
              [
                -69.979854,
                -29.403001
              ],
              [
                -69.9830876,
                -29.4018149
              ],
              [
                -69.9909121,
                -29.4012432
              ],
              [
                -69.9954933,
                -29.3980184
              ],
              [
                -70,
                -29.39662568215207
              ],
              [
                -70,
                -30
              ]
            ]
          ],
          [
            [
              [
                -70,
                -29.30808986897464
              ],
              [
                -69.9997422,
                -29.3080044
              ],
              [
                -69.9988033,
                -29.3074173
              ],
              [
                -69.9965417,
                -29.3035029
              ],
              [
                -69.9977991,
                -29.3001309
              ],
              [
                -70,
                -29.296935628158472
              ],
              [
                -70,
                -29.30808986897464
              ]
            ]
          ],
          [
            [
              [
                -70,
                -29.29185739065998
              ],
              [
                -69.9995115,
                -29.2904822
              ],
              [
                -69.9977734,
                -29.2870219
              ],
              [
                -69.9964859,
                -29.285201
              ],
              [
                -69.9918524,
                -29.2813114
              ],
              [
                -69.9885594,
                -29.2799156
              ],
              [
                -69.9852977,
                -29.276807
              ],
              [
                -69.9827013,
                -29.2754032
              ],
              [
                -69.9784742,
                -29.2740369
              ],
              [
                -69.9737106,
                -29.2742054
              ],
              [
                -69.9703397,
                -29.2741134
              ],
              [
                -69.9672048,
                -29.2722847
              ],
              [
                -69.9641834,
                -29.2697693
              ],
              [
                -69.9594743,
                -29.2693058
              ],
              [
                -69.9568764,
                -29.2685949
              ],
              [
                -69.953476,
                -29.2666995
              ],
              [
                -69.9501071,
                -29.2658758
              ],
              [
                -69.9461803,
                -29.2628059
              ],
              [
                -69.9434982,
                -29.2576767
              ],
              [
                -69.9415426,
                -29.2552334
              ],
              [
                -69.9410461,
                -29.2531645
              ],
              [
                -69.9383366,
                -29.2505244
              ],
              [
                -69.9378977,
                -29.248653
              ],
              [
                -69.9361167,
                -29.245826
              ],
              [
                -69.9386273,
                -29.2427086
              ],
              [
                -69.9382625,
                -29.2413138
              ],
              [
                -69.9385522,
                -29.2377188
              ],
              [
                -69.9393997,
                -29.2359213
              ],
              [
                -69.9395714,
                -29.2334684
              ],
              [
                -69.9429189,
                -29.2310154
              ],
              [
                -69.9472293,
                -29.2282698
              ],
              [
                -69.9477247,
                -29.2254327
              ],
              [
                -69.950522,
                -29.2221051
              ],
              [
                -69.9514379,
                -29.216561
              ],
              [
                -69.9514138,
                -29.2150153
              ],
              [
                -69.9506221,
                -29.2122511
              ],
              [
                -69.9494353,
                -29.2105401
              ],
              [
                -69.9467419,
                -29.2089707
              ],
              [
                -69.9449926,
                -29.2072207
              ],
              [
                -69.9443066,
                -29.2046091
              ],
              [
                -69.9460004,
                -29.202116
              ],
              [
                -69.949286,
                -29.1980384
              ],
              [
                -69.9495676,
                -29.1951221
              ],
              [
                -69.9518178,
                -29.1920149
              ],
              [
                -69.9525185,
                -29.1890485
              ],
              [
                -69.9453378,
                -29.1873244
              ],
              [
                -69.9420194,
                -29.1883914
              ],
              [
                -69.9332607,
                -29.1887545
              ],
              [
                -69.9258696,
                -29.1871149
              ],
              [
                -69.9236315,
                -29.1862646
              ],
              [
                -69.9200281,
                -29.1805272
              ],
              [
                -69.9159044,
                -29.1787759
              ],
              [
                -69.9124953,
                -29.174984
              ],
              [
                -69.9052523,
                -29.1702843
              ],
              [
                -69.9025787,
                -29.1653993
              ],
              [
                -69.9013382,
                -29.1599798
              ],
              [
                -69.8971154,
                -29.1574699
              ],
              [
                -69.8889995,
                -29.1557814
              ],
              [
                -69.8893958,
                -29.1527594
              ],
              [
                -69.8830734,
                -29.1440374
              ],
              [
                -69.8786531,
                -29.1407764
              ],
              [
                -69.8745772,
                -29.1383577
              ],
              [
                -69.8697954,
                -29.138598
              ],
              [
                -69.8656773,
                -29.1374496
              ],
              [
                -69.864741,
                -29.1359674
              ],
              [
                -69.8612004,
                -29.1350865
              ],
              [
                -69.8581728,
                -29.1331373
              ],
              [
                -69.8533898,
                -29.1334559
              ],
              [
                -69.8456012,
                -29.1342446
              ],
              [
                -69.8447724,
                -29.1338017
              ],
              [
                -69.8438412,
                -29.1322001
              ],
              [
                -69.842468,
                -29.1308969
              ],
              [
                -69.8389822,
                -29.129307
              ],
              [
                -69.8225551,
                -29.130963
              ],
              [
                -69.8180914,
                -29.1312174
              ],
              [
                -69.8152362,
                -29.1305622
              ],
              [
                -69.8069769,
                -29.1321814
              ],
              [
                -69.7871134,
                -29.1300549
              ],
              [
                -69.7886262,
                -29.1286559
              ],
              [
                -69.7888022,
                -29.1261834
              ],
              [
                -69.7880727,
                -29.123859
              ],
              [
                -69.7901541,
                -29.1168295
              ],
              [
                -69.7915489,
                -29.1139801
              ],
              [
                -69.7910124,
                -29.111468
              ],
              [
                -69.7873217,
                -29.1081497
              ],
              [
                -69.785605,
                -29.104925
              ],
              [
                -69.7851008,
                -29.1036126
              ],
              [
                -69.785133,
                -29.1005941
              ],
              [
                -69.7885447,
                -29.0940693
              ],
              [
                -69.7893669,
                -29.0913356
              ],
              [
                -69.7910124,
                -29.0879753
              ],
              [
                -69.7928185,
                -29.0855497
              ],
              [
                -69.7943168,
                -29.0838311
              ],
              [
                -69.7961408,
                -29.0823498
              ],
              [
                -69.7950035,
                -29.0793962
              ],
              [
                -69.792965,
                -29.0765551
              ],
              [
                -69.7945744,
                -29.0687909
              ],
              [
                -69.7909872,
                -29.0651983
              ],
              [
                -69.7929791,
                -29.0609935
              ],
              [
                -69.7924929,
                -29.057725
              ],
              [
                -69.7934371,
                -29.0546113
              ],
              [
                -69.7928148,
                -29.0506346
              ],
              [
                -69.7906086,
                -29.048913
              ],
              [
                -69.7896683,
                -29.0452405
              ],
              [
                -69.7892958,
                -29.042287
              ],
              [
                -69.7875899,
                -29.0405235
              ],
              [
                -69.7878527,
                -29.0384786
              ],
              [
                -69.7857982,
                -29.0370716
              ],
              [
                -69.7874719,
                -29.0312181
              ],
              [
                -69.7868925,
                -29.0285165
              ],
              [
                -69.7814423,
                -29.0194164
              ],
              [
                -69.7846609,
                -29.0156074
              ],
              [
                -69.7791999,
                -29.013637
              ],
              [
                -69.777258,
                -29.0114602
              ],
              [
                -69.7767712,
                -29.0085032
              ],
              [
                -69.7758123,
                -29.0046641
              ],
              [
                -69.7733312,
                -29.0022274
              ],
              [
                -69.77172373806214,
                -29
              ],
              [
                -70,
                -29
              ],
              [
                -70,
                -29.29185739065998
              ]
            ]
          ]
        ]
      }
    }
  ]
}