{
  "type": "FeatureCollection",
  "features": [
    {
      "type": "Feature",
      "properties": {
        "osm_id": -148838,
        "boundary": "administrative",
        "admin_level": 2,
        "parents": null,
        "name": "United States",
        "local_name": "United States",
        "name_en": "United States",
        "all_tags": {
          "flag": "https://upload.wikimedia.org/wikipedia/commons/a/a4/Flag_of_the_United_States.svg",
          "name": "United States",
          "name:ab": "Америка Еиду Аштатқәа",
          "name:af": "Verenigde State van Amerika",
          "name:am": "የተባበሩት የአሜሪካ ግዛቶች",
          "name:an": "Estatos Unitos d'America",
          "name:ar": "الولايات المتّحدة الأمريكيّة",
          "name:as": "মাৰ্কিন যুক্তৰাষ্ট্ৰ",
          "name:av": "Америкалъул Цолъарал Штатал",
          "name:ay": "Istadus Unidus",
          "name:az": "Amerika Birləşmiş Ştatları",
          "name:ba": "Америка Ҡушма Штаттары",
          "name:be": "Злучаныя Штаты Амерыкі",
          "name:bg": "Съединени американски щати",
          "name:bi": "Yunaeted Stet blong Amerika",
          "name:bm": "Amerika ka Kelenyalen Jamanaw",
          "name:bn": "মার্কিন যুক্তরাষ্ট্র",
          "name:bo": "ཨ་མེ་རི་ཁ་རྒྱལ་ཕྲན་མཉམ་འབྲེལ་རྒྱལ་ཁབ།",
          "name:br": "Stadoù-Unanet Amerika",
          "name:bs": "Sjedinjene Američke Države",
          "name:ca": "Estats Units d'Amèrica",
          "name:ce": "Iамерка пачхьалк",
          "name:co": "Stati Uniti d'America",
          "name:cs": "Spojené státy americké",
          "name:cu": "Амєрика́ньскꙑ Ѥдьнѥнꙑ́ Дрьжа́вꙑ",
          "name:cv": "Америкăри Пĕрлешӳллĕ Штатсем",
          "name:cy": "Unol Daleithiau America",
          "name:da": "Amerikas Forenede Stater",
          "name:de": "Vereinigte Staaten von Amerika",
          "name:dv": "އެމެރިކާ",
          "name:dz": "ཡུ་ནའིཊེཊ་སི་ཊེས",
          "name:ee": "United States",
          "name:el": "Ηνωμένες Πολιτείες της Αμερικής",
          "name:en": "United States",
          "name:eo": "Usono",
          "name:es": "Estados Unidos de América",
          "name:et": "Ameerika Ühendriigid",
          "name:eu": "Ameriketako Estatu Batuak",
          "name:fa": "ایالات متحده آمریکا",
          "name:ff": "Dowlaaji Dentuɗi",
          "name:fi": "Amerikan yhdysvallat",
          "name:fo": "Sambandsríkið Amerika",
          "name:fr": "États-Unis d'Amérique",
          "name:fy": "Feriene Steaten fan Amearika",
          "name:ga": "Stáit Aontaithe Mheiriceá",
          "name:gd": "Na Stàitean Aonaichte",
          "name:gl": "Estados Unidos de América",
          "name:gn": "Tetã peteĩ reko Amérikagua",
          "name:gu": "સંયુક્ત રાજ્ય અમેરિકા",
          "name:gv": "Steatyn Unnaneysit America",
          "name:ha": "kunkiyar taraiyar Amurika",
          "name:he": "ארצות הברית",
          "name:hi": "संयुक्त राज्य अमेरिका",
          "name:hr": "Sjedinjene Američke Države",
          "name:ht": "Etazini",
          "name:hu": "Amerikai Egyesült Államok",
          "name:hy": "Ամերիկայի Միացյալ Նահանգներ",
          "name:ia": "Statos Unite de America",
          "name:id": "Amerika Serikat",
          "name:ie": "Unit States de America",
          "name:ig": "Njikota Obodo Amerika",
          "name:ik": "United States of America",
          "name:io": "Unionita Stati di Amerika",
          "name:is": "Bandaríki Norður-Ameríku",
          "name:it": "Stati Uniti d'America",
          "name:iu": "ᐊᒥᐊᓕᑲ",
          "name:ja": "アメリカ合衆国",
          "name:jv": "Amérika Sarékat",
          "name:ka": "ამერიკის შეერთებული შტატები",
          "name:ki": "United States",
          "name:kk": "Америка Құрама Штаттары",
          "name:kl": "Naalagaaffeqatigiit",
          "name:km": "សហរដ្ឋអាមេរិក",
          "name:kn": "ಅಮೇರಿಕ ಸಂಯುಕ್ತ ಸಂಸ್ಥಾನ",
          "name:ko": "미국",
          "name:ks": "ریاست ہائے متحدہ",
          "name:ku": "Dewletên Yekbûyî yên Amerîkayê",
          "name:kv": "Америкаса Ӧтувтӧм Штатъяс",
          "name:kw": "Statys Unys Amerika",
          "name:ky": "Америка Кошмо Штаттары",
          "name:la": "Civitates Foederatae Americae",
          "name:lb": "Vereenegt Staate vun Amerika",
          "name:lg": "Amereka",
          "name:li": "Vereinegde State van Amerika",
          "name:ln": "Lisangá lya Ameríka",
          "name:lo": "ສະຫະລັດອາເມລິກາ",
          "name:lt": "Jungtinės Amerikos Valstijos",
          "name:lv": "Amerikas Savienotās Valstis",
          "name:mg": "Etazonia",
          "name:mi": "Amerika",
          "name:mk": "Соединети Американски Држави",
          "name:ml": "അമേരിക്കന് ഐക്യനാടുകള്",
          "name:mn": "Америкийн Нэгдсэн Улс",
          "name:mo": "Стателе Уните але Америчий",
          "name:mr": "अमेरिकेची संयुक्त संस्थाने",
          "name:ms": "Amerika Syarikat",
          "name:mt": "Stati Uniti tal-Amerika",
          "name:my": "အမေရိကန်ပြည်ထောင်စု",
          "name:na": "Eben Merika",
          "name:ne": "संयुक्त राज्य अमेरिका",
          "name:nl": "Verenigde Staten",
          "name:nn": "USA",
          "name:no": "Amerikas forente stater",
          "name:nv": "Wááshindoon Bikéyah Ałhidadiidzooígíí",
          "name:oc": "Estats Units d'America",
          "name:om": "USA",
          "name:or": "ଯୁକ୍ତରାଷ୍ଟ୍ର ଆମେରିକା",
          "name:os": "Америкæйы Иугонд Штаттæ",
          "name:pa": "ਸੰਯੁਕਤ ਰਾਜ ਅਮਰੀਕਾ",
          "name:pl": "Stany Zjednoczone",
          "name:ps": "د امریکا متحده آیالاتونه",
          "name:pt": "Estados Unidos da América",
          "name:qu": "Hukllachasqa Amirika Suyukuna",
          "name:rm": "Stadis Unids da l'America",
          "name:rn": "Leta Zunze Ubumwe za Amerika",
          "name:ro": "Statele Unite ale Americii",
          "name:ru": "Соединённые Штаты Америки",
          "name:rw": "Leta Zunze Ubumwe z’Amerika",
          "name:sa": "संयुक्तानि राज्यानि",
          "name:sc": "Istados Unidos de America",
          "name:sd": "آمريڪا",
          "name:se": "Amerihká ovttastuvvan stáhtat",
          "name:sg": "ÂKödörö-ôko tî Amerîka",
          "name:sh": "Sjedinjene Američke Države",
          "name:si": "අ'මෙරිකාවේ එක්සත් රාජ්යයන්",
          "name:sk": "Spojené štáty americké",
          "name:sl": "Združene države Amerike",
          "name:sm": "Iunaite Sitete o Amerika",
          "name:sn": "United States of America",
          "name:so": "Mareykanka",
          "name:sq": "Shtetet e Bashkuara të Amerikës",
          "name:sr": "Сједињене Америчке Државе",
          "name:ss": "IMelika",
          "name:su": "Amérika Sarikat",
          "name:sv": "USA",
          "name:sw": "Muungano wa Madola ya Amerika",
          "name:ta": "ஐக்கிய அமெரிக்கா",
          "name:te": "అమెరికా సంయుక్త రాష్ట్రాలు",
          "name:tg": "Иёлоти Муттаҳидаи Амрико",
          "name:th": "สหรัฐอเมริกา",
          "name:tk": "Amerikanyň Birleşen Ştatlary",
          "name:tl": "Estados Unidos",
          "name:tn": "USA",
          "name:to": "Puleʻanga Fakataha 'o 'Amelika",
          "name:tr": "Amerika Birleşik Devletleri",
          "name:ts": "United States",
          "name:tt": "Америка Кушма Штатлары",
          "name:tw": "USA",
          "name:ty": "Fenua Marite",
          "name:ug": "ئامېرىكا قوشما شتاتلىرى",
          "name:uk": "Сполучені Штати Америки",
          "name:ur": "ریاست ہائے متحدہ",
          "name:uz": "Amerika Qoʻshma Shtatlari",
          "name:vi": "Hoa Kỳ",
          "name:vo": "Lamerikän",
          "name:wa": "Estats Unis d' Amerike",
          "name:wo": "Diwaan-yu-Bennoo yu Aamerig",
          "name:xh": "IYunayithedi Steyitsi",
          "name:yi": "פאראייניקטע שטאטן פון אמעריקע",
          "name:yo": "Àwọn Ìpínlẹ̀ Aṣọ̀kan Amẹ́ríkà",
          "name:za": "Meijgoz",
          "name:zh": "美利坚合众国/美利堅合眾國",
          "name:zu": "IMelika",
          "boundary": "administrative",
          "int_name": "United States of America",
          "name:ace": "Amirika Carékat",
          "name:als": "Vereinigte Schtaate vo Amerika",
          "name:anc": "Ἡνωμέναι Πολιτείαι τῆς Νεοικουμένης",
          "name:ang": "Geānlǣtan Rīcu American",
          "name:arc": "ܐܘܚܕܢܐ ܡܚܝܕܐ",
          "name:arz": "امريكا",
          "name:ast": "Estaos Xuníos d'América",
          "name:azb": "آمریکا بیرلشمیش ایالتلری",
          "name:bar": "Vaeinigtn Staatn vo Amerika",
          "name:bcl": "Estados Unidos",
          "name:bpy": "তিলপারাষ্ট্র",
          "name:bxr": "Американ Нэгэдэһэн Улас",
          "name:cdo": "Mī-lé-giĕng Hăk-cé̤ṳng-guók",
          "name:ceb": "Estados Unidos sa Amerika",
          "name:chr": "ᏌᏊᎢᏳᎾᎵᏍᏔᏅᏍᎦᏚᎩ ᎾᎿ ᎠᎺᏰᏟ",
          "name:chy": "United States",
          "name:ckb": "ویلایەتە یەکگرتووەکانی ئەمریکا",
          "name:crh": "Amerika Qoşma Ştatları",
          "name:csb": "Zjednóné Kraje Americzi",
          "name:din": "Amatnhom Pawut",
          "name:diq": "Dewletê Amerikayê Yewbiyayey",
          "name:dsb": "Zjadnośone staty Ameriki",
          "name:eml": "Stat Unî",
          "name:ext": "Estaus Uñíus d'América",
          "name:frp": "Ètats-Unis d’Amèrica",
          "name:frr": "Feriind Stoote foon Ameerika",
          "name:fur": "Stâts Unîts di Americhe",
          "name:gag": "Amerika Birleşik Devletläri",
          "name:gan": "美國",
          "name:glk": "امریکا",
          "name:grc": "Ἡνωμέναι Πολιτεῖαι τῆς Ἀμερικῆς",
          "name:hak": "Mî-li-kiên Ha̍p-chung-koet",
          "name:haw": "ʻAmelika Hui Pū ʻia",
          "name:hif": "United States",
          "name:hsb": "Zjednoćene staty Ameriki",
          "name:ilo": "stados Unidos iti Amerika",
          "name:jbo": ".iunaited.steits.",
          "name:kaa": "Amerika Qurama Shtatları",
          "name:kab": "Iwunak Yedduklen",
          "name:kbd": "Америкэ Штат Зэгуэт",
          "name:koi": "Америкаись Ӧтлаасьӧм Штаттэз",
          "name:krc": "Американы Бирлешген Штатлары",
          "name:ksh": "Vereenichde Staate van Amerika",
          "name:lad": "Estatos Unitos d'Amerika",
          "name:lbe": "Американал ЦачӀунхьу Штатру",
          "name:lez": "Америкадин Садхьанвай Штатар",
          "name:lij": "Stati Unïi d'America",
          "name:lmo": "Stat Ünì d'America",
          "name:ltg": "Amerikys Saškierstuos Vaļsteibys",
          "name:lzh": "美利堅合眾國",
          "name:mdf": "Америконь Аймакнень Соткссна",
          "name:mhr": "Америкысе Ушымо Штатвлак",
          "name:mia": "mihši-maalhsonki",
          "name:min": "Amerika Sarikat",
          "name:mrj": "Америкын Ушымы Штатвлӓжӹ",
          "name:mwl": "Stados Ounidos de la América",
          "name:myv": "Американь Вейтьсэндявкс Штаттнэ",
          "name:mzn": "متحده ایالات آمریکا",
          "name:nah": "Tlacetilīlli Tlahtohcāyōtl Ixachitlān",
          "name:nan": "America Ha̍p-chiòng-kok",
          "name:nap": "State Aunite d'Amereca",
          "name:nds": "Verenigten Staten vun Amerika",
          "name:new": "संयुक्त राज्य अमेरिका",
          "name:nov": "Unionati States de Amerika",
          "name:nrm": "Êtats Unnis d'Améthique",
          "name:nso": "United States of America",
          "name:pag": "Estados Unidos",
          "name:pam": "United States ning America",
          "name:pap": "Estadonan Uni di Merka",
          "name:pcd": "États-Unis Anmérikes",
          "name:pdc": "Vereenichde Schtaate vun Amerikaa",
          "name:pfl": "Verainischde Schdaade vun Ameriga",
          "name:pih": "Yunitid Staits",
          "name:pms": "Stat Unì d'América",
          "name:pnb": "امریکہ",
          "name:rue": "Споєны Штаты Америцькы",
          "name:sah": "Америка Холбоһуктаах Штаттара",
          "name:scn": "Stati Uniti",
          "name:sco": "Unitit States o Americae",
          "name:smn": "Amerik ovtâstumstaatah",
          "name:sms": "Ameriikk õhttõõvvâmvääʹld",
          "name:srn": "Kondre Makandrameki",
          "name:stq": "Fereende Stoaten fon Amerikoa",
          "name:syc": "ܐܘܚܕܢܐ ܡܚܝܕܐ",
          "name:szl": "Zjednoczōne Sztaty Ameryki",
          "name:tet": "Estadu Naklibur Sira Amérika Nian",
          "name:tpi": "Yunaitet Stet bilong Amerika",
          "name:tzl": "Estats Viensiçeschti d'America",
          "name:udm": "Америкалэн Огазеяськем Штатъёсыз",
          "name:vec": "Stati Unìi de la Mèrica",
          "name:vep": "Amerikan Ühtenzoittud Valdkundad",
          "name:vls": "Verênigde Stoaten van Amerika",
          "name:vro": "Ameeriga Ütisriigiq",
          "name:war": "Estados Unidos",
          "name:wuu": "美国",
          "name:xal": "Америкин Ниицәтә Орн Нутгуд",
          "name:xmf": "ამერიკაშ აკოართაფილი შტატეფი",
          "name:yue": "美利堅合眾國",
          "name:zea": "Vereênigde Staeten",
          "way_area": "1231.9",
          "wikidata": "Q30",
          "ISO3166-1": "US",
          "wikipedia": "en:United States",
          "population": "331449281",
          "short_name": "USA",
          "admin_level": "2",
          "alt_name:be": "Злучаныя Штаты;Штаты",
          "alt_name:en": "America",
          "alt_name:es": "Estados Unidos;EUA",
          "alt_name:fr": "États-Unis",
          "alt_name:ko": "아메리카",
          "alt_name:vi": "Hoa Kì;Mĩ;Hợp chúng quốc Hoa Kì",
          "border_type": "national",
          "int_name:ko": "아메리카합중국",
          "name:nds-nl": "Verienigde Staoten van Amerika",
          "old_name:ar": "الولايات المتحدة الأمريكية الشمالية",
          "old_name:de": "Vereinigte Staaten von Nordamerika",
          "old_name:en": "United States of North America",
          "old_name:eo": "Unuiĝintaj Ŝtatoj de Nordameriko",
          "old_name:es": "Estados Unidos de Norteamérica",
          "old_name:ko": "북아메리카합중국",
          "old_name:pl": "Stany Zjednoczone Ameryki Północnej",
          "old_name:ru": "Северо-Американские Соединённые Штаты",
          "old_name:vi": "Mỹ Lợi Kiên;Ma Ly Căn;Nhã Di Lý",
          "name:az-Arab": "آمریکا بیرلشمیش ایالتلری",
          "name:bat-smg": "JAV",
          "name:cbk-zam": "Estados Unidos de America",
          "name:kk-Arab": "امەرىيكا قۇراما شتاتتارى",
          "name:map-bms": "Amerika Serikat",
          "name:sr-Latn": "Sjedinjene Američke Države",
          "name:zh-Hans": "美利坚合众国",
          "name:zh-Hant": "美利堅合眾國",
          "name:roa-tara": "Statère Aunìte d'Americhe",
          "official_name": "United States of America",
          "short_name:az": "ABŞ",
          "short_name:be": "ЗША",
          "short_name:bg": "САЩ",
          "short_name:cs": "Spojené státy",
          "short_name:en": "USA",
          "short_name:es": "EE.UU.",
          "short_name:fr": "É.-U.",
          "short_name:ko": "미국",
          "short_name:mo": "СУА",
          "short_name:nl": "VS",
          "short_name:pl": "USA",
          "short_name:ru": "США",
          "short_name:sr": "САД",
          "short_name:tr": "ABD",
          "short_name:vi": "Mỹ",
          "short_name:zh": "美国/美國",
          "name:be-tarask": "Злучаныя Штаты Амэрыкі",
          "population:date": "2020",
          "ISO3166-1:alpha2": "US",
          "ISO3166-1:alpha3": "USA",
          "default_language": "en",
          "official_name:ar": "الوِلَايَات المُتَّحِدَة الأَمرِيكِيَّة",
          "official_name:cs": "Spojené státy americké",
          "official_name:de": "Vereinigte Staaten von Amerika",
          "official_name:en": "United States of America",
          "official_name:eo": "Unuiĝintaj Ŝtatoj de Ameriko",
          "official_name:es": "Estados Unidos de América",
          "official_name:ko": "미합중국",
          "official_name:ks": "ریاست ہائے متحدہ",
          "official_name:nl": "Verenigde Staten van Amerika",
          "official_name:pl": "Stany Zjednoczone Ameryki",
          "official_name:ps": "د امریکا متحده آیالاتونه",
          "official_name:sv": "Amerikas Förenta Stater",
          "official_name:ug": "ئامېرىكا قوشما شىتاتلىرى",
          "official_name:ur": "ریاست ہائے متحدہ",
          "official_name:vi": "Hợp chúng quốc Hoa Kỳ;Hợp chúng quốc Hoa Kì;Hợp chủng quốc Hoa Kỳ;Hợp chủng quốc Hoa Kì",
          "ISO3166-1:numeric": "840",
          "alt_short_name:en": "US",
          "alt_short_name:pl": "St. Zj.",
          "official_name:arc": "ܐܬܪܘܬܐ ܡܚܝܕܐ ܕܐܡܪܝܟܐ",
          "official_name:din": "Pawuut Matiic ke Amerïka",
          "official_name:grc": "Ἡνωμέναι Πολιτεῖαι τῆς Ἀμερικῆς",
          "official_name:syc": "ܐܬܪܘܬܐ ܡܚܝܕܐ ܕܐܡܪܝܟܐ",
          "old_short_name:ru": "САСШ",
          "short_name:sr-Latn": "SAD",
          "short_name:zh-Hans": "美国",
          "short_name:zh-Hant": "美國",
          "not:official_name:vi": "Hợp chủng quốc Hoa Kỳ;Hợp chúng quốc Hoa Kì;Hợp chủng quốc Hoa Kỳ;Hợp chủng quốc Hoa Kì",
          "official_name:kk-Arab": "امەرىيكا قۇراما شتاتتارى"
        }
      },
      "geometry": {
        "type": "Polygon",
        "coordinates": [
          [
            [
              -70,
              43.41624153543838
            ],
            [
              -69.8038106,
              43.4957926
            ],
            [
              -69.7897786,
              43.497136
            ],
            [
              -69.7756322,
              43.4990382
            ],
            [
              -69.7616408,
              43.5014751
            ],
            [
              -69.7511727,
              43.5036783
            ],
            [
              -69.7403311,
              43.5040022
            ],
            [
              -69.7284006,
              43.5047217
            ],
            [
              -69.7188794,
              43.5055698
            ],
            [
              -69.7094043,
              43.5066585
            ],
            [
              -69.6953032,
              43.5087396
            ],
            [
              -69.6859934,
              43.5104233
            ],
            [
              -69.6767694,
              43.5123417
            ],
            [
              -69.6631186,
              43.5156542
            ],
            [
              -69.6497232,
              43.5194805
            ],
            [
              -69.6366194,
              43.5238102
            ],
            [
              -69.623843,
              43.5286316
            ],
            [
              -69.6114287,
              43.5339316
            ],
            [
              -69.5994105,
              43.5396957
            ],
            [
              -69.587821,
              43.5459083
            ],
            [
              -69.5782309,
              43.5516006
            ],
            [
              -69.5632233,
              43.5520599
            ],
            [
              -69.5536599,
              43.5526664
            ],
            [
              -69.5441311,
              43.5535145
            ],
            [
              -69.5296487,
              43.5552746
            ],
            [
              -69.5202568,
              43.5567215
            ],
            [
              -69.5109396,
              43.5584051
            ],
            [
              -69.4971283,
              43.56137
            ],
            [
              -69.4880466,
              43.563636
            ],
            [
              -69.4790786,
              43.5661303
            ],
            [
              -69.4702349,
              43.5688501
            ],
            [
              -69.4615264,
              43.5717919
            ],
            [
              -69.4486148,
              43.5766645
            ],
            [
              -69.4374773,
              43.5726703
            ],
            [
              -69.4242613,
              43.5685072
            ],
            [
              -69.4107654,
              43.5648511
            ],
            [
              -69.3970264,
              43.561712
            ],
            [
              -69.3830815,
              43.5590983
            ],
            [
              -69.3736892,
              43.5576514
            ],
            [
              -69.3594857,
              43.5559286
            ],
            [
              -69.3451782,
              43.554747
            ],
            [
              -69.3308057,
              43.5541098
            ],
            [
              -69.3164072,
              43.5540187
            ],
            [
              -69.3020217,
              43.554474
            ],
            [
              -69.2924578,
              43.5550805
            ],
            [
              -69.2781807,
              43.5564429
            ],
            [
              -69.2687252,
              43.5576514
            ],
            [
              -69.2546641,
              43.5599107
            ],
            [
              -69.2408434,
              43.5625554
            ],
            [
              -69.2271042,
              43.5656945
            ],
            [
              -69.2176599,
              43.5681881
            ],
            [
              -69.2087522,
              43.5707955
            ],
            [
              -69.1956373,
              43.5751252
            ],
            [
              -69.18285,
              43.5799465
            ],
            [
              -69.1745244,
              43.5834275
            ],
            [
              -69.1623601,
              43.5890385
            ],
            [
              -69.1523219,
              43.5941564
            ],
            [
              -69.1446381,
              43.5983471
            ],
            [
              -69.1334994,
              43.6049912
            ],
            [
              -69.1228519,
              43.6120488
            ],
            [
              -69.1157286,
              43.6172046
            ],
            [
              -69.1091573,
              43.6222993
            ],
            [
              -69.1028336,
              43.6275571
            ],
            [
              -69.0902933,
              43.6387872
            ],
            [
              -69.0805541,
              43.6480069
            ],
            [
              -69.0702097,
              43.6411617
            ],
            [
              -69.0628321,
              43.6366853
            ],
            [
              -69.055245,
              43.6323981
            ],
            [
              -69.0474577,
              43.6283052
            ],
            [
              -69.0354217,
              43.6225413
            ],
            [
              -69.0271754,
              43.6189556
            ],
            [
              -69.0187627,
              43.6155805
            ],
            [
              -69.010194,
              43.6124202
            ],
            [
              -69.0014796,
              43.6094784
            ],
            [
              -69,
              43.60902366576568
            ],
            [
              -69,
              44
            ],
            [
              -70,
              44
            ],
            [
              -70,
              43.41624153543838
            ]
          ]
        ]
      }
    }
  ]
}