{
  "type": "FeatureCollection",
  "features": [
    {
      "type": "Feature",
      "properties": {
        "osm_id": -252645,
        "boundary": "administrative",
        "admin_level": 2,
        "parents": null,
        "name": "Bolivia",
        "local_name": "Bolivia",
        "name_en": "Bolivia",
        "all_tags": {
          "flag": "http://upload.wikimedia.org/wikipedia/commons/4/48/Flag_of_Bolivia.svg",
          "name": "Bolivia",
          "name:ab": "–ë–æ–ª–∏ÃÅ–≤–∏–∞",
          "name:af": "Bolivi√´",
          "name:am": "·â¶·àä·â™·ã´",
          "name:an": "Bolivia",
          "name:ar": "ÿ®ŸàŸÑŸäŸÅŸäÿß",
          "name:ay": "Wuliwya",
          "name:az": "Boliviya",
          "name:ba": "–ë–æ–ª–∏–≤–∏—è",
          "name:be": "–ë–∞–ª—ñÃÅ–≤—ñ—è",
          "name:bg": "–ë–æ–ª–∏–≤–∏—è",
          "name:bh": "‡§¨‡•ã‡§≤‡•Ä‡§µ‡§ø‡§Ø‡§æ",
          "name:bi": "Bolivia",
          "name:bm": "Bolivia",
          "name:bn": "‡¶¨‡¶≤‡¶ø‡¶≠‡¶ø‡¶Ø‡¶º‡¶æ",
          "name:bo": "‡Ωñ‡æ∑‡Ωº‡ºã‡Ω£‡Ω≤‡ºã‡Ωù‡Ω≤‡ºã‡Ω°‡ºç",
          "name:br": "Bolivia",
          "name:bs": "Bolivija",
          "name:ca": "Bol√≠via",
          "name:ce": "–ë–æ–ª–∏–≤–∏",
          "name:co": "Bolivia",
          "name:cs": "Bol√≠vie",
          "name:cv": "–ë–æ–ª–∏–≤–∏",
          "name:cy": "Bolifia",
          "name:da": "Bolivia",
          "name:de": "Bolivien",
          "name:dv": "ﬁÑﬁÆﬁçﬁ©ﬁàﬁ®ﬁáﬁß",
          "name:dz": "‡Ωñ‡Ωº‡ºã‡Ω£‡Ω≤‡ºã‡Ωù‡Ω≤‡Ω°",
          "name:ee": "Bolivia",
          "name:el": "ŒíŒøŒªŒπŒ≤ŒØŒ±",
          "name:en": "Bolivia",
          "name:eo": "Bolivio",
          "name:es": "Bolivia",
          "name:et": "Boliivia",
          "name:eu": "Bolivia",
          "name:fa": "ÿ®ŸàŸÑ€åŸà€å",
          "name:ff": "Boliwii",
          "name:fi": "Bolivia",
          "name:fo": "Bolivia",
          "name:fr": "Bolivie",
          "name:fy": "Bolivia",
          "name:ga": "an Bholaiv",
          "name:gd": "Boilibhia",
          "name:gl": "Bolivia",
          "name:gn": "Vol√≠via",
          "name:gu": "‡™¨‡´ã‡™≤‡´Ä‡™µ‡™ø‡™Ø‡™æ",
          "name:gv": "yn Volivia",
          "name:ha": "Bolibiya",
          "name:he": "◊ë◊ï◊ú◊ô◊ë◊ô◊î",
          "name:hi": "‡§¨‡•ã‡§≤‡§ø‡§µ‡§ø‡§Ø‡§æ",
          "name:hr": "Bolivija",
          "name:ht": "Bolivi",
          "name:hu": "Bol√≠via",
          "name:hy": "‘≤’∏’¨’´’æ’´’°’∂",
          "name:ia": "Bolivia",
          "name:id": "Bolivia",
          "name:ie": "Bolivia",
          "name:ig": "Bolivia",
          "name:io": "Bolivia",
          "name:is": "B√≥liv√≠a",
          "name:it": "Bolivia",
          "name:ja": "„Éú„É™„Éì„Ç¢",
          "name:jv": "Bolivia",
          "name:ka": "·Éë·Éù·Éö·Éò·Éï·Éò·Éê",
          "name:kg": "Bolivia",
          "name:ki": "Bolivia",
          "name:kk": "–ë–æ–ª–∏ÃÅ–≤–∏—è",
          "name:kl": "Bolivia",
          "name:km": "·ûî·ûº·ûõ·û∏·ûú·û∏",
          "name:kn": "‡≤¨‡≥ä‡≤≤‡≤ø‡≤µ‡≤ø‡≤Ø",
          "name:ko": "Î≥ºÎ¶¨ÎπÑÏïÑ",
          "name:ks": "ÿ®ŸàŸÑŸêŸàŸê€åÿß",
          "name:ku": "Bol√Ævya",
          "name:kw": "Bolivi",
          "name:ky": "–ë–æ–ª–∏–≤–∏—è",
          "name:la": "Bolivia",
          "name:lb": "Bolivien",
          "name:lg": "Boliviya",
          "name:li": "Bolivia",
          "name:ln": "Bolivia",
          "name:lo": "‡ªÇ‡∫ö‡∫•‡∫µ‡∫ß‡∫µ",
          "name:lt": "Bolivija",
          "name:lv": "Bolƒ´vija",
          "name:mg": "Bolivia",
          "name:mi": "Poriwia",
          "name:mk": "–ë–æ–ª–∏–≤–∏—ò–∞",
          "name:ml": "‡¥¨‡µä‡¥≥‡µÄ‡¥µ‡¥ø‡¥Ø",
          "name:mn": "–ë–æ–ª–∏–≤–∏",
          "name:mr": "‡§¨‡•ã‡§≤‡§ø‡§µ‡•ç‡§π‡§ø‡§Ø‡§æ",
          "name:ms": "Bolivia",
          "name:mt": "Bolivja",
          "name:my": "·Äò·Ä≠·ÄØ·Äú·ÄÆ·Ä∏·Äó·ÄÆ·Ä∏·Äö·Ä¨·Ä∏·Äî·Ä≠·ÄØ·ÄÑ·Ä∫·ÄÑ·Ä∂",
          "name:na": "Boribiya",
          "name:ne": "‡§¨‡•ã‡§≤‡§ø‡§≠‡§ø‡§Ø‡§æ",
          "name:nl": "Bolivia",
          "name:nn": "Bolivia",
          "name:no": "Bolivia",
          "name:nv": "Bol√≠biya",
          "name:oc": "Bol√≠via",
          "name:om": "Boliiviyaa",
          "name:or": "‡¨¨‡≠ã‡¨≤‡¨ø‡¨≠‡¨ø‡¨Ü",
          "name:os": "–ë–æ–ª–∏–≤–∏",
          "name:pa": "‡®¨‡©ã‡®≤‡©Ä‡®µ‡©Ä‡®Ü",
          "name:pi": "‡§¨‡•ã‡§≤‡§ø‡§µ‡§ø‡§Ø‡§æ",
          "name:pl": "Boliwia",
          "name:ps": "ÿ®ŸàŸÑ€êŸà€åÿß",
          "name:pt": "Bol√≠via",
          "name:qu": "Wuliwiya",
          "name:rm": "Bolivia",
          "name:rn": "Boliviya",
          "name:ro": "Bolivia",
          "name:ru": "–ë–æ–ª–∏–≤–∏—è",
          "name:rw": "Boliviya",
          "name:sa": "‡§¨‡•ã‡§≤‡§ø‡§µ‡§ø‡§Ø‡§æ",
          "name:sc": "Bol√¨via",
          "name:se": "Bolivia",
          "name:sg": "Boliv√Øi",
          "name:sh": "Bolivija",
          "name:si": "‡∂∂‡∑ú‡∂Ω‡∑ì‡∑Ä‡∑í‡∂∫‡∑è‡∑Ä",
          "name:sk": "Bol√≠via",
          "name:sl": "Bolivija",
          "name:sm": "Polevia",
          "name:sn": "Bolivia",
          "name:so": "Boliifia",
          "name:sq": "Bolivia",
          "name:sr": "–ë–æ–ª–∏–≤–∏—ò–∞",
          "name:ss": "IBholiviya",
          "name:su": "Bolivia",
          "name:sv": "Bolivia",
          "name:sw": "Bolivia",
          "name:ta": "‡Æ™‡Øä‡Æ≤‡Æø‡Æµ‡Æø‡ÆØ‡Ææ",
          "name:te": "‡∞¨‡±ä‡∞≤‡±Ä‡∞µ‡∞ø‡∞Ø‡∞æ",
          "name:tg": "–ë–æ–ª–∏–≤–∏—è",
          "name:th": "‡πÇ‡∏ö‡∏•‡∏¥‡πÄ‡∏ß‡∏µ‡∏¢",
          "name:ti": "·â¶·àä·â™·ã´",
          "name:tk": "Boliwi√Ωa",
          "name:tl": "Bolivia",
          "name:to": "Polƒ´via",
          "name:tr": "Bolivya",
          "name:tt": "–ë–æ–ª–∏ÃÅ–≤–∏—è",
          "name:ug": "ÿ®ŸàŸÑŸâ€ãŸâŸä€ï",
          "name:uk": "–ë–æ–ª—ñÃÅ–≤—ñ—è",
          "name:ur": "ÿ®ŸàŸÑ€åŸà€åÿß",
          "name:uz": "Boliviya",
          "name:vi": "Bolivia",
          "name:vo": "Boliv√§n",
          "name:wa": "Boliveye",
          "name:wo": "Boliibi",
          "name:yi": "◊ë◊ê◊ú◊ô◊ï◊ï◊ô◊¢",
          "name:yo": "B√≤l√≠f√≠√†",
          "name:za": "Bolivia",
          "name:zh": "ÁéªÂà©Áª¥‰∫ö / ÁéªÂà©Á∂≠‰∫û",
          "name:zu": "i-Bolivia",
          "boundary": "administrative",
          "currency": "BOB",
          "int_name": "Bolivia",
          "name:ace": "Bolivia",
          "name:ady": "–ë–æ–ª–∏–≤–∏–µ",
          "name:als": "Bolivie",
          "name:ang": "Bolifia",
          "name:arz": "ÿ®ŸàŸÑŸäŸÅŸäÿß",
          "name:ast": "Bolivia",
          "name:azb": "ÿ®ŸàŸÑ€åŸà€å",
          "name:bar": "Bolivien",
          "name:bcl": "Bolibya",
          "name:bpy": "‡¶¨‡¶≤‡¶ø‡¶≠‡¶ø‡¶Ø‡¶º‡¶æ",
          "name:bxr": "–ë–æ–ª–∏–≤–∏",
          "name:cdo": "Bolivia",
          "name:ceb": "Bolivia",
          "name:chr": "·èâ·éµ·è´·é†",
          "name:ckb": "ÿ®€ÜŸÑ€å⁄§€åÿß",
          "name:crh": "Boliviya",
          "name:diq": "Bolivya",
          "name:dsb": "Boliwiska",
          "name:dty": "‡§¨‡•ã‡§≤‡§ø‡§≠‡§ø‡§Ø‡§æ",
          "name:ext": "Bol√≠via",
          "name:frp": "Bolivie",
          "name:frr": "Boliiwien",
          "name:fur": "Bolivie",
          "name:gag": "Boliviya",
          "name:gom": "‡§¨‡•ã‡§≤‡§ø‡§µ‡•ç‡§π‡§ø‡§Ø‡§æ",
          "name:hak": "P√¥-li-v√¨-√¢",
          "name:hif": "Bolivia",
          "name:hsb": "Boliwiska",
          "name:ilo": "Bolivia",
          "name:jam": "Bolivia",
          "name:jbo": "bolivias",
          "name:kaa": "Boliviya",
          "name:kab": "Bolivia",
          "name:kbp": "Polivii",
          "name:krc": "–ë–æ–ª–∏ÃÅ–≤–∏—è",
          "name:ksh": "Bolliivije",
          "name:lad": "Bolivia",
          "name:lez": "–ë–æ–ª–∏ÃÅ–≤–∏—è",
          "name:lij": "Bolivia",
          "name:lmo": "Bulivia",
          "name:lrc": "ÿ®ŸàŸôŸÑ€å⁄§€å",
          "name:ltg": "Boliveja",
          "name:lzh": "ÁéªÂà©Á∂≠‰∫û",
          "name:mhr": "–ë–æ–ª–∏–≤–∏–π",
          "name:mrj": "–ë–æ–ª–∏–≤–∏",
          "name:mwl": "Bol√≠bia",
          "name:mzn": "ÿ®ŸàŸÑ€åŸà€å",
          "name:nah": "Bolivia",
          "name:nan": "Bolivia",
          "name:nap": "Bolivia",
          "name:nds": "Bolivien",
          "name:new": "‡§¨‡•ã‡§≤‡§ø‡§≠‡§ø‡§Ø‡§æ",
          "name:nov": "Bolivia",
          "name:olo": "Bolivii",
          "name:pam": "Bolivia",
          "name:pap": "Bolivia",
          "name:pfl": "Bolivje",
          "name:pih": "Boliwya",
          "name:pms": "Bolivia",
          "name:pnb": "ÿ®ŸàŸÑ€åŸà€åÿß",
          "name:rmy": "Boliviya",
          "name:rue": "–ë–æ–ª—ñÃÅ–≤—ñ—è",
          "name:sah": "–ë–æ–ª–∏–≤–∏—è",
          "name:scn": "Bolivia",
          "name:sco": "Bolivie",
          "name:smn": "Bolivia",
          "name:sms": "Bolivia",
          "name:stq": "Bolivien",
          "name:szl": "Boliwij≈è",
          "name:tet": "Bol√≠via",
          "name:tpi": "Bolivia",
          "name:tzl": "Bolivia",
          "name:vec": "Bo≈Çivia",
          "name:vep": "Bolivii",
          "name:vro": "Boliivia",
          "name:war": "Bolivia",
          "name:wuu": "ÁéªÂà©Áª¥‰∫ö",
          "name:xal": "–ë–æ–ª–∏–≤–º—É–¥–∏–Ω",
          "name:xmf": "·Éë·Éù·Éö·Éò·Éï·Éò·Éê",
          "name:yue": "ÁéªÂà©Á∂≠‰∫û",
          "name:zea": "Bolivia",
          "timezone": "America/La_Paz",
          "way_area": "91.9409",
          "wikidata": "Q750",
          "ISO3166-1": "BO",
          "wikipedia": "es:Bolivia",
          "admin_level": "2",
          "alt_name:bo": "‡Ωñ‡Ωº‡ºã‡Ω£‡Ω≤‡ºã‡Ωñ‡Ω≤‡ºã‡Ω°",
          "alt_name:gd": "Bolibhia",
          "alt_name:nl": "Bolivi√´",
          "name:simple": "Bolivia",
          "old_name:am": "·ã®·â¶·àä·â™·ã´ ·à™·çê·â•·àä·ä≠",
          "old_name:ca": "Rep√∫blica de Bol√≠via",
          "old_name:si": "‡∂∂‡∑ú‡∂Ω‡∑ì‡∑Ä‡∑í‡∂∫‡∑è‡∂±‡∑î ‡∂ª‡∑è‡∂¢‡∑ä‚Äç‡∂∫",
          "alt_name:new": "‡§¨‡•Å‡§≤‡§ø‡§¨‡•ç‡§Ø‡§æ",
          "name:bat-smg": "Buolƒóvƒójƒó",
          "name:cbk-zam": "Bolivia",
          "name:zh-Hans": "ÁéªÂà©Áª¥‰∫ö",
          "name:zh-Hant": "ÁéªÂà©Á∂≠‰∫û",
          "official_name": "Estado Plurinacional de Bolivia",
          "old_name:1825": "Rep√∫blica de Bol√≠var",
          "name:be-tarask": "–ë–∞–ª—ñ–≤—ñ—è",
          "ISO3166-1:alpha2": "BO",
          "ISO3166-1:alpha3": "BOL",
          "official_name:ab": "–†–∞—Ü”ô–∞–Ω—ã –ê–º–∏–ª–∞“≠“õ”ô–∞ —Ä“≥”ô—ã–Ω“≠“õ–∞—Ä—Ä–∞ –ë–æ–ª–∏–≤–∏–∞",
          "official_name:af": "Plurinasionale Staat van Bolivi√´",
          "official_name:am": "·ã®·â¶·àä·â™·ã´ ·â•·ãô-·â•·àî·àÆ·âΩ ·à™·çê·â•·àä·ä≠",
          "official_name:an": "Estato Plurinacional de Bolivia",
          "official_name:ar": "ÿØŸàŸÑÿ© ÿ®ŸàŸÑŸäŸÅŸäÿß",
          "official_name:ay": "Wuliwya Suyu",
          "official_name:ba": "–ö“Ø–ø –ú–∏–ª–ª”ô—Ç–ª–µ –ë–æ–ª–∏–≤–∏—è –î”ô“Ø–ª”ô—Ç–µ",
          "official_name:be": "–®–º–∞—Ç–Ω–∞—Ü—ã—è–Ω–∞ÃÅ–ª—å–Ω–∞—è –î–∑—è—Ä–∂–∞ÃÅ–≤–∞ –ë–∞–ª—ñÃÅ–≤—ñ—è",
          "official_name:bg": "–ú–Ω–æ–≥–æ–Ω–∞—Ü–∏–æ–Ω–∞–ª–Ω–∞ –¥—ä—Ä–∂–∞–≤–∞ –ë–æ–ª–∏–≤–∏—è",
          "official_name:bm": "Bolivia ka Mantocaman Jamana",
          "official_name:br": "Stad Liesvroadel Bolivia",
          "official_name:ca": "Estat Plurinacional de Bol√≠via",
          "official_name:cs": "Mnohon√°rodnostn√≠ st√°t Bol√≠vie",
          "official_name:da": "Den Flernationale Stat Bolivia",
          "official_name:de": "Plurinationaler Staat Bolivien",
          "official_name:el": "Œ†ŒøŒªœÖŒµŒ∏ŒΩŒøœÑŒπŒ∫œå ŒöœÅŒ¨œÑŒøœÇ œÑŒ∑œÇ ŒíŒøŒªŒπŒ≤ŒØŒ±œÇ",
          "official_name:en": "Plurinational State of Bolivia",
          "official_name:es": "Estado Plurinacional de Bolivia",
          "official_name:et": "Boliivia Paljurahvuseline Riik",
          "official_name:eu": "Boliviako Estatu Plurinazionala",
          "official_name:fi": "Bolivian monikansainen valtio",
          "official_name:fr": "√âtat plurinational de Bolivie",
          "official_name:gl": "Estado Plurinacional de Bolivia",
          "official_name:gn": "Tet√£ Het√£voregua Vol√≠via",
          "official_name:gu": "‡™™‡´ç‡™≤‡´Å‡™∞‡´Ä‡™®‡´á‡™∂‡™®‡™≤ ‡™∏‡´ç‡™ü‡´á‡™ü ‡™ì‡™´ ‡™¨‡´ã‡™≤‡™ø‡™µ‡™ø‡™Ø‡™æ",
          "official_name:he": "◊î◊û◊ì◊ô◊†◊î ◊î◊®◊ë-◊ú◊ê◊ï◊û◊ô◊™ ◊©◊ú ◊ë◊ï◊ú◊ô◊ë◊ô◊î",
          "official_name:hr": "Vi≈°enacionalna Dr≈æava Bolivija",
          "official_name:hu": "Bol√≠viai T√∂bbnemzetis√©g≈± √Ållam",
          "official_name:ia": "Stato Plurinational de Bolivia",
          "official_name:id": "Negara Plurinasional Bolivia",
          "official_name:is": "Fj√∂l√æj√≥√∞ar√≠ki√∞ B√≥liv√≠a",
          "official_name:it": "Stato Plurinazionale della Bolivia",
          "official_name:ja": "„Éú„É™„Éì„Ç¢Â§öÊ∞ëÊóèÂõΩ",
          "official_name:ka": "·Éë·Éù·Éö·Éò·Éï·Éò·Éò·É° ·Éõ·É†·Éê·Éï·Éê·Éö·Éî·É†·Éù·Éï·Éê·Éú·Éò ·É°·Éê·ÉÆ·Éî·Éö·Éõ·É¨·Éò·É§·Éù",
          "official_name:kk": "–ö”©–ø“±–ª—Ç—Ç—ã –ë–æ–ª–∏ÃÅ–≤–∏—è –º–µ–º–ª–µ–∫–µ—Ç—ñ",
          "official_name:ko": "Î≥ºÎ¶¨ÎπÑÏïÑ Îã§ÎØºÏ°±Íµ≠",
          "official_name:ku": "Dewleta Pirnetewey√Æ y√™n Bol√Ævyay√™",
          "official_name:li": "Estado Plurinacional de Bolvia",
          "official_name:lo": "‡∫•‡∫±‡∫î‡∫û‡∫∞‡∫´‡∫∏‡∫ä‡∫ª‡∫ô‡∫ä‡∫≤‡∫î‡ªÅ‡∫´‡ªà‡∫á‡ªÇ‡∫ö‡∫•‡∫µ‡∫ß‡∫µ",
          "official_name:lt": "Bolivijos Daugiatautƒó Valstybƒó",
          "official_name:lv": "Bolƒ´vijas DaudznacionƒÅlƒÅ Valsts",
          "official_name:mi": "Te Whenua o ngƒÅ Iwi Maha o Poriwia",
          "official_name:mk": "–ü–æ–≤–µ—ú–µ–Ω–∞—Ü–∏–æ–Ω–∞–ª–Ω–∞ –î—Ä–∂–∞–≤–∞ –ë–æ–ª–∏–≤–∏—ò–∞",
          "official_name:mn": "–ë–æ–ª–∏–≤–∏–π–Ω –û–ª–æ–Ω “Æ–Ω–¥—ç—Å—Ç–Ω–∏–π –£–ª—Å",
          "official_name:mt": "Istat Plurinazzjonali tal-Bolivja",
          "official_name:nl": "Plurinationale Staat Bolivia",
          "official_name:nv": "A≈Çhidadiik ºƒÖÃÅ Dine º√© Bik√©yah",
          "official_name:oc": "Estat Plurinacionau de Bol√≠via",
          "official_name:pa": "‡®¨‡©ã‡®≤‡©Ä‡®µ‡©Ä‡®Ü ‡®¶‡®æ ‡®¨‡®π‡©Å-‡®ï‡©å‡®Æ‡©Ä ‡®Æ‡©Å‡®≤‡®ï",
          "official_name:pl": "Wielonarodowe Pa≈Ñstwo Boliwia",
          "official_name:pt": "Estado Plurinacional da Bol√≠via",
          "official_name:qu": "Wuliwiya Achka aylluska Mama Llaqta",
          "official_name:ro": "Statul Plurina»õional al Boliviei",
          "official_name:ru": "–ú–Ω–æ–≥–æ–Ω–∞—Ü–∏–æ–Ω–∞–ª—å–Ω–æ–µ –ì–æ—Å—É–¥–∞—Ä—Å—Ç–≤–æ –ë–æ–ª–∏–≤–∏—è",
          "official_name:se": "Bolivia d√°ssev√°ldi",
          "official_name:si": "‡∂∂‡∑ú‡∂Ω‡∑í‡∑Ä‡∑í‡∂∫‡∑è ‡∂∂‡∑Ñ‡∑î‡∂¢‡∑è‡∂≠‡∑ì‡∂∫ ‡∂ª‡∑è‡∂¢‡∑ä‡∂∫‡∂∫",
          "official_name:sk": "Bol√≠vijsk√Ω mnohon√°rodn√Ω ≈°t√°t",
          "official_name:sl": "Plurinacionalna dr≈æava Bolivija",
          "official_name:sm": "Malo Plurinational o Polevia",
          "official_name:sq": "Shteti Shum√´komb√´sh i Bolivis√´",
          "official_name:sr": "–í–∏—à–µ–Ω–∞—Ü–∏–æ–Ω–∞–ª–Ω–∞ –î—Ä–∂–∞–≤–∞ –ë–æ–ª–∏–≤–∏—ò–∞",
          "official_name:su": "Nagara Multibangsa Bolivia",
          "official_name:sv": "M√•ngnationella staten Bolivia",
          "official_name:ta": "‡Æ™‡Øä‡Æ≤‡Æø‡Æµ‡Æø‡ÆØ‡Ææ ‡Æï‡ØÅ‡Æü‡Æø‡ÆØ‡Æ∞‡Æö‡ØÅ",
          "official_name:te": "‡∞¨‡±ä‡∞≤‡±Ä‡∞µ‡∞ø‡∞Ø‡∞æ ‡∞ó‡∞£‡∞§‡∞Ç‡∞§‡±ç‡∞∞‡∞Ç",
          "official_name:th": "‡∏£‡∏±‡∏ê‡∏û‡∏´‡∏∏‡∏ä‡∏ô‡∏ä‡∏≤‡∏ï‡∏¥‡πÅ‡∏´‡πà‡∏á‡πÇ‡∏ö‡∏•‡∏¥‡πÄ‡∏ß‡∏µ‡∏¢",
          "official_name:tk": "K√∂pmilletli Boliwi√Ωa D√∂wleti",
          "official_name:tl": "Estadong Plurinasyunal ng Bolivia",
          "official_name:tr": "Bolivya √áokuluslu Devleti",
          "official_name:tt": "–ö“Ø–ø–º–∏–ª–ª”ô—Ç–ª–µÃÅ –ë–æ–ª–∏ÃÅ–≤–∏—è –î”ô“Ø–ª”ô—Ç–µÃÅ",
          "official_name:uk": "–ë–∞–≥–∞—Ç–æ–Ω–∞—Ü—ñ–æ–Ω–∞ÃÅ–ª—å–Ω–∞ –î–µ—Ä–∂–∞ÃÅ–≤–∞ –ë–æ–ª—ñÃÅ–≤—ñ—è",
          "official_name:ur": "ÿ¨ŸÖ€ÅŸàÿ±€å€Å ÿ®ŸàŸÑ€åŸà€åÿß",
          "official_name:vi": "C·ªông ho√† ƒêa d√¢n t·ªôc Bolivia",
          "official_name:yi": "◊®◊¢◊§◊ï◊ë◊ú◊ô◊ß ◊§◊ï◊ü ◊ë◊ê◊ú◊ô◊ï◊ï◊ô◊¢",
          "official_name:yo": "√åp√≠nl·∫πÃÄ Ogunl·ªçÃÅg·ªçÃÄ Or√≠l·∫πÃÄ-√®d√® il·∫πÃÄ B√≤l√≠f√≠√†",
          "official_name:zh": "Â§öÊ∞ëÊóèÁéªÂà©Áª¥‰∫öÂõΩ / ÁéªÂà©Á∂≠‰∫ûÂÖ±ÂíåÂúã",
          "ISO3166-1:numeric": "068",
          "official_name:chr": "·èä·é∑·é¢·éæ·èè·é£·éæ·éµ ·èç·é¶·èö·é© ·éæ·éø ·èâ·éµ·è´·é†",
          "official_name:ckb": "ÿØ€ïŸà⁄µ€ïÿ™€å ŸÅÿ±€ïŸÜ€ïÿ™€ïŸà€ï€å€å ÿ®€ÜŸÑ€å⁄§€åÿß",
          "official_name:crh": "Boliviya √áoqmilletli Devleti",
          "official_name:dsb": "Plurinacionalny stat Boliwiska",
          "official_name:ext": "Estau Plurinacional de Bol√≠via",
          "official_name:frr": "Stoot faan flook natjuunen Boliiwien",
          "official_name:hsb": "Plurinacionalny stat Boliwiska",
          "official_name:ilo": "Plurinasional nga Estado ti Bolivia",
          "official_name:jam": "Pluurinashinal Stiet a Bolivia",
          "official_name:krc": "–ö—ë–± –ú–∏–ª–ª–µ—Ç–ª–∏ –ö—ä—Ä–∞–ª –ë–æ–ª–∏ÃÅ–≤–∏—è",
          "official_name:lez": "–ì–∑–∞—Ñ-–•–∞–ª–∫—å–∞—Ä–∏–Ω –ì—å—É–∫—É–º–∞—Ç –ë–æ–ª–∏–≤–∏—è",
          "official_name:lzh": "Â§öÊ∞ëÊóèÁéªÂà©Á∂≠‰∫ûÂúã",
          "official_name:nah": "NepapantlƒÅcatiyƒÅn TlahtohcƒÅy≈çtl Bolivia",
          "official_name:nds": "Plurinatschonalen Staat Bolivien",
          "official_name:olo": "Monikanzalline Bolivien Valdivo",
          "official_name:pfl": "Plurinadsionala Schdaad Bolivje",
          "official_name:pms": "Estado Plurinacional de Bolivia",
          "official_name:sco": "Plurinaitional State o Bolivie",
          "official_name:vep": "Bolivijan √Ñirahvahaline Valdkund",
          "official_name:vro": "Boliivia Hulga Rahvid√µga Riik",
          "official_name:war": "Plurinasyonal nga Estado han Bolivia",
          "official_name:xal": "–î–∞–ª–∞ –£–ª—Å—Ç–∞ –ë–æ–ª–∏–≤–º—É–¥–∏–Ω –û—Ä–Ω",
          "official_name:xmf": "·Éë·Éù·Éö·Éò·Éï·Éò·Éê·É® ·Éõ·Éò·Éê·É†·Éî·Éî·É†·É£·Éê·Éú·Éò ·É°·Éê·ÉÆ·Éî·Éú·É¨·É∑·É§·Éù",
          "official_name:yue": "ÁéªÂà©Á∂≠‰∫ûÂÖ±ÂíåÂúã",
          "old_name:1825-2009": "Rep√∫blica de Bolivia",
          "official_name:zh-Hans": "Â§öÊ∞ëÊóèÁéªÂà©Áª¥‰∫öÂõΩ",
          "official_name:zh-Hant": "ÁéªÂà©Á∂≠‰∫ûÂÖ±ÂíåÂúã"
        }
      },
      "geometry": {
        "type": "Polygon",
        "coordinates": [
          [
            [
              -66,
              -12
            ],
            [
              -65,
              -12
            ],
            [
              -65,
              -11.995227961016605
            ],
            [
              -65.0028376,
              -11.994019
            ],
            [
              -65.0048657,
              -11.993481
            ],
            [
              -65.0088909,
              -11.9932096
            ],
            [
              -65.0108608,
              -11.9932969
            ],
            [
              -65.0131789,
              -11.9940532
            ],
            [
              -65.0176665,
              -11.9958688
            ],
            [
              -65.021706,
              -11.9979166
            ],
            [
              -65.0231641,
              -11.9984765
            ],
            [
              -65.0250514,
              -11.9987845
            ],
            [
              -65.0277248,
              -11.9983035
            ],
            [
              -65.0306754,
              -11.9975567
            ],
            [
              -65.0334963,
              -11.996007
            ],
            [
              -65.0350745,
              -11.9942833
            ],
            [
              -65.0362243,
              -11.99188
            ],
            [
              -65.0368363,
              -11.9900887
            ],
            [
              -65.0372628,
              -11.9884969
            ],
            [
              -65.0370307,
              -11.9854118
            ],
            [
              -65.0361848,
              -11.9828071
            ],
            [
              -65.0355853,
              -11.9819937
            ],
            [
              -65.0282855,
              -11.9755167
            ],
            [
              -65.0271737,
              -11.9736651
            ],
            [
              -65.0263031,
              -11.9707469
            ],
            [
              -65.0268935,
              -11.9690823
            ],
            [
              -65.0289217,
              -11.9666275
            ],
            [
              -65.0308804,
              -11.9659127
            ],
            [
              -65.0337716,
              -11.9657089
            ],
            [
              -65.0360969,
              -11.9667839
            ],
            [
              -65.0383471,
              -11.9670797
            ],
            [
              -65.0401892,
              -11.9669763
            ],
            [
              -65.0415757,
              -11.9655981
            ],
            [
              -65.0422868,
              -11.9638841
            ],
            [
              -65.0422374,
              -11.9624786
            ],
            [
              -65.0416753,
              -11.960955
            ],
            [
              -65.0404033,
              -11.9588102
            ],
            [
              -65.0373328,
              -11.9553251
            ],
            [
              -65.0286908,
              -11.9466091
            ],
            [
              -65.0230791,
              -11.9349209
            ],
            [
              -65.0221913,
              -11.9303708
            ],
            [
              -65.0204228,
              -11.9257063
            ],
            [
              -65.0225401,
              -11.9145106
            ],
            [
              -65.0275183,
              -11.8919606
            ],
            [
              -65.0284834,
              -11.890354
            ],
            [
              -65.029705,
              -11.8889241
            ],
            [
              -65.0311498,
              -11.8877098
            ],
            [
              -65.0327788,
              -11.8867441
            ],
            [
              -65.0345476,
              -11.8860532
            ],
            [
              -65.04786,
              -11.8857008
            ],
            [
              -65.0538536,
              -11.8859173
            ],
            [
              -65.0576755,
              -11.885187
            ],
            [
              -65.059865,
              -11.8839483
            ],
            [
              -65.0641223,
              -11.8808323
            ],
            [
              -65.070546,
              -11.8729541
            ],
            [
              -65.0726958,
              -11.8658672
            ],
            [
              -65.0726958,
              -11.8572299
            ],
            [
              -65.061025,
              -11.826322
            ],
            [
              -65.0594766,
              -11.791463
            ],
            [
              -65.0639567,
              -11.7717272
            ],
            [
              -65.0677036,
              -11.7627857
            ],
            [
              -65.0756378,
              -11.7518826
            ],
            [
              -65.0819668,
              -11.7341305
            ],
            [
              -65.0824835,
              -11.7150739
            ],
            [
              -65.0867178,
              -11.708204
            ],
            [
              -65.0922429,
              -11.704137
            ],
            [
              -65.0989493,
              -11.7028311
            ],
            [
              -65.1073323,
              -11.7057041
            ],
            [
              -65.1129573,
              -11.7089834
            ],
            [
              -65.1190754,
              -11.7139943
            ],
            [
              -65.1254823,
              -11.7201005
            ],
            [
              -65.1292333,
              -11.7220003
            ],
            [
              -65.1334354,
              -11.7230343
            ],
            [
              -65.1379442,
              -11.7228818
            ],
            [
              -65.1436079,
              -11.7215986
            ],
            [
              -65.1782311,
              -11.7208013
            ],
            [
              -65.1842509,
              -11.7210412
            ],
            [
              -65.1898376,
              -11.7226591
            ],
            [
              -65.1941703,
              -11.7252927
            ],
            [
              -65.1942869,
              -11.7304409
            ],
            [
              -65.1936773,
              -11.7339106
            ],
            [
              -65.1911229,
              -11.7382315
            ],
            [
              -65.1751788,
              -11.746792
            ],
            [
              -65.1742843,
              -11.748844
            ],
            [
              -65.1744003,
              -11.7509913
            ],
            [
              -65.1749658,
              -11.7531285
            ],
            [
              -65.1773177,
              -11.7549476
            ],
            [
              -65.1797395,
              -11.7558555
            ],
            [
              -65.1821613,
              -11.7560922
            ],
            [
              -65.1938297,
              -11.754019
            ],
            [
              -65.217359,
              -11.743382
            ],
            [
              -65.2208119,
              -11.7416707
            ],
            [
              -65.245948,
              -11.7237887
            ],
            [
              -65.2530441,
              -11.7181661
            ],
            [
              -65.2593038,
              -11.7105308
            ],
            [
              -65.2604364,
              -11.7063757
            ],
            [
              -65.2609735,
              -11.7018912
            ],
            [
              -65.2597461,
              -11.6988158
            ],
            [
              -65.2587011,
              -11.6970117
            ],
            [
              -65.247897,
              -11.6900208
            ],
            [
              -65.240889,
              -11.6840704
            ],
            [
              -65.2328487,
              -11.6802934
            ],
            [
              -65.2256851,
              -11.6727183
            ],
            [
              -65.2198337,
              -11.6633682
            ],
            [
              -65.2156868,
              -11.6476306
            ],
            [
              -65.2165525,
              -11.6376257
            ],
            [
              -65.218217,
              -11.6312141
            ],
            [
              -65.2223374,
              -11.6240471
            ],
            [
              -65.232079,
              -11.615323
            ],
            [
              -65.2330645,
              -11.6134006
            ],
            [
              -65.2341301,
              -11.6048413
            ],
            [
              -65.2307912,
              -11.5876524
            ],
            [
              -65.2290862,
              -11.5744295
            ],
            [
              -65.230507,
              -11.5637811
            ],
            [
              -65.2284469,
              -11.5532019
            ],
            [
              -65.2221242,
              -11.5472161
            ],
            [
              -65.2159437,
              -11.5430399
            ],
            [
              -65.2112158,
              -11.5395319
            ],
            [
              -65.2108624,
              -11.5344636
            ],
            [
              -65.2117769,
              -11.5285646
            ],
            [
              -65.2171389,
              -11.5205977
            ],
            [
              -65.2237798,
              -11.5162435
            ],
            [
              -65.2314008,
              -11.5140032
            ],
            [
              -65.2422653,
              -11.5126323
            ],
            [
              -65.2578013,
              -11.5136495
            ],
            [
              -65.2794877,
              -11.5085641
            ],
            [
              -65.3036089,
              -11.5013828
            ],
            [
              -65.3069068,
              -11.4987762
            ],
            [
              -65.3085244,
              -11.4961552
            ],
            [
              -65.3097619,
              -11.4894866
            ],
            [
              -65.3121664,
              -11.4711101
            ],
            [
              -65.319379,
              -11.4408468
            ],
            [
              -65.3331057,
              -11.3547287
            ],
            [
              -65.3327649,
              -11.3398618
            ],
            [
              -65.3325154,
              -11.3368774
            ],
            [
              -65.3309459,
              -11.3342501
            ],
            [
              -65.3298662,
              -11.3327737
            ],
            [
              -65.3286333,
              -11.332023
            ],
            [
              -65.3265928,
              -11.3312362
            ],
            [
              -65.323991,
              -11.3308748
            ],
            [
              -65.3197948,
              -11.3317636
            ],
            [
              -65.3135197,
              -11.3336174
            ],
            [
              -65.306097,
              -11.3354211
            ],
            [
              -65.3021061,
              -11.3354431
            ],
            [
              -65.2990268,
              -11.3342105
            ],
            [
              -65.2935812,
              -11.3309762
            ],
            [
              -65.2917233,
              -11.328268
            ],
            [
              -65.2900974,
              -11.3228921
            ],
            [
              -65.2902138,
              -11.320296
            ],
            [
              -65.2917738,
              -11.3176998
            ],
            [
              -65.2940696,
              -11.3154855
            ],
            [
              -65.2956415,
              -11.3145642
            ],
            [
              -65.2976465,
              -11.3143859
            ],
            [
              -65.3072184,
              -11.3159501
            ],
            [
              -65.3390891,
              -11.311071
            ],
            [
              -65.3434663,
              -11.3081975
            ],
            [
              -65.3463595,
              -11.3044392
            ],
            [
              -65.3583448,
              -11.2683392
            ],
            [
              -65.3614287,
              -11.2385965
            ],
            [
              -65.3611468,
              -11.2297206
            ],
            [
              -65.3599258,
              -11.2203027
            ],
            [
              -65.3586208,
              -11.2175084
            ],
            [
              -65.356982,
              -11.2154881
            ],
            [
              -65.3523553,
              -11.2120957
            ],
            [
              -65.3475465,
              -11.211412
            ],
            [
              -65.3220715,
              -11.209217
            ],
            [
              -65.315785,
              -11.200481
            ],
            [
              -65.3129445,
              -11.1957821
            ],
            [
              -65.313859,
              -11.1890164
            ],
            [
              -65.3188507,
              -11.1843064
            ],
            [
              -65.3245283,
              -11.1817271
            ],
            [
              -65.3317682,
              -11.1818767
            ],
            [
              -65.3441902,
              -11.1866614
            ],
            [
              -65.3483233,
              -11.1869611
            ],
            [
              -65.3505918,
              -11.1868109
            ],
            [
              -65.3520802,
              -11.1861599
            ],
            [
              -65.3538688,
              -11.1841943
            ],
            [
              -65.3550829,
              -11.1805959
            ],
            [
              -65.3567982,
              -11.1673855
            ],
            [
              -65.3601296,
              -11.1550775
            ],
            [
              -65.3614317,
              -11.1514847
            ],
            [
              -65.3621375,
              -11.1467736
            ],
            [
              -65.3617716,
              -11.1403135
            ],
            [
              -65.3584413,
              -11.132305
            ],
            [
              -65.3529059,
              -11.1239195
            ],
            [
              -65.3434257,
              -11.115156
            ],
            [
              -65.3370127,
              -11.1115107
            ],
            [
              -65.3286055,
              -11.1060577
            ],
            [
              -65.3172884,
              -11.1009351
            ],
            [
              -65.2870426,
              -11.094164
            ],
            [
              -65.2826895,
              -11.0900913
            ],
            [
              -65.2793805,
              -11.0845942
            ],
            [
              -65.2784599,
              -11.0756199
            ],
            [
              -65.2785149,
              -11.0660773
            ],
            [
              -65.2845729,
              -11.0538467
            ],
            [
              -65.2898913,
              -11.0471236
            ],
            [
              -65.2988008,
              -11.0395459
            ],
            [
              -65.301094,
              -11.0344827
            ],
            [
              -65.3007129,
              -11.0314158
            ],
            [
              -65.2986231,
              -11.0260059
            ],
            [
              -65.2748479,
              -11.005523
            ],
            [
              -65.26643932756326,
              -11
            ],
            [
              -66,
              -11
            ],
            [
              -66,
              -12
            ]
          ]
        ]
      }
    },
    {
      "type": "Feature",
      "properties": {
        "osm_id": -59470,
        "boundary": "administrative",
        "admin_level": 2,
        "parents": null,
        "name": "Brazil",
        "local_name": "Brasil",
        "name_en": "Brazil",
        "all_tags": {
          "flag": "http://upload.wikimedia.org/wikipedia/commons/0/05/Flag_of_Brazil.svg",
          "name": "Brasil",
          "name:aa": "Brazil",
          "name:af": "Brasili√´",
          "name:ak": "Brazil",
          "name:am": "·â•·à´·ãö·àç",
          "name:an": "Brasil",
          "name:ar": "ÿßŸÑÿ®Ÿéÿ±Ÿéÿßÿ≤ŸêŸäŸÑ",
          "name:as": "‡¶¨‡ßç‡ß∞‡¶æ‡¶ú‡¶ø‡¶≤",
          "name:ay": "Wrasil",
          "name:az": "Braziliya",
          "name:ba": "–ë—Ä–∞–∑–∏ÃÅ–ª–∏—è",
          "name:be": "–ë—Ä–∞–∑—ñÃÅ–ª—ñ—è",
          "name:bg": "–ë—Ä–∞–∑–∏–ª–∏—è",
          "name:bh": "‡§¨‡•ç‡§∞‡§æ‡§ú‡§º‡•Ä‡§≤",
          "name:bi": "Brazil",
          "name:bm": "Brazil",
          "name:bn": "‡¶¨‡ßç‡¶∞‡¶æ‡¶ú‡¶ø‡¶≤",
          "name:bo": "‡Ωî‡Ω¥‡ºã‡Ω¢‡Ω¥‡ºã‡Ωü‡Ω≤‡Ω£‡ºç",
          "name:br": "Brazil",
          "name:bs": "Brazil",
          "name:ca": "Brasil",
          "name:ce": "–ë—Ä–∞–∑–∏ÃÅ–ª–∏",
          "name:ch": "Brazil",
          "name:co": "Brasile",
          "name:cs": "Braz√≠lie",
          "name:cu": "–ë—Ä–∞ÍôÅ—ó–ª—ñÃÅÍôó",
          "name:cv": "–ë—Ä–∞–∑–∏–ª–∏",
          "name:cy": "Brasil",
          "name:da": "Brasilien",
          "name:de": "Brasilien",
          "name:dv": "ﬁÑﬁ™ﬁÉﬁ¨ﬁíﬁ®ﬁçﬁ∞",
          "name:dz": "‡Ωñ‡Ω±‡Ω¢‡Ω±‡ºã‡Ωõ‡Ω≤‡Ω£‡ºã",
          "name:ee": "Brazil",
          "name:el": "ŒíœÅŒ±Œ∂ŒπŒªŒØŒ±",
          "name:en": "Brazil",
          "name:eo": "Brazilo",
          "name:es": "Brasil",
          "name:et": "Brasiilia",
          "name:eu": "Brasil",
          "name:fa": "ÿ®ÿ±ÿ≤€åŸÑ",
          "name:ff": "Barazil",
          "name:fi": "Brasilia",
          "name:fj": "Brazil",
          "name:fo": "Brasilia",
          "name:fr": "Br√©sil",
          "name:fy": "Brazylje",
          "name:ga": "an Bhrasa√≠l",
          "name:gd": "Braisil",
          "name:gl": "Brasil",
          "name:gn": "Pindor√°ma",
          "name:gu": "‡™¨‡´ç‡™∞‡™æ‡™ù‡™ø‡™≤",
          "name:gv": "yn Vrasseel",
          "name:ha": "Brazil",
          "name:he": "◊ë◊®◊ñ◊ô◊ú",
          "name:hi": "‡§¨‡•ç‡§∞‡§æ‡§∏‡§º‡•Ä‡§≤",
          "name:hr": "Brazil",
          "name:ht": "Brezil",
          "name:hu": "Braz√≠lia",
          "name:hy": "‘≤÷Ä’°’¶’´’¨’´’°",
          "name:ia": "Brasil",
          "name:id": "Brasil",
          "name:ie": "Brasil",
          "name:ig": "Brazil",
          "name:ii": "ÍÄ†Íë≠",
          "name:io": "Brazilia",
          "name:is": "Brasil√≠a",
          "name:it": "Brasile",
          "name:ja": "„Éñ„É©„Ç∏„É´",
          "name:jv": "Brasil",
          "name:ka": "·Éë·É†·Éê·Éñ·Éò·Éö·Éò·Éê",
          "name:kg": "Brazilia",
          "name:ki": "Brazil",
          "name:kk": "–ë—Ä–∞–∑–∏–ª–∏—è",
          "name:kl": "Brazil",
          "name:km": "·ûî·üí·ûö·üÅ·ûü·üä·û∏·ûõ",
          "name:kn": "‡≤¨‡≥ç‡≤∞‡≥Ü‡≤ú‡≤ø‡≤≤‡≥ç",
          "name:ko": "Î∏åÎùºÏßà",
          "name:ks": "ÿ®ÿ±Ÿõÿßÿ≤ŸêŸÑ",
          "name:ku": "Braz√Æl",
          "name:kv": "–ë—Ä–∞–∑–∏–ª–∏—è",
          "name:kw": "Brasil",
          "name:ky": "–ë—Ä–∞–∑–∏–ª–∏—è",
          "name:la": "Brasilia",
          "name:lb": "Brasilien",
          "name:lg": "Buraziiri",
          "name:li": "Braziel",
          "name:ln": "Brazil",
          "name:lo": "‡∫ö‡∫∞‡ªÄ‡∫£‡∫ä‡∫¥‡∫ô",
          "name:lt": "Brazilija",
          "name:lv": "Brazƒ´lija",
          "name:mg": "Brazila",
          "name:mi": "Parƒ´hi",
          "name:mk": "–ë—Ä–∞–∑–∏–ª",
          "name:ml": "‡¥¨‡µç‡¥∞‡¥∏‡µÄ‡µΩ",
          "name:mn": "–ë—Ä–∞–∑–∏–ª",
          "name:mr": "‡§¨‡•ç‡§∞‡§æ‡§ù‡•Ä‡§≤",
          "name:ms": "Brazil",
          "name:mt": "Bra≈ºil",
          "name:my": "·Äò·Äõ·Ä¨·Äá·ÄÆ·Ä∏·Äî·Ä≠·ÄØ·ÄÑ·Ä∫·ÄÑ·Ä∂",
          "name:na": "Bradir",
          "name:ne": "‡§¨‡•ç‡§∞‡§æ‡§ú‡§ø‡§≤",
          "name:nl": "Brazili√´",
          "name:nn": "Brasil",
          "name:no": "Brasil",
          "name:nv": "Bwaz√≠√≠l",
          "name:oc": "Brasil",
          "name:om": "Biraazil",
          "name:or": "‡¨¨‡≠ç‡¨∞‡¨æ‡¨ú‡¨ø‡¨≤",
          "name:os": "–ë—Ä–∞–∑–∏–ª–∏",
          "name:pa": "‡®¨‡©ç‡®∞‡®æ‡®ú‡®º‡©Ä‡®≤",
          "name:pi": "‡§¨‡•ç‡§∞‡§æ‡§∏‡•Ä‡§≤",
          "name:pl": "Brazylia",
          "name:ps": "ÿ®ÿ±ÿßÿ≤€åŸÑ",
          "name:pt": "Brasil",
          "name:qu": "Prasil",
          "name:rm": "Brasilia",
          "name:rn": "Brazil",
          "name:ro": "Brazilia",
          "name:ru": "–ë—Ä–∞–∑–∏–ª–∏—è",
          "name:rw": "Burezile",
          "name:sa": "‡§¨‡•ç‡§∞‡§æ‡§∏‡•Ä‡§≤",
          "name:sc": "Brasile",
          "name:sd": "ÿ®ÿ±ÿßÿ≤ŸäŸÑ",
          "name:se": "Brasilia",
          "name:sh": "Brazil",
          "name:si": "‡∂∂‡∑ä‡∂ª‡∑É‡∑ì‡∂Ω‡∂∫",
          "name:sk": "Braz√≠lia",
          "name:sl": "Brazilija",
          "name:sm": "Pasila",
          "name:sn": "Brazil",
          "name:so": "Barasiil",
          "name:sq": "Brazili",
          "name:sr": "–ë—Ä–∞–∑–∏–ª",
          "name:st": "Brazil",
          "name:su": "Brasil",
          "name:sv": "Brasilien",
          "name:sw": "Brazil",
          "name:ta": "‡Æ™‡Æø‡Æ∞‡Øá‡Æö‡Æø‡Æ≤‡Øç",
          "name:te": "‡∞¨‡±ç‡∞∞‡±Ü‡∞ú‡∞ø‡∞≤‡±ç",
          "name:tg": "–ë—Ä–∞–∑–∏–ª–∏—è",
          "name:th": "‡∏ö‡∏£‡∏≤‡∏ã‡∏¥‡∏•",
          "name:ti": "·â•·à´·ãö·àç",
          "name:tk": "Brazili√Ωa",
          "name:tl": "Brasil",
          "name:to": "PalƒÅsili",
          "name:tr": "Brezilya",
          "name:tt": "–ë—Ä–∞–∑–∏ÃÅ–ª–∏—è",
          "name:tw": "Brazil",
          "name:ty": "Parƒ´ihi",
          "name:ug": "ÿ®ÿ±ÿßÿ≤ŸâŸÑŸâŸä€ï",
          "name:uk": "–ë—Ä–∞–∑–∏ÃÅ–ª—ñ—è",
          "name:ur": "ÿ®ÿ±ÿßÿ≤€åŸÑ",
          "name:uz": "Braziliya",
          "name:ve": "Brazil",
          "name:vi": "Brasil",
          "name:vo": "Brasil√§n",
          "name:wa": "Braezi",
          "name:wo": "Breesil",
          "name:xh": "Brasil",
          "name:yi": "◊ë◊®◊ê÷∑◊ñ◊ô◊ú",
          "name:yo": "Brasil",
          "name:za": "Bahsih",
          "name:zh": "Â∑¥Ë•ø",
          "name:zu": "IBrazili",
          "boundary": "administrative",
          "currency": "BRL",
          "int_name": "Brazil",
          "name:ace": "Brasil",
          "name:ady": "–ë—Ä–∞–∑–∏–ª–∏–µ",
          "name:als": "Brasilie",
          "name:ang": "Brasil",
          "name:arc": "‹í‹™‹ê‹ô‹ù‹†",
          "name:arz": "ÿßŸÑÿ®ÿ±ÿßÿ≤ŸäŸÑ",
          "name:ast": "Brasil",
          "name:azb": "ÿ®ÿ±ÿ≤€åŸÑ",
          "name:bar": "Brasilien",
          "name:bcl": "Brasil",
          "name:bpy": "‡¶¨‡ßç‡¶∞‡¶æ‡¶ú‡¶ø‡¶≤",
          "name:brx": "‡§¨‡•ç‡§∞‡§æ‡§ú‡§º‡•Ä‡§≤",
          "name:bxr": "–ë—Ä–∞–∑–∏–ª",
          "name:cdo": "BƒÉ-sƒÉÃ§",
          "name:ceb": "Brasil",
          "name:chr": "·èÜ·èè·éµ",
          "name:chy": "Brazil",
          "name:ckb": "ÿ®€ï⁄ïÿßÿ≤€åŸÑ",
          "name:crh": "Brazil",
          "name:csb": "Brazylsk√¥",
          "name:diq": "Brezilya",
          "name:dsb": "Brazilska",
          "name:dty": "‡§¨‡•ç‡§∞‡§æ‡§ú‡§ø‡§≤",
          "name:eml": "Bra·π°il",
          "name:ext": "Brasil",
          "name:frp": "Br√®sil",
          "name:frr": "Brasiilien",
          "name:fur": "Bras√Æl",
          "name:gag": "Braziliya",
          "name:gan": "Â∑¥Ë•ø",
          "name:glk": "ÿ®ÿ±ÿ≤ŸäŸÑ",
          "name:gom": "‡§¨‡•ç‡§∞‡§æ‡§ù‡•Ä‡§≤",
          "name:got": "êå±êå±êçÇêå±êçÇêå∞êå±êçÇêå∞êå∂êå±êçÇêå∞êå∂êåπêå±êçÇêå∞êå∂êåπêåª",
          "name:hak": "P√¢-s√Æ",
          "name:haw": "Palakila",
          "name:hif": "Brazil",
          "name:hsb": "Brazilska",
          "name:ilo": "Brasil",
          "name:jam": "Brazil",
          "name:jbo": "razgu'e",
          "name:kaa": "Braziliya",
          "name:kab": "Brazil",
          "name:kbd": "–ë—Ä–∞–∑–∏–ª",
          "name:kbp": "Piresiili",
          "name:krc": "–ë—Ä–∞–∑–∏–ª–∏—è",
          "name:ksh": "Brasilije",
          "name:lad": "Brasil",
          "name:lez": "–ë—Ä–∞–∑–∏–ª–∏—è",
          "name:lij": "Brax√Æ",
          "name:lmo": "Brasil",
          "name:lrc": "ÿ®ÿ±ÿ≤ŸäŸÑ",
          "name:ltg": "Brazileja",
          "name:lzh": "Â∑¥Ë•ø",
          "name:mai": "‡§¨‡•ç‡§∞‡§æ‡§ú‡§ø‡§≤",
          "name:mdf": "–ë—Ä–∞–∑–∏–ª–∏–µ",
          "name:mhr": "–ë—Ä–∞–∑–∏–ª–∏–π",
          "name:min": "Brasil",
          "name:mrj": "–ë—Ä–∞–∑–∏–ª–∏",
          "name:mwl": "Brasil",
          "name:myv": "–ë—Ä–∞–∑–∏–ª–∏—è",
          "name:mzn": "ÿ®ÿ±ÿ≤€åŸÑ",
          "name:nah": "Brasil",
          "name:nan": "Pa-se",
          "name:nap": "Brasile",
          "name:nds": "Brasilien",
          "name:new": "‡§¨‡•ç‡§∞‡§æ‡§ú‡§ø‡§≤",
          "name:nov": "Brasilia",
          "name:nrm": "Br√©si",
          "name:nso": "Brazil",
          "name:olo": "Braziilii",
          "name:pag": "Brazil",
          "name:pam": "Brazil",
          "name:pap": "Brazil",
          "name:pcd": "Br√©sil",
          "name:pdc": "Brasilien",
          "name:pfl": "Brasilje",
          "name:pih": "Bresel",
          "name:pms": "Brasil",
          "name:pnb": "ÿ®ÿ±ÿßÿ≤€åŸÑ",
          "name:rmy": "Brazil",
          "name:rue": "–ë—Ä–∞–∑—ñ–ª—ñ—è",
          "name:sah": "–ë—Ä–∞–∑–∏–ª–∏—è",
          "name:scn": "Brasili",
          "name:sco": "Brazil",
          "name:smn": "Brasilia",
          "name:sms": "Brasilia",
          "name:srn": "Brasilkondre",
          "name:stq": "Brasilien",
          "name:szl": "Brazylij≈è",
          "name:tet": "Braz√≠l",
          "name:tok": "ma Pasila",
          "name:tpi": "Brasil",
          "name:tum": "Brazil",
          "name:tyv": "–ë—Ä–∞–∑–∏–ª–∏—è",
          "name:tzl": "Brasil",
          "name:vec": "Braxil",
          "name:vep": "Brazilii",
          "name:vls": "Brazili√´",
          "name:vro": "Brasiilia",
          "name:war": "Brasil",
          "name:wuu": "Â∑¥Ë•ø",
          "name:xal": "–ë—Ä–∞–∑–∏–ª–º—É–¥–∏–Ω",
          "name:xmf": "·Éë·É†·Éê·Éñ·Éò·Éö·Éò·Éê",
          "name:yue": "Â∑¥Ë•ø",
          "name:zea": "Brezili√´",
          "way_area": "728.951",
          "wikidata": "Q155",
          "ISO3166-1": "BR",
          "wikipedia": "pt:Brasil",
          "admin_level": "2",
          "alt_name:fo": "Brasil",
          "alt_name:gd": "Brasil",
          "alt_name:hi": "‡§¨‡•ç‡§∞‡§æ‡§ú‡§º‡•Ä‡§≤",
          "alt_name:ie": "Brazil",
          "alt_name:vi": "Brazil;Bra-xin",
          "name:nds-nl": "Brazili√´",
          "old_name:vi": "Ba T√¢y",
          "alt_name:csb": "Brazyl√´j√¥",
          "alt_name:nan": "Peh-laÃçt-se-n√≠",
          "driving_side": "right",
          "name:bat-smg": "Brazilƒójƒó",
          "name:cbk-zam": "Brasil",
          "name:map-bms": "Brasil",
          "name:zh-Hans": "Â∑¥Ë•ø",
          "name:zh-Hant": "Â∑¥Ë•ø",
          "name:roa-tara": "Brasile",
          "official_name": "Rep√∫blica Federativa do Brasil",
          "name:be-tarask": "–ë—Ä–∞–∑—ãÃÅ–ª—ñ—è",
          "ISO3166-1:alpha2": "BR",
          "ISO3166-1:alpha3": "BRA",
          "default_language": "pt",
          "official_name:af": "Federale Republiek Brasili√´",
          "official_name:am": "·ã®·â•·à´·ãö·àç ·çå·ã¥·à´·àã·ãä ·à™·çê·â•·àä·ä≠",
          "official_name:an": "Rep√∫blica Federativa do Brasil",
          "official_name:ar": "ÿ¨ŸèŸÖŸíŸáŸèŸàÿ±ŸêŸäŸéŸëÿ© ÿßŸÑÿ®Ÿéÿ±Ÿéÿßÿ≤ŸêŸäŸÑ ÿßŸÑÿßÿ™ŸêŸëÿ≠ÿßÿØŸêŸäŸéŸëÿ©",
          "official_name:as": "‡¶´‡ßá‡¶°‡¶æ‡ß∞‡ßá‡¶ü‡¶ø‡¶≠ ‡ß∞‡¶ø‡¶™‡¶æ‡¶¨‡ßç‡¶≤‡¶ø‡¶ï ‡¶Ö‡¶´‡ßç ‡¶¨‡ßç‡ß∞‡¶æ‡¶ú‡¶ø‡¶≤",
          "official_name:ay": "Tantasqa Republika Wrasil",
          "official_name:az": "Braziliya Federativ Respublikasƒ±",
          "official_name:ba": "–ë—Ä–∞–∑–∏ÃÅ–ª–∏—è –§–µ–¥–µ—Ä–∞—Ç–∏ÃÅ–≤ –†–µ—Å–ø—É–±–ª–∏–∫–∞ÃÅ“ª—ã",
          "official_name:be": "–§–µ–¥—ç—Ä–∞—Ç—ãÃÅ—û–Ω–∞—è –†—ç—Å–ø—ÉÃÅ–±–ª—ñ–∫–∞ –ë—Ä–∞–∑—ñÃÅ–ª—ñ—è",
          "official_name:bg": "–§–µ–¥–µ—Ä–∞—Ç–∏–≤–Ω–∞ —Ä–µ–ø—É–±–ª–∏–∫–∞ –ë—Ä–∞–∑–∏–ª–∏—è",
          "official_name:bn": "‡¶∏‡¶Ç‡¶Ø‡ßÅ‡¶ï‡ßç‡¶§ ‡¶™‡ßç‡¶∞‡¶ú‡¶æ‡¶§‡¶®‡ßç‡¶§‡ßç‡¶∞‡ßÄ ‡¶¨‡ßç‡¶∞‡¶æ‡¶ú‡¶ø‡¶≤",
          "official_name:br": "Republik Kevreel Brazil",
          "official_name:bs": "Federativna republika Brazil",
          "official_name:ca": "Rep√∫blica Federal del Brasil",
          "official_name:ce": "–§–µ–¥–µ—Ä–∞—Ç–∏ÃÅ–≤–Ω–∏ –†–µ—Å–ø—ÉÃÅ–±–ª–∏–∫–∞ –ë—Ä–∞–∑–∏ÃÅ–ª–∏",
          "official_name:co": "Republica Federale di u Brasile",
          "official_name:cs": "Brazilsk√° federativn√≠ republika",
          "official_name:cu": "–ë—Ä–∞ÍôÅ—ñÃÅ–ª—å—Å–∫–∞ –°—ä–≤—´ÃÅÍôÅ—å–Ω–∞ –î–∏–º–æ–∫—Ä–∞—Ç—ñÃÅÍôó",
          "official_name:cv": "–ë—Ä–∞–∑–∏–ª–∏ –§–µ–¥–µ—Ä–∞—Ç–∏–≤–ªƒÉ –†–µ—Å–ø—É–±–ª–∏–∫–∏",
          "official_name:cy": "Gweriniaeth Ffederal Brasil",
          "official_name:da": "Den F√∏derative Republik Brasilien",
          "official_name:de": "F√∂derative Republik Brasilien",
          "official_name:el": "ŒüŒºŒøœÉœÄŒøŒΩŒ¥ŒπŒ±Œ∫ŒÆ ŒîŒ∑ŒºŒøŒ∫œÅŒ±œÑŒØŒ± œÑŒ∑œÇ ŒíœÅŒ±Œ∂ŒπŒªŒØŒ±œÇ",
          "official_name:en": "Federative Republic of Brazil",
          "official_name:eo": "Federacia Respubliko Brazilo",
          "official_name:es": "Rep√∫blica Federativa de Brasil",
          "official_name:et": "Brasiilia Liitvabariik",
          "official_name:eu": "Brasilgo Errepublika Federala",
          "official_name:fa": "ÿ¨ŸÖŸáŸàÿ±€å ŸÅÿØÿ±ÿßŸÑ ÿ®ÿ±ÿ≤€åŸÑ",
          "official_name:fi": "Brasilian liittotasavalta",
          "official_name:fo": "Samveldis L√Ω√∞veldi√∞ Brasil",
          "official_name:fr": "R√©publique f√©d√©rative du Br√©sil",
          "official_name:fy": "Federative Republyk Brazylje",
          "official_name:ga": "Poblacht Ch√≥naidhmitheach na Brasa√≠le",
          "official_name:gl": "Rep√∫blica Federativa do Brasil",
          "official_name:gn": "Tet√£ Joaty Pindor√°ma",
          "official_name:gu": "‡™¨‡´ç‡™∞‡™æ‡™ù‡´Ä‡™≤‡™®‡´Å‡™Ç ‡™∏‡™Ç‡™ò‡´Ä‡™Ø ‡™ó‡™£‡™∞‡™æ‡™ú‡´ç‡™Ø",
          "official_name:gv": "Pobblaght Chonastagh ny Brasseel",
          "official_name:ha": "Jamhuriyar Brazil",
          "official_name:he": "◊î◊®◊§◊ï◊ë◊ú◊ô◊ß◊î ◊î◊§◊ì◊®◊ú◊ô◊™ ◊©◊ú ◊ë◊®◊ñ◊ô◊ú",
          "official_name:hi": "‡§¨‡•ç‡§∞‡§æ‡§ú‡§º‡•Ä‡§≤ ‡§ï‡§æ ‡§∏‡§Ç‡§ò‡•Ä‡§Ø ‡§ó‡§£‡§∞‡§æ‡§ú‡•ç‡§Ø",
          "official_name:hr": "Savezna Republika Brazil",
          "official_name:hu": "Brazil Sz√∂vets√©gi K√∂zt√°rsas√°g",
          "official_name:hy": "‘≤÷Ä’°’¶’´’¨’´’°’µ’´ ‘¥’°’∑’∂’°’µ’´’∂ ’Ä’°’∂÷Ä’°’∫’•’ø’∏÷Ç’©’µ’∏÷Ç’∂",
          "official_name:ia": "Republica Federative de Brasil",
          "official_name:id": "Republik Federal Brasil",
          "official_name:is": "Sambandsl√Ω√∞veldi√∞ Brasil√≠a",
          "official_name:it": "Repubblica Federale del Brasile",
          "official_name:ja": "„Éñ„É©„Ç∏„É´ÈÄ£ÈÇ¶ÂÖ±ÂíåÂõΩ",
          "official_name:jv": "R√©publik Federal Brasil",
          "official_name:ka": "·Éë·É†·Éê·Éñ·Éò·Éö·Éò·Éò·É° ·É§·Éî·Éì·Éî·É†·Éê·É™·Éò·É£·Éö·Éò ·É†·Éî·É°·Éû·É£·Éë·Éö·Éò·Éô·Éê",
          "official_name:kk": "–ë—Ä–∞–∑–∏–ª–∏—è –§–µ–¥–µ—Ä–∞—Ç–∏–≤—Ç—ñ–∫ –†–µ—Å–ø—É–±–ª–∏–∫–∞—Å—ã",
          "official_name:kl": "Kunngiitsuuffik Brazil",
          "official_name:km": "·ûü·û∂·ûí·û∂·ûö·ûé·ûö·ûä·üí·ûã‚Äã·ûü·û†·ûñ·üê·ûì·üí·ûí‚Äã·ûî·üí·ûö·üÅ·ûü·üä·û∏·ûõ",
          "official_name:kn": "‡≤¨‡≥ç‡≤∞‡≥Ü‡≤ú‡≤ø‡≤≤‡≥ç ‡≤∏‡≤Ç‡≤Ø‡≥Å‡≤ï‡≥ç‡≤§ ‡≤ó‡≤£‡≤∞‡≤æ‡≤ú‡≥ç‡≤Ø",
          "official_name:ko": "Î∏åÎùºÏßà Ïó∞Î∞© Í≥µÌôîÍµ≠",
          "official_name:ku": "Komara Federal a Braz√Æl√™",
          "official_name:kv": "–§–µ–¥–µ—Ä–∞—Ç–∏–≤ –ë—Ä–∞–∑–∏–ª–∏—è –†–µ—Å–ø—É–±–ª–∏–∫–∞",
          "official_name:ky": "–ë—Ä–∞–∑–∏–ª–∏—è –§–µ–¥–µ—Ä–∞—Ü–∏—è –†–µ—Å–ø—É–±–ª–∏–∫–∞—Å—ã",
          "official_name:la": "Respublica Foederativa Brasiliae",
          "official_name:li": "Federaol Rippubliek Brazili√´",
          "official_name:ln": "Republ√≠ki Fedelali ya Brazil",
          "official_name:lo": "‡∫™‡∫∞‡∫´‡∫∞‡∫û‡∫±‡∫ô‡∫™‡∫≤‡∫ó‡∫≤‡∫∞‡∫•‡∫∞‡∫ô‡∫∞‡∫•‡∫±‡∫î‡∫ö‡∫∞‡ªÄ‡∫£‡∫ä‡∫¥‡∫ô",
          "official_name:lt": "Brazilijos Federacinƒó Respublika",
          "official_name:lv": "Brazƒ´lijas Federatƒ´vƒÅ Republika",
          "official_name:mg": "Repoblika federalin'i Brazila",
          "official_name:mi": "Whenua T≈´ Wehe o Parƒ´hi",
          "official_name:mk": "–§–µ–¥–µ—Ä–∞—Ç–∏–≤–Ω–∞ –†–µ–ø—É–±–ª–∏–∫–∞ –ë—Ä–∞–∑–∏–ª",
          "official_name:ml": "‡¥´‡µÜ‡¥°‡¥±‡µá‡¥±‡µç‡¥±‡¥ø‡¥µ‡µç ‡¥±‡¥ø‡¥™‡µç‡¥™‡¥¨‡µç‡¥≤‡¥ø‡¥ï‡µç‡¥ï‡µç ‡¥ì‡¥´‡µç ‡¥¨‡µç‡¥∞‡¥∏‡µÄ‡µΩ",
          "official_name:mn": "–•–æ–ª–±–æ–æ–Ω—ã –ë“Ø–≥–¥ –ù–∞–π—Ä–∞–º–¥–∞—Ö –ë—Ä–∞–∑–∏–ª –£–ª—Å",
          "official_name:ms": "Republik Persekutuan Brazil",
          "official_name:mt": "Repubblika Federattiva tal-Bra≈ºil",
          "official_name:my": "·Äò·Äõ·Ä¨·Äá·ÄÆ·Ä∏ ·Äñ·ÄÄ·Ä∫·Äí·Äõ·Äö·Ä∫ ·Äû·Äô·Äπ·Äô·Äê·Äî·Ä≠·ÄØ·ÄÑ·Ä∫·ÄÑ·Ä∂",
          "official_name:ne": "‡§∏‡§Ç‡§ò‡•Ä‡§Ø ‡§ó‡§£‡§§‡§®‡•ç‡§§‡•ç‡§∞ ‡§¨‡•ç‡§∞‡§æ‡§ú‡§ø‡§≤",
          "official_name:nl": "Federale Republiek van Brazili√´",
          "official_name:no": "Forbundsrepublikken Brasil",
          "official_name:nv": "Kintaa ºan√©h√© Dine º√© Bik√©yah",
          "official_name:oc": "Republica Federala de Brasil",
          "official_name:os": "–§–µ–¥–µ—Ä–∞—Ç–∏–≤–æ–Ω –†–µ—Å–ø—É–±–ª–∏–∫√¶ –ë—Ä–∞–∑–∏–ª–∏",
          "official_name:pa": "‡®¨‡©ç‡®∞‡®æ‡®ú‡®º‡©Ä‡®≤ ‡®¶‡®æ ‡®∏‡©∞‡®ò‡©Ä ‡®ó‡®£‡®∞‡®æ‡®ú",
          "official_name:pl": "Federacyjna Republika Brazylii",
          "official_name:ps": "ÿØ ÿ®ÿ±ÿßÿ≤€åŸÑ ŸÅÿØÿ±ÿßÿ™€åŸÅ ŸàŸÑÿ≥ŸÖÿ¥ÿ±€åÿ≤Ÿá",
          "official_name:pt": "Rep√∫blica Federativa do Brasil",
          "official_name:qu": "Brasil Tantasqa Ripuwlika",
          "official_name:rm": "Republica federal da Brasilia",
          "official_name:ro": "Republica FederativƒÉ a Braziliei",
          "official_name:ru": "–§–µ–¥–µ—Ä–∞—Ç–∏–≤–Ω–∞—è –†–µ—Å–ø—É–±–ª–∏–∫–∞ –ë—Ä–∞–∑–∏–ª–∏—è",
          "official_name:sd": "ŸàŸÅÿßŸÇŸä ÿ¨ŸÖŸáŸàÿ±ŸäŸá ÿ®ÿ±ÿßÿ≤ŸäŸÑ",
          "official_name:se": "Brasilia lihttod√°ssev√°ldi",
          "official_name:sh": "Federativna Republika Brazil",
          "official_name:si": "‡∂∂‡∑ä‡∂ª‡∑É‡∑í‡∂Ω ‡∑É‡∂∏‡∑î‡∑Ñ‡∑è‡∂´‡∑ä‡∂©‡∑î ‡∑É‡∂Ç‡∑Ä‡∑í‡∂∞‡∑è‡∂±‡∂∫",
          "official_name:sk": "Braz√≠lska federat√≠vna republika",
          "official_name:sl": "Federativna republika Brazilija",
          "official_name:sm": "Ripapelika feterale o Pasila",
          "official_name:sq": "Republika Federative e Brazilit",
          "official_name:sr": "–°–∞–≤–µ–∑–Ω–∞ –†–µ–ø—É–±–ª–∏–∫–∞ –ë—Ä–∞–∑–∏–ª",
          "official_name:su": "R√©publik F√©derasi Brasil",
          "official_name:sv": "F√∂rbundsrepubliken Brasilien",
          "official_name:sw": "Shirikisho la Jamhuri ya Brazil",
          "official_name:ta": "‡Æ™‡Æø‡Æ∞‡Øá‡Æö‡Æø‡Æ≤‡Øç ‡Æï‡ØÇ‡Æü‡Øç‡Æü‡Ææ‡Æü‡Øç‡Æö‡Æø‡Æï‡Øç ‡Æï‡ØÅ‡Æü‡Æø‡ÆØ‡Æ∞‡Æö‡ØÅ",
          "official_name:te": "‡∞´‡±Ü‡∞°‡∞∞‡±á‡∞ü‡∞ø‡∞µ‡±ç ‡∞∞‡∞ø‡∞™‡∞¨‡±ç‡∞≤‡∞ø‡∞ï‡±ç ‡∞Ü‡∞´‡±ç ‡∞¨‡±ç‡∞∞‡±Ü‡∞ú‡∞ø‡∞≤‡±ç",
          "official_name:th": "‡∏™‡∏´‡∏û‡∏±‡∏ô‡∏ò‡πå‡∏™‡∏≤‡∏ò‡∏≤‡∏£‡∏ì‡∏£‡∏±‡∏ê‡∏ö‡∏£‡∏≤‡∏ã‡∏¥‡∏•",
          "official_name:tk": "Brazili√Ωa Federatiw Respublikasy",
          "official_name:tl": "Pederatibong Republika ng Brasil",
          "official_name:tr": "Brezilya Federal Cumhuriyeti",
          "official_name:tt": "–ë—Ä–∞–∑–∏ÃÅ–ª–∏—è –§–µ–¥–µ—Ä–∞—Ç–∏ÃÅ–≤ –†–µ—Å–ø—ÉÃÅ–±–ª–∏–∫–∞—Å—ã",
          "official_name:uk": "–§–µ–¥–µ—Ä–∞—Ç–∏ÃÅ–≤–Ω–∞ –†–µ—Å–ø—ÉÃÅ–±–ª—ñ–∫–∞ –ë—Ä–∞–∑–∏ÃÅ–ª—ñ—è",
          "official_name:ur": "ŸàŸÅÿßŸÇ€å ÿ¨ŸÖ€ÅŸàÿ±€å€Å ÿ®ÿ±ÿßÿ≤€åŸÑ",
          "official_name:uz": "Braziliya Federativ Respublikasi",
          "official_name:vi": "C·ªông h√≤a Li√™n bang Brasil",
          "official_name:wo": "R√©ewum Breesil",
          "official_name:yi": "◊§÷ø◊¢◊ì◊¢◊®◊ê÷∑◊ò◊ô◊∞◊¢ ◊®◊¢◊§◊ï◊ë◊ú◊ô◊ß ◊§÷ø◊ï◊ü ◊ë◊®◊ê÷∑◊ñ◊ô◊ú",
          "official_name:yo": "Or√≠l·∫πÃÄ-√®d√® Ol√≥m√¨nira Aparap·ªçÃÄ il·∫πÃÄ Br√†s√≠l",
          "official_name:za": "Bahsih Lienzbangh Gunghozgoz",
          "official_name:zh": "Â∑¥Ë•øËÅîÈÇ¶ÂÖ±ÂíåÂõΩ / Â∑¥Ë•øËÅØÈÇ¶ÂÖ±ÂíåÂúã",
          "ISO3166-1:numeric": "076",
          "official_name:als": "F√∂derative Republik Brasilien",
          "official_name:arc": "‹©‹ò‹õ‹¢‹ù‹ò‹¨‹ê ‹¶‹ï‹™‹†‹ù‹¨‹ê ‹ï‹í‹™‹ê‹ô‹ù‹†",
          "official_name:arz": "ÿ¨ŸÖŸáŸàÿ±Ÿäÿ© ÿßŸÑÿ®ÿ±ÿßÿ≤ŸäŸÑ ÿßŸÑÿßÿ™ÿ≠ÿßÿØŸäŸá",
          "official_name:ast": "Rep√∫blica Federativa do Brasil",
          "official_name:azb": "ÿ®ÿ±ÿ≤€åŸÑ ŸÅÿØÿ±ÿßÿ™€åŸà ÿ¨ŸàŸÖŸáŸàÿ±€åÿ™€å",
          "official_name:bpy": "‡¶ï‡ßá‡¶®‡ßç‡¶¶‡ßç‡¶∞‡ßÄ‡¶Ø‡¶º ‡¶™‡ßç‡¶∞‡¶ú‡¶æ‡¶§‡¶®‡ßç‡¶§‡ßç‡¶∞‡¶ø ‡¶¨‡ßç‡¶∞‡¶æ‡¶ú‡¶ø‡¶≤",
          "official_name:bxr": "–•–æ–ª–±–æ–æ–Ω–æ–π –ë“Ø–≥—ç–¥—ç –ù–∞–π—Ä–∞–º–¥–∞—Ö–∞ –ë—Ä–∞–∑–∏–ª –£–ª–∞—Å",
          "official_name:ceb": "Pederatibong Republika sa Brasil",
          "official_name:chr": "·é†·è∞·èü ·èç·é¶·èö·é© ·éæ·éø ·èÜ·èè·éµ",
          "official_name:ckb": "⁄©€ÜŸÖÿßÿ±€å ŸÅ€åÿØÿ±ÿß⁄µ€å ÿ®€ï⁄ïÿßÿ≤€åŸÑ",
          "official_name:crh": "Brazil Federativ Cumhuriyeti",
          "official_name:diq": "Cumhuriyet√™ Breziyayo Federal",
          "official_name:dsb": "Brazilska federatiwna republika",
          "official_name:dty": "‡§∏‡§Ç‡§ò‡•Ä‡§Ø ‡§ó‡§£‡§§‡§®‡•ç‡§§‡•ç‡§∞ ‡§¨‡•ç‡§∞‡§æ‡§ú‡§ø‡§≤",
          "official_name:eml": "Repubblica Federativa del Brasile",
          "official_name:ext": "Rep√∫brica Federativa del Brasil",
          "official_name:frr": "F√∂√∂deratiif Republiik faan Brasiilien",
          "official_name:gag": "Braziliya Federal Respublikasƒ±",
          "official_name:gan": "Â∑¥Ë•øËÅØÈÇ¶ÂÖ±ÂíåÂúã",
          "official_name:hsb": "Brazilska federatiwna republika",
          "official_name:ilo": "Pederatibo a Republika ti Brasil",
          "official_name:jbo": "razgu'e gumgu'e gubyseltru",
          "official_name:kbd": "–§–µ–¥–µ—Ä–∞—Ü–∏—ç–º –†–µ—Å–ø—É–±–ª–∏–∫—ç –ë—Ä–∞–∑–∏–ª",
          "official_name:krc": "–§–µ–¥–µ—Ä–∞—Ç–∏–≤ –ë—Ä–∞–∑–∏–ª–∏—è –†–µ—Å–ø—É–±–ª–∏–∫–∞",
          "official_name:lad": "Republika Federala del Brasil",
          "official_name:lez": "–ë—Ä–∞–∑–∏–ª–∏—è –§–µ–¥–µ—Ä–∞—Ç–∏–≤–¥–∏–Ω –†–µ—Å–ø—É–±–ª–∏–∫–∞",
          "official_name:lmo": "Rep√∫blica Federativa do Brasil",
          "official_name:lrc": "⁄©ŸàŸÖÿ±Ÿá ŸàŸÑÿßÿ™ ŸÅÿØÿ±ÿßÿ™€åŸà ÿ®ÿ±ÿ≤€åŸÑ",
          "official_name:ltg": "Brazilejis Federativuo Republika",
          "official_name:lzh": "Â∑¥Ë•øËÅØÈÇ¶ÂÖ±ÂíåÂúã",
          "official_name:mai": "‡§∏‡§ô‡•ç‡§ò‡•Ä‡§Ø ‡§ó‡§£‡§§‡§®‡•ç‡§§‡•ç‡§∞ ‡§¨‡•ç‡§∞‡§æ‡§ú‡§ø‡§≤",
          "official_name:min": "Rep√∫blica Federativa do Brasil",
          "official_name:mwl": "Rep√∫blica Federativa do Brasil",
          "official_name:myv": "–§–µ–¥–µ—Ä–∞—Ç–∏ÃÅ–≤–Ω–∞—è –†–µ—Å–ø—ÉÃÅ–±–ª–∏–∫–∞ –ë—Ä–∞–∑–∏ÃÅ–ª–∏—è",
          "official_name:mzn": "ÿ®ÿ±ÿ≤€åŸÑ ŸÅÿØÿ±ÿßÿ™€åŸà ÿ¨ŸÖŸáŸàÿ±€å",
          "official_name:nah": "Nenahuatiliztlacatlahtohcayotl Brasil",
          "official_name:nan": "Pa-se Li√¢n-pang Ki≈çng-h√¥-kok",
          "official_name:nap": "Repubbreca Federativa d'o Brasile",
          "official_name:nds": "Bundsrepubliek Brasilien",
          "official_name:olo": "Braziilien federatiivine tazavaldu",
          "official_name:pag": "Federative Republic na Brazil",
          "official_name:pam": "Federatibung Republica ning Brazil",
          "official_name:pap": "Rep√∫blika Federativa di Brazil",
          "official_name:pcd": "R√©publike f√©d√©rative du Br√©sil",
          "official_name:pdc": "Bunnes-Republik Brasilien",
          "official_name:pfl": "Federadivi Republik Brasilje",
          "official_name:pih": "Federativii Repablik o' Bresel",
          "official_name:rmy": "Federalni Republika la Braziliyaki",
          "official_name:rue": "–ë—Ä–∞–∑—ñ–ª—å—Å–∫–∞ —Ñ–µ–¥–µ—Ä–∞—Ç—ñ–≤–Ω–∞ —Ä–µ–ø—É–±–ª—ñ–∫–∞",
          "official_name:sah": "–ë—Ä–∞–∑–∏–ª–∏—è –§–µ–¥–µ—Ä–∞—Ç–∏–≤ –†–µ—Å–ø—É–±–ª–∏–∫–∞—Ç–∞",
          "official_name:sco": "Federative Republic o Brazil",
          "official_name:srn": "Ripoliku Brasilkondre",
          "official_name:tet": "Rep√∫blika Federativa Braz√≠l nian",
          "official_name:tyv": "–§–µ–¥–µ—Ä–∞—Ç–∏–≤—Ç–∏–≥ –ë—Ä–∞–∑–∏–ª–∏—è –†–µ—Å–ø—É–±–ª–∏–∫–∞–∑—ã",
          "official_name:vec": "Rep√πblica Federa≈Çe de Braxil",
          "official_name:vep": "Brazilijan Federativine Tazovaldkund",
          "official_name:vls": "Federoale Republiek Brazili√´",
          "official_name:vro": "Brasiilia Vabariik",
          "official_name:war": "Republika Federativa han Brasil",
          "official_name:wuu": "Â∑¥Ë•øËÅîÈÇ¶ÂÖ±ÂíåÂõΩ",
          "official_name:xal": "–ù–∏–∏—Ü”ô—Ç”ô –ë—Ä–∞–∑–∏–ª–º—É–¥–∏–Ω –û—Ä–Ω",
          "official_name:yue": "Â∑¥Ë•øËÅØÈÇ¶ÂÖ±ÂíåÂúã",
          "official_name:nds-nl": "Federale Reppubliek Brazili√´",
          "official_name:cbk-zam": "Republica Federativa del Brazil",
          "official_name:zh-Hans": "Â∑¥Ë•øËÅîÈÇ¶ÂÖ±ÂíåÂõΩ",
          "official_name:zh-Hant": "Â∑¥Ë•øËÅØÈÇ¶ÂÖ±ÂíåÂúã",
          "official_name:roa-tara": "Repubbleche Federative d'u Brasile"
        }
      },
      "geometry": {
        "type": "Polygon",
        "coordinates": [
          [
            [
              -65.3621375,
              -11.1467736
            ],
            [
              -65.3614317,
              -11.1514847
            ],
            [
              -65.3601296,
              -11.1550775
            ],
            [
              -65.3567982,
              -11.1673855
            ],
            [
              -65.3550829,
              -11.1805959
            ],
            [
              -65.3538688,
              -11.1841943
            ],
            [
              -65.3520802,
              -11.1861599
            ],
            [
              -65.3505918,
              -11.1868109
            ],
            [
              -65.3483233,
              -11.1869611
            ],
            [
              -65.3441902,
              -11.1866614
            ],
            [
              -65.3317682,
              -11.1818767
            ],
            [
              -65.3245283,
              -11.1817271
            ],
            [
              -65.3188507,
              -11.1843064
            ],
            [
              -65.313859,
              -11.1890164
            ],
            [
              -65.3129445,
              -11.1957821
            ],
            [
              -65.315785,
              -11.200481
            ],
            [
              -65.3220715,
              -11.209217
            ],
            [
              -65.3475465,
              -11.211412
            ],
            [
              -65.3523553,
              -11.2120957
            ],
            [
              -65.356982,
              -11.2154881
            ],
            [
              -65.3586208,
              -11.2175084
            ],
            [
              -65.3599258,
              -11.2203027
            ],
            [
              -65.3611468,
              -11.2297206
            ],
            [
              -65.3614287,
              -11.2385965
            ],
            [
              -65.3583448,
              -11.2683392
            ],
            [
              -65.3463595,
              -11.3044392
            ],
            [
              -65.3434663,
              -11.3081975
            ],
            [
              -65.3390891,
              -11.311071
            ],
            [
              -65.3072184,
              -11.3159501
            ],
            [
              -65.2976465,
              -11.3143859
            ],
            [
              -65.2956415,
              -11.3145642
            ],
            [
              -65.2940696,
              -11.3154855
            ],
            [
              -65.2917738,
              -11.3176998
            ],
            [
              -65.2902138,
              -11.320296
            ],
            [
              -65.2900974,
              -11.3228921
            ],
            [
              -65.2917233,
              -11.328268
            ],
            [
              -65.2935812,
              -11.3309762
            ],
            [
              -65.2990268,
              -11.3342105
            ],
            [
              -65.3021061,
              -11.3354431
            ],
            [
              -65.306097,
              -11.3354211
            ],
            [
              -65.3135197,
              -11.3336174
            ],
            [
              -65.3197948,
              -11.3317636
            ],
            [
              -65.323991,
              -11.3308748
            ],
            [
              -65.3265928,
              -11.3312362
            ],
            [
              -65.3286333,
              -11.332023
            ],
            [
              -65.3298662,
              -11.3327737
            ],
            [
              -65.3309459,
              -11.3342501
            ],
            [
              -65.3325154,
              -11.3368774
            ],
            [
              -65.3327649,
              -11.3398618
            ],
            [
              -65.3331057,
              -11.3547287
            ],
            [
              -65.319379,
              -11.4408468
            ],
            [
              -65.3121664,
              -11.4711101
            ],
            [
              -65.3097619,
              -11.4894866
            ],
            [
              -65.3085244,
              -11.4961552
            ],
            [
              -65.3069068,
              -11.4987762
            ],
            [
              -65.3036089,
              -11.5013828
            ],
            [
              -65.2794877,
              -11.5085641
            ],
            [
              -65.2578013,
              -11.5136495
            ],
            [
              -65.2422653,
              -11.5126323
            ],
            [
              -65.2314008,
              -11.5140032
            ],
            [
              -65.2237798,
              -11.5162435
            ],
            [
              -65.2171389,
              -11.5205977
            ],
            [
              -65.2117769,
              -11.5285646
            ],
            [
              -65.2108624,
              -11.5344636
            ],
            [
              -65.2112158,
              -11.5395319
            ],
            [
              -65.2159437,
              -11.5430399
            ],
            [
              -65.2221242,
              -11.5472161
            ],
            [
              -65.2284469,
              -11.5532019
            ],
            [
              -65.230507,
              -11.5637811
            ],
            [
              -65.2290862,
              -11.5744295
            ],
            [
              -65.2307912,
              -11.5876524
            ],
            [
              -65.2341301,
              -11.6048413
            ],
            [
              -65.2330645,
              -11.6134006
            ],
            [
              -65.232079,
              -11.615323
            ],
            [
              -65.2223374,
              -11.6240471
            ],
            [
              -65.218217,
              -11.6312141
            ],
            [
              -65.2165525,
              -11.6376257
            ],
            [
              -65.2156868,
              -11.6476306
            ],
            [
              -65.2198337,
              -11.6633682
            ],
            [
              -65.2256851,
              -11.6727183
            ],
            [
              -65.2328487,
              -11.6802934
            ],
            [
              -65.240889,
              -11.6840704
            ],
            [
              -65.247897,
              -11.6900208
            ],
            [
              -65.2587011,
              -11.6970117
            ],
            [
              -65.2597461,
              -11.6988158
            ],
            [
              -65.2609735,
              -11.7018912
            ],
            [
              -65.2604364,
              -11.7063757
            ],
            [
              -65.2593038,
              -11.7105308
            ],
            [
              -65.2530441,
              -11.7181661
            ],
            [
              -65.245948,
              -11.7237887
            ],
            [
              -65.2208119,
              -11.7416707
            ],
            [
              -65.217359,
              -11.743382
            ],
            [
              -65.1938297,
              -11.754019
            ],
            [
              -65.1821613,
              -11.7560922
            ],
            [
              -65.1797395,
              -11.7558555
            ],
            [
              -65.1773177,
              -11.7549476
            ],
            [
              -65.1749658,
              -11.7531285
            ],
            [
              -65.1744003,
              -11.7509913
            ],
            [
              -65.1742843,
              -11.748844
            ],
            [
              -65.1751788,
              -11.746792
            ],
            [
              -65.1911229,
              -11.7382315
            ],
            [
              -65.1936773,
              -11.7339106
            ],
            [
              -65.1942869,
              -11.7304409
            ],
            [
              -65.1941703,
              -11.7252927
            ],
            [
              -65.1898376,
              -11.7226591
            ],
            [
              -65.1842509,
              -11.7210412
            ],
            [
              -65.1782311,
              -11.7208013
            ],
            [
              -65.1436079,
              -11.7215986
            ],
            [
              -65.1379442,
              -11.7228818
            ],
            [
              -65.1334354,
              -11.7230343
            ],
            [
              -65.1292333,
              -11.7220003
            ],
            [
              -65.1254823,
              -11.7201005
            ],
            [
              -65.1190754,
              -11.7139943
            ],
            [
              -65.1129573,
              -11.7089834
            ],
            [
              -65.1073323,
              -11.7057041
            ],
            [
              -65.0989493,
              -11.7028311
            ],
            [
              -65.0922429,
              -11.704137
            ],
            [
              -65.0867178,
              -11.708204
            ],
            [
              -65.0824835,
              -11.7150739
            ],
            [
              -65.0819668,
              -11.7341305
            ],
            [
              -65.0756378,
              -11.7518826
            ],
            [
              -65.0677036,
              -11.7627857
            ],
            [
              -65.0639567,
              -11.7717272
            ],
            [
              -65.0594766,
              -11.791463
            ],
            [
              -65.061025,
              -11.826322
            ],
            [
              -65.0726958,
              -11.8572299
            ],
            [
              -65.0726958,
              -11.8658672
            ],
            [
              -65.070546,
              -11.8729541
            ],
            [
              -65.0641223,
              -11.8808323
            ],
            [
              -65.059865,
              -11.8839483
            ],
            [
              -65.0576755,
              -11.885187
            ],
            [
              -65.0538536,
              -11.8859173
            ],
            [
              -65.04786,
              -11.8857008
            ],
            [
              -65.0345476,
              -11.8860532
            ],
            [
              -65.0327788,
              -11.8867441
            ],
            [
              -65.0311498,
              -11.8877098
            ],
            [
              -65.029705,
              -11.8889241
            ],
            [
              -65.0284834,
              -11.890354
            ],
            [
              -65.0275183,
              -11.8919606
            ],
            [
              -65.0225401,
              -11.9145106
            ],
            [
              -65.0204228,
              -11.9257063
            ],
            [
              -65.0221913,
              -11.9303708
            ],
            [
              -65.0230791,
              -11.9349209
            ],
            [
              -65.0286908,
              -11.9466091
            ],
            [
              -65.0373328,
              -11.9553251
            ],
            [
              -65.0404033,
              -11.9588102
            ],
            [
              -65.0416753,
              -11.960955
            ],
            [
              -65.0422374,
              -11.9624786
            ],
            [
              -65.0422868,
              -11.9638841
            ],
            [
              -65.0415757,
              -11.9655981
            ],
            [
              -65.0401892,
              -11.9669763
            ],
            [
              -65.0383471,
              -11.9670797
            ],
            [
              -65.0360969,
              -11.9667839
            ],
            [
              -65.0337716,
              -11.9657089
            ],
            [
              -65.0308804,
              -11.9659127
            ],
            [
              -65.0289217,
              -11.9666275
            ],
            [
              -65.0268935,
              -11.9690823
            ],
            [
              -65.0263031,
              -11.9707469
            ],
            [
              -65.0271737,
              -11.9736651
            ],
            [
              -65.0282855,
              -11.9755167
            ],
            [
              -65.0355853,
              -11.9819937
            ],
            [
              -65.0361848,
              -11.9828071
            ],
            [
              -65.0370307,
              -11.9854118
            ],
            [
              -65.0372628,
              -11.9884969
            ],
            [
              -65.0368363,
              -11.9900887
            ],
            [
              -65.0362243,
              -11.99188
            ],
            [
              -65.0350745,
              -11.9942833
            ],
            [
              -65.0334963,
              -11.996007
            ],
            [
              -65.0306754,
              -11.9975567
            ],
            [
              -65.0277248,
              -11.9983035
            ],
            [
              -65.0250514,
              -11.9987845
            ],
            [
              -65.0231641,
              -11.9984765
            ],
            [
              -65.021706,
              -11.9979166
            ],
            [
              -65.0176665,
              -11.9958688
            ],
            [
              -65.0131789,
              -11.9940532
            ],
            [
              -65.0108608,
              -11.9932969
            ],
            [
              -65.0088909,
              -11.9932096
            ],
            [
              -65.0048657,
              -11.993481
            ],
            [
              -65.0028376,
              -11.994019
            ],
            [
              -65,
              -11.995227961016605
            ],
            [
              -65,
              -11
            ],
            [
              -65.26643932756326,
              -11
            ],
            [
              -65.2748479,
              -11.005523
            ],
            [
              -65.2986231,
              -11.0260059
            ],
            [
              -65.3007129,
              -11.0314158
            ],
            [
              -65.301094,
              -11.0344827
            ],
            [
              -65.2988008,
              -11.0395459
            ],
            [
              -65.2898913,
              -11.0471236
            ],
            [
              -65.2845729,
              -11.0538467
            ],
            [
              -65.2785149,
              -11.0660773
            ],
            [
              -65.2784599,
              -11.0756199
            ],
            [
              -65.2793805,
              -11.0845942
            ],
            [
              -65.2826895,
              -11.0900913
            ],
            [
              -65.2870426,
              -11.094164
            ],
            [
              -65.3172884,
              -11.1009351
            ],
            [
              -65.3286055,
              -11.1060577
            ],
            [
              -65.3370127,
              -11.1115107
            ],
            [
              -65.3434257,
              -11.115156
            ],
            [
              -65.3529059,
              -11.1239195
            ],
            [
              -65.3584413,
              -11.132305
            ],
            [
              -65.3617716,
              -11.1403135
            ],
            [
              -65.3621375,
              -11.1467736
            ]
          ]
        ]
      }
    }
  ]
}