{
  "type": "FeatureCollection",
  "features": [
    {
      "type": "Feature",
      "properties": {
        "osm_id": -108089,
        "boundary": "administrative",
        "admin_level": 2,
        "parents": null,
        "name": "Ecuador",
        "local_name": "Ecuador",
        "name_en": "Ecuador",
        "all_tags": {
          "flag": "http://upload.wikimedia.org/wikipedia/commons/e/e8/Flag_of_Ecuador.svg",
          "name": "Ecuador",
          "name:am": "ኤኳዶር",
          "name:an": "Ecuador",
          "name:ar": "الإكوادور",
          "name:ay": "Ikwadur",
          "name:az": "Ekvador",
          "name:ba": "Эквадор",
          "name:be": "Эквадор",
          "name:bg": "Еквадор",
          "name:bn": "ইকুয়েডর",
          "name:bo": "ཨེ་ཁོའོ་ཌོར།",
          "name:br": "Ecuador",
          "name:bs": "Ekvador",
          "name:ca": "Equador",
          "name:ce": "Эквадор",
          "name:cs": "Ekvádor",
          "name:cv": "Эквадор",
          "name:cy": "Ecuador",
          "name:da": "Ecuador",
          "name:de": "Ecuador",
          "name:dv": "އިކުއެޑޯރު",
          "name:ee": "Ecuador",
          "name:el": "Ισημερινός (χώρα)",
          "name:en": "Ecuador",
          "name:eo": "Ekvadoro",
          "name:es": "Ecuador",
          "name:et": "Ecuador",
          "name:eu": "Ekuador",
          "name:fa": "اکوادور",
          "name:fi": "Ecuador",
          "name:fo": "Ekvador",
          "name:fr": "Équateur",
          "name:fy": "Ekwador",
          "name:ga": "Eacuadór",
          "name:gd": "Eacuador",
          "name:gl": "Ecuador",
          "name:gn": "Ekuator",
          "name:gu": "ઈક્વેડોર",
          "name:gv": "Ecuador",
          "name:he": "אקוודור",
          "name:hi": "ईक्वाडोर",
          "name:hr": "Ekvador",
          "name:ht": "Ekwatè",
          "name:hu": "Ecuador",
          "name:hy": "Էկվադոր",
          "name:ia": "Ecuador",
          "name:id": "Ekuador",
          "name:ie": "Ecuador",
          "name:io": "Equador",
          "name:is": "Ekvador",
          "name:it": "Ecuador",
          "name:ja": "エクアドル",
          "name:jv": "Ekuador",
          "name:ka": "ეკვადორი",
          "name:ki": "Ecuador",
          "name:kk": "Эквадор",
          "name:kl": "Ecuador",
          "name:kn": "ಎಕ್ವಡಾರ್",
          "name:ko": "에콰도르",
          "name:ku": "Ekuador",
          "name:kw": "Pow Ekwadorel",
          "name:la": "Aequatoria",
          "name:lb": "Ecuador",
          "name:li": "Ecuador",
          "name:ln": "Republíki ya Ekwatéli",
          "name:lt": "Ekvadoras",
          "name:lv": "Ekvadora",
          "name:mi": "Ekuatoa",
          "name:mk": "Еквадор",
          "name:ml": "ഇക്വഡോർ",
          "name:mn": "Эквадор",
          "name:mr": "इक्वेडोर",
          "name:ms": "Ecuador",
          "name:mt": "Ekwador",
          "name:my": "အီကွေဒေါနိုင်ငံ",
          "name:na": "Ekwador",
          "name:ne": "इक्वेडर",
          "name:nl": "Ecuador",
          "name:nn": "Ecuador",
          "name:no": "Ecuador",
          "name:nv": "Kéyah Nahasdzáán Ałníiʼgi Siʼánígíí",
          "name:oc": "Eqüator",
          "name:or": "ଏକ୍ଵାଡୋର",
          "name:os": "Эквадор",
          "name:pa": "ਏਕੁਆਦੋਰ",
          "name:pl": "Ekwador",
          "name:ps": "اېکوادور",
          "name:pt": "Equador",
          "name:qu": "Ikwadur",
          "name:rm": "Ecuador",
          "name:ro": "Ecuador",
          "name:ru": "Эквадор",
          "name:rw": "Ekwadoro",
          "name:sa": "एक्वाडोर",
          "name:se": "Ecuador",
          "name:sh": "Ekvador",
          "name:sk": "Ekvádor",
          "name:sl": "Ekvador",
          "name:so": "Ikwadoor",
          "name:sq": "Ekuadori",
          "name:sr": "Еквадор",
          "name:su": "Ékuador",
          "name:sv": "Ecuador",
          "name:sw": "Ekuador",
          "name:ta": "எக்குவடோர்",
          "name:te": "ఈక్వడార్",
          "name:tg": "Экуадор",
          "name:th": "ประเทศเอกวาดอร์",
          "name:tl": "Ecuador",
          "name:tr": "Ekvador",
          "name:tt": "Эквадор",
          "name:ug": "ئېكۋادور",
          "name:uk": "Еквадор",
          "name:ur": "ایکواڈور",
          "name:uz": "Ekvador",
          "name:vi": "Ecuador",
          "name:vo": "Lekvadorän",
          "name:wo": "Ekwadoor",
          "name:yi": "עקוואדאר",
          "name:yo": "Ẹ̀kùàdọ̀r",
          "name:zh": "厄瓜多尔 / 厄瓜多",
          "boundary": "administrative",
          "name:als": "Ecuador",
          "name:ang": "Ecuador",
          "name:arz": "اكوادور",
          "name:ast": "Ecuador",
          "name:bcl": "Ekwador",
          "name:bpy": "ইকুয়াডর",
          "name:ceb": "Ecuador",
          "name:ckb": "ئێکوادۆر",
          "name:crh": "Ekvador",
          "name:diq": "Ekwador",
          "name:dsb": "Ekuador",
          "name:ext": "Equadol",
          "name:frp": "Èquator",
          "name:frr": "Ekwadoor",
          "name:gag": "Ekvador",
          "name:hif": "Ecuador",
          "name:hsb": "Ekwador",
          "name:ilo": "Ecuador",
          "name:jbo": "ekuador",
          "name:lad": "Ekvador",
          "name:lij": "Ecuadòr",
          "name:lmo": "Ecuador",
          "name:ltg": "Ekvadors",
          "name:mhr": "Эквадор",
          "name:mrj": "Эквадор",
          "name:mwl": "Eiquador",
          "name:mzn": "اکوادر",
          "name:nah": "Ecuador",
          "name:nan": "Ecuador",
          "name:nds": "Ecuador",
          "name:nov": "Equador",
          "name:pag": "Equador",
          "name:pam": "Ecuador",
          "name:pap": "Ecuador",
          "name:pih": "Ekwador",
          "name:pms": "Ecuador",
          "name:pnb": "ایکویڈار",
          "name:rmy": "Ekuador",
          "name:rue": "Еквадор",
          "name:sah": "Экуадор",
          "name:scn": "Ecuador",
          "name:sco": "Ecuador",
          "name:smn": "Ecuador",
          "name:sms": "Ecuador",
          "name:szl": "Ekwadōr",
          "name:tet": "Ekuadór",
          "name:tok": "ma Ekato",
          "name:tzl": "Ecuadour",
          "name:vec": "Ecuador",
          "name:vls": "Ecuador",
          "name:vro": "Ecuador",
          "name:war": "Ecuador",
          "name:wuu": "厄瓜多尔",
          "name:xal": "Эквадормудин Орн",
          "name:yue": "厄瓜多爾",
          "name:zea": "Ecuador",
          "way_area": "29.5945",
          "wikidata": "Q736",
          "ISO3166-1": "EC",
          "wikipedia": "es:Ecuador",
          "name:zh-TW": "厄瓜多",
          "admin_level": "2",
          "border_type": "nation",
          "name:simple": "Ecuador",
          "name:bat-smg": "Ekvaduors",
          "name:roa-rup": "Ecuador",
          "name:zh-Hans": "厄瓜多尔",
          "name:zh-Hant": "厄瓜多",
          "name:be-tarask": "Эквадор",
          "ISO3166-1:alpha2": "EC",
          "ISO3166-1:alpha3": "ECU",
          "default_language": "es",
          "official_name:cs": "Ekvádorská republika",
          "official_name:de": "Die Republik Ecuador",
          "official_name:en": "Republic of Ecuador",
          "official_name:es": "Republica del Ecuador",
          "official_name:fr": "La République de l'Équateur",
          "official_name:ru": "Республика Эквадор",
          "ISO3166-1:numeric": "218"
        }
      },
      "geometry": {
        "type": "Polygon",
        "coordinates": [
          [
            [
              -92.2072392,
              1.6834946
            ],
            [
              -92.2070551,
              1.6738983
            ],
            [
              -92.2066795,
              1.6675104
            ],
            [
              -92.2057379,
              1.6579592
            ],
            [
              -92.2043444,
              1.6484641
            ],
            [
              -92.09327355927802,
              1
            ],
            [
              -92,
              1
            ],
            [
              -92,
              1.8834489147090745
            ],
            [
              -92.0055606,
              1.8835914
            ],
            [
              -92.0119198,
              1.8835505
            ],
            [
              -92.0182745,
              1.883306
            ],
            [
              -92.0246183,
              1.8828581
            ],
            [
              -92.0309447,
              1.8822073
            ],
            [
              -92.0372473,
              1.8813542
            ],
            [
              -92.0435198,
              1.8802997
            ],
            [
              -92.0497557,
              1.8790448
            ],
            [
              -92.0559488,
              1.8775909
            ],
            [
              -92.0620927,
              1.8759394
            ],
            [
              -92.0681813,
              1.8740919
            ],
            [
              -92.0742084,
              1.8720503
            ],
            [
              -92.0801679,
              1.8698168
            ],
            [
              -92.0860536,
              1.8673936
            ],
            [
              -92.0918598,
              1.864783
            ],
            [
              -92.0975804,
              1.8619879
            ],
            [
              -92.1032097,
              1.8590109
            ],
            [
              -92.108742,
              1.8558552
            ],
            [
              -92.1141717,
              1.8525238
            ],
            [
              -92.1194932,
              1.8490203
            ],
            [
              -92.1247012,
              1.8453481
            ],
            [
              -92.1322888,
              1.8395318
            ],
            [
              -92.1371902,
              1.8354546
            ],
            [
              -92.1419601,
              1.8312224
            ],
            [
              -92.1465937,
              1.8268397
            ],
            [
              -92.1510863,
              1.8223108
            ],
            [
              -92.1554334,
              1.8176403
            ],
            [
              -92.1596305,
              1.8128329
            ],
            [
              -92.1636735,
              1.8078935
            ],
            [
              -92.1675581,
              1.8028272
            ],
            [
              -92.1712806,
              1.797639
            ],
            [
              -92.174837,
              1.7923342
            ],
            [
              -92.1782238,
              1.7869182
            ],
            [
              -92.1814376,
              1.7813965
            ],
            [
              -92.1844751,
              1.7757746
            ],
            [
              -92.1873332,
              1.7700583
            ],
            [
              -92.1900091,
              1.7642533
            ],
            [
              -92.1925,
              1.7583656
            ],
            [
              -92.1948034,
              1.7524011
            ],
            [
              -92.196917,
              1.7463658
            ],
            [
              -92.1988386,
              1.7402659
            ],
            [
              -92.2005663,
              1.7341076
            ],
            [
              -92.2020983,
              1.727897
            ],
            [
              -92.2034332,
              1.7216405
            ],
            [
              -92.2045694,
              1.7153444
            ],
            [
              -92.205506,
              1.7090151
            ],
            [
              -92.2062419,
              1.7026591
            ],
            [
              -92.2067764,
              1.6962827
            ],
            [
              -92.2071089,
              1.6898923
            ],
            [
              -92.2072392,
              1.6834946
            ]
          ]
        ]
      }
    }
  ]
}