{
  "type": "FeatureCollection",
  "features": [
    {
      "type": "Feature",
      "properties": {
        "osm_id": -195267,
        "boundary": "administrative",
        "admin_level": 2,
        "parents": null,
        "name": "Angola",
        "local_name": "Angola",
        "name_en": "Angola",
        "all_tags": {
          "flag": "http://upload.wikimedia.org/wikipedia/commons/9/9d/Flag_of_Angola.svg",
          "name": "Angola",
          "name:ab": "Ангола",
          "name:af": "Angola",
          "name:ak": "Angola",
          "name:am": "አንጎላ",
          "name:an": "Angola",
          "name:ar": "أنغولا",
          "name:as": "আংগলা",
          "name:ay": "Angula",
          "name:az": "Anqola",
          "name:ba": "Анго́ла",
          "name:be": "Анго́ла",
          "name:bg": "Ангола",
          "name:bh": "अंगोला",
          "name:bm": "Angola",
          "name:bn": "অ্যাঙ্গোলা",
          "name:bo": "ཨང་གོ་ལ།",
          "name:br": "Angola",
          "name:bs": "Angola",
          "name:ca": "Angola",
          "name:ce": "Анго́ла",
          "name:co": "Angola",
          "name:cs": "Angola",
          "name:cv": "Ангола",
          "name:cy": "Angola",
          "name:da": "Angola",
          "name:de": "Angola",
          "name:dv": "އެންގޯލާ",
          "name:dz": "ཨང་གྷོ་ལ",
          "name:ee": "Aŋgola",
          "name:el": "Ανγκόλα",
          "name:en": "Angola",
          "name:eo": "Angolo",
          "name:es": "Angola",
          "name:et": "Angola",
          "name:eu": "Angola",
          "name:fa": "آنگولا",
          "name:ff": "Anngolaa",
          "name:fi": "Angola",
          "name:fo": "Angola",
          "name:fr": "Angola",
          "name:fy": "Angoala",
          "name:ga": "Angóla",
          "name:gd": "Angola",
          "name:gl": "Angola",
          "name:gn": "Angola",
          "name:gu": "અંગોલા",
          "name:gv": "Angoley",
          "name:ha": "Angola",
          "name:he": "אנגולה",
          "name:hi": "अंगोला",
          "name:hr": "Angola",
          "name:ht": "Angola",
          "name:hu": "Angola",
          "name:hy": "Անգոլա",
          "name:ia": "Angola",
          "name:id": "Angola",
          "name:ie": "Angola",
          "name:ig": "Angola",
          "name:io": "Angola",
          "name:is": "Angóla",
          "name:it": "Angola",
          "name:ja": "アンゴラ",
          "name:jv": "Angola",
          "name:ka": "ანგოლა",
          "name:kg": "Ngola",
          "name:ki": "Angola",
          "name:kk": "Ангола",
          "name:km": "អង់ហ្គោឡា",
          "name:kn": "ಅಂಗೋಲ",
          "name:ko": "앙골라",
          "name:ks": "اینٛگولا",
          "name:ku": "Angola",
          "name:kw": "Angola",
          "name:ky": "Ангола",
          "name:la": "Angolia",
          "name:lb": "Angola",
          "name:lg": "Angola",
          "name:li": "Angola",
          "name:ln": "Angola",
          "name:lo": "ອັງໂກລາ",
          "name:lt": "Angola",
          "name:lv": "Angola",
          "name:mg": "Angola",
          "name:mi": "Anakora",
          "name:mk": "Ангола",
          "name:ml": "അംഗോള",
          "name:mn": "Ангол",
          "name:mr": "अँगोला",
          "name:ms": "Angola",
          "name:mt": "Angola",
          "name:my": "အင်ဂိုလာနိုင်ငံ",
          "name:na": "Angora",
          "name:ne": "अंगोला",
          "name:nl": "Angola",
          "name:nn": "Angola",
          "name:no": "Angola",
          "name:nv": "Angóola",
          "name:ny": "Angola",
          "name:oc": "Angòla",
          "name:om": "Angoolaa",
          "name:or": "ଆଙ୍ଗୋଲା",
          "name:os": "Анголæ",
          "name:pa": "ਅੰਗੋਲਾ",
          "name:pi": "अंगोला",
          "name:pl": "Angola",
          "name:ps": "آنګولا",
          "name:pt": "Angola",
          "name:qu": "Angula",
          "name:rm": "Angola",
          "name:ro": "Angola",
          "name:ru": "Ангола",
          "name:rw": "Angola",
          "name:sa": "अङ्गोला",
          "name:sc": "Angola",
          "name:se": "Angola",
          "name:sg": "Angoläa",
          "name:sh": "Angola",
          "name:si": "ඇන්ගෝලාව",
          "name:sk": "Angola",
          "name:sl": "Angola",
          "name:sm": "Angola",
          "name:sn": "Angola",
          "name:so": "Angola",
          "name:sq": "Angola",
          "name:sr": "Ангола",
          "name:ss": "I-Angola",
          "name:st": "Angola",
          "name:su": "Angola",
          "name:sv": "Angola",
          "name:sw": "Angola",
          "name:ta": "அங்கோலா",
          "name:te": "అంగోలా",
          "name:tg": "Ангола",
          "name:th": "ประเทศแองโกลา",
          "name:ti": "ኣንጎላ",
          "name:tk": "Angola",
          "name:tl": "Anggola",
          "name:to": "ʻEnikola",
          "name:tr": "Angola",
          "name:ts": "Angola",
          "name:tt": "Анго́ла",
          "name:tw": "Angola",
          "name:ug": "ئانگولا",
          "name:uk": "Анґо́ла",
          "name:ur": "انگولہ",
          "name:uz": "Angola",
          "name:vi": "Angola",
          "name:vo": "Langolän",
          "name:wo": "Angolaa",
          "name:xh": "I-Angola",
          "name:yi": "אַנגאלאַ",
          "name:yo": "Àngólà",
          "name:za": "Angola",
          "name:zh": "安哥拉",
          "name:zu": "I-Angola",
          "boundary": "administrative",
          "int_name": "Angola",
          "name:als": "Angola",
          "name:ang": "Angola",
          "name:ary": "أنڭولا",
          "name:arz": "انجولا",
          "name:ast": "Angola",
          "name:avk": "Angola",
          "name:azb": "آنگولا",
          "name:ban": "Angola",
          "name:bar": "Angola",
          "name:bcl": "Angola",
          "name:bjn": "Angola",
          "name:bpy": "এঙ্গোলা",
          "name:bxr": "Ангола",
          "name:cdo": "Angola",
          "name:ceb": "Angola",
          "name:chr": "ᎠᏂᎪᎳ",
          "name:ckb": "ئەنگۆلا",
          "name:crh": "Angola",
          "name:csb": "Angòlô",
          "name:din": "Aŋola",
          "name:diq": "Angola",
          "name:dsb": "Angola",
          "name:dty": "एन्गोला",
          "name:ext": "Angola",
          "name:frp": "Angola",
          "name:frr": "Angoola",
          "name:gag": "Angola",
          "name:gcr": "Angola",
          "name:gom": "आंगोला",
          "name:hak": "Ôn-kô-lâ",
          "name:haw": "ʻAnakola",
          "name:hif": "Angola",
          "name:hsb": "Angola",
          "name:ilo": "Angola",
          "name:jam": "Angguola",
          "name:jbo": "angol",
          "name:kaa": "Angola",
          "name:kab": "Angola",
          "name:kbp": "Aŋgoola",
          "name:ksh": "Angola",
          "name:lad": "Angola",
          "name:lfn": "Angola",
          "name:lij": "Angòla",
          "name:lld": "Angola",
          "name:lmo": "Angola",
          "name:lrc": "آنگوٙلا",
          "name:ltg": "Angola",
          "name:lzh": "安哥拉",
          "name:min": "Angola",
          "name:mrj": "Ангола",
          "name:mwl": "Angola",
          "name:mzn": "آنگولا",
          "name:nah": "Angola",
          "name:nan": "Angola",
          "name:nds": "Angola",
          "name:new": "एङ्गोला",
          "name:nov": "Angola",
          "name:nso": "Angola",
          "name:olo": "Angola",
          "name:pam": "Angola",
          "name:pap": "Angola",
          "name:pdc": "Angola",
          "name:pih": "Angola",
          "name:pms": "Angòla",
          "name:pnb": "انگولا",
          "name:rue": "Анґола",
          "name:sah": "Ангола",
          "name:sat": "ᱮᱝᱜᱳᱞᱟ",
          "name:scn": "Angola",
          "name:sco": "Angolae",
          "name:shn": "မိူင်းဢႅၼ်ႇၵူဝ်ႇလႃႇ",
          "name:smn": "Angola",
          "name:sms": "Angola",
          "name:stq": "Angola",
          "name:szl": "Angola",
          "name:tet": "Angola",
          "name:tok": "ma Ankola",
          "name:tum": "Angola",
          "name:tzl": "Angola",
          "name:udm": "Ангола",
          "name:vec": "Angoła",
          "name:vep": "Angol",
          "name:vls": "Angola",
          "name:vro": "Angola",
          "name:war": "Angola",
          "name:wuu": "安哥拉",
          "name:xal": "Анголмудин",
          "name:xmf": "ანგოლა",
          "name:yue": "安哥拉",
          "name:zea": "Anhola",
          "timezone": "Africa/Luanda",
          "way_area": "106.757",
          "wikidata": "Q916",
          "ISO3166-1": "AO",
          "wikipedia": "pt:Angola",
          "admin_level": "2",
          "alt_name:gd": "Angóla",
          "alt_name:vi": "Tây Bồ Đào Nha",
          "name:nds-nl": "Angola",
          "alt_name:ksh": "Anjola",
          "name:bat-smg": "Anguola",
          "name:cbk-zam": "Angola",
          "name:roa-rup": "Angola",
          "name:zh-Hans": "安哥拉",
          "name:zh-Hant": "安哥拉",
          "official_name": "República de Angola",
          "name:be-tarask": "Анґо́ла",
          "name:zh_pinyin": "Āngēlā",
          "ISO3166-1:alpha2": "AO",
          "ISO3166-1:alpha3": "AGO",
          "default_language": "pt",
          "official_name:ab": "Ангола ареспублика",
          "official_name:af": "Republiek van Angola",
          "official_name:am": "የአንጎላ ሪፑብሊክ",
          "official_name:an": "Republica d'Angola",
          "official_name:ar": "جمهورية أنغولا",
          "official_name:ay": "Angula Ripublika",
          "official_name:az": "Anqola Respublikası",
          "official_name:ba": "Анго́ла Республикаһы",
          "official_name:be": "Рэспу́бліка Анго́ла",
          "official_name:bg": "Република Ангола",
          "official_name:bm": "Angola ka Fasojamana",
          "official_name:bn": "অ্যাঙ্গোলা প্রজাতন্ত্র",
          "official_name:br": "Republik Angola",
          "official_name:bs": "Republika Angola",
          "official_name:ca": "República d'Angola",
          "official_name:ce": "Ангола Пачхьалкх",
          "official_name:cs": "Angolská republika",
          "official_name:cv": "Ангола республики",
          "official_name:cy": "Gweriniaeth Angola",
          "official_name:da": "Republikken Angola",
          "official_name:de": "Republik Angola",
          "official_name:el": "Δημοκρατία της Ανγκόλας",
          "official_name:en": "Republic of Angola",
          "official_name:eo": "Respubliko Angolo",
          "official_name:es": "República de Angola",
          "official_name:et": "Angola Vabariik",
          "official_name:eu": "Angolako Errepublika",
          "official_name:fa": "جمهوری آنگولا",
          "official_name:fi": "Angolan tasavalta",
          "official_name:fo": "Tjóðveldið Angola",
          "official_name:fr": "République d'Angola",
          "official_name:fy": "Republyk Angoala",
          "official_name:ga": "Poblacht Angóla",
          "official_name:gd": "Poblachd Angola",
          "official_name:gl": "República de Angola",
          "official_name:gn": "Tetã Angola",
          "official_name:gu": "એંગોલા પ્રજાસત્તાક",
          "official_name:gv": "Pobblaght Angoley",
          "official_name:ha": "Angola ka Fasojamana",
          "official_name:he": "רפובליקת אנגולה",
          "official_name:hi": "अंगोला गणराज्य",
          "official_name:hr": "Republika Angola",
          "official_name:hu": "Angolai Köztársaság",
          "official_name:hy": "Անգոլայի Հանրապետություն",
          "official_name:id": "Republik Angola",
          "official_name:ie": "Republica de Angola",
          "official_name:io": "Republiko Angola",
          "official_name:is": "Lýðveldið Angóla",
          "official_name:it": "Repubblica dell'Angola",
          "official_name:ja": "アンゴラ共和国",
          "official_name:jv": "Républik Angola",
          "official_name:ka": "ანგოლის რესპუბლიკა",
          "official_name:kg": "Repubilika ya Ngola",
          "official_name:ki": "Jamhuri ya Angola",
          "official_name:kk": "Ангола Республикасы",
          "official_name:kn": "ಅಂಗೋಲ ಗಣರಾಜ್ಯ",
          "official_name:ko": "앙골라 공화국",
          "official_name:ku": "Komara Angolayê",
          "official_name:ky": "Ангола Республикасы",
          "official_name:la": "Respublica Angolia",
          "official_name:lb": "Republik Angola",
          "official_name:li": "Rippubliek Angola",
          "official_name:ln": "Republíki ya Angola",
          "official_name:lo": "ສາທາລະນະລັດອັງໂກລາ",
          "official_name:lt": "Angolos Respublika",
          "official_name:lv": "Angolas Republika",
          "official_name:mg": "Repoblikan'i Angola",
          "official_name:mi": "Whenua Tū Wehe o Anakora",
          "official_name:mk": "Република Ангола",
          "official_name:ml": "റിപ്പബ്ലിക് ഓഫ് അങ്കോള",
          "official_name:mn": "Анголын Бүгд Найрамдах Улс",
          "official_name:mr": "अँगोलाचे प्रजासत्ताक",
          "official_name:ms": "Republik Angola",
          "official_name:mt": "Repubblika tal-Angola",
          "official_name:my": "အင်ဂိုလာသမ္မတနိုင်ငံ",
          "official_name:na": "Ripuprikin Angora",
          "official_name:ne": "एङ्गोला गणराज्य",
          "official_name:nl": "Republiek Angola",
          "official_name:nn": "Folkerepublikken Angola",
          "official_name:no": "Republikken Angola",
          "official_name:ny": "Dziko la Angola",
          "official_name:oc": "Republica de Angòla",
          "official_name:om": "Riippabiliika Angoolaa",
          "official_name:os": "Анголæйы Республикæ",
          "official_name:pa": "ਅੰਗੋਲਾ ਦਾ ਗਣਰਾਜ",
          "official_name:pl": "Republika Angoli",
          "official_name:ps": "د آنگولا جمهوريت",
          "official_name:pt": "República de Angola",
          "official_name:qu": "Angula Ripuwlika",
          "official_name:rm": "Republica Angola",
          "official_name:ro": "Republica Angola",
          "official_name:ru": "Республика Ангола",
          "official_name:rw": "Repebulika y’Angola",
          "official_name:sd": "انگولا جي ريپبلڪ",
          "official_name:se": "Angola dásseváldi",
          "official_name:sg": "Angoläa Ködörösêse",
          "official_name:sh": "Republika Angola",
          "official_name:si": "ඇන්ගෝලා සමුහාණ්ඩුව",
          "official_name:sk": "Angolská republika",
          "official_name:sl": "Republika Angola",
          "official_name:so": "Jamhuuriyada Angola",
          "official_name:sq": "Republika e Angolës",
          "official_name:sr": "Република Ангола",
          "official_name:su": "Républik Angola",
          "official_name:sv": "Republiken Angola",
          "official_name:sw": "Jamhuri ya Angola",
          "official_name:ta": "அங்கோலாக் குடியரசு",
          "official_name:te": "రిపబ్లిక్ ఆఫ్ అంగోలా",
          "official_name:tg": "Angola täsiväldi",
          "official_name:th": "สาธารณรัฐแองโกลา",
          "official_name:tk": "Angola Respublikasy",
          "official_name:tl": "Republika ng Angola",
          "official_name:tr": "Angola Cumhuriyeti",
          "official_name:tt": "Анго́ла Җөмһүрияте́",
          "official_name:ug": "ئانگولا جۇمھۇرىيىتى",
          "official_name:uk": "Респу́бліка Анґо́ла",
          "official_name:ur": "جمہوریہ انگولہ",
          "official_name:uz": "Angola Respublikasi",
          "official_name:vi": "Cộng hòa Angola",
          "official_name:wo": "Réewum Angolaa",
          "official_name:yi": "רעפובליק פון אנגאלא",
          "official_name:yo": "Orílẹ̀-èdè Olómìnira ilẹ̀ Àngólà",
          "official_name:zh": "安哥拉共和国 / 安哥拉共和國",
          "official_name:zu": "IRiphabliki yase-Angola",
          "ISO3166-1:numeric": "024",
          "official_name:als": "Republik Angola",
          "official_name:ary": "جمهورية أنڭولا",
          "official_name:arz": "جمهورية انجولا",
          "official_name:azb": "آنگولا جمهوریتی",
          "official_name:bar": "Republik Angola",
          "official_name:bcl": "Republika kan Angola",
          "official_name:bjn": "Republik Angola",
          "official_name:bpy": "প্রজাতন্ত্রি এঙ্গোলা",
          "official_name:cdo": "Angola Gê̤ṳng-huò-guók",
          "official_name:chr": "ᏍᎦᏚᎩ ᎾᎿ ᎠᏂᎪᎳ",
          "official_name:ckb": "کۆماری ئەنگۆلا",
          "official_name:dsb": "Republika Angola",
          "official_name:ext": "Repúbrica de Angola",
          "official_name:frr": "Republiik faan Angoola",
          "official_name:gcr": "Répiblik di Angola",
          "official_name:hak": "Angola Khiung-fò-koet",
          "official_name:haw": "Lepupalika o ʻAnakola",
          "official_name:hif": "Republic of Angola",
          "official_name:hsb": "Republika Angola",
          "official_name:ilo": "Republika ti Angola",
          "official_name:jam": "Ripoblik a Angguola",
          "official_name:jbo": "angolas zei gubyseltru",
          "official_name:ksh": "Republek Anjola",
          "official_name:lad": "Repuvlika de Angola",
          "official_name:lfn": "Republica de Angola",
          "official_name:lmo": "Repüblica Angola",
          "official_name:ltg": "Angolys Republika",
          "official_name:min": "Republik Angola",
          "official_name:mwl": "República Angola",
          "official_name:nah": "Tlācatlahtohcāyōtl Angola",
          "official_name:nan": "Angola Kiōng-hô-kok",
          "official_name:nds": "Republik Angola",
          "official_name:new": "एंगोला गणतन्त्र",
          "official_name:nso": "Republic Angola",
          "official_name:olo": "Angolan Tazavaldu",
          "official_name:pam": "Republica ning Angola",
          "official_name:pap": "Republica di Angola",
          "official_name:pdc": "Republik Angola",
          "official_name:pms": "Repùblica Angòla",
          "official_name:rue": "Анґольска републіка",
          "official_name:sah": "Ангола Республиката",
          "official_name:scn": "Ripùbbrica Angola",
          "official_name:sco": "Republic o Angolae",
          "official_name:shn": "မိူင်းၸွမ်ပွင်ၸိုင်ႈ ဢႅၼ်ႇၵူဝ်ႇလႃႇ",
          "official_name:smn": "Angola täsiväldi",
          "official_name:stq": "Republik Angola",
          "official_name:szl": "Republika Angoli",
          "official_name:tet": "Repúblika Angola niam",
          "official_name:vec": "Republica Popołare de ł'Angoła",
          "official_name:vep": "Angolan Tazovaldkund",
          "official_name:vls": "Republiek Angola",
          "official_name:vro": "Angola Vabariik",
          "official_name:xal": "Анголмудин Орн",
          "official_name:xmf": "ანგოლაშ რესპუბლიკა",
          "official_name:zea": "Rippebliek Anhola",
          "alt_name:be-tarask": "Анго́ла",
          "official_name:nds-nl": "Rippebliek Angola",
          "official_name:roa-rup": "Republica Angola",
          "official_name:zh-Hans": "安哥拉共和国",
          "official_name:zh-Hant": "安哥拉共和國"
        }
      },
      "geometry": {
        "type": "Polygon",
        "coordinates": [
          [
            [
              22,
              -12
            ],
            [
              23,
              -12
            ],
            [
              23,
              -11.091315679096526
            ],
            [
              22.995577,
              -11.091507
            ],
            [
              22.992948,
              -11.09308
            ],
            [
              22.990663,
              -11.09229
            ],
            [
              22.987837,
              -11.092538
            ],
            [
              22.984363,
              -11.093353
            ],
            [
              22.982242,
              -11.09262
            ],
            [
              22.979513,
              -11.092288
            ],
            [
              22.977237,
              -11.091607
            ],
            [
              22.974751,
              -11.091486
            ],
            [
              22.972206,
              -11.091061
            ],
            [
              22.967781,
              -11.089546
            ],
            [
              22.964386,
              -11.088758
            ],
            [
              22.960712,
              -11.087496
            ],
            [
              22.957056,
              -11.088509
            ],
            [
              22.95444,
              -11.088549
            ],
            [
              22.950642,
              -11.088147
            ],
            [
              22.947172,
              -11.088152
            ],
            [
              22.944687,
              -11.088758
            ],
            [
              22.942262,
              -11.088697
            ],
            [
              22.937171,
              -11.088212
            ],
            [
              22.92135,
              -11.085727
            ],
            [
              22.918865,
              -11.085424
            ],
            [
              22.913713,
              -11.085121
            ],
            [
              22.911288,
              -11.085424
            ],
            [
              22.910076,
              -11.086212
            ],
            [
              22.909045,
              -11.086637
            ],
            [
              22.907894,
              -11.086818
            ],
            [
              22.906682,
              -11.086697
            ],
            [
              22.905712,
              -11.08597
            ],
            [
              22.904075,
              -11.084091
            ],
            [
              22.901408,
              -11.081606
            ],
            [
              22.891164,
              -11.070998
            ],
            [
              22.8868,
              -11.066998
            ],
            [
              22.884618,
              -11.065543
            ],
            [
              22.883345,
              -11.065179
            ],
            [
              22.88086,
              -11.064937
            ],
            [
              22.878314,
              -11.06427
            ],
            [
              22.870677,
              -11.062936
            ],
            [
              22.868252,
              -11.062754
            ],
            [
              22.863039,
              -11.062694
            ],
            [
              22.858311,
              -11.063179
            ],
            [
              22.853644,
              -11.064209
            ],
            [
              22.851462,
              -11.064997
            ],
            [
              22.845461,
              -11.068695
            ],
            [
              22.841824,
              -11.072029
            ],
            [
              22.840127,
              -11.073908
            ],
            [
              22.835338,
              -11.080393
            ],
            [
              22.83158,
              -11.085
            ],
            [
              22.830368,
              -11.085182
            ],
            [
              22.824731,
              -11.085121
            ],
            [
              22.822306,
              -11.084939
            ],
            [
              22.820973,
              -11.085242
            ],
            [
              22.818669,
              -11.086455
            ],
            [
              22.816184,
              -11.087425
            ],
            [
              22.812426,
              -11.08797
            ],
            [
              22.809759,
              -11.087909
            ],
            [
              22.806122,
              -11.089364
            ],
            [
              22.803758,
              -11.090092
            ],
            [
              22.801637,
              -11.091425
            ],
            [
              22.799697,
              -11.09288
            ],
            [
              22.798061,
              -11.095062
            ],
            [
              22.796909,
              -11.097183
            ],
            [
              22.795939,
              -11.099123
            ],
            [
              22.795212,
              -11.101548
            ],
            [
              22.793151,
              -11.104397
            ],
            [
              22.791453,
              -11.106215
            ],
            [
              22.786665,
              -11.109731
            ],
            [
              22.773269,
              -11.118398
            ],
            [
              22.772178,
              -11.118702
            ],
            [
              22.770966,
              -11.118702
            ],
            [
              22.765208,
              -11.118338
            ],
            [
              22.763995,
              -11.118095
            ],
            [
              22.762904,
              -11.117732
            ],
            [
              22.758601,
              -11.115247
            ],
            [
              22.751812,
              -11.112398
            ],
            [
              22.748235,
              -11.111185
            ],
            [
              22.745569,
              -11.110822
            ],
            [
              22.738295,
              -11.111064
            ],
            [
              22.731081,
              -11.112095
            ],
            [
              22.724535,
              -11.11264
            ],
            [
              22.723323,
              -11.113064
            ],
            [
              22.721868,
              -11.113186
            ],
            [
              22.717989,
              -11.113367
            ],
            [
              22.709927,
              -11.113307
            ],
            [
              22.707442,
              -11.112761
            ],
            [
              22.702047,
              -11.109609
            ],
            [
              22.700047,
              -11.107912
            ],
            [
              22.699441,
              -11.106821
            ],
            [
              22.699077,
              -11.105548
            ],
            [
              22.698471,
              -11.100457
            ],
            [
              22.697986,
              -11.098517
            ],
            [
              22.697016,
              -11.096517
            ],
            [
              22.694774,
              -11.093728
            ],
            [
              22.692713,
              -11.092698
            ],
            [
              22.688894,
              -11.093728
            ],
            [
              22.685682,
              -11.095547
            ],
            [
              22.673134,
              -11.09088
            ],
            [
              22.66386,
              -11.08694
            ],
            [
              22.660345,
              -11.085606
            ],
            [
              22.646828,
              -11.079181
            ],
            [
              22.64113,
              -11.075787
            ],
            [
              22.633432,
              -11.070574
            ],
            [
              22.630522,
              -11.068149
            ],
            [
              22.628764,
              -11.06627
            ],
            [
              22.627734,
              -11.064149
            ],
            [
              22.627371,
              -11.061906
            ],
            [
              22.628159,
              -11.059724
            ],
            [
              22.628886,
              -11.056511
            ],
            [
              22.628825,
              -11.053905
            ],
            [
              22.628583,
              -11.051662
            ],
            [
              22.627492,
              -11.047965
            ],
            [
              22.627552,
              -11.046752
            ],
            [
              22.626704,
              -11.045661
            ],
            [
              22.624946,
              -11.043903
            ],
            [
              22.623006,
              -11.042267
            ],
            [
              22.620703,
              -11.040691
            ],
            [
              22.618339,
              -11.039479
            ],
            [
              22.615379,
              -11.040632
            ],
            [
              22.611225,
              -11.039114
            ],
            [
              22.605132,
              -11.034679
            ],
            [
              22.598079,
              -11.036035
            ],
            [
              22.593693,
              -11.036606
            ],
            [
              22.584249,
              -11.033933
            ],
            [
              22.577667,
              -11.028144
            ],
            [
              22.567423,
              -11.028932
            ],
            [
              22.556391,
              -11.031114
            ],
            [
              22.552754,
              -11.032447
            ],
            [
              22.542935,
              -11.037175
            ],
            [
              22.540571,
              -11.038145
            ],
            [
              22.535782,
              -11.03966
            ],
            [
              22.530873,
              -11.040751
            ],
            [
              22.526084,
              -11.042327
            ],
            [
              22.524811,
              -11.042449
            ],
            [
              22.522083,
              -11.042327
            ],
            [
              22.519295,
              -11.041964
            ],
            [
              22.514325,
              -11.04057
            ],
            [
              22.511961,
              -11.03966
            ],
            [
              22.510385,
              -11.039418
            ],
            [
              22.50893,
              -11.039479
            ],
            [
              22.503778,
              -11.041479
            ],
            [
              22.501596,
              -11.043055
            ],
            [
              22.496909,
              -11.048024
            ],
            [
              22.494,
              -11.052025
            ],
            [
              22.490605,
              -11.058026
            ],
            [
              22.488848,
              -11.06433
            ],
            [
              22.489029,
              -11.078938
            ],
            [
              22.489696,
              -11.087969
            ],
            [
              22.490241,
              -11.089424
            ],
            [
              22.492424,
              -11.093667
            ],
            [
              22.494363,
              -11.096819
            ],
            [
              22.495454,
              -11.097728
            ],
            [
              22.496788,
              -11.098274
            ],
            [
              22.5,
              -11.100638
            ],
            [
              22.502849,
              -11.103487
            ],
            [
              22.503456,
              -11.104578
            ],
            [
              22.503698,
              -11.105729
            ],
            [
              22.503758,
              -11.107184
            ],
            [
              22.503153,
              -11.109669
            ],
            [
              22.502364,
              -11.111912
            ],
            [
              22.498303,
              -11.118398
            ],
            [
              22.493229,
              -11.125647
            ],
            [
              22.491535,
              -11.127462
            ],
            [
              22.486817,
              -11.131817
            ],
            [
              22.485003,
              -11.133309
            ],
            [
              22.483873,
              -11.134035
            ],
            [
              22.476938,
              -11.137059
            ],
            [
              22.472824,
              -11.139922
            ],
            [
              22.468553,
              -11.142202
            ],
            [
              22.464455,
              -11.144625
            ],
            [
              22.463617,
              -11.145683
            ],
            [
              22.463397,
              -11.151411
            ],
            [
              22.463088,
              -11.152381
            ],
            [
              22.462472,
              -11.153394
            ],
            [
              22.450266,
              -11.167759
            ],
            [
              22.448327,
              -11.169434
            ],
            [
              22.440924,
              -11.174545
            ],
            [
              22.438281,
              -11.177013
            ],
            [
              22.434711,
              -11.17829
            ],
            [
              22.433433,
              -11.17829
            ],
            [
              22.43101,
              -11.177982
            ],
            [
              22.424929,
              -11.176219
            ],
            [
              22.421007,
              -11.175426
            ],
            [
              22.410873,
              -11.174281
            ],
            [
              22.406113,
              -11.175647
            ],
            [
              22.403514,
              -11.176087
            ],
            [
              22.392762,
              -11.176528
            ],
            [
              22.388928,
              -11.17644
            ],
            [
              22.367073,
              -11.179524
            ],
            [
              22.347376,
              -11.181948
            ],
            [
              22.34624,
              -11.182424
            ],
            [
              22.347332,
              -11.189615
            ],
            [
              22.346936,
              -11.193052
            ],
            [
              22.345658,
              -11.198604
            ],
            [
              22.34482,
              -11.201336
            ],
            [
              22.344204,
              -11.202261
            ],
            [
              22.34015,
              -11.206447
            ],
            [
              22.329574,
              -11.218433
            ],
            [
              22.311464,
              -11.236191
            ],
            [
              22.31045,
              -11.237028
            ],
            [
              22.308115,
              -11.238394
            ],
            [
              22.303885,
              -11.241346
            ],
            [
              22.299787,
              -11.243638
            ],
            [
              22.295953,
              -11.246149
            ],
            [
              22.286832,
              -11.252583
            ],
            [
              22.270969,
              -11.263114
            ],
            [
              22.266254,
              -11.264876
            ],
            [
              22.256472,
              -11.264656
            ],
            [
              22.249898,
              -11.26414
            ],
            [
              22.247849,
              -11.2548
            ],
            [
              22.24818,
              -11.253901
            ],
            [
              22.248346,
              -11.252743
            ],
            [
              22.248109,
              -11.250213
            ],
            [
              22.248322,
              -11.249952
            ],
            [
              22.248728,
              -11.250001
            ],
            [
              22.24912,
              -11.249406
            ],
            [
              22.249394,
              -11.247836
            ],
            [
              22.249668,
              -11.247134
            ],
            [
              22.249626,
              -11.246782
            ],
            [
              22.249248,
              -11.246554
            ],
            [
              22.250276,
              -11.244241
            ],
            [
              22.251065,
              -11.243474
            ],
            [
              22.251254,
              -11.243024
            ],
            [
              22.252346,
              -11.241686
            ],
            [
              22.252933,
              -11.240045
            ],
            [
              22.253335,
              -11.239974
            ],
            [
              22.253619,
              -11.239548
            ],
            [
              22.254494,
              -11.239266
            ],
            [
              22.254716,
              -11.239044
            ],
            [
              22.254445,
              -11.238102
            ],
            [
              22.254602,
              -11.237838
            ],
            [
              22.254382,
              -11.236688
            ],
            [
              22.254756,
              -11.236461
            ],
            [
              22.254836,
              -11.236087
            ],
            [
              22.254169,
              -11.235346
            ],
            [
              22.254147,
              -11.23517
            ],
            [
              22.254438,
              -11.23509
            ],
            [
              22.254551,
              -11.234796
            ],
            [
              22.254382,
              -11.234605
            ],
            [
              22.254308,
              -11.234063
            ],
            [
              22.254052,
              -11.233799
            ],
            [
              22.254133,
              -11.233036
            ],
            [
              22.253986,
              -11.232846
            ],
            [
              22.253971,
              -11.232127
            ],
            [
              22.254301,
              -11.231438
            ],
            [
              22.254088,
              -11.230785
            ],
            [
              22.254145,
              -11.230293
            ],
            [
              22.254323,
              -11.229692
            ],
            [
              22.254587,
              -11.229636
            ],
            [
              22.254851,
              -11.22882
            ],
            [
              22.255064,
              -11.228622
            ],
            [
              22.25491,
              -11.228218
            ],
            [
              22.254947,
              -11.227456
            ],
            [
              22.255137,
              -11.227368
            ],
            [
              22.255225,
              -11.22703
            ],
            [
              22.255416,
              -11.22692
            ],
            [
              22.255291,
              -11.226811
            ],
            [
              22.255482,
              -11.226664
            ],
            [
              22.255218,
              -11.225586
            ],
            [
              22.25543,
              -11.22552
            ],
            [
              22.255482,
              -11.224537
            ],
            [
              22.255709,
              -11.224244
            ],
            [
              22.255489,
              -11.223635
            ],
            [
              22.255761,
              -11.22354
            ],
            [
              22.2559,
              -11.223166
            ],
            [
              22.255452,
              -11.22233
            ],
            [
              22.255665,
              -11.221912
            ],
            [
              22.255511,
              -11.221758
            ],
            [
              22.255606,
              -11.220709
            ],
            [
              22.255452,
              -11.220651
            ],
            [
              22.25535,
              -11.22013
            ],
            [
              22.255056,
              -11.219793
            ],
            [
              22.255372,
              -11.219521
            ],
            [
              22.255328,
              -11.219059
            ],
            [
              22.255584,
              -11.218561
            ],
            [
              22.255563,
              -11.218216
            ],
            [
              22.255716,
              -11.218194
            ],
            [
              22.255878,
              -11.217754
            ],
            [
              22.255606,
              -11.216962
            ],
            [
              22.25524,
              -11.216757
            ],
            [
              22.254925,
              -11.216302
            ],
            [
              22.254917,
              -11.215943
            ],
            [
              22.25513,
              -11.215855
            ],
            [
              22.25499,
              -11.215598
            ],
            [
              22.255086,
              -11.215356
            ],
            [
              22.254712,
              -11.215012
            ],
            [
              22.254506,
              -11.214014
            ],
            [
              22.254231,
              -11.213896
            ],
            [
              22.254228,
              -11.213494
            ],
            [
              22.253751,
              -11.213362
            ],
            [
              22.253722,
              -11.213149
            ],
            [
              22.25381,
              -11.212841
            ],
            [
              22.254264,
              -11.212665
            ],
            [
              22.254191,
              -11.212408
            ],
            [
              22.25491,
              -11.211807
            ],
            [
              22.255526,
              -11.210539
            ],
            [
              22.255907,
              -11.210553
            ],
            [
              22.25587,
              -11.210216
            ],
            [
              22.256076,
              -11.209842
            ],
            [
              22.255966,
              -11.209446
            ],
            [
              22.25634,
              -11.209292
            ],
            [
              22.256355,
              -11.208331
            ],
            [
              22.256788,
              -11.207346
            ],
            [
              22.257436,
              -11.206613
            ],
            [
              22.257874,
              -11.206479
            ],
            [
              22.258085,
              -11.205973
            ],
            [
              22.258026,
              -11.205678
            ],
            [
              22.258498,
              -11.205189
            ],
            [
              22.258237,
              -11.204524
            ],
            [
              22.258515,
              -11.203858
            ],
            [
              22.259408,
              -11.202788
            ],
            [
              22.259646,
              -11.202037
            ],
            [
              22.26015,
              -11.201675
            ],
            [
              22.26037,
              -11.20098
            ],
            [
              22.262293,
              -11.199774
            ],
            [
              22.26265,
              -11.199107
            ],
            [
              22.263126,
              -11.198858
            ],
            [
              22.263412,
              -11.198406
            ],
            [
              22.265753,
              -11.197446
            ],
            [
              22.266117,
              -11.196914
            ],
            [
              22.266031,
              -11.195592
            ],
            [
              22.26646,
              -11.194691
            ],
            [
              22.266983,
              -11.194051
            ],
            [
              22.26743,
              -11.194008
            ],
            [
              22.268297,
              -11.193343
            ],
            [
              22.268719,
              -11.193435
            ],
            [
              22.269064,
              -11.192854
            ],
            [
              22.269216,
              -11.192113
            ],
            [
              22.26903,
              -11.191877
            ],
            [
              22.2693,
              -11.191253
            ],
            [
              22.269612,
              -11.191009
            ],
            [
              22.26962,
              -11.190082
            ],
            [
              22.269833,
              -11.189368
            ],
            [
              22.269469,
              -11.1887
            ],
            [
              22.26973,
              -11.188068
            ],
            [
              22.26914,
              -11.187268
            ],
            [
              22.269289,
              -11.186415
            ],
            [
              22.268864,
              -11.185956
            ],
            [
              22.268752,
              -11.18549
            ],
            [
              22.268963,
              -11.184689
            ],
            [
              22.268895,
              -11.184411
            ],
            [
              22.268555,
              -11.18407
            ],
            [
              22.268265,
              -11.184236
            ],
            [
              22.267918,
              -11.183152
            ],
            [
              22.268306,
              -11.182254
            ],
            [
              22.267868,
              -11.181521
            ],
            [
              22.268235,
              -11.180539
            ],
            [
              22.268406,
              -11.180396
            ],
            [
              22.268559,
              -11.180521
            ],
            [
              22.26866,
              -11.180303
            ],
            [
              22.268364,
              -11.179352
            ],
            [
              22.268531,
              -11.179072
            ],
            [
              22.268516,
              -11.178218
            ],
            [
              22.268188,
              -11.177521
            ],
            [
              22.267299,
              -11.176937
            ],
            [
              22.26711,
              -11.176627
            ],
            [
              22.266941,
              -11.175868
            ],
            [
              22.267091,
              -11.175373
            ],
            [
              22.265466,
              -11.174199
            ],
            [
              22.265602,
              -11.173807
            ],
            [
              22.265424,
              -11.173519
            ],
            [
              22.265753,
              -11.172438
            ],
            [
              22.265171,
              -11.171149
            ],
            [
              22.265272,
              -11.170526
            ],
            [
              22.265104,
              -11.17018
            ],
            [
              22.264535,
              -11.169704
            ],
            [
              22.264174,
              -11.168941
            ],
            [
              22.263394,
              -11.168815
            ],
            [
              22.262669,
              -11.16718
            ],
            [
              22.263697,
              -11.165905
            ],
            [
              22.263452,
              -11.164568
            ],
            [
              22.263023,
              -11.164097
            ],
            [
              22.263048,
              -11.163844
            ],
            [
              22.262677,
              -11.163086
            ],
            [
              22.263095,
              -11.160501
            ],
            [
              22.262795,
              -11.159269
            ],
            [
              22.262711,
              -11.159176
            ],
            [
              22.262558,
              -11.159363
            ],
            [
              22.262373,
              -11.159335
            ],
            [
              22.261859,
              -11.159094
            ],
            [
              22.261683,
              -11.159233
            ],
            [
              22.261284,
              -11.159043
            ],
            [
              22.260396,
              -11.159191
            ],
            [
              22.259644,
              -11.158241
            ],
            [
              22.259644,
              -11.15803
            ],
            [
              22.258484,
              -11.158043
            ],
            [
              22.258197,
              -11.157876
            ],
            [
              22.258205,
              -11.157601
            ],
            [
              22.257858,
              -11.157305
            ],
            [
              22.257597,
              -11.156674
            ],
            [
              22.257201,
              -11.15637
            ],
            [
              22.256973,
              -11.155839
            ],
            [
              22.256447,
              -11.155774
            ],
            [
              22.256049,
              -11.155103
            ],
            [
              22.255868,
              -11.155099
            ],
            [
              22.25553,
              -11.154617
            ],
            [
              22.255178,
              -11.154478
            ],
            [
              22.255288,
              -11.153421
            ],
            [
              22.255001,
              -11.153201
            ],
            [
              22.255055,
              -11.15257
            ],
            [
              22.254736,
              -11.152299
            ],
            [
              22.254681,
              -11.151879
            ],
            [
              22.25436,
              -11.151503
            ],
            [
              22.253695,
              -11.151407
            ],
            [
              22.253085,
              -11.150752
            ],
            [
              22.253095,
              -11.150317
            ],
            [
              22.25282,
              -11.149969
            ],
            [
              22.253126,
              -11.149603
            ],
            [
              22.253089,
              -11.14925
            ],
            [
              22.253357,
              -11.148988
            ],
            [
              22.252647,
              -11.148315
            ],
            [
              22.252921,
              -11.14805
            ],
            [
              22.252912,
              -11.147734
            ],
            [
              22.253319,
              -11.14764
            ],
            [
              22.253142,
              -11.147315
            ],
            [
              22.253325,
              -11.147129
            ],
            [
              22.253325,
              -11.146217
            ],
            [
              22.253156,
              -11.146032
            ],
            [
              22.253198,
              -11.145535
            ],
            [
              22.252962,
              -11.145313
            ],
            [
              22.252979,
              -11.145172
            ],
            [
              22.253327,
              -11.145142
            ],
            [
              22.253327,
              -11.144921
            ],
            [
              22.252954,
              -11.144692
            ],
            [
              22.252718,
              -11.143967
            ],
            [
              22.252844,
              -11.143841
            ],
            [
              22.252755,
              -11.143343
            ],
            [
              22.252027,
              -11.143015
            ],
            [
              22.252134,
              -11.142815
            ],
            [
              22.251449,
              -11.142636
            ],
            [
              22.251335,
              -11.142486
            ],
            [
              22.25147,
              -11.142201
            ],
            [
              22.250858,
              -11.141904
            ],
            [
              22.250262,
              -11.142159
            ],
            [
              22.250013,
              -11.142072
            ],
            [
              22.250005,
              -11.141614
            ],
            [
              22.2502,
              -11.14153
            ],
            [
              22.250131,
              -11.141212
            ],
            [
              22.249875,
              -11.14123
            ],
            [
              22.2498,
              -11.140887
            ],
            [
              22.2496,
              -11.14093
            ],
            [
              22.249617,
              -11.140386
            ],
            [
              22.249331,
              -11.140226
            ],
            [
              22.249486,
              -11.140129
            ],
            [
              22.249225,
              -11.140066
            ],
            [
              22.249095,
              -11.13978
            ],
            [
              22.248438,
              -11.139224
            ],
            [
              22.248355,
              -11.138978
            ],
            [
              22.248627,
              -11.138522
            ],
            [
              22.248134,
              -11.138305
            ],
            [
              22.248328,
              -11.138087
            ],
            [
              22.248279,
              -11.137847
            ],
            [
              22.248581,
              -11.137597
            ],
            [
              22.248663,
              -11.137126
            ],
            [
              22.248336,
              -11.136969
            ],
            [
              22.248252,
              -11.136654
            ],
            [
              22.248923,
              -11.136425
            ],
            [
              22.249217,
              -11.135891
            ],
            [
              22.248832,
              -11.135427
            ],
            [
              22.249083,
              -11.134914
            ],
            [
              22.248904,
              -11.13432
            ],
            [
              22.247417,
              -11.133725
            ],
            [
              22.247073,
              -11.133166
            ],
            [
              22.245843,
              -11.132112
            ],
            [
              22.245573,
              -11.132205
            ],
            [
              22.244882,
              -11.131666
            ],
            [
              22.244562,
              -11.13159
            ],
            [
              22.244309,
              -11.131767
            ],
            [
              22.243391,
              -11.131295
            ],
            [
              22.242868,
              -11.131469
            ],
            [
              22.242607,
              -11.131135
            ],
            [
              22.242405,
              -11.131185
            ],
            [
              22.242087,
              -11.130724
            ],
            [
              22.241457,
              -11.130657
            ],
            [
              22.241512,
              -11.130294
            ],
            [
              22.241221,
              -11.130046
            ],
            [
              22.241221,
              -11.12981
            ],
            [
              22.240888,
              -11.129804
            ],
            [
              22.240454,
              -11.130286
            ],
            [
              22.239859,
              -11.129889
            ],
            [
              22.239575,
              -11.129907
            ],
            [
              22.239342,
              -11.129618
            ],
            [
              22.238743,
              -11.129958
            ],
            [
              22.238557,
              -11.129774
            ],
            [
              22.238653,
              -11.129466
            ],
            [
              22.238467,
              -11.1291
            ],
            [
              22.238812,
              -11.128859
            ],
            [
              22.2384,
              -11.128623
            ],
            [
              22.238394,
              -11.128387
            ],
            [
              22.238176,
              -11.128272
            ],
            [
              22.237973,
              -11.128309
            ],
            [
              22.237552,
              -11.12806
            ],
            [
              22.23722,
              -11.12818
            ],
            [
              22.23679,
              -11.128684
            ],
            [
              22.236475,
              -11.128393
            ],
            [
              22.236087,
              -11.128411
            ],
            [
              22.235573,
              -11.128181
            ],
            [
              22.235409,
              -11.12786
            ],
            [
              22.234526,
              -11.127976
            ],
            [
              22.23425,
              -11.127769
            ],
            [
              22.234273,
              -11.12713
            ],
            [
              22.234652,
              -11.126759
            ],
            [
              22.234297,
              -11.12646
            ],
            [
              22.234357,
              -11.126126
            ],
            [
              22.234185,
              -11.125996
            ],
            [
              22.233928,
              -11.12619
            ],
            [
              22.233814,
              -11.125883
            ],
            [
              22.233749,
              -11.125334
            ],
            [
              22.234057,
              -11.12519
            ],
            [
              22.234116,
              -11.124853
            ],
            [
              22.233624,
              -11.123722
            ],
            [
              22.233324,
              -11.123637
            ],
            [
              22.232604,
              -11.123859
            ],
            [
              22.231623,
              -11.123613
            ],
            [
              22.231292,
              -11.124193
            ],
            [
              22.230502,
              -11.123562
            ],
            [
              22.230146,
              -11.123444
            ],
            [
              22.230094,
              -11.123742
            ],
            [
              22.229571,
              -11.123581
            ],
            [
              22.229557,
              -11.122922
            ],
            [
              22.229918,
              -11.122971
            ],
            [
              22.230107,
              -11.122831
            ],
            [
              22.2293,
              -11.121824
            ],
            [
              22.228949,
              -11.121627
            ],
            [
              22.228383,
              -11.122632
            ],
            [
              22.227923,
              -11.122347
            ],
            [
              22.22757,
              -11.122465
            ],
            [
              22.227304,
              -11.12287
            ],
            [
              22.226912,
              -11.122534
            ],
            [
              22.226449,
              -11.122739
            ],
            [
              22.226319,
              -11.123097
            ],
            [
              22.226122,
              -11.123057
            ],
            [
              22.225996,
              -11.122787
            ],
            [
              22.225313,
              -11.122937
            ],
            [
              22.224766,
              -11.122652
            ],
            [
              22.224343,
              -11.122848
            ],
            [
              22.223957,
              -11.122122
            ],
            [
              22.224046,
              -11.121522
            ],
            [
              22.22432,
              -11.121345
            ],
            [
              22.223921,
              -11.12083
            ],
            [
              22.224219,
              -11.120398
            ],
            [
              22.224177,
              -11.120107
            ],
            [
              22.223703,
              -11.119783
            ],
            [
              22.223939,
              -11.119518
            ],
            [
              22.223634,
              -11.119008
            ],
            [
              22.223582,
              -11.11859
            ],
            [
              22.222838,
              -11.118127
            ],
            [
              22.22274,
              -11.117626
            ],
            [
              22.222264,
              -11.117276
            ],
            [
              22.222474,
              -11.117129
            ],
            [
              22.222482,
              -11.11689
            ],
            [
              22.221781,
              -11.116694
            ],
            [
              22.221463,
              -11.116048
            ],
            [
              22.220495,
              -11.115456
            ],
            [
              22.220068,
              -11.11539
            ],
            [
              22.220033,
              -11.115216
            ],
            [
              22.219427,
              -11.115264
            ],
            [
              22.219053,
              -11.115967
            ],
            [
              22.218816,
              -11.115879
            ],
            [
              22.218732,
              -11.116108
            ],
            [
              22.218385,
              -11.116042
            ],
            [
              22.218504,
              -11.115756
            ],
            [
              22.218279,
              -11.114929
            ],
            [
              22.218578,
              -11.11489
            ],
            [
              22.218899,
              -11.115123
            ],
            [
              22.219109,
              -11.114418
            ],
            [
              22.218978,
              -11.114286
            ],
            [
              22.219053,
              -11.114096
            ],
            [
              22.218317,
              -11.113927
            ],
            [
              22.218535,
              -11.113781
            ],
            [
              22.218501,
              -11.113531
            ],
            [
              22.218708,
              -11.113278
            ],
            [
              22.218359,
              -11.112171
            ],
            [
              22.217792,
              -11.112225
            ],
            [
              22.217415,
              -11.112467
            ],
            [
              22.217252,
              -11.112168
            ],
            [
              22.217291,
              -11.111854
            ],
            [
              22.217137,
              -11.111785
            ],
            [
              22.217211,
              -11.111569
            ],
            [
              22.217001,
              -11.111389
            ],
            [
              22.217114,
              -11.111072
            ],
            [
              22.216989,
              -11.110931
            ],
            [
              22.217188,
              -11.110798
            ],
            [
              22.216654,
              -11.110696
            ],
            [
              22.216769,
              -11.110324
            ],
            [
              22.216672,
              -11.11011
            ],
            [
              22.216223,
              -11.11014
            ],
            [
              22.215734,
              -11.109652
            ],
            [
              22.216054,
              -11.109468
            ],
            [
              22.21613,
              -11.109226
            ],
            [
              22.216341,
              -11.10926
            ],
            [
              22.216395,
              -11.108756
            ],
            [
              22.215861,
              -11.108107
            ],
            [
              22.216229,
              -11.107845
            ],
            [
              22.216194,
              -11.107329
            ],
            [
              22.215599,
              -11.107175
            ],
            [
              22.21556,
              -11.106927
            ],
            [
              22.21536,
              -11.106881
            ],
            [
              22.215484,
              -11.106635
            ],
            [
              22.215189,
              -11.106116
            ],
            [
              22.215522,
              -11.105665
            ],
            [
              22.215793,
              -11.105558
            ],
            [
              22.215542,
              -11.105175
            ],
            [
              22.215504,
              -11.104558
            ],
            [
              22.215828,
              -11.10439
            ],
            [
              22.215743,
              -11.103891
            ],
            [
              22.215683,
              -11.103702
            ],
            [
              22.215421,
              -11.103642
            ],
            [
              22.215369,
              -11.103393
            ],
            [
              22.215427,
              -11.103263
            ],
            [
              22.215973,
              -11.10326
            ],
            [
              22.215985,
              -11.103143
            ],
            [
              22.215647,
              -11.103051
            ],
            [
              22.215651,
              -11.10285
            ],
            [
              22.216154,
              -11.102303
            ],
            [
              22.2165,
              -11.102435
            ],
            [
              22.216705,
              -11.102339
            ],
            [
              22.216504,
              -11.101643
            ],
            [
              22.216624,
              -11.10145
            ],
            [
              22.215977,
              -11.101414
            ],
            [
              22.21524,
              -11.100855
            ],
            [
              22.215578,
              -11.100368
            ],
            [
              22.214911,
              -11.100086
            ],
            [
              22.214999,
              -11.09962
            ],
            [
              22.21444,
              -11.099354
            ],
            [
              22.213918,
              -11.098651
            ],
            [
              22.213605,
              -11.09877
            ],
            [
              22.213322,
              -11.09828
            ],
            [
              22.212992,
              -11.098208
            ],
            [
              22.213397,
              -11.097507
            ],
            [
              22.213196,
              -11.097121
            ],
            [
              22.212711,
              -11.096819
            ],
            [
              22.212641,
              -11.096345
            ],
            [
              22.212828,
              -11.096018
            ],
            [
              22.212499,
              -11.095854
            ],
            [
              22.212458,
              -11.095644
            ],
            [
              22.212763,
              -11.094158
            ],
            [
              22.213378,
              -11.093862
            ],
            [
              22.212995,
              -11.093561
            ],
            [
              22.212795,
              -11.093019
            ],
            [
              22.213251,
              -11.092723
            ],
            [
              22.213419,
              -11.092299
            ],
            [
              22.213346,
              -11.091843
            ],
            [
              22.213841,
              -11.091512
            ],
            [
              22.213701,
              -11.091367
            ],
            [
              22.213228,
              -11.091447
            ],
            [
              22.213114,
              -11.091283
            ],
            [
              22.21264,
              -11.09126
            ],
            [
              22.212813,
              -11.090749
            ],
            [
              22.212663,
              -11.09049
            ],
            [
              22.212904,
              -11.090189
            ],
            [
              22.21238,
              -11.089879
            ],
            [
              22.212053,
              -11.089261
            ],
            [
              22.212526,
              -11.0886
            ],
            [
              22.21273,
              -11.087883
            ],
            [
              22.212663,
              -11.087482
            ],
            [
              22.212169,
              -11.086942
            ],
            [
              22.212494,
              -11.086662
            ],
            [
              22.212143,
              -11.086374
            ],
            [
              22.212499,
              -11.086142
            ],
            [
              22.212465,
              -11.085742
            ],
            [
              22.212161,
              -11.085258
            ],
            [
              22.211756,
              -11.085158
            ],
            [
              22.211646,
              -11.084761
            ],
            [
              22.211442,
              -11.084708
            ],
            [
              22.211569,
              -11.084351
            ],
            [
              22.21129,
              -11.084288
            ],
            [
              22.211338,
              -11.083969
            ],
            [
              22.210881,
              -11.083634
            ],
            [
              22.210829,
              -11.082665
            ],
            [
              22.211049,
              -11.082287
            ],
            [
              22.210922,
              -11.082091
            ],
            [
              22.211167,
              -11.081339
            ],
            [
              22.210594,
              -11.081083
            ],
            [
              22.210393,
              -11.080764
            ],
            [
              22.21068,
              -11.080423
            ],
            [
              22.210193,
              -11.07983
            ],
            [
              22.210931,
              -11.079753
            ],
            [
              22.210589,
              -11.079488
            ],
            [
              22.210903,
              -11.079044
            ],
            [
              22.210685,
              -11.078887
            ],
            [
              22.210507,
              -11.078992
            ],
            [
              22.21047,
              -11.078692
            ],
            [
              22.210268,
              -11.078637
            ],
            [
              22.210826,
              -11.077952
            ],
            [
              22.21074,
              -11.077747
            ],
            [
              22.211236,
              -11.077489
            ],
            [
              22.211504,
              -11.077143
            ],
            [
              22.211792,
              -11.07615
            ],
            [
              22.213381,
              -11.076152
            ],
            [
              22.214037,
              -11.075672
            ],
            [
              22.21456,
              -11.075
            ],
            [
              22.214284,
              -11.074441
            ],
            [
              22.214001,
              -11.074494
            ],
            [
              22.213341,
              -11.073985
            ],
            [
              22.213314,
              -11.073163
            ],
            [
              22.213138,
              -11.072973
            ],
            [
              22.212863,
              -11.072992
            ],
            [
              22.212828,
              -11.072776
            ],
            [
              22.213234,
              -11.072428
            ],
            [
              22.213596,
              -11.072435
            ],
            [
              22.213362,
              -11.071768
            ],
            [
              22.213654,
              -11.071496
            ],
            [
              22.213091,
              -11.071122
            ],
            [
              22.213372,
              -11.071
            ],
            [
              22.213634,
              -11.070223
            ],
            [
              22.21332,
              -11.069706
            ],
            [
              22.213507,
              -11.068984
            ],
            [
              22.21373,
              -11.068863
            ],
            [
              22.214139,
              -11.069059
            ],
            [
              22.214473,
              -11.068939
            ],
            [
              22.214566,
              -11.068591
            ],
            [
              22.214442,
              -11.068323
            ],
            [
              22.214659,
              -11.068251
            ],
            [
              22.214528,
              -11.067731
            ],
            [
              22.214666,
              -11.067125
            ],
            [
              22.214793,
              -11.066916
            ],
            [
              22.215123,
              -11.067033
            ],
            [
              22.215526,
              -11.06675
            ],
            [
              22.215496,
              -11.06657
            ],
            [
              22.215056,
              -11.066382
            ],
            [
              22.215127,
              -11.065852
            ],
            [
              22.214804,
              -11.065457
            ],
            [
              22.215069,
              -11.06526
            ],
            [
              22.215464,
              -11.065536
            ],
            [
              22.215599,
              -11.065278
            ],
            [
              22.215282,
              -11.064847
            ],
            [
              22.214676,
              -11.064844
            ],
            [
              22.215072,
              -11.064579
            ],
            [
              22.215158,
              -11.064211
            ],
            [
              22.214986,
              -11.063898
            ],
            [
              22.2151,
              -11.063746
            ],
            [
              22.214649,
              -11.063151
            ],
            [
              22.214611,
              -11.062776
            ],
            [
              22.214143,
              -11.062659
            ],
            [
              22.213782,
              -11.061905
            ],
            [
              22.212942,
              -11.06142
            ],
            [
              22.212904,
              -11.060931
            ],
            [
              22.213056,
              -11.060742
            ],
            [
              22.212818,
              -11.06003
            ],
            [
              22.213105,
              -11.059015
            ],
            [
              22.213449,
              -11.058469
            ],
            [
              22.21321,
              -11.058189
            ],
            [
              22.21333,
              -11.057996
            ],
            [
              22.213233,
              -11.057519
            ],
            [
              22.213646,
              -11.056987
            ],
            [
              22.213376,
              -11.056129
            ],
            [
              22.213531,
              -11.055775
            ],
            [
              22.213779,
              -11.055679
            ],
            [
              22.213367,
              -11.05511
            ],
            [
              22.213054,
              -11.055009
            ],
            [
              22.213086,
              -11.054771
            ],
            [
              22.212577,
              -11.054477
            ],
            [
              22.212747,
              -11.054165
            ],
            [
              22.212563,
              -11.053926
            ],
            [
              22.213302,
              -11.053426
            ],
            [
              22.213307,
              -11.052821
            ],
            [
              22.21355,
              -11.052463
            ],
            [
              22.213458,
              -11.052242
            ],
            [
              22.21383,
              -11.052027
            ],
            [
              22.213935,
              -11.051361
            ],
            [
              22.214449,
              -11.05121
            ],
            [
              22.215133,
              -11.050398
            ],
            [
              22.215101,
              -11.050178
            ],
            [
              22.214876,
              -11.050091
            ],
            [
              22.214032,
              -11.05038
            ],
            [
              22.213812,
              -11.050274
            ],
            [
              22.214367,
              -11.049861
            ],
            [
              22.214324,
              -11.049628
            ],
            [
              22.213678,
              -11.04937
            ],
            [
              22.21389,
              -11.049104
            ],
            [
              22.21361,
              -11.04859
            ],
            [
              22.214059,
              -11.048494
            ],
            [
              22.214784,
              -11.047774
            ],
            [
              22.214665,
              -11.047287
            ],
            [
              22.215027,
              -11.047113
            ],
            [
              22.214954,
              -11.046851
            ],
            [
              22.215225,
              -11.046539
            ],
            [
              22.215468,
              -11.046617
            ],
            [
              22.215619,
              -11.046255
            ],
            [
              22.216055,
              -11.046383
            ],
            [
              22.216175,
              -11.046126
            ],
            [
              22.216665,
              -11.045966
            ],
            [
              22.216381,
              -11.045323
            ],
            [
              22.216675,
              -11.045149
            ],
            [
              22.216748,
              -11.044741
            ],
            [
              22.215697,
              -11.043676
            ],
            [
              22.215697,
              -11.043401
            ],
            [
              22.215275,
              -11.043167
            ],
            [
              22.214788,
              -11.041697
            ],
            [
              22.2155,
              -11.040084
            ],
            [
              22.21567,
              -11.039955
            ],
            [
              22.215909,
              -11.040036
            ],
            [
              22.216101,
              -11.039799
            ],
            [
              22.216087,
              -11.039483
            ],
            [
              22.215858,
              -11.039166
            ],
            [
              22.215918,
              -11.038868
            ],
            [
              22.215739,
              -11.038689
            ],
            [
              22.216037,
              -11.038092
            ],
            [
              22.215417,
              -11.036743
            ],
            [
              22.2155,
              -11.036005
            ],
            [
              22.21506,
              -11.035986
            ],
            [
              22.214949,
              -11.035835
            ],
            [
              22.215149,
              -11.035681
            ],
            [
              22.215105,
              -11.035027
            ],
            [
              22.215957,
              -11.034065
            ],
            [
              22.215637,
              -11.033825
            ],
            [
              22.215748,
              -11.032976
            ],
            [
              22.214933,
              -11.032514
            ],
            [
              22.215335,
              -11.031783
            ],
            [
              22.215394,
              -11.031285
            ],
            [
              22.21623,
              -11.031403
            ],
            [
              22.217,
              -11.030219
            ],
            [
              22.21707,
              -11.029869
            ],
            [
              22.217448,
              -11.029574
            ],
            [
              22.217771,
              -11.029604
            ],
            [
              22.218005,
              -11.029232
            ],
            [
              22.21798,
              -11.02869
            ],
            [
              22.218197,
              -11.028135
            ],
            [
              22.217927,
              -11.027854
            ],
            [
              22.218389,
              -11.027604
            ],
            [
              22.218178,
              -11.027036
            ],
            [
              22.217722,
              -11.027065
            ],
            [
              22.21712,
              -11.02642
            ],
            [
              22.217328,
              -11.025868
            ],
            [
              22.217194,
              -11.025725
            ],
            [
              22.216806,
              -11.025681
            ],
            [
              22.2167,
              -11.026407
            ],
            [
              22.21637,
              -11.02635
            ],
            [
              22.216649,
              -11.024516
            ],
            [
              22.216307,
              -11.023955
            ],
            [
              22.21586,
              -11.023687
            ],
            [
              22.215781,
              -11.023289
            ],
            [
              22.216358,
              -11.022693
            ],
            [
              22.216287,
              -11.022298
            ],
            [
              22.216594,
              -11.022166
            ],
            [
              22.216594,
              -11.021439
            ],
            [
              22.216341,
              -11.021196
            ],
            [
              22.216431,
              -11.020833
            ],
            [
              22.216093,
              -11.020278
            ],
            [
              22.215681,
              -11.020114
            ],
            [
              22.215915,
              -11.020918
            ],
            [
              22.215478,
              -11.021171
            ],
            [
              22.215304,
              -11.020764
            ],
            [
              22.215443,
              -11.020491
            ],
            [
              22.215363,
              -11.020168
            ],
            [
              22.21512,
              -11.020258
            ],
            [
              22.215105,
              -11.020546
            ],
            [
              22.214793,
              -11.020565
            ],
            [
              22.21452,
              -11.019965
            ],
            [
              22.215097,
              -11.018926
            ],
            [
              22.214361,
              -11.018754
            ],
            [
              22.213875,
              -11.018034
            ],
            [
              22.21345,
              -11.017989
            ],
            [
              22.213542,
              -11.018129
            ],
            [
              22.213418,
              -11.018233
            ],
            [
              22.212554,
              -11.01792
            ],
            [
              22.21247,
              -11.017021
            ],
            [
              22.212073,
              -11.01656
            ],
            [
              22.212207,
              -11.016366
            ],
            [
              22.212425,
              -11.016421
            ],
            [
              22.2125,
              -11.01605
            ],
            [
              22.212228,
              -11.015747
            ],
            [
              22.211676,
              -11.015776
            ],
            [
              22.211159,
              -11.015508
            ],
            [
              22.210609,
              -11.014515
            ],
            [
              22.210832,
              -11.013552
            ],
            [
              22.210684,
              -11.013048
            ],
            [
              22.21038,
              -11.012703
            ],
            [
              22.209805,
              -11.012564
            ],
            [
              22.209606,
              -11.012033
            ],
            [
              22.209254,
              -11.012112
            ],
            [
              22.209139,
              -11.011978
            ],
            [
              22.209164,
              -11.011363
            ],
            [
              22.208966,
              -11.010747
            ],
            [
              22.209139,
              -11.010305
            ],
            [
              22.208986,
              -11.009789
            ],
            [
              22.209254,
              -11.009089
            ],
            [
              22.209338,
              -11.007908
            ],
            [
              22.20902,
              -11.007432
            ],
            [
              22.209134,
              -11.007288
            ],
            [
              22.209522,
              -11.007422
            ],
            [
              22.209873,
              -11.007277
            ],
            [
              22.209843,
              -11.006915
            ],
            [
              22.209479,
              -11.006884
            ],
            [
              22.209195,
              -11.006591
            ],
            [
              22.20934,
              -11.006339
            ],
            [
              22.20974,
              -11.006271
            ],
            [
              22.209899,
              -11.005874
            ],
            [
              22.2097,
              -11.005516
            ],
            [
              22.209669,
              -11.004679
            ],
            [
              22.208906,
              -11.003655
            ],
            [
              22.208589,
              -11.003566
            ],
            [
              22.208441,
              -11.003832
            ],
            [
              22.208255,
              -11.003823
            ],
            [
              22.208331,
              -11.003271
            ],
            [
              22.208226,
              -11.003169
            ],
            [
              22.207378,
              -11.003273
            ],
            [
              22.206737,
              -11.003069
            ],
            [
              22.206961,
              -11.00258
            ],
            [
              22.206661,
              -11.00209
            ],
            [
              22.207303,
              -11.001015
            ],
            [
              22.207917,
              -11.000491
            ],
            [
              22.207737,
              -11.000006
            ],
            [
              22.207745797927466,
              -11
            ],
            [
              22,
              -11
            ],
            [
              22,
              -12
            ]
          ]
        ]
      }
    },
    {
      "type": "Feature",
      "properties": {
        "osm_id": -192795,
        "boundary": "administrative",
        "admin_level": 2,
        "parents": null,
        "name": "Democratic Republic of the Congo",
        "local_name": "République démocratique du Congo",
        "name_en": "Democratic Republic of the Congo",
        "all_tags": {
          "flag": "http://upload.wikimedia.org/wikipedia/commons/6/6f/Flag_of_the_Democratic_Republic_of_the_Congo.svg",
          "name": "République démocratique du Congo",
          "name:ab": "Адемократиатә Республика Конго",
          "name:af": "Demokratiese Republiek van die Kongo",
          "name:am": "ኮንጎ ዲሞክራሲያዊ ሪፐብሊክ",
          "name:an": "Republica Democratica d'o Congo",
          "name:ar": "جمهورية الكونغو الديمقراطية",
          "name:az": "Konqo Demokratik Respublikası",
          "name:be": "Дэмакратычная Рэспубліка Конга",
          "name:bg": "Демократична република Конго",
          "name:bm": "Kongo ka Bɛjɛfanga Fasojamana",
          "name:bn": "গণতান্ত্রিক কঙ্গো প্রজাতন্ত্র",
          "name:bo": "ཀོང་གོ་མི་དམངས་དམངས་གཙོ།",
          "name:br": "Republik Demokratel Kongo",
          "name:bs": "Demokratska Republika Kongo",
          "name:ca": "República Democràtica del Congo",
          "name:ce": "Халкъа куьйгаллийца йолу Пачхьалкх Конго",
          "name:cs": "Konžská demokratická republika",
          "name:cv": "Конго Демократиллĕ Республики",
          "name:cy": "Gweriniaeth Ddemocrataidd Congo",
          "name:da": "Demokratiske Republik Congo",
          "name:de": "Demokratische Republik Kongo",
          "name:dv": "ކޮންގޯ (ދިމިޤްރާޠީ ޖުމްހޫރިއްޔާ)",
          "name:el": "Λαϊκή Δημοκρατία του Κονγκό",
          "name:en": "Democratic Republic of the Congo",
          "name:eo": "Demokratia Respubliko Kongo",
          "name:es": "República Democrática del Congo",
          "name:et": "Kongo Demokraatlik Vabariik",
          "name:eu": "Kongoko Errepublika Demokratikoa",
          "name:fa": "جمهوری دموکراتیک کنگو",
          "name:fi": "Kongon demokraattinen tasavalta",
          "name:fo": "Fólkaræðiliga Lýðveldið Kongo",
          "name:fr": "République démocratique du Congo",
          "name:fy": "Demokratyske Republyk Kongo",
          "name:ga": "Poblacht Dhaonlathach an Chongó",
          "name:gd": "Poblachd Dheamocrach na Congo",
          "name:gl": "República Democrática do Congo",
          "name:gn": "Tetã Jekopytyjoja Kongo",
          "name:gv": "Pobblaght Gheynlagh ny Congo",
          "name:ha": "Jamhuriyar dimokuradiyya Kwango",
          "name:he": "הרפובליקה הדמוקרטית של קונגו",
          "name:hi": "कांगो लोकतान्त्रिक गणराज्य",
          "name:hr": "Demokratska Republika Kongo",
          "name:hu": "Kongói Demokratikus Köztársaság",
          "name:hy": "Կոնգոյի Դեմոկրատական Հանրապետություն",
          "name:ia": "Republica Democratic del Congo",
          "name:id": "Republik Demokratik Kongo",
          "name:ie": "Democratic Republic de Congo",
          "name:io": "Demokratial Republiko Kongo",
          "name:is": "Lýðræðislega Lýðveldið Kongó",
          "name:it": "Repubblica Democratica del Congo",
          "name:ja": "コンゴ民主共和国",
          "name:jv": "Republik Dhémokratis Kongo",
          "name:ka": "კონგოს დემოკრატიული რესპუბლიკა",
          "name:kg": "Repubilika ya Kongo ya Dimokalasi",
          "name:kk": "Конго Демократиялық Республикасы",
          "name:kn": "ಕಾಂಗೋ ಪ್ರಜಾಸತ್ತಾತ್ಮಕ ಗಣರಾಜ್ಯ",
          "name:ko": "콩고 민주 공화국",
          "name:ku": "Kongoya Demokratîk",
          "name:kw": "Repoblek Werinel Kongo",
          "name:la": "Res publica democratica Congensis",
          "name:lb": "Demokratesch Republik Kongo",
          "name:lt": "Kongo Demokratinė Respublika",
          "name:lv": "Kongo Demokrātiskā Republika",
          "name:mg": "Repoblika Demokratikan'i Kongo",
          "name:mi": "Te Whenua o Kōngo",
          "name:mk": "Демократска Република Конго",
          "name:ml": "ഡെമോക്രാറ്റിക് റിപബ്ലിക്ക് ഓഫ് കോംഗോ",
          "name:mn": "Бүгд Найрамдах Ардчилсан Конго Улс",
          "name:mr": "काँगोचे लोकशाही प्रजासत्ताक",
          "name:ms": "Republik Demokratik Congo",
          "name:my": "ကွန်ဂိုဒီမိုကရက်တစ်သမ္မတနိုင်ငံ",
          "name:na": "Ripubrikit Engame Kongo",
          "name:nb": "Republikken Kongo",
          "name:ne": "प्रजातान्त्रिक गणतन्त्र कंगो",
          "name:nl": "Democratische Republiek Congo",
          "name:nn": "Den demokratiske republikken Kongo",
          "name:no": "Den demokratiske republikken Kongo",
          "name:nv": "Kéyah Káango Shádiʼááhjí Siʼánígíí",
          "name:oc": "Republica Democratica de Còngo",
          "name:or": "କଙ୍ଗୋ",
          "name:os": "Конгойы Демократон Республикæ",
          "name:pa": "ਕਾਂਗੋ ਲੋਕਤੰਤਰੀ ਗਣਰਾਜ",
          "name:pl": "Demokratyczna Republika Konga",
          "name:pt": "República Democrática do Congo",
          "name:qu": "Kungu Runakamaq Republika",
          "name:ro": "Republica Democrată Congo",
          "name:ru": "Демократическая Республика Конго",
          "name:rw": "Repubulika Iharanira Demokarasi ya Kongo",
          "name:sc": "Repùbrica Democràtiga de su Congo",
          "name:se": "Kongo demokráhtalaš dásseváldi",
          "name:sg": "Kùodùorùosêse tî Ngunuhalëzo tî Kongö",
          "name:sh": "Demokratska Republika Kongo",
          "name:si": "කොංගෝ ප්රජාතන්ත්රවාදී ජනරජය",
          "name:sk": "Kongo",
          "name:sl": "Kongo",
          "name:sn": "Democratic Republic of the Congo",
          "name:so": "Jamhuuriyada Dimuqaraadiga Kongo",
          "name:sq": "Republika Demokratike e Kongos",
          "name:sr": "Демократска Република Конго",
          "name:ss": "IKhongo",
          "name:su": "Républik Démokratik Kongo",
          "name:sv": "Demokratiska Republiken Kongo",
          "name:sw": "Jamhuri ya Kidemokrasia ya Kongo",
          "name:ta": "காங்கோ மக்களாட்சிக் குடியரசு",
          "name:th": "สาธารณรัฐประชาธิปไตยคองโก",
          "name:tk": "Kongo Demokratik Respublikasy",
          "name:tl": "Demokratikong Republika ng Konggo",
          "name:tr": "Demokratik Kongo Cumhuriyeti",
          "name:ts": "Democratic Republic of the Congo",
          "name:tt": "Конго Демократик Җөмһүрияте",
          "name:ug": "كونگو دېموكراتىك جۇمھۇرىيىتى",
          "name:uk": "Демократична Республіка Конго",
          "name:ur": "جمہوری جمہوریہ کانگو",
          "name:uz": "Kongo DR",
          "name:vi": "Cộng hòa Dân chủ Congo",
          "name:vo": "Kongoän (Repüblikän Demokratik)",
          "name:wa": "Republike democratike do Congo",
          "name:wo": "Republik Demokaraatik bu Kongóo",
          "name:yi": "דעמאקראטישע רעפובליק פון קאנגא",
          "name:yo": "Orílẹ̀-èdè Olómìnira Olóṣèlú ilẹ̀ Kóngò",
          "name:za": "Ganggoj Minzcuj Gunghozgoz",
          "name:zh": "刚果民主共和国 / 剛果民主共和國",
          "name:zu": "IRiphabliki Labantu weKongo",
          "alt_name": "Congo-Kinshasa",
          "boundary": "administrative",
          "currency": "CDF",
          "name:ace": "Republik Demokratik Kongo",
          "name:als": "Demokratische Republik Kongo",
          "name:ang": "Folcrīcelicu Cynewīse þæs Congwes",
          "name:arc": "ܩܘܛܢܝܘܬܐ ܕܩܘܢܓܘ ܕܝܡܘܩܪܛܝܬܐ",
          "name:arz": "جمهورية كونجو الديموقراطيه",
          "name:ast": "República Democrática d'El Congu",
          "name:bcl": "Demokratikong Republika kan Kongo",
          "name:bjn": "Ripublik Demokratik Kongo",
          "name:bpy": "গনতান্ত্রিক কঙ্গো প্রজাতন্ত্র",
          "name:bxr": "Ардчилсан Конго Улас",
          "name:ceb": "Republikang Demokratiko sa Congo",
          "name:chy": "Democratic Republic of the Congo",
          "name:ckb": "کۆماری دیموکراتی کۆنگۆ",
          "name:din": "Paankoc Mïïrlockoc de Koŋgo",
          "name:diq": "Cumhuriyetê Kongoyê Demokratiki",
          "name:dsb": "Demokratiska republika Kongo",
          "name:ext": "Repúbrica Democrática del Congu",
          "name:frp": "Rèpublica dèmocratica du Congô",
          "name:gag": "Kongo Demokratik Respublikası",
          "name:gan": "剛果民主共和國",
          "name:hif": "Democratic Republic of the Congo",
          "name:hsb": "Demokratiska republika Kongo",
          "name:ilo": "Demokratiko a Republika iti Kongo",
          "name:jbo": "roltrusi'o zei.kongos",
          "name:ksh": "Demokratische Republek Kongo",
          "name:lad": "Repuvlika Demokratika del Kongo",
          "name:lez": "Демократиядин Республика Конго",
          "name:lij": "Repubbrica Democratica do Congo",
          "name:lmo": "Repüblica Demucratica del Congo",
          "name:ltg": "Konga Demokratiskuo Republika",
          "name:lzh": "剛果民主共和國",
          "name:nah": "Tlācatlahtohcāyōtl Tlācatēpacholiztli in Congo",
          "name:nan": "Congo Bîn-chú Kiōng-hô-kok",
          "name:nds": "Demokraatsche Republiek Kongo",
          "name:nov": "Demokrati Republike de Kongo",
          "name:nso": "Democratic Republic of the Congo",
          "name:pam": "Demokratika Republika ning Kongo",
          "name:pap": "Republika demokratika di Kongo",
          "name:pih": "Demokratik Repablik o' t' Kongo",
          "name:pms": "Repùblica Democràtica dël Còngo",
          "name:pnb": "لوکراج کانگو",
          "name:rue": "Демократічна Републіка Конґо",
          "name:sah": "Конго Демократ Өрөспүүбүлүкэтэ",
          "name:scn": "Ripùbbrica Dimucràtica dû Congu",
          "name:sco": "Democratic Republic o the Congo",
          "name:smn": "Kongo demokraatlâš täsiväldi",
          "name:sms": "Kongo demokraattlaž tääʹssväʹldd",
          "name:stq": "Demokratiske Republik Kongo",
          "name:szl": "Dymokratyczno Republika Kůnga",
          "name:vec": "Republica Democratica del Congo",
          "name:vro": "Kongo Demokraatlik Vabariik",
          "name:war": "Republika Demokratika han Congo",
          "name:wuu": "刚果民主共和国",
          "name:xal": "Конһлмудин Улс Орн",
          "name:yue": "剛果民主共和國",
          "way_area": "190.118",
          "wikidata": "Q974",
          "ISO3166-1": "CD",
          "wikipedia": "fr:République démocratique du Congo",
          "short_name": "RD Congo",
          "admin_level": "2",
          "alt_name:en": "Congo-Kinshasa",
          "alt_name:eo": "Kongo Kinŝasa",
          "alt_name:es": "Congo-Kinsasa",
          "alt_name:fr": "Congo-Kinshasa",
          "alt_name:ht": "Kongo-Kinchasa",
          "alt_name:is": "Austur-Kongó;Kongó-Kinsasa",
          "alt_name:li": "Kongo-Kinshasa",
          "alt_name:ln": "Kongó-Kinsásá",
          "alt_name:nl": "Congo-Kinshasa",
          "alt_name:sv": "Kongo-Kinshasa",
          "alt_name:wo": "Kongóo-Kinshasa",
          "alt_name:crh": "Kongo-Kinşasa",
          "alt_name:vls": "Congo-Kinshasa",
          "name:bat-smg": "Kuonga Demuokratėnė Respoblėka",
          "name:zh-Hans": "刚果民主共和国",
          "name:zh-Hant": "剛果民主共和國",
          "short_name:1": "DRC",
          "short_name:2": "RDC",
          "name:roa-tara": "Repubbleche Democrateche d'u Congo",
          "official_name": "République démocratique du Congo",
          "short_name:de": "DR Kongo",
          "short_name:en": "DR Congo",
          "short_name:es": "RD Congo",
          "short_name:fr": "RD Congo",
          "short_name:id": "RD Kongo",
          "short_name:is": "LL Kongó",
          "short_name:it": "RD Congo",
          "short_name:kg": "Kongo RD",
          "short_name:pt": "RP Congo",
          "short_name:ru": "ДР Конго",
          "short_name:sr": "ДР Конго",
          "short_name:sw": "JK Kongo",
          "short_name:tk": "Kongo DR",
          "short_name:zu": "IL weKongo",
          "name:be-tarask": "Дэмакратычная Рэспубліка Конга",
          "short_name:nov": "DR Kongo",
          "ISO3166-1:alpha2": "CD",
          "ISO3166-1:alpha3": "COD",
          "default_language": "fr",
          "official_name:en": "Democratic Republic of the Congo",
          "official_name:fr": "République démocratique du Congo",
          "official_name:kg": "Repubilika ya Kongo Demokratiki",
          "official_name:ku": "Komara Demokratîk a Kongo",
          "official_name:ln": "Republiki ya Kongó Demokratíki",
          "official_name:ro": "Republica Democrată Congo",
          "official_name:sl": "Demokratična republika Kongo",
          "official_name:sw": "Jamhuri ya Kidemokrasia ya Kongo",
          "ISO3166-1:numeric": "180",
          "official_name:lua": "Ditunga dia Kongu wa Mungalaata",
          "old_name:1971-1997": "Zaïre",
          "old_name:du:1908-1960": "Belgisch-Congo",
          "old_name:en:1885-1908": "Congo Free State",
          "old_name:en:1908-1960": "Belgian Congo",
          "old_name:en:1971-1997": "Zaire",
          "old_name:fr:1908-1960": "Congo Belge",
          "old_name:fr:1960-1966": "Republic of Congo-Léopoldville",
          "old_name:fr:1971-1997": "Zaïre",
          "old_name:is:1971-1997": "Saír",
          "old_name:sk:1971-1997": "Zair"
        }
      },
      "geometry": {
        "type": "Polygon",
        "coordinates": [
          [
            [
              22.206661,
              -11.00209
            ],
            [
              22.206961,
              -11.00258
            ],
            [
              22.206737,
              -11.003069
            ],
            [
              22.207378,
              -11.003273
            ],
            [
              22.208226,
              -11.003169
            ],
            [
              22.208331,
              -11.003271
            ],
            [
              22.208255,
              -11.003823
            ],
            [
              22.208441,
              -11.003832
            ],
            [
              22.208589,
              -11.003566
            ],
            [
              22.208906,
              -11.003655
            ],
            [
              22.209669,
              -11.004679
            ],
            [
              22.2097,
              -11.005516
            ],
            [
              22.209899,
              -11.005874
            ],
            [
              22.20974,
              -11.006271
            ],
            [
              22.20934,
              -11.006339
            ],
            [
              22.209195,
              -11.006591
            ],
            [
              22.209479,
              -11.006884
            ],
            [
              22.209843,
              -11.006915
            ],
            [
              22.209873,
              -11.007277
            ],
            [
              22.209522,
              -11.007422
            ],
            [
              22.209134,
              -11.007288
            ],
            [
              22.20902,
              -11.007432
            ],
            [
              22.209338,
              -11.007908
            ],
            [
              22.209254,
              -11.009089
            ],
            [
              22.208986,
              -11.009789
            ],
            [
              22.209139,
              -11.010305
            ],
            [
              22.208966,
              -11.010747
            ],
            [
              22.209164,
              -11.011363
            ],
            [
              22.209139,
              -11.011978
            ],
            [
              22.209254,
              -11.012112
            ],
            [
              22.209606,
              -11.012033
            ],
            [
              22.209805,
              -11.012564
            ],
            [
              22.21038,
              -11.012703
            ],
            [
              22.210684,
              -11.013048
            ],
            [
              22.210832,
              -11.013552
            ],
            [
              22.210609,
              -11.014515
            ],
            [
              22.211159,
              -11.015508
            ],
            [
              22.211676,
              -11.015776
            ],
            [
              22.212228,
              -11.015747
            ],
            [
              22.2125,
              -11.01605
            ],
            [
              22.212425,
              -11.016421
            ],
            [
              22.212207,
              -11.016366
            ],
            [
              22.212073,
              -11.01656
            ],
            [
              22.21247,
              -11.017021
            ],
            [
              22.212554,
              -11.01792
            ],
            [
              22.213418,
              -11.018233
            ],
            [
              22.213542,
              -11.018129
            ],
            [
              22.21345,
              -11.017989
            ],
            [
              22.213875,
              -11.018034
            ],
            [
              22.214361,
              -11.018754
            ],
            [
              22.215097,
              -11.018926
            ],
            [
              22.21452,
              -11.019965
            ],
            [
              22.214793,
              -11.020565
            ],
            [
              22.215105,
              -11.020546
            ],
            [
              22.21512,
              -11.020258
            ],
            [
              22.215363,
              -11.020168
            ],
            [
              22.215443,
              -11.020491
            ],
            [
              22.215304,
              -11.020764
            ],
            [
              22.215478,
              -11.021171
            ],
            [
              22.215915,
              -11.020918
            ],
            [
              22.215681,
              -11.020114
            ],
            [
              22.216093,
              -11.020278
            ],
            [
              22.216431,
              -11.020833
            ],
            [
              22.216341,
              -11.021196
            ],
            [
              22.216594,
              -11.021439
            ],
            [
              22.216594,
              -11.022166
            ],
            [
              22.216287,
              -11.022298
            ],
            [
              22.216358,
              -11.022693
            ],
            [
              22.215781,
              -11.023289
            ],
            [
              22.21586,
              -11.023687
            ],
            [
              22.216307,
              -11.023955
            ],
            [
              22.216649,
              -11.024516
            ],
            [
              22.21637,
              -11.02635
            ],
            [
              22.2167,
              -11.026407
            ],
            [
              22.216806,
              -11.025681
            ],
            [
              22.217194,
              -11.025725
            ],
            [
              22.217328,
              -11.025868
            ],
            [
              22.21712,
              -11.02642
            ],
            [
              22.217722,
              -11.027065
            ],
            [
              22.218178,
              -11.027036
            ],
            [
              22.218389,
              -11.027604
            ],
            [
              22.217927,
              -11.027854
            ],
            [
              22.218197,
              -11.028135
            ],
            [
              22.21798,
              -11.02869
            ],
            [
              22.218005,
              -11.029232
            ],
            [
              22.217771,
              -11.029604
            ],
            [
              22.217448,
              -11.029574
            ],
            [
              22.21707,
              -11.029869
            ],
            [
              22.217,
              -11.030219
            ],
            [
              22.21623,
              -11.031403
            ],
            [
              22.215394,
              -11.031285
            ],
            [
              22.215335,
              -11.031783
            ],
            [
              22.214933,
              -11.032514
            ],
            [
              22.215748,
              -11.032976
            ],
            [
              22.215637,
              -11.033825
            ],
            [
              22.215957,
              -11.034065
            ],
            [
              22.215105,
              -11.035027
            ],
            [
              22.215149,
              -11.035681
            ],
            [
              22.214949,
              -11.035835
            ],
            [
              22.21506,
              -11.035986
            ],
            [
              22.2155,
              -11.036005
            ],
            [
              22.215417,
              -11.036743
            ],
            [
              22.216037,
              -11.038092
            ],
            [
              22.215739,
              -11.038689
            ],
            [
              22.215918,
              -11.038868
            ],
            [
              22.215858,
              -11.039166
            ],
            [
              22.216087,
              -11.039483
            ],
            [
              22.216101,
              -11.039799
            ],
            [
              22.215909,
              -11.040036
            ],
            [
              22.21567,
              -11.039955
            ],
            [
              22.2155,
              -11.040084
            ],
            [
              22.214788,
              -11.041697
            ],
            [
              22.215275,
              -11.043167
            ],
            [
              22.215697,
              -11.043401
            ],
            [
              22.215697,
              -11.043676
            ],
            [
              22.216748,
              -11.044741
            ],
            [
              22.216675,
              -11.045149
            ],
            [
              22.216381,
              -11.045323
            ],
            [
              22.216665,
              -11.045966
            ],
            [
              22.216175,
              -11.046126
            ],
            [
              22.216055,
              -11.046383
            ],
            [
              22.215619,
              -11.046255
            ],
            [
              22.215468,
              -11.046617
            ],
            [
              22.215225,
              -11.046539
            ],
            [
              22.214954,
              -11.046851
            ],
            [
              22.215027,
              -11.047113
            ],
            [
              22.214665,
              -11.047287
            ],
            [
              22.214784,
              -11.047774
            ],
            [
              22.214059,
              -11.048494
            ],
            [
              22.21361,
              -11.04859
            ],
            [
              22.21389,
              -11.049104
            ],
            [
              22.213678,
              -11.04937
            ],
            [
              22.214324,
              -11.049628
            ],
            [
              22.214367,
              -11.049861
            ],
            [
              22.213812,
              -11.050274
            ],
            [
              22.214032,
              -11.05038
            ],
            [
              22.214876,
              -11.050091
            ],
            [
              22.215101,
              -11.050178
            ],
            [
              22.215133,
              -11.050398
            ],
            [
              22.214449,
              -11.05121
            ],
            [
              22.213935,
              -11.051361
            ],
            [
              22.21383,
              -11.052027
            ],
            [
              22.213458,
              -11.052242
            ],
            [
              22.21355,
              -11.052463
            ],
            [
              22.213307,
              -11.052821
            ],
            [
              22.213302,
              -11.053426
            ],
            [
              22.212563,
              -11.053926
            ],
            [
              22.212747,
              -11.054165
            ],
            [
              22.212577,
              -11.054477
            ],
            [
              22.213086,
              -11.054771
            ],
            [
              22.213054,
              -11.055009
            ],
            [
              22.213367,
              -11.05511
            ],
            [
              22.213779,
              -11.055679
            ],
            [
              22.213531,
              -11.055775
            ],
            [
              22.213376,
              -11.056129
            ],
            [
              22.213646,
              -11.056987
            ],
            [
              22.213233,
              -11.057519
            ],
            [
              22.21333,
              -11.057996
            ],
            [
              22.21321,
              -11.058189
            ],
            [
              22.213449,
              -11.058469
            ],
            [
              22.213105,
              -11.059015
            ],
            [
              22.212818,
              -11.06003
            ],
            [
              22.213056,
              -11.060742
            ],
            [
              22.212904,
              -11.060931
            ],
            [
              22.212942,
              -11.06142
            ],
            [
              22.213782,
              -11.061905
            ],
            [
              22.214143,
              -11.062659
            ],
            [
              22.214611,
              -11.062776
            ],
            [
              22.214649,
              -11.063151
            ],
            [
              22.2151,
              -11.063746
            ],
            [
              22.214986,
              -11.063898
            ],
            [
              22.215158,
              -11.064211
            ],
            [
              22.215072,
              -11.064579
            ],
            [
              22.214676,
              -11.064844
            ],
            [
              22.215282,
              -11.064847
            ],
            [
              22.215599,
              -11.065278
            ],
            [
              22.215464,
              -11.065536
            ],
            [
              22.215069,
              -11.06526
            ],
            [
              22.214804,
              -11.065457
            ],
            [
              22.215127,
              -11.065852
            ],
            [
              22.215056,
              -11.066382
            ],
            [
              22.215496,
              -11.06657
            ],
            [
              22.215526,
              -11.06675
            ],
            [
              22.215123,
              -11.067033
            ],
            [
              22.214793,
              -11.066916
            ],
            [
              22.214666,
              -11.067125
            ],
            [
              22.214528,
              -11.067731
            ],
            [
              22.214659,
              -11.068251
            ],
            [
              22.214442,
              -11.068323
            ],
            [
              22.214566,
              -11.068591
            ],
            [
              22.214473,
              -11.068939
            ],
            [
              22.214139,
              -11.069059
            ],
            [
              22.21373,
              -11.068863
            ],
            [
              22.213507,
              -11.068984
            ],
            [
              22.21332,
              -11.069706
            ],
            [
              22.213634,
              -11.070223
            ],
            [
              22.213372,
              -11.071
            ],
            [
              22.213091,
              -11.071122
            ],
            [
              22.213654,
              -11.071496
            ],
            [
              22.213362,
              -11.071768
            ],
            [
              22.213596,
              -11.072435
            ],
            [
              22.213234,
              -11.072428
            ],
            [
              22.212828,
              -11.072776
            ],
            [
              22.212863,
              -11.072992
            ],
            [
              22.213138,
              -11.072973
            ],
            [
              22.213314,
              -11.073163
            ],
            [
              22.213341,
              -11.073985
            ],
            [
              22.214001,
              -11.074494
            ],
            [
              22.214284,
              -11.074441
            ],
            [
              22.21456,
              -11.075
            ],
            [
              22.214037,
              -11.075672
            ],
            [
              22.213381,
              -11.076152
            ],
            [
              22.211792,
              -11.07615
            ],
            [
              22.211504,
              -11.077143
            ],
            [
              22.211236,
              -11.077489
            ],
            [
              22.21074,
              -11.077747
            ],
            [
              22.210826,
              -11.077952
            ],
            [
              22.210268,
              -11.078637
            ],
            [
              22.21047,
              -11.078692
            ],
            [
              22.210507,
              -11.078992
            ],
            [
              22.210685,
              -11.078887
            ],
            [
              22.210903,
              -11.079044
            ],
            [
              22.210589,
              -11.079488
            ],
            [
              22.210931,
              -11.079753
            ],
            [
              22.210193,
              -11.07983
            ],
            [
              22.21068,
              -11.080423
            ],
            [
              22.210393,
              -11.080764
            ],
            [
              22.210594,
              -11.081083
            ],
            [
              22.211167,
              -11.081339
            ],
            [
              22.210922,
              -11.082091
            ],
            [
              22.211049,
              -11.082287
            ],
            [
              22.210829,
              -11.082665
            ],
            [
              22.210881,
              -11.083634
            ],
            [
              22.211338,
              -11.083969
            ],
            [
              22.21129,
              -11.084288
            ],
            [
              22.211569,
              -11.084351
            ],
            [
              22.211442,
              -11.084708
            ],
            [
              22.211646,
              -11.084761
            ],
            [
              22.211756,
              -11.085158
            ],
            [
              22.212161,
              -11.085258
            ],
            [
              22.212465,
              -11.085742
            ],
            [
              22.212499,
              -11.086142
            ],
            [
              22.212143,
              -11.086374
            ],
            [
              22.212494,
              -11.086662
            ],
            [
              22.212169,
              -11.086942
            ],
            [
              22.212663,
              -11.087482
            ],
            [
              22.21273,
              -11.087883
            ],
            [
              22.212526,
              -11.0886
            ],
            [
              22.212053,
              -11.089261
            ],
            [
              22.21238,
              -11.089879
            ],
            [
              22.212904,
              -11.090189
            ],
            [
              22.212663,
              -11.09049
            ],
            [
              22.212813,
              -11.090749
            ],
            [
              22.21264,
              -11.09126
            ],
            [
              22.213114,
              -11.091283
            ],
            [
              22.213228,
              -11.091447
            ],
            [
              22.213701,
              -11.091367
            ],
            [
              22.213841,
              -11.091512
            ],
            [
              22.213346,
              -11.091843
            ],
            [
              22.213419,
              -11.092299
            ],
            [
              22.213251,
              -11.092723
            ],
            [
              22.212795,
              -11.093019
            ],
            [
              22.212995,
              -11.093561
            ],
            [
              22.213378,
              -11.093862
            ],
            [
              22.212763,
              -11.094158
            ],
            [
              22.212458,
              -11.095644
            ],
            [
              22.212499,
              -11.095854
            ],
            [
              22.212828,
              -11.096018
            ],
            [
              22.212641,
              -11.096345
            ],
            [
              22.212711,
              -11.096819
            ],
            [
              22.213196,
              -11.097121
            ],
            [
              22.213397,
              -11.097507
            ],
            [
              22.212992,
              -11.098208
            ],
            [
              22.213322,
              -11.09828
            ],
            [
              22.213605,
              -11.09877
            ],
            [
              22.213918,
              -11.098651
            ],
            [
              22.21444,
              -11.099354
            ],
            [
              22.214999,
              -11.09962
            ],
            [
              22.214911,
              -11.100086
            ],
            [
              22.215578,
              -11.100368
            ],
            [
              22.21524,
              -11.100855
            ],
            [
              22.215977,
              -11.101414
            ],
            [
              22.216624,
              -11.10145
            ],
            [
              22.216504,
              -11.101643
            ],
            [
              22.216705,
              -11.102339
            ],
            [
              22.2165,
              -11.102435
            ],
            [
              22.216154,
              -11.102303
            ],
            [
              22.215651,
              -11.10285
            ],
            [
              22.215647,
              -11.103051
            ],
            [
              22.215985,
              -11.103143
            ],
            [
              22.215973,
              -11.10326
            ],
            [
              22.215427,
              -11.103263
            ],
            [
              22.215369,
              -11.103393
            ],
            [
              22.215421,
              -11.103642
            ],
            [
              22.215683,
              -11.103702
            ],
            [
              22.215743,
              -11.103891
            ],
            [
              22.215828,
              -11.10439
            ],
            [
              22.215504,
              -11.104558
            ],
            [
              22.215542,
              -11.105175
            ],
            [
              22.215793,
              -11.105558
            ],
            [
              22.215522,
              -11.105665
            ],
            [
              22.215189,
              -11.106116
            ],
            [
              22.215484,
              -11.106635
            ],
            [
              22.21536,
              -11.106881
            ],
            [
              22.21556,
              -11.106927
            ],
            [
              22.215599,
              -11.107175
            ],
            [
              22.216194,
              -11.107329
            ],
            [
              22.216229,
              -11.107845
            ],
            [
              22.215861,
              -11.108107
            ],
            [
              22.216395,
              -11.108756
            ],
            [
              22.216341,
              -11.10926
            ],
            [
              22.21613,
              -11.109226
            ],
            [
              22.216054,
              -11.109468
            ],
            [
              22.215734,
              -11.109652
            ],
            [
              22.216223,
              -11.11014
            ],
            [
              22.216672,
              -11.11011
            ],
            [
              22.216769,
              -11.110324
            ],
            [
              22.216654,
              -11.110696
            ],
            [
              22.217188,
              -11.110798
            ],
            [
              22.216989,
              -11.110931
            ],
            [
              22.217114,
              -11.111072
            ],
            [
              22.217001,
              -11.111389
            ],
            [
              22.217211,
              -11.111569
            ],
            [
              22.217137,
              -11.111785
            ],
            [
              22.217291,
              -11.111854
            ],
            [
              22.217252,
              -11.112168
            ],
            [
              22.217415,
              -11.112467
            ],
            [
              22.217792,
              -11.112225
            ],
            [
              22.218359,
              -11.112171
            ],
            [
              22.218708,
              -11.113278
            ],
            [
              22.218501,
              -11.113531
            ],
            [
              22.218535,
              -11.113781
            ],
            [
              22.218317,
              -11.113927
            ],
            [
              22.219053,
              -11.114096
            ],
            [
              22.218978,
              -11.114286
            ],
            [
              22.219109,
              -11.114418
            ],
            [
              22.218899,
              -11.115123
            ],
            [
              22.218578,
              -11.11489
            ],
            [
              22.218279,
              -11.114929
            ],
            [
              22.218504,
              -11.115756
            ],
            [
              22.218385,
              -11.116042
            ],
            [
              22.218732,
              -11.116108
            ],
            [
              22.218816,
              -11.115879
            ],
            [
              22.219053,
              -11.115967
            ],
            [
              22.219427,
              -11.115264
            ],
            [
              22.220033,
              -11.115216
            ],
            [
              22.220068,
              -11.11539
            ],
            [
              22.220495,
              -11.115456
            ],
            [
              22.221463,
              -11.116048
            ],
            [
              22.221781,
              -11.116694
            ],
            [
              22.222482,
              -11.11689
            ],
            [
              22.222474,
              -11.117129
            ],
            [
              22.222264,
              -11.117276
            ],
            [
              22.22274,
              -11.117626
            ],
            [
              22.222838,
              -11.118127
            ],
            [
              22.223582,
              -11.11859
            ],
            [
              22.223634,
              -11.119008
            ],
            [
              22.223939,
              -11.119518
            ],
            [
              22.223703,
              -11.119783
            ],
            [
              22.224177,
              -11.120107
            ],
            [
              22.224219,
              -11.120398
            ],
            [
              22.223921,
              -11.12083
            ],
            [
              22.22432,
              -11.121345
            ],
            [
              22.224046,
              -11.121522
            ],
            [
              22.223957,
              -11.122122
            ],
            [
              22.224343,
              -11.122848
            ],
            [
              22.224766,
              -11.122652
            ],
            [
              22.225313,
              -11.122937
            ],
            [
              22.225996,
              -11.122787
            ],
            [
              22.226122,
              -11.123057
            ],
            [
              22.226319,
              -11.123097
            ],
            [
              22.226449,
              -11.122739
            ],
            [
              22.226912,
              -11.122534
            ],
            [
              22.227304,
              -11.12287
            ],
            [
              22.22757,
              -11.122465
            ],
            [
              22.227923,
              -11.122347
            ],
            [
              22.228383,
              -11.122632
            ],
            [
              22.228949,
              -11.121627
            ],
            [
              22.2293,
              -11.121824
            ],
            [
              22.230107,
              -11.122831
            ],
            [
              22.229918,
              -11.122971
            ],
            [
              22.229557,
              -11.122922
            ],
            [
              22.229571,
              -11.123581
            ],
            [
              22.230094,
              -11.123742
            ],
            [
              22.230146,
              -11.123444
            ],
            [
              22.230502,
              -11.123562
            ],
            [
              22.231292,
              -11.124193
            ],
            [
              22.231623,
              -11.123613
            ],
            [
              22.232604,
              -11.123859
            ],
            [
              22.233324,
              -11.123637
            ],
            [
              22.233624,
              -11.123722
            ],
            [
              22.234116,
              -11.124853
            ],
            [
              22.234057,
              -11.12519
            ],
            [
              22.233749,
              -11.125334
            ],
            [
              22.233814,
              -11.125883
            ],
            [
              22.233928,
              -11.12619
            ],
            [
              22.234185,
              -11.125996
            ],
            [
              22.234357,
              -11.126126
            ],
            [
              22.234297,
              -11.12646
            ],
            [
              22.234652,
              -11.126759
            ],
            [
              22.234273,
              -11.12713
            ],
            [
              22.23425,
              -11.127769
            ],
            [
              22.234526,
              -11.127976
            ],
            [
              22.235409,
              -11.12786
            ],
            [
              22.235573,
              -11.128181
            ],
            [
              22.236087,
              -11.128411
            ],
            [
              22.236475,
              -11.128393
            ],
            [
              22.23679,
              -11.128684
            ],
            [
              22.23722,
              -11.12818
            ],
            [
              22.237552,
              -11.12806
            ],
            [
              22.237973,
              -11.128309
            ],
            [
              22.238176,
              -11.128272
            ],
            [
              22.238394,
              -11.128387
            ],
            [
              22.2384,
              -11.128623
            ],
            [
              22.238812,
              -11.128859
            ],
            [
              22.238467,
              -11.1291
            ],
            [
              22.238653,
              -11.129466
            ],
            [
              22.238557,
              -11.129774
            ],
            [
              22.238743,
              -11.129958
            ],
            [
              22.239342,
              -11.129618
            ],
            [
              22.239575,
              -11.129907
            ],
            [
              22.239859,
              -11.129889
            ],
            [
              22.240454,
              -11.130286
            ],
            [
              22.240888,
              -11.129804
            ],
            [
              22.241221,
              -11.12981
            ],
            [
              22.241221,
              -11.130046
            ],
            [
              22.241512,
              -11.130294
            ],
            [
              22.241457,
              -11.130657
            ],
            [
              22.242087,
              -11.130724
            ],
            [
              22.242405,
              -11.131185
            ],
            [
              22.242607,
              -11.131135
            ],
            [
              22.242868,
              -11.131469
            ],
            [
              22.243391,
              -11.131295
            ],
            [
              22.244309,
              -11.131767
            ],
            [
              22.244562,
              -11.13159
            ],
            [
              22.244882,
              -11.131666
            ],
            [
              22.245573,
              -11.132205
            ],
            [
              22.245843,
              -11.132112
            ],
            [
              22.247073,
              -11.133166
            ],
            [
              22.247417,
              -11.133725
            ],
            [
              22.248904,
              -11.13432
            ],
            [
              22.249083,
              -11.134914
            ],
            [
              22.248832,
              -11.135427
            ],
            [
              22.249217,
              -11.135891
            ],
            [
              22.248923,
              -11.136425
            ],
            [
              22.248252,
              -11.136654
            ],
            [
              22.248336,
              -11.136969
            ],
            [
              22.248663,
              -11.137126
            ],
            [
              22.248581,
              -11.137597
            ],
            [
              22.248279,
              -11.137847
            ],
            [
              22.248328,
              -11.138087
            ],
            [
              22.248134,
              -11.138305
            ],
            [
              22.248627,
              -11.138522
            ],
            [
              22.248355,
              -11.138978
            ],
            [
              22.248438,
              -11.139224
            ],
            [
              22.249095,
              -11.13978
            ],
            [
              22.249225,
              -11.140066
            ],
            [
              22.249486,
              -11.140129
            ],
            [
              22.249331,
              -11.140226
            ],
            [
              22.249617,
              -11.140386
            ],
            [
              22.2496,
              -11.14093
            ],
            [
              22.2498,
              -11.140887
            ],
            [
              22.249875,
              -11.14123
            ],
            [
              22.250131,
              -11.141212
            ],
            [
              22.2502,
              -11.14153
            ],
            [
              22.250005,
              -11.141614
            ],
            [
              22.250013,
              -11.142072
            ],
            [
              22.250262,
              -11.142159
            ],
            [
              22.250858,
              -11.141904
            ],
            [
              22.25147,
              -11.142201
            ],
            [
              22.251335,
              -11.142486
            ],
            [
              22.251449,
              -11.142636
            ],
            [
              22.252134,
              -11.142815
            ],
            [
              22.252027,
              -11.143015
            ],
            [
              22.252755,
              -11.143343
            ],
            [
              22.252844,
              -11.143841
            ],
            [
              22.252718,
              -11.143967
            ],
            [
              22.252954,
              -11.144692
            ],
            [
              22.253327,
              -11.144921
            ],
            [
              22.253327,
              -11.145142
            ],
            [
              22.252979,
              -11.145172
            ],
            [
              22.252962,
              -11.145313
            ],
            [
              22.253198,
              -11.145535
            ],
            [
              22.253156,
              -11.146032
            ],
            [
              22.253325,
              -11.146217
            ],
            [
              22.253325,
              -11.147129
            ],
            [
              22.253142,
              -11.147315
            ],
            [
              22.253319,
              -11.14764
            ],
            [
              22.252912,
              -11.147734
            ],
            [
              22.252921,
              -11.14805
            ],
            [
              22.252647,
              -11.148315
            ],
            [
              22.253357,
              -11.148988
            ],
            [
              22.253089,
              -11.14925
            ],
            [
              22.253126,
              -11.149603
            ],
            [
              22.25282,
              -11.149969
            ],
            [
              22.253095,
              -11.150317
            ],
            [
              22.253085,
              -11.150752
            ],
            [
              22.253695,
              -11.151407
            ],
            [
              22.25436,
              -11.151503
            ],
            [
              22.254681,
              -11.151879
            ],
            [
              22.254736,
              -11.152299
            ],
            [
              22.255055,
              -11.15257
            ],
            [
              22.255001,
              -11.153201
            ],
            [
              22.255288,
              -11.153421
            ],
            [
              22.255178,
              -11.154478
            ],
            [
              22.25553,
              -11.154617
            ],
            [
              22.255868,
              -11.155099
            ],
            [
              22.256049,
              -11.155103
            ],
            [
              22.256447,
              -11.155774
            ],
            [
              22.256973,
              -11.155839
            ],
            [
              22.257201,
              -11.15637
            ],
            [
              22.257597,
              -11.156674
            ],
            [
              22.257858,
              -11.157305
            ],
            [
              22.258205,
              -11.157601
            ],
            [
              22.258197,
              -11.157876
            ],
            [
              22.258484,
              -11.158043
            ],
            [
              22.259644,
              -11.15803
            ],
            [
              22.259644,
              -11.158241
            ],
            [
              22.260396,
              -11.159191
            ],
            [
              22.261284,
              -11.159043
            ],
            [
              22.261683,
              -11.159233
            ],
            [
              22.261859,
              -11.159094
            ],
            [
              22.262373,
              -11.159335
            ],
            [
              22.262558,
              -11.159363
            ],
            [
              22.262711,
              -11.159176
            ],
            [
              22.262795,
              -11.159269
            ],
            [
              22.263095,
              -11.160501
            ],
            [
              22.262677,
              -11.163086
            ],
            [
              22.263048,
              -11.163844
            ],
            [
              22.263023,
              -11.164097
            ],
            [
              22.263452,
              -11.164568
            ],
            [
              22.263697,
              -11.165905
            ],
            [
              22.262669,
              -11.16718
            ],
            [
              22.263394,
              -11.168815
            ],
            [
              22.264174,
              -11.168941
            ],
            [
              22.264535,
              -11.169704
            ],
            [
              22.265104,
              -11.17018
            ],
            [
              22.265272,
              -11.170526
            ],
            [
              22.265171,
              -11.171149
            ],
            [
              22.265753,
              -11.172438
            ],
            [
              22.265424,
              -11.173519
            ],
            [
              22.265602,
              -11.173807
            ],
            [
              22.265466,
              -11.174199
            ],
            [
              22.267091,
              -11.175373
            ],
            [
              22.266941,
              -11.175868
            ],
            [
              22.26711,
              -11.176627
            ],
            [
              22.267299,
              -11.176937
            ],
            [
              22.268188,
              -11.177521
            ],
            [
              22.268516,
              -11.178218
            ],
            [
              22.268531,
              -11.179072
            ],
            [
              22.268364,
              -11.179352
            ],
            [
              22.26866,
              -11.180303
            ],
            [
              22.268559,
              -11.180521
            ],
            [
              22.268406,
              -11.180396
            ],
            [
              22.268235,
              -11.180539
            ],
            [
              22.267868,
              -11.181521
            ],
            [
              22.268306,
              -11.182254
            ],
            [
              22.267918,
              -11.183152
            ],
            [
              22.268265,
              -11.184236
            ],
            [
              22.268555,
              -11.18407
            ],
            [
              22.268895,
              -11.184411
            ],
            [
              22.268963,
              -11.184689
            ],
            [
              22.268752,
              -11.18549
            ],
            [
              22.268864,
              -11.185956
            ],
            [
              22.269289,
              -11.186415
            ],
            [
              22.26914,
              -11.187268
            ],
            [
              22.26973,
              -11.188068
            ],
            [
              22.269469,
              -11.1887
            ],
            [
              22.269833,
              -11.189368
            ],
            [
              22.26962,
              -11.190082
            ],
            [
              22.269612,
              -11.191009
            ],
            [
              22.2693,
              -11.191253
            ],
            [
              22.26903,
              -11.191877
            ],
            [
              22.269216,
              -11.192113
            ],
            [
              22.269064,
              -11.192854
            ],
            [
              22.268719,
              -11.193435
            ],
            [
              22.268297,
              -11.193343
            ],
            [
              22.26743,
              -11.194008
            ],
            [
              22.266983,
              -11.194051
            ],
            [
              22.26646,
              -11.194691
            ],
            [
              22.266031,
              -11.195592
            ],
            [
              22.266117,
              -11.196914
            ],
            [
              22.265753,
              -11.197446
            ],
            [
              22.263412,
              -11.198406
            ],
            [
              22.263126,
              -11.198858
            ],
            [
              22.26265,
              -11.199107
            ],
            [
              22.262293,
              -11.199774
            ],
            [
              22.26037,
              -11.20098
            ],
            [
              22.26015,
              -11.201675
            ],
            [
              22.259646,
              -11.202037
            ],
            [
              22.259408,
              -11.202788
            ],
            [
              22.258515,
              -11.203858
            ],
            [
              22.258237,
              -11.204524
            ],
            [
              22.258498,
              -11.205189
            ],
            [
              22.258026,
              -11.205678
            ],
            [
              22.258085,
              -11.205973
            ],
            [
              22.257874,
              -11.206479
            ],
            [
              22.257436,
              -11.206613
            ],
            [
              22.256788,
              -11.207346
            ],
            [
              22.256355,
              -11.208331
            ],
            [
              22.25634,
              -11.209292
            ],
            [
              22.255966,
              -11.209446
            ],
            [
              22.256076,
              -11.209842
            ],
            [
              22.25587,
              -11.210216
            ],
            [
              22.255907,
              -11.210553
            ],
            [
              22.255526,
              -11.210539
            ],
            [
              22.25491,
              -11.211807
            ],
            [
              22.254191,
              -11.212408
            ],
            [
              22.254264,
              -11.212665
            ],
            [
              22.25381,
              -11.212841
            ],
            [
              22.253722,
              -11.213149
            ],
            [
              22.253751,
              -11.213362
            ],
            [
              22.254228,
              -11.213494
            ],
            [
              22.254231,
              -11.213896
            ],
            [
              22.254506,
              -11.214014
            ],
            [
              22.254712,
              -11.215012
            ],
            [
              22.255086,
              -11.215356
            ],
            [
              22.25499,
              -11.215598
            ],
            [
              22.25513,
              -11.215855
            ],
            [
              22.254917,
              -11.215943
            ],
            [
              22.254925,
              -11.216302
            ],
            [
              22.25524,
              -11.216757
            ],
            [
              22.255606,
              -11.216962
            ],
            [
              22.255878,
              -11.217754
            ],
            [
              22.255716,
              -11.218194
            ],
            [
              22.255563,
              -11.218216
            ],
            [
              22.255584,
              -11.218561
            ],
            [
              22.255328,
              -11.219059
            ],
            [
              22.255372,
              -11.219521
            ],
            [
              22.255056,
              -11.219793
            ],
            [
              22.25535,
              -11.22013
            ],
            [
              22.255452,
              -11.220651
            ],
            [
              22.255606,
              -11.220709
            ],
            [
              22.255511,
              -11.221758
            ],
            [
              22.255665,
              -11.221912
            ],
            [
              22.255452,
              -11.22233
            ],
            [
              22.2559,
              -11.223166
            ],
            [
              22.255761,
              -11.22354
            ],
            [
              22.255489,
              -11.223635
            ],
            [
              22.255709,
              -11.224244
            ],
            [
              22.255482,
              -11.224537
            ],
            [
              22.25543,
              -11.22552
            ],
            [
              22.255218,
              -11.225586
            ],
            [
              22.255482,
              -11.226664
            ],
            [
              22.255291,
              -11.226811
            ],
            [
              22.255416,
              -11.22692
            ],
            [
              22.255225,
              -11.22703
            ],
            [
              22.255137,
              -11.227368
            ],
            [
              22.254947,
              -11.227456
            ],
            [
              22.25491,
              -11.228218
            ],
            [
              22.255064,
              -11.228622
            ],
            [
              22.254851,
              -11.22882
            ],
            [
              22.254587,
              -11.229636
            ],
            [
              22.254323,
              -11.229692
            ],
            [
              22.254145,
              -11.230293
            ],
            [
              22.254088,
              -11.230785
            ],
            [
              22.254301,
              -11.231438
            ],
            [
              22.253971,
              -11.232127
            ],
            [
              22.253986,
              -11.232846
            ],
            [
              22.254133,
              -11.233036
            ],
            [
              22.254052,
              -11.233799
            ],
            [
              22.254308,
              -11.234063
            ],
            [
              22.254382,
              -11.234605
            ],
            [
              22.254551,
              -11.234796
            ],
            [
              22.254438,
              -11.23509
            ],
            [
              22.254147,
              -11.23517
            ],
            [
              22.254169,
              -11.235346
            ],
            [
              22.254836,
              -11.236087
            ],
            [
              22.254756,
              -11.236461
            ],
            [
              22.254382,
              -11.236688
            ],
            [
              22.254602,
              -11.237838
            ],
            [
              22.254445,
              -11.238102
            ],
            [
              22.254716,
              -11.239044
            ],
            [
              22.254494,
              -11.239266
            ],
            [
              22.253619,
              -11.239548
            ],
            [
              22.253335,
              -11.239974
            ],
            [
              22.252933,
              -11.240045
            ],
            [
              22.252346,
              -11.241686
            ],
            [
              22.251254,
              -11.243024
            ],
            [
              22.251065,
              -11.243474
            ],
            [
              22.250276,
              -11.244241
            ],
            [
              22.249248,
              -11.246554
            ],
            [
              22.249626,
              -11.246782
            ],
            [
              22.249668,
              -11.247134
            ],
            [
              22.249394,
              -11.247836
            ],
            [
              22.24912,
              -11.249406
            ],
            [
              22.248728,
              -11.250001
            ],
            [
              22.248322,
              -11.249952
            ],
            [
              22.248109,
              -11.250213
            ],
            [
              22.248346,
              -11.252743
            ],
            [
              22.24818,
              -11.253901
            ],
            [
              22.247849,
              -11.2548
            ],
            [
              22.249898,
              -11.26414
            ],
            [
              22.256472,
              -11.264656
            ],
            [
              22.266254,
              -11.264876
            ],
            [
              22.270969,
              -11.263114
            ],
            [
              22.286832,
              -11.252583
            ],
            [
              22.295953,
              -11.246149
            ],
            [
              22.299787,
              -11.243638
            ],
            [
              22.303885,
              -11.241346
            ],
            [
              22.308115,
              -11.238394
            ],
            [
              22.31045,
              -11.237028
            ],
            [
              22.311464,
              -11.236191
            ],
            [
              22.329574,
              -11.218433
            ],
            [
              22.34015,
              -11.206447
            ],
            [
              22.344204,
              -11.202261
            ],
            [
              22.34482,
              -11.201336
            ],
            [
              22.345658,
              -11.198604
            ],
            [
              22.346936,
              -11.193052
            ],
            [
              22.347332,
              -11.189615
            ],
            [
              22.34624,
              -11.182424
            ],
            [
              22.347376,
              -11.181948
            ],
            [
              22.367073,
              -11.179524
            ],
            [
              22.388928,
              -11.17644
            ],
            [
              22.392762,
              -11.176528
            ],
            [
              22.403514,
              -11.176087
            ],
            [
              22.406113,
              -11.175647
            ],
            [
              22.410873,
              -11.174281
            ],
            [
              22.421007,
              -11.175426
            ],
            [
              22.424929,
              -11.176219
            ],
            [
              22.43101,
              -11.177982
            ],
            [
              22.433433,
              -11.17829
            ],
            [
              22.434711,
              -11.17829
            ],
            [
              22.438281,
              -11.177013
            ],
            [
              22.440924,
              -11.174545
            ],
            [
              22.448327,
              -11.169434
            ],
            [
              22.450266,
              -11.167759
            ],
            [
              22.462472,
              -11.153394
            ],
            [
              22.463088,
              -11.152381
            ],
            [
              22.463397,
              -11.151411
            ],
            [
              22.463617,
              -11.145683
            ],
            [
              22.464455,
              -11.144625
            ],
            [
              22.468553,
              -11.142202
            ],
            [
              22.472824,
              -11.139922
            ],
            [
              22.476938,
              -11.137059
            ],
            [
              22.483873,
              -11.134035
            ],
            [
              22.485003,
              -11.133309
            ],
            [
              22.486817,
              -11.131817
            ],
            [
              22.491535,
              -11.127462
            ],
            [
              22.493229,
              -11.125647
            ],
            [
              22.498303,
              -11.118398
            ],
            [
              22.502364,
              -11.111912
            ],
            [
              22.503153,
              -11.109669
            ],
            [
              22.503758,
              -11.107184
            ],
            [
              22.503698,
              -11.105729
            ],
            [
              22.503456,
              -11.104578
            ],
            [
              22.502849,
              -11.103487
            ],
            [
              22.5,
              -11.100638
            ],
            [
              22.496788,
              -11.098274
            ],
            [
              22.495454,
              -11.097728
            ],
            [
              22.494363,
              -11.096819
            ],
            [
              22.492424,
              -11.093667
            ],
            [
              22.490241,
              -11.089424
            ],
            [
              22.489696,
              -11.087969
            ],
            [
              22.489029,
              -11.078938
            ],
            [
              22.488848,
              -11.06433
            ],
            [
              22.490605,
              -11.058026
            ],
            [
              22.494,
              -11.052025
            ],
            [
              22.496909,
              -11.048024
            ],
            [
              22.501596,
              -11.043055
            ],
            [
              22.503778,
              -11.041479
            ],
            [
              22.50893,
              -11.039479
            ],
            [
              22.510385,
              -11.039418
            ],
            [
              22.511961,
              -11.03966
            ],
            [
              22.514325,
              -11.04057
            ],
            [
              22.519295,
              -11.041964
            ],
            [
              22.522083,
              -11.042327
            ],
            [
              22.524811,
              -11.042449
            ],
            [
              22.526084,
              -11.042327
            ],
            [
              22.530873,
              -11.040751
            ],
            [
              22.535782,
              -11.03966
            ],
            [
              22.540571,
              -11.038145
            ],
            [
              22.542935,
              -11.037175
            ],
            [
              22.552754,
              -11.032447
            ],
            [
              22.556391,
              -11.031114
            ],
            [
              22.567423,
              -11.028932
            ],
            [
              22.577667,
              -11.028144
            ],
            [
              22.584249,
              -11.033933
            ],
            [
              22.593693,
              -11.036606
            ],
            [
              22.598079,
              -11.036035
            ],
            [
              22.605132,
              -11.034679
            ],
            [
              22.611225,
              -11.039114
            ],
            [
              22.615379,
              -11.040632
            ],
            [
              22.618339,
              -11.039479
            ],
            [
              22.620703,
              -11.040691
            ],
            [
              22.623006,
              -11.042267
            ],
            [
              22.624946,
              -11.043903
            ],
            [
              22.626704,
              -11.045661
            ],
            [
              22.627552,
              -11.046752
            ],
            [
              22.627492,
              -11.047965
            ],
            [
              22.628583,
              -11.051662
            ],
            [
              22.628825,
              -11.053905
            ],
            [
              22.628886,
              -11.056511
            ],
            [
              22.628159,
              -11.059724
            ],
            [
              22.627371,
              -11.061906
            ],
            [
              22.627734,
              -11.064149
            ],
            [
              22.628764,
              -11.06627
            ],
            [
              22.630522,
              -11.068149
            ],
            [
              22.633432,
              -11.070574
            ],
            [
              22.64113,
              -11.075787
            ],
            [
              22.646828,
              -11.079181
            ],
            [
              22.660345,
              -11.085606
            ],
            [
              22.66386,
              -11.08694
            ],
            [
              22.673134,
              -11.09088
            ],
            [
              22.685682,
              -11.095547
            ],
            [
              22.688894,
              -11.093728
            ],
            [
              22.692713,
              -11.092698
            ],
            [
              22.694774,
              -11.093728
            ],
            [
              22.697016,
              -11.096517
            ],
            [
              22.697986,
              -11.098517
            ],
            [
              22.698471,
              -11.100457
            ],
            [
              22.699077,
              -11.105548
            ],
            [
              22.699441,
              -11.106821
            ],
            [
              22.700047,
              -11.107912
            ],
            [
              22.702047,
              -11.109609
            ],
            [
              22.707442,
              -11.112761
            ],
            [
              22.709927,
              -11.113307
            ],
            [
              22.717989,
              -11.113367
            ],
            [
              22.721868,
              -11.113186
            ],
            [
              22.723323,
              -11.113064
            ],
            [
              22.724535,
              -11.11264
            ],
            [
              22.731081,
              -11.112095
            ],
            [
              22.738295,
              -11.111064
            ],
            [
              22.745569,
              -11.110822
            ],
            [
              22.748235,
              -11.111185
            ],
            [
              22.751812,
              -11.112398
            ],
            [
              22.758601,
              -11.115247
            ],
            [
              22.762904,
              -11.117732
            ],
            [
              22.763995,
              -11.118095
            ],
            [
              22.765208,
              -11.118338
            ],
            [
              22.770966,
              -11.118702
            ],
            [
              22.772178,
              -11.118702
            ],
            [
              22.773269,
              -11.118398
            ],
            [
              22.786665,
              -11.109731
            ],
            [
              22.791453,
              -11.106215
            ],
            [
              22.793151,
              -11.104397
            ],
            [
              22.795212,
              -11.101548
            ],
            [
              22.795939,
              -11.099123
            ],
            [
              22.796909,
              -11.097183
            ],
            [
              22.798061,
              -11.095062
            ],
            [
              22.799697,
              -11.09288
            ],
            [
              22.801637,
              -11.091425
            ],
            [
              22.803758,
              -11.090092
            ],
            [
              22.806122,
              -11.089364
            ],
            [
              22.809759,
              -11.087909
            ],
            [
              22.812426,
              -11.08797
            ],
            [
              22.816184,
              -11.087425
            ],
            [
              22.818669,
              -11.086455
            ],
            [
              22.820973,
              -11.085242
            ],
            [
              22.822306,
              -11.084939
            ],
            [
              22.824731,
              -11.085121
            ],
            [
              22.830368,
              -11.085182
            ],
            [
              22.83158,
              -11.085
            ],
            [
              22.835338,
              -11.080393
            ],
            [
              22.840127,
              -11.073908
            ],
            [
              22.841824,
              -11.072029
            ],
            [
              22.845461,
              -11.068695
            ],
            [
              22.851462,
              -11.064997
            ],
            [
              22.853644,
              -11.064209
            ],
            [
              22.858311,
              -11.063179
            ],
            [
              22.863039,
              -11.062694
            ],
            [
              22.868252,
              -11.062754
            ],
            [
              22.870677,
              -11.062936
            ],
            [
              22.878314,
              -11.06427
            ],
            [
              22.88086,
              -11.064937
            ],
            [
              22.883345,
              -11.065179
            ],
            [
              22.884618,
              -11.065543
            ],
            [
              22.8868,
              -11.066998
            ],
            [
              22.891164,
              -11.070998
            ],
            [
              22.901408,
              -11.081606
            ],
            [
              22.904075,
              -11.084091
            ],
            [
              22.905712,
              -11.08597
            ],
            [
              22.906682,
              -11.086697
            ],
            [
              22.907894,
              -11.086818
            ],
            [
              22.909045,
              -11.086637
            ],
            [
              22.910076,
              -11.086212
            ],
            [
              22.911288,
              -11.085424
            ],
            [
              22.913713,
              -11.085121
            ],
            [
              22.918865,
              -11.085424
            ],
            [
              22.92135,
              -11.085727
            ],
            [
              22.937171,
              -11.088212
            ],
            [
              22.942262,
              -11.088697
            ],
            [
              22.944687,
              -11.088758
            ],
            [
              22.947172,
              -11.088152
            ],
            [
              22.950642,
              -11.088147
            ],
            [
              22.95444,
              -11.088549
            ],
            [
              22.957056,
              -11.088509
            ],
            [
              22.960712,
              -11.087496
            ],
            [
              22.964386,
              -11.088758
            ],
            [
              22.967781,
              -11.089546
            ],
            [
              22.972206,
              -11.091061
            ],
            [
              22.974751,
              -11.091486
            ],
            [
              22.977237,
              -11.091607
            ],
            [
              22.979513,
              -11.092288
            ],
            [
              22.982242,
              -11.09262
            ],
            [
              22.984363,
              -11.093353
            ],
            [
              22.987837,
              -11.092538
            ],
            [
              22.990663,
              -11.09229
            ],
            [
              22.992948,
              -11.09308
            ],
            [
              22.995577,
              -11.091507
            ],
            [
              23,
              -11.091315679096526
            ],
            [
              23,
              -11
            ],
            [
              22.207745797927466,
              -11
            ],
            [
              22.207737,
              -11.000006
            ],
            [
              22.207917,
              -11.000491
            ],
            [
              22.207303,
              -11.001015
            ],
            [
              22.206661,
              -11.00209
            ]
          ]
        ]
      }
    }
  ]
}