{
  "type": "FeatureCollection",
  "features": [
    {
      "type": "Feature",
      "properties": {
        "osm_id": -186382,
        "boundary": "administrative",
        "admin_level": 2,
        "parents": null,
        "name": "Bulgaria",
        "local_name": "–ë—ä–ª–≥–∞—Ä–∏—è",
        "name_en": "Bulgaria",
        "all_tags": {
          "flag": "https://upload.wikimedia.org/wikipedia/commons/9/9a/Flag_of_Bulgaria.svg",
          "name": "–ë—ä–ª–≥–∞—Ä–∏—è",
          "name:ab": "–ë–æ–ª–≥–∞ÃÅ—Ä–∏–∞",
          "name:af": "Bulgarye",
          "name:ak": "Bulgaria",
          "name:am": "·â°·àç·åã·à™·ã´",
          "name:an": "Bulgaria",
          "name:ar": "ÿ®ŸÑÿ∫ÿßÿ±Ÿäÿß",
          "name:av": "–ë–æ–ª–≥–∞ÃÅ—Ä–∏—è",
          "name:ay": "Bulkariya",
          "name:az": "Bolqarƒ±stan",
          "name:ba": "–ë–æ–ª–≥–∞ÃÅ—Ä–∏—è",
          "name:be": "–ë–∞–ª–≥–∞ÃÅ—Ä—ã—è",
          "name:bg": "–ë—ä–ª–≥–∞—Ä–∏—è",
          "name:bh": "‡§¨‡•Å‡§≤‡•ç‡§ó‡§æ‡§∞‡§ø‡§Ø‡§æ",
          "name:bi": "Bulgaria",
          "name:bn": "‡¶¨‡ßÅ‡¶≤‡¶ó‡ßá‡¶∞‡¶ø‡¶Ø‡¶º‡¶æ",
          "name:bo": "‡Ωî‡Ω¥‡ºã‡Ω¢‡ºã‡ΩÇ‡ºã‡Ω¢‡Ω≤‡ºã‡Ω°‡ºç",
          "name:br": "Bulgaria",
          "name:bs": "Bugarska",
          "name:ca": "Bulg√†ria",
          "name:ce": "–ë–æ–ª–≥–∞ÃÅ—Ä–∏",
          "name:ch": "Bulgaria",
          "name:co": "Bulgaria",
          "name:cs": "Bulharsko",
          "name:cu": "–ë–ª—ä–≥–∞—Ä—óÍôó",
          "name:cv": "–üƒÉ–ª—Ö–∞—Äƒï",
          "name:cy": "Bwlgaria",
          "name:da": "Bulgarien",
          "name:de": "Bulgarien",
          "name:dv": "ﬁÑﬁ¶ﬁçﬁ∞ﬁéﬁ≠ﬁÉﬁ®ﬁáﬁß",
          "name:ee": "Bulgaria",
          "name:el": "ŒíŒøœÖŒªŒ≥Œ±œÅŒØŒ±",
          "name:en": "Bulgaria",
          "name:eo": "Bulgario",
          "name:es": "Bulgaria",
          "name:et": "Bulgaaria",
          "name:eu": "Bulgaria",
          "name:fa": "ÿ®ŸÑÿ∫ÿßÿ±ÿ≥ÿ™ÿßŸÜ",
          "name:ff": "Bulgariya",
          "name:fi": "Bulgaria",
          "name:fo": "Bulgaria",
          "name:fr": "Bulgarie",
          "name:fy": "Bulgarije",
          "name:ga": "an Bhulg√°ir",
          "name:gd": "Bulg√†iria",
          "name:gl": "Bulgaria",
          "name:gn": "Vugaria",
          "name:gu": "‡™¨‡™≤‡´ç‡™ó‡´á‡™∞‡™ø‡™Ø‡™æ",
          "name:gv": "yn Vulgeyr",
          "name:ha": "Bulgairiya",
          "name:he": "◊ë÷º◊ï÷º◊ú÷∞◊í÷∑◊®÷∞◊ô÷∏◊î",
          "name:hi": "‡§¨‡•Å‡§≤‡•ç‡§ó‡§æ‡§∞‡§ø‡§Ø‡§æ",
          "name:hr": "Bugarska",
          "name:ht": "Bilgari",
          "name:hu": "Bulg√°ria",
          "name:hy": "‘≤’∏÷Ç’¨’≤’°÷Ä’´’°",
          "name:ia": "Bulgaria",
          "name:id": "Bulgaria",
          "name:ie": "Bulgaria",
          "name:ig": "Bulgaria",
          "name:io": "Bulgaria",
          "name:is": "B√∫lgar√≠a",
          "name:it": "Bulgaria",
          "name:ja": "„Éñ„É´„Ç¨„É™„Ç¢",
          "name:jv": "Bulgaria",
          "name:ka": "·Éë·É£·Éö·Éí·Éê·É†·Éî·Éó·Éò",
          "name:kg": "Balgaria",
          "name:kk": "–ë–æ–ª–≥–∞—Ä–∏—è",
          "name:kl": "Bulgaria",
          "name:kn": "‡≤¨‡≤≤‡≥ç‡≤ó‡≥á‡≤∞‡≤ø‡≤Ø",
          "name:ko": "Î∂àÍ∞ÄÎ¶¨ÏïÑ",
          "name:ku": "Bulgaristan",
          "name:kv": "–ë–æ–ª–≥–∞—Ä–∏—è",
          "name:kw": "Bulgari",
          "name:ky": "–ë–æ–ª–≥–∞—Ä–∏—è",
          "name:la": "Bulgaria",
          "name:lb": "Bulgarien",
          "name:li": "B√∂lgarije",
          "name:ln": "Bulgaria",
          "name:lo": "‡∫õ‡∫∞‡ªÄ‡∫ó‡∫î‡∫ö‡∫π‡∫ô‡∫Å‡∫≤‡∫•‡∫µ",
          "name:lt": "Bulgarija",
          "name:lv": "BulgƒÅrija",
          "name:mg": "Biolgaria",
          "name:mi": "PurukƒÅria",
          "name:mk": "–ë—É–≥–∞—Ä–∏—ò–∞",
          "name:ml": "‡¥¨‡µæ‡¥ó‡µá‡¥±‡¥ø‡¥Ø",
          "name:mn": "–ë–æ–ª–≥–∞—Ä",
          "name:mr": "‡§¨‡§≤‡•ç‡§ó‡•á‡§∞‡§ø‡§Ø‡§æ",
          "name:ms": "Bulgaria",
          "name:mt": "Bulgarija",
          "name:my": "·Äò·Ä∞·Äú·Ä∫·ÄÇ·Ä±·Ä∏·Äõ·ÄÆ·Ä∏·Äö·Ä¨·Ä∏·Äî·Ä≠·ÄØ·ÄÑ·Ä∫·ÄÑ·Ä∂",
          "name:na": "Borgeriya",
          "name:ne": "‡§¨‡•Å‡§≤‡•ç‡§ó‡•á‡§∞‡§ø‡§Ø‡§æ",
          "name:nl": "Bulgarije",
          "name:nn": "Bulgaria",
          "name:no": "Bulgaria",
          "name:nv": "B√°lgaa Bik√©yah",
          "name:oc": "Bulgaria",
          "name:om": "Bulgeeriyaa",
          "name:or": "‡¨¨‡≠Å‡¨≤‡¨ó‡¨æ‡¨∞‡¨ø‡¨Ü",
          "name:os": "–ë–æ–ª–≥–∞—Ä–∏",
          "name:pa": "‡®¨‡©Å‡®≤‡®ó‡®æ‡®∞‡©Ä‡®Ü",
          "name:pi": "‡§¨‡•Å‡§≤‡•ç‡§ó‡§æ‡§∞‡§ø‡§Ø‡§æ",
          "name:pl": "Bu≈Çgaria",
          "name:ps": "ÿ®ŸÑÿ∫ÿßÿ±€åÿß",
          "name:pt": "Bulg√°ria",
          "name:qu": "Bulgarya",
          "name:rm": "Bulgaria",
          "name:rn": "Bulgaria",
          "name:ro": "Bulgaria",
          "name:ru": "–ë–æ–ª–≥–∞—Ä–∏—è",
          "name:rw": "Bulugariya",
          "name:sa": "‡§¨‡•Å‡§≤‡•ç‡§ó‡§æ‡§∞‡§ø‡§Ø‡§æ",
          "name:sc": "Bulgaria",
          "name:sd": "ÿ®ŸÑÿ∫ÿßÿ±ŸäŸá",
          "name:se": "Bulg√°ria",
          "name:sg": "Bulugar√Øi",
          "name:sh": "Bugarska",
          "name:si": "‡∂∂‡∂Ω‡∑ä‡∂ú‡∑ö‡∂ª‡∑í‡∂∫‡∑è‡∑Ä",
          "name:sk": "Bulharsko",
          "name:sl": "Bolgarija",
          "name:sm": "Bultalia",
          "name:sn": "Bulgaria",
          "name:so": "Bulgaria",
          "name:sq": "Bullgaria",
          "name:sr": "–ë—É–≥–∞—Ä—Å–∫–∞",
          "name:ss": "iBhulgariya",
          "name:su": "Bulgaria",
          "name:sv": "Bulgarien",
          "name:sw": "Bulgaria",
          "name:ta": "‡Æ™‡Æ≤‡Øç‡Æï‡Øá‡Æ∞‡Æø‡ÆØ‡Ææ",
          "name:te": "‡∞¨‡∞≤‡±ç‡∞ó‡±á‡∞∞‡∞ø‡∞Ø‡∞æ",
          "name:tg": "–ë—É–ª“ì–æ—Ä–∏—Å—Ç–æ–Ω",
          "name:th": "‡∏õ‡∏£‡∏∞‡πÄ‡∏ó‡∏®‡∏ö‡∏±‡∏•‡πÅ‡∏Å‡πÄ‡∏£‡∏µ‡∏¢",
          "name:tk": "Bolgari√Ωa",
          "name:tl": "Bulgarya",
          "name:tr": "Bulgaristan",
          "name:ts": "Bulgaria",
          "name:tt": "–ë–æ–ª–≥–∞—Ä–∏—è",
          "name:tw": "Bulgaria",
          "name:ug": "ÿ®€áŸÑÿ∫ÿßÿ±ŸâŸä€ï",
          "name:uk": "–ë–æ–ª–≥–∞ÃÅ—Ä—ñ—è",
          "name:ur": "ÿ®ŸÑÿ∫ÿßÿ±€å€Å",
          "name:uz": "Bolgariya",
          "name:vi": "Bulgaria",
          "name:vo": "Bulgar√§n",
          "name:wa": "Bulg√•reye",
          "name:wo": "Bulgaari",
          "name:yi": "◊ë◊ï◊ú◊í◊ê÷∑◊®◊ô◊¢",
          "name:yo": "B√πlg√°r√≠√†",
          "name:zh": "‰øùÂä†Âà©‰∫ö",
          "name:zu": "IBulgariya",
          "boundary": "administrative",
          "int_name": "Bulgaria",
          "name:ace": "Bulgaria",
          "name:ady": "–ë—É–ª–≥–∞—Ä–∏–µ",
          "name:als": "Bulgarie",
          "name:ang": "Pulgaraland",
          "name:arc": "‹í‹ò‹†‹ì‹ê‹™‹ù‹ê",
          "name:arz": "ÿ®ŸÑÿ¨ÿßÿ±Ÿäÿß",
          "name:ast": "Bulgaria",
          "name:azb": "ÿ®ŸàŸÑÿ∫ÿßÿ±€åÿ≥ÿ™ÿßŸÜ",
          "name:bar": "Buigarien",
          "name:bcl": "Bulgarya",
          "name:bpy": "‡¶¨‡ßÅ‡¶≤‡¶ó‡ßá‡¶∞‡¶ø‡¶Ø‡¶º‡¶æ",
          "name:bxr": "–ë–æ–ª–≥–∞—Ä–∏",
          "name:cdo": "B≈çÃ§-gƒÉ-l√™-ƒÅ",
          "name:ceb": "Bulgaria",
          "name:chr": "·èä·éµ·é®·éµ·é†",
          "name:ckb": "ÿ®ŸàŸÑ⁄Øÿßÿ±€åÿß",
          "name:crh": "Bulƒüaristan",
          "name:csb": "B√πlgarsk√¥",
          "name:diq": "Bulƒüarƒ±stan",
          "name:dsb": "Bulgarska",
          "name:dty": "‡§¨‡•Å‡§≤‡•ç‡§ó‡•á‡§∞‡§ø‡§Ø‡§æ",
          "name:eml": "Bulgar√Æ",
          "name:ext": "Bulg√°ria",
          "name:frp": "Bulgarie",
          "name:frr": "Bulgarien",
          "name:fur": "Bulgarie",
          "name:gag": "Bulgariya",
          "name:gom": "‡§¨‡§≤‡•ç‡§ó‡•á‡§∞‡§ø‡§Ø‡§æ",
          "name:got": "êå±êåøêåªêå≤êå∞êçÇêåπêå∞",
          "name:hak": "P√≥-k√¢-li-√¢",
          "name:haw": "Pulukalia",
          "name:hif": "Bulgaria",
          "name:hsb": "Bo≈Çharska",
          "name:ilo": "Bulgaria",
          "name:jam": "Bulgieria",
          "name:jbo": "bylgAri,as",
          "name:kaa": "Bolgariya",
          "name:kab": "Bulgarya",
          "name:kbd": "–ë–æ–ª–≥–∞—Ä–∏—ç",
          "name:kbp": "Puligari",
          "name:koi": "–ë”ß–ª–≥–∞—Ä–∏—è",
          "name:krc": "–ë–æ–ª–≥–∞—Ä–∏—è",
          "name:ksh": "Bulgarije",
          "name:lad": "Bulgaria",
          "name:lbe": "–ë–æ–ª–≥–∞—Ä–∏–∞",
          "name:lez": "–ë–æ–ª–≥–∞—Ä–∏—è",
          "name:lij": "Burgaja",
          "name:lmo": "B√ºlgaria",
          "name:lrc": "ÿ®ŸàŸÑÿ∫ÿßÿ±ÿ¶ÿ≥ÿ™ÿßŸÜ",
          "name:ltg": "Bulgareja",
          "name:lzh": "‰øùÂä†Âà©‰∫û",
          "name:mai": "‡§¨‡•Å‡§≤‡•ç‡§ó‡•á‡§∞‡§ø‡§Ø‡§æ",
          "name:mdf": "–ë–æ–ª–≥–∞—Ä–∏–µ",
          "name:mhr": "–ë–æ–ª–≥–∞—Ä–∏–π",
          "name:mrj": "–ë–æ–ª–≥–∞—Ä–∏",
          "name:mwl": "Bulg√°ria",
          "name:myv": "–ë–æ–ª–≥–∞—Ä–∏—è –ú–∞—Å—Ç–æ—Ä",
          "name:mzn": "ÿ®ŸÑÿ∫ÿßÿ±ÿ≥ÿ™ŸàŸÜ",
          "name:nah": "Bulgaria",
          "name:nan": "PuÃçt-g√¢-lƒ´",
          "name:nap": "Bulgaria",
          "name:nds": "Bulgarien",
          "name:new": "‡§¨‡•Å‡§≤‡•ç‡§ó‡•á‡§∞‡§ø‡§Ø‡§æ",
          "name:nov": "Bulgaria",
          "name:nrm": "Bulgarie",
          "name:olo": "Bolguarii",
          "name:pag": "Bulgariya",
          "name:pam": "Bulgaria",
          "name:pap": "Bulgaria",
          "name:pcd": "Bulgarie",
          "name:pdc": "Bulgarien",
          "name:pfl": "Bulgarije",
          "name:pih": "Bulgeriya",
          "name:pms": "Bulgar√¨a",
          "name:pnb": "ÿ®ŸÑÿ∫ÿßÿ±€å€Å",
          "name:pnt": "ŒíŒøœÖŒªŒ≥Œ±œÅŒØŒ±",
          "name:rmy": "Bulgariya",
          "name:rue": "–ë—É–ª–≥–∞—Ä—ñ—è",
          "name:sah": "–ë–æ–ª–≥–∞—Ä–∏—è",
          "name:scn": "Bulgar√¨a",
          "name:sco": "Bulgarie",
          "name:smn": "Bulgaria",
          "name:sms": "Bulgaria",
          "name:srn": "Bulgarikondre",
          "name:stq": "Bulgarien",
          "name:szl": "Bulgaryj≈è",
          "name:tet": "Bulg√°ria",
          "name:tok": "ma Pokasi",
          "name:tpi": "Balgeria",
          "name:tum": "Bulgaria",
          "name:tzl": "B√ºlgaria",
          "name:udm": "–ë–æ–ª–≥–∞ÃÅ—Ä–∏—è",
          "name:vec": "Bulgaria",
          "name:vep": "Bolgarii",
          "name:vls": "Bulgareye",
          "name:vro": "Bulgaaria",
          "name:war": "Bulgarya",
          "name:wuu": "‰øùÂä†Âà©‰∫ö",
          "name:xal": "–ë–æ–ª–≥–∞—Ä–º—É–¥–∏–Ω",
          "name:xmf": "·Éë·É£·Éö·Éí·Éê·É†·Éî·Éó·Éò",
          "name:yue": "‰øùÂä†Âà©‰∫û",
          "name:zea": "Bulharije",
          "timezone": "Europe/Sofia",
          "way_area": "12.9055",
          "wikidata": "Q219",
          "ISO3166-1": "BG",
          "wikipedia": "bg:–ë—ä–ª–≥–∞—Ä–∏—è",
          "admin_level": "2",
          "alt_name:ba": "–ë–æ–ª“ì–∞—Ä—Å—Ç–∞–Ω",
          "alt_name:eo": "Bulgarujo",
          "alt_name:gd": "A' Bhulgair;Bulgaria",
          "alt_name:ht": "Boulgari",
          "alt_name:kk": "–ë“±–ª“ì–∞—Ä–∏—è",
          "alt_name:rw": "Buligariya",
          "alt_name:ta": "‡Æ™‡Æ≤‡Øç‡Æï‡Ææ‡Æ∞‡Æø‡ÆØ‡Ææ",
          "alt_name:tk": "Bolgarystan",
          "name:nds-nl": "Bulgarije",
          "alt_name:ckb": "ÿ®ŸàŸÑ⁄Øÿßÿ±ÿ≥ÿ™ÿßŸÜ",
          "alt_name:jbo": "bulgarias",
          "alt_name:lij": "Burgaja",
          "alt_name:mzn": "ÿ®ŸÑÿ∫ÿßÿ±ÿ≥ÿ™ÿßŸÜ",
          "alt_name:nan": "P√≥-ka-lƒ´-√°",
          "alt_name:rmy": "Dasikanipe",
          "name:bat-smg": "Bulgarƒójƒó",
          "name:cbk-zam": "Bulgaria",
          "name:roa-rup": "Vurgaria",
          "name:sr-Latn": "Bugarska",
          "name:zh-Hans": "‰øùÂä†Âà©‰∫ö",
          "name:zh-Hant": "‰øùÂä†Âà©‰∫û",
          "name:roa-tara": "Bulgarie",
          "official_name": "–†–µ–ø—ÉÃÄ–±–ª–∏–∫–∞ –ë—ä–ª–≥–∞ÃÄ—Ä–∏—è",
          "name:be-tarask": "–ë–∞—û–≥–∞ÃÅ—Ä—ã—è",
          "ISO3166-1:alpha2": "BG",
          "ISO3166-1:alpha3": "BGR",
          "default_language": "bg",
          "official_name:af": "Republiek van Bulgarye",
          "official_name:am": "·ã®·â°·àç·åã·à™·ã´ ·à™·çê·â•·àä·ä®",
          "official_name:an": "Republica de Bulgaria",
          "official_name:ar": "ÿ¨ŸÖŸáŸàÿ±Ÿäÿ© ÿ®ŸÑÿ∫ÿßÿ±Ÿäÿß",
          "official_name:av": "–ë–æ–ª–≥–∞ÃÅ—Ä–∏—è –ñ—É–º–≥—å—É—Ä–∏—è—Ç",
          "official_name:ay": "Ripublika Bulkariya",
          "official_name:az": "Bolqarƒ±stan Respublikasƒ±",
          "official_name:ba": "–ë–æ–ª–≥–∞ÃÅ—Ä–∏—è –†–µ—Å–ø—ÉÃÅ–±–ª–∏–∫–∞“ª—ã",
          "official_name:be": "–†—ç—Å–ø—ÉÃÅ–±–ª—ñ–∫–∞ –ë–∞–ª–≥–∞ÃÅ—Ä—ã—è",
          "official_name:bg": "–†–µ–ø—ÉÃÄ–±–ª–∏–∫–∞ –ë—ä–ª–≥–∞ÃÄ—Ä–∏—è",
          "official_name:bn": "‡¶¨‡ßÅ‡¶≤‡¶ó‡ßá‡¶∞‡¶ø‡¶Ø‡¶º‡¶æ ‡¶™‡ßç‡¶∞‡¶ú‡¶æ‡¶§‡¶®‡ßç‡¶§‡ßç‡¶∞",
          "official_name:br": "Republik Bulgaria",
          "official_name:bs": "Republika Bugarska",
          "official_name:ce": "–†–µ—Å–ø—ÉÃÅ–±–ª–∏–∫–∞ –ë–æ–ª–≥–∞ÃÅ—Ä–∏",
          "official_name:co": "Republica di Bulgaria",
          "official_name:cs": "Bulharsk√° republika",
          "official_name:cu": "–ë–ª—ä–≥–∞—Ä—ñÃÅÍôó –î–∏–º–æ–∫—Ä–∞—Ç—ñÃÅÍôó",
          "official_name:cv": "–¢ƒÉ–Ω–∞–π√ß–∏ –üƒÉ–ª—Ö–∞—Äƒï",
          "official_name:cy": "Gweriniaeth Bwlgaria",
          "official_name:da": "Republikken Bulgarien",
          "official_name:de": "Republik Bulgarien",
          "official_name:el": "ŒîŒ∑ŒºŒøŒ∫œÅŒ±œÑŒØŒ± œÑŒ∑œÇ ŒíŒøœÖŒªŒ≥Œ±œÅŒØŒ±œÇ",
          "official_name:en": "Republic of Bulgaria",
          "official_name:eo": "Respubliko Bulgario",
          "official_name:es": "Rep√∫blica de Bulgaria",
          "official_name:et": "Bulgaaria Vabariik",
          "official_name:eu": "Bulgaria",
          "official_name:fa": "ÿ¨ŸÖŸáŸàÿ±€å ÿ®ŸÑÿ∫ÿßÿ±ÿ≥ÿ™ÿßŸÜ",
          "official_name:fi": "Bulgarian tasavalta",
          "official_name:fo": "L√Ω√∞veldi√∞ Bulgaria",
          "official_name:fr": "R√©publique de Bulgarie",
          "official_name:fy": "Republyk Bulgarije",
          "official_name:ga": "Poblacht na Bulg√°ire",
          "official_name:gl": "Rep√∫blica de Bulgaria",
          "official_name:gu": "‡™¨‡™≤‡´ç‡™ó‡´á‡™∞‡™ø‡™Ø‡™æ ‡™ó‡™£‡™∞‡™æ‡™ú‡´ç‡™Ø",
          "official_name:gv": "Pobblaght ny Bulgeyr",
          "official_name:he": "◊î÷∏◊®÷∂◊§÷º◊ï÷º◊ë÷∞÷º◊ú÷¥◊ô◊ß÷∏◊î ◊î÷∑◊ë÷º◊ï÷º◊ú÷∞◊í÷∏◊®÷¥◊ô◊™",
          "official_name:hi": "‡§¨‡•Å‡§≤‡•ç‡§ó‡§æ‡§∞‡§ø‡§Ø‡§æ ‡§ó‡§£‡§§‡§Ç‡§§‡•ç‡§∞",
          "official_name:hr": "Republika Bugarska",
          "official_name:hu": "Bolg√°r K√∂zt√°rsas√°g",
          "official_name:hy": "‘≤’∏÷Ç’¨’≤’°÷Ä’´’°’µ’´ ’Ä’°’∂÷Ä’°’∫’•’ø’∏÷Ç’©’µ’∏÷Ç’∂",
          "official_name:ia": "Republica de Bulgaria",
          "official_name:id": "Republika Bulgaria",
          "official_name:is": "L√Ω√∞veldi√∞ B√∫lgar√≠a",
          "official_name:it": "Repubblica di Bulgaria",
          "official_name:ja": "„Éñ„É´„Ç¨„É™„Ç¢ÂÖ±ÂíåÂõΩ",
          "official_name:ka": "·Éë·É£·Éö·Éí·Éê·É†·Éî·Éó·Éò·É° ·É†·Éî·É°·Éû·É£·Éë·Éö·Éò·Éô·Éê",
          "official_name:kk": "–ë–æ–ª–≥–∞—Ä–∏—è –†–µ—Å–ø—É–±–ª–∏–∫–∞—Å—ã",
          "official_name:kl": "Kunngiitsuuffik Bulgaria",
          "official_name:kn": "‡≤¨‡≤≤‡≥ç‡≤ó‡≥á‡≤∞‡≤ø‡≤Ø ‡≤ó‡≤£‡≤∞‡≤æ‡≤ú‡≥ç‡≤Ø",
          "official_name:ko": "Î∂àÍ∞ÄÎ¶¨ÏïÑ Í≥µÌôîÍµ≠",
          "official_name:ku": "Komara Bulgaristan√™",
          "official_name:kv": "–ë–æ–ª–≥–∞—Ä–∏—è –†–µ—Å–ø—É–±–ª–∏–∫–∞",
          "official_name:kw": "Repoblek Bulgari",
          "official_name:ky": "–ë–æ–ª–≥–∞—Ä –†–µ—Å–ø—É–±–ª–∏–∫–∞—Å—ã",
          "official_name:lb": "Republik Bulgarien",
          "official_name:ln": "Republ√≠ki ya Bulgaria",
          "official_name:lt": "Bulgarijos respublika",
          "official_name:lv": "BulgƒÅrijas Republika",
          "official_name:mi": "T≈´wehe PurukƒÅria",
          "official_name:mk": "–†–µ–ø—É–±–ª–∏–∫–∞ –ë—É–≥–∞—Ä–∏—ò–∞",
          "official_name:ml": "‡¥±‡¥ø‡¥™‡µç‡¥™‡¥¨‡µç‡¥≤‡¥ø‡¥ï‡µç‡¥ï‡µç ‡¥ì‡¥´‡µç ‡¥¨‡µæ‡¥ó‡µá‡¥±‡¥ø‡¥Ø",
          "official_name:mn": "–ë“Ø–≥–¥ –ù–∞–π—Ä–∞–º–¥–∞—Ö –ë–æ–ª–≥–∞—Ä –£–ª—Å",
          "official_name:mr": "‡§¨‡§≤‡•ç‡§ó‡•á‡§∞‡§ø‡§Ø‡§æ‡§ö‡•á ‡§™‡•ç‡§∞‡§ú‡§æ‡§∏‡§§‡•ç‡§§‡§æ‡§ï",
          "official_name:ms": "Republik Bulgaria",
          "official_name:mt": "Repubblika tal-Bulgarija",
          "official_name:my": "·Äò·Ä∞·Äú·Ä∫·ÄÇ·Ä±·Ä∏·Äõ·ÄÆ·Ä∏·Äö·Ä¨·Ä∏ ·Äï·Äº·Ää·Ä∫·Äû·Ä∞·Ä∑·Äû·Äô·Äπ·Äô·Äê·Äî·Ä≠·ÄØ·ÄÑ·Ä∫·ÄÑ·Ä∂·Äê·Ä±·Ä¨·Ä∫",
          "official_name:ne": "‡§ó‡§£‡§§‡§®‡•ç‡§§‡•ç‡§∞ ‡§¨‡•Å‡§≤‡•ç‡§ó‡•á‡§∞‡§ø‡§Ø‡§æ",
          "official_name:nl": "Republiek Bulgarije",
          "official_name:nn": "Republikken Bulgaria",
          "official_name:no": "Republikken Bulgaria",
          "official_name:oc": "Republica bulgara",
          "official_name:om": "Rippabliikii Bulgeeriyaa",
          "official_name:os": "–†–µ—Å–ø—É–±–ª–∏–∫√¶ –ë–æ–ª–≥–∞—Ä–∏",
          "official_name:pl": "Republika Bu≈Çgarii",
          "official_name:ps": "ÿØ ÿ®ŸÑÿ∫ÿßÿ±Ÿäÿß ŸàŸÑÿ≥ŸÖÿ¥ÿ±Ÿäÿ≤Ÿá",
          "official_name:pt": "Rep√∫blica da Bulg√°ria",
          "official_name:qu": "Bulgarya Ripuwlika",
          "official_name:ro": "Republica Bulgaria",
          "official_name:ru": "–†–µ—Å–ø—É–±–ª–∏–∫–∞ –ë–æ–ª–≥–∞—Ä–∏—è",
          "official_name:sc": "Republica de Bulgaria",
          "official_name:se": "Bulg√°ria d√°ssev√°ldi",
          "official_name:sh": "Republika Bugarska",
          "official_name:sk": "Bulharsk√° republika",
          "official_name:sl": "Republika Bolgarija",
          "official_name:sm": "Lepulika o Bultalia",
          "official_name:so": "Jamhuuriyadda Bulgaria",
          "official_name:sq": "Republika e Bullgaris√´",
          "official_name:sr": "–†–µ–ø—É–±–ª–∏–∫–∞ –ë—É–≥–∞—Ä—Å–∫–∞",
          "official_name:su": "Republik Bulgaria",
          "official_name:sv": "Republiken Bulgarien",
          "official_name:sw": "Jamhuri ya Bulgaria",
          "official_name:ta": "‡Æ™‡Æ≤‡Øç‡Æï‡Øá‡Æ∞‡Æø‡ÆØ‡Æï‡Øç ‡Æï‡ØÅ‡Æü‡Æø‡ÆØ‡Æ∞‡Æö‡ØÅ",
          "official_name:te": "‡∞ó‡∞£‡∞§‡∞Ç‡∞§‡±ç‡∞∞ ‡∞¨‡∞≤‡±ç‡∞ó‡±á‡∞∞‡∞ø‡∞Ø‡∞æ",
          "official_name:th": "‡∏™‡∏≤‡∏ò‡∏≤‡∏£‡∏ì‡∏£‡∏±‡∏ê‡∏ö‡∏±‡∏•‡πÅ‡∏Å‡πÄ‡∏£‡∏µ‡∏¢",
          "official_name:tk": "Bolgari√Ωa Respublikasy",
          "official_name:tl": "Republika ng Bulgarya",
          "official_name:tr": "Bulgaristan Cumhuriyeti",
          "official_name:tt": "–ë–æ–ª–≥–∞—Ä–∏—è “ñ”©–º“ª“Ø—Ä–∏—è—Ç–µ",
          "official_name:ug": "ÿ®ŸàŸÑÿ∫ÿßÿ±ŸâŸä€ï ÿ¨€áŸÖ⁄æ€áÿ±ŸâŸäŸâÿ™Ÿâ",
          "official_name:uk": "–†–µ—Å–ø—ÉÃÅ–±–ª—ñ–∫–∞ –ë–æ–ª–≥–∞ÃÅ—Ä—ñ—è",
          "official_name:ur": "ÿ¨ŸÖ€ÅŸàÿ±€å€Å ÿ®ŸÑÿ∫ÿßÿ±€å€Å",
          "official_name:uz": "Bolgariya Respublikasi",
          "official_name:vi": "C·ªông h√≤a Bulgaria",
          "official_name:wa": "Republike di Bulg√•reye",
          "official_name:wo": "Republik bu Bulgaari",
          "official_name:yi": "◊®◊¢◊§◊ï◊ë◊ú◊ô◊ß ◊§÷ø◊ï◊ü ◊ë◊ï◊ú◊í◊ê÷∑◊®◊ô◊¢",
          "official_name:yo": "Orile-ede Olominira ile Bulgaria",
          "official_name:zh": "‰øùÂä†Âà©‰∫öÂÖ±ÂíåÂõΩ",
          "official_name:zu": "IRiphabliki weBulgariya",
          "ISO3166-1:numeric": "100",
          "official_name:ady": "–†–µ—Å–ø—É–±–ª–∏–∫—ç—É –ë—É–ª–≥–∞—Ä–∏–µ",
          "official_name:als": "Republik Bulgarie",
          "official_name:arc": "‹©‹ò‹õ‹¢‹ù‹ò‹¨‹ê ‹ï‹í‹ò‹†‹ì‹ê‹™‹ù‹ê",
          "official_name:arz": "ÿ¨ŸÖŸáŸàÿ±Ÿäÿ© ÿ®ŸÑÿ¨ÿßÿ±Ÿäÿß",
          "official_name:ast": "Rep√∫blica de Bulgaria",
          "official_name:azb": "ÿ®ŸàŸÑÿ∫ÿßÿ±€åÿ≥ÿ™ÿßŸÜ ÿ¨ŸàŸÖŸáŸàÿ±€åÿ™€å",
          "official_name:bar": "Republik Buigarien",
          "official_name:bpy": "‡¶™‡ßç‡¶∞‡¶ú‡¶æ‡¶§‡¶®‡ßç‡¶§‡ßç‡¶∞‡¶ø ‡¶¨‡ßÅ‡¶≤‡¶ó‡ßá‡¶∞‡¶ø‡¶Ø‡¶º‡¶æ",
          "official_name:bxr": "–ë“Ø–≥—ç–¥—ç –ù–∞–π—Ä–∞–º–¥–∞—Ö–∞ –ë–æ–ª–≥–∞—Ä–∏ –£–ª–∞—Å",
          "official_name:chr": "·èç·é¶·èö·é© ·éæ·éø ·èä·éµ·é®·éµ·é†",
          "official_name:ckb": "⁄©€ÜŸÖÿßÿ±€å ÿ®ŸàŸÑ⁄Øÿßÿ±€åÿß",
          "official_name:crh": "Bulƒüaristan Cumhuriyeti",
          "official_name:diq": "Cumhuriyet Bulƒüarƒ±stan",
          "official_name:dsb": "Republika Bulgarska",
          "official_name:frr": "Republiik Bulgarien",
          "official_name:gag": "Bulgariya Respublikasƒ±",
          "official_name:hif": "Republic of Bulgaria",
          "official_name:hsb": "Republika Bo≈Çharska",
          "official_name:ilo": "Republika ti Bulgaria",
          "official_name:jam": "Ripoblik a Bulgieria",
          "official_name:koi": "–†–µ—Å–ø—É–±–ª–∏–∫–∞ –ë”ß–ª–≥–∞—Ä–∏—è",
          "official_name:krc": "–ë–æ–ª–≥–∞—Ä–∏—è –†–µ—Å–ø—É–±–ª–∏–∫–∞",
          "official_name:lad": "Republika Bulgaria",
          "official_name:lez": "–†–µ—Å–ø—É–±–ª–∏–∫–∞ –ë–æ–ª–≥–∞—Ä–∏—è",
          "official_name:lij": "Repubbrica Bulgara",
          "official_name:lmo": "Republega Bulgara",
          "official_name:lzh": "‰øùÂä†Âà©‰∫ûÂÖ±ÂíåÂúã",
          "official_name:mai": "‡§¨‡•Å‡§≤‡•ç‡§ó‡§æ‡§∞‡§ø‡§Ø‡§æ ‡§ó‡§£‡§§‡§Ç‡§§‡•ç‡§∞",
          "official_name:mrj": "–ë–æ–ª–≥–∞—Ä–∏ –†–µ—Å–ø—É–±–ª–∏–∫–∞",
          "official_name:myv": "–ë–æ–ª–≥–∞—Ä–∏—è –†–µ—Å–ø—ÉÃÅ–±–ª–∏–∫–∞—Å—å",
          "official_name:nah": "TlƒÅcatlahtohcƒÅy≈çtl Bulgaria",
          "official_name:nan": "Bulgaria Ki≈çng-h√¥-kok",
          "official_name:nds": "Republiek Bulgarien",
          "official_name:new": "‡§¨‡•Å‡§≤‡•ç‡§ó‡•á‡§∞‡§ø‡§Ø‡§æ ‡§ó‡§£‡§§‡§®‡•ç‡§§‡•ç‡§∞",
          "official_name:pam": "Republika ning Bulgaria",
          "official_name:pnt": "ŒîŒ∑ŒºŒøŒ∫œÅŒ±œÑŒØŒ±ŒΩ œÑŒ∑ ŒíŒøœÖŒªŒ≥Œ±œÅŒØŒ±œÇ",
          "official_name:rmy": "Republika Bulgariya",
          "official_name:sah": "–ë–æ–ª–≥–∞—Ä–∏—è –†–µ—Å–ø—É–±–ª–∏–∫–∞—Ç–∞",
          "official_name:sco": "Republic o Bulgarie",
          "official_name:srn": "Repoliku fu Bulgari",
          "official_name:stq": "Republik Bulgarien",
          "official_name:szl": "Republika Bulgaryje",
          "official_name:tet": "Rep√∫blika Bulg√°ria",
          "official_name:udm": "–†–µ—Å–ø—ÉÃÅ–±–ª–∏–∫–∞ –ë–æ–ª–≥–∞ÃÅ—Ä–∏—è",
          "official_name:vec": "Rep√πblica de Bulgar√¨a",
          "official_name:vep": "Bolgarijan Tazovaldkund",
          "official_name:vls": "Republiek Bulgareye",
          "official_name:vro": "Bulgaaria Vabariik",
          "official_name:wuu": "‰øùÂä†Âà©‰∫öÂÖ±ÂíåÂõΩ",
          "official_name:xal": "–ë–æ–ª–≥–∞—Ä–º—É–¥–∏–Ω –û—Ä–Ω",
          "official_name:xmf": "·Éë·É£·Éö·Éí·Éê·É†·Éî·Éó·Éò·É® ·É†·Éî·É°·Éû·É£·Éë·Éö·Éò·Éô·Éê",
          "official_name:yue": "‰øùÂä†Âà©‰∫ûÂÖ±ÂíåÂúã",
          "official_name:nds-nl": "Rippebliek Bulgarije",
          "official_name:bat-smg": "Bulgarƒójƒós Respoblƒóka",
          "official_name:roa-rup": "Republica Vurgaria",
          "official_name:roa-tara": "Repubblica di Bulgaria",
          "official_name:be-tarask": "–†—ç—Å–ø—ÉÃÅ–±–ª—ñ–∫–∞ –ë–∞—û–≥–∞ÃÅ—Ä—ã—è"
        }
      },
      "geometry": {
        "type": "Polygon",
        "coordinates": [
          [
            [
              22.4094658,
              44.0042054
            ],
            [
              22.411919167026767,
              44
            ],
            [
              22.927606321216597,
              44
            ],
            [
              22.9288748,
              44.0003686
            ],
            [
              22.9346264,
              44.0012635
            ],
            [
              22.9408179,
              44.0019466
            ],
            [
              22.9438305,
              44.0019835
            ],
            [
              22.9473581,
              44.002319
            ],
            [
              22.9504716,
              44.0027012
            ],
            [
              22.957385,
              44.0039531
            ],
            [
              22.974684,
              44.0057813
            ],
            [
              22.9925119,
              44.0088495
            ],
            [
              23,
              44.009854716431704
            ],
            [
              23,
              44.095274393989605
            ],
            [
              22.9932698,
              44.0966106
            ],
            [
              22.9847462,
              44.097341
            ],
            [
              22.9558958,
              44.0974921
            ],
            [
              22.9416504,
              44.097969
            ],
            [
              22.9300744,
              44.0989068
            ],
            [
              22.9219884,
              44.1000931
            ],
            [
              22.911628,
              44.1045874
            ],
            [
              22.9039246,
              44.1089335
            ],
            [
              22.895059,
              44.116624
            ],
            [
              22.885048,
              44.124385
            ],
            [
              22.8709388,
              44.1330731
            ],
            [
              22.864803,
              44.136195
            ],
            [
              22.849731,
              44.141144
            ],
            [
              22.8438872,
              44.1450636
            ],
            [
              22.8381343,
              44.1476457
            ],
            [
              22.8315848,
              44.1498498
            ],
            [
              22.8289813,
              44.1504795
            ],
            [
              22.8277871,
              44.1506987
            ],
            [
              22.8239685,
              44.1509079
            ],
            [
              22.8209742,
              44.1513732
            ],
            [
              22.8160415,
              44.1528345
            ],
            [
              22.8110493,
              44.1546204
            ],
            [
              22.8069827,
              44.1568659
            ],
            [
              22.8003371,
              44.1609723
            ],
            [
              22.7961435,
              44.1632562
            ],
            [
              22.7890391,
              44.1679923
            ],
            [
              22.7820196,
              44.1724151
            ],
            [
              22.7762552,
              44.1767711
            ],
            [
              22.7721386,
              44.1806865
            ],
            [
              22.7599607,
              44.190512
            ],
            [
              22.754688,
              44.193867
            ],
            [
              22.7513878,
              44.1957139
            ],
            [
              22.743103,
              44.198929
            ],
            [
              22.7384613,
              44.2004629
            ],
            [
              22.7335228,
              44.201625
            ],
            [
              22.7277392,
              44.2024788
            ],
            [
              22.7169725,
              44.2026386
            ],
            [
              22.6991131,
              44.203378
            ],
            [
              22.6942441,
              44.2043825
            ],
            [
              22.693047,
              44.2047401
            ],
            [
              22.6907079,
              44.205774
            ],
            [
              22.6882783,
              44.2070261
            ],
            [
              22.6738199,
              44.2155388
            ],
            [
              22.6712877,
              44.2135736
            ],
            [
              22.6698595,
              44.2137831
            ],
            [
              22.669361,
              44.2135648
            ],
            [
              22.6690388,
              44.2132034
            ],
            [
              22.6685757,
              44.2117974
            ],
            [
              22.6679835,
              44.2108498
            ],
            [
              22.667867,
              44.2098684
            ],
            [
              22.6678965,
              44.2093646
            ],
            [
              22.6687467,
              44.2088266
            ],
            [
              22.669363,
              44.2080924
            ],
            [
              22.6692908,
              44.207367
            ],
            [
              22.6689786,
              44.2071098
            ],
            [
              22.6677183,
              44.207131
            ],
            [
              22.6670396,
              44.2075329
            ],
            [
              22.6657939,
              44.2076745
            ],
            [
              22.6654578,
              44.2078951
            ],
            [
              22.6653669,
              44.2085708
            ],
            [
              22.6660128,
              44.2103769
            ],
            [
              22.6657693,
              44.2117436
            ],
            [
              22.6656704,
              44.2120896
            ],
            [
              22.6651577,
              44.2126891
            ],
            [
              22.6642762,
              44.213229
            ],
            [
              22.6635547,
              44.2131166
            ],
            [
              22.6619304,
              44.2111095
            ],
            [
              22.6589975,
              44.2088525
            ],
            [
              22.6566906,
              44.2073555
            ],
            [
              22.6568861,
              44.2066322
            ],
            [
              22.6562736,
              44.2065843
            ],
            [
              22.6556463,
              44.205389
            ],
            [
              22.6546436,
              44.2048984
            ],
            [
              22.6532343,
              44.204692
            ],
            [
              22.652355,
              44.2048184
            ],
            [
              22.6519533,
              44.2052403
            ],
            [
              22.6514993,
              44.2063289
            ],
            [
              22.6511955,
              44.2065785
            ],
            [
              22.6468671,
              44.208735
            ],
            [
              22.6456842,
              44.2090758
            ],
            [
              22.6451313,
              44.2090642
            ],
            [
              22.6443277,
              44.2087058
            ],
            [
              22.6439842,
              44.2080976
            ],
            [
              22.6440389,
              44.2074572
            ],
            [
              22.6442472,
              44.2071126
            ],
            [
              22.6454913,
              44.2055581
            ],
            [
              22.6470755,
              44.2046918
            ],
            [
              22.6474553,
              44.2039277
            ],
            [
              22.6471675,
              44.2025675
            ],
            [
              22.6456553,
              44.2014571
            ],
            [
              22.6453345,
              44.2009705
            ],
            [
              22.6454522,
              44.1986466
            ],
            [
              22.6452321,
              44.1978149
            ],
            [
              22.6446029,
              44.196867
            ],
            [
              22.6426654,
              44.194958
            ],
            [
              22.6422804,
              44.193573
            ],
            [
              22.6418654,
              44.19287
            ],
            [
              22.6408828,
              44.1925449
            ],
            [
              22.6389145,
              44.1926336
            ],
            [
              22.6382653,
              44.1925
            ],
            [
              22.6372739,
              44.1917852
            ],
            [
              22.6367677,
              44.1905408
            ],
            [
              22.6370537,
              44.1896423
            ],
            [
              22.6377333,
              44.1891394
            ],
            [
              22.6390923,
              44.188683
            ],
            [
              22.6412998,
              44.1886689
            ],
            [
              22.642369,
              44.1882358
            ],
            [
              22.6429025,
              44.1877651
            ],
            [
              22.6431341,
              44.187321
            ],
            [
              22.6432549,
              44.1864664
            ],
            [
              22.6431126,
              44.1858536
            ],
            [
              22.6418399,
              44.1846027
            ],
            [
              22.6408384,
              44.183117
            ],
            [
              22.6396745,
              44.1828009
            ],
            [
              22.6387538,
              44.1822453
            ],
            [
              22.6370985,
              44.1817271
            ],
            [
              22.636136,
              44.1817298
            ],
            [
              22.6355017,
              44.1819923
            ],
            [
              22.6338288,
              44.1835416
            ],
            [
              22.6332091,
              44.1843371
            ],
            [
              22.6327072,
              44.1845731
            ],
            [
              22.6317875,
              44.1846217
            ],
            [
              22.629863,
              44.1842496
            ],
            [
              22.6293967,
              44.1840041
            ],
            [
              22.6288762,
              44.1833621
            ],
            [
              22.6291038,
              44.1827096
            ],
            [
              22.6309364,
              44.1818112
            ],
            [
              22.6326195,
              44.17988
            ],
            [
              22.6331947,
              44.1795802
            ],
            [
              22.6347646,
              44.1792393
            ],
            [
              22.6357945,
              44.1785351
            ],
            [
              22.6363353,
              44.1775514
            ],
            [
              22.6361582,
              44.1760283
            ],
            [
              22.6354174,
              44.1752993
            ],
            [
              22.6347373,
              44.1743
            ],
            [
              22.6339022,
              44.1739685
            ],
            [
              22.6332009,
              44.1740711
            ],
            [
              22.6318373,
              44.1749068
            ],
            [
              22.6310381,
              44.1751375
            ],
            [
              22.6282435,
              44.1748002
            ],
            [
              22.6270547,
              44.1738852
            ],
            [
              22.6268172,
              44.1734075
            ],
            [
              22.6270259,
              44.1727328
            ],
            [
              22.6279866,
              44.1722512
            ],
            [
              22.627973,
              44.1716524
            ],
            [
              22.625249,
              44.1708125
            ],
            [
              22.6242985,
              44.1708781
            ],
            [
              22.6237167,
              44.1711679
            ],
            [
              22.6232348,
              44.1723954
            ],
            [
              22.6211997,
              44.1738866
            ],
            [
              22.6205967,
              44.173788
            ],
            [
              22.6196108,
              44.1732206
            ],
            [
              22.6186845,
              44.1729388
            ],
            [
              22.6172204,
              44.1720129
            ],
            [
              22.6165955,
              44.1710089
            ],
            [
              22.6163955,
              44.1697182
            ],
            [
              22.6169289,
              44.1678668
            ],
            [
              22.6163366,
              44.1662233
            ],
            [
              22.6149802,
              44.1658233
            ],
            [
              22.6134577,
              44.1658146
            ],
            [
              22.6130263,
              44.1655864
            ],
            [
              22.6130457,
              44.1649441
            ],
            [
              22.6136617,
              44.1644506
            ],
            [
              22.6149344,
              44.1637888
            ],
            [
              22.6166691,
              44.1632315
            ],
            [
              22.616635,
              44.1629433
            ],
            [
              22.6158889,
              44.1626372
            ],
            [
              22.6158297,
              44.1623606
            ],
            [
              22.6162136,
              44.1619062
            ],
            [
              22.6173369,
              44.161152
            ],
            [
              22.6177195,
              44.1612153
            ],
            [
              22.6183336,
              44.1616106
            ],
            [
              22.618912,
              44.1614813
            ],
            [
              22.6195497,
              44.1615913
            ],
            [
              22.6215694,
              44.1627676
            ],
            [
              22.6221706,
              44.1628443
            ],
            [
              22.6224752,
              44.1624486
            ],
            [
              22.6223301,
              44.1612923
            ],
            [
              22.6228612,
              44.1590621
            ],
            [
              22.6232163,
              44.1586706
            ],
            [
              22.6256207,
              44.1581248
            ],
            [
              22.6268631,
              44.1582501
            ],
            [
              22.6276835,
              44.1585088
            ],
            [
              22.6282618,
              44.158279
            ],
            [
              22.6284891,
              44.1579656
            ],
            [
              22.6282253,
              44.1560814
            ],
            [
              22.6277582,
              44.1554334
            ],
            [
              22.6269627,
              44.1547615
            ],
            [
              22.6267792,
              44.1543731
            ],
            [
              22.6267284,
              44.152794
            ],
            [
              22.6259009,
              44.1511287
            ],
            [
              22.6266788,
              44.1493414
            ],
            [
              22.6262037,
              44.1484599
            ],
            [
              22.6264808,
              44.1477626
            ],
            [
              22.6262126,
              44.1473267
            ],
            [
              22.6256308,
              44.1471817
            ],
            [
              22.6247547,
              44.1475248
            ],
            [
              22.6233583,
              44.1493751
            ],
            [
              22.6224841,
              44.1495749
            ],
            [
              22.6219486,
              44.1511031
            ],
            [
              22.6203725,
              44.1506817
            ],
            [
              22.6195187,
              44.1467111
            ],
            [
              22.6191687,
              44.1462684
            ],
            [
              22.6188015,
              44.14465
            ],
            [
              22.6180056,
              44.1400732
            ],
            [
              22.6141734,
              44.1249481
            ],
            [
              22.6102943,
              44.1066577
            ],
            [
              22.6115525,
              44.1035459
            ],
            [
              22.6129903,
              44.1017003
            ],
            [
              22.6161535,
              44.0993519
            ],
            [
              22.6197536,
              44.0977961
            ],
            [
              22.6198963,
              44.0900328
            ],
            [
              22.6196155,
              44.0897519
            ],
            [
              22.6186025,
              44.0865611
            ],
            [
              22.6198695,
              44.0857973
            ],
            [
              22.6200187,
              44.084352
            ],
            [
              22.6198265,
              44.0826482
            ],
            [
              22.6190922,
              44.0813175
            ],
            [
              22.618219,
              44.0802053
            ],
            [
              22.6154908,
              44.0791419
            ],
            [
              22.6165657,
              44.0767898
            ],
            [
              22.6182359,
              44.0752248
            ],
            [
              22.6194387,
              44.0750024
            ],
            [
              22.624591,
              44.0728677
            ],
            [
              22.6221025,
              44.0713433
            ],
            [
              22.6218177,
              44.0709056
            ],
            [
              22.6188086,
              44.0679483
            ],
            [
              22.6194475,
              44.0656555
            ],
            [
              22.6212624,
              44.0633924
            ],
            [
              22.6155684,
              44.063347
            ],
            [
              22.6137315,
              44.0625943
            ],
            [
              22.6123906,
              44.0622984
            ],
            [
              22.610318,
              44.0625017
            ],
            [
              22.6084163,
              44.0621233
            ],
            [
              22.6054562,
              44.0622553
            ],
            [
              22.5994644,
              44.0633375
            ],
            [
              22.5963372,
              44.0622231
            ],
            [
              22.5873956,
              44.0625363
            ],
            [
              22.5818534,
              44.0621001
            ],
            [
              22.581619,
              44.0593064
            ],
            [
              22.580643,
              44.0540746
            ],
            [
              22.575624,
              44.0546174
            ],
            [
              22.5676153,
              44.0565467
            ],
            [
              22.559708,
              44.0575567
            ],
            [
              22.5544916,
              44.0535777
            ],
            [
              22.547519,
              44.053541
            ],
            [
              22.539014,
              44.0528471
            ],
            [
              22.5348783,
              44.0522185
            ],
            [
              22.5326331,
              44.0508838
            ],
            [
              22.5305802,
              44.0482944
            ],
            [
              22.5348139,
              44.0470046
            ],
            [
              22.5361391,
              44.0455088
            ],
            [
              22.540355,
              44.043771
            ],
            [
              22.5419546,
              44.0421447
            ],
            [
              22.541364,
              44.0413139
            ],
            [
              22.537814,
              44.038193
            ],
            [
              22.5408644,
              44.0351174
            ],
            [
              22.5434905,
              44.0336474
            ],
            [
              22.5407205,
              44.0312812
            ],
            [
              22.54022,
              44.0292
            ],
            [
              22.5387719,
              44.0258041
            ],
            [
              22.5323264,
              44.0250983
            ],
            [
              22.5319217,
              44.0228516
            ],
            [
              22.5314459,
              44.0221003
            ],
            [
              22.531064,
              44.0208
            ],
            [
              22.527498,
              44.019731
            ],
            [
              22.522746,
              44.0190314
            ],
            [
              22.5173877,
              44.0188298
            ],
            [
              22.5111172,
              44.0194331
            ],
            [
              22.507625,
              44.0184038
            ],
            [
              22.4953992,
              44.0182252
            ],
            [
              22.4901272,
              44.019148
            ],
            [
              22.484587,
              44.0203794
            ],
            [
              22.479917,
              44.019183
            ],
            [
              22.4754515,
              44.0172686
            ],
            [
              22.4729372,
              44.0158423
            ],
            [
              22.4678115,
              44.0150085
            ],
            [
              22.460681,
              44.0156951
            ],
            [
              22.4545152,
              44.0167515
            ],
            [
              22.4492514,
              44.0172708
            ],
            [
              22.4421584,
              44.0165622
            ],
            [
              22.4418438,
              44.0154673
            ],
            [
              22.4416672,
              44.0120148
            ],
            [
              22.4411803,
              44.0101948
            ],
            [
              22.4339507,
              44.0094946
            ],
            [
              22.4320942,
              44.00912
            ],
            [
              22.428186,
              44.008115
            ],
            [
              22.4220941,
              44.0061026
            ],
            [
              22.4185147,
              44.006467
            ],
            [
              22.4141089,
              44.0062046
            ],
            [
              22.4094658,
              44.0042054
            ]
          ]
        ]
      }
    },
    {
      "type": "Feature",
      "properties": {
        "osm_id": -90689,
        "boundary": "administrative",
        "admin_level": 2,
        "parents": null,
        "name": "Romania",
        "local_name": "Rom√¢nia",
        "name_en": "Romania",
        "all_tags": {
          "flag": "https://upload.wikimedia.org/wikipedia/commons/7/73/Flag_of_Romania.svg",
          "name": "Rom√¢nia",
          "name:af": "Roemeni√´",
          "name:am": "·àÆ·àõ·äï·ã´",
          "name:an": "Ruman√≠a",
          "name:ar": "ÿ±ŸàŸÖÿßŸÜŸäÿß",
          "name:ay": "Rumanya",
          "name:az": "Rumƒ±niya",
          "name:ba": "–†—É–º—ã–Ω–∏—è",
          "name:be": "–†—É–º—ã–Ω—ñ—è",
          "name:bg": "–†—É–º—ä–Ω–∏—è",
          "name:bi": "Romania",
          "name:bn": "‡¶∞‡ßã‡¶Æ‡¶æ‡¶®‡¶ø‡¶Ø‡¶º‡¶æ",
          "name:bo": "‡Ω¢‡Ωº‡ºã‡Ωò‡ºã‡Ωì‡Ω≤‡ºã‡Ω°‡ºç",
          "name:br": "Roumania",
          "name:bs": "Rumunija",
          "name:ca": "Romania",
          "name:ce": "–†—É–º—ã–Ω–∏",
          "name:co": "Romania",
          "name:cs": "Rumunsko",
          "name:cu": "–†–æ—É–ºÍôë–Ω—óÍôó",
          "name:cv": "–†—É–º—ã–Ω–∏",
          "name:cy": "Rwmania",
          "name:da": "Rum√¶nien",
          "name:de": "Rum√§nien",
          "name:dv": "ﬁÉﬁ™ﬁâﬁ≠ﬁÇﬁ®ﬁáﬁß",
          "name:ee": "Romania",
          "name:el": "Œ°ŒøœÖŒºŒ±ŒΩŒØŒ±",
          "name:en": "Romania",
          "name:eo": "Rumanio",
          "name:es": "Ruman√≠a",
          "name:et": "Rumeenia",
          "name:eu": "Errumania",
          "name:fa": "ÿ±ŸàŸÖÿßŸÜ€å",
          "name:fi": "Romania",
          "name:fo": "Rumenia",
          "name:fr": "Roumanie",
          "name:fy": "Roemeenje",
          "name:ga": "An R√≥m√°in",
          "name:gd": "Rom√†inia",
          "name:gl": "Roman√≠a",
          "name:gn": "Rruma√±a",
          "name:gu": "‡™∞‡´ã‡™Æ‡™æ‡™®‡™ø‡™Ø‡™æ",
          "name:gv": "Yn Romaan",
          "name:he": "◊®◊ï◊û◊†◊ô◊î",
          "name:hi": "‡§∞‡•ã‡§Æ‡§æ‡§®‡§ø‡§Ø‡§æ",
          "name:hr": "Rumunjska",
          "name:ht": "Woumani",
          "name:hu": "Rom√°nia",
          "name:hy": "’å’∏÷Ç’¥’´’∂’´’°",
          "name:ia": "Romania",
          "name:id": "Rumania",
          "name:ie": "Rumania",
          "name:io": "Rumania",
          "name:is": "R√∫men√≠a",
          "name:it": "Romania",
          "name:ja": "„É´„Éº„Éû„Éã„Ç¢",
          "name:jv": "Rumania",
          "name:ka": "·É†·É£·Éõ·Éò·Éú·Éî·Éó·Éò",
          "name:kg": "Romania",
          "name:kk": "–†—É–º—ã–Ω–∏—è",
          "name:kl": "Rum√¶nia",
          "name:kn": "‡≤∞‡≥ä‡≤Æ‡≤æ‡≤®‡≤ø‡≤Ø",
          "name:ko": "Î£®ÎßàÎãàÏïÑ",
          "name:ku": "Romanya",
          "name:kv": "–†—É–º—ã–Ω–∏—è",
          "name:kw": "Roumani",
          "name:ky": "–†—É–º—ã–Ω–∏—è",
          "name:la": "Romania",
          "name:lb": "Rum√§nien",
          "name:li": "Roemeni√´",
          "name:ln": "Rumania",
          "name:lt": "Rumunija",
          "name:lv": "RumƒÅnija",
          "name:mi": "Romeinia",
          "name:mk": "–†–æ–º–∞–Ω–∏—ò–∞",
          "name:ml": "‡¥±‡µä‡¥Æ‡¥æ‡¥®‡¥ø‡¥Ø",
          "name:mn": "–†—É–º—ã–Ω",
          "name:mr": "‡§∞‡•ã‡§Æ‡•á‡§®‡§ø‡§Ø‡§æ",
          "name:ms": "Romania",
          "name:mt": "Rumanija",
          "name:my": "·Äõ·Ä≠·ÄØ·Äô·Ä±·Ä∏·Äî·ÄÆ·Ä∏·Äö·Ä¨·Ä∏·Äî·Ä≠·ÄØ·ÄÑ·Ä∫·ÄÑ·Ä∂",
          "name:na": "Romania",
          "name:ne": "‡§∞‡•ã‡§Æ‡§æ‡§®‡§ø‡§Ø‡§æ",
          "name:nl": "Roemeni√´",
          "name:nn": "Romania",
          "name:no": "Romania",
          "name:nv": "Woom√©iniya",
          "name:oc": "Romania",
          "name:or": "‡¨∞‡≠ã‡¨Æ‡¨æ‡¨®‡¨ø‡¨Ü",
          "name:os": "–†—É–º—ã–Ω–∏",
          "name:pa": "‡®∞‡©ã‡®Æ‡®æ‡®®‡©Ä‡®Ü",
          "name:pl": "Rumunia",
          "name:ps": "ÿ±ŸàŸÖÿßŸÜ€åÿß",
          "name:pt": "Rom√©nia",
          "name:qu": "Rumanya",
          "name:rm": "Rumenia",
          "name:ro": "Rom√¢nia",
          "name:ru": "–†—É–º—ã–Ω–∏—è",
          "name:rw": "Romaniya",
          "name:sc": "Romania",
          "name:se": "Romania",
          "name:sh": "Rumunija",
          "name:si": "‡∂ª‡∑î‡∂∏‡∑ö‡∂±‡∑í‡∂∫‡∑è‡∑Ä",
          "name:sk": "Rumunsko",
          "name:sl": "Romunija",
          "name:sm": "Romania",
          "name:so": "Romania",
          "name:sq": "Rumania",
          "name:sr": "–†—É–º—É–Ω–∏—ò–∞",
          "name:ss": "IRomaniya",
          "name:su": "Romania",
          "name:sv": "Rum√§nien",
          "name:sw": "Romania",
          "name:ta": "‡Æâ‡Æ∞‡ØÅ‡ÆÆ‡Øá‡Æ©‡Æø‡ÆØ‡Ææ",
          "name:te": "‡∞∞‡±ä‡∞Æ‡±á‡∞®‡∞ø‡∞Ø‡∞æ",
          "name:tg": "–†—É–º–∏–Ω–∏—è",
          "name:th": "‡∏õ‡∏£‡∏∞‡πÄ‡∏ó‡∏®‡πÇ‡∏£‡∏°‡∏≤‡πÄ‡∏ô‡∏µ‡∏¢",
          "name:tk": "Rumyni√Ωa",
          "name:tl": "Rumanya",
          "name:tr": "Romanya",
          "name:tt": "–†—É–º—ã–Ω–∏—è",
          "name:ug": "Ruminiye",
          "name:uk": "–†—É–º—É–Ω—ñ—è",
          "name:ur": "ÿ±ŸàŸÖÿßŸÜ€å€Å",
          "name:uz": "Ruminiya",
          "name:vi": "Romania",
          "name:vo": "Rum√§n",
          "name:wa": "Roumaneye",
          "name:wo": "Romaani",
          "name:yi": "◊®◊ï◊û◊¢◊†◊ô◊¢",
          "name:yo": "Rom√°n√≠√†",
          "name:zh": "ÁΩóÈ©¨Â∞º‰∫ö / ÁæÖÈ¶¨Â∞º‰∫û",
          "boundary": "administrative",
          "int_name": "Romania",
          "name:ace": "Rumania",
          "name:als": "Rum√§nien",
          "name:ang": "Rum«£nia",
          "name:arc": "‹™‹ò‹°‹¢‹ù‹ê",
          "name:arz": "ÿ±ŸàŸÖÿßŸÜŸäÿß",
          "name:ast": "Ruman√≠a",
          "name:bar": "Rum√§nien",
          "name:bcl": "Romanya",
          "name:bpy": "‡¶∞‡ßã‡¶Æ‡¶æ‡¶®‡¶ø‡¶Ø‡¶º‡¶æ",
          "name:bxr": "–†—É–º—ã–Ω",
          "name:cdo": "L√≤Ã§-mƒÅ-n√†Ã§-ƒÅ",
          "name:ceb": "Rumanya",
          "name:chr": "·é∂·éπ·èÇ·èØ",
          "name:ckb": "⁄ï€ÜŸÖÿßŸÜ€åÿß",
          "name:crh": "Romaniya",
          "name:csb": "Rum√π≈Ñsk√¥",
          "name:diq": "Romanya",
          "name:dsb": "Rumu≈Ñska",
          "name:eml": "Ruman√Æ",
          "name:ext": "Rumania",
          "name:frp": "Roumanie",
          "name:frr": "Rum√§nien",
          "name:fur": "Romanie",
          "name:gag": "Romƒ±niya",
          "name:hak": "L√≤-m√¢-n√¨-√¢",
          "name:haw": "RomƒÅnia",
          "name:hif": "Romania",
          "name:hsb": "Rumunska",
          "name:ilo": "Romania",
          "name:jbo": "romanias",
          "name:kaa": "Rumƒ±niya",
          "name:kbd": "–†—É–º—ã–Ω–∏—ç",
          "name:koi": "–†–æ–º—ã–Ω–∏—è",
          "name:krc": "–†—É–º—ã–Ω–∏—è",
          "name:lad": "Rumania",
          "name:lij": "Romania",
          "name:lmo": "Rumania",
          "name:ltg": "Rumuneja",
          "name:lzh": "ÁæÖÈ¶¨Â∞º‰∫û",
          "name:mdf": "–†—É–º—ã–Ω–∏–µ",
          "name:mhr": "–†—É–º—ã–Ω–∏–π",
          "name:nah": "Rumania",
          "name:nan": "Rom√¢nia",
          "name:nap": "Rumania",
          "name:nds": "Rum√§nien",
          "name:new": "‡§∞‡•ã‡§Æ‡§æ‡§®‡§ø‡§Ø‡§æ",
          "name:nov": "Rumania",
          "name:nrm": "Roumanie",
          "name:pam": "Romania",
          "name:pcd": "Roumanie",
          "name:pdc": "Rumeenie",
          "name:pih": "Romainya",
          "name:pms": "Roman√¨a",
          "name:pnb": "ÿ±ŸàŸÖÿßŸÜ€å€Å",
          "name:pnt": "Œ°ŒøœÖŒºŒ±ŒΩŒØŒ±",
          "name:rmy": "Rumuniya",
          "name:rue": "–†—É–º—É–Ω—å—Å–∫–æ",
          "name:sah": "–†—É–º—ã–Ω–∏—è",
          "name:scn": "Ruman√¨a",
          "name:sco": "Romanie",
          "name:smn": "Romania",
          "name:sms": "Romania",
          "name:stq": "Rum√§nien",
          "name:szl": "Rumynij≈è",
          "name:tet": "Rom√©nia",
          "name:tok": "ma Lomani",
          "name:tpi": "Romenia",
          "name:tzl": "Romania",
          "name:udm": "–†—É–º—ã–Ω–∏—è",
          "name:vec": "Roman√¨a",
          "name:vep": "Romanii",
          "name:vls": "Roemeni√´",
          "name:vro": "Rumeeni√§",
          "name:war": "Rumania",
          "name:wuu": "ÁΩóÈ©¨Â∞º‰∫ö",
          "name:xal": "–†—É–º—É–¥–∏–Ω –û—Ä–Ω",
          "name:xmf": "·É†·É£·Éõ·Éò·Éú·Éî·Éó·Éò",
          "name:yue": "ÁæÖÈ¶¨Â∞º‰∫û",
          "name:zea": "Roemeni√´",
          "timezone": "Europe/Bucharest",
          "way_area": "28.2112",
          "wikidata": "Q218",
          "ISO3166-1": "RO",
          "wikipedia": "en:Romania",
          "admin_level": "2",
          "alt_name:eo": "Rumanujo",
          "name:nds-nl": "Roemeni√´",
          "name:bat-smg": "Romunƒójƒó",
          "name:cbk-zam": "Ruman√≠a",
          "name:roa-rup": "RomƒÉnia",
          "name:zh-Hans": "ÁΩóÈ©¨Â∞º‰∫ö",
          "name:zh-Hant": "ÁæÖÈ¶¨Â∞º‰∫û",
          "name:roa-tara": "Romanie",
          "official_name": "Rom√¢nia",
          "name:be-tarask": "–†—É–º—ã–Ω—ñ—è",
          "ISO3166-1:alpha2": "RO",
          "ISO3166-1:alpha3": "ROU",
          "default_language": "ro",
          "ISO3166-1:numeric": "642"
        }
      },
      "geometry": {
        "type": "MultiPolygon",
        "coordinates": [
          [
            [
              [
                22,
                44.62590415915601
              ],
              [
                22.0000218,
                44.6258541
              ],
              [
                22.0010493,
                44.6225848
              ],
              [
                22.0037646,
                44.6107235
              ],
              [
                22.0041282,
                44.608252
              ],
              [
                22.0059676,
                44.6066068
              ],
              [
                22.0123596,
                44.6023225
              ],
              [
                22.0161387,
                44.5991717
              ],
              [
                22.0214662,
                44.5961851
              ],
              [
                22.0225781,
                44.5951713
              ],
              [
                22.023498,
                44.594045
              ],
              [
                22.0253145,
                44.5909519
              ],
              [
                22.0282954,
                44.5830589
              ],
              [
                22.0282309,
                44.5819186
              ],
              [
                22.0275931,
                44.5808328
              ],
              [
                22.0274419,
                44.5798697
              ],
              [
                22.0280062,
                44.5715232
              ],
              [
                22.0278605,
                44.5700637
              ],
              [
                22.0261977,
                44.5675795
              ],
              [
                22.0253837,
                44.565866
              ],
              [
                22.0256236,
                44.5642414
              ],
              [
                22.0269605,
                44.5602645
              ],
              [
                22.0273934,
                44.559367
              ],
              [
                22.0300399,
                44.5551832
              ],
              [
                22.0320447,
                44.5527104
              ],
              [
                22.0324886,
                44.5518164
              ],
              [
                22.0334136,
                44.5485859
              ],
              [
                22.0340512,
                44.546997
              ],
              [
                22.0355467,
                44.5442028
              ],
              [
                22.0371884,
                44.5418795
              ],
              [
                22.0389393,
                44.5402583
              ],
              [
                22.0399795,
                44.5395328
              ],
              [
                22.0439388,
                44.5374311
              ],
              [
                22.0460144,
                44.536525
              ],
              [
                22.0548653,
                44.5336062
              ],
              [
                22.0575103,
                44.5323222
              ],
              [
                22.069179,
                44.5246151
              ],
              [
                22.0707041,
                44.5234015
              ],
              [
                22.0720172,
                44.5216094
              ],
              [
                22.0729663,
                44.5192453
              ],
              [
                22.0741518,
                44.5171333
              ],
              [
                22.0770814,
                44.5128954
              ],
              [
                22.0783554,
                44.509456
              ],
              [
                22.0788346,
                44.5057884
              ],
              [
                22.0791901,
                44.5051235
              ],
              [
                22.0803943,
                44.5040845
              ],
              [
                22.0816448,
                44.5021331
              ],
              [
                22.0824032,
                44.5012992
              ],
              [
                22.0840455,
                44.4999027
              ],
              [
                22.0858531,
                44.4989311
              ],
              [
                22.0889914,
                44.4978009
              ],
              [
                22.0935081,
                44.4959104
              ],
              [
                22.0996959,
                44.4924521
              ],
              [
                22.1090323,
                44.4863542
              ],
              [
                22.1143919,
                44.4821086
              ],
              [
                22.1251339,
                44.4756116
              ],
              [
                22.1309106,
                44.4726666
              ],
              [
                22.1336053,
                44.4716138
              ],
              [
                22.1366379,
                44.4708187
              ],
              [
                22.14053,
                44.4704059
              ],
              [
                22.1439023,
                44.4704603
              ],
              [
                22.1519517,
                44.4712209
              ],
              [
                22.1578086,
                44.4714607
              ],
              [
                22.1610857,
                44.4721796
              ],
              [
                22.1690044,
                44.4752563
              ],
              [
                22.1735581,
                44.4767463
              ],
              [
                22.1774632,
                44.4782281
              ],
              [
                22.181021,
                44.4799809
              ],
              [
                22.1842438,
                44.4821561
              ],
              [
                22.1870788,
                44.4849817
              ],
              [
                22.1893992,
                44.4884564
              ],
              [
                22.1912604,
                44.4928219
              ],
              [
                22.190825,
                44.4964935
              ],
              [
                22.1900562,
                44.4974316
              ],
              [
                22.1898077,
                44.498051
              ],
              [
                22.1921296,
                44.5013776
              ],
              [
                22.1929755,
                44.5036931
              ],
              [
                22.1936938,
                44.5079182
              ],
              [
                22.194146,
                44.508656
              ],
              [
                22.1962444,
                44.5109525
              ],
              [
                22.1988654,
                44.5135632
              ],
              [
                22.2025249,
                44.5168124
              ],
              [
                22.2059159,
                44.5213243
              ],
              [
                22.2084636,
                44.5252949
              ],
              [
                22.2113953,
                44.531527
              ],
              [
                22.2141553,
                44.5364123
              ],
              [
                22.2152444,
                44.5378427
              ],
              [
                22.2185985,
                44.5416028
              ],
              [
                22.2222043,
                44.5493701
              ],
              [
                22.2243624,
                44.5524002
              ],
              [
                22.2266819,
                44.5549607
              ],
              [
                22.228534,
                44.5586332
              ],
              [
                22.2302441,
                44.5613745
              ],
              [
                22.2320902,
                44.5634056
              ],
              [
                22.2348056,
                44.5657735
              ],
              [
                22.2388058,
                44.568724
              ],
              [
                22.2411727,
                44.570808
              ],
              [
                22.2444218,
                44.5747982
              ],
              [
                22.2492303,
                44.579678
              ],
              [
                22.2558407,
                44.5874048
              ],
              [
                22.2614133,
                44.5923459
              ],
              [
                22.2623636,
                44.5933299
              ],
              [
                22.2642588,
                44.5957704
              ],
              [
                22.267461,
                44.6030762
              ],
              [
                22.2682363,
                44.6046746
              ],
              [
                22.2705555,
                44.6083674
              ],
              [
                22.271663,
                44.6110947
              ],
              [
                22.2722908,
                44.6129445
              ],
              [
                22.2729963,
                44.6158821
              ],
              [
                22.2729604,
                44.619797
              ],
              [
                22.2733245,
                44.6232075
              ],
              [
                22.273831,
                44.6246126
              ],
              [
                22.2746405,
                44.625895
              ],
              [
                22.2775554,
                44.6280628
              ],
              [
                22.2800742,
                44.6289817
              ],
              [
                22.2842196,
                44.6299535
              ],
              [
                22.2867056,
                44.6313815
              ],
              [
                22.2892407,
                44.6332699
              ],
              [
                22.2924356,
                44.6352736
              ],
              [
                22.2971684,
                44.6367984
              ],
              [
                22.2986661,
                44.637649
              ],
              [
                22.3002743,
                44.6390143
              ],
              [
                22.3016575,
                44.6411921
              ],
              [
                22.3019856,
                44.6420659
              ],
              [
                22.3024531,
                44.6444496
              ],
              [
                22.3018891,
                44.6491652
              ],
              [
                22.3024,
                44.6511195
              ],
              [
                22.3034387,
                44.6531635
              ],
              [
                22.3043225,
                44.6544166
              ],
              [
                22.3065595,
                44.6569905
              ],
              [
                22.3084322,
                44.6586922
              ],
              [
                22.312605,
                44.661496
              ],
              [
                22.3188005,
                44.6651825
              ],
              [
                22.3202263,
                44.6661798
              ],
              [
                22.3260574,
                44.6715036
              ],
              [
                22.3289896,
                44.6736982
              ],
              [
                22.3316409,
                44.6752569
              ],
              [
                22.3329653,
                44.6758803
              ],
              [
                22.333999,
                44.676128
              ],
              [
                22.3369515,
                44.676586
              ],
              [
                22.3392441,
                44.6765129
              ],
              [
                22.3424575,
                44.6759204
              ],
              [
                22.3469219,
                44.6745212
              ],
              [
                22.3500354,
                44.6737854
              ],
              [
                22.3554024,
                44.6728667
              ],
              [
                22.3611297,
                44.6723957
              ],
              [
                22.3662338,
                44.6722446
              ],
              [
                22.3711379,
                44.6725704
              ],
              [
                22.3743131,
                44.6732887
              ],
              [
                22.3794745,
                44.6749739
              ],
              [
                22.3826266,
                44.6767919
              ],
              [
                22.3917661,
                44.6802914
              ],
              [
                22.3951602,
                44.6820453
              ],
              [
                22.4042349,
                44.6886076
              ],
              [
                22.4053148,
                44.6896237
              ],
              [
                22.4062653,
                44.6908427
              ],
              [
                22.4076535,
                44.6930643
              ],
              [
                22.4090692,
                44.6948506
              ],
              [
                22.4110869,
                44.6970131
              ],
              [
                22.4133485,
                44.6992017
              ],
              [
                22.4181125,
                44.7032124
              ],
              [
                22.4209009,
                44.7051726
              ],
              [
                22.425297,
                44.7073252
              ],
              [
                22.4287318,
                44.7094399
              ],
              [
                22.4307586,
                44.7101734
              ],
              [
                22.4319362,
                44.7103941
              ],
              [
                22.4338091,
                44.7103368
              ],
              [
                22.4366316,
                44.7098894
              ],
              [
                22.439131,
                44.7097746
              ],
              [
                22.4420475,
                44.7100618
              ],
              [
                22.4433122,
                44.7103632
              ],
              [
                22.4488313,
                44.7125614
              ],
              [
                22.4502701,
                44.7127544
              ],
              [
                22.4551461,
                44.712704
              ],
              [
                22.458401,
                44.7145009
              ],
              [
                22.4596334,
                44.7149375
              ],
              [
                22.4614305,
                44.7152299
              ],
              [
                22.4638542,
                44.7152413
              ],
              [
                22.4673512,
                44.7147531
              ],
              [
                22.4700512,
                44.7139555
              ],
              [
                22.478007,
                44.7101143
              ],
              [
                22.4828585,
                44.7084735
              ],
              [
                22.4839845,
                44.7078402
              ],
              [
                22.4876925,
                44.7032313
              ],
              [
                22.4887552,
                44.7020913
              ],
              [
                22.4905601,
                44.7006757
              ],
              [
                22.4914074,
                44.7001026
              ],
              [
                22.4935077,
                44.6990897
              ],
              [
                22.4981709,
                44.6961629
              ],
              [
                22.5028066,
                44.6942857
              ],
              [
                22.5053801,
                44.6928074
              ],
              [
                22.5080102,
                44.690512
              ],
              [
                22.5093937,
                44.6887383
              ],
              [
                22.5127464,
                44.6836243
              ],
              [
                22.5161385,
                44.6802557
              ],
              [
                22.5197137,
                44.6778852
              ],
              [
                22.5223147,
                44.6765589
              ],
              [
                22.5237125,
                44.6762645
              ],
              [
                22.5291029,
                44.6712768
              ],
              [
                22.5368505,
                44.6666677
              ],
              [
                22.538475,
                44.6646798
              ],
              [
                22.5394553,
                44.6639357
              ],
              [
                22.5415653,
                44.6627687
              ],
              [
                22.5438954,
                44.6612331
              ],
              [
                22.5455513,
                44.6594142
              ],
              [
                22.5495092,
                44.6564757
              ],
              [
                22.5536068,
                44.6526258
              ],
              [
                22.5545302,
                44.6521605
              ],
              [
                22.558301,
                44.6491588
              ],
              [
                22.5594855,
                44.648577
              ],
              [
                22.5628679,
                44.6475034
              ],
              [
                22.563743,
                44.6424315
              ],
              [
                22.5645628,
                44.6409119
              ],
              [
                22.5670749,
                44.6385989
              ],
              [
                22.5706578,
                44.6364275
              ],
              [
                22.5737805,
                44.6350951
              ],
              [
                22.5776923,
                44.634357
              ],
              [
                22.5806154,
                44.6326678
              ],
              [
                22.5822879,
                44.6315166
              ],
              [
                22.5830067,
                44.6308266
              ],
              [
                22.5847747,
                44.6301504
              ],
              [
                22.5892318,
                44.6291016
              ],
              [
                22.5979428,
                44.6244577
              ],
              [
                22.6134012,
                44.6172141
              ],
              [
                22.6178382,
                44.6156313
              ],
              [
                22.6214859,
                44.6146407
              ],
              [
                22.6278885,
                44.6139241
              ],
              [
                22.6309102,
                44.613755
              ],
              [
                22.6347705,
                44.6138309
              ],
              [
                22.6407871,
                44.6146437
              ],
              [
                22.6441492,
                44.6154022
              ],
              [
                22.6523725,
                44.6168185
              ],
              [
                22.655104,
                44.617032
              ],
              [
                22.6618347,
                44.6179297
              ],
              [
                22.6696187,
                44.6191252
              ],
              [
                22.6727201,
                44.61911
              ],
              [
                22.6745408,
                44.6188423
              ],
              [
                22.6763232,
                44.6182782
              ],
              [
                22.6778692,
                44.6173679
              ],
              [
                22.6786575,
                44.6166022
              ],
              [
                22.6789014,
                44.6154691
              ],
              [
                22.6789946,
                44.6131394
              ],
              [
                22.679443,
                44.6118719
              ],
              [
                22.6818623,
                44.6093983
              ],
              [
                22.6856589,
                44.6070712
              ],
              [
                22.6934646,
                44.6039772
              ],
              [
                22.6948934,
                44.6036457
              ],
              [
                22.6998001,
                44.603883
              ],
              [
                22.7059779,
                44.6032263
              ],
              [
                22.7079401,
                44.6021114
              ],
              [
                22.7128194,
                44.5988193
              ],
              [
                22.7184801,
                44.5941222
              ],
              [
                22.7235838,
                44.590173
              ],
              [
                22.7299182,
                44.5846963
              ],
              [
                22.7395744,
                44.5773606
              ],
              [
                22.7469351,
                44.5714437
              ],
              [
                22.7486832,
                44.5698032
              ],
              [
                22.7543853,
                44.5650347
              ],
              [
                22.7555111,
                44.5637939
              ],
              [
                22.7558517,
                44.563103
              ],
              [
                22.7584765,
                44.5598298
              ],
              [
                22.7599785,
                44.5577875
              ],
              [
                22.7607703,
                44.5563862
              ],
              [
                22.7622015,
                44.5533286
              ],
              [
                22.7633985,
                44.5489512
              ],
              [
                22.7638788,
                44.5459939
              ],
              [
                22.7641118,
                44.5426514
              ],
              [
                22.7638463,
                44.5411294
              ],
              [
                22.7634787,
                44.5404795
              ],
              [
                22.7596874,
                44.5376115
              ],
              [
                22.75831,
                44.5367904
              ],
              [
                22.7550226,
                44.5352355
              ],
              [
                22.7445025,
                44.5321143
              ],
              [
                22.7354426,
                44.5290089
              ],
              [
                22.7236973,
                44.5247871
              ],
              [
                22.7170903,
                44.5221427
              ],
              [
                22.7111432,
                44.5200386
              ],
              [
                22.6991218,
                44.5167015
              ],
              [
                22.697416,
                44.5168158
              ],
              [
                22.6955697,
                44.5166349
              ],
              [
                22.6933668,
                44.5168866
              ],
              [
                22.6871737,
                44.5187218
              ],
              [
                22.685004,
                44.5196858
              ],
              [
                22.6683697,
                44.5286199
              ],
              [
                22.6612695,
                44.5327769
              ],
              [
                22.6556139,
                44.5355455
              ],
              [
                22.6495542,
                44.5393886
              ],
              [
                22.6440678,
                44.543493
              ],
              [
                22.6411028,
                44.5451192
              ],
              [
                22.6358117,
                44.5458343
              ],
              [
                22.6308069,
                44.5473828
              ],
              [
                22.6283583,
                44.549101
              ],
              [
                22.6274093,
                44.5504439
              ],
              [
                22.6238866,
                44.5514196
              ],
              [
                22.6226974,
                44.5517355
              ],
              [
                22.618905,
                44.5521875
              ],
              [
                22.6180518,
                44.5519461
              ],
              [
                22.6157451,
                44.5523279
              ],
              [
                22.6080437,
                44.5526997
              ],
              [
                22.5984034,
                44.5525259
              ],
              [
                22.5900802,
                44.5509142
              ],
              [
                22.5859953,
                44.5497441
              ],
              [
                22.5818126,
                44.5481661
              ],
              [
                22.5769023,
                44.5459203
              ],
              [
                22.5709763,
                44.5419511
              ],
              [
                22.5671102,
                44.538145
              ],
              [
                22.5647415,
                44.5361828
              ],
              [
                22.5642845,
                44.5355571
              ],
              [
                22.5630667,
                44.5325939
              ],
              [
                22.5609791,
                44.5209753
              ],
              [
                22.5605254,
                44.51941
              ],
              [
                22.5598269,
                44.5156768
              ],
              [
                22.5597281,
                44.5136002
              ],
              [
                22.5608044,
                44.5087768
              ],
              [
                22.5610672,
                44.5058809
              ],
              [
                22.560695,
                44.5043085
              ],
              [
                22.557781,
                44.4994267
              ],
              [
                22.5566583,
                44.4972111
              ],
              [
                22.5564319,
                44.4963093
              ],
              [
                22.5563746,
                44.4951144
              ],
              [
                22.5566701,
                44.4912228
              ],
              [
                22.5564781,
                44.4903895
              ],
              [
                22.5542121,
                44.4865632
              ],
              [
                22.5528801,
                44.4849235
              ],
              [
                22.5504861,
                44.4826739
              ],
              [
                22.5482365,
                44.4812542
              ],
              [
                22.5429933,
                44.4787389
              ],
              [
                22.5402817,
                44.4781239
              ],
              [
                22.5386262,
                44.4781382
              ],
              [
                22.5364165,
                44.4784118
              ],
              [
                22.5313191,
                44.4763518
              ],
              [
                22.5307683,
                44.4755052
              ],
              [
                22.5288961,
                44.4740264
              ],
              [
                22.5275798,
                44.4733805
              ],
              [
                22.525055,
                44.4725048
              ],
              [
                22.5214166,
                44.4718468
              ],
              [
                22.5197607,
                44.4718493
              ],
              [
                22.5153767,
                44.4722573
              ],
              [
                22.5140621,
                44.4726627
              ],
              [
                22.510323,
                44.4742643
              ],
              [
                22.508269,
                44.4746784
              ],
              [
                22.4999587,
                44.4771114
              ],
              [
                22.4842537,
                44.4795909
              ],
              [
                22.4747574,
                44.4806248
              ],
              [
                22.4703946,
                44.4804322
              ],
              [
                22.4681032,
                44.4800232
              ],
              [
                22.4639719,
                44.4786145
              ],
              [
                22.4612117,
                44.4766828
              ],
              [
                22.4593675,
                44.4739648
              ],
              [
                22.4581737,
                44.47184
              ],
              [
                22.4575484,
                44.470331
              ],
              [
                22.4573288,
                44.4692255
              ],
              [
                22.4574143,
                44.4674703
              ],
              [
                22.4595794,
                44.4628079
              ],
              [
                22.4601715,
                44.4603842
              ],
              [
                22.4601101,
                44.4571566
              ],
              [
                22.4623846,
                44.4538177
              ],
              [
                22.4629855,
                44.4522707
              ],
              [
                22.4629597,
                44.4499475
              ],
              [
                22.467277,
                44.4410267
              ],
              [
                22.4713246,
                44.4377506
              ],
              [
                22.4734972,
                44.4357645
              ],
              [
                22.4834273,
                44.4312458
              ],
              [
                22.4856717,
                44.4299039
              ],
              [
                22.4909999,
                44.425498
              ],
              [
                22.4929396,
                44.4243875
              ],
              [
                22.4974805,
                44.4221966
              ],
              [
                22.4998815,
                44.4201246
              ],
              [
                22.5007717,
                44.418648
              ],
              [
                22.5008174,
                44.4176836
              ],
              [
                22.499401,
                44.4129022
              ],
              [
                22.4991888,
                44.4117281
              ],
              [
                22.4991802,
                44.4077305
              ],
              [
                22.4988385,
                44.4039656
              ],
              [
                22.5001452,
                44.3978005
              ],
              [
                22.5013602,
                44.3887375
              ],
              [
                22.5024505,
                44.3838687
              ],
              [
                22.5032931,
                44.3811947
              ],
              [
                22.5046861,
                44.378236
              ],
              [
                22.5089538,
                44.3720665
              ],
              [
                22.512678,
                44.3671804
              ],
              [
                22.5154803,
                44.3625864
              ],
              [
                22.5161042,
                44.3612321
              ],
              [
                22.5183687,
                44.3548248
              ],
              [
                22.5220792,
                44.3462511
              ],
              [
                22.523216,
                44.3433044
              ],
              [
                22.5239521,
                44.340663
              ],
              [
                22.5247187,
                44.3390462
              ],
              [
                22.5280589,
                44.3356842
              ],
              [
                22.546134,
                44.3240323
              ],
              [
                22.5515413,
                44.3179224
              ],
              [
                22.5549826,
                44.3128497
              ],
              [
                22.5578713,
                44.3090019
              ],
              [
                22.5597167,
                44.3076814
              ],
              [
                22.5635791,
                44.3055317
              ],
              [
                22.5678277,
                44.304641
              ],
              [
                22.5737842,
                44.3018456
              ],
              [
                22.5863731,
                44.3009392
              ],
              [
                22.5890975,
                44.3000748
              ],
              [
                22.5908346,
                44.2991397
              ],
              [
                22.593123,
                44.2984818
              ],
              [
                22.5942474,
                44.2983583
              ],
              [
                22.5958815,
                44.2984663
              ],
              [
                22.6005283,
                44.2970205
              ],
              [
                22.6094911,
                44.2946098
              ],
              [
                22.6150517,
                44.2934784
              ],
              [
                22.6245371,
                44.2925902
              ],
              [
                22.6318597,
                44.2922887
              ],
              [
                22.6423159,
                44.2921919
              ],
              [
                22.6501162,
                44.2918279
              ],
              [
                22.6601681,
                44.2882093
              ],
              [
                22.6718222,
                44.2836235
              ],
              [
                22.6761031,
                44.2809421
              ],
              [
                22.6792522,
                44.2781406
              ],
              [
                22.6833987,
                44.2716166
              ],
              [
                22.6851405,
                44.26552
              ],
              [
                22.6854881,
                44.2584183
              ],
              [
                22.684418,
                44.2509938
              ],
              [
                22.6835489,
                44.2478736
              ],
              [
                22.6755452,
                44.2360984
              ],
              [
                22.6737665,
                44.2330638
              ],
              [
                22.6721012,
                44.2288779
              ],
              [
                22.6723592,
                44.2193325
              ],
              [
                22.6729014,
                44.218079
              ],
              [
                22.6742847,
                44.2165873
              ],
              [
                22.6738199,
                44.2155388
              ],
              [
                22.6882783,
                44.2070261
              ],
              [
                22.6907079,
                44.205774
              ],
              [
                22.693047,
                44.2047401
              ],
              [
                22.6942441,
                44.2043825
              ],
              [
                22.6991131,
                44.203378
              ],
              [
                22.7169725,
                44.2026386
              ],
              [
                22.7277392,
                44.2024788
              ],
              [
                22.7335228,
                44.201625
              ],
              [
                22.7384613,
                44.2004629
              ],
              [
                22.743103,
                44.198929
              ],
              [
                22.7513878,
                44.1957139
              ],
              [
                22.754688,
                44.193867
              ],
              [
                22.7599607,
                44.190512
              ],
              [
                22.7721386,
                44.1806865
              ],
              [
                22.7762552,
                44.1767711
              ],
              [
                22.7820196,
                44.1724151
              ],
              [
                22.7890391,
                44.1679923
              ],
              [
                22.7961435,
                44.1632562
              ],
              [
                22.8003371,
                44.1609723
              ],
              [
                22.8069827,
                44.1568659
              ],
              [
                22.8110493,
                44.1546204
              ],
              [
                22.8160415,
                44.1528345
              ],
              [
                22.8209742,
                44.1513732
              ],
              [
                22.8239685,
                44.1509079
              ],
              [
                22.8277871,
                44.1506987
              ],
              [
                22.8289813,
                44.1504795
              ],
              [
                22.8315848,
                44.1498498
              ],
              [
                22.8381343,
                44.1476457
              ],
              [
                22.8438872,
                44.1450636
              ],
              [
                22.849731,
                44.141144
              ],
              [
                22.864803,
                44.136195
              ],
              [
                22.8709388,
                44.1330731
              ],
              [
                22.885048,
                44.124385
              ],
              [
                22.895059,
                44.116624
              ],
              [
                22.9039246,
                44.1089335
              ],
              [
                22.911628,
                44.1045874
              ],
              [
                22.9219884,
                44.1000931
              ],
              [
                22.9300744,
                44.0989068
              ],
              [
                22.9416504,
                44.097969
              ],
              [
                22.9558958,
                44.0974921
              ],
              [
                22.9847462,
                44.097341
              ],
              [
                22.9932698,
                44.0966106
              ],
              [
                23,
                44.095274393989605
              ],
              [
                23,
                45
              ],
              [
                22,
                45
              ],
              [
                22,
                44.62590415915601
              ]
            ]
          ],
          [
            [
              [
                22.927606321216597,
                44
              ],
              [
                23,
                44
              ],
              [
                23,
                44.009854716431704
              ],
              [
                22.9925119,
                44.0088495
              ],
              [
                22.974684,
                44.0057813
              ],
              [
                22.957385,
                44.0039531
              ],
              [
                22.9504716,
                44.0027012
              ],
              [
                22.9473581,
                44.002319
              ],
              [
                22.9438305,
                44.0019835
              ],
              [
                22.9408179,
                44.0019466
              ],
              [
                22.9346264,
                44.0012635
              ],
              [
                22.9288748,
                44.0003686
              ],
              [
                22.927606321216597,
                44
              ]
            ]
          ]
        ]
      }
    },
    {
      "type": "Feature",
      "properties": {
        "osm_id": -1741311,
        "boundary": "administrative",
        "admin_level": 2,
        "parents": null,
        "name": "Serbia",
        "local_name": "–°—Ä–±–∏—ò–∞",
        "name_en": "Serbia",
        "all_tags": {
          "flag": "https://upload.wikimedia.org/wikipedia/commons/f/ff/Flag_of_Serbia.svg",
          "name": "–°—Ä–±–∏—ò–∞",
          "name:af": "Serwi√´",
          "name:am": "·à∞·à≠·â¢·ã´",
          "name:an": "Serbia",
          "name:ar": "ÿµÿ±ÿ®Ÿäÿß",
          "name:ay": "Sirwiya",
          "name:az": "Serbiya",
          "name:ba": "–°–µ—Ä–±–∏—è",
          "name:be": "–°–µ—Ä–±—ñ—è",
          "name:bg": "–°—ä—Ä–±–∏—è",
          "name:bi": "Serbia",
          "name:bn": "‡¶∏‡¶æ‡¶∞‡ßç‡¶¨‡¶ø‡¶Ø‡¶º‡¶æ",
          "name:bo": "‡Ω¶‡Ω∫‡Ω¢‡ºã‡Ωñ‡æ∑‡Ω≤‡ºã‡Ω°‡ºç",
          "name:br": "Serbia",
          "name:bs": "Srbija",
          "name:ca": "S√®rbia",
          "name:ce": "–°–µ—Ä–±–∏",
          "name:co": "Serbia",
          "name:cs": "Srbsko",
          "name:cu": "–°—Ä—å–±—óÍôó",
          "name:cv": "–°–µ—Ä–±–∏",
          "name:cy": "Serbia",
          "name:da": "Serbien",
          "name:de": "Serbien",
          "name:dv": "ﬁêﬁßﬁÑﬁ®ﬁáﬁß",
          "name:ee": "Serbia",
          "name:el": "Œ£ŒµœÅŒ≤ŒØŒ±",
          "name:en": "Serbia",
          "name:eo": "Serbio",
          "name:es": "Serbia",
          "name:et": "Serbia",
          "name:eu": "Serbia",
          "name:fa": "ÿµÿ±ÿ®ÿ≥ÿ™ÿßŸÜ",
          "name:fi": "Serbia",
          "name:fo": "Serbia",
          "name:fr": "Serbie",
          "name:fy": "Servje",
          "name:ga": "An tSeirbia",
          "name:gd": "An t-S√®irb",
          "name:gl": "Serbia",
          "name:gn": "Sevia",
          "name:gv": "Yn Serb",
          "name:he": "◊°◊®◊ë◊ô◊î",
          "name:hi": "‡§∏‡§∞‡•ç‡§¨‡§ø‡§Ø‡§æ",
          "name:hr": "Srbija",
          "name:ht": "S√®bi",
          "name:hu": "Szerbia",
          "name:hy": "’ç’•÷Ä’¢’´’°",
          "name:ia": "Serbia",
          "name:id": "Serbia",
          "name:ie": "Serbia",
          "name:io": "Serbia",
          "name:is": "Serb√≠a",
          "name:it": "Serbia",
          "name:ja": "„Çª„É´„Éì„Ç¢",
          "name:jv": "Serbia",
          "name:ka": "·É°·Éî·É†·Éë·Éî·Éó·Éò",
          "name:kg": "Serbie",
          "name:kk": "–°–µ—Ä–±–∏—è",
          "name:kl": "Serbia",
          "name:ko": "ÏÑ∏Î•¥ÎπÑÏïÑ",
          "name:ku": "Serbistan",
          "name:kv": "–°–µ—Ä–±–∏—è",
          "name:kw": "Serbi",
          "name:ky": "–°–µ—Ä–±–∏—è",
          "name:la": "Serbia",
          "name:lb": "Serbien",
          "name:li": "Servi√´",
          "name:ln": "Serbia",
          "name:lt": "Serbija",
          "name:lv": "Serbija",
          "name:mg": "Serbia",
          "name:mi": "Serbia",
          "name:mk": "–°—Ä–±–∏—ò–∞",
          "name:ml": "‡¥∏‡µÜ‡µº‡¥¨‡¥ø‡¥Ø",
          "name:mn": "–°–µ—Ä–±–∏",
          "name:mr": "‡§∏‡§∞‡•ç‡§¨‡§ø‡§Ø‡§æ",
          "name:ms": "Serbia",
          "name:mt": "Serbja",
          "name:my": "·ÄÜ·Ä¨·Ä∏·Äò·ÄÆ·Ä∏·Äö·Ä¨·Ä∏·Äî·Ä≠·ÄØ·ÄÑ·Ä∫·ÄÑ·Ä∂",
          "name:na": "Terbiya",
          "name:ne": "‡§∏‡§∞‡•ç‡§¨‡§ø‡§Ø‡§æ",
          "name:nl": "Servi√´",
          "name:nn": "Serbia",
          "name:no": "Serbia",
          "name:oc": "Serbia",
          "name:or": "‡¨∏‡¨∞‡≠ç‡¨¨‡¨ø‡¨Ü",
          "name:os": "–°–µ—Ä–±–∏",
          "name:pa": "‡®∏‡®∞‡®¨‡©Ä‡®Ü",
          "name:pl": "Serbia",
          "name:ps": "ÿ≥ÿ±ÿ®Ÿäÿß",
          "name:pt": "S√©rvia",
          "name:qu": "Sirbya",
          "name:rm": "Serbia",
          "name:ro": "Serbia",
          "name:ru": "–°–µ—Ä–±–∏—è",
          "name:rw": "Seribiya",
          "name:sa": "‡§∏‡§∞‡•ç‡§¨‡§ø‡§Ø‡§æ",
          "name:sc": "S√®rbia",
          "name:se": "Serbia",
          "name:sh": "Srbija",
          "name:sk": "Srbsko",
          "name:sl": "Srbija",
          "name:sm": "Serbia",
          "name:so": "Serbia",
          "name:sq": "Serbia",
          "name:sr": "–°—Ä–±–∏—ò–∞",
          "name:ss": "ISebhiya",
          "name:st": "Serbia",
          "name:su": "S√©rbia",
          "name:sv": "Serbien",
          "name:sw": "Serbia",
          "name:ta": "‡Æö‡ØÜ‡Æ∞‡Øç‡Æ™‡Æø‡ÆØ‡Ææ",
          "name:te": "‡∞∏‡±Ü‡∞∞‡±ç‡∞¨‡∞ø‡∞Ø‡∞æ",
          "name:tg": "–°–µ—Ä–±–∏—è",
          "name:th": "‡∏õ‡∏£‡∏∞‡πÄ‡∏ó‡∏®‡πÄ‡∏ã‡∏≠‡∏£‡πå‡πÄ‡∏ö‡∏µ‡∏¢",
          "name:tk": "Serbi√Ωa",
          "name:tl": "Serbiya",
          "name:tr": "Sƒ±rbistan",
          "name:tt": "–°–µ—Ä–±–∏—è",
          "name:tw": "Serbia",
          "name:ty": "Terepia",
          "name:ug": "S√©rbiye",
          "name:uk": "–°–µ—Ä–±—ñ—è",
          "name:ur": "ÿ≥ÿ±Ÿàÿ®ÿß",
          "name:uz": "Serbiya",
          "name:vi": "Serbia",
          "name:vo": "S√§rb√§n",
          "name:wo": "Seerbi",
          "name:yi": "◊°◊¢◊®◊ë◊ô◊¢",
          "name:yo": "S√©rb√≠√†",
          "name:zh": "Â°ûÁàæÁ∂≠‰∫û",
          "name:zu": "ISerbiya",
          "boundary": "administrative",
          "int_name": "Serbia",
          "name:ace": "S√®rbia",
          "name:als": "Serbien",
          "name:ang": "Serbia",
          "name:arc": "‹£‹™‹í‹ù‹ê",
          "name:arz": "ÿµŸäÿ±ÿ®Ÿäÿß",
          "name:ast": "Serbia",
          "name:bar": "Serbien",
          "name:bcl": "Serbya",
          "name:bpy": "‡¶∏‡¶æ‡¶∞‡ßç‡¶¨‡¶ø‡¶Ø‡¶º‡¶æ",
          "name:bxr": "–°–µ—Ä–±–∏",
          "name:ceb": "Serbya",
          "name:chr": "·èí·èà·èØ",
          "name:chy": "Serbia",
          "name:ckb": "ÿ≥ÿ±ÿ®€åÿß",
          "name:crh": "Sƒ±rbistan",
          "name:csb": "Serbsk√¥",
          "name:diq": "Sƒ±rbƒ±stan",
          "name:dsb": "Serbiska",
          "name:ext": "S√©rbia",
          "name:frp": "S√®rbie",
          "name:frr": "Serbien",
          "name:gag": "Serbiya",
          "name:haw": "Seripia",
          "name:hif": "Serbia",
          "name:hsb": "Serbiska",
          "name:ilo": "Serbia",
          "name:jbo": "serbias",
          "name:kaa": "Serbiya",
          "name:kab": "Serbi",
          "name:kbd": "–°–µ—Ä–±–∏—ç",
          "name:koi": "–°”ß—Ä–±–∏—è",
          "name:krc": "–°–µ—Ä–±–∏—è",
          "name:ksh": "Serbien",
          "name:lad": "Serbia",
          "name:lij": "Serbia",
          "name:lmo": "Serbia",
          "name:ltg": "Serbeja",
          "name:lzh": "Â°ûÁàæÁ∂≠‰∫û",
          "name:mdf": "–°–µ—Ä–±–∏–µ",
          "name:mhr": "–°–µ—Ä–±–∏–π",
          "name:nah": "Serbia",
          "name:nan": "Srbija",
          "name:nap": "Serbia",
          "name:nds": "Serbien",
          "name:nov": "Serbia",
          "name:nrm": "S√®rbie",
          "name:pap": "Serbia",
          "name:pcd": "Serbie",
          "name:pih": "Serbya",
          "name:pms": "Serbia",
          "name:pnb": "ÿ≥ÿ±ÿ®€åÿß",
          "name:pnt": "Œ£ŒµœÅŒ≤ŒØŒ±",
          "name:rue": "–°–µ—Ä–±—ñ—è",
          "name:sah": "–°–µ—Ä–±–∏—è",
          "name:scn": "Serbia",
          "name:sco": "Serbie",
          "name:smn": "Serbia",
          "name:sms": "Serbia",
          "name:stq": "Serbien",
          "name:szl": "Syrbij≈è",
          "name:tpi": "Sebia",
          "name:tzl": "Siarvia",
          "name:vec": "Servia",
          "name:vep": "Serbii",
          "name:vls": "Servi√´",
          "name:vro": "Serbi√§",
          "name:war": "Serbia",
          "name:wuu": "Â°ûÂ∞îÁª¥‰∫ö",
          "name:xal": "–°–µ—Ä–ø—É–¥–∏–Ω –û—Ä–Ω",
          "name:xmf": "·É°·Éî·É†·Éë·Éî·Éó·Éò",
          "name:yue": "Â°ûÁàæÁ∂≠‰∫û",
          "name:zea": "Servi√´",
          "timezone": "Europe/Belgrade",
          "way_area": "8.74158",
          "wikidata": "Q403",
          "ISO3166-1": "RS",
          "headlight": "required",
          "land_area": "administrative",
          "wikipedia": "sr:–°—Ä–±–∏—ò–∞",
          "population": "6647003",
          "admin_level": "2",
          "alt_name:eo": "Serbujo",
          "alt_name:ur": "ÿ≥ÿ±Ÿà€åÿß;ÿ≥ÿ±Ÿà€å€Å",
          "name:nds-nl": "Servi√´",
          "driving_side": "right",
          "name:bat-smg": "Serbƒójƒó",
          "name:cbk-zam": "Serbia",
          "name:roa-rup": "SƒÉrghia",
          "name:sr-Latn": "Srbija",
          "name:zh-Hans": "Â°ûÂ∞îÁª¥‰∫ö",
          "name:zh-Hant": "Â°ûÁàæÁ∂≠‰∫û",
          "name:roa-tara": "Serbie",
          "official_name": "–†–µ–ø—É–±–ª–∏–∫–∞ –°—Ä–±–∏—ò–∞",
          "ref:RS:drzave": "RS",
          "name:be-tarask": "–°—ç—Ä–±—ñ—è",
          "according_to:CN": "no",
          "according_to:ES": "no",
          "according_to:IN": "no",
          "according_to:RS": "no",
          "according_to:RU": "no",
          "according_to:UA": "no",
          "according_to:XK": "yes",
          "population:date": "2022",
          "ISO3166-1:alpha2": "RS",
          "ISO3166-1:alpha3": "SRB",
          "default_language": "sr",
          "official_name:cs": "Srbsk√° republika",
          "official_name:de": "Republik Serbien",
          "official_name:el": "ŒîŒ∑ŒºŒøŒ∫œÅŒ±œÑŒØŒ± œÑŒ∑œÇ Œ£ŒµœÅŒ≤ŒØŒ±œÇ",
          "official_name:en": "Republic of Serbia",
          "official_name:eo": "Respubliko Serbio",
          "official_name:es": "Rep√∫blica de Serbia",
          "official_name:fr": "R√©publique de Serbie",
          "official_name:ru": "–†–µ—Å–ø—É–±–ª–∏–∫–∞ –°–µ—Ä–±–∏—è",
          "official_name:sr": "–†–µ–ø—É–±–ª–∏–∫–∞ –°—Ä–±–∏—ò–∞",
          "ISO3166-1:numeric": "688",
          "official_name:sr-Latn": "Republika Srbija",
          "population:census:2022": "6647003"
        }
      },
      "geometry": {
        "type": "Polygon",
        "coordinates": [
          [
            [
              22,
              44
            ],
            [
              22.411919167026767,
              44
            ],
            [
              22.4094658,
              44.0042054
            ],
            [
              22.4141089,
              44.0062046
            ],
            [
              22.4185147,
              44.006467
            ],
            [
              22.4220941,
              44.0061026
            ],
            [
              22.428186,
              44.008115
            ],
            [
              22.4320942,
              44.00912
            ],
            [
              22.4339507,
              44.0094946
            ],
            [
              22.4411803,
              44.0101948
            ],
            [
              22.4416672,
              44.0120148
            ],
            [
              22.4418438,
              44.0154673
            ],
            [
              22.4421584,
              44.0165622
            ],
            [
              22.4492514,
              44.0172708
            ],
            [
              22.4545152,
              44.0167515
            ],
            [
              22.460681,
              44.0156951
            ],
            [
              22.4678115,
              44.0150085
            ],
            [
              22.4729372,
              44.0158423
            ],
            [
              22.4754515,
              44.0172686
            ],
            [
              22.479917,
              44.019183
            ],
            [
              22.484587,
              44.0203794
            ],
            [
              22.4901272,
              44.019148
            ],
            [
              22.4953992,
              44.0182252
            ],
            [
              22.507625,
              44.0184038
            ],
            [
              22.5111172,
              44.0194331
            ],
            [
              22.5173877,
              44.0188298
            ],
            [
              22.522746,
              44.0190314
            ],
            [
              22.527498,
              44.019731
            ],
            [
              22.531064,
              44.0208
            ],
            [
              22.5314459,
              44.0221003
            ],
            [
              22.5319217,
              44.0228516
            ],
            [
              22.5323264,
              44.0250983
            ],
            [
              22.5387719,
              44.0258041
            ],
            [
              22.54022,
              44.0292
            ],
            [
              22.5407205,
              44.0312812
            ],
            [
              22.5434905,
              44.0336474
            ],
            [
              22.5408644,
              44.0351174
            ],
            [
              22.537814,
              44.038193
            ],
            [
              22.541364,
              44.0413139
            ],
            [
              22.5419546,
              44.0421447
            ],
            [
              22.540355,
              44.043771
            ],
            [
              22.5361391,
              44.0455088
            ],
            [
              22.5348139,
              44.0470046
            ],
            [
              22.5305802,
              44.0482944
            ],
            [
              22.5326331,
              44.0508838
            ],
            [
              22.5348783,
              44.0522185
            ],
            [
              22.539014,
              44.0528471
            ],
            [
              22.547519,
              44.053541
            ],
            [
              22.5544916,
              44.0535777
            ],
            [
              22.559708,
              44.0575567
            ],
            [
              22.5676153,
              44.0565467
            ],
            [
              22.575624,
              44.0546174
            ],
            [
              22.580643,
              44.0540746
            ],
            [
              22.581619,
              44.0593064
            ],
            [
              22.5818534,
              44.0621001
            ],
            [
              22.5873956,
              44.0625363
            ],
            [
              22.5963372,
              44.0622231
            ],
            [
              22.5994644,
              44.0633375
            ],
            [
              22.6054562,
              44.0622553
            ],
            [
              22.6084163,
              44.0621233
            ],
            [
              22.610318,
              44.0625017
            ],
            [
              22.6123906,
              44.0622984
            ],
            [
              22.6137315,
              44.0625943
            ],
            [
              22.6155684,
              44.063347
            ],
            [
              22.6212624,
              44.0633924
            ],
            [
              22.6194475,
              44.0656555
            ],
            [
              22.6188086,
              44.0679483
            ],
            [
              22.6218177,
              44.0709056
            ],
            [
              22.6221025,
              44.0713433
            ],
            [
              22.624591,
              44.0728677
            ],
            [
              22.6194387,
              44.0750024
            ],
            [
              22.6182359,
              44.0752248
            ],
            [
              22.6165657,
              44.0767898
            ],
            [
              22.6154908,
              44.0791419
            ],
            [
              22.618219,
              44.0802053
            ],
            [
              22.6190922,
              44.0813175
            ],
            [
              22.6198265,
              44.0826482
            ],
            [
              22.6200187,
              44.084352
            ],
            [
              22.6198695,
              44.0857973
            ],
            [
              22.6186025,
              44.0865611
            ],
            [
              22.6196155,
              44.0897519
            ],
            [
              22.6198963,
              44.0900328
            ],
            [
              22.6197536,
              44.0977961
            ],
            [
              22.6161535,
              44.0993519
            ],
            [
              22.6129903,
              44.1017003
            ],
            [
              22.6115525,
              44.1035459
            ],
            [
              22.6102943,
              44.1066577
            ],
            [
              22.6141734,
              44.1249481
            ],
            [
              22.6180056,
              44.1400732
            ],
            [
              22.6188015,
              44.14465
            ],
            [
              22.6191687,
              44.1462684
            ],
            [
              22.6195187,
              44.1467111
            ],
            [
              22.6203725,
              44.1506817
            ],
            [
              22.6219486,
              44.1511031
            ],
            [
              22.6224841,
              44.1495749
            ],
            [
              22.6233583,
              44.1493751
            ],
            [
              22.6247547,
              44.1475248
            ],
            [
              22.6256308,
              44.1471817
            ],
            [
              22.6262126,
              44.1473267
            ],
            [
              22.6264808,
              44.1477626
            ],
            [
              22.6262037,
              44.1484599
            ],
            [
              22.6266788,
              44.1493414
            ],
            [
              22.6259009,
              44.1511287
            ],
            [
              22.6267284,
              44.152794
            ],
            [
              22.6267792,
              44.1543731
            ],
            [
              22.6269627,
              44.1547615
            ],
            [
              22.6277582,
              44.1554334
            ],
            [
              22.6282253,
              44.1560814
            ],
            [
              22.6284891,
              44.1579656
            ],
            [
              22.6282618,
              44.158279
            ],
            [
              22.6276835,
              44.1585088
            ],
            [
              22.6268631,
              44.1582501
            ],
            [
              22.6256207,
              44.1581248
            ],
            [
              22.6232163,
              44.1586706
            ],
            [
              22.6228612,
              44.1590621
            ],
            [
              22.6223301,
              44.1612923
            ],
            [
              22.6224752,
              44.1624486
            ],
            [
              22.6221706,
              44.1628443
            ],
            [
              22.6215694,
              44.1627676
            ],
            [
              22.6195497,
              44.1615913
            ],
            [
              22.618912,
              44.1614813
            ],
            [
              22.6183336,
              44.1616106
            ],
            [
              22.6177195,
              44.1612153
            ],
            [
              22.6173369,
              44.161152
            ],
            [
              22.6162136,
              44.1619062
            ],
            [
              22.6158297,
              44.1623606
            ],
            [
              22.6158889,
              44.1626372
            ],
            [
              22.616635,
              44.1629433
            ],
            [
              22.6166691,
              44.1632315
            ],
            [
              22.6149344,
              44.1637888
            ],
            [
              22.6136617,
              44.1644506
            ],
            [
              22.6130457,
              44.1649441
            ],
            [
              22.6130263,
              44.1655864
            ],
            [
              22.6134577,
              44.1658146
            ],
            [
              22.6149802,
              44.1658233
            ],
            [
              22.6163366,
              44.1662233
            ],
            [
              22.6169289,
              44.1678668
            ],
            [
              22.6163955,
              44.1697182
            ],
            [
              22.6165955,
              44.1710089
            ],
            [
              22.6172204,
              44.1720129
            ],
            [
              22.6186845,
              44.1729388
            ],
            [
              22.6196108,
              44.1732206
            ],
            [
              22.6205967,
              44.173788
            ],
            [
              22.6211997,
              44.1738866
            ],
            [
              22.6232348,
              44.1723954
            ],
            [
              22.6237167,
              44.1711679
            ],
            [
              22.6242985,
              44.1708781
            ],
            [
              22.625249,
              44.1708125
            ],
            [
              22.627973,
              44.1716524
            ],
            [
              22.6279866,
              44.1722512
            ],
            [
              22.6270259,
              44.1727328
            ],
            [
              22.6268172,
              44.1734075
            ],
            [
              22.6270547,
              44.1738852
            ],
            [
              22.6282435,
              44.1748002
            ],
            [
              22.6310381,
              44.1751375
            ],
            [
              22.6318373,
              44.1749068
            ],
            [
              22.6332009,
              44.1740711
            ],
            [
              22.6339022,
              44.1739685
            ],
            [
              22.6347373,
              44.1743
            ],
            [
              22.6354174,
              44.1752993
            ],
            [
              22.6361582,
              44.1760283
            ],
            [
              22.6363353,
              44.1775514
            ],
            [
              22.6357945,
              44.1785351
            ],
            [
              22.6347646,
              44.1792393
            ],
            [
              22.6331947,
              44.1795802
            ],
            [
              22.6326195,
              44.17988
            ],
            [
              22.6309364,
              44.1818112
            ],
            [
              22.6291038,
              44.1827096
            ],
            [
              22.6288762,
              44.1833621
            ],
            [
              22.6293967,
              44.1840041
            ],
            [
              22.629863,
              44.1842496
            ],
            [
              22.6317875,
              44.1846217
            ],
            [
              22.6327072,
              44.1845731
            ],
            [
              22.6332091,
              44.1843371
            ],
            [
              22.6338288,
              44.1835416
            ],
            [
              22.6355017,
              44.1819923
            ],
            [
              22.636136,
              44.1817298
            ],
            [
              22.6370985,
              44.1817271
            ],
            [
              22.6387538,
              44.1822453
            ],
            [
              22.6396745,
              44.1828009
            ],
            [
              22.6408384,
              44.183117
            ],
            [
              22.6418399,
              44.1846027
            ],
            [
              22.6431126,
              44.1858536
            ],
            [
              22.6432549,
              44.1864664
            ],
            [
              22.6431341,
              44.187321
            ],
            [
              22.6429025,
              44.1877651
            ],
            [
              22.642369,
              44.1882358
            ],
            [
              22.6412998,
              44.1886689
            ],
            [
              22.6390923,
              44.188683
            ],
            [
              22.6377333,
              44.1891394
            ],
            [
              22.6370537,
              44.1896423
            ],
            [
              22.6367677,
              44.1905408
            ],
            [
              22.6372739,
              44.1917852
            ],
            [
              22.6382653,
              44.1925
            ],
            [
              22.6389145,
              44.1926336
            ],
            [
              22.6408828,
              44.1925449
            ],
            [
              22.6418654,
              44.19287
            ],
            [
              22.6422804,
              44.193573
            ],
            [
              22.6426654,
              44.194958
            ],
            [
              22.6446029,
              44.196867
            ],
            [
              22.6452321,
              44.1978149
            ],
            [
              22.6454522,
              44.1986466
            ],
            [
              22.6453345,
              44.2009705
            ],
            [
              22.6456553,
              44.2014571
            ],
            [
              22.6471675,
              44.2025675
            ],
            [
              22.6474553,
              44.2039277
            ],
            [
              22.6470755,
              44.2046918
            ],
            [
              22.6454913,
              44.2055581
            ],
            [
              22.6442472,
              44.2071126
            ],
            [
              22.6440389,
              44.2074572
            ],
            [
              22.6439842,
              44.2080976
            ],
            [
              22.6443277,
              44.2087058
            ],
            [
              22.6451313,
              44.2090642
            ],
            [
              22.6456842,
              44.2090758
            ],
            [
              22.6468671,
              44.208735
            ],
            [
              22.6511955,
              44.2065785
            ],
            [
              22.6514993,
              44.2063289
            ],
            [
              22.6519533,
              44.2052403
            ],
            [
              22.652355,
              44.2048184
            ],
            [
              22.6532343,
              44.204692
            ],
            [
              22.6546436,
              44.2048984
            ],
            [
              22.6556463,
              44.205389
            ],
            [
              22.6562736,
              44.2065843
            ],
            [
              22.6568861,
              44.2066322
            ],
            [
              22.6566906,
              44.2073555
            ],
            [
              22.6589975,
              44.2088525
            ],
            [
              22.6619304,
              44.2111095
            ],
            [
              22.6635547,
              44.2131166
            ],
            [
              22.6642762,
              44.213229
            ],
            [
              22.6651577,
              44.2126891
            ],
            [
              22.6656704,
              44.2120896
            ],
            [
              22.6657693,
              44.2117436
            ],
            [
              22.6660128,
              44.2103769
            ],
            [
              22.6653669,
              44.2085708
            ],
            [
              22.6654578,
              44.2078951
            ],
            [
              22.6657939,
              44.2076745
            ],
            [
              22.6670396,
              44.2075329
            ],
            [
              22.6677183,
              44.207131
            ],
            [
              22.668792,
              44.2070723
            ],
            [
              22.6692292,
              44.2072481
            ],
            [
              22.669363,
              44.2080924
            ],
            [
              22.6687467,
              44.2088266
            ],
            [
              22.6678965,
              44.2093646
            ],
            [
              22.667867,
              44.2098684
            ],
            [
              22.6679835,
              44.2108498
            ],
            [
              22.6685757,
              44.2117974
            ],
            [
              22.6690388,
              44.2132034
            ],
            [
              22.669361,
              44.2135648
            ],
            [
              22.6698595,
              44.2137831
            ],
            [
              22.6712877,
              44.2135736
            ],
            [
              22.6738199,
              44.2155388
            ],
            [
              22.6742847,
              44.2165873
            ],
            [
              22.6729014,
              44.218079
            ],
            [
              22.6723592,
              44.2193325
            ],
            [
              22.6721012,
              44.2288779
            ],
            [
              22.6737665,
              44.2330638
            ],
            [
              22.6755452,
              44.2360984
            ],
            [
              22.6835489,
              44.2478736
            ],
            [
              22.684418,
              44.2509938
            ],
            [
              22.6854881,
              44.2584183
            ],
            [
              22.6851405,
              44.26552
            ],
            [
              22.6833987,
              44.2716166
            ],
            [
              22.6792522,
              44.2781406
            ],
            [
              22.6761031,
              44.2809421
            ],
            [
              22.6718222,
              44.2836235
            ],
            [
              22.6601681,
              44.2882093
            ],
            [
              22.6501162,
              44.2918279
            ],
            [
              22.6423159,
              44.2921919
            ],
            [
              22.6318597,
              44.2922887
            ],
            [
              22.6245371,
              44.2925902
            ],
            [
              22.6150517,
              44.2934784
            ],
            [
              22.6094911,
              44.2946098
            ],
            [
              22.6005283,
              44.2970205
            ],
            [
              22.5958815,
              44.2984663
            ],
            [
              22.5942474,
              44.2983583
            ],
            [
              22.593123,
              44.2984818
            ],
            [
              22.5908346,
              44.2991397
            ],
            [
              22.5890975,
              44.3000748
            ],
            [
              22.5863731,
              44.3009392
            ],
            [
              22.5737842,
              44.3018456
            ],
            [
              22.5678277,
              44.304641
            ],
            [
              22.5635791,
              44.3055317
            ],
            [
              22.5597167,
              44.3076814
            ],
            [
              22.5578713,
              44.3090019
            ],
            [
              22.5549826,
              44.3128497
            ],
            [
              22.5515413,
              44.3179224
            ],
            [
              22.546134,
              44.3240323
            ],
            [
              22.5315733,
              44.3333528
            ],
            [
              22.5280589,
              44.3356842
            ],
            [
              22.527209,
              44.3364021
            ],
            [
              22.5247187,
              44.3390462
            ],
            [
              22.5239521,
              44.340663
            ],
            [
              22.523216,
              44.3433044
            ],
            [
              22.5220792,
              44.3462511
            ],
            [
              22.5183687,
              44.3548248
            ],
            [
              22.5161042,
              44.3612321
            ],
            [
              22.5154803,
              44.3625864
            ],
            [
              22.512678,
              44.3671804
            ],
            [
              22.5089538,
              44.3720665
            ],
            [
              22.5046861,
              44.378236
            ],
            [
              22.5032931,
              44.3811947
            ],
            [
              22.5022481,
              44.3845863
            ],
            [
              22.5013602,
              44.3887375
            ],
            [
              22.5001452,
              44.3978005
            ],
            [
              22.4988385,
              44.4039656
            ],
            [
              22.4991802,
              44.4077305
            ],
            [
              22.4991888,
              44.4117281
            ],
            [
              22.499401,
              44.4129022
            ],
            [
              22.5008174,
              44.4176836
            ],
            [
              22.5007717,
              44.418648
            ],
            [
              22.4998815,
              44.4201246
            ],
            [
              22.4974805,
              44.4221966
            ],
            [
              22.4929396,
              44.4243875
            ],
            [
              22.4909999,
              44.425498
            ],
            [
              22.4856717,
              44.4299039
            ],
            [
              22.4834273,
              44.4312458
            ],
            [
              22.4734972,
              44.4357645
            ],
            [
              22.4713246,
              44.4377506
            ],
            [
              22.467277,
              44.4410267
            ],
            [
              22.4629597,
              44.4499475
            ],
            [
              22.4629855,
              44.4522707
            ],
            [
              22.4623846,
              44.4538177
            ],
            [
              22.4601101,
              44.4571566
            ],
            [
              22.4601715,
              44.4603842
            ],
            [
              22.4595794,
              44.4628079
            ],
            [
              22.4574143,
              44.4674703
            ],
            [
              22.4573288,
              44.4692255
            ],
            [
              22.4575484,
              44.470331
            ],
            [
              22.4581737,
              44.47184
            ],
            [
              22.4593675,
              44.4739648
            ],
            [
              22.4612117,
              44.4766828
            ],
            [
              22.4627746,
              44.4778956
            ],
            [
              22.4639719,
              44.4786145
            ],
            [
              22.4669326,
              44.4796796
            ],
            [
              22.4703946,
              44.4804322
            ],
            [
              22.4747574,
              44.4806248
            ],
            [
              22.4769669,
              44.4804633
            ],
            [
              22.4842537,
              44.4795909
            ],
            [
              22.4978813,
              44.4774764
            ],
            [
              22.4999587,
              44.4771114
            ],
            [
              22.508269,
              44.4746784
            ],
            [
              22.510323,
              44.4742643
            ],
            [
              22.5140621,
              44.4726627
            ],
            [
              22.5153767,
              44.4722573
            ],
            [
              22.5197607,
              44.4718493
            ],
            [
              22.5214166,
              44.4718468
            ],
            [
              22.525055,
              44.4725048
            ],
            [
              22.5275798,
              44.4733805
            ],
            [
              22.5288961,
              44.4740264
            ],
            [
              22.5307683,
              44.4755052
            ],
            [
              22.5313191,
              44.4763518
            ],
            [
              22.5364165,
              44.4784118
            ],
            [
              22.5386262,
              44.4781382
            ],
            [
              22.5402817,
              44.4781239
            ],
            [
              22.5429933,
              44.4787389
            ],
            [
              22.5482365,
              44.4812542
            ],
            [
              22.5504861,
              44.4826739
            ],
            [
              22.5528801,
              44.4849235
            ],
            [
              22.5542121,
              44.4865632
            ],
            [
              22.5564781,
              44.4903895
            ],
            [
              22.5566701,
              44.4912228
            ],
            [
              22.5563746,
              44.4951144
            ],
            [
              22.5564319,
              44.4963093
            ],
            [
              22.5566583,
              44.4972111
            ],
            [
              22.557781,
              44.4994267
            ],
            [
              22.560695,
              44.5043085
            ],
            [
              22.5610672,
              44.5058809
            ],
            [
              22.5608044,
              44.5087768
            ],
            [
              22.5597281,
              44.5136002
            ],
            [
              22.5598269,
              44.5156768
            ],
            [
              22.5605254,
              44.51941
            ],
            [
              22.5609791,
              44.5209753
            ],
            [
              22.5630667,
              44.5325939
            ],
            [
              22.5642845,
              44.5355571
            ],
            [
              22.5647415,
              44.5361828
            ],
            [
              22.5671102,
              44.538145
            ],
            [
              22.5709763,
              44.5419511
            ],
            [
              22.5733842,
              44.5436552
            ],
            [
              22.5782334,
              44.5466267
            ],
            [
              22.5859953,
              44.5497441
            ],
            [
              22.5900802,
              44.5509142
            ],
            [
              22.5984034,
              44.5525259
            ],
            [
              22.6042988,
              44.5527124
            ],
            [
              22.6080437,
              44.5526997
            ],
            [
              22.6157451,
              44.5523279
            ],
            [
              22.6180518,
              44.5519461
            ],
            [
              22.618905,
              44.5521875
            ],
            [
              22.6226974,
              44.5517355
            ],
            [
              22.6274093,
              44.5504439
            ],
            [
              22.6283583,
              44.549101
            ],
            [
              22.6308069,
              44.5473828
            ],
            [
              22.6358117,
              44.5458343
            ],
            [
              22.6411028,
              44.5451192
            ],
            [
              22.6440678,
              44.543493
            ],
            [
              22.6495542,
              44.5393886
            ],
            [
              22.6556139,
              44.5355455
            ],
            [
              22.6612695,
              44.5327769
            ],
            [
              22.6683697,
              44.5286199
            ],
            [
              22.685004,
              44.5196858
            ],
            [
              22.6871737,
              44.5187218
            ],
            [
              22.6933668,
              44.5168866
            ],
            [
              22.6955697,
              44.5166349
            ],
            [
              22.697416,
              44.5168158
            ],
            [
              22.6991218,
              44.5167015
            ],
            [
              22.7111432,
              44.5200386
            ],
            [
              22.7170903,
              44.5221427
            ],
            [
              22.7236973,
              44.5247871
            ],
            [
              22.7354426,
              44.5290089
            ],
            [
              22.7445025,
              44.5321143
            ],
            [
              22.7550226,
              44.5352355
            ],
            [
              22.75831,
              44.5367904
            ],
            [
              22.7596874,
              44.5376115
            ],
            [
              22.7634787,
              44.5404795
            ],
            [
              22.7638463,
              44.5411294
            ],
            [
              22.7641118,
              44.5426514
            ],
            [
              22.7640138,
              44.544646
            ],
            [
              22.7633985,
              44.5489512
            ],
            [
              22.7622015,
              44.5533286
            ],
            [
              22.7599785,
              44.5577875
            ],
            [
              22.7558517,
              44.563103
            ],
            [
              22.7555111,
              44.5637939
            ],
            [
              22.7543853,
              44.5650347
            ],
            [
              22.7486832,
              44.5698032
            ],
            [
              22.7469351,
              44.5714437
            ],
            [
              22.7422823,
              44.5752107
            ],
            [
              22.7299182,
              44.5846963
            ],
            [
              22.7235838,
              44.590173
            ],
            [
              22.7184801,
              44.5941222
            ],
            [
              22.7128194,
              44.5988193
            ],
            [
              22.7101777,
              44.6007056
            ],
            [
              22.7059779,
              44.6032263
            ],
            [
              22.6998001,
              44.603883
            ],
            [
              22.6948934,
              44.6036457
            ],
            [
              22.6920054,
              44.6045038
            ],
            [
              22.6856589,
              44.6070712
            ],
            [
              22.6818623,
              44.6093983
            ],
            [
              22.6799532,
              44.6112367
            ],
            [
              22.679443,
              44.6118719
            ],
            [
              22.6789946,
              44.6131394
            ],
            [
              22.6789014,
              44.6154691
            ],
            [
              22.6786575,
              44.6166022
            ],
            [
              22.6778692,
              44.6173679
            ],
            [
              22.6763232,
              44.6182782
            ],
            [
              22.6745408,
              44.6188423
            ],
            [
              22.6727201,
              44.61911
            ],
            [
              22.6696187,
              44.6191252
            ],
            [
              22.6618347,
              44.6179297
            ],
            [
              22.655104,
              44.617032
            ],
            [
              22.6523725,
              44.6168185
            ],
            [
              22.6441492,
              44.6154022
            ],
            [
              22.6407871,
              44.6146437
            ],
            [
              22.6347705,
              44.6138309
            ],
            [
              22.6309102,
              44.613755
            ],
            [
              22.6278885,
              44.6139241
            ],
            [
              22.6214859,
              44.6146407
            ],
            [
              22.6178382,
              44.6156313
            ],
            [
              22.6134012,
              44.6172141
            ],
            [
              22.5979428,
              44.6244577
            ],
            [
              22.5892318,
              44.6291016
            ],
            [
              22.5847747,
              44.6301504
            ],
            [
              22.5830067,
              44.6308266
            ],
            [
              22.5822879,
              44.6315166
            ],
            [
              22.5806154,
              44.6326678
            ],
            [
              22.5776923,
              44.634357
            ],
            [
              22.5737805,
              44.6350951
            ],
            [
              22.5706578,
              44.6364275
            ],
            [
              22.5670749,
              44.6385989
            ],
            [
              22.5645628,
              44.6409119
            ],
            [
              22.563743,
              44.6424315
            ],
            [
              22.5628679,
              44.6475034
            ],
            [
              22.5594855,
              44.648577
            ],
            [
              22.558301,
              44.6491588
            ],
            [
              22.5545302,
              44.6521605
            ],
            [
              22.5536068,
              44.6526258
            ],
            [
              22.5495092,
              44.6564757
            ],
            [
              22.5455513,
              44.6594142
            ],
            [
              22.5438954,
              44.6612331
            ],
            [
              22.5415653,
              44.6627687
            ],
            [
              22.5394553,
              44.6639357
            ],
            [
              22.538475,
              44.6646798
            ],
            [
              22.5368505,
              44.6666677
            ],
            [
              22.5291029,
              44.6712768
            ],
            [
              22.5237125,
              44.6762645
            ],
            [
              22.5223147,
              44.6765589
            ],
            [
              22.5197137,
              44.6778852
            ],
            [
              22.5161385,
              44.6802557
            ],
            [
              22.5127464,
              44.6836243
            ],
            [
              22.5093937,
              44.6887383
            ],
            [
              22.5080102,
              44.690512
            ],
            [
              22.5053801,
              44.6928074
            ],
            [
              22.5028066,
              44.6942857
            ],
            [
              22.4981709,
              44.6961629
            ],
            [
              22.4935077,
              44.6990897
            ],
            [
              22.4914074,
              44.7001026
            ],
            [
              22.4905601,
              44.7006757
            ],
            [
              22.4887552,
              44.7020913
            ],
            [
              22.4869429,
              44.7040768
            ],
            [
              22.4846246,
              44.7071223
            ],
            [
              22.4839845,
              44.7078402
            ],
            [
              22.48341,
              44.7082148
            ],
            [
              22.478007,
              44.7101143
            ],
            [
              22.4714977,
              44.7133312
            ],
            [
              22.468637,
              44.7144145
            ],
            [
              22.4660159,
              44.7150219
            ],
            [
              22.4638542,
              44.7152413
            ],
            [
              22.4614305,
              44.7152299
            ],
            [
              22.4596334,
              44.7149375
            ],
            [
              22.458401,
              44.7145009
            ],
            [
              22.4551461,
              44.712704
            ],
            [
              22.4502701,
              44.7127544
            ],
            [
              22.4488313,
              44.7125614
            ],
            [
              22.4433122,
              44.7103632
            ],
            [
              22.4420475,
              44.7100618
            ],
            [
              22.439131,
              44.7097746
            ],
            [
              22.4366316,
              44.7098894
            ],
            [
              22.4338091,
              44.7103368
            ],
            [
              22.4319362,
              44.7103941
            ],
            [
              22.4307586,
              44.7101734
            ],
            [
              22.4287318,
              44.7094399
            ],
            [
              22.425297,
              44.7073252
            ],
            [
              22.4209009,
              44.7051726
            ],
            [
              22.4181125,
              44.7032124
            ],
            [
              22.4133485,
              44.6992017
            ],
            [
              22.4110869,
              44.6970131
            ],
            [
              22.4090692,
              44.6948506
            ],
            [
              22.4076535,
              44.6930643
            ],
            [
              22.4062653,
              44.6908427
            ],
            [
              22.4053148,
              44.6896237
            ],
            [
              22.4042349,
              44.6886076
            ],
            [
              22.3951602,
              44.6820453
            ],
            [
              22.3917661,
              44.6802914
            ],
            [
              22.3826266,
              44.6767919
            ],
            [
              22.3794745,
              44.6749739
            ],
            [
              22.3743131,
              44.6732887
            ],
            [
              22.3711379,
              44.6725704
            ],
            [
              22.3662338,
              44.6722446
            ],
            [
              22.3611297,
              44.6723957
            ],
            [
              22.3554024,
              44.6728667
            ],
            [
              22.3500354,
              44.6737854
            ],
            [
              22.3469219,
              44.6745212
            ],
            [
              22.3424575,
              44.6759204
            ],
            [
              22.3392441,
              44.6765129
            ],
            [
              22.3369515,
              44.676586
            ],
            [
              22.333999,
              44.676128
            ],
            [
              22.3329653,
              44.6758803
            ],
            [
              22.3316409,
              44.6752569
            ],
            [
              22.3289896,
              44.6736982
            ],
            [
              22.3260574,
              44.6715036
            ],
            [
              22.3202263,
              44.6661798
            ],
            [
              22.3188005,
              44.6651825
            ],
            [
              22.312605,
              44.661496
            ],
            [
              22.3084322,
              44.6586922
            ],
            [
              22.3065595,
              44.6569905
            ],
            [
              22.3043225,
              44.6544166
            ],
            [
              22.3034387,
              44.6531635
            ],
            [
              22.3024,
              44.6511195
            ],
            [
              22.3018891,
              44.6491652
            ],
            [
              22.3024531,
              44.6444496
            ],
            [
              22.3019856,
              44.6420659
            ],
            [
              22.3016575,
              44.6411921
            ],
            [
              22.3002743,
              44.6390143
            ],
            [
              22.2986661,
              44.637649
            ],
            [
              22.2971684,
              44.6367984
            ],
            [
              22.2924356,
              44.6352736
            ],
            [
              22.2892407,
              44.6332699
            ],
            [
              22.2867056,
              44.6313815
            ],
            [
              22.2842196,
              44.6299535
            ],
            [
              22.2800742,
              44.6289817
            ],
            [
              22.2775554,
              44.6280628
            ],
            [
              22.2746405,
              44.625895
            ],
            [
              22.273831,
              44.6246126
            ],
            [
              22.2733245,
              44.6232075
            ],
            [
              22.2729604,
              44.619797
            ],
            [
              22.2729963,
              44.6158821
            ],
            [
              22.2722908,
              44.6129445
            ],
            [
              22.271663,
              44.6110947
            ],
            [
              22.2705555,
              44.6083674
            ],
            [
              22.2682363,
              44.6046746
            ],
            [
              22.267461,
              44.6030762
            ],
            [
              22.2642588,
              44.5957704
            ],
            [
              22.2623636,
              44.5933299
            ],
            [
              22.2614133,
              44.5923459
            ],
            [
              22.2558407,
              44.5874048
            ],
            [
              22.2492303,
              44.579678
            ],
            [
              22.2444218,
              44.5747982
            ],
            [
              22.2411727,
              44.570808
            ],
            [
              22.2388058,
              44.568724
            ],
            [
              22.2348056,
              44.5657735
            ],
            [
              22.2320902,
              44.5634056
            ],
            [
              22.2302441,
              44.5613745
            ],
            [
              22.228534,
              44.5586332
            ],
            [
              22.2266819,
              44.5549607
            ],
            [
              22.2243624,
              44.5524002
            ],
            [
              22.2222043,
              44.5493701
            ],
            [
              22.2185985,
              44.5416028
            ],
            [
              22.2152444,
              44.5378427
            ],
            [
              22.2141553,
              44.5364123
            ],
            [
              22.2113953,
              44.531527
            ],
            [
              22.2084636,
              44.5252949
            ],
            [
              22.2059159,
              44.5213243
            ],
            [
              22.2025249,
              44.5168124
            ],
            [
              22.1988654,
              44.5135632
            ],
            [
              22.1962444,
              44.5109525
            ],
            [
              22.194146,
              44.508656
            ],
            [
              22.1936938,
              44.5079182
            ],
            [
              22.1929755,
              44.5036931
            ],
            [
              22.1921296,
              44.5013776
            ],
            [
              22.1898077,
              44.498051
            ],
            [
              22.1900562,
              44.4974316
            ],
            [
              22.190825,
              44.4964935
            ],
            [
              22.1912604,
              44.4928219
            ],
            [
              22.1893992,
              44.4884564
            ],
            [
              22.1870788,
              44.4849817
            ],
            [
              22.1842438,
              44.4821561
            ],
            [
              22.181021,
              44.4799809
            ],
            [
              22.1774632,
              44.4782281
            ],
            [
              22.1735581,
              44.4767463
            ],
            [
              22.1690044,
              44.4752563
            ],
            [
              22.1610857,
              44.4721796
            ],
            [
              22.1578086,
              44.4714607
            ],
            [
              22.1519517,
              44.4712209
            ],
            [
              22.1439023,
              44.4704603
            ],
            [
              22.14053,
              44.4704059
            ],
            [
              22.1366379,
              44.4708187
            ],
            [
              22.1336053,
              44.4716138
            ],
            [
              22.1309106,
              44.4726666
            ],
            [
              22.1251339,
              44.4756116
            ],
            [
              22.1143919,
              44.4821086
            ],
            [
              22.1090323,
              44.4863542
            ],
            [
              22.0996959,
              44.4924521
            ],
            [
              22.0935081,
              44.4959104
            ],
            [
              22.0889914,
              44.4978009
            ],
            [
              22.0858531,
              44.4989311
            ],
            [
              22.0840455,
              44.4999027
            ],
            [
              22.0824032,
              44.5012992
            ],
            [
              22.0816448,
              44.5021331
            ],
            [
              22.0803943,
              44.5040845
            ],
            [
              22.0791901,
              44.5051235
            ],
            [
              22.0788346,
              44.5057884
            ],
            [
              22.0783554,
              44.509456
            ],
            [
              22.0770814,
              44.5128954
            ],
            [
              22.0741518,
              44.5171333
            ],
            [
              22.0729663,
              44.5192453
            ],
            [
              22.0720172,
              44.5216094
            ],
            [
              22.0707041,
              44.5234015
            ],
            [
              22.069179,
              44.5246151
            ],
            [
              22.0575103,
              44.5323222
            ],
            [
              22.0548653,
              44.5336062
            ],
            [
              22.0460144,
              44.536525
            ],
            [
              22.0439388,
              44.5374311
            ],
            [
              22.0399795,
              44.5395328
            ],
            [
              22.0389393,
              44.5402583
            ],
            [
              22.0371884,
              44.5418795
            ],
            [
              22.0355467,
              44.5442028
            ],
            [
              22.0340512,
              44.546997
            ],
            [
              22.0334136,
              44.5485859
            ],
            [
              22.0324886,
              44.5518164
            ],
            [
              22.0320447,
              44.5527104
            ],
            [
              22.0300399,
              44.5551832
            ],
            [
              22.0273934,
              44.559367
            ],
            [
              22.0269605,
              44.5602645
            ],
            [
              22.0256236,
              44.5642414
            ],
            [
              22.0253837,
              44.565866
            ],
            [
              22.0261977,
              44.5675795
            ],
            [
              22.0278605,
              44.5700637
            ],
            [
              22.0280062,
              44.5715232
            ],
            [
              22.0274419,
              44.5798697
            ],
            [
              22.0275931,
              44.5808328
            ],
            [
              22.0282309,
              44.5819186
            ],
            [
              22.0282954,
              44.5830589
            ],
            [
              22.0253145,
              44.5909519
            ],
            [
              22.023498,
              44.594045
            ],
            [
              22.0225781,
              44.5951713
            ],
            [
              22.0214662,
              44.5961851
            ],
            [
              22.0161387,
              44.5991717
            ],
            [
              22.0123596,
              44.6023225
            ],
            [
              22.0059676,
              44.6066068
            ],
            [
              22.0041282,
              44.608252
            ],
            [
              22.0037646,
              44.6107235
            ],
            [
              22.0010493,
              44.6225848
            ],
            [
              22.0000218,
              44.6258541
            ],
            [
              22,
              44.62590415915601
            ],
            [
              22,
              44
            ]
          ]
        ]
      }
    }
  ]
}