{
  "type": "FeatureCollection",
  "features": [
    {
      "type": "Feature",
      "properties": {
        "osm_id": -120027,
        "boundary": "administrative",
        "admin_level": 2,
        "parents": null,
        "name": "Colombia",
        "local_name": "Colombia",
        "name_en": "Colombia",
        "all_tags": {
          "flag": "http://upload.wikimedia.org/wikipedia/commons/2/21/Flag_of_Colombia.svg",
          "name": "Colombia",
          "name:af": "Colombia",
          "name:am": "ኮሎምቢያ",
          "name:an": "Colombia",
          "name:ar": "كولومبيا",
          "name:ay": "Kuluwya",
          "name:az": "Kolumbiya",
          "name:ba": "Колумбия",
          "name:be": "Калумбія",
          "name:bg": "Колумбия",
          "name:bi": "Colombia",
          "name:bn": "কলম্বিয়া",
          "name:bo": "ཁོ་ལོམ་བི་ཡ།",
          "name:br": "Kolombia",
          "name:bs": "Kolumbija",
          "name:ca": "Colòmbia",
          "name:ce": "Колумби",
          "name:co": "Colombia",
          "name:cs": "Kolumbie",
          "name:cv": "Колумби",
          "name:cy": "Colombia",
          "name:da": "Colombia",
          "name:de": "Kolumbien",
          "name:dv": "ކޮލަންބިއާ",
          "name:dz": "ཀོ་ལོམ་བི་ཡ",
          "name:ee": "Colombia",
          "name:el": "Κολομβία",
          "name:en": "Colombia",
          "name:eo": "Kolombio",
          "name:es": "Colombia",
          "name:et": "Colombia",
          "name:eu": "Kolonbia",
          "name:fa": "کلمبیا",
          "name:fi": "Kolumbia",
          "name:fo": "Kolumbia",
          "name:fr": "Colombie",
          "name:fy": "Kolombia",
          "name:ga": "An Cholóim",
          "name:gd": "Coloimbia",
          "name:gl": "Colombia",
          "name:gn": "Kolómbia",
          "name:gu": "કોલમ્બિયા",
          "name:gv": "Yn Cholombey",
          "name:he": "קולומביה",
          "name:hi": "कोलम्बिया",
          "name:hr": "Kolumbija",
          "name:ht": "Kolonbi",
          "name:hu": "Kolumbia",
          "name:hy": "Կոլումբիա",
          "name:ia": "Colombia",
          "name:id": "Kolombia",
          "name:ie": "Columbia",
          "name:io": "Kolumbia",
          "name:is": "Kólumbía",
          "name:it": "Colombia",
          "name:ja": "コロンビア",
          "name:jv": "Kolombia",
          "name:ka": "კოლუმბია",
          "name:kk": "Колумбия Республикасы",
          "name:kl": "Colombia",
          "name:km": "កូឡុំប៊ី",
          "name:kn": "ಕೊಲೊಂಬಿಯ",
          "name:ko": "콜롬비아",
          "name:ku": "Kolombiya",
          "name:kw": "Kolombi",
          "name:la": "Columbia",
          "name:lb": "Kolumbien",
          "name:li": "Colombia",
          "name:ln": "Kolombi",
          "name:lt": "Kolumbija",
          "name:lv": "Kolumbija",
          "name:mg": "Kolombia",
          "name:mi": "Koromōpia",
          "name:mk": "Колумбија",
          "name:ml": "കൊളംബിയ",
          "name:mn": "Колумб",
          "name:mr": "कोलंबिया",
          "name:ms": "Colombia",
          "name:mt": "Kolombja",
          "name:my": "ကိုလံဘီယာနိုင်ငံ",
          "name:na": "Korombiya",
          "name:ne": "कोलम्बिया",
          "name:nl": "Colombia",
          "name:nn": "Colombia",
          "name:no": "Colombia",
          "name:nv": "Kolámbiya",
          "name:oc": "Colómbia",
          "name:om": "Colombia",
          "name:or": "କଲୋମ୍ବିଆ",
          "name:os": "Колумби",
          "name:pa": "ਕੋਲੰਬੀਆ",
          "name:pl": "Kolumbia",
          "name:pt": "Colômbia",
          "name:qu": "Kulumbya",
          "name:rm": "Columbia",
          "name:ro": "Columbia",
          "name:ru": "Колумбия",
          "name:rw": "Kolombiya",
          "name:sa": "कोलोम्बिया",
          "name:se": "Colombia",
          "name:sh": "Kolumbija",
          "name:sk": "Kolumbia",
          "name:sl": "Kolumbija",
          "name:so": "Kolombiya",
          "name:sq": "Kolumbia",
          "name:sr": "Колумбија",
          "name:su": "Kolombia",
          "name:sv": "Colombia",
          "name:sw": "Kolombia",
          "name:ta": "கொலொம்பியா",
          "name:te": "కొలంబియా",
          "name:tg": "Кулумбия",
          "name:th": "ประเทศโคลอมเบีย",
          "name:tl": "Colombia",
          "name:tr": "Kolombiya",
          "name:ts": "Colombia",
          "name:tt": "Колумбия",
          "name:ug": "كولومبىيە",
          "name:uk": "Колумбія",
          "name:ur": "کولمبیا",
          "name:uz": "Kolumbiya",
          "name:vi": "Colombia",
          "name:vo": "Kolumbän",
          "name:wo": "Koloombi",
          "name:xh": "IsiColombia",
          "name:yi": "קאלאמביע",
          "name:yo": "Kòlómbìà",
          "name:zh": "哥伦比亚 / 哥倫比亞",
          "name:zu": "IKolombiya",
          "boundary": "administrative",
          "int_name": "Colombia",
          "name:ace": "Kolombia",
          "name:als": "Kolumbien",
          "name:ang": "Colombia",
          "name:arc": "ܩܘܠܘܡܒܝܐ",
          "name:arz": "كولومبيا",
          "name:ast": "Colombia",
          "name:bar": "Kolumbien",
          "name:bcl": "Kolombya",
          "name:bpy": "কলম্বিয়া",
          "name:bxr": "Колумби",
          "name:ceb": "Colombia",
          "name:ckb": "کۆلۆمبیا",
          "name:crh": "Kolombiya",
          "name:diq": "Kolombiya",
          "name:dsb": "Kolumbiska",
          "name:ext": "Colómbia",
          "name:frp": "Colombie",
          "name:frr": "Kolumbien",
          "name:gag": "Kolumbiya",
          "name:gan": "哥倫比亞",
          "name:hak": "Kô-lùn-pí-â",
          "name:hif": "Colombia",
          "name:hsb": "Kolumbiska",
          "name:ilo": "Colombia",
          "name:jbo": "kolombias",
          "name:lad": "Kolombia",
          "name:lij": "Colombia",
          "name:lmo": "Culumbia",
          "name:ltg": "Kolumbeja",
          "name:lzh": "哥倫比亞",
          "name:mhr": "Колумбий",
          "name:mrj": "Колумби",
          "name:nah": "Colombia",
          "name:nan": "Colombia",
          "name:nds": "Kolumbien",
          "name:new": "कोलम्बिया",
          "name:nov": "Kolombia",
          "name:nso": "Kolombia",
          "name:pag": "Colombia",
          "name:pam": "Colombia",
          "name:pap": "Colombia",
          "name:pms": "Colombia",
          "name:pnb": "کولمبیا",
          "name:rmy": "Kolombiya",
          "name:sah": "Колумбия",
          "name:scn": "Colombia",
          "name:sco": "Colombie",
          "name:smn": "Kolumbia",
          "name:sms": "Kolumbia",
          "name:srn": "Kolombikondre",
          "name:stq": "Kolumbien",
          "name:szl": "Kolōmbijŏ",
          "name:tet": "Kolómbia",
          "name:tzl": "Colombia",
          "name:udm": "Колумбия",
          "name:vec": "Cołonbia",
          "name:vro": "Colombia",
          "name:war": "Colombia",
          "name:wuu": "哥伦比亚",
          "name:xal": "Коламбудин Орн",
          "name:xmf": "კოლუმბია",
          "name:yue": "哥倫比亞",
          "name:zea": "Colombia",
          "timezone": "America/Bogota",
          "way_area": "100.631",
          "wikidata": "Q739",
          "ISO3166-1": "CO",
          "wikipedia": "es:Colombia",
          "admin_level": "2",
          "name:bat-smg": "Kuolombėjė",
          "name:cbk-zam": "Colombia",
          "name:zh-Hans": "哥伦比亚",
          "name:zh-Hant": "哥倫比亞",
          "official_name": "República de Colombia",
          "name:be-tarask": "Калюмбія",
          "ISO3166-1:alpha2": "CO",
          "ISO3166-1:alpha3": "COL",
          "default_language": "es",
          "official_name:cs": "Kolumbijská republika",
          "official_name:en": "Republic of Colombia",
          "official_name:eo": "Kolombia Respubliko",
          "official_name:es": "República de Colombia",
          "official_name:fr": "République de Colombie",
          "official_name:ku": "Komara Kolombiya",
          "official_name:ru": "Республика Колумбия",
          "ISO3166-1:numeric": "170",
          "official_name:ckb": "کۆماری کۆڵۆمبیا"
        }
      },
      "geometry": {
        "type": "Polygon",
        "coordinates": [
          [
            [
              -82.1243611,
              12.1246667
            ],
            [
              -82,
              12.027713425664173
            ],
            [
              -82,
              12.366848142667402
            ],
            [
              -82.0334818,
              12.3424414
            ],
            [
              -82.0715069,
              12.2919177
            ],
            [
              -82.095843,
              12.251789
            ],
            [
              -82.104997,
              12.2012452
            ],
            [
              -82.1243611,
              12.1246667
            ]
          ]
        ]
      }
    },
    {
      "type": "Feature",
      "properties": {
        "osm_id": -287666,
        "boundary": "administrative",
        "admin_level": 2,
        "parents": null,
        "name": "Nicaragua",
        "local_name": "Nicaragua",
        "name_en": "Nicaragua",
        "all_tags": {
          "flag": "http://upload.wikimedia.org/wikipedia/commons/1/19/Flag_of_Nicaragua.svg",
          "name": "Nicaragua",
          "name:af": "Nicaragua",
          "name:am": "ኒካራጓ",
          "name:an": "Nicaragua",
          "name:ar": "نيكاراجوا",
          "name:ay": "Nikarwa",
          "name:az": "Nikaraqua",
          "name:ba": "Никарагуа",
          "name:be": "Нікарагуа",
          "name:bg": "Никарагуа",
          "name:bm": "Nikaragwa",
          "name:bn": "নিকারাগুয়া",
          "name:bo": "ནི་ཀ་ར་གུ་ཝ།",
          "name:br": "Nicaragua",
          "name:bs": "Nikaragva",
          "name:ca": "Nicaragua",
          "name:ce": "Никарагуа",
          "name:cs": "Nikaragua",
          "name:cy": "Nicaragua",
          "name:da": "Nicaragua",
          "name:de": "Nicaragua",
          "name:dv": "ނިކަރާގުއާ",
          "name:ee": "Nicaragua",
          "name:el": "Νικαράγουα",
          "name:en": "Nicaragua",
          "name:eo": "Nikaragvo",
          "name:es": "Nicaragua",
          "name:et": "Nicaragua",
          "name:eu": "Nikaragua",
          "name:fa": "نیکاراگوئه",
          "name:fi": "Nicaragua",
          "name:fo": "Nikaragua",
          "name:fr": "Nicaragua",
          "name:fy": "Nikaragûa",
          "name:ga": "Nicearagua",
          "name:gd": "Niocaragua",
          "name:gl": "Nicaragua",
          "name:gn": "Nikaragua",
          "name:gv": "Yn Nickeraag",
          "name:he": "ניקרגואה",
          "name:hi": "निकारागुआ",
          "name:hr": "Nikaragva",
          "name:ht": "Nikaragwa",
          "name:hu": "Nicaragua",
          "name:hy": "Նիկարագուա",
          "name:ia": "Nicaragua",
          "name:id": "Nikaragua",
          "name:ie": "Nicaragua",
          "name:io": "Nikaragua",
          "name:is": "Níkaragva",
          "name:it": "Nicaragua",
          "name:ja": "ニカラグア",
          "name:jv": "Nikaragua",
          "name:ka": "ნიკარაგუა",
          "name:kk": "Никарагуа",
          "name:ko": "니카라과",
          "name:ku": "Nîkaragua",
          "name:kv": "Никарагуа",
          "name:kw": "Nikaragwa",
          "name:la": "Nicaragua",
          "name:lb": "Nicaragua",
          "name:li": "Nicaragua",
          "name:ln": "Nikalagwa",
          "name:lt": "Nikaragva",
          "name:lv": "Nikaragva",
          "name:mg": "Nicaragua",
          "name:mi": "Nikarāhua",
          "name:mk": "Никарагва",
          "name:ml": "നിക്കരാഗ്വ",
          "name:mn": "Никарагуа",
          "name:mr": "निकाराग्वा",
          "name:ms": "Nicaragua",
          "name:mt": "Nikaragwa",
          "name:my": "နီကာရာဂွါနိုင်ငံ",
          "name:ne": "निकाराग्वा",
          "name:nl": "Nicaragua",
          "name:nn": "Nicaragua",
          "name:no": "Nicaragua",
          "name:oc": "Nicaragua",
          "name:or": "ନିକାରାଗୁଆ",
          "name:os": "Никарагуæ",
          "name:pa": "ਨਿਕਾਰਾਗੁਆ",
          "name:pl": "Nikaragua",
          "name:ps": "نیکاراګوا",
          "name:pt": "Nicarágua",
          "name:qu": "Nikarawa",
          "name:ro": "Nicaragua",
          "name:ru": "Никарагуа",
          "name:rw": "Nikaragwa",
          "name:sa": "निकारगुवा",
          "name:se": "Nicaragua",
          "name:sh": "Nikaragva",
          "name:sk": "Nikaragua",
          "name:sl": "Nikaragva",
          "name:so": "Nikaragua",
          "name:sq": "Nikaraguaja",
          "name:sr": "Никарагва",
          "name:ss": "INikhalaga",
          "name:su": "Nikaragua",
          "name:sv": "Nicaragua",
          "name:sw": "Nikaragua",
          "name:ta": "நிக்கராகுவா",
          "name:tg": "Никарагуа",
          "name:th": "ประเทศนิการากัว",
          "name:tl": "Nicaragua",
          "name:tr": "Nikaragua",
          "name:tt": "Никарагуа",
          "name:ug": "نىكاراگۇئا",
          "name:uk": "Нікарагуа",
          "name:ur": "نکاراگوا",
          "name:uz": "Nikaragua",
          "name:vi": "Nicaragua",
          "name:vo": "Nikaraguvän",
          "name:wo": "Nikaraaguwa",
          "name:yi": "ניקאראגוא",
          "name:yo": "Nikarágúà",
          "name:zh": "尼加拉瓜",
          "name:zu": "Nicaragua",
          "boundary": "administrative",
          "name:ace": "Nikaragua",
          "name:als": "Nicaragua",
          "name:arz": "نيكاراجوا",
          "name:ast": "Nicaragua",
          "name:bcl": "Nikaragua",
          "name:bpy": "নিকারাগুয়া",
          "name:bxr": "Никарагуа",
          "name:ceb": "Nicaragua",
          "name:ckb": "نیکاراگوا",
          "name:crh": "Nikaragua",
          "name:diq": "Nikaragua",
          "name:dsb": "Nikaragua",
          "name:ext": "Nicarágua",
          "name:frp": "Nicaragoa",
          "name:frr": "Nikaraagua",
          "name:gag": "Nikaragua",
          "name:hak": "Nì-kâ-lâ-kûa",
          "name:hif": "Nicaragua",
          "name:hsb": "Nikaragua",
          "name:ilo": "Nicaragua",
          "name:jbo": "nikaraguas",
          "name:lij": "Nicaragua",
          "name:lmo": "Nicaragua",
          "name:mhr": "Никарагуа",
          "name:mrj": "Никарагуа",
          "name:nah": "Nicānāhuac",
          "name:nan": "Nicaragua",
          "name:nds": "Nicaragua",
          "name:nov": "Nikaragua",
          "name:pam": "Nicaragua",
          "name:pap": "Nicaragua",
          "name:pms": "Nicaragua",
          "name:sah": "Никарагуа",
          "name:scn": "Nicaragua",
          "name:sco": "Nicaragua",
          "name:smn": "Nicaragua",
          "name:sms": "Nicaragua",
          "name:szl": "Ńikaragua",
          "name:tzl": "Nicaral",
          "name:vec": "Nicaragua",
          "name:vep": "Nikaragua",
          "name:vro": "Nicaragua",
          "name:war": "Nicaragua",
          "name:xal": "Никарагудин Орн",
          "name:yue": "尼加拉瓜",
          "timezone": "America/Managua",
          "way_area": "13.995",
          "wikidata": "Q811",
          "ISO3166-1": "NI",
          "wikipedia": "es:Nicaragua",
          "population": "6393824",
          "admin_level": "2",
          "border_type": "nation",
          "name:simple": "Nicaragua",
          "capital_city": "Managua",
          "name:bat-smg": "Nėkaragva",
          "name:zh-Hans": "尼加拉瓜",
          "name:zh-Hant": "尼加拉瓜",
          "name:be-tarask": "Нікарагуа",
          "ISO3166-1:alpha2": "NI",
          "ISO3166-1:alpha3": "NIC",
          "default_language": "es",
          "official_name:cs": "Nikaragujská republika",
          "official_name:es": "República de Nicaragua",
          "official_name:ru": "Республика Никарагуа",
          "ISO3166-1:numeric": "558",
          "official_name:ckb": "کۆماری نیکاراگوا"
        }
      },
      "geometry": {
        "type": "Polygon",
        "coordinates": [
          [
            [
              -83,
              12
            ],
            [
              -82.8925513568523,
              12
            ],
            [
              -82.8520009,
              12.0794204
            ],
            [
              -82.7880279,
              12.1815092
            ],
            [
              -82.7837343,
              12.1891962
            ],
            [
              -82.7779426,
              12.2010538
            ],
            [
              -82.7745246,
              12.2091548
            ],
            [
              -82.7700788,
              12.221562
            ],
            [
              -82.7675773,
              12.2299809
            ],
            [
              -82.7654514,
              12.238499
            ],
            [
              -82.7637051,
              12.2471003
            ],
            [
              -82.7623419,
              12.2557682
            ],
            [
              -82.7613643,
              12.2644864
            ],
            [
              -82.7607742,
              12.2732383
            ],
            [
              -82.7605729,
              12.282007
            ],
            [
              -82.7607607,
              12.2907761
            ],
            [
              -82.7613373,
              12.2995288
            ],
            [
              -82.7623017,
              12.3082484
            ],
            [
              -82.7636521,
              12.3169183
            ],
            [
              -82.7653858,
              12.3255221
            ],
            [
              -82.7674997,
              12.3340432
            ],
            [
              -82.7699898,
              12.3424656
            ],
            [
              -82.7728514,
              12.3507732
            ],
            [
              -82.7768986,
              12.3608709
            ],
            [
              -82.7814946,
              12.3707392
            ],
            [
              -83,
              12.80828034490614
            ],
            [
              -83,
              12
            ]
          ]
        ]
      }
    }
  ]
}