{
  "type": "FeatureCollection",
  "features": [
    {
      "type": "Feature",
      "properties": {
        "osm_id": -571804,
        "boundary": "administrative",
        "admin_level": 2,
        "parents": null,
        "name": "Nauru",
        "local_name": "Naoero",
        "name_en": "Nauru",
        "all_tags": {
          "flag": "http://upload.wikimedia.org/wikipedia/commons/3/30/Flag_of_Nauru.svg",
          "name": "Naoero",
          "name:am": "ናውሩ",
          "name:ar": "ناورو",
          "name:be": "Науру",
          "name:bg": "Науру",
          "name:bn": "নাউরু",
          "name:bo": "ནའུ་རུ།",
          "name:cs": "Nauru",
          "name:cu": "Наоуроу",
          "name:de": "Nauru",
          "name:dv": "ނައުރޫ",
          "name:el": "Ναουρού",
          "name:en": "Nauru",
          "name:eo": "Nauro",
          "name:es": "Nauru",
          "name:fa": "نائورو",
          "name:fo": "Nauru",
          "name:fr": "Nauru",
          "name:ga": "Nárú",
          "name:gd": "Nauru",
          "name:gn": "Náuru",
          "name:he": "נאורו",
          "name:hi": "नाउरु",
          "name:hr": "Nauru",
          "name:hy": "Նաուրու",
          "name:ia": "Nauru",
          "name:id": "Naúrú",
          "name:io": "Nauru",
          "name:is": "Nárú",
          "name:it": "Nauru",
          "name:ja": "ナウル",
          "name:jv": "Nauru",
          "name:ka": "ნაურუ",
          "name:kn": "ನೌರು",
          "name:la": "Nauruna Insula",
          "name:lt": "Nauru",
          "name:mi": "Nauru",
          "name:ml": "നൗറു",
          "name:mr": "नौरू",
          "name:mt": "Nawru",
          "name:my": "နအူရူးနိုင်ငံ",
          "name:or": "ନାଉରୁ",
          "name:pi": "नौरु",
          "name:ps": "ناورو",
          "name:pt": "Nauru",
          "name:ru": "Науру",
          "name:sa": "नौरु",
          "name:se": "Nauru",
          "name:si": "නාඌරූ",
          "name:sk": "Nauru",
          "name:so": "Nawru",
          "name:sq": "Naurua",
          "name:sw": "Nauru",
          "name:ta": "நவூரு",
          "name:th": "ประเทศนาอูรู",
          "name:to": "Nauru",
          "name:tw": "Nauru",
          "name:ty": "Nauru",
          "name:uk": "Науру",
          "name:ur": "ناورو",
          "name:vo": "Naureän",
          "name:wo": "Nauru",
          "name:yi": "נאורו",
          "name:yo": "Nàúrù",
          "name:zh": "瑙鲁 / 諾魯",
          "boundary": "administrative",
          "name:ace": "Nauru",
          "name:ang": "Nauru",
          "name:anp": "नैरू",
          "name:arz": "ناورو",
          "name:bpy": "নাউরু",
          "name:cdo": "Nauru",
          "name:chr": "ᏃᎤᎷ",
          "name:chy": "Nauru",
          "name:dty": "नाउरु",
          "name:hak": "Nauru",
          "name:hsb": "Nauru",
          "name:jam": "Nauru",
          "name:jbo": "naurus",
          "name:lez": "Науру",
          "name:mrj": "Науру",
          "name:new": "नाउरु",
          "name:olo": "Nauru",
          "name:pap": "Nauru",
          "name:pih": "Nauruu",
          "name:shn": "မိူင်းၼၢဝ်ရူး",
          "name:smn": "Nauru",
          "name:sms": "Nauru",
          "name:tpi": "Nauru",
          "name:vec": "Nauru",
          "name:xal": "Орн",
          "name:xmf": "ნაურუ",
          "old_name": "Pleasant Island",
          "timezone": "Pacific/Nauru",
          "way_area": "0.158707",
          "wikidata": "Q697",
          "ISO3166-1": "NR",
          "wikipedia": "en:Nauru",
          "admin_level": "2",
          "driving_side": "left",
          "name:bat-smg": "Nauru",
          "name:zh-Hans": "瑙鲁",
          "name:zh-Hant": "諾魯",
          "ISO3166-1:alpha2": "NR",
          "ISO3166-1:alpha3": "NRU",
          "official_name:cs": "Republika Nauru",
          "official_name:en": "Republic of Nauru",
          "official_name:es": "República de Nauru",
          "official_name:gn": "Tavakuairetã Náuru",
          "official_name:io": "Ripublik Naoero",
          "official_name:pt": "República de Nauru",
          "official_name:ru": "Республика Науру",
          "official_name:zh": "瑙鲁共和国 / 諾魯共和國",
          "ISO3166-1:numeric": "520",
          "official_name:zh-Hans": "瑙鲁共和国",
          "official_name:zh-Hant": "諾魯共和國"
        }
      },
      "geometry": {
        "type": "Polygon",
        "coordinates": [
          [
            [
              167,
              -0.7424331784522854
            ],
            [
              167.0070564,
              -0.74
            ],
            [
              167.0171515,
              -0.736
            ],
            [
              167.0259422,
              -0.732
            ],
            [
              167.0355857,
              -0.727
            ],
            [
              167.0513747,
              -0.718
            ],
            [
              167.0593262,
              -0.713
            ],
            [
              167.0679295,
              -0.707
            ],
            [
              167.0756655,
              -0.701
            ],
            [
              167.0849138,
              -0.693
            ],
            [
              167.0932199,
              -0.685
            ],
            [
              167.0997593,
              -0.678
            ],
            [
              167.106515,
              -0.67
            ],
            [
              167.1125961,
              -0.662
            ],
            [
              167.1180762,
              -0.654
            ],
            [
              167.123644,
              -0.645
            ],
            [
              167.1259228,
              -0.641
            ],
            [
              167.1301257,
              -0.633
            ],
            [
              167.1338826,
              -0.625
            ],
            [
              167.1379922,
              -0.615
            ],
            [
              167.1408371,
              -0.607
            ],
            [
              167.1433073,
              -0.599
            ],
            [
              167.147234,
              -0.589
            ],
            [
              167.1499837,
              -0.581
            ],
            [
              167.1529011,
              -0.571
            ],
            [
              167.1552812,
              -0.561
            ],
            [
              167.1571641,
              -0.551
            ],
            [
              167.1580434,
              -0.545
            ],
            [
              167.1587379,
              -0.539
            ],
            [
              167.1595801,
              -0.527
            ],
            [
              167.1597,
              -0.515
            ],
            [
              167.1591184,
              -0.503
            ],
            [
              167.1581129,
              -0.493
            ],
            [
              167.1572644,
              -0.487
            ],
            [
              167.155459,
              -0.477
            ],
            [
              167.1527142,
              -0.465
            ],
            [
              167.149859,
              -0.455
            ],
            [
              167.1458014,
              -0.443
            ],
            [
              167.141779,
              -0.433
            ],
            [
              167.138129,
              -0.425
            ],
            [
              167.1329612,
              -0.415
            ],
            [
              167.1271073,
              -0.405
            ],
            [
              167.1218371,
              -0.397
            ],
            [
              167.1159889,
              -0.389
            ],
            [
              167.1086649,
              -0.38
            ],
            [
              167.1006729,
              -0.371
            ],
            [
              167.0938002,
              -0.364
            ],
            [
              167.0862639,
              -0.357
            ],
            [
              167.0767395,
              -0.349
            ],
            [
              167.0673568,
              -0.342
            ],
            [
              167.0584199,
              -0.336
            ],
            [
              167.0484668,
              -0.33
            ],
            [
              167.0390728,
              -0.325
            ],
            [
              167.0305539,
              -0.321
            ],
            [
              167.0207979,
              -0.317
            ],
            [
              167.0096989,
              -0.313
            ],
            [
              167,
              -0.310087563185025
            ],
            [
              167,
              -0.7424331784522854
            ]
          ]
        ]
      }
    }
  ]
}