{
  "type": "FeatureCollection",
  "features": [
    {
      "type": "Feature",
      "properties": {
        "osm_id": -59470,
        "boundary": "administrative",
        "admin_level": 2,
        "parents": null,
        "name": "Brazil",
        "local_name": "Brasil",
        "name_en": "Brazil",
        "all_tags": {
          "flag": "http://upload.wikimedia.org/wikipedia/commons/0/05/Flag_of_Brazil.svg",
          "name": "Brasil",
          "name:aa": "Brazil",
          "name:af": "Brasilië",
          "name:ak": "Brazil",
          "name:am": "ብራዚል",
          "name:an": "Brasil",
          "name:ar": "البَرَازِيل",
          "name:as": "ব্ৰাজিল",
          "name:ay": "Wrasil",
          "name:az": "Braziliya",
          "name:ba": "Брази́лия",
          "name:be": "Бразі́лія",
          "name:bg": "Бразилия",
          "name:bh": "ब्राज़ील",
          "name:bi": "Brazil",
          "name:bm": "Brazil",
          "name:bn": "ব্রাজিল",
          "name:bo": "པུ་རུ་ཟིལ།",
          "name:br": "Brazil",
          "name:bs": "Brazil",
          "name:ca": "Brasil",
          "name:ce": "Брази́ли",
          "name:ch": "Brazil",
          "name:co": "Brasile",
          "name:cs": "Brazílie",
          "name:cu": "Браꙁїлі́ꙗ",
          "name:cv": "Бразили",
          "name:cy": "Brasil",
          "name:da": "Brasilien",
          "name:de": "Brasilien",
          "name:dv": "ބުރެޒިލް",
          "name:dz": "བཱརཱ་ཛིལ་",
          "name:ee": "Brazil",
          "name:el": "Βραζιλία",
          "name:en": "Brazil",
          "name:eo": "Brazilo",
          "name:es": "Brasil",
          "name:et": "Brasiilia",
          "name:eu": "Brasil",
          "name:fa": "برزیل",
          "name:ff": "Barazil",
          "name:fi": "Brasilia",
          "name:fj": "Brazil",
          "name:fo": "Brasilia",
          "name:fr": "Brésil",
          "name:fy": "Brazylje",
          "name:ga": "an Bhrasaíl",
          "name:gd": "Braisil",
          "name:gl": "Brasil",
          "name:gn": "Pindoráma",
          "name:gu": "બ્રાઝિલ",
          "name:gv": "yn Vrasseel",
          "name:ha": "Brazil",
          "name:he": "ברזיל",
          "name:hi": "ब्रास़ील",
          "name:hr": "Brazil",
          "name:ht": "Brezil",
          "name:hu": "Brazília",
          "name:hy": "Բրազիլիա",
          "name:ia": "Brasil",
          "name:id": "Brasil",
          "name:ie": "Brasil",
          "name:ig": "Brazil",
          "name:ii": "ꀠꑭ",
          "name:io": "Brazilia",
          "name:is": "Brasilía",
          "name:it": "Brasile",
          "name:ja": "ブラジル",
          "name:jv": "Brasil",
          "name:ka": "ბრაზილია",
          "name:kg": "Brazilia",
          "name:ki": "Brazil",
          "name:kk": "Бразилия",
          "name:kl": "Brazil",
          "name:km": "ប្រេស៊ីល",
          "name:kn": "ಬ್ರೆಜಿಲ್",
          "name:ko": "브라질",
          "name:ks": "برٛازِل",
          "name:ku": "Brazîl",
          "name:kv": "Бразилия",
          "name:kw": "Brasil",
          "name:ky": "Бразилия",
          "name:la": "Brasilia",
          "name:lb": "Brasilien",
          "name:lg": "Buraziiri",
          "name:li": "Braziel",
          "name:ln": "Brazil",
          "name:lo": "ບະເຣຊິນ",
          "name:lt": "Brazilija",
          "name:lv": "Brazīlija",
          "name:mg": "Brazila",
          "name:mi": "Parīhi",
          "name:mk": "Бразил",
          "name:ml": "ബ്രസീൽ",
          "name:mn": "Бразил",
          "name:mr": "ब्राझील",
          "name:ms": "Brazil",
          "name:mt": "Brażil",
          "name:my": "ဘရာဇီးနိုင်ငံ",
          "name:na": "Bradir",
          "name:ne": "ब्राजिल",
          "name:nl": "Brazilië",
          "name:nn": "Brasil",
          "name:no": "Brasil",
          "name:nv": "Bwazííl",
          "name:oc": "Brasil",
          "name:om": "Biraazil",
          "name:or": "ବ୍ରାଜିଲ",
          "name:os": "Бразили",
          "name:pa": "ਬ੍ਰਾਜ਼ੀਲ",
          "name:pi": "ब्रासील",
          "name:pl": "Brazylia",
          "name:ps": "برازیل",
          "name:pt": "Brasil",
          "name:qu": "Prasil",
          "name:rm": "Brasilia",
          "name:rn": "Brazil",
          "name:ro": "Brazilia",
          "name:ru": "Бразилия",
          "name:rw": "Burezile",
          "name:sa": "ब्रासील",
          "name:sc": "Brasile",
          "name:sd": "برازيل",
          "name:se": "Brasilia",
          "name:sh": "Brazil",
          "name:si": "බ්රසීලය",
          "name:sk": "Brazília",
          "name:sl": "Brazilija",
          "name:sm": "Pasila",
          "name:sn": "Brazil",
          "name:so": "Barasiil",
          "name:sq": "Brazili",
          "name:sr": "Бразил",
          "name:st": "Brazil",
          "name:su": "Brasil",
          "name:sv": "Brasilien",
          "name:sw": "Brazil",
          "name:ta": "பிரேசில்",
          "name:te": "బ్రెజిల్",
          "name:tg": "Бразилия",
          "name:th": "บราซิล",
          "name:ti": "ብራዚል",
          "name:tk": "Braziliýa",
          "name:tl": "Brasil",
          "name:to": "Palāsili",
          "name:tr": "Brezilya",
          "name:tt": "Брази́лия",
          "name:tw": "Brazil",
          "name:ty": "Parīihi",
          "name:ug": "برازىلىيە",
          "name:uk": "Брази́лія",
          "name:ur": "برازیل",
          "name:uz": "Braziliya",
          "name:ve": "Brazil",
          "name:vi": "Brasil",
          "name:vo": "Brasilän",
          "name:wa": "Braezi",
          "name:wo": "Breesil",
          "name:xh": "Brasil",
          "name:yi": "בראַזיל",
          "name:yo": "Brasil",
          "name:za": "Bahsih",
          "name:zh": "巴西",
          "name:zu": "IBrazili",
          "boundary": "administrative",
          "currency": "BRL",
          "int_name": "Brazil",
          "name:ace": "Brasil",
          "name:ady": "Бразилие",
          "name:als": "Brasilie",
          "name:ang": "Brasil",
          "name:arc": "ܒܪܐܙܝܠ",
          "name:arz": "البرازيل",
          "name:ast": "Brasil",
          "name:azb": "برزیل",
          "name:bar": "Brasilien",
          "name:bcl": "Brasil",
          "name:bpy": "ব্রাজিল",
          "name:brx": "ब्राज़ील",
          "name:bxr": "Бразил",
          "name:cdo": "Bă-să̤",
          "name:ceb": "Brasil",
          "name:chr": "ᏆᏏᎵ",
          "name:chy": "Brazil",
          "name:ckb": "بەڕازیل",
          "name:crh": "Brazil",
          "name:csb": "Brazylskô",
          "name:diq": "Brezilya",
          "name:dsb": "Brazilska",
          "name:dty": "ब्राजिल",
          "name:eml": "Braṡil",
          "name:ext": "Brasil",
          "name:frp": "Brèsil",
          "name:frr": "Brasiilien",
          "name:fur": "Brasîl",
          "name:gag": "Braziliya",
          "name:gan": "巴西",
          "name:glk": "برزيل",
          "name:gom": "ब्राझील",
          "name:got": "𐌱𐌱𐍂𐌱𐍂𐌰𐌱𐍂𐌰𐌶𐌱𐍂𐌰𐌶𐌹𐌱𐍂𐌰𐌶𐌹𐌻",
          "name:hak": "Pâ-sî",
          "name:haw": "Palakila",
          "name:hif": "Brazil",
          "name:hsb": "Brazilska",
          "name:ilo": "Brasil",
          "name:jam": "Brazil",
          "name:jbo": "razgu'e",
          "name:kaa": "Braziliya",
          "name:kab": "Brazil",
          "name:kbd": "Бразил",
          "name:kbp": "Piresiili",
          "name:krc": "Бразилия",
          "name:ksh": "Brasilije",
          "name:lad": "Brasil",
          "name:lez": "Бразилия",
          "name:lij": "Braxî",
          "name:lmo": "Brasil",
          "name:lrc": "برزيل",
          "name:ltg": "Brazileja",
          "name:lzh": "巴西",
          "name:mai": "ब्राजिल",
          "name:mdf": "Бразилие",
          "name:mhr": "Бразилий",
          "name:min": "Brasil",
          "name:mrj": "Бразили",
          "name:mwl": "Brasil",
          "name:myv": "Бразилия",
          "name:mzn": "برزیل",
          "name:nah": "Brasil",
          "name:nan": "Pa-se",
          "name:nap": "Brasile",
          "name:nds": "Brasilien",
          "name:new": "ब्राजिल",
          "name:nov": "Brasilia",
          "name:nrm": "Brési",
          "name:nso": "Brazil",
          "name:olo": "Braziilii",
          "name:pag": "Brazil",
          "name:pam": "Brazil",
          "name:pap": "Brazil",
          "name:pcd": "Brésil",
          "name:pdc": "Brasilien",
          "name:pfl": "Brasilje",
          "name:pih": "Bresel",
          "name:pms": "Brasil",
          "name:pnb": "برازیل",
          "name:rmy": "Brazil",
          "name:rue": "Бразілія",
          "name:sah": "Бразилия",
          "name:scn": "Brasili",
          "name:sco": "Brazil",
          "name:smn": "Brasilia",
          "name:sms": "Brasilia",
          "name:srn": "Brasilkondre",
          "name:stq": "Brasilien",
          "name:szl": "Brazylijŏ",
          "name:tet": "Brazíl",
          "name:tok": "ma Pasila",
          "name:tpi": "Brasil",
          "name:tum": "Brazil",
          "name:tyv": "Бразилия",
          "name:tzl": "Brasil",
          "name:vec": "Braxil",
          "name:vep": "Brazilii",
          "name:vls": "Brazilië",
          "name:vro": "Brasiilia",
          "name:war": "Brasil",
          "name:wuu": "巴西",
          "name:xal": "Бразилмудин",
          "name:xmf": "ბრაზილია",
          "name:yue": "巴西",
          "name:zea": "Brezilië",
          "way_area": "728.951",
          "wikidata": "Q155",
          "ISO3166-1": "BR",
          "wikipedia": "pt:Brasil",
          "admin_level": "2",
          "alt_name:fo": "Brasil",
          "alt_name:gd": "Brasil",
          "alt_name:hi": "ब्राज़ील",
          "alt_name:ie": "Brazil",
          "alt_name:vi": "Brazil;Bra-xin",
          "name:nds-nl": "Brazilië",
          "old_name:vi": "Ba Tây",
          "alt_name:csb": "Brazylëjô",
          "alt_name:nan": "Peh-la̍t-se-ní",
          "driving_side": "right",
          "name:bat-smg": "Brazilėjė",
          "name:cbk-zam": "Brasil",
          "name:map-bms": "Brasil",
          "name:zh-Hans": "巴西",
          "name:zh-Hant": "巴西",
          "name:roa-tara": "Brasile",
          "official_name": "República Federativa do Brasil",
          "name:be-tarask": "Бразы́лія",
          "ISO3166-1:alpha2": "BR",
          "ISO3166-1:alpha3": "BRA",
          "default_language": "pt",
          "official_name:af": "Federale Republiek Brasilië",
          "official_name:am": "የብራዚል ፌዴራላዊ ሪፐብሊክ",
          "official_name:an": "República Federativa do Brasil",
          "official_name:ar": "جُمْهُورِيَّة البَرَازِيل الاتِّحادِيَّة",
          "official_name:as": "ফেডাৰেটিভ ৰিপাব্লিক অফ্ ব্ৰাজিল",
          "official_name:ay": "Tantasqa Republika Wrasil",
          "official_name:az": "Braziliya Federativ Respublikası",
          "official_name:ba": "Брази́лия Федерати́в Республика́һы",
          "official_name:be": "Федэраты́ўная Рэспу́бліка Бразі́лія",
          "official_name:bg": "Федеративна република Бразилия",
          "official_name:bn": "সংযুক্ত প্রজাতন্ত্রী ব্রাজিল",
          "official_name:br": "Republik Kevreel Brazil",
          "official_name:bs": "Federativna republika Brazil",
          "official_name:ca": "República Federal del Brasil",
          "official_name:ce": "Федерати́вни Респу́блика Брази́ли",
          "official_name:co": "Republica Federale di u Brasile",
          "official_name:cs": "Brazilská federativní republika",
          "official_name:cu": "Браꙁі́льска Съвѫ́ꙁьна Димократі́ꙗ",
          "official_name:cv": "Бразили Федеративлă Республики",
          "official_name:cy": "Gweriniaeth Ffederal Brasil",
          "official_name:da": "Den Føderative Republik Brasilien",
          "official_name:de": "Föderative Republik Brasilien",
          "official_name:el": "Ομοσπονδιακή Δημοκρατία της Βραζιλίας",
          "official_name:en": "Federative Republic of Brazil",
          "official_name:eo": "Federacia Respubliko Brazilo",
          "official_name:es": "República Federativa de Brasil",
          "official_name:et": "Brasiilia Liitvabariik",
          "official_name:eu": "Brasilgo Errepublika Federala",
          "official_name:fa": "جمهوری فدرال برزیل",
          "official_name:fi": "Brasilian liittotasavalta",
          "official_name:fo": "Samveldis Lýðveldið Brasil",
          "official_name:fr": "République fédérative du Brésil",
          "official_name:fy": "Federative Republyk Brazylje",
          "official_name:ga": "Poblacht Chónaidhmitheach na Brasaíle",
          "official_name:gl": "República Federativa do Brasil",
          "official_name:gn": "Tetã Joaty Pindoráma",
          "official_name:gu": "બ્રાઝીલનું સંઘીય ગણરાજ્ય",
          "official_name:gv": "Pobblaght Chonastagh ny Brasseel",
          "official_name:ha": "Jamhuriyar Brazil",
          "official_name:he": "הרפובליקה הפדרלית של ברזיל",
          "official_name:hi": "ब्राज़ील का संघीय गणराज्य",
          "official_name:hr": "Savezna Republika Brazil",
          "official_name:hu": "Brazil Szövetségi Köztársaság",
          "official_name:hy": "Բրազիլիայի Դաշնային Հանրապետություն",
          "official_name:ia": "Republica Federative de Brasil",
          "official_name:id": "Republik Federal Brasil",
          "official_name:is": "Sambandslýðveldið Brasilía",
          "official_name:it": "Repubblica Federale del Brasile",
          "official_name:ja": "ブラジル連邦共和国",
          "official_name:jv": "Républik Federal Brasil",
          "official_name:ka": "ბრაზილიის ფედერაციული რესპუბლიკა",
          "official_name:kk": "Бразилия Федеративтік Республикасы",
          "official_name:kl": "Kunngiitsuuffik Brazil",
          "official_name:km": "សាធារណរដ្ឋ​សហព័ន្ធ​ប្រេស៊ីល",
          "official_name:kn": "ಬ್ರೆಜಿಲ್ ಸಂಯುಕ್ತ ಗಣರಾಜ್ಯ",
          "official_name:ko": "브라질 연방 공화국",
          "official_name:ku": "Komara Federal a Brazîlê",
          "official_name:kv": "Федератив Бразилия Республика",
          "official_name:ky": "Бразилия Федерация Республикасы",
          "official_name:la": "Respublica Foederativa Brasiliae",
          "official_name:li": "Federaol Rippubliek Brazilië",
          "official_name:ln": "Republíki Fedelali ya Brazil",
          "official_name:lo": "ສະຫະພັນສາທາະລະນະລັດບະເຣຊິນ",
          "official_name:lt": "Brazilijos Federacinė Respublika",
          "official_name:lv": "Brazīlijas Federatīvā Republika",
          "official_name:mg": "Repoblika federalin'i Brazila",
          "official_name:mi": "Whenua Tū Wehe o Parīhi",
          "official_name:mk": "Федеративна Република Бразил",
          "official_name:ml": "ഫെഡറേറ്റിവ് റിപ്പബ്ലിക്ക് ഓഫ് ബ്രസീൽ",
          "official_name:mn": "Холбооны Бүгд Найрамдах Бразил Улс",
          "official_name:ms": "Republik Persekutuan Brazil",
          "official_name:mt": "Repubblika Federattiva tal-Brażil",
          "official_name:my": "ဘရာဇီး ဖက်ဒရယ် သမ္မတနိုင်ငံ",
          "official_name:ne": "संघीय गणतन्त्र ब्राजिल",
          "official_name:nl": "Federale Republiek van Brazilië",
          "official_name:no": "Forbundsrepublikken Brasil",
          "official_name:nv": "Kintaaʼanéhé Dineʼé Bikéyah",
          "official_name:oc": "Republica Federala de Brasil",
          "official_name:os": "Федеративон Республикæ Бразили",
          "official_name:pa": "ਬ੍ਰਾਜ਼ੀਲ ਦਾ ਸੰਘੀ ਗਣਰਾਜ",
          "official_name:pl": "Federacyjna Republika Brazylii",
          "official_name:ps": "د برازیل فدراتیف ولسمشریزه",
          "official_name:pt": "República Federativa do Brasil",
          "official_name:qu": "Brasil Tantasqa Ripuwlika",
          "official_name:rm": "Republica federal da Brasilia",
          "official_name:ro": "Republica Federativă a Braziliei",
          "official_name:ru": "Федеративная Республика Бразилия",
          "official_name:sd": "وفاقي جمهوريه برازيل",
          "official_name:se": "Brasilia lihttodásseváldi",
          "official_name:sh": "Federativna Republika Brazil",
          "official_name:si": "බ්රසිල සමුහාණ්ඩු සංවිධානය",
          "official_name:sk": "Brazílska federatívna republika",
          "official_name:sl": "Federativna republika Brazilija",
          "official_name:sm": "Ripapelika feterale o Pasila",
          "official_name:sq": "Republika Federative e Brazilit",
          "official_name:sr": "Савезна Република Бразил",
          "official_name:su": "Républik Féderasi Brasil",
          "official_name:sv": "Förbundsrepubliken Brasilien",
          "official_name:sw": "Shirikisho la Jamhuri ya Brazil",
          "official_name:ta": "பிரேசில் கூட்டாட்சிக் குடியரசு",
          "official_name:te": "ఫెడరేటివ్ రిపబ్లిక్ ఆఫ్ బ్రెజిల్",
          "official_name:th": "สหพันธ์สาธารณรัฐบราซิล",
          "official_name:tk": "Braziliýa Federatiw Respublikasy",
          "official_name:tl": "Pederatibong Republika ng Brasil",
          "official_name:tr": "Brezilya Federal Cumhuriyeti",
          "official_name:tt": "Брази́лия Федерати́в Респу́бликасы",
          "official_name:uk": "Федерати́вна Респу́бліка Брази́лія",
          "official_name:ur": "وفاقی جمہوریہ برازیل",
          "official_name:uz": "Braziliya Federativ Respublikasi",
          "official_name:vi": "Cộng hòa Liên bang Brasil",
          "official_name:wo": "Réewum Breesil",
          "official_name:yi": "פֿעדעראַטיװע רעפובליק פֿון בראַזיל",
          "official_name:yo": "Orílẹ̀-èdè Olómìnira Aparapọ̀ ilẹ̀ Bràsíl",
          "official_name:za": "Bahsih Lienzbangh Gunghozgoz",
          "official_name:zh": "巴西联邦共和国 / 巴西聯邦共和國",
          "ISO3166-1:numeric": "076",
          "official_name:als": "Föderative Republik Brasilien",
          "official_name:arc": "ܩܘܛܢܝܘܬܐ ܦܕܪܠܝܬܐ ܕܒܪܐܙܝܠ",
          "official_name:arz": "جمهورية البرازيل الاتحاديه",
          "official_name:ast": "República Federativa do Brasil",
          "official_name:azb": "برزیل فدراتیو جومهوریتی",
          "official_name:bpy": "কেন্দ্রীয় প্রজাতন্ত্রি ব্রাজিল",
          "official_name:bxr": "Холбооной Бүгэдэ Найрамдаха Бразил Улас",
          "official_name:ceb": "Pederatibong Republika sa Brasil",
          "official_name:chr": "ᎠᏰᏟ ᏍᎦᏚᎩ ᎾᎿ ᏆᏏᎵ",
          "official_name:ckb": "کۆماری فیدراڵی بەڕازیل",
          "official_name:crh": "Brazil Federativ Cumhuriyeti",
          "official_name:diq": "Cumhuriyetê Breziyayo Federal",
          "official_name:dsb": "Brazilska federatiwna republika",
          "official_name:dty": "संघीय गणतन्त्र ब्राजिल",
          "official_name:eml": "Repubblica Federativa del Brasile",
          "official_name:ext": "Repúbrica Federativa del Brasil",
          "official_name:frr": "Fööderatiif Republiik faan Brasiilien",
          "official_name:gag": "Braziliya Federal Respublikası",
          "official_name:gan": "巴西聯邦共和國",
          "official_name:hsb": "Brazilska federatiwna republika",
          "official_name:ilo": "Pederatibo a Republika ti Brasil",
          "official_name:jbo": "razgu'e gumgu'e gubyseltru",
          "official_name:kbd": "Федерациэм Республикэ Бразил",
          "official_name:krc": "Федератив Бразилия Республика",
          "official_name:lad": "Republika Federala del Brasil",
          "official_name:lez": "Бразилия Федеративдин Республика",
          "official_name:lmo": "República Federativa do Brasil",
          "official_name:lrc": "کومره ولات فدراتیو برزیل",
          "official_name:ltg": "Brazilejis Federativuo Republika",
          "official_name:lzh": "巴西聯邦共和國",
          "official_name:mai": "सङ्घीय गणतन्त्र ब्राजिल",
          "official_name:min": "República Federativa do Brasil",
          "official_name:mwl": "República Federativa do Brasil",
          "official_name:myv": "Федерати́вная Респу́блика Брази́лия",
          "official_name:mzn": "برزیل فدراتیو جمهوری",
          "official_name:nah": "Nenahuatiliztlacatlahtohcayotl Brasil",
          "official_name:nan": "Pa-se Liân-pang Kiōng-hô-kok",
          "official_name:nap": "Repubbreca Federativa d'o Brasile",
          "official_name:nds": "Bundsrepubliek Brasilien",
          "official_name:olo": "Braziilien federatiivine tazavaldu",
          "official_name:pag": "Federative Republic na Brazil",
          "official_name:pam": "Federatibung Republica ning Brazil",
          "official_name:pap": "Repúblika Federativa di Brazil",
          "official_name:pcd": "Républike fédérative du Brésil",
          "official_name:pdc": "Bunnes-Republik Brasilien",
          "official_name:pfl": "Federadivi Republik Brasilje",
          "official_name:pih": "Federativii Repablik o' Bresel",
          "official_name:rmy": "Federalni Republika la Braziliyaki",
          "official_name:rue": "Бразільска федератівна републіка",
          "official_name:sah": "Бразилия Федератив Республиката",
          "official_name:sco": "Federative Republic o Brazil",
          "official_name:srn": "Ripoliku Brasilkondre",
          "official_name:tet": "Repúblika Federativa Brazíl nian",
          "official_name:tyv": "Федеративтиг Бразилия Республиказы",
          "official_name:vec": "Repùblica Federałe de Braxil",
          "official_name:vep": "Brazilijan Federativine Tazovaldkund",
          "official_name:vls": "Federoale Republiek Brazilië",
          "official_name:vro": "Brasiilia Vabariik",
          "official_name:war": "Republika Federativa han Brasil",
          "official_name:wuu": "巴西联邦共和国",
          "official_name:xal": "Ниицәтә Бразилмудин Орн",
          "official_name:yue": "巴西聯邦共和國",
          "official_name:nds-nl": "Federale Reppubliek Brazilië",
          "official_name:cbk-zam": "Republica Federativa del Brazil",
          "official_name:zh-Hans": "巴西联邦共和国",
          "official_name:zh-Hant": "巴西聯邦共和國",
          "official_name:roa-tara": "Repubbleche Federative d'u Brasile"
        }
      },
      "geometry": {
        "type": "Polygon",
        "coordinates": [
          [
            [
              -73.9830625,
              -7.5347344
            ],
            [
              -73.9829179,
              -7.5349356
            ],
            [
              -73.9829179,
              -7.535625
            ],
            [
              -73.9825664,
              -7.5371152
            ],
            [
              -73.9818731,
              -7.5390664
            ],
            [
              -73.9814687,
              -7.5412461
            ],
            [
              -73.9813476,
              -7.5436562
            ],
            [
              -73.9806972,
              -7.5489356
            ],
            [
              -73.9800254,
              -7.5529219
            ],
            [
              -73.9799882,
              -7.5570274
            ],
            [
              -73.979752,
              -7.5592637
            ],
            [
              -73.9791191,
              -7.5608125
            ],
            [
              -73.9785684,
              -7.5614707
            ],
            [
              -73.9771582,
              -7.5622422
            ],
            [
              -73.9743965,
              -7.5632694
            ],
            [
              -73.9735332,
              -7.5633242
            ],
            [
              -73.9722676,
              -7.563666
            ],
            [
              -73.9715195,
              -7.5636641
            ],
            [
              -73.9703066,
              -7.5640645
            ],
            [
              -73.9693301,
              -7.5641191
            ],
            [
              -73.9684667,
              -7.5644044
            ],
            [
              -73.967668,
              -7.5644024
            ],
            [
              -73.9666289,
              -7.5646856
            ],
            [
              -73.9647285,
              -7.564625
            ],
            [
              -73.9630059,
              -7.564793
            ],
            [
              -73.9612812,
              -7.5644414
            ],
            [
              -73.9584042,
              -7.5644375
            ],
            [
              -73.9564434,
              -7.5656954
            ],
            [
              -73.9543691,
              -7.568502
            ],
            [
              -73.952293,
              -7.5705059
            ],
            [
              -73.9506152,
              -7.5726836
            ],
            [
              -73.9488301,
              -7.5744004
            ],
            [
              -73.9486544,
              -7.5744004
            ],
            [
              -73.9474492,
              -7.5756035
            ],
            [
              -73.9435879,
              -7.5783516
            ],
            [
              -73.9418555,
              -7.5792637
            ],
            [
              -73.94042,
              -7.5796035
            ],
            [
              -73.9393242,
              -7.5795996
            ],
            [
              -73.9371954,
              -7.5799395
            ],
            [
              -73.9350137,
              -7.5799356
            ],
            [
              -73.9347226,
              -7.5797617
            ],
            [
              -73.9337461,
              -7.579875
            ],
            [
              -73.9331739,
              -7.5801601
            ],
            [
              -73.930291,
              -7.5807832
            ],
            [
              -73.9293145,
              -7.5807246
            ],
            [
              -73.926666,
              -7.5815214
            ],
            [
              -73.9248809,
              -7.5825507
            ],
            [
              -73.9218301,
              -7.5848379
            ],
            [
              -73.9138106,
              -7.5922794
            ],
            [
              -73.9124297,
              -7.5942285
            ],
            [
              -73.9116211,
              -7.5961191
            ],
            [
              -73.9112169,
              -7.5966347
            ],
            [
              -73.910752,
              -7.5968652
            ],
            [
              -73.908623,
              -7.5968575
            ],
            [
              -73.9081347,
              -7.5973457
            ],
            [
              -73.9079356,
              -7.5973162
            ],
            [
              -73.9070137,
              -7.5978887
            ],
            [
              -73.9040781,
              -7.5989141
            ],
            [
              -73.9021231,
              -7.5991972
            ],
            [
              -73.9014277,
              -7.5990215
            ],
            [
              -73.8999336,
              -7.5990742
            ],
            [
              -73.8995294,
              -7.598959
            ],
            [
              -73.8979805,
              -7.5990704
            ],
            [
              -73.8976289,
              -7.5992989
            ],
            [
              -73.8969414,
              -7.5994121
            ],
            [
              -73.8944629,
              -7.6009551
            ],
            [
              -73.8909531,
              -7.6024395
            ],
            [
              -73.889457,
              -7.6031797
            ],
            [
              -73.8890235,
              -7.6035527
            ],
            [
              -73.8886485,
              -7.6039825
            ],
            [
              -73.8885275,
              -7.6047851
            ],
            [
              -73.8882989,
              -7.6051856
            ],
            [
              -73.888336,
              -7.6056465
            ],
            [
              -73.8896094,
              -7.6090937
            ],
            [
              -73.8901816,
              -7.6101836
            ],
            [
              -73.893166,
              -7.6131191
            ],
            [
              -73.894082,
              -7.6143262
            ],
            [
              -73.8948926,
              -7.6158789
            ],
            [
              -73.8955176,
              -7.6180039
            ],
            [
              -73.8953476,
              -7.6203437
            ],
            [
              -73.8953867,
              -7.6215039
            ],
            [
              -73.8956757,
              -7.6223652
            ],
            [
              -73.895668,
              -7.623916
            ],
            [
              -73.8946836,
              -7.6264414
            ],
            [
              -73.8938145,
              -7.6297656
            ],
            [
              -73.8936544,
              -7.6309004
            ],
            [
              -73.8940351,
              -7.6332069
            ],
            [
              -73.894211,
              -7.6333242
            ],
            [
              -73.8947226,
              -7.6346465
            ],
            [
              -73.8967891,
              -7.6367754
            ],
            [
              -73.9001777,
              -7.6389649
            ],
            [
              -73.9004667,
              -7.6393106
            ],
            [
              -73.900459,
              -7.6402285
            ],
            [
              -73.9002305,
              -7.6405586
            ],
            [
              -73.898498,
              -7.6418867
            ],
            [
              -73.8978125,
              -7.6421152
            ],
            [
              -73.8962579,
              -7.6430294
            ],
            [
              -73.8908926,
              -7.6470919
            ],
            [
              -73.8884434,
              -7.6493516
            ],
            [
              -73.8872597,
              -7.6508145
            ],
            [
              -73.8862754,
              -7.6525312
            ],
            [
              -73.8850097,
              -7.6538476
            ],
            [
              -73.8834531,
              -7.6547637
            ],
            [
              -73.8815547,
              -7.6556172
            ],
            [
              -73.8796542,
              -7.6561289
            ],
            [
              -73.8786699,
              -7.6567579
            ],
            [
              -73.8767696,
              -7.6586485
            ],
            [
              -73.874168,
              -7.6623145
            ],
            [
              -73.8724902,
              -7.6657539
            ],
            [
              -73.8695976,
              -7.673207
            ],
            [
              -73.8680645,
              -7.6752967
            ],
            [
              -73.8665391,
              -7.6762402
            ],
            [
              -73.8646386,
              -7.6768106
            ],
            [
              -73.8627402,
              -7.676918
            ],
            [
              -73.8625722,
              -7.6768047
            ],
            [
              -73.859291,
              -7.6766816
            ],
            [
              -73.8559492,
              -7.6775899
            ],
            [
              -73.8550332,
              -7.6774726
            ],
            [
              -73.8535391,
              -7.676666
            ],
            [
              -73.8525,
              -7.6758594
            ],
            [
              -73.851127,
              -7.6743632
            ],
            [
              -73.8502656,
              -7.6737305
            ],
            [
              -73.8494649,
              -7.6728105
            ],
            [
              -73.8479687,
              -7.671543
            ],
            [
              -73.8466485,
              -7.6701055
            ],
            [
              -73.8457951,
              -7.6687246
            ],
            [
              -73.8446426,
              -7.6674024
            ],
            [
              -73.843666,
              -7.666709
            ],
            [
              -73.8431465,
              -7.6664805
            ],
            [
              -73.8406757,
              -7.666416
            ],
            [
              -73.8391797,
              -7.6668711
            ],
            [
              -73.8381954,
              -7.6680156
            ],
            [
              -73.837623,
              -7.6692774
            ],
            [
              -73.8369219,
              -7.6728907
            ],
            [
              -73.8365605,
              -7.6778262
            ],
            [
              -73.8362129,
              -7.6797187
            ],
            [
              -73.8345332,
              -7.6832715
            ],
            [
              -73.8354579,
              -7.6858245
            ],
            [
              -73.8362102,
              -7.6873831
            ],
            [
              -73.8363176,
              -7.6892104
            ],
            [
              -73.8360606,
              -7.6922305
            ],
            [
              -73.8353652,
              -7.693834
            ],
            [
              -73.8342755,
              -7.6947999
            ],
            [
              -73.8321386,
              -7.6961211
            ],
            [
              -73.8262636,
              -7.6982285
            ],
            [
              -73.8241714,
              -7.699207
            ],
            [
              -73.822465,
              -7.7005156
            ],
            [
              -73.8219375,
              -7.7017774
            ],
            [
              -73.8218164,
              -7.7054492
            ],
            [
              -73.8209466,
              -7.713342
            ],
            [
              -73.819818,
              -7.7157605
            ],
            [
              -73.8177559,
              -7.7172597
            ],
            [
              -73.8174142,
              -7.7170294
            ],
            [
              -73.815611,
              -7.7177387
            ],
            [
              -73.8147652,
              -7.7178972
            ],
            [
              -73.8127562,
              -7.718796
            ],
            [
              -73.8099015,
              -7.7194304
            ],
            [
              -73.8087912,
              -7.719219
            ],
            [
              -73.8074167,
              -7.7182674
            ],
            [
              -73.8058307,
              -7.716047
            ],
            [
              -73.8041391,
              -7.7145139
            ],
            [
              -73.8032932,
              -7.7139852
            ],
            [
              -73.8024475,
              -7.7137209
            ],
            [
              -73.8017601,
              -7.7137209
            ],
            [
              -73.8009671,
              -7.7140381
            ],
            [
              -73.7970021,
              -7.7167871
            ],
            [
              -73.7952604,
              -7.7171525
            ],
            [
              -73.789795,
              -7.7173535
            ],
            [
              -73.7873145,
              -7.7183224
            ],
            [
              -73.7855292,
              -7.7196387
            ],
            [
              -73.7841406,
              -7.7210684
            ],
            [
              -73.782295,
              -7.7221544
            ],
            [
              -73.7813184,
              -7.7225527
            ],
            [
              -73.7792727,
              -7.7229861
            ],
            [
              -73.7769337,
              -7.7232614
            ],
            [
              -73.7747872,
              -7.724252
            ],
            [
              -73.7738652,
              -7.7249141
            ],
            [
              -73.7727802,
              -7.7266271
            ],
            [
              -73.7714769,
              -7.7272381
            ],
            [
              -73.770377,
              -7.7274011
            ],
            [
              -73.766426,
              -7.7271974
            ],
            [
              -73.7633304,
              -7.7273604
            ],
            [
              -73.7612937,
              -7.7282972
            ],
            [
              -73.7593385,
              -7.730619
            ],
            [
              -73.7585239,
              -7.7311486
            ],
            [
              -73.7549395,
              -7.7317595
            ],
            [
              -73.7515586,
              -7.7315151
            ],
            [
              -73.7502145,
              -7.731678
            ],
            [
              -73.748463,
              -7.7328185
            ],
            [
              -73.7476484,
              -7.7335517
            ],
            [
              -73.7468336,
              -7.733959
            ],
            [
              -73.7457339,
              -7.7341625
            ],
            [
              -73.7437754,
              -7.7338652
            ],
            [
              -73.7424269,
              -7.7333052
            ],
            [
              -73.7418765,
              -7.7331951
            ],
            [
              -73.741416,
              -7.7332872
            ],
            [
              -73.7408672,
              -7.7339434
            ],
            [
              -73.7398952,
              -7.7384234
            ],
            [
              -73.7390697,
              -7.7396892
            ],
            [
              -73.7355536,
              -7.7441119
            ],
            [
              -73.734089,
              -7.7447525
            ],
            [
              -73.7330434,
              -7.74478
            ],
            [
              -73.7303912,
              -7.7454459
            ],
            [
              -73.7294684,
              -7.7450682
            ],
            [
              -73.7285605,
              -7.7416251
            ],
            [
              -73.727582,
              -7.7403027
            ],
            [
              -73.7270771,
              -7.7401597
            ],
            [
              -73.7259862,
              -7.7400759
            ],
            [
              -73.7246437,
              -7.7404115
            ],
            [
              -73.7198817,
              -7.7410759
            ],
            [
              -73.7160927,
              -7.7422209
            ],
            [
              -73.7147992,
              -7.742386
            ],
            [
              -73.7140287,
              -7.7429639
            ],
            [
              -73.713885,
              -7.7439035
            ],
            [
              -73.7140287,
              -7.7452754
            ],
            [
              -73.7139457,
              -7.7478791
            ],
            [
              -73.7140716,
              -7.7501866
            ],
            [
              -73.7134422,
              -7.7517807
            ],
            [
              -73.7134004,
              -7.752536
            ],
            [
              -73.7140296,
              -7.7541301
            ],
            [
              -73.7140296,
              -7.7550531
            ],
            [
              -73.7131482,
              -7.7577682
            ],
            [
              -73.7117174,
              -7.7609052
            ],
            [
              -73.7097504,
              -7.7618495
            ],
            [
              -73.7090791,
              -7.7618915
            ],
            [
              -73.7071912,
              -7.7617237
            ],
            [
              -73.7058069,
              -7.7613041
            ],
            [
              -73.7027862,
              -7.7612622
            ],
            [
              -73.7020586,
              -7.7616757
            ],
            [
              -73.701701,
              -7.7621435
            ],
            [
              -73.7015909,
              -7.7633544
            ],
            [
              -73.7010405,
              -7.7641249
            ],
            [
              -73.699362,
              -7.7647852
            ],
            [
              -73.6991144,
              -7.7650054
            ],
            [
              -73.6989767,
              -7.7661611
            ],
            [
              -73.6975839,
              -7.7666741
            ],
            [
              -73.6935282,
              -7.766849
            ],
            [
              -73.6890429,
              -7.766684
            ],
            [
              -73.6884801,
              -7.7671355
            ],
            [
              -73.687667,
              -7.7704814
            ],
            [
              -73.6873475,
              -7.7714149
            ],
            [
              -73.6866214,
              -7.7726002
            ],
            [
              -73.685328,
              -7.773123
            ],
            [
              -73.6841724,
              -7.7739209
            ],
            [
              -73.6836556,
              -7.7751487
            ],
            [
              -73.6806501,
              -7.7796446
            ],
            [
              -73.678747,
              -7.7814415
            ],
            [
              -73.6783695,
              -7.7824066
            ],
            [
              -73.6785839,
              -7.7833877
            ],
            [
              -73.6795494,
              -7.7843502
            ],
            [
              -73.6802154,
              -7.7855111
            ],
            [
              -73.6804575,
              -7.7870469
            ],
            [
              -73.6805091,
              -7.7892869
            ],
            [
              -73.6801822,
              -7.7903766
            ],
            [
              -73.6800997,
              -7.7914496
            ],
            [
              -73.6803412,
              -7.79365
            ],
            [
              -73.6806226,
              -7.7945041
            ],
            [
              -73.6805125,
              -7.795247
            ],
            [
              -73.6800722,
              -7.7962102
            ],
            [
              -73.6793842,
              -7.7968156
            ],
            [
              -73.6779259,
              -7.799017
            ],
            [
              -73.6763137,
              -7.8000269
            ],
            [
              -73.676146,
              -7.8011596
            ],
            [
              -73.6766494,
              -7.8021246
            ],
            [
              -73.6768591,
              -7.8034671
            ],
            [
              -73.6773627,
              -7.8048096
            ],
            [
              -73.6775262,
              -7.8061371
            ],
            [
              -73.678114,
              -7.8076971
            ],
            [
              -73.6782045,
              -7.8092572
            ],
            [
              -73.6786566,
              -7.8102067
            ],
            [
              -73.6804575,
              -7.8120052
            ],
            [
              -73.6812555,
              -7.8133811
            ],
            [
              -73.682824,
              -7.817894
            ],
            [
              -73.6824937,
              -7.8190497
            ],
            [
              -73.6817676,
              -7.8199127
            ],
            [
              -73.6817257,
              -7.8212552
            ],
            [
              -73.682355,
              -7.8236466
            ],
            [
              -73.6821872,
              -7.8248632
            ],
            [
              -73.6808866,
              -7.8260799
            ],
            [
              -73.6802992,
              -7.8270029
            ],
            [
              -73.6800476,
              -7.8324567
            ],
            [
              -73.6801735,
              -7.8341767
            ],
            [
              -73.6800056,
              -7.8353515
            ],
            [
              -73.678831,
              -7.8383301
            ],
            [
              -73.6784114,
              -7.8411411
            ],
            [
              -73.6783695,
              -7.8423996
            ],
            [
              -73.6794182,
              -7.8445812
            ],
            [
              -73.6797959,
              -7.8464691
            ],
            [
              -73.6797959,
              -7.8476019
            ],
            [
              -73.6792505,
              -7.8523845
            ],
            [
              -73.677908,
              -7.8546079
            ],
            [
              -73.6777401,
              -7.8562441
            ],
            [
              -73.6781597,
              -7.8579641
            ],
            [
              -73.6792226,
              -7.8596426
            ],
            [
              -73.6814649,
              -7.861541
            ],
            [
              -73.6835254,
              -7.8636132
            ],
            [
              -73.6853027,
              -7.8655705
            ],
            [
              -73.6866231,
              -7.8678125
            ],
            [
              -73.6874239,
              -7.8685039
            ],
            [
              -73.6888047,
              -7.8691954
            ],
            [
              -73.6895527,
              -7.8692579
            ],
            [
              -73.6913379,
              -7.8688614
            ],
            [
              -73.6935879,
              -7.8680079
            ],
            [
              -73.6951367,
              -7.868127
            ],
            [
              -73.6962891,
              -7.8691641
            ],
            [
              -73.6979531,
              -7.8715801
            ],
            [
              -73.6995547,
              -7.8733066
            ],
            [
              -73.7027129,
              -7.8755527
            ],
            [
              -73.7035742,
              -7.875957
            ],
            [
              -73.7061074,
              -7.8765391
            ],
            [
              -73.707375,
              -7.876543
            ],
            [
              -73.709793,
              -7.8761485
            ],
            [
              -73.712211,
              -7.8754101
            ],
            [
              -73.7150957,
              -7.8741562
            ],
            [
              -73.7165294,
              -7.8737597
            ],
            [
              -73.7187187,
              -7.8728476
            ],
            [
              -73.7192461,
              -7.8724472
            ],
            [
              -73.7209082,
              -7.8723965
            ],
            [
              -73.7234414,
              -7.8738965
            ],
            [
              -73.7252207,
              -7.875336
            ],
            [
              -73.7268829,
              -7.8762012
            ],
            [
              -73.7282637,
              -7.8767226
            ],
            [
              -73.7321172,
              -7.8773086
            ],
            [
              -73.7336739,
              -7.8778867
            ],
            [
              -73.7354511,
              -7.8788106
            ],
            [
              -73.7364356,
              -7.8788125
            ],
            [
              -73.7371836,
              -7.8785294
            ],
            [
              -73.7383965,
              -7.8775566
            ],
            [
              -73.738709,
              -7.8774707
            ],
            [
              -73.7406777,
              -7.8750097
            ],
            [
              -73.7413399,
              -7.8744082
            ],
            [
              -73.7431562,
              -7.8719746
            ],
            [
              -73.7438204,
              -7.8713164
            ],
            [
              -73.7445137,
              -7.870918
            ],
            [
              -73.7451485,
              -7.8708614
            ],
            [
              -73.7456055,
              -7.8706329
            ],
            [
              -73.7479101,
              -7.870584
            ],
            [
              -73.7526856,
              -7.8716875
            ],
            [
              -73.7548672,
              -7.8718086
            ],
            [
              -73.7567754,
              -7.8714726
            ],
            [
              -73.7582676,
              -7.8706719
            ],
            [
              -73.7588496,
              -7.8691816
            ],
            [
              -73.7588965,
              -7.8645059
            ],
            [
              -73.7592774,
              -7.8620664
            ],
            [
              -73.7595664,
              -7.861207
            ],
            [
              -73.760086,
              -7.8605762
            ],
            [
              -73.7607735,
              -7.8604062
            ],
            [
              -73.761543,
              -7.8605996
            ],
            [
              -73.7622676,
              -7.8612715
            ],
            [
              -73.763711,
              -7.8619649
            ],
            [
              -73.7651971,
              -7.8632305
            ],
            [
              -73.7657695,
              -7.8643809
            ],
            [
              -73.7658242,
              -7.8662169
            ],
            [
              -73.7643125,
              -7.8700586
            ],
            [
              -73.7639082,
              -7.8725254
            ],
            [
              -73.7634961,
              -7.8736719
            ],
            [
              -73.7608944,
              -7.8783125
            ],
            [
              -73.7597344,
              -7.8802012
            ],
            [
              -73.7580039,
              -7.8824356
            ],
            [
              -73.7573086,
              -7.8841544
            ],
            [
              -73.7570801,
              -7.8842676
            ],
            [
              -73.7560351,
              -7.8881114
            ],
            [
              -73.7554551,
              -7.889545
            ],
            [
              -73.7552187,
              -7.8908066
            ],
            [
              -73.7552246,
              -7.8923281
            ],
            [
              -73.755668,
              -7.893334
            ],
            [
              -73.7561875,
              -7.8938516
            ],
            [
              -73.7577969,
              -7.8946601
            ],
            [
              -73.7598105,
              -7.8948379
            ],
            [
              -73.760041,
              -7.8946094
            ],
            [
              -73.7611914,
              -7.8946132
            ],
            [
              -73.7614844,
              -7.8944414
            ],
            [
              -73.763207,
              -7.894332
            ],
            [
              -73.7641289,
              -7.8945059
            ],
            [
              -73.7651055,
              -7.8953692
            ],
            [
              -73.7661367,
              -7.8975547
            ],
            [
              -73.7673339,
              -7.9010586
            ],
            [
              -73.7685937,
              -7.9034141
            ],
            [
              -73.7705996,
              -7.9065195
            ],
            [
              -73.7721465,
              -7.9078437
            ],
            [
              -73.7722559,
              -7.9091641
            ],
            [
              -73.7720254,
              -7.9099687
            ],
            [
              -73.7704082,
              -7.9105371
            ],
            [
              -73.7670137,
              -7.9104121
            ],
            [
              -73.7661211,
              -7.9111836
            ],
            [
              -73.7634356,
              -7.9148771
            ],
            [
              -73.762627,
              -7.9163106
            ],
            [
              -73.7621914,
              -7.9167402
            ],
            [
              -73.7620469,
              -7.916711
            ],
            [
              -73.760086,
              -7.918082
            ],
            [
              -73.7595664,
              -7.9185976
            ],
            [
              -73.7595059,
              -7.9188847
            ],
            [
              -73.7589336,
              -7.9194551
            ],
            [
              -73.7575449,
              -7.9217481
            ],
            [
              -73.7564395,
              -7.9241934
            ],
            [
              -73.7548301,
              -7.9254121
            ],
            [
              -73.7529824,
              -7.926211
            ],
            [
              -73.7525176,
              -7.9262089
            ],
            [
              -73.747627,
              -7.927457
            ],
            [
              -73.744918,
              -7.9279082
            ],
            [
              -73.7442246,
              -7.9278476
            ],
            [
              -73.7424395,
              -7.9280722
            ],
            [
              -73.7412324,
              -7.9286426
            ],
            [
              -73.7403027,
              -7.9296739
            ],
            [
              -73.7397012,
              -7.930791
            ],
            [
              -73.7398379,
              -7.9323691
            ],
            [
              -73.7400664,
              -7.9337461
            ],
            [
              -73.74092,
              -7.9356445
            ],
            [
              -73.7410274,
              -7.9374805
            ],
            [
              -73.7412617,
              -7.9375392
            ],
            [
              -73.7413184,
              -7.9390312
            ],
            [
              -73.7416621,
              -7.9397207
            ],
            [
              -73.7424629,
              -7.9402402
            ],
            [
              -73.7428672,
              -7.9406992
            ],
            [
              -73.743203,
              -7.9418496
            ],
            [
              -73.7440117,
              -7.9429414
            ],
            [
              -73.747795,
              -7.9466836
            ],
            [
              -73.7478867,
              -7.9473732
            ],
            [
              -73.7475059,
              -7.9481172
            ],
            [
              -73.7467579,
              -7.9487461
            ],
            [
              -73.7453691,
              -7.9494882
            ],
            [
              -73.743293,
              -7.9496544
            ],
            [
              -73.7419727,
              -7.9494785
            ],
            [
              -73.7374277,
              -7.9498652
            ],
            [
              -73.733047,
              -7.9511154
            ],
            [
              -73.7314902,
              -7.9517989
            ],
            [
              -73.7304766,
              -7.9526289
            ],
            [
              -73.7296445,
              -7.9535722
            ],
            [
              -73.7290039,
              -7.9548906
            ],
            [
              -73.7280117,
              -7.9591347
            ],
            [
              -73.7280039,
              -7.9612012
            ],
            [
              -73.7277754,
              -7.9620606
            ],
            [
              -73.727418,
              -7.9653301
            ],
            [
              -73.7267832,
              -7.9658457
            ],
            [
              -73.7263789,
              -7.9658437
            ],
            [
              -73.7259746,
              -7.9654412
            ],
            [
              -73.7254024,
              -7.9644062
            ],
            [
              -73.7252344,
              -7.9637169
            ],
            [
              -73.7238614,
              -7.9606132
            ],
            [
              -73.7231132,
              -7.9596347
            ],
            [
              -73.7207637,
              -7.9581934
            ],
            [
              -73.7198419,
              -7.9581329
            ],
            [
              -73.7171329,
              -7.9591016
            ],
            [
              -73.7144239,
              -7.9604689
            ],
            [
              -73.7136757,
              -7.9606387
            ],
            [
              -73.712295,
              -7.9605781
            ],
            [
              -73.7105645,
              -7.9598264
            ],
            [
              -73.7095332,
              -7.9589044
            ],
            [
              -73.7078164,
              -7.9559726
            ],
            [
              -73.7067266,
              -7.9544766
            ],
            [
              -73.706207,
              -7.9543614
            ],
            [
              -73.7056347,
              -7.9547031
            ],
            [
              -73.7054219,
              -7.9550664
            ],
            [
              -73.7055664,
              -7.9564825
            ],
            [
              -73.7060235,
              -7.9582051
            ],
            [
              -73.7061836,
              -7.9617637
            ],
            [
              -73.7061231,
              -7.9629687
            ],
            [
              -73.7057695,
              -7.9648047
            ],
            [
              -73.7049024,
              -7.9677871
            ],
            [
              -73.7038047,
              -7.9695625
            ],
            [
              -73.7025917,
              -7.9704766
            ],
            [
              -73.7014687,
              -7.9706739
            ],
            [
              -73.7010351,
              -7.9712169
            ],
            [
              -73.7008594,
              -7.9719062
            ],
            [
              -73.7006757,
              -7.974832
            ],
            [
              -73.6998672,
              -7.9763204
            ],
            [
              -73.6992266,
              -7.9770644
            ],
            [
              -73.6981895,
              -7.9776367
            ],
            [
              -73.6973262,
              -7.9776934
            ],
            [
              -73.6963496,
              -7.9772285
            ],
            [
              -73.6953731,
              -7.9764805
            ],
            [
              -73.694916,
              -7.9764785
            ],
            [
              -73.6941074,
              -7.9760156
            ],
            [
              -73.6931914,
              -7.9753242
            ],
            [
              -73.6924434,
              -7.975207
            ],
            [
              -73.6913222,
              -7.9754219
            ],
            [
              -73.6886367,
              -7.977377
            ],
            [
              -73.6841347,
              -7.981666
            ],
            [
              -73.6821132,
              -7.9829825
            ],
            [
              -73.6810996,
              -7.9838672
            ],
            [
              -73.6806719,
              -7.9846387
            ],
            [
              -73.6804042,
              -7.9859864
            ],
            [
              -73.6804902,
              -7.9866485
            ],
            [
              -73.6811972,
              -7.9888594
            ],
            [
              -73.6816329,
              -7.9895781
            ],
            [
              -73.6823731,
              -7.9917031
            ],
            [
              -73.682418,
              -7.9945157
            ],
            [
              -73.6821895,
              -7.9955489
            ],
            [
              -73.6816641,
              -7.996752
            ],
            [
              -73.6806562,
              -7.9980975
            ],
            [
              -73.67882326031491,
              -8
            ],
            [
              -73,
              -8
            ],
            [
              -73,
              -7
            ],
            [
              -73.75808,
              -7
            ],
            [
              -73.75806,
              -7.00184
            ],
            [
              -73.75956,
              -7.00332
            ],
            [
              -73.75983,
              -7.00432
            ],
            [
              -73.76154,
              -7.00453
            ],
            [
              -73.76237,
              -7.00518
            ],
            [
              -73.7626599,
              -7.00563
            ],
            [
              -73.76308,
              -7.00746
            ],
            [
              -73.76282,
              -7.0083201
            ],
            [
              -73.76218,
              -7.0089
            ],
            [
              -73.7609,
              -7.00937
            ],
            [
              -73.7602,
              -7.00918
            ],
            [
              -73.75938,
              -7.00956
            ],
            [
              -73.7583,
              -7.00938
            ],
            [
              -73.75774,
              -7.00959
            ],
            [
              -73.75674,
              -7.01034
            ],
            [
              -73.75678,
              -7.01067
            ],
            [
              -73.75774,
              -7.01168
            ],
            [
              -73.75785,
              -7.0121
            ],
            [
              -73.75616,
              -7.01388
            ],
            [
              -73.75597,
              -7.01499
            ],
            [
              -73.75632,
              -7.01633
            ],
            [
              -73.75684,
              -7.01722
            ],
            [
              -73.75749,
              -7.01788
            ],
            [
              -73.75803,
              -7.01886
            ],
            [
              -73.7595,
              -7.02075
            ],
            [
              -73.76046,
              -7.02154
            ],
            [
              -73.76134,
              -7.02274
            ],
            [
              -73.76126,
              -7.02393
            ],
            [
              -73.76059,
              -7.026
            ],
            [
              -73.76061,
              -7.02702
            ],
            [
              -73.7609399,
              -7.0286
            ],
            [
              -73.76215,
              -7.03092
            ],
            [
              -73.76289,
              -7.03376
            ],
            [
              -73.76239,
              -7.0392
            ],
            [
              -73.76193,
              -7.04062
            ],
            [
              -73.76031,
              -7.04287
            ],
            [
              -73.75787,
              -7.04424
            ],
            [
              -73.75723,
              -7.04489
            ],
            [
              -73.757,
              -7.04538
            ],
            [
              -73.7571,
              -7.04676
            ],
            [
              -73.75742,
              -7.04782
            ],
            [
              -73.75872,
              -7.05024
            ],
            [
              -73.75957,
              -7.05237
            ],
            [
              -73.75972,
              -7.05651
            ],
            [
              -73.75997,
              -7.05757
            ],
            [
              -73.76071,
              -7.05929
            ],
            [
              -73.76131,
              -7.06158
            ],
            [
              -73.76192,
              -7.06254
            ],
            [
              -73.76564,
              -7.0659699
            ],
            [
              -73.76797,
              -7.06919
            ],
            [
              -73.77048,
              -7.07129
            ],
            [
              -73.77183,
              -7.07275
            ],
            [
              -73.77537,
              -7.07766
            ],
            [
              -73.77705,
              -7.08088
            ],
            [
              -73.77947,
              -7.08393
            ],
            [
              -73.78057,
              -7.08508
            ],
            [
              -73.78265,
              -7.08809
            ],
            [
              -73.78351,
              -7.0887
            ],
            [
              -73.78677,
              -7.08993
            ],
            [
              -73.78707,
              -7.09029
            ],
            [
              -73.78758,
              -7.09143
            ],
            [
              -73.78778,
              -7.09297
            ],
            [
              -73.78773,
              -7.09391
            ],
            [
              -73.78706,
              -7.0963
            ],
            [
              -73.78469,
              -7.1003899
            ],
            [
              -73.78398,
              -7.10365
            ],
            [
              -73.784263,
              -7.1040075
            ],
            [
              -73.7862166,
              -7.1049842
            ],
            [
              -73.7872387,
              -7.1060512
            ],
            [
              -73.7877345,
              -7.1073437
            ],
            [
              -73.7883206,
              -7.1079147
            ],
            [
              -73.7926337,
              -7.1100789
            ],
            [
              -73.7966255,
              -7.1123464
            ],
            [
              -73.7984196,
              -7.113061
            ],
            [
              -73.7996594,
              -7.115145
            ],
            [
              -73.7998624,
              -7.1170955
            ],
            [
              -73.7997266,
              -7.1175841
            ],
            [
              -73.7992787,
              -7.1179641
            ],
            [
              -73.7987359,
              -7.1181542
            ],
            [
              -73.798098,
              -7.1180591
            ],
            [
              -73.7967544,
              -7.1174212
            ],
            [
              -73.796008,
              -7.1172991
            ],
            [
              -73.7951439,
              -7.1173969
            ],
            [
              -73.794832,
              -7.1176075
            ],
            [
              -73.7940325,
              -7.1188352
            ],
            [
              -73.7953835,
              -7.1248404
            ],
            [
              -73.7953936,
              -7.1255789
            ],
            [
              -73.7948775,
              -7.1279662
            ],
            [
              -73.794952,
              -7.1294526
            ],
            [
              -73.7946247,
              -7.13002
            ],
            [
              -73.7941089,
              -7.1300502
            ],
            [
              -73.7917617,
              -7.1293017
            ],
            [
              -73.7890505,
              -7.1289982
            ],
            [
              -73.7868211,
              -7.1276794
            ],
            [
              -73.7858537,
              -7.1274402
            ],
            [
              -73.7844981,
              -7.127582
            ],
            [
              -73.7840631,
              -7.1279461
            ],
            [
              -73.7826366,
              -7.1306169
            ],
            [
              -73.7819297,
              -7.1336954
            ],
            [
              -73.7819972,
              -7.1348022
            ],
            [
              -73.7829907,
              -7.136788
            ],
            [
              -73.7834865,
              -7.1396307
            ],
            [
              -73.7839417,
              -7.1399747
            ],
            [
              -73.784832,
              -7.1401567
            ],
            [
              -73.7879782,
              -7.13957
            ],
            [
              -73.7900217,
              -7.1387101
            ],
            [
              -73.7906389,
              -7.1386495
            ],
            [
              -73.7910435,
              -7.1388922
            ],
            [
              -73.7913166,
              -7.1395095
            ],
            [
              -73.7912762,
              -7.1400961
            ],
            [
              -73.7902645,
              -7.1415124
            ],
            [
              -73.7897284,
              -7.142605
            ],
            [
              -73.7893237,
              -7.1444866
            ],
            [
              -73.788314,
              -7.1457316
            ],
            [
              -73.7874016,
              -7.146247
            ],
            [
              -73.7860055,
              -7.1467426
            ],
            [
              -73.7851961,
              -7.1476329
            ],
            [
              -73.7843666,
              -7.1480477
            ],
            [
              -73.781878,
              -7.1485839
            ],
            [
              -73.7806437,
              -7.1493326
            ],
            [
              -73.7798887,
              -7.1501562
            ],
            [
              -73.7795005,
              -7.1503644
            ],
            [
              -73.7752111,
              -7.1510321
            ],
            [
              -73.7741286,
              -7.1514974
            ],
            [
              -73.7690342,
              -7.1549482
            ],
            [
              -73.7685576,
              -7.1555216
            ],
            [
              -73.7682572,
              -7.1562487
            ],
            [
              -73.7683996,
              -7.1567229
            ],
            [
              -73.7688896,
              -7.1572287
            ],
            [
              -73.7692245,
              -7.1587619
            ],
            [
              -73.7690792,
              -7.1614492
            ],
            [
              -73.7697749,
              -7.1648004
            ],
            [
              -73.7699759,
              -7.1683941
            ],
            [
              -73.769838,
              -7.1691472
            ],
            [
              -73.7692847,
              -7.1695425
            ],
            [
              -73.7683364,
              -7.1695582
            ],
            [
              -73.767056,
              -7.1690841
            ],
            [
              -73.7664079,
              -7.1690999
            ],
            [
              -73.7658389,
              -7.169337
            ],
            [
              -73.7650169,
              -7.1700482
            ],
            [
              -73.7647007,
              -7.1705699
            ],
            [
              -73.7648352,
              -7.1718145
            ],
            [
              -73.764627,
              -7.172707
            ],
            [
              -73.7640544,
              -7.1730967
            ],
            [
              -73.7566309,
              -7.1733086
            ],
            [
              -73.7561061,
              -7.17413
            ],
            [
              -73.7558692,
              -7.1755016
            ],
            [
              -73.7559707,
              -7.1770087
            ],
            [
              -73.7562925,
              -7.1776185
            ],
            [
              -73.7578291,
              -7.1793791
            ],
            [
              -73.7581551,
              -7.1804295
            ],
            [
              -73.7581214,
              -7.1809375
            ],
            [
              -73.7563432,
              -7.1828172
            ],
            [
              -73.75614,
              -7.1834099
            ],
            [
              -73.7569699,
              -7.1866612
            ],
            [
              -73.756665,
              -7.1892691
            ],
            [
              -73.7559369,
              -7.1897602
            ],
            [
              -73.7560351,
              -7.1956992
            ],
            [
              -73.7549546,
              -7.1959242
            ],
            [
              -73.7540571,
              -7.1965677
            ],
            [
              -73.753583,
              -7.1973299
            ],
            [
              -73.7532781,
              -7.1984136
            ],
            [
              -73.7528547,
              -7.198854
            ],
            [
              -73.7500031,
              -7.1995899
            ],
            [
              -73.748672,
              -7.2004457
            ],
            [
              -73.7482317,
              -7.2013094
            ],
            [
              -73.7490272,
              -7.2029365
            ],
            [
              -73.7503747,
              -7.2038265
            ],
            [
              -73.7509581,
              -7.203985
            ],
            [
              -73.7515695,
              -7.2045214
            ],
            [
              -73.7521266,
              -7.2054412
            ],
            [
              -73.7522451,
              -7.2059494
            ],
            [
              -73.7520759,
              -7.2064235
            ],
            [
              -73.7487299,
              -7.2090105
            ],
            [
              -73.7475205,
              -7.2095225
            ],
            [
              -73.7446756,
              -7.2097256
            ],
            [
              -73.7433379,
              -7.2100982
            ],
            [
              -73.742525,
              -7.2106909
            ],
            [
              -73.7428806,
              -7.2120626
            ],
            [
              -73.7424045,
              -7.213694
            ],
            [
              -73.743459,
              -7.2168096
            ],
            [
              -73.7432672,
              -7.2179122
            ],
            [
              -73.7424592,
              -7.2194937
            ],
            [
              -73.7414894,
              -7.2203189
            ],
            [
              -73.7407756,
              -7.2204617
            ],
            [
              -73.739681,
              -7.220081
            ],
            [
              -73.7386102,
              -7.2192957
            ],
            [
              -73.7373254,
              -7.2177729
            ],
            [
              -73.7361595,
              -7.217178
            ],
            [
              -73.7353266,
              -7.2172019
            ],
            [
              -73.7341844,
              -7.2174874
            ],
            [
              -73.7334469,
              -7.2180822
            ],
            [
              -73.7324475,
              -7.219391
            ],
            [
              -73.7319966,
              -7.2213665
            ],
            [
              -73.7317549,
              -7.2217899
            ],
            [
              -73.7311897,
              -7.2221904
            ],
            [
              -73.7283574,
              -7.2227999
            ],
            [
              -73.7266084,
              -7.2226331
            ],
            [
              -73.7252521,
              -7.2222827
            ],
            [
              -73.7242051,
              -7.2223952
            ],
            [
              -73.7233485,
              -7.2228472
            ],
            [
              -73.7225395,
              -7.2235611
            ],
            [
              -73.7199626,
              -7.2240831
            ],
            [
              -73.7193271,
              -7.2244654
            ],
            [
              -73.7188582,
              -7.2257291
            ],
            [
              -73.7181595,
              -7.2264626
            ],
            [
              -73.7166191,
              -7.2275582
            ],
            [
              -73.7164869,
              -7.22797
            ],
            [
              -73.7166211,
              -7.2284655
            ],
            [
              -73.718397,
              -7.2323371
            ],
            [
              -73.7199971,
              -7.2340406
            ],
            [
              -73.7210809,
              -7.2359639
            ],
            [
              -73.7210732,
              -7.2370502
            ],
            [
              -73.7203686,
              -7.2380569
            ],
            [
              -73.7194627,
              -7.2387614
            ],
            [
              -73.718582,
              -7.2391139
            ],
            [
              -73.7171979,
              -7.239139
            ],
            [
              -73.7157131,
              -7.2385854
            ],
            [
              -73.7147569,
              -7.2385854
            ],
            [
              -73.7139011,
              -7.238686
            ],
            [
              -73.7125745,
              -7.2393495
            ],
            [
              -73.7113595,
              -7.2409257
            ],
            [
              -73.7110739,
              -7.242095
            ],
            [
              -73.7110324,
              -7.2434422
            ],
            [
              -73.71068,
              -7.2440966
            ],
            [
              -73.7100257,
              -7.2447257
            ],
            [
              -73.7091186,
              -7.2463101
            ],
            [
              -73.7095276,
              -7.2480575
            ],
            [
              -73.7110149,
              -7.25066
            ],
            [
              -73.7110745,
              -7.2524746
            ],
            [
              -73.7117327,
              -7.2562862
            ],
            [
              -73.7130969,
              -7.2596202
            ],
            [
              -73.714468,
              -7.2616306
            ],
            [
              -73.7148891,
              -7.2629272
            ],
            [
              -73.7149585,
              -7.2635059
            ],
            [
              -73.7143237,
              -7.2648014
            ],
            [
              -73.7145096,
              -7.2677624
            ],
            [
              -73.7160197,
              -7.2723534
            ],
            [
              -73.7159967,
              -7.273711
            ],
            [
              -73.7153647,
              -7.2748636
            ],
            [
              -73.7131185,
              -7.2758544
            ],
            [
              -73.7118699,
              -7.276611
            ],
            [
              -73.7113494,
              -7.2773546
            ],
            [
              -73.7109539,
              -7.2789135
            ],
            [
              -73.7109062,
              -7.2813242
            ],
            [
              -73.7103456,
              -7.2820392
            ],
            [
              -73.7055624,
              -7.2824001
            ],
            [
              -73.7049917,
              -7.282857
            ],
            [
              -73.70462,
              -7.2841212
            ],
            [
              -73.7048431,
              -7.2858315
            ],
            [
              -73.7045829,
              -7.2871699
            ],
            [
              -73.7038392,
              -7.2883596
            ],
            [
              -73.7024766,
              -7.2894044
            ],
            [
              -73.7009042,
              -7.2901061
            ],
            [
              -73.6998611,
              -7.2902557
            ],
            [
              -73.6988944,
              -7.2906647
            ],
            [
              -73.6973569,
              -7.2930357
            ],
            [
              -73.6968502,
              -7.2961146
            ],
            [
              -73.6961232,
              -7.297346
            ],
            [
              -73.6950277,
              -7.2985839
            ],
            [
              -73.6948791,
              -7.2990672
            ],
            [
              -73.6962919,
              -7.3004056
            ],
            [
              -73.6968124,
              -7.3014466
            ],
            [
              -73.6960872,
              -7.3071362
            ],
            [
              -73.6954245,
              -7.3086067
            ],
            [
              -73.6955921,
              -7.3099317
            ],
            [
              -73.6954839,
              -7.3110391
            ],
            [
              -73.695625,
              -7.3114756
            ],
            [
              -73.6960102,
              -7.3118865
            ],
            [
              -73.6970757,
              -7.3125155
            ],
            [
              -73.6976792,
              -7.3131446
            ],
            [
              -73.6990786,
              -7.3154684
            ],
            [
              -73.6998639,
              -7.3211304
            ],
            [
              -73.7003936,
              -7.3224624
            ],
            [
              -73.7012501,
              -7.3232619
            ],
            [
              -73.7027255,
              -7.323959
            ],
            [
              -73.7045407,
              -7.3244805
            ],
            [
              -73.7054142,
              -7.3243159
            ],
            [
              -73.706492,
              -7.3234846
            ],
            [
              -73.707018,
              -7.3225765
            ],
            [
              -73.7074491,
              -7.3223324
            ],
            [
              -73.7081271,
              -7.3222541
            ],
            [
              -73.7109334,
              -7.3227121
            ],
            [
              -73.7102784,
              -7.3244315
            ],
            [
              -73.7102915,
              -7.3251746
            ],
            [
              -73.7107739,
              -7.3261655
            ],
            [
              -73.7119602,
              -7.3268956
            ],
            [
              -73.7127165,
              -7.3276779
            ],
            [
              -73.7147779,
              -7.3302771
            ],
            [
              -73.7161485,
              -7.3316191
            ],
            [
              -73.716907,
              -7.3330485
            ],
            [
              -73.7175019,
              -7.33381
            ],
            [
              -73.7187155,
              -7.3344049
            ],
            [
              -73.7207275,
              -7.3348479
            ],
            [
              -73.7223366,
              -7.3356594
            ],
            [
              -73.7227416,
              -7.3365505
            ],
            [
              -73.72245,
              -7.3402281
            ],
            [
              -73.7225634,
              -7.3412164
            ],
            [
              -73.7228874,
              -7.3417186
            ],
            [
              -73.7245724,
              -7.3424152
            ],
            [
              -73.7270025,
              -7.3443756
            ],
            [
              -73.7278611,
              -7.3446024
            ],
            [
              -73.7286385,
              -7.3444769
            ],
            [
              -73.7302976,
              -7.3426224
            ],
            [
              -73.7310365,
              -7.3424476
            ],
            [
              -73.7318952,
              -7.3425125
            ],
            [
              -73.7341471,
              -7.3437922
            ],
            [
              -73.7350869,
              -7.3445052
            ],
            [
              -73.7359922,
              -7.3456524
            ],
            [
              -73.7368077,
              -7.346236
            ],
            [
              -73.7380136,
              -7.3466496
            ],
            [
              -73.7417441,
              -7.347334
            ],
            [
              -73.7442555,
              -7.3484965
            ],
            [
              -73.7454287,
              -7.3495822
            ],
            [
              -73.7484671,
              -7.3502811
            ],
            [
              -73.7494904,
              -7.3508284
            ],
            [
              -73.7508229,
              -7.3519467
            ],
            [
              -73.7531785,
              -7.353303
            ],
            [
              -73.75464,
              -7.353786
            ],
            [
              -73.7552632,
              -7.3534395
            ],
            [
              -73.7556797,
              -7.3529305
            ],
            [
              -73.755888,
              -7.3522132
            ],
            [
              -73.7557955,
              -7.3514729
            ],
            [
              -73.7544997,
              -7.3488584
            ],
            [
              -73.7542096,
              -7.3475936
            ],
            [
              -73.7540945,
              -7.3448789
            ],
            [
              -73.7528107,
              -7.3417784
            ],
            [
              -73.7529034,
              -7.3403901
            ],
            [
              -73.753464,
              -7.339859
            ],
            [
              -73.7550582,
              -7.3395735
            ],
            [
              -73.7567364,
              -7.339043
            ],
            [
              -73.7589452,
              -7.3377885
            ],
            [
              -73.7616262,
              -7.3369044
            ],
            [
              -73.7636126,
              -7.3370451
            ],
            [
              -73.7666511,
              -7.336886
            ],
            [
              -73.7673689,
              -7.3373277
            ],
            [
              -73.7690991,
              -7.3376039
            ],
            [
              -73.7697065,
              -7.338064
            ],
            [
              -73.7701482,
              -7.338745
            ],
            [
              -73.7707559,
              -7.3391684
            ],
            [
              -73.77143,
              -7.3392495
            ],
            [
              -73.77249,
              -7.3391644
            ],
            [
              -73.7737191,
              -7.338561
            ],
            [
              -73.7744771,
              -7.3384407
            ],
            [
              -73.7772631,
              -7.3389235
            ],
            [
              -73.7804134,
              -7.3386086
            ],
            [
              -73.7813619,
              -7.3387475
            ],
            [
              -73.783074,
              -7.3401587
            ],
            [
              -73.7859649,
              -7.3450996
            ],
            [
              -73.7884109,
              -7.3470785
            ],
            [
              -73.7890229,
              -7.3477424
            ],
            [
              -73.7931035,
              -7.3477811
            ],
            [
              -73.7940427,
              -7.3475962
            ],
            [
              -73.795213,
              -7.3470574
            ],
            [
              -73.7977692,
              -7.3451416
            ],
            [
              -73.8019725,
              -7.3424226
            ],
            [
              -73.8035277,
              -7.3416066
            ],
            [
              -73.8046671,
              -7.3412832
            ],
            [
              -73.8069152,
              -7.341545
            ],
            [
              -73.8103181,
              -7.3415912
            ],
            [
              -73.8123814,
              -7.3411601
            ],
            [
              -73.8149527,
              -7.3402209
            ],
            [
              -73.8164894,
              -7.3392286
            ],
            [
              -73.8186636,
              -7.3382191
            ],
            [
              -73.8210502,
              -7.338604
            ],
            [
              -73.8225285,
              -7.3392046
            ],
            [
              -73.8232984,
              -7.340113
            ],
            [
              -73.8235732,
              -7.3413244
            ],
            [
              -73.8232614,
              -7.3427184
            ],
            [
              -73.8232987,
              -7.3432884
            ],
            [
              -73.8239759,
              -7.3451481
            ],
            [
              -73.827779,
              -7.3481352
            ],
            [
              -73.8284411,
              -7.3492285
            ],
            [
              -73.8291649,
              -7.351107
            ],
            [
              -73.8299809,
              -7.3519076
            ],
            [
              -73.8308431,
              -7.3521847
            ],
            [
              -73.8332299,
              -7.3521847
            ],
            [
              -73.8359766,
              -7.3513829
            ],
            [
              -73.8404096,
              -7.3526969
            ],
            [
              -73.8415,
              -7.3527187
            ],
            [
              -73.8422836,
              -7.3529701
            ],
            [
              -73.8437156,
              -7.3539864
            ],
            [
              -73.8444394,
              -7.3542019
            ],
            [
              -73.8450699,
              -7.3540877
            ],
            [
              -73.8468875,
              -7.3527699
            ],
            [
              -73.8475185,
              -7.3528092
            ],
            [
              -73.848181,
              -7.3533089
            ],
            [
              -73.8487344,
              -7.3546181
            ],
            [
              -73.8494436,
              -7.355095
            ],
            [
              -73.8500441,
              -7.3551565
            ],
            [
              -73.8522076,
              -7.3536979
            ],
            [
              -73.8530312,
              -7.3537707
            ],
            [
              -73.8536625,
              -7.3543096
            ],
            [
              -73.8540475,
              -7.3550334
            ],
            [
              -73.8544786,
              -7.3580205
            ],
            [
              -73.8549559,
              -7.3590984
            ],
            [
              -73.8564802,
              -7.361177
            ],
            [
              -73.857204,
              -7.3628092
            ],
            [
              -73.8575427,
              -7.3651805
            ],
            [
              -73.8574657,
              -7.3675825
            ],
            [
              -73.856896,
              -7.37097
            ],
            [
              -73.8570346,
              -7.3732796
            ],
            [
              -73.8572947,
              -7.3744455
            ],
            [
              -73.8615769,
              -7.3881384
            ],
            [
              -73.862393,
              -7.3888929
            ],
            [
              -73.8635479,
              -7.389247
            ],
            [
              -73.864949,
              -7.3892624
            ],
            [
              -73.8686599,
              -7.3886465
            ],
            [
              -73.870138,
              -7.3885849
            ],
            [
              -73.8713516,
              -7.388332
            ],
            [
              -73.8734657,
              -7.3874955
            ],
            [
              -73.8854665,
              -7.3797154
            ],
            [
              -73.8873286,
              -7.3789162
            ],
            [
              -73.888447,
              -7.3788211
            ],
            [
              -73.8892089,
              -7.379295
            ],
            [
              -73.8910406,
              -7.3816049
            ],
            [
              -73.8939197,
              -7.384746
            ],
            [
              -73.8952236,
              -7.3858374
            ],
            [
              -73.8965371,
              -7.3862687
            ],
            [
              -73.8987976,
              -7.3862926
            ],
            [
              -73.900963,
              -7.3854597
            ],
            [
              -73.9019147,
              -7.3853646
            ],
            [
              -73.9028427,
              -7.3857215
            ],
            [
              -73.9038659,
              -7.3856977
            ],
            [
              -73.9063405,
              -7.3843414
            ],
            [
              -73.9058885,
              -7.3784404
            ],
            [
              -73.9062691,
              -7.3747046
            ],
            [
              -73.9067009,
              -7.3734184
            ],
            [
              -73.9081251,
              -7.3724916
            ],
            [
              -73.9152397,
              -7.3711116
            ],
            [
              -73.9162629,
              -7.3702312
            ],
            [
              -73.9166436,
              -7.3691129
            ],
            [
              -73.9171195,
              -7.3657102
            ],
            [
              -73.9175002,
              -7.3646872
            ],
            [
              -73.9187851,
              -7.3632356
            ],
            [
              -73.920308,
              -7.3622839
            ],
            [
              -73.9217595,
              -7.3617605
            ],
            [
              -73.922735,
              -7.361808
            ],
            [
              -73.9237344,
              -7.3622125
            ],
            [
              -73.9246624,
              -7.3631642
            ],
            [
              -73.9256142,
              -7.3650916
            ],
            [
              -73.9270656,
              -7.3671855
            ],
            [
              -73.9288027,
              -7.3693746
            ],
            [
              -73.9310684,
              -7.3714257
            ],
            [
              -73.9323717,
              -7.3734197
            ],
            [
              -73.933633,
              -7.3762989
            ],
            [
              -73.9342754,
              -7.3769889
            ],
            [
              -73.9349657,
              -7.377258
            ],
            [
              -73.9357472,
              -7.3769334
            ],
            [
              -73.9362281,
              -7.3764645
            ],
            [
              -73.939082,
              -7.3714375
            ],
            [
              -73.9423682,
              -7.3673345
            ],
            [
              -73.9445574,
              -7.362409
            ],
            [
              -73.9462467,
              -7.3579119
            ],
            [
              -73.947032,
              -7.357436
            ],
            [
              -73.9503027,
              -7.3570097
            ],
            [
              -73.9511722,
              -7.3574835
            ],
            [
              -73.9517671,
              -7.3582687
            ],
            [
              -73.9522192,
              -7.3597679
            ],
            [
              -73.952933,
              -7.3639319
            ],
            [
              -73.9536231,
              -7.3657641
            ],
            [
              -73.9553839,
              -7.3683815
            ],
            [
              -73.955717,
              -7.3699519
            ],
            [
              -73.9555505,
              -7.3708324
            ],
            [
              -73.954789,
              -7.3720935
            ],
            [
              -73.9509342,
              -7.3767096
            ],
            [
              -73.9471494,
              -7.3816667
            ],
            [
              -73.9450527,
              -7.3852207
            ],
            [
              -73.9408261,
              -7.3939454
            ],
            [
              -73.9389831,
              -7.4001145
            ],
            [
              -73.9385544,
              -7.4026809
            ],
            [
              -73.9385277,
              -7.4041554
            ],
            [
              -73.9391967,
              -7.4067259
            ],
            [
              -73.9387685,
              -7.4081774
            ],
            [
              -73.9374326,
              -7.4095929
            ],
            [
              -73.9347947,
              -7.4107947
            ],
            [
              -73.9327396,
              -7.4114441
            ],
            [
              -73.9307735,
              -7.4130195
            ],
            [
              -73.9286004,
              -7.4141074
            ],
            [
              -73.9267299,
              -7.4153544
            ],
            [
              -73.9254411,
              -7.416698
            ],
            [
              -73.9232245,
              -7.4180145
            ],
            [
              -73.9222131,
              -7.4190121
            ],
            [
              -73.921742,
              -7.419885
            ],
            [
              -73.9219637,
              -7.4210489
            ],
            [
              -73.9236531,
              -7.4229677
            ],
            [
              -73.9251504,
              -7.4250946
            ],
            [
              -73.925095,
              -7.4281289
            ],
            [
              -73.9215364,
              -7.4331691
            ],
            [
              -73.9168842,
              -7.4444529
            ],
            [
              -73.9165035,
              -7.4455712
            ],
            [
              -73.9165035,
              -7.4465706
            ],
            [
              -73.9173055,
              -7.4487377
            ],
            [
              -73.9175281,
              -7.4501655
            ],
            [
              -73.9174195,
              -7.452925
            ],
            [
              -73.9167275,
              -7.4562776
            ],
            [
              -73.9158241,
              -7.4584316
            ],
            [
              -73.9139551,
              -7.4615594
            ],
            [
              -73.9106701,
              -7.4658765
            ],
            [
              -73.9098709,
              -7.467875
            ],
            [
              -73.909715,
              -7.4688185
            ],
            [
              -73.9097594,
              -7.4729879
            ],
            [
              -73.9104597,
              -7.4751955
            ],
            [
              -73.9113164,
              -7.4758379
            ],
            [
              -73.9162675,
              -7.4768262
            ],
            [
              -73.922216,
              -7.4788162
            ],
            [
              -73.9236815,
              -7.4799516
            ],
            [
              -73.9240464,
              -7.4809776
            ],
            [
              -73.9240932,
              -7.4818769
            ],
            [
              -73.9230029,
              -7.4854751
            ],
            [
              -73.9222934,
              -7.4903554
            ],
            [
              -73.9186885,
              -7.4946442
            ],
            [
              -73.9174319,
              -7.4973669
            ],
            [
              -73.9173204,
              -7.5005704
            ],
            [
              -73.9183394,
              -7.5038592
            ],
            [
              -73.9188214,
              -7.5049364
            ],
            [
              -73.9195757,
              -7.5057522
            ],
            [
              -73.9202222,
              -7.5061064
            ],
            [
              -73.9213615,
              -7.5064912
            ],
            [
              -73.9233836,
              -7.506809
            ],
            [
              -73.9263341,
              -7.5079845
            ],
            [
              -73.9274245,
              -7.508727
            ],
            [
              -73.9300594,
              -7.5116416
            ],
            [
              -73.9370214,
              -7.523951
            ],
            [
              -73.9397739,
              -7.5282444
            ],
            [
              -73.9402666,
              -7.5291989
            ],
            [
              -73.9410879,
              -7.5321704
            ],
            [
              -73.9417106,
              -7.5334337
            ],
            [
              -73.9421607,
              -7.5336542
            ],
            [
              -73.9428097,
              -7.5336957
            ],
            [
              -73.948619,
              -7.5311321
            ],
            [
              -73.9530086,
              -7.5295756
            ],
            [
              -73.9542084,
              -7.5293512
            ],
            [
              -73.955546,
              -7.529607
            ],
            [
              -73.9576427,
              -7.5303872
            ],
            [
              -73.9607842,
              -7.5308062
            ],
            [
              -73.9661601,
              -7.530133
            ],
            [
              -73.9685307,
              -7.5306495
            ],
            [
              -73.971837,
              -7.5322477
            ],
            [
              -73.9758959,
              -7.5332179
            ],
            [
              -73.9803064,
              -7.5333092
            ],
            [
              -73.9816187,
              -7.5334894
            ],
            [
              -73.9830332,
              -7.5343614
            ],
            [
              -73.9830625,
              -7.5347344
            ]
          ]
        ]
      }
    },
    {
      "type": "Feature",
      "properties": {
        "osm_id": -288247,
        "boundary": "administrative",
        "admin_level": 2,
        "parents": null,
        "name": "Peru",
        "local_name": "Perú",
        "name_en": "Peru",
        "all_tags": {
          "flag": "http://upload.wikimedia.org/wikipedia/commons/c/cf/Flag_of_Peru.svg",
          "name": "Perú",
          "name:ab": "Перу",
          "name:af": "Peru",
          "name:ak": "Peru",
          "name:am": "ፔሩ",
          "name:an": "Perú",
          "name:ar": "بيرو",
          "name:ay": "Piruw",
          "name:az": "Peru",
          "name:ba": "Перу",
          "name:be": "Перу",
          "name:bg": "Перу",
          "name:bi": "Peru",
          "name:bm": "Peru",
          "name:bn": "পেরু",
          "name:bo": "པེ་རུ།",
          "name:br": "Perou",
          "name:bs": "Peru",
          "name:ca": "Perú",
          "name:ce": "Перу",
          "name:ch": "Perú",
          "name:co": "Perù",
          "name:cs": "Peru",
          "name:cv": "Перу",
          "name:cy": "Periw",
          "name:da": "Peru",
          "name:de": "Peru",
          "name:dv": "ޕެރޫ",
          "name:ee": "Peru",
          "name:el": "Περού",
          "name:en": "Peru",
          "name:eo": "Peruo",
          "name:es": "Perú",
          "name:et": "Peruu",
          "name:eu": "Peru",
          "name:fa": "پرو",
          "name:ff": "Peru",
          "name:fi": "Peru",
          "name:fo": "Peru",
          "name:fr": "Pérou",
          "name:fy": "Perû",
          "name:ga": "Peiriú",
          "name:gd": "Pearù",
          "name:gl": "Perú",
          "name:gn": "Perũ",
          "name:gu": "પેરુ",
          "name:gv": "Yn Pheroo",
          "name:he": "פרו",
          "name:hi": "पेरू",
          "name:hr": "Peru",
          "name:ht": "Pewou",
          "name:hu": "Peru",
          "name:hy": "Պերու",
          "name:ia": "Peru",
          "name:id": "Peru",
          "name:ie": "Perú",
          "name:io": "Peru",
          "name:is": "Perú",
          "name:it": "Perù",
          "name:iu": "ᐱᕉ",
          "name:ja": "ペルー",
          "name:jv": "Peru",
          "name:ka": "პერუ",
          "name:ki": "Peru",
          "name:kk": "Перу",
          "name:kl": "Peru",
          "name:kn": "ಪೆರು",
          "name:ko": "페루",
          "name:ku": "Perû",
          "name:kv": "Перу",
          "name:kw": "Perou",
          "name:ky": "Перу",
          "name:la": "Peruvia",
          "name:lb": "Peru",
          "name:li": "Peru",
          "name:ln": "Peru",
          "name:lt": "Peru",
          "name:lv": "Peru",
          "name:mi": "Perū",
          "name:mk": "Перу",
          "name:ml": "പെറു",
          "name:mn": "Перу",
          "name:mr": "पेरू",
          "name:ms": "Peru",
          "name:mt": "Perù",
          "name:my": "ပီရူးနိုင်ငံ",
          "name:na": "Peru",
          "name:ne": "पेरू",
          "name:nl": "Peru",
          "name:nn": "Peru",
          "name:no": "Peru",
          "name:oc": "Peró",
          "name:or": "ପେରୁ",
          "name:os": "Перу",
          "name:pa": "ਪੇਰੂ",
          "name:pl": "Peru",
          "name:ps": "پيرو",
          "name:pt": "Peru",
          "name:qu": "Piruw",
          "name:rm": "Peru",
          "name:ro": "Peru",
          "name:ru": "Перу",
          "name:rw": "Peru",
          "name:sa": "पेरु",
          "name:se": "Peru",
          "name:sh": "Peru",
          "name:si": "පේරූ",
          "name:sk": "Peru",
          "name:sl": "Peru",
          "name:sn": "Peru",
          "name:so": "Peru",
          "name:sq": "Peruja",
          "name:sr": "Перу",
          "name:ss": "IPheru",
          "name:su": "Péru",
          "name:sv": "Peru",
          "name:sw": "Peru",
          "name:ta": "பெரு",
          "name:te": "పెరూ",
          "name:tg": "Перу",
          "name:th": "ประเทศเปรู",
          "name:tk": "Peru",
          "name:tl": "Peru",
          "name:tr": "Peru",
          "name:tt": "Перу",
          "name:ug": "پېرۇ",
          "name:uk": "Перу",
          "name:ur": "پیرو",
          "name:uz": "Peru",
          "name:vi": "Peru",
          "name:vo": "Peruvän",
          "name:wo": "Peru",
          "name:yi": "פערו",
          "name:yo": "Perú",
          "name:zh": "秘鲁",
          "name:zu": "Peru",
          "boundary": "administrative",
          "int_name": "Peru",
          "name:ace": "Pèru",
          "name:als": "Peru",
          "name:ang": "Peru",
          "name:arz": "بيرو",
          "name:ast": "Perú",
          "name:bar": "Peru",
          "name:bcl": "Peru",
          "name:bpy": "পেরু",
          "name:ceb": "Peru",
          "name:ckb": "پێروو",
          "name:crh": "Peru",
          "name:diq": "Peru",
          "name:dsb": "Peru",
          "name:ext": "Perú",
          "name:frp": "Pèrou",
          "name:frr": "Peruu",
          "name:gag": "Peru",
          "name:hak": "Pi-lû",
          "name:hif": "Peru",
          "name:hsb": "Peru",
          "name:ilo": "Peru",
          "name:jbo": "perus",
          "name:kaa": "Peru",
          "name:lad": "Peru",
          "name:lez": "Перу",
          "name:lij": "Perù",
          "name:lmo": "Perù",
          "name:ltg": "Peru",
          "name:lzh": "祕魯",
          "name:mhr": "Перу",
          "name:mrj": "Перу",
          "name:mwl": "Peru",
          "name:nah": "Peru",
          "name:nan": "Perú",
          "name:nap": "Perù",
          "name:nds": "Peru",
          "name:new": "पेरु",
          "name:nov": "Peru",
          "name:nrm": "Pérou",
          "name:pam": "Peru",
          "name:pap": "Peru",
          "name:pih": "Peruu",
          "name:pms": "Perù",
          "name:pnb": "پیرو",
          "name:rmy": "Peru",
          "name:rue": "Перу",
          "name:sah": "Перу",
          "name:scn": "Perù",
          "name:sco": "Peru",
          "name:smn": "Peru",
          "name:sms": "Peru",
          "name:szl": "Peru",
          "name:tet": "Perú",
          "name:tzl": "Perù",
          "name:vec": "Perù",
          "name:vro": "Peruu",
          "name:war": "Perú",
          "name:wuu": "秘鲁",
          "name:xal": "Перумудин Орн",
          "name:xmf": "პერუ",
          "name:yue": "秘魯",
          "name:zea": "Peru",
          "timezone": "America/Lima",
          "way_area": "177.554",
          "wikidata": "Q419",
          "ISO3166-1": "PE",
          "wikipedia": "es:Perú",
          "admin_level": "2",
          "name:simple": "Peru",
          "name:bat-smg": "Perū",
          "name:cbk-zam": "Peru",
          "name:zh-Hans": "秘魯",
          "name:zh-Hant": "秘魯",
          "official_name": "República del Perú",
          "name:be-tarask": "Пэру",
          "ISO3166-1:alpha2": "PE",
          "ISO3166-1:alpha3": "PER",
          "official_name:cs": "Peruánská republika",
          "official_name:el": "Δημοκρατία του Περού",
          "official_name:en": "Republic of Peru",
          "official_name:eo": "Perua Respubliko",
          "official_name:es": "República del Perú",
          "official_name:et": "Peruu Vabariik",
          "official_name:eu": "Peruko Errepublika",
          "official_name:fr": "République du Pérou",
          "official_name:id": "Republik Peru",
          "official_name:lb": "Republik Peru",
          "official_name:lt": "Peru Respublika",
          "official_name:lv": "Peru Republika",
          "official_name:ro": "Republica Peru",
          "official_name:ru": "Республика Перу",
          "official_name:sk": "Peruánska republika",
          "official_name:sv": "Republiken Peru",
          "official_name:vi": "Cộng hòa Peru",
          "ISO3166-1:numeric": "604"
        }
      },
      "geometry": {
        "type": "Polygon",
        "coordinates": [
          [
            [
              -74,
              -8
            ],
            [
              -73.67882326031491,
              -8
            ],
            [
              -73.6806562,
              -7.9980975
            ],
            [
              -73.6816641,
              -7.996752
            ],
            [
              -73.6821895,
              -7.9955489
            ],
            [
              -73.682418,
              -7.9945157
            ],
            [
              -73.6823731,
              -7.9917031
            ],
            [
              -73.6816329,
              -7.9895781
            ],
            [
              -73.6811972,
              -7.9888594
            ],
            [
              -73.6804902,
              -7.9866485
            ],
            [
              -73.6804042,
              -7.9859864
            ],
            [
              -73.6806719,
              -7.9846387
            ],
            [
              -73.6810996,
              -7.9838672
            ],
            [
              -73.6821132,
              -7.9829825
            ],
            [
              -73.6841347,
              -7.981666
            ],
            [
              -73.6886367,
              -7.977377
            ],
            [
              -73.6913222,
              -7.9754219
            ],
            [
              -73.6924434,
              -7.975207
            ],
            [
              -73.6931914,
              -7.9753242
            ],
            [
              -73.6941074,
              -7.9760156
            ],
            [
              -73.694916,
              -7.9764785
            ],
            [
              -73.6953731,
              -7.9764805
            ],
            [
              -73.6963496,
              -7.9772285
            ],
            [
              -73.6973262,
              -7.9776934
            ],
            [
              -73.6981895,
              -7.9776367
            ],
            [
              -73.6992266,
              -7.9770644
            ],
            [
              -73.6998672,
              -7.9763204
            ],
            [
              -73.7006757,
              -7.974832
            ],
            [
              -73.7008594,
              -7.9719062
            ],
            [
              -73.7010351,
              -7.9712169
            ],
            [
              -73.7014687,
              -7.9706739
            ],
            [
              -73.7025917,
              -7.9704766
            ],
            [
              -73.7038047,
              -7.9695625
            ],
            [
              -73.7049024,
              -7.9677871
            ],
            [
              -73.7057695,
              -7.9648047
            ],
            [
              -73.7061231,
              -7.9629687
            ],
            [
              -73.7061836,
              -7.9617637
            ],
            [
              -73.7060235,
              -7.9582051
            ],
            [
              -73.7055664,
              -7.9564825
            ],
            [
              -73.7054219,
              -7.9550664
            ],
            [
              -73.7056347,
              -7.9547031
            ],
            [
              -73.706207,
              -7.9543614
            ],
            [
              -73.7067266,
              -7.9544766
            ],
            [
              -73.7078164,
              -7.9559726
            ],
            [
              -73.7095332,
              -7.9589044
            ],
            [
              -73.7105645,
              -7.9598264
            ],
            [
              -73.712295,
              -7.9605781
            ],
            [
              -73.7136757,
              -7.9606387
            ],
            [
              -73.7144239,
              -7.9604689
            ],
            [
              -73.7171329,
              -7.9591016
            ],
            [
              -73.7198419,
              -7.9581329
            ],
            [
              -73.7207637,
              -7.9581934
            ],
            [
              -73.7231132,
              -7.9596347
            ],
            [
              -73.7238614,
              -7.9606132
            ],
            [
              -73.7252344,
              -7.9637169
            ],
            [
              -73.7254024,
              -7.9644062
            ],
            [
              -73.7259746,
              -7.9654412
            ],
            [
              -73.7263789,
              -7.9658437
            ],
            [
              -73.7267832,
              -7.9658457
            ],
            [
              -73.727418,
              -7.9653301
            ],
            [
              -73.7277754,
              -7.9620606
            ],
            [
              -73.7280039,
              -7.9612012
            ],
            [
              -73.7280117,
              -7.9591347
            ],
            [
              -73.7290039,
              -7.9548906
            ],
            [
              -73.7296445,
              -7.9535722
            ],
            [
              -73.7304766,
              -7.9526289
            ],
            [
              -73.7314902,
              -7.9517989
            ],
            [
              -73.733047,
              -7.9511154
            ],
            [
              -73.7374277,
              -7.9498652
            ],
            [
              -73.7419727,
              -7.9494785
            ],
            [
              -73.743293,
              -7.9496544
            ],
            [
              -73.7453691,
              -7.9494882
            ],
            [
              -73.7467579,
              -7.9487461
            ],
            [
              -73.7475059,
              -7.9481172
            ],
            [
              -73.7478867,
              -7.9473732
            ],
            [
              -73.747795,
              -7.9466836
            ],
            [
              -73.7440117,
              -7.9429414
            ],
            [
              -73.743203,
              -7.9418496
            ],
            [
              -73.7428672,
              -7.9406992
            ],
            [
              -73.7424629,
              -7.9402402
            ],
            [
              -73.7416621,
              -7.9397207
            ],
            [
              -73.7413184,
              -7.9390312
            ],
            [
              -73.7412617,
              -7.9375392
            ],
            [
              -73.7410274,
              -7.9374805
            ],
            [
              -73.74092,
              -7.9356445
            ],
            [
              -73.7400664,
              -7.9337461
            ],
            [
              -73.7398379,
              -7.9323691
            ],
            [
              -73.7397012,
              -7.930791
            ],
            [
              -73.7403027,
              -7.9296739
            ],
            [
              -73.7412324,
              -7.9286426
            ],
            [
              -73.7424395,
              -7.9280722
            ],
            [
              -73.7442246,
              -7.9278476
            ],
            [
              -73.744918,
              -7.9279082
            ],
            [
              -73.747627,
              -7.927457
            ],
            [
              -73.7525176,
              -7.9262089
            ],
            [
              -73.7529824,
              -7.926211
            ],
            [
              -73.7548301,
              -7.9254121
            ],
            [
              -73.7564395,
              -7.9241934
            ],
            [
              -73.7575449,
              -7.9217481
            ],
            [
              -73.7589336,
              -7.9194551
            ],
            [
              -73.7595059,
              -7.9188847
            ],
            [
              -73.7595664,
              -7.9185976
            ],
            [
              -73.760086,
              -7.918082
            ],
            [
              -73.7620469,
              -7.916711
            ],
            [
              -73.7621914,
              -7.9167402
            ],
            [
              -73.762627,
              -7.9163106
            ],
            [
              -73.7634356,
              -7.9148771
            ],
            [
              -73.7661211,
              -7.9111836
            ],
            [
              -73.7670137,
              -7.9104121
            ],
            [
              -73.7704082,
              -7.9105371
            ],
            [
              -73.7720254,
              -7.9099687
            ],
            [
              -73.7722559,
              -7.9091641
            ],
            [
              -73.7721465,
              -7.9078437
            ],
            [
              -73.7705996,
              -7.9065195
            ],
            [
              -73.7685937,
              -7.9034141
            ],
            [
              -73.7673339,
              -7.9010586
            ],
            [
              -73.7661367,
              -7.8975547
            ],
            [
              -73.7651055,
              -7.8953692
            ],
            [
              -73.7641289,
              -7.8945059
            ],
            [
              -73.763207,
              -7.894332
            ],
            [
              -73.7614844,
              -7.8944414
            ],
            [
              -73.7611914,
              -7.8946132
            ],
            [
              -73.760041,
              -7.8946094
            ],
            [
              -73.7598105,
              -7.8948379
            ],
            [
              -73.7577969,
              -7.8946601
            ],
            [
              -73.7561875,
              -7.8938516
            ],
            [
              -73.755668,
              -7.893334
            ],
            [
              -73.7552246,
              -7.8923281
            ],
            [
              -73.7552187,
              -7.8908066
            ],
            [
              -73.7554551,
              -7.889545
            ],
            [
              -73.7560351,
              -7.8881114
            ],
            [
              -73.7570801,
              -7.8842676
            ],
            [
              -73.7573086,
              -7.8841544
            ],
            [
              -73.7580039,
              -7.8824356
            ],
            [
              -73.7597344,
              -7.8802012
            ],
            [
              -73.7608944,
              -7.8783125
            ],
            [
              -73.7634961,
              -7.8736719
            ],
            [
              -73.7639082,
              -7.8725254
            ],
            [
              -73.7643125,
              -7.8700586
            ],
            [
              -73.7658242,
              -7.8662169
            ],
            [
              -73.7657695,
              -7.8643809
            ],
            [
              -73.7651971,
              -7.8632305
            ],
            [
              -73.763711,
              -7.8619649
            ],
            [
              -73.7622676,
              -7.8612715
            ],
            [
              -73.761543,
              -7.8605996
            ],
            [
              -73.7607735,
              -7.8604062
            ],
            [
              -73.760086,
              -7.8605762
            ],
            [
              -73.7595664,
              -7.861207
            ],
            [
              -73.7592774,
              -7.8620664
            ],
            [
              -73.7588965,
              -7.8645059
            ],
            [
              -73.7588496,
              -7.8691816
            ],
            [
              -73.7582676,
              -7.8706719
            ],
            [
              -73.7567754,
              -7.8714726
            ],
            [
              -73.7548672,
              -7.8718086
            ],
            [
              -73.7526856,
              -7.8716875
            ],
            [
              -73.7479101,
              -7.870584
            ],
            [
              -73.7456055,
              -7.8706329
            ],
            [
              -73.7451485,
              -7.8708614
            ],
            [
              -73.7445137,
              -7.870918
            ],
            [
              -73.7438204,
              -7.8713164
            ],
            [
              -73.7431562,
              -7.8719746
            ],
            [
              -73.7413399,
              -7.8744082
            ],
            [
              -73.7406777,
              -7.8750097
            ],
            [
              -73.738709,
              -7.8774707
            ],
            [
              -73.7383965,
              -7.8775566
            ],
            [
              -73.7371836,
              -7.8785294
            ],
            [
              -73.7364356,
              -7.8788125
            ],
            [
              -73.7354511,
              -7.8788106
            ],
            [
              -73.7336739,
              -7.8778867
            ],
            [
              -73.7321172,
              -7.8773086
            ],
            [
              -73.7282637,
              -7.8767226
            ],
            [
              -73.7268829,
              -7.8762012
            ],
            [
              -73.7252207,
              -7.875336
            ],
            [
              -73.7234414,
              -7.8738965
            ],
            [
              -73.7209082,
              -7.8723965
            ],
            [
              -73.7192461,
              -7.8724472
            ],
            [
              -73.7187187,
              -7.8728476
            ],
            [
              -73.7165294,
              -7.8737597
            ],
            [
              -73.7150957,
              -7.8741562
            ],
            [
              -73.712211,
              -7.8754101
            ],
            [
              -73.709793,
              -7.8761485
            ],
            [
              -73.707375,
              -7.876543
            ],
            [
              -73.7061074,
              -7.8765391
            ],
            [
              -73.7035742,
              -7.875957
            ],
            [
              -73.7027129,
              -7.8755527
            ],
            [
              -73.6995547,
              -7.8733066
            ],
            [
              -73.6979531,
              -7.8715801
            ],
            [
              -73.6962891,
              -7.8691641
            ],
            [
              -73.6951367,
              -7.868127
            ],
            [
              -73.6935879,
              -7.8680079
            ],
            [
              -73.6913379,
              -7.8688614
            ],
            [
              -73.6895527,
              -7.8692579
            ],
            [
              -73.6888047,
              -7.8691954
            ],
            [
              -73.6874239,
              -7.8685039
            ],
            [
              -73.6866231,
              -7.8678125
            ],
            [
              -73.6853027,
              -7.8655705
            ],
            [
              -73.6835254,
              -7.8636132
            ],
            [
              -73.6814649,
              -7.861541
            ],
            [
              -73.6792226,
              -7.8596426
            ],
            [
              -73.6781597,
              -7.8579641
            ],
            [
              -73.6777401,
              -7.8562441
            ],
            [
              -73.677908,
              -7.8546079
            ],
            [
              -73.6792505,
              -7.8523845
            ],
            [
              -73.6797959,
              -7.8476019
            ],
            [
              -73.6797959,
              -7.8464691
            ],
            [
              -73.6794182,
              -7.8445812
            ],
            [
              -73.6783695,
              -7.8423996
            ],
            [
              -73.6784114,
              -7.8411411
            ],
            [
              -73.678831,
              -7.8383301
            ],
            [
              -73.6800056,
              -7.8353515
            ],
            [
              -73.6801735,
              -7.8341767
            ],
            [
              -73.6800476,
              -7.8324567
            ],
            [
              -73.6802992,
              -7.8270029
            ],
            [
              -73.6808866,
              -7.8260799
            ],
            [
              -73.6821872,
              -7.8248632
            ],
            [
              -73.682355,
              -7.8236466
            ],
            [
              -73.6817257,
              -7.8212552
            ],
            [
              -73.6817676,
              -7.8199127
            ],
            [
              -73.6824937,
              -7.8190497
            ],
            [
              -73.682824,
              -7.817894
            ],
            [
              -73.6812555,
              -7.8133811
            ],
            [
              -73.6804575,
              -7.8120052
            ],
            [
              -73.6786566,
              -7.8102067
            ],
            [
              -73.6782045,
              -7.8092572
            ],
            [
              -73.678114,
              -7.8076971
            ],
            [
              -73.6775262,
              -7.8061371
            ],
            [
              -73.6773627,
              -7.8048096
            ],
            [
              -73.6768591,
              -7.8034671
            ],
            [
              -73.6766494,
              -7.8021246
            ],
            [
              -73.676146,
              -7.8011596
            ],
            [
              -73.6763137,
              -7.8000269
            ],
            [
              -73.6779259,
              -7.799017
            ],
            [
              -73.6793842,
              -7.7968156
            ],
            [
              -73.6800722,
              -7.7962102
            ],
            [
              -73.6805125,
              -7.795247
            ],
            [
              -73.6806226,
              -7.7945041
            ],
            [
              -73.6803412,
              -7.79365
            ],
            [
              -73.6800997,
              -7.7914496
            ],
            [
              -73.6801822,
              -7.7903766
            ],
            [
              -73.6805091,
              -7.7892869
            ],
            [
              -73.6804575,
              -7.7870469
            ],
            [
              -73.6802154,
              -7.7855111
            ],
            [
              -73.6795494,
              -7.7843502
            ],
            [
              -73.6785839,
              -7.7833877
            ],
            [
              -73.6783695,
              -7.7824066
            ],
            [
              -73.678747,
              -7.7814415
            ],
            [
              -73.6806501,
              -7.7796446
            ],
            [
              -73.6836556,
              -7.7751487
            ],
            [
              -73.6841724,
              -7.7739209
            ],
            [
              -73.685328,
              -7.773123
            ],
            [
              -73.6866214,
              -7.7726002
            ],
            [
              -73.6873475,
              -7.7714149
            ],
            [
              -73.687667,
              -7.7704814
            ],
            [
              -73.6884801,
              -7.7671355
            ],
            [
              -73.6890429,
              -7.766684
            ],
            [
              -73.6935282,
              -7.766849
            ],
            [
              -73.6975839,
              -7.7666741
            ],
            [
              -73.6989767,
              -7.7661611
            ],
            [
              -73.6991144,
              -7.7650054
            ],
            [
              -73.699362,
              -7.7647852
            ],
            [
              -73.7010405,
              -7.7641249
            ],
            [
              -73.7015909,
              -7.7633544
            ],
            [
              -73.701701,
              -7.7621435
            ],
            [
              -73.7020586,
              -7.7616757
            ],
            [
              -73.7027862,
              -7.7612622
            ],
            [
              -73.7058069,
              -7.7613041
            ],
            [
              -73.7071912,
              -7.7617237
            ],
            [
              -73.7090791,
              -7.7618915
            ],
            [
              -73.7097504,
              -7.7618495
            ],
            [
              -73.7117174,
              -7.7609052
            ],
            [
              -73.7131482,
              -7.7577682
            ],
            [
              -73.7140296,
              -7.7550531
            ],
            [
              -73.7140296,
              -7.7541301
            ],
            [
              -73.7134004,
              -7.752536
            ],
            [
              -73.7134422,
              -7.7517807
            ],
            [
              -73.7140716,
              -7.7501866
            ],
            [
              -73.7139457,
              -7.7478791
            ],
            [
              -73.7140287,
              -7.7452754
            ],
            [
              -73.713885,
              -7.7439035
            ],
            [
              -73.7140287,
              -7.7429639
            ],
            [
              -73.7147992,
              -7.742386
            ],
            [
              -73.7160927,
              -7.7422209
            ],
            [
              -73.7198817,
              -7.7410759
            ],
            [
              -73.7246437,
              -7.7404115
            ],
            [
              -73.7259862,
              -7.7400759
            ],
            [
              -73.7270771,
              -7.7401597
            ],
            [
              -73.727582,
              -7.7403027
            ],
            [
              -73.7285605,
              -7.7416251
            ],
            [
              -73.7294684,
              -7.7450682
            ],
            [
              -73.7303912,
              -7.7454459
            ],
            [
              -73.7330434,
              -7.74478
            ],
            [
              -73.734089,
              -7.7447525
            ],
            [
              -73.7355536,
              -7.7441119
            ],
            [
              -73.7390697,
              -7.7396892
            ],
            [
              -73.7398952,
              -7.7384234
            ],
            [
              -73.7408672,
              -7.7339434
            ],
            [
              -73.741416,
              -7.7332872
            ],
            [
              -73.7418765,
              -7.7331951
            ],
            [
              -73.7424269,
              -7.7333052
            ],
            [
              -73.7437754,
              -7.7338652
            ],
            [
              -73.7457339,
              -7.7341625
            ],
            [
              -73.7468336,
              -7.733959
            ],
            [
              -73.7476484,
              -7.7335517
            ],
            [
              -73.748463,
              -7.7328185
            ],
            [
              -73.7502145,
              -7.731678
            ],
            [
              -73.7515586,
              -7.7315151
            ],
            [
              -73.7549395,
              -7.7317595
            ],
            [
              -73.7585239,
              -7.7311486
            ],
            [
              -73.7593385,
              -7.730619
            ],
            [
              -73.7612937,
              -7.7282972
            ],
            [
              -73.7633304,
              -7.7273604
            ],
            [
              -73.766426,
              -7.7271974
            ],
            [
              -73.770377,
              -7.7274011
            ],
            [
              -73.7714769,
              -7.7272381
            ],
            [
              -73.7727802,
              -7.7266271
            ],
            [
              -73.7738652,
              -7.7249141
            ],
            [
              -73.7747872,
              -7.724252
            ],
            [
              -73.7769337,
              -7.7232614
            ],
            [
              -73.7792727,
              -7.7229861
            ],
            [
              -73.7813184,
              -7.7225527
            ],
            [
              -73.782295,
              -7.7221544
            ],
            [
              -73.7841406,
              -7.7210684
            ],
            [
              -73.7855292,
              -7.7196387
            ],
            [
              -73.7873145,
              -7.7183224
            ],
            [
              -73.789795,
              -7.7173535
            ],
            [
              -73.7952604,
              -7.7171525
            ],
            [
              -73.7970021,
              -7.7167871
            ],
            [
              -73.8009671,
              -7.7140381
            ],
            [
              -73.8017601,
              -7.7137209
            ],
            [
              -73.8024475,
              -7.7137209
            ],
            [
              -73.8032932,
              -7.7139852
            ],
            [
              -73.8041391,
              -7.7145139
            ],
            [
              -73.8058307,
              -7.716047
            ],
            [
              -73.8074167,
              -7.7182674
            ],
            [
              -73.8087912,
              -7.719219
            ],
            [
              -73.8099015,
              -7.7194304
            ],
            [
              -73.8127562,
              -7.718796
            ],
            [
              -73.8147652,
              -7.7178972
            ],
            [
              -73.815611,
              -7.7177387
            ],
            [
              -73.8174142,
              -7.7170294
            ],
            [
              -73.8177559,
              -7.7172597
            ],
            [
              -73.819818,
              -7.7157605
            ],
            [
              -73.8209466,
              -7.713342
            ],
            [
              -73.8218164,
              -7.7054492
            ],
            [
              -73.8219375,
              -7.7017774
            ],
            [
              -73.822465,
              -7.7005156
            ],
            [
              -73.8241714,
              -7.699207
            ],
            [
              -73.8262636,
              -7.6982285
            ],
            [
              -73.8321386,
              -7.6961211
            ],
            [
              -73.8342755,
              -7.6947999
            ],
            [
              -73.8353652,
              -7.693834
            ],
            [
              -73.8360606,
              -7.6922305
            ],
            [
              -73.8363176,
              -7.6892104
            ],
            [
              -73.8362102,
              -7.6873831
            ],
            [
              -73.8354579,
              -7.6858245
            ],
            [
              -73.8345332,
              -7.6832715
            ],
            [
              -73.8362129,
              -7.6797187
            ],
            [
              -73.8365605,
              -7.6778262
            ],
            [
              -73.8369219,
              -7.6728907
            ],
            [
              -73.837623,
              -7.6692774
            ],
            [
              -73.8381954,
              -7.6680156
            ],
            [
              -73.8391797,
              -7.6668711
            ],
            [
              -73.8406757,
              -7.666416
            ],
            [
              -73.8431465,
              -7.6664805
            ],
            [
              -73.843666,
              -7.666709
            ],
            [
              -73.8446426,
              -7.6674024
            ],
            [
              -73.8457951,
              -7.6687246
            ],
            [
              -73.8466485,
              -7.6701055
            ],
            [
              -73.8479687,
              -7.671543
            ],
            [
              -73.8494649,
              -7.6728105
            ],
            [
              -73.8502656,
              -7.6737305
            ],
            [
              -73.851127,
              -7.6743632
            ],
            [
              -73.8525,
              -7.6758594
            ],
            [
              -73.8535391,
              -7.676666
            ],
            [
              -73.8550332,
              -7.6774726
            ],
            [
              -73.8559492,
              -7.6775899
            ],
            [
              -73.859291,
              -7.6766816
            ],
            [
              -73.8625722,
              -7.6768047
            ],
            [
              -73.8627402,
              -7.676918
            ],
            [
              -73.8646386,
              -7.6768106
            ],
            [
              -73.8665391,
              -7.6762402
            ],
            [
              -73.8680645,
              -7.6752967
            ],
            [
              -73.8695976,
              -7.673207
            ],
            [
              -73.8724902,
              -7.6657539
            ],
            [
              -73.874168,
              -7.6623145
            ],
            [
              -73.8767696,
              -7.6586485
            ],
            [
              -73.8786699,
              -7.6567579
            ],
            [
              -73.8796542,
              -7.6561289
            ],
            [
              -73.8815547,
              -7.6556172
            ],
            [
              -73.8834531,
              -7.6547637
            ],
            [
              -73.8850097,
              -7.6538476
            ],
            [
              -73.8862754,
              -7.6525312
            ],
            [
              -73.8872597,
              -7.6508145
            ],
            [
              -73.8884434,
              -7.6493516
            ],
            [
              -73.8908926,
              -7.6470919
            ],
            [
              -73.8962579,
              -7.6430294
            ],
            [
              -73.8978125,
              -7.6421152
            ],
            [
              -73.898498,
              -7.6418867
            ],
            [
              -73.9002305,
              -7.6405586
            ],
            [
              -73.900459,
              -7.6402285
            ],
            [
              -73.9004667,
              -7.6393106
            ],
            [
              -73.9001777,
              -7.6389649
            ],
            [
              -73.8967891,
              -7.6367754
            ],
            [
              -73.8947226,
              -7.6346465
            ],
            [
              -73.894211,
              -7.6333242
            ],
            [
              -73.8940351,
              -7.6332069
            ],
            [
              -73.8936544,
              -7.6309004
            ],
            [
              -73.8938145,
              -7.6297656
            ],
            [
              -73.8946836,
              -7.6264414
            ],
            [
              -73.895668,
              -7.623916
            ],
            [
              -73.8956757,
              -7.6223652
            ],
            [
              -73.8953867,
              -7.6215039
            ],
            [
              -73.8953476,
              -7.6203437
            ],
            [
              -73.8955176,
              -7.6180039
            ],
            [
              -73.8948926,
              -7.6158789
            ],
            [
              -73.894082,
              -7.6143262
            ],
            [
              -73.893166,
              -7.6131191
            ],
            [
              -73.8901816,
              -7.6101836
            ],
            [
              -73.8896094,
              -7.6090937
            ],
            [
              -73.888336,
              -7.6056465
            ],
            [
              -73.8882989,
              -7.6051856
            ],
            [
              -73.8885275,
              -7.6047851
            ],
            [
              -73.8886485,
              -7.6039825
            ],
            [
              -73.8890235,
              -7.6035527
            ],
            [
              -73.889457,
              -7.6031797
            ],
            [
              -73.8909531,
              -7.6024395
            ],
            [
              -73.8944629,
              -7.6009551
            ],
            [
              -73.8969414,
              -7.5994121
            ],
            [
              -73.8976289,
              -7.5992989
            ],
            [
              -73.8979805,
              -7.5990704
            ],
            [
              -73.8995294,
              -7.598959
            ],
            [
              -73.8999336,
              -7.5990742
            ],
            [
              -73.9014277,
              -7.5990215
            ],
            [
              -73.9021231,
              -7.5991972
            ],
            [
              -73.9040781,
              -7.5989141
            ],
            [
              -73.9070137,
              -7.5978887
            ],
            [
              -73.9079356,
              -7.5973162
            ],
            [
              -73.9081347,
              -7.5973457
            ],
            [
              -73.908623,
              -7.5968575
            ],
            [
              -73.910752,
              -7.5968652
            ],
            [
              -73.9112169,
              -7.5966347
            ],
            [
              -73.9116211,
              -7.5961191
            ],
            [
              -73.9124297,
              -7.5942285
            ],
            [
              -73.9138106,
              -7.5922794
            ],
            [
              -73.9218301,
              -7.5848379
            ],
            [
              -73.9248809,
              -7.5825507
            ],
            [
              -73.926666,
              -7.5815214
            ],
            [
              -73.9293145,
              -7.5807246
            ],
            [
              -73.930291,
              -7.5807832
            ],
            [
              -73.9331739,
              -7.5801601
            ],
            [
              -73.9337461,
              -7.579875
            ],
            [
              -73.9347226,
              -7.5797617
            ],
            [
              -73.9350137,
              -7.5799356
            ],
            [
              -73.9371954,
              -7.5799395
            ],
            [
              -73.9393242,
              -7.5795996
            ],
            [
              -73.94042,
              -7.5796035
            ],
            [
              -73.9418555,
              -7.5792637
            ],
            [
              -73.9435879,
              -7.5783516
            ],
            [
              -73.9474492,
              -7.5756035
            ],
            [
              -73.9486544,
              -7.5744004
            ],
            [
              -73.9488301,
              -7.5744004
            ],
            [
              -73.9506152,
              -7.5726836
            ],
            [
              -73.952293,
              -7.5705059
            ],
            [
              -73.9543691,
              -7.568502
            ],
            [
              -73.9564434,
              -7.5656954
            ],
            [
              -73.9584042,
              -7.5644375
            ],
            [
              -73.9612812,
              -7.5644414
            ],
            [
              -73.9630059,
              -7.564793
            ],
            [
              -73.9647285,
              -7.564625
            ],
            [
              -73.9666289,
              -7.5646856
            ],
            [
              -73.967668,
              -7.5644024
            ],
            [
              -73.9684667,
              -7.5644044
            ],
            [
              -73.9693301,
              -7.5641191
            ],
            [
              -73.9703066,
              -7.5640645
            ],
            [
              -73.9715195,
              -7.5636641
            ],
            [
              -73.9722676,
              -7.563666
            ],
            [
              -73.9735332,
              -7.5633242
            ],
            [
              -73.9743965,
              -7.5632694
            ],
            [
              -73.9771582,
              -7.5622422
            ],
            [
              -73.9785684,
              -7.5614707
            ],
            [
              -73.9791191,
              -7.5608125
            ],
            [
              -73.979752,
              -7.5592637
            ],
            [
              -73.9799882,
              -7.5570274
            ],
            [
              -73.9800254,
              -7.5529219
            ],
            [
              -73.9806972,
              -7.5489356
            ],
            [
              -73.9813476,
              -7.5436562
            ],
            [
              -73.9814687,
              -7.5412461
            ],
            [
              -73.9818731,
              -7.5390664
            ],
            [
              -73.9825664,
              -7.5371152
            ],
            [
              -73.9829179,
              -7.535625
            ],
            [
              -73.9829179,
              -7.5349356
            ],
            [
              -73.9830625,
              -7.5347344
            ],
            [
              -73.9830332,
              -7.5343614
            ],
            [
              -73.9816187,
              -7.5334894
            ],
            [
              -73.9803064,
              -7.5333092
            ],
            [
              -73.9758959,
              -7.5332179
            ],
            [
              -73.971837,
              -7.5322477
            ],
            [
              -73.9685307,
              -7.5306495
            ],
            [
              -73.9661601,
              -7.530133
            ],
            [
              -73.9607842,
              -7.5308062
            ],
            [
              -73.9576427,
              -7.5303872
            ],
            [
              -73.955546,
              -7.529607
            ],
            [
              -73.9542084,
              -7.5293512
            ],
            [
              -73.9530086,
              -7.5295756
            ],
            [
              -73.948619,
              -7.5311321
            ],
            [
              -73.9428097,
              -7.5336957
            ],
            [
              -73.9421607,
              -7.5336542
            ],
            [
              -73.9417106,
              -7.5334337
            ],
            [
              -73.9410879,
              -7.5321704
            ],
            [
              -73.9402666,
              -7.5291989
            ],
            [
              -73.9397739,
              -7.5282444
            ],
            [
              -73.9370214,
              -7.523951
            ],
            [
              -73.9300594,
              -7.5116416
            ],
            [
              -73.9274245,
              -7.508727
            ],
            [
              -73.9263341,
              -7.5079845
            ],
            [
              -73.9233836,
              -7.506809
            ],
            [
              -73.9213615,
              -7.5064912
            ],
            [
              -73.9202222,
              -7.5061064
            ],
            [
              -73.9195757,
              -7.5057522
            ],
            [
              -73.9188214,
              -7.5049364
            ],
            [
              -73.9183394,
              -7.5038592
            ],
            [
              -73.9173204,
              -7.5005704
            ],
            [
              -73.9174319,
              -7.4973669
            ],
            [
              -73.9186885,
              -7.4946442
            ],
            [
              -73.9222934,
              -7.4903554
            ],
            [
              -73.9230029,
              -7.4854751
            ],
            [
              -73.9240932,
              -7.4818769
            ],
            [
              -73.9240464,
              -7.4809776
            ],
            [
              -73.9236815,
              -7.4799516
            ],
            [
              -73.922216,
              -7.4788162
            ],
            [
              -73.9162675,
              -7.4768262
            ],
            [
              -73.9113164,
              -7.4758379
            ],
            [
              -73.9104597,
              -7.4751955
            ],
            [
              -73.9097594,
              -7.4729879
            ],
            [
              -73.909715,
              -7.4688185
            ],
            [
              -73.9098709,
              -7.467875
            ],
            [
              -73.9106701,
              -7.4658765
            ],
            [
              -73.9139551,
              -7.4615594
            ],
            [
              -73.9158241,
              -7.4584316
            ],
            [
              -73.9167275,
              -7.4562776
            ],
            [
              -73.9174195,
              -7.452925
            ],
            [
              -73.9175281,
              -7.4501655
            ],
            [
              -73.9173055,
              -7.4487377
            ],
            [
              -73.9165035,
              -7.4465706
            ],
            [
              -73.9165035,
              -7.4455712
            ],
            [
              -73.9168842,
              -7.4444529
            ],
            [
              -73.9215364,
              -7.4331691
            ],
            [
              -73.925095,
              -7.4281289
            ],
            [
              -73.9251504,
              -7.4250946
            ],
            [
              -73.9236531,
              -7.4229677
            ],
            [
              -73.9219637,
              -7.4210489
            ],
            [
              -73.921742,
              -7.419885
            ],
            [
              -73.9222131,
              -7.4190121
            ],
            [
              -73.9232245,
              -7.4180145
            ],
            [
              -73.9254411,
              -7.416698
            ],
            [
              -73.9267299,
              -7.4153544
            ],
            [
              -73.9286004,
              -7.4141074
            ],
            [
              -73.9307735,
              -7.4130195
            ],
            [
              -73.9327396,
              -7.4114441
            ],
            [
              -73.9347947,
              -7.4107947
            ],
            [
              -73.9374326,
              -7.4095929
            ],
            [
              -73.9387685,
              -7.4081774
            ],
            [
              -73.9391967,
              -7.4067259
            ],
            [
              -73.9385277,
              -7.4041554
            ],
            [
              -73.9385544,
              -7.4026809
            ],
            [
              -73.9389831,
              -7.4001145
            ],
            [
              -73.9408261,
              -7.3939454
            ],
            [
              -73.9450527,
              -7.3852207
            ],
            [
              -73.9471494,
              -7.3816667
            ],
            [
              -73.9509342,
              -7.3767096
            ],
            [
              -73.954789,
              -7.3720935
            ],
            [
              -73.9555505,
              -7.3708324
            ],
            [
              -73.955717,
              -7.3699519
            ],
            [
              -73.9553839,
              -7.3683815
            ],
            [
              -73.9536231,
              -7.3657641
            ],
            [
              -73.952933,
              -7.3639319
            ],
            [
              -73.9522192,
              -7.3597679
            ],
            [
              -73.9517671,
              -7.3582687
            ],
            [
              -73.9511722,
              -7.3574835
            ],
            [
              -73.9503027,
              -7.3570097
            ],
            [
              -73.947032,
              -7.357436
            ],
            [
              -73.9462467,
              -7.3579119
            ],
            [
              -73.9445574,
              -7.362409
            ],
            [
              -73.9423682,
              -7.3673345
            ],
            [
              -73.939082,
              -7.3714375
            ],
            [
              -73.9362281,
              -7.3764645
            ],
            [
              -73.9357472,
              -7.3769334
            ],
            [
              -73.9349657,
              -7.377258
            ],
            [
              -73.9342754,
              -7.3769889
            ],
            [
              -73.933633,
              -7.3762989
            ],
            [
              -73.9323717,
              -7.3734197
            ],
            [
              -73.9310684,
              -7.3714257
            ],
            [
              -73.9288027,
              -7.3693746
            ],
            [
              -73.9270656,
              -7.3671855
            ],
            [
              -73.9256142,
              -7.3650916
            ],
            [
              -73.9246624,
              -7.3631642
            ],
            [
              -73.9237344,
              -7.3622125
            ],
            [
              -73.922735,
              -7.361808
            ],
            [
              -73.9217595,
              -7.3617605
            ],
            [
              -73.920308,
              -7.3622839
            ],
            [
              -73.9187851,
              -7.3632356
            ],
            [
              -73.9175002,
              -7.3646872
            ],
            [
              -73.9171195,
              -7.3657102
            ],
            [
              -73.9166436,
              -7.3691129
            ],
            [
              -73.9162629,
              -7.3702312
            ],
            [
              -73.9152397,
              -7.3711116
            ],
            [
              -73.9081251,
              -7.3724916
            ],
            [
              -73.9067009,
              -7.3734184
            ],
            [
              -73.9062691,
              -7.3747046
            ],
            [
              -73.9058885,
              -7.3784404
            ],
            [
              -73.9063405,
              -7.3843414
            ],
            [
              -73.9038659,
              -7.3856977
            ],
            [
              -73.9028427,
              -7.3857215
            ],
            [
              -73.9019147,
              -7.3853646
            ],
            [
              -73.900963,
              -7.3854597
            ],
            [
              -73.8987976,
              -7.3862926
            ],
            [
              -73.8965371,
              -7.3862687
            ],
            [
              -73.8952236,
              -7.3858374
            ],
            [
              -73.8939197,
              -7.384746
            ],
            [
              -73.8910406,
              -7.3816049
            ],
            [
              -73.8892089,
              -7.379295
            ],
            [
              -73.888447,
              -7.3788211
            ],
            [
              -73.8873286,
              -7.3789162
            ],
            [
              -73.8854665,
              -7.3797154
            ],
            [
              -73.8734657,
              -7.3874955
            ],
            [
              -73.8713516,
              -7.388332
            ],
            [
              -73.870138,
              -7.3885849
            ],
            [
              -73.8686599,
              -7.3886465
            ],
            [
              -73.864949,
              -7.3892624
            ],
            [
              -73.8635479,
              -7.389247
            ],
            [
              -73.862393,
              -7.3888929
            ],
            [
              -73.8615769,
              -7.3881384
            ],
            [
              -73.8572947,
              -7.3744455
            ],
            [
              -73.8570346,
              -7.3732796
            ],
            [
              -73.856896,
              -7.37097
            ],
            [
              -73.8574657,
              -7.3675825
            ],
            [
              -73.8575427,
              -7.3651805
            ],
            [
              -73.857204,
              -7.3628092
            ],
            [
              -73.8564802,
              -7.361177
            ],
            [
              -73.8549559,
              -7.3590984
            ],
            [
              -73.8544786,
              -7.3580205
            ],
            [
              -73.8540475,
              -7.3550334
            ],
            [
              -73.8536625,
              -7.3543096
            ],
            [
              -73.8530312,
              -7.3537707
            ],
            [
              -73.8522076,
              -7.3536979
            ],
            [
              -73.8500441,
              -7.3551565
            ],
            [
              -73.8494436,
              -7.355095
            ],
            [
              -73.8487344,
              -7.3546181
            ],
            [
              -73.848181,
              -7.3533089
            ],
            [
              -73.8475185,
              -7.3528092
            ],
            [
              -73.8468875,
              -7.3527699
            ],
            [
              -73.8450699,
              -7.3540877
            ],
            [
              -73.8444394,
              -7.3542019
            ],
            [
              -73.8437156,
              -7.3539864
            ],
            [
              -73.8422836,
              -7.3529701
            ],
            [
              -73.8415,
              -7.3527187
            ],
            [
              -73.8404096,
              -7.3526969
            ],
            [
              -73.8359766,
              -7.3513829
            ],
            [
              -73.8332299,
              -7.3521847
            ],
            [
              -73.8308431,
              -7.3521847
            ],
            [
              -73.8299809,
              -7.3519076
            ],
            [
              -73.8291649,
              -7.351107
            ],
            [
              -73.8284411,
              -7.3492285
            ],
            [
              -73.827779,
              -7.3481352
            ],
            [
              -73.8239759,
              -7.3451481
            ],
            [
              -73.8232987,
              -7.3432884
            ],
            [
              -73.8232614,
              -7.3427184
            ],
            [
              -73.8235732,
              -7.3413244
            ],
            [
              -73.8232984,
              -7.340113
            ],
            [
              -73.8225285,
              -7.3392046
            ],
            [
              -73.8210502,
              -7.338604
            ],
            [
              -73.8186636,
              -7.3382191
            ],
            [
              -73.8164894,
              -7.3392286
            ],
            [
              -73.8149527,
              -7.3402209
            ],
            [
              -73.8123814,
              -7.3411601
            ],
            [
              -73.8103181,
              -7.3415912
            ],
            [
              -73.8069152,
              -7.341545
            ],
            [
              -73.8046671,
              -7.3412832
            ],
            [
              -73.8035277,
              -7.3416066
            ],
            [
              -73.8019725,
              -7.3424226
            ],
            [
              -73.7977692,
              -7.3451416
            ],
            [
              -73.795213,
              -7.3470574
            ],
            [
              -73.7940427,
              -7.3475962
            ],
            [
              -73.7931035,
              -7.3477811
            ],
            [
              -73.7890229,
              -7.3477424
            ],
            [
              -73.7884109,
              -7.3470785
            ],
            [
              -73.7859649,
              -7.3450996
            ],
            [
              -73.783074,
              -7.3401587
            ],
            [
              -73.7813619,
              -7.3387475
            ],
            [
              -73.7804134,
              -7.3386086
            ],
            [
              -73.7772631,
              -7.3389235
            ],
            [
              -73.7744771,
              -7.3384407
            ],
            [
              -73.7737191,
              -7.338561
            ],
            [
              -73.77249,
              -7.3391644
            ],
            [
              -73.77143,
              -7.3392495
            ],
            [
              -73.7707559,
              -7.3391684
            ],
            [
              -73.7701482,
              -7.338745
            ],
            [
              -73.7697065,
              -7.338064
            ],
            [
              -73.7690991,
              -7.3376039
            ],
            [
              -73.7673689,
              -7.3373277
            ],
            [
              -73.7666511,
              -7.336886
            ],
            [
              -73.7636126,
              -7.3370451
            ],
            [
              -73.7616262,
              -7.3369044
            ],
            [
              -73.7589452,
              -7.3377885
            ],
            [
              -73.7567364,
              -7.339043
            ],
            [
              -73.7550582,
              -7.3395735
            ],
            [
              -73.753464,
              -7.339859
            ],
            [
              -73.7529034,
              -7.3403901
            ],
            [
              -73.7528107,
              -7.3417784
            ],
            [
              -73.7540945,
              -7.3448789
            ],
            [
              -73.7542096,
              -7.3475936
            ],
            [
              -73.7544997,
              -7.3488584
            ],
            [
              -73.7557955,
              -7.3514729
            ],
            [
              -73.755888,
              -7.3522132
            ],
            [
              -73.7556797,
              -7.3529305
            ],
            [
              -73.7552632,
              -7.3534395
            ],
            [
              -73.75464,
              -7.353786
            ],
            [
              -73.7531785,
              -7.353303
            ],
            [
              -73.7508229,
              -7.3519467
            ],
            [
              -73.7494904,
              -7.3508284
            ],
            [
              -73.7484671,
              -7.3502811
            ],
            [
              -73.7454287,
              -7.3495822
            ],
            [
              -73.7442555,
              -7.3484965
            ],
            [
              -73.7417441,
              -7.347334
            ],
            [
              -73.7380136,
              -7.3466496
            ],
            [
              -73.7368077,
              -7.346236
            ],
            [
              -73.7359922,
              -7.3456524
            ],
            [
              -73.7350869,
              -7.3445052
            ],
            [
              -73.7341471,
              -7.3437922
            ],
            [
              -73.7318952,
              -7.3425125
            ],
            [
              -73.7310365,
              -7.3424476
            ],
            [
              -73.7302976,
              -7.3426224
            ],
            [
              -73.7286385,
              -7.3444769
            ],
            [
              -73.7278611,
              -7.3446024
            ],
            [
              -73.7270025,
              -7.3443756
            ],
            [
              -73.7245724,
              -7.3424152
            ],
            [
              -73.7228874,
              -7.3417186
            ],
            [
              -73.7225634,
              -7.3412164
            ],
            [
              -73.72245,
              -7.3402281
            ],
            [
              -73.7227416,
              -7.3365505
            ],
            [
              -73.7223366,
              -7.3356594
            ],
            [
              -73.7207275,
              -7.3348479
            ],
            [
              -73.7187155,
              -7.3344049
            ],
            [
              -73.7175019,
              -7.33381
            ],
            [
              -73.716907,
              -7.3330485
            ],
            [
              -73.7161485,
              -7.3316191
            ],
            [
              -73.7147779,
              -7.3302771
            ],
            [
              -73.7127165,
              -7.3276779
            ],
            [
              -73.7119602,
              -7.3268956
            ],
            [
              -73.7107739,
              -7.3261655
            ],
            [
              -73.7102915,
              -7.3251746
            ],
            [
              -73.7102784,
              -7.3244315
            ],
            [
              -73.7109334,
              -7.3227121
            ],
            [
              -73.7081271,
              -7.3222541
            ],
            [
              -73.7074491,
              -7.3223324
            ],
            [
              -73.707018,
              -7.3225765
            ],
            [
              -73.706492,
              -7.3234846
            ],
            [
              -73.7054142,
              -7.3243159
            ],
            [
              -73.7045407,
              -7.3244805
            ],
            [
              -73.7027255,
              -7.323959
            ],
            [
              -73.7012501,
              -7.3232619
            ],
            [
              -73.7003936,
              -7.3224624
            ],
            [
              -73.6998639,
              -7.3211304
            ],
            [
              -73.6990786,
              -7.3154684
            ],
            [
              -73.6976792,
              -7.3131446
            ],
            [
              -73.6970757,
              -7.3125155
            ],
            [
              -73.6960102,
              -7.3118865
            ],
            [
              -73.695625,
              -7.3114756
            ],
            [
              -73.6954839,
              -7.3110391
            ],
            [
              -73.6955921,
              -7.3099317
            ],
            [
              -73.6954245,
              -7.3086067
            ],
            [
              -73.6960872,
              -7.3071362
            ],
            [
              -73.6968124,
              -7.3014466
            ],
            [
              -73.6962919,
              -7.3004056
            ],
            [
              -73.6948791,
              -7.2990672
            ],
            [
              -73.6950277,
              -7.2985839
            ],
            [
              -73.6961232,
              -7.297346
            ],
            [
              -73.6968502,
              -7.2961146
            ],
            [
              -73.6973569,
              -7.2930357
            ],
            [
              -73.6988944,
              -7.2906647
            ],
            [
              -73.6998611,
              -7.2902557
            ],
            [
              -73.7009042,
              -7.2901061
            ],
            [
              -73.7024766,
              -7.2894044
            ],
            [
              -73.7038392,
              -7.2883596
            ],
            [
              -73.7045829,
              -7.2871699
            ],
            [
              -73.7048431,
              -7.2858315
            ],
            [
              -73.70462,
              -7.2841212
            ],
            [
              -73.7049917,
              -7.282857
            ],
            [
              -73.7055624,
              -7.2824001
            ],
            [
              -73.7103456,
              -7.2820392
            ],
            [
              -73.7109062,
              -7.2813242
            ],
            [
              -73.7109539,
              -7.2789135
            ],
            [
              -73.7113494,
              -7.2773546
            ],
            [
              -73.7118699,
              -7.276611
            ],
            [
              -73.7131185,
              -7.2758544
            ],
            [
              -73.7153647,
              -7.2748636
            ],
            [
              -73.7159967,
              -7.273711
            ],
            [
              -73.7160197,
              -7.2723534
            ],
            [
              -73.7145096,
              -7.2677624
            ],
            [
              -73.7143237,
              -7.2648014
            ],
            [
              -73.7149585,
              -7.2635059
            ],
            [
              -73.7148891,
              -7.2629272
            ],
            [
              -73.714468,
              -7.2616306
            ],
            [
              -73.7130969,
              -7.2596202
            ],
            [
              -73.7117327,
              -7.2562862
            ],
            [
              -73.7110745,
              -7.2524746
            ],
            [
              -73.7110149,
              -7.25066
            ],
            [
              -73.7095276,
              -7.2480575
            ],
            [
              -73.7091186,
              -7.2463101
            ],
            [
              -73.7100257,
              -7.2447257
            ],
            [
              -73.71068,
              -7.2440966
            ],
            [
              -73.7110324,
              -7.2434422
            ],
            [
              -73.7110739,
              -7.242095
            ],
            [
              -73.7113595,
              -7.2409257
            ],
            [
              -73.7125745,
              -7.2393495
            ],
            [
              -73.7139011,
              -7.238686
            ],
            [
              -73.7147569,
              -7.2385854
            ],
            [
              -73.7157131,
              -7.2385854
            ],
            [
              -73.7171979,
              -7.239139
            ],
            [
              -73.718582,
              -7.2391139
            ],
            [
              -73.7194627,
              -7.2387614
            ],
            [
              -73.7203686,
              -7.2380569
            ],
            [
              -73.7210732,
              -7.2370502
            ],
            [
              -73.7210809,
              -7.2359639
            ],
            [
              -73.7199971,
              -7.2340406
            ],
            [
              -73.718397,
              -7.2323371
            ],
            [
              -73.7166211,
              -7.2284655
            ],
            [
              -73.7164869,
              -7.22797
            ],
            [
              -73.7166191,
              -7.2275582
            ],
            [
              -73.7181595,
              -7.2264626
            ],
            [
              -73.7188582,
              -7.2257291
            ],
            [
              -73.7193271,
              -7.2244654
            ],
            [
              -73.7199626,
              -7.2240831
            ],
            [
              -73.7225395,
              -7.2235611
            ],
            [
              -73.7233485,
              -7.2228472
            ],
            [
              -73.7242051,
              -7.2223952
            ],
            [
              -73.7252521,
              -7.2222827
            ],
            [
              -73.7266084,
              -7.2226331
            ],
            [
              -73.7283574,
              -7.2227999
            ],
            [
              -73.7311897,
              -7.2221904
            ],
            [
              -73.7317549,
              -7.2217899
            ],
            [
              -73.7319966,
              -7.2213665
            ],
            [
              -73.7324475,
              -7.219391
            ],
            [
              -73.7334469,
              -7.2180822
            ],
            [
              -73.7341844,
              -7.2174874
            ],
            [
              -73.7353266,
              -7.2172019
            ],
            [
              -73.7361595,
              -7.217178
            ],
            [
              -73.7373254,
              -7.2177729
            ],
            [
              -73.7386102,
              -7.2192957
            ],
            [
              -73.739681,
              -7.220081
            ],
            [
              -73.7407756,
              -7.2204617
            ],
            [
              -73.7414894,
              -7.2203189
            ],
            [
              -73.7424592,
              -7.2194937
            ],
            [
              -73.7432672,
              -7.2179122
            ],
            [
              -73.743459,
              -7.2168096
            ],
            [
              -73.7424045,
              -7.213694
            ],
            [
              -73.7428806,
              -7.2120626
            ],
            [
              -73.742525,
              -7.2106909
            ],
            [
              -73.7433379,
              -7.2100982
            ],
            [
              -73.7446756,
              -7.2097256
            ],
            [
              -73.7475205,
              -7.2095225
            ],
            [
              -73.7487299,
              -7.2090105
            ],
            [
              -73.7520759,
              -7.2064235
            ],
            [
              -73.7522451,
              -7.2059494
            ],
            [
              -73.7521266,
              -7.2054412
            ],
            [
              -73.7515695,
              -7.2045214
            ],
            [
              -73.7509581,
              -7.203985
            ],
            [
              -73.7503747,
              -7.2038265
            ],
            [
              -73.7490272,
              -7.2029365
            ],
            [
              -73.7482317,
              -7.2013094
            ],
            [
              -73.748672,
              -7.2004457
            ],
            [
              -73.7500031,
              -7.1995899
            ],
            [
              -73.7528547,
              -7.198854
            ],
            [
              -73.7532781,
              -7.1984136
            ],
            [
              -73.753583,
              -7.1973299
            ],
            [
              -73.7540571,
              -7.1965677
            ],
            [
              -73.7549546,
              -7.1959242
            ],
            [
              -73.7560351,
              -7.1956992
            ],
            [
              -73.7559369,
              -7.1897602
            ],
            [
              -73.756665,
              -7.1892691
            ],
            [
              -73.7569699,
              -7.1866612
            ],
            [
              -73.75614,
              -7.1834099
            ],
            [
              -73.7563432,
              -7.1828172
            ],
            [
              -73.7581214,
              -7.1809375
            ],
            [
              -73.7581551,
              -7.1804295
            ],
            [
              -73.7578291,
              -7.1793791
            ],
            [
              -73.7562925,
              -7.1776185
            ],
            [
              -73.7559707,
              -7.1770087
            ],
            [
              -73.7558692,
              -7.1755016
            ],
            [
              -73.7561061,
              -7.17413
            ],
            [
              -73.7566309,
              -7.1733086
            ],
            [
              -73.7640544,
              -7.1730967
            ],
            [
              -73.764627,
              -7.172707
            ],
            [
              -73.7648352,
              -7.1718145
            ],
            [
              -73.7647007,
              -7.1705699
            ],
            [
              -73.7650169,
              -7.1700482
            ],
            [
              -73.7658389,
              -7.169337
            ],
            [
              -73.7664079,
              -7.1690999
            ],
            [
              -73.767056,
              -7.1690841
            ],
            [
              -73.7683364,
              -7.1695582
            ],
            [
              -73.7692847,
              -7.1695425
            ],
            [
              -73.769838,
              -7.1691472
            ],
            [
              -73.7699759,
              -7.1683941
            ],
            [
              -73.7697749,
              -7.1648004
            ],
            [
              -73.7690792,
              -7.1614492
            ],
            [
              -73.7692245,
              -7.1587619
            ],
            [
              -73.7688896,
              -7.1572287
            ],
            [
              -73.7683996,
              -7.1567229
            ],
            [
              -73.7682572,
              -7.1562487
            ],
            [
              -73.7685576,
              -7.1555216
            ],
            [
              -73.7690342,
              -7.1549482
            ],
            [
              -73.7741286,
              -7.1514974
            ],
            [
              -73.7752111,
              -7.1510321
            ],
            [
              -73.7795005,
              -7.1503644
            ],
            [
              -73.7798887,
              -7.1501562
            ],
            [
              -73.7806437,
              -7.1493326
            ],
            [
              -73.781878,
              -7.1485839
            ],
            [
              -73.7843666,
              -7.1480477
            ],
            [
              -73.7851961,
              -7.1476329
            ],
            [
              -73.7860055,
              -7.1467426
            ],
            [
              -73.7874016,
              -7.146247
            ],
            [
              -73.788314,
              -7.1457316
            ],
            [
              -73.7893237,
              -7.1444866
            ],
            [
              -73.7897284,
              -7.142605
            ],
            [
              -73.7902645,
              -7.1415124
            ],
            [
              -73.7912762,
              -7.1400961
            ],
            [
              -73.7913166,
              -7.1395095
            ],
            [
              -73.7910435,
              -7.1388922
            ],
            [
              -73.7906389,
              -7.1386495
            ],
            [
              -73.7900217,
              -7.1387101
            ],
            [
              -73.7879782,
              -7.13957
            ],
            [
              -73.784832,
              -7.1401567
            ],
            [
              -73.7839417,
              -7.1399747
            ],
            [
              -73.7834865,
              -7.1396307
            ],
            [
              -73.7829907,
              -7.136788
            ],
            [
              -73.7819972,
              -7.1348022
            ],
            [
              -73.7819297,
              -7.1336954
            ],
            [
              -73.7826366,
              -7.1306169
            ],
            [
              -73.7840631,
              -7.1279461
            ],
            [
              -73.7844981,
              -7.127582
            ],
            [
              -73.7858537,
              -7.1274402
            ],
            [
              -73.7868211,
              -7.1276794
            ],
            [
              -73.7890505,
              -7.1289982
            ],
            [
              -73.7917617,
              -7.1293017
            ],
            [
              -73.7941089,
              -7.1300502
            ],
            [
              -73.7946247,
              -7.13002
            ],
            [
              -73.794952,
              -7.1294526
            ],
            [
              -73.7948775,
              -7.1279662
            ],
            [
              -73.7953936,
              -7.1255789
            ],
            [
              -73.7953835,
              -7.1248404
            ],
            [
              -73.7940325,
              -7.1188352
            ],
            [
              -73.794832,
              -7.1176075
            ],
            [
              -73.7951439,
              -7.1173969
            ],
            [
              -73.796008,
              -7.1172991
            ],
            [
              -73.7967544,
              -7.1174212
            ],
            [
              -73.798098,
              -7.1180591
            ],
            [
              -73.7987359,
              -7.1181542
            ],
            [
              -73.7992787,
              -7.1179641
            ],
            [
              -73.7997266,
              -7.1175841
            ],
            [
              -73.7998624,
              -7.1170955
            ],
            [
              -73.7996594,
              -7.115145
            ],
            [
              -73.7984196,
              -7.113061
            ],
            [
              -73.7966255,
              -7.1123464
            ],
            [
              -73.7926337,
              -7.1100789
            ],
            [
              -73.7883206,
              -7.1079147
            ],
            [
              -73.7877345,
              -7.1073437
            ],
            [
              -73.7872387,
              -7.1060512
            ],
            [
              -73.7862166,
              -7.1049842
            ],
            [
              -73.784263,
              -7.1040075
            ],
            [
              -73.78398,
              -7.10365
            ],
            [
              -73.78469,
              -7.1003899
            ],
            [
              -73.78706,
              -7.0963
            ],
            [
              -73.78773,
              -7.09391
            ],
            [
              -73.78778,
              -7.09297
            ],
            [
              -73.78758,
              -7.09143
            ],
            [
              -73.78707,
              -7.09029
            ],
            [
              -73.78677,
              -7.08993
            ],
            [
              -73.78351,
              -7.0887
            ],
            [
              -73.78265,
              -7.08809
            ],
            [
              -73.78057,
              -7.08508
            ],
            [
              -73.77947,
              -7.08393
            ],
            [
              -73.77705,
              -7.08088
            ],
            [
              -73.77537,
              -7.07766
            ],
            [
              -73.77183,
              -7.07275
            ],
            [
              -73.77048,
              -7.07129
            ],
            [
              -73.76797,
              -7.06919
            ],
            [
              -73.76564,
              -7.0659699
            ],
            [
              -73.76192,
              -7.06254
            ],
            [
              -73.76131,
              -7.06158
            ],
            [
              -73.76071,
              -7.05929
            ],
            [
              -73.75997,
              -7.05757
            ],
            [
              -73.75972,
              -7.05651
            ],
            [
              -73.75957,
              -7.05237
            ],
            [
              -73.75872,
              -7.05024
            ],
            [
              -73.75742,
              -7.04782
            ],
            [
              -73.7571,
              -7.04676
            ],
            [
              -73.757,
              -7.04538
            ],
            [
              -73.75723,
              -7.04489
            ],
            [
              -73.75787,
              -7.04424
            ],
            [
              -73.76031,
              -7.04287
            ],
            [
              -73.76193,
              -7.04062
            ],
            [
              -73.76239,
              -7.0392
            ],
            [
              -73.76289,
              -7.03376
            ],
            [
              -73.76215,
              -7.03092
            ],
            [
              -73.7609399,
              -7.0286
            ],
            [
              -73.76061,
              -7.02702
            ],
            [
              -73.76059,
              -7.026
            ],
            [
              -73.76126,
              -7.02393
            ],
            [
              -73.76134,
              -7.02274
            ],
            [
              -73.76046,
              -7.02154
            ],
            [
              -73.7595,
              -7.02075
            ],
            [
              -73.75803,
              -7.01886
            ],
            [
              -73.75749,
              -7.01788
            ],
            [
              -73.75684,
              -7.01722
            ],
            [
              -73.75632,
              -7.01633
            ],
            [
              -73.75597,
              -7.01499
            ],
            [
              -73.75616,
              -7.01388
            ],
            [
              -73.75785,
              -7.0121
            ],
            [
              -73.75774,
              -7.01168
            ],
            [
              -73.75678,
              -7.01067
            ],
            [
              -73.75674,
              -7.01034
            ],
            [
              -73.75774,
              -7.00959
            ],
            [
              -73.7583,
              -7.00938
            ],
            [
              -73.75938,
              -7.00956
            ],
            [
              -73.7602,
              -7.00918
            ],
            [
              -73.7609,
              -7.00937
            ],
            [
              -73.76218,
              -7.0089
            ],
            [
              -73.76282,
              -7.0083201
            ],
            [
              -73.76308,
              -7.00746
            ],
            [
              -73.7626599,
              -7.00563
            ],
            [
              -73.76237,
              -7.00518
            ],
            [
              -73.76154,
              -7.00453
            ],
            [
              -73.75983,
              -7.00432
            ],
            [
              -73.75956,
              -7.00332
            ],
            [
              -73.75806,
              -7.00184
            ],
            [
              -73.75808,
              -7
            ],
            [
              -74,
              -7
            ],
            [
              -74,
              -8
            ]
          ]
        ]
      }
    }
  ]
}