{
  "type": "FeatureCollection",
  "features": [
    {
      "type": "Feature",
      "properties": {
        "osm_id": -59470,
        "boundary": "administrative",
        "admin_level": 2,
        "parents": null,
        "name": "Brazil",
        "local_name": "Brasil",
        "name_en": "Brazil",
        "all_tags": {
          "flag": "http://upload.wikimedia.org/wikipedia/commons/0/05/Flag_of_Brazil.svg",
          "name": "Brasil",
          "name:aa": "Brazil",
          "name:af": "Brasili√´",
          "name:ak": "Brazil",
          "name:am": "·â•·à´·ãö·àç",
          "name:an": "Brasil",
          "name:ar": "ÿßŸÑÿ®Ÿéÿ±Ÿéÿßÿ≤ŸêŸäŸÑ",
          "name:as": "‡¶¨‡ßç‡ß∞‡¶æ‡¶ú‡¶ø‡¶≤",
          "name:ay": "Wrasil",
          "name:az": "Braziliya",
          "name:ba": "–ë—Ä–∞–∑–∏ÃÅ–ª–∏—è",
          "name:be": "–ë—Ä–∞–∑—ñÃÅ–ª—ñ—è",
          "name:bg": "–ë—Ä–∞–∑–∏–ª–∏—è",
          "name:bh": "‡§¨‡•ç‡§∞‡§æ‡§ú‡§º‡•Ä‡§≤",
          "name:bi": "Brazil",
          "name:bm": "Brazil",
          "name:bn": "‡¶¨‡ßç‡¶∞‡¶æ‡¶ú‡¶ø‡¶≤",
          "name:bo": "‡Ωî‡Ω¥‡ºã‡Ω¢‡Ω¥‡ºã‡Ωü‡Ω≤‡Ω£‡ºç",
          "name:br": "Brazil",
          "name:bs": "Brazil",
          "name:ca": "Brasil",
          "name:ce": "–ë—Ä–∞–∑–∏ÃÅ–ª–∏",
          "name:ch": "Brazil",
          "name:co": "Brasile",
          "name:cs": "Braz√≠lie",
          "name:cu": "–ë—Ä–∞ÍôÅ—ó–ª—ñÃÅÍôó",
          "name:cv": "–ë—Ä–∞–∑–∏–ª–∏",
          "name:cy": "Brasil",
          "name:da": "Brasilien",
          "name:de": "Brasilien",
          "name:dv": "ﬁÑﬁ™ﬁÉﬁ¨ﬁíﬁ®ﬁçﬁ∞",
          "name:dz": "‡Ωñ‡Ω±‡Ω¢‡Ω±‡ºã‡Ωõ‡Ω≤‡Ω£‡ºã",
          "name:ee": "Brazil",
          "name:el": "ŒíœÅŒ±Œ∂ŒπŒªŒØŒ±",
          "name:en": "Brazil",
          "name:eo": "Brazilo",
          "name:es": "Brasil",
          "name:et": "Brasiilia",
          "name:eu": "Brasil",
          "name:fa": "ÿ®ÿ±ÿ≤€åŸÑ",
          "name:ff": "Barazil",
          "name:fi": "Brasilia",
          "name:fj": "Brazil",
          "name:fo": "Brasilia",
          "name:fr": "Br√©sil",
          "name:fy": "Brazylje",
          "name:ga": "an Bhrasa√≠l",
          "name:gd": "Braisil",
          "name:gl": "Brasil",
          "name:gn": "Pindor√°ma",
          "name:gu": "‡™¨‡´ç‡™∞‡™æ‡™ù‡™ø‡™≤",
          "name:gv": "yn Vrasseel",
          "name:ha": "Brazil",
          "name:he": "◊ë◊®◊ñ◊ô◊ú",
          "name:hi": "‡§¨‡•ç‡§∞‡§æ‡§∏‡§º‡•Ä‡§≤",
          "name:hr": "Brazil",
          "name:ht": "Brezil",
          "name:hu": "Braz√≠lia",
          "name:hy": "‘≤÷Ä’°’¶’´’¨’´’°",
          "name:ia": "Brasil",
          "name:id": "Brasil",
          "name:ie": "Brasil",
          "name:ig": "Brazil",
          "name:ii": "ÍÄ†Íë≠",
          "name:io": "Brazilia",
          "name:is": "Brasil√≠a",
          "name:it": "Brasile",
          "name:ja": "„Éñ„É©„Ç∏„É´",
          "name:jv": "Brasil",
          "name:ka": "·Éë·É†·Éê·Éñ·Éò·Éö·Éò·Éê",
          "name:kg": "Brazilia",
          "name:ki": "Brazil",
          "name:kk": "–ë—Ä–∞–∑–∏–ª–∏—è",
          "name:kl": "Brazil",
          "name:km": "·ûî·üí·ûö·üÅ·ûü·üä·û∏·ûõ",
          "name:kn": "‡≤¨‡≥ç‡≤∞‡≥Ü‡≤ú‡≤ø‡≤≤‡≥ç",
          "name:ko": "Î∏åÎùºÏßà",
          "name:ks": "ÿ®ÿ±Ÿõÿßÿ≤ŸêŸÑ",
          "name:ku": "Braz√Æl",
          "name:kv": "–ë—Ä–∞–∑–∏–ª–∏—è",
          "name:kw": "Brasil",
          "name:ky": "–ë—Ä–∞–∑–∏–ª–∏—è",
          "name:la": "Brasilia",
          "name:lb": "Brasilien",
          "name:lg": "Buraziiri",
          "name:li": "Braziel",
          "name:ln": "Brazil",
          "name:lo": "‡∫ö‡∫∞‡ªÄ‡∫£‡∫ä‡∫¥‡∫ô",
          "name:lt": "Brazilija",
          "name:lv": "Brazƒ´lija",
          "name:mg": "Brazila",
          "name:mi": "Parƒ´hi",
          "name:mk": "–ë—Ä–∞–∑–∏–ª",
          "name:ml": "‡¥¨‡µç‡¥∞‡¥∏‡µÄ‡µΩ",
          "name:mn": "–ë—Ä–∞–∑–∏–ª",
          "name:mr": "‡§¨‡•ç‡§∞‡§æ‡§ù‡•Ä‡§≤",
          "name:ms": "Brazil",
          "name:mt": "Bra≈ºil",
          "name:my": "·Äò·Äõ·Ä¨·Äá·ÄÆ·Ä∏·Äî·Ä≠·ÄØ·ÄÑ·Ä∫·ÄÑ·Ä∂",
          "name:na": "Bradir",
          "name:ne": "‡§¨‡•ç‡§∞‡§æ‡§ú‡§ø‡§≤",
          "name:nl": "Brazili√´",
          "name:nn": "Brasil",
          "name:no": "Brasil",
          "name:nv": "Bwaz√≠√≠l",
          "name:oc": "Brasil",
          "name:om": "Biraazil",
          "name:or": "‡¨¨‡≠ç‡¨∞‡¨æ‡¨ú‡¨ø‡¨≤",
          "name:os": "–ë—Ä–∞–∑–∏–ª–∏",
          "name:pa": "‡®¨‡©ç‡®∞‡®æ‡®ú‡®º‡©Ä‡®≤",
          "name:pi": "‡§¨‡•ç‡§∞‡§æ‡§∏‡•Ä‡§≤",
          "name:pl": "Brazylia",
          "name:ps": "ÿ®ÿ±ÿßÿ≤€åŸÑ",
          "name:pt": "Brasil",
          "name:qu": "Prasil",
          "name:rm": "Brasilia",
          "name:rn": "Brazil",
          "name:ro": "Brazilia",
          "name:ru": "–ë—Ä–∞–∑–∏–ª–∏—è",
          "name:rw": "Burezile",
          "name:sa": "‡§¨‡•ç‡§∞‡§æ‡§∏‡•Ä‡§≤",
          "name:sc": "Brasile",
          "name:sd": "ÿ®ÿ±ÿßÿ≤ŸäŸÑ",
          "name:se": "Brasilia",
          "name:sh": "Brazil",
          "name:si": "‡∂∂‡∑ä‡∂ª‡∑É‡∑ì‡∂Ω‡∂∫",
          "name:sk": "Braz√≠lia",
          "name:sl": "Brazilija",
          "name:sm": "Pasila",
          "name:sn": "Brazil",
          "name:so": "Barasiil",
          "name:sq": "Brazili",
          "name:sr": "–ë—Ä–∞–∑–∏–ª",
          "name:st": "Brazil",
          "name:su": "Brasil",
          "name:sv": "Brasilien",
          "name:sw": "Brazil",
          "name:ta": "‡Æ™‡Æø‡Æ∞‡Øá‡Æö‡Æø‡Æ≤‡Øç",
          "name:te": "‡∞¨‡±ç‡∞∞‡±Ü‡∞ú‡∞ø‡∞≤‡±ç",
          "name:tg": "–ë—Ä–∞–∑–∏–ª–∏—è",
          "name:th": "‡∏ö‡∏£‡∏≤‡∏ã‡∏¥‡∏•",
          "name:ti": "·â•·à´·ãö·àç",
          "name:tk": "Brazili√Ωa",
          "name:tl": "Brasil",
          "name:to": "PalƒÅsili",
          "name:tr": "Brezilya",
          "name:tt": "–ë—Ä–∞–∑–∏ÃÅ–ª–∏—è",
          "name:tw": "Brazil",
          "name:ty": "Parƒ´ihi",
          "name:ug": "ÿ®ÿ±ÿßÿ≤ŸâŸÑŸâŸä€ï",
          "name:uk": "–ë—Ä–∞–∑–∏ÃÅ–ª—ñ—è",
          "name:ur": "ÿ®ÿ±ÿßÿ≤€åŸÑ",
          "name:uz": "Braziliya",
          "name:ve": "Brazil",
          "name:vi": "Brasil",
          "name:vo": "Brasil√§n",
          "name:wa": "Braezi",
          "name:wo": "Breesil",
          "name:xh": "Brasil",
          "name:yi": "◊ë◊®◊ê÷∑◊ñ◊ô◊ú",
          "name:yo": "Brasil",
          "name:za": "Bahsih",
          "name:zh": "Â∑¥Ë•ø",
          "name:zu": "IBrazili",
          "boundary": "administrative",
          "currency": "BRL",
          "int_name": "Brazil",
          "name:ace": "Brasil",
          "name:ady": "–ë—Ä–∞–∑–∏–ª–∏–µ",
          "name:als": "Brasilie",
          "name:ang": "Brasil",
          "name:arc": "‹í‹™‹ê‹ô‹ù‹†",
          "name:arz": "ÿßŸÑÿ®ÿ±ÿßÿ≤ŸäŸÑ",
          "name:ast": "Brasil",
          "name:azb": "ÿ®ÿ±ÿ≤€åŸÑ",
          "name:bar": "Brasilien",
          "name:bcl": "Brasil",
          "name:bpy": "‡¶¨‡ßç‡¶∞‡¶æ‡¶ú‡¶ø‡¶≤",
          "name:brx": "‡§¨‡•ç‡§∞‡§æ‡§ú‡§º‡•Ä‡§≤",
          "name:bxr": "–ë—Ä–∞–∑–∏–ª",
          "name:cdo": "BƒÉ-sƒÉÃ§",
          "name:ceb": "Brasil",
          "name:chr": "·èÜ·èè·éµ",
          "name:chy": "Brazil",
          "name:ckb": "ÿ®€ï⁄ïÿßÿ≤€åŸÑ",
          "name:crh": "Brazil",
          "name:csb": "Brazylsk√¥",
          "name:diq": "Brezilya",
          "name:dsb": "Brazilska",
          "name:dty": "‡§¨‡•ç‡§∞‡§æ‡§ú‡§ø‡§≤",
          "name:eml": "Bra·π°il",
          "name:ext": "Brasil",
          "name:frp": "Br√®sil",
          "name:frr": "Brasiilien",
          "name:fur": "Bras√Æl",
          "name:gag": "Braziliya",
          "name:gan": "Â∑¥Ë•ø",
          "name:glk": "ÿ®ÿ±ÿ≤ŸäŸÑ",
          "name:gom": "‡§¨‡•ç‡§∞‡§æ‡§ù‡•Ä‡§≤",
          "name:got": "êå±êå±êçÇêå±êçÇêå∞êå±êçÇêå∞êå∂êå±êçÇêå∞êå∂êåπêå±êçÇêå∞êå∂êåπêåª",
          "name:hak": "P√¢-s√Æ",
          "name:haw": "Palakila",
          "name:hif": "Brazil",
          "name:hsb": "Brazilska",
          "name:ilo": "Brasil",
          "name:jam": "Brazil",
          "name:jbo": "razgu'e",
          "name:kaa": "Braziliya",
          "name:kab": "Brazil",
          "name:kbd": "–ë—Ä–∞–∑–∏–ª",
          "name:kbp": "Piresiili",
          "name:krc": "–ë—Ä–∞–∑–∏–ª–∏—è",
          "name:ksh": "Brasilije",
          "name:lad": "Brasil",
          "name:lez": "–ë—Ä–∞–∑–∏–ª–∏—è",
          "name:lij": "Brax√Æ",
          "name:lmo": "Brasil",
          "name:lrc": "ÿ®ÿ±ÿ≤ŸäŸÑ",
          "name:ltg": "Brazileja",
          "name:lzh": "Â∑¥Ë•ø",
          "name:mai": "‡§¨‡•ç‡§∞‡§æ‡§ú‡§ø‡§≤",
          "name:mdf": "–ë—Ä–∞–∑–∏–ª–∏–µ",
          "name:mhr": "–ë—Ä–∞–∑–∏–ª–∏–π",
          "name:min": "Brasil",
          "name:mrj": "–ë—Ä–∞–∑–∏–ª–∏",
          "name:mwl": "Brasil",
          "name:myv": "–ë—Ä–∞–∑–∏–ª–∏—è",
          "name:mzn": "ÿ®ÿ±ÿ≤€åŸÑ",
          "name:nah": "Brasil",
          "name:nan": "Pa-se",
          "name:nap": "Brasile",
          "name:nds": "Brasilien",
          "name:new": "‡§¨‡•ç‡§∞‡§æ‡§ú‡§ø‡§≤",
          "name:nov": "Brasilia",
          "name:nrm": "Br√©si",
          "name:nso": "Brazil",
          "name:olo": "Braziilii",
          "name:pag": "Brazil",
          "name:pam": "Brazil",
          "name:pap": "Brazil",
          "name:pcd": "Br√©sil",
          "name:pdc": "Brasilien",
          "name:pfl": "Brasilje",
          "name:pih": "Bresel",
          "name:pms": "Brasil",
          "name:pnb": "ÿ®ÿ±ÿßÿ≤€åŸÑ",
          "name:rmy": "Brazil",
          "name:rue": "–ë—Ä–∞–∑—ñ–ª—ñ—è",
          "name:sah": "–ë—Ä–∞–∑–∏–ª–∏—è",
          "name:scn": "Brasili",
          "name:sco": "Brazil",
          "name:smn": "Brasilia",
          "name:sms": "Brasilia",
          "name:srn": "Brasilkondre",
          "name:stq": "Brasilien",
          "name:szl": "Brazylij≈è",
          "name:tet": "Braz√≠l",
          "name:tok": "ma Pasila",
          "name:tpi": "Brasil",
          "name:tum": "Brazil",
          "name:tyv": "–ë—Ä–∞–∑–∏–ª–∏—è",
          "name:tzl": "Brasil",
          "name:vec": "Braxil",
          "name:vep": "Brazilii",
          "name:vls": "Brazili√´",
          "name:vro": "Brasiilia",
          "name:war": "Brasil",
          "name:wuu": "Â∑¥Ë•ø",
          "name:xal": "–ë—Ä–∞–∑–∏–ª–º—É–¥–∏–Ω",
          "name:xmf": "·Éë·É†·Éê·Éñ·Éò·Éö·Éò·Éê",
          "name:yue": "Â∑¥Ë•ø",
          "name:zea": "Brezili√´",
          "way_area": "728.951",
          "wikidata": "Q155",
          "ISO3166-1": "BR",
          "wikipedia": "pt:Brasil",
          "admin_level": "2",
          "alt_name:fo": "Brasil",
          "alt_name:gd": "Brasil",
          "alt_name:hi": "‡§¨‡•ç‡§∞‡§æ‡§ú‡§º‡•Ä‡§≤",
          "alt_name:ie": "Brazil",
          "alt_name:vi": "Brazil;Bra-xin",
          "name:nds-nl": "Brazili√´",
          "old_name:vi": "Ba T√¢y",
          "alt_name:csb": "Brazyl√´j√¥",
          "alt_name:nan": "Peh-laÃçt-se-n√≠",
          "driving_side": "right",
          "name:bat-smg": "Brazilƒójƒó",
          "name:cbk-zam": "Brasil",
          "name:map-bms": "Brasil",
          "name:zh-Hans": "Â∑¥Ë•ø",
          "name:zh-Hant": "Â∑¥Ë•ø",
          "name:roa-tara": "Brasile",
          "official_name": "Rep√∫blica Federativa do Brasil",
          "name:be-tarask": "–ë—Ä–∞–∑—ãÃÅ–ª—ñ—è",
          "ISO3166-1:alpha2": "BR",
          "ISO3166-1:alpha3": "BRA",
          "default_language": "pt",
          "official_name:af": "Federale Republiek Brasili√´",
          "official_name:am": "·ã®·â•·à´·ãö·àç ·çå·ã¥·à´·àã·ãä ·à™·çê·â•·àä·ä≠",
          "official_name:an": "Rep√∫blica Federativa do Brasil",
          "official_name:ar": "ÿ¨ŸèŸÖŸíŸáŸèŸàÿ±ŸêŸäŸéŸëÿ© ÿßŸÑÿ®Ÿéÿ±Ÿéÿßÿ≤ŸêŸäŸÑ ÿßŸÑÿßÿ™ŸêŸëÿ≠ÿßÿØŸêŸäŸéŸëÿ©",
          "official_name:as": "‡¶´‡ßá‡¶°‡¶æ‡ß∞‡ßá‡¶ü‡¶ø‡¶≠ ‡ß∞‡¶ø‡¶™‡¶æ‡¶¨‡ßç‡¶≤‡¶ø‡¶ï ‡¶Ö‡¶´‡ßç ‡¶¨‡ßç‡ß∞‡¶æ‡¶ú‡¶ø‡¶≤",
          "official_name:ay": "Tantasqa Republika Wrasil",
          "official_name:az": "Braziliya Federativ Respublikasƒ±",
          "official_name:ba": "–ë—Ä–∞–∑–∏ÃÅ–ª–∏—è –§–µ–¥–µ—Ä–∞—Ç–∏ÃÅ–≤ –†–µ—Å–ø—É–±–ª–∏–∫–∞ÃÅ“ª—ã",
          "official_name:be": "–§–µ–¥—ç—Ä–∞—Ç—ãÃÅ—û–Ω–∞—è –†—ç—Å–ø—ÉÃÅ–±–ª—ñ–∫–∞ –ë—Ä–∞–∑—ñÃÅ–ª—ñ—è",
          "official_name:bg": "–§–µ–¥–µ—Ä–∞—Ç–∏–≤–Ω–∞ —Ä–µ–ø—É–±–ª–∏–∫–∞ –ë—Ä–∞–∑–∏–ª–∏—è",
          "official_name:bn": "‡¶∏‡¶Ç‡¶Ø‡ßÅ‡¶ï‡ßç‡¶§ ‡¶™‡ßç‡¶∞‡¶ú‡¶æ‡¶§‡¶®‡ßç‡¶§‡ßç‡¶∞‡ßÄ ‡¶¨‡ßç‡¶∞‡¶æ‡¶ú‡¶ø‡¶≤",
          "official_name:br": "Republik Kevreel Brazil",
          "official_name:bs": "Federativna republika Brazil",
          "official_name:ca": "Rep√∫blica Federal del Brasil",
          "official_name:ce": "–§–µ–¥–µ—Ä–∞—Ç–∏ÃÅ–≤–Ω–∏ –†–µ—Å–ø—ÉÃÅ–±–ª–∏–∫–∞ –ë—Ä–∞–∑–∏ÃÅ–ª–∏",
          "official_name:co": "Republica Federale di u Brasile",
          "official_name:cs": "Brazilsk√° federativn√≠ republika",
          "official_name:cu": "–ë—Ä–∞ÍôÅ—ñÃÅ–ª—å—Å–∫–∞ –°—ä–≤—´ÃÅÍôÅ—å–Ω–∞ –î–∏–º–æ–∫—Ä–∞—Ç—ñÃÅÍôó",
          "official_name:cv": "–ë—Ä–∞–∑–∏–ª–∏ –§–µ–¥–µ—Ä–∞—Ç–∏–≤–ªƒÉ –†–µ—Å–ø—É–±–ª–∏–∫–∏",
          "official_name:cy": "Gweriniaeth Ffederal Brasil",
          "official_name:da": "Den F√∏derative Republik Brasilien",
          "official_name:de": "F√∂derative Republik Brasilien",
          "official_name:el": "ŒüŒºŒøœÉœÄŒøŒΩŒ¥ŒπŒ±Œ∫ŒÆ ŒîŒ∑ŒºŒøŒ∫œÅŒ±œÑŒØŒ± œÑŒ∑œÇ ŒíœÅŒ±Œ∂ŒπŒªŒØŒ±œÇ",
          "official_name:en": "Federative Republic of Brazil",
          "official_name:eo": "Federacia Respubliko Brazilo",
          "official_name:es": "Rep√∫blica Federativa de Brasil",
          "official_name:et": "Brasiilia Liitvabariik",
          "official_name:eu": "Brasilgo Errepublika Federala",
          "official_name:fa": "ÿ¨ŸÖŸáŸàÿ±€å ŸÅÿØÿ±ÿßŸÑ ÿ®ÿ±ÿ≤€åŸÑ",
          "official_name:fi": "Brasilian liittotasavalta",
          "official_name:fo": "Samveldis L√Ω√∞veldi√∞ Brasil",
          "official_name:fr": "R√©publique f√©d√©rative du Br√©sil",
          "official_name:fy": "Federative Republyk Brazylje",
          "official_name:ga": "Poblacht Ch√≥naidhmitheach na Brasa√≠le",
          "official_name:gl": "Rep√∫blica Federativa do Brasil",
          "official_name:gn": "Tet√£ Joaty Pindor√°ma",
          "official_name:gu": "‡™¨‡´ç‡™∞‡™æ‡™ù‡´Ä‡™≤‡™®‡´Å‡™Ç ‡™∏‡™Ç‡™ò‡´Ä‡™Ø ‡™ó‡™£‡™∞‡™æ‡™ú‡´ç‡™Ø",
          "official_name:gv": "Pobblaght Chonastagh ny Brasseel",
          "official_name:ha": "Jamhuriyar Brazil",
          "official_name:he": "◊î◊®◊§◊ï◊ë◊ú◊ô◊ß◊î ◊î◊§◊ì◊®◊ú◊ô◊™ ◊©◊ú ◊ë◊®◊ñ◊ô◊ú",
          "official_name:hi": "‡§¨‡•ç‡§∞‡§æ‡§ú‡§º‡•Ä‡§≤ ‡§ï‡§æ ‡§∏‡§Ç‡§ò‡•Ä‡§Ø ‡§ó‡§£‡§∞‡§æ‡§ú‡•ç‡§Ø",
          "official_name:hr": "Savezna Republika Brazil",
          "official_name:hu": "Brazil Sz√∂vets√©gi K√∂zt√°rsas√°g",
          "official_name:hy": "‘≤÷Ä’°’¶’´’¨’´’°’µ’´ ‘¥’°’∑’∂’°’µ’´’∂ ’Ä’°’∂÷Ä’°’∫’•’ø’∏÷Ç’©’µ’∏÷Ç’∂",
          "official_name:ia": "Republica Federative de Brasil",
          "official_name:id": "Republik Federal Brasil",
          "official_name:is": "Sambandsl√Ω√∞veldi√∞ Brasil√≠a",
          "official_name:it": "Repubblica Federale del Brasile",
          "official_name:ja": "„Éñ„É©„Ç∏„É´ÈÄ£ÈÇ¶ÂÖ±ÂíåÂõΩ",
          "official_name:jv": "R√©publik Federal Brasil",
          "official_name:ka": "·Éë·É†·Éê·Éñ·Éò·Éö·Éò·Éò·É° ·É§·Éî·Éì·Éî·É†·Éê·É™·Éò·É£·Éö·Éò ·É†·Éî·É°·Éû·É£·Éë·Éö·Éò·Éô·Éê",
          "official_name:kk": "–ë—Ä–∞–∑–∏–ª–∏—è –§–µ–¥–µ—Ä–∞—Ç–∏–≤—Ç—ñ–∫ –†–µ—Å–ø—É–±–ª–∏–∫–∞—Å—ã",
          "official_name:kl": "Kunngiitsuuffik Brazil",
          "official_name:km": "·ûü·û∂·ûí·û∂·ûö·ûé·ûö·ûä·üí·ûã‚Äã·ûü·û†·ûñ·üê·ûì·üí·ûí‚Äã·ûî·üí·ûö·üÅ·ûü·üä·û∏·ûõ",
          "official_name:kn": "‡≤¨‡≥ç‡≤∞‡≥Ü‡≤ú‡≤ø‡≤≤‡≥ç ‡≤∏‡≤Ç‡≤Ø‡≥Å‡≤ï‡≥ç‡≤§ ‡≤ó‡≤£‡≤∞‡≤æ‡≤ú‡≥ç‡≤Ø",
          "official_name:ko": "Î∏åÎùºÏßà Ïó∞Î∞© Í≥µÌôîÍµ≠",
          "official_name:ku": "Komara Federal a Braz√Æl√™",
          "official_name:kv": "–§–µ–¥–µ—Ä–∞—Ç–∏–≤ –ë—Ä–∞–∑–∏–ª–∏—è –†–µ—Å–ø—É–±–ª–∏–∫–∞",
          "official_name:ky": "–ë—Ä–∞–∑–∏–ª–∏—è –§–µ–¥–µ—Ä–∞—Ü–∏—è –†–µ—Å–ø—É–±–ª–∏–∫–∞—Å—ã",
          "official_name:la": "Respublica Foederativa Brasiliae",
          "official_name:li": "Federaol Rippubliek Brazili√´",
          "official_name:ln": "Republ√≠ki Fedelali ya Brazil",
          "official_name:lo": "‡∫™‡∫∞‡∫´‡∫∞‡∫û‡∫±‡∫ô‡∫™‡∫≤‡∫ó‡∫≤‡∫∞‡∫•‡∫∞‡∫ô‡∫∞‡∫•‡∫±‡∫î‡∫ö‡∫∞‡ªÄ‡∫£‡∫ä‡∫¥‡∫ô",
          "official_name:lt": "Brazilijos Federacinƒó Respublika",
          "official_name:lv": "Brazƒ´lijas Federatƒ´vƒÅ Republika",
          "official_name:mg": "Repoblika federalin'i Brazila",
          "official_name:mi": "Whenua T≈´ Wehe o Parƒ´hi",
          "official_name:mk": "–§–µ–¥–µ—Ä–∞—Ç–∏–≤–Ω–∞ –†–µ–ø—É–±–ª–∏–∫–∞ –ë—Ä–∞–∑–∏–ª",
          "official_name:ml": "‡¥´‡µÜ‡¥°‡¥±‡µá‡¥±‡µç‡¥±‡¥ø‡¥µ‡µç ‡¥±‡¥ø‡¥™‡µç‡¥™‡¥¨‡µç‡¥≤‡¥ø‡¥ï‡µç‡¥ï‡µç ‡¥ì‡¥´‡µç ‡¥¨‡µç‡¥∞‡¥∏‡µÄ‡µΩ",
          "official_name:mn": "–•–æ–ª–±–æ–æ–Ω—ã –ë“Ø–≥–¥ –ù–∞–π—Ä–∞–º–¥–∞—Ö –ë—Ä–∞–∑–∏–ª –£–ª—Å",
          "official_name:ms": "Republik Persekutuan Brazil",
          "official_name:mt": "Repubblika Federattiva tal-Bra≈ºil",
          "official_name:my": "·Äò·Äõ·Ä¨·Äá·ÄÆ·Ä∏ ·Äñ·ÄÄ·Ä∫·Äí·Äõ·Äö·Ä∫ ·Äû·Äô·Äπ·Äô·Äê·Äî·Ä≠·ÄØ·ÄÑ·Ä∫·ÄÑ·Ä∂",
          "official_name:ne": "‡§∏‡§Ç‡§ò‡•Ä‡§Ø ‡§ó‡§£‡§§‡§®‡•ç‡§§‡•ç‡§∞ ‡§¨‡•ç‡§∞‡§æ‡§ú‡§ø‡§≤",
          "official_name:nl": "Federale Republiek van Brazili√´",
          "official_name:no": "Forbundsrepublikken Brasil",
          "official_name:nv": "Kintaa ºan√©h√© Dine º√© Bik√©yah",
          "official_name:oc": "Republica Federala de Brasil",
          "official_name:os": "–§–µ–¥–µ—Ä–∞—Ç–∏–≤–æ–Ω –†–µ—Å–ø—É–±–ª–∏–∫√¶ –ë—Ä–∞–∑–∏–ª–∏",
          "official_name:pa": "‡®¨‡©ç‡®∞‡®æ‡®ú‡®º‡©Ä‡®≤ ‡®¶‡®æ ‡®∏‡©∞‡®ò‡©Ä ‡®ó‡®£‡®∞‡®æ‡®ú",
          "official_name:pl": "Federacyjna Republika Brazylii",
          "official_name:ps": "ÿØ ÿ®ÿ±ÿßÿ≤€åŸÑ ŸÅÿØÿ±ÿßÿ™€åŸÅ ŸàŸÑÿ≥ŸÖÿ¥ÿ±€åÿ≤Ÿá",
          "official_name:pt": "Rep√∫blica Federativa do Brasil",
          "official_name:qu": "Brasil Tantasqa Ripuwlika",
          "official_name:rm": "Republica federal da Brasilia",
          "official_name:ro": "Republica FederativƒÉ a Braziliei",
          "official_name:ru": "–§–µ–¥–µ—Ä–∞—Ç–∏–≤–Ω–∞—è –†–µ—Å–ø—É–±–ª–∏–∫–∞ –ë—Ä–∞–∑–∏–ª–∏—è",
          "official_name:sd": "ŸàŸÅÿßŸÇŸä ÿ¨ŸÖŸáŸàÿ±ŸäŸá ÿ®ÿ±ÿßÿ≤ŸäŸÑ",
          "official_name:se": "Brasilia lihttod√°ssev√°ldi",
          "official_name:sh": "Federativna Republika Brazil",
          "official_name:si": "‡∂∂‡∑ä‡∂ª‡∑É‡∑í‡∂Ω ‡∑É‡∂∏‡∑î‡∑Ñ‡∑è‡∂´‡∑ä‡∂©‡∑î ‡∑É‡∂Ç‡∑Ä‡∑í‡∂∞‡∑è‡∂±‡∂∫",
          "official_name:sk": "Braz√≠lska federat√≠vna republika",
          "official_name:sl": "Federativna republika Brazilija",
          "official_name:sm": "Ripapelika feterale o Pasila",
          "official_name:sq": "Republika Federative e Brazilit",
          "official_name:sr": "–°–∞–≤–µ–∑–Ω–∞ –†–µ–ø—É–±–ª–∏–∫–∞ –ë—Ä–∞–∑–∏–ª",
          "official_name:su": "R√©publik F√©derasi Brasil",
          "official_name:sv": "F√∂rbundsrepubliken Brasilien",
          "official_name:sw": "Shirikisho la Jamhuri ya Brazil",
          "official_name:ta": "‡Æ™‡Æø‡Æ∞‡Øá‡Æö‡Æø‡Æ≤‡Øç ‡Æï‡ØÇ‡Æü‡Øç‡Æü‡Ææ‡Æü‡Øç‡Æö‡Æø‡Æï‡Øç ‡Æï‡ØÅ‡Æü‡Æø‡ÆØ‡Æ∞‡Æö‡ØÅ",
          "official_name:te": "‡∞´‡±Ü‡∞°‡∞∞‡±á‡∞ü‡∞ø‡∞µ‡±ç ‡∞∞‡∞ø‡∞™‡∞¨‡±ç‡∞≤‡∞ø‡∞ï‡±ç ‡∞Ü‡∞´‡±ç ‡∞¨‡±ç‡∞∞‡±Ü‡∞ú‡∞ø‡∞≤‡±ç",
          "official_name:th": "‡∏™‡∏´‡∏û‡∏±‡∏ô‡∏ò‡πå‡∏™‡∏≤‡∏ò‡∏≤‡∏£‡∏ì‡∏£‡∏±‡∏ê‡∏ö‡∏£‡∏≤‡∏ã‡∏¥‡∏•",
          "official_name:tk": "Brazili√Ωa Federatiw Respublikasy",
          "official_name:tl": "Pederatibong Republika ng Brasil",
          "official_name:tr": "Brezilya Federal Cumhuriyeti",
          "official_name:tt": "–ë—Ä–∞–∑–∏ÃÅ–ª–∏—è –§–µ–¥–µ—Ä–∞—Ç–∏ÃÅ–≤ –†–µ—Å–ø—ÉÃÅ–±–ª–∏–∫–∞—Å—ã",
          "official_name:uk": "–§–µ–¥–µ—Ä–∞—Ç–∏ÃÅ–≤–Ω–∞ –†–µ—Å–ø—ÉÃÅ–±–ª—ñ–∫–∞ –ë—Ä–∞–∑–∏ÃÅ–ª—ñ—è",
          "official_name:ur": "ŸàŸÅÿßŸÇ€å ÿ¨ŸÖ€ÅŸàÿ±€å€Å ÿ®ÿ±ÿßÿ≤€åŸÑ",
          "official_name:uz": "Braziliya Federativ Respublikasi",
          "official_name:vi": "C·ªông h√≤a Li√™n bang Brasil",
          "official_name:wo": "R√©ewum Breesil",
          "official_name:yi": "◊§÷ø◊¢◊ì◊¢◊®◊ê÷∑◊ò◊ô◊∞◊¢ ◊®◊¢◊§◊ï◊ë◊ú◊ô◊ß ◊§÷ø◊ï◊ü ◊ë◊®◊ê÷∑◊ñ◊ô◊ú",
          "official_name:yo": "Or√≠l·∫πÃÄ-√®d√® Ol√≥m√¨nira Aparap·ªçÃÄ il·∫πÃÄ Br√†s√≠l",
          "official_name:za": "Bahsih Lienzbangh Gunghozgoz",
          "official_name:zh": "Â∑¥Ë•øËÅîÈÇ¶ÂÖ±ÂíåÂõΩ / Â∑¥Ë•øËÅØÈÇ¶ÂÖ±ÂíåÂúã",
          "ISO3166-1:numeric": "076",
          "official_name:als": "F√∂derative Republik Brasilien",
          "official_name:arc": "‹©‹ò‹õ‹¢‹ù‹ò‹¨‹ê ‹¶‹ï‹™‹†‹ù‹¨‹ê ‹ï‹í‹™‹ê‹ô‹ù‹†",
          "official_name:arz": "ÿ¨ŸÖŸáŸàÿ±Ÿäÿ© ÿßŸÑÿ®ÿ±ÿßÿ≤ŸäŸÑ ÿßŸÑÿßÿ™ÿ≠ÿßÿØŸäŸá",
          "official_name:ast": "Rep√∫blica Federativa do Brasil",
          "official_name:azb": "ÿ®ÿ±ÿ≤€åŸÑ ŸÅÿØÿ±ÿßÿ™€åŸà ÿ¨ŸàŸÖŸáŸàÿ±€åÿ™€å",
          "official_name:bpy": "‡¶ï‡ßá‡¶®‡ßç‡¶¶‡ßç‡¶∞‡ßÄ‡¶Ø‡¶º ‡¶™‡ßç‡¶∞‡¶ú‡¶æ‡¶§‡¶®‡ßç‡¶§‡ßç‡¶∞‡¶ø ‡¶¨‡ßç‡¶∞‡¶æ‡¶ú‡¶ø‡¶≤",
          "official_name:bxr": "–•–æ–ª–±–æ–æ–Ω–æ–π –ë“Ø–≥—ç–¥—ç –ù–∞–π—Ä–∞–º–¥–∞—Ö–∞ –ë—Ä–∞–∑–∏–ª –£–ª–∞—Å",
          "official_name:ceb": "Pederatibong Republika sa Brasil",
          "official_name:chr": "·é†·è∞·èü ·èç·é¶·èö·é© ·éæ·éø ·èÜ·èè·éµ",
          "official_name:ckb": "⁄©€ÜŸÖÿßÿ±€å ŸÅ€åÿØÿ±ÿß⁄µ€å ÿ®€ï⁄ïÿßÿ≤€åŸÑ",
          "official_name:crh": "Brazil Federativ Cumhuriyeti",
          "official_name:diq": "Cumhuriyet√™ Breziyayo Federal",
          "official_name:dsb": "Brazilska federatiwna republika",
          "official_name:dty": "‡§∏‡§Ç‡§ò‡•Ä‡§Ø ‡§ó‡§£‡§§‡§®‡•ç‡§§‡•ç‡§∞ ‡§¨‡•ç‡§∞‡§æ‡§ú‡§ø‡§≤",
          "official_name:eml": "Repubblica Federativa del Brasile",
          "official_name:ext": "Rep√∫brica Federativa del Brasil",
          "official_name:frr": "F√∂√∂deratiif Republiik faan Brasiilien",
          "official_name:gag": "Braziliya Federal Respublikasƒ±",
          "official_name:gan": "Â∑¥Ë•øËÅØÈÇ¶ÂÖ±ÂíåÂúã",
          "official_name:hsb": "Brazilska federatiwna republika",
          "official_name:ilo": "Pederatibo a Republika ti Brasil",
          "official_name:jbo": "razgu'e gumgu'e gubyseltru",
          "official_name:kbd": "–§–µ–¥–µ—Ä–∞—Ü–∏—ç–º –†–µ—Å–ø—É–±–ª–∏–∫—ç –ë—Ä–∞–∑–∏–ª",
          "official_name:krc": "–§–µ–¥–µ—Ä–∞—Ç–∏–≤ –ë—Ä–∞–∑–∏–ª–∏—è –†–µ—Å–ø—É–±–ª–∏–∫–∞",
          "official_name:lad": "Republika Federala del Brasil",
          "official_name:lez": "–ë—Ä–∞–∑–∏–ª–∏—è –§–µ–¥–µ—Ä–∞—Ç–∏–≤–¥–∏–Ω –†–µ—Å–ø—É–±–ª–∏–∫–∞",
          "official_name:lmo": "Rep√∫blica Federativa do Brasil",
          "official_name:lrc": "⁄©ŸàŸÖÿ±Ÿá ŸàŸÑÿßÿ™ ŸÅÿØÿ±ÿßÿ™€åŸà ÿ®ÿ±ÿ≤€åŸÑ",
          "official_name:ltg": "Brazilejis Federativuo Republika",
          "official_name:lzh": "Â∑¥Ë•øËÅØÈÇ¶ÂÖ±ÂíåÂúã",
          "official_name:mai": "‡§∏‡§ô‡•ç‡§ò‡•Ä‡§Ø ‡§ó‡§£‡§§‡§®‡•ç‡§§‡•ç‡§∞ ‡§¨‡•ç‡§∞‡§æ‡§ú‡§ø‡§≤",
          "official_name:min": "Rep√∫blica Federativa do Brasil",
          "official_name:mwl": "Rep√∫blica Federativa do Brasil",
          "official_name:myv": "–§–µ–¥–µ—Ä–∞—Ç–∏ÃÅ–≤–Ω–∞—è –†–µ—Å–ø—ÉÃÅ–±–ª–∏–∫–∞ –ë—Ä–∞–∑–∏ÃÅ–ª–∏—è",
          "official_name:mzn": "ÿ®ÿ±ÿ≤€åŸÑ ŸÅÿØÿ±ÿßÿ™€åŸà ÿ¨ŸÖŸáŸàÿ±€å",
          "official_name:nah": "Nenahuatiliztlacatlahtohcayotl Brasil",
          "official_name:nan": "Pa-se Li√¢n-pang Ki≈çng-h√¥-kok",
          "official_name:nap": "Repubbreca Federativa d'o Brasile",
          "official_name:nds": "Bundsrepubliek Brasilien",
          "official_name:olo": "Braziilien federatiivine tazavaldu",
          "official_name:pag": "Federative Republic na Brazil",
          "official_name:pam": "Federatibung Republica ning Brazil",
          "official_name:pap": "Rep√∫blika Federativa di Brazil",
          "official_name:pcd": "R√©publike f√©d√©rative du Br√©sil",
          "official_name:pdc": "Bunnes-Republik Brasilien",
          "official_name:pfl": "Federadivi Republik Brasilje",
          "official_name:pih": "Federativii Repablik o' Bresel",
          "official_name:rmy": "Federalni Republika la Braziliyaki",
          "official_name:rue": "–ë—Ä–∞–∑—ñ–ª—å—Å–∫–∞ —Ñ–µ–¥–µ—Ä–∞—Ç—ñ–≤–Ω–∞ —Ä–µ–ø—É–±–ª—ñ–∫–∞",
          "official_name:sah": "–ë—Ä–∞–∑–∏–ª–∏—è –§–µ–¥–µ—Ä–∞—Ç–∏–≤ –†–µ—Å–ø—É–±–ª–∏–∫–∞—Ç–∞",
          "official_name:sco": "Federative Republic o Brazil",
          "official_name:srn": "Ripoliku Brasilkondre",
          "official_name:tet": "Rep√∫blika Federativa Braz√≠l nian",
          "official_name:tyv": "–§–µ–¥–µ—Ä–∞—Ç–∏–≤—Ç–∏–≥ –ë—Ä–∞–∑–∏–ª–∏—è –†–µ—Å–ø—É–±–ª–∏–∫–∞–∑—ã",
          "official_name:vec": "Rep√πblica Federa≈Çe de Braxil",
          "official_name:vep": "Brazilijan Federativine Tazovaldkund",
          "official_name:vls": "Federoale Republiek Brazili√´",
          "official_name:vro": "Brasiilia Vabariik",
          "official_name:war": "Republika Federativa han Brasil",
          "official_name:wuu": "Â∑¥Ë•øËÅîÈÇ¶ÂÖ±ÂíåÂõΩ",
          "official_name:xal": "–ù–∏–∏—Ü”ô—Ç”ô –ë—Ä–∞–∑–∏–ª–º—É–¥–∏–Ω –û—Ä–Ω",
          "official_name:yue": "Â∑¥Ë•øËÅØÈÇ¶ÂÖ±ÂíåÂúã",
          "official_name:nds-nl": "Federale Reppubliek Brazili√´",
          "official_name:cbk-zam": "Republica Federativa del Brazil",
          "official_name:zh-Hans": "Â∑¥Ë•øËÅîÈÇ¶ÂÖ±ÂíåÂõΩ",
          "official_name:zh-Hant": "Â∑¥Ë•øËÅØÈÇ¶ÂÖ±ÂíåÂúã",
          "official_name:roa-tara": "Repubbleche Federative d'u Brasile"
        }
      },
      "geometry": {
        "type": "Polygon",
        "coordinates": [
          [
            [
              -73.67882326031491,
              -8
            ],
            [
              -73.6784902,
              -8.0003457
            ],
            [
              -73.6784902,
              -8.0007481
            ],
            [
              -73.6780312,
              -8.0016075
            ],
            [
              -73.6766972,
              -8.0033829
            ],
            [
              -73.676293,
              -8.0043575
            ],
            [
              -73.6757735,
              -8.0051016
            ],
            [
              -73.6749647,
              -8.005787
            ],
            [
              -73.6733476,
              -8.0062989
            ],
            [
              -73.6719062,
              -8.0073281
            ],
            [
              -73.6702605,
              -8.0093444
            ],
            [
              -73.6688971,
              -8.0122939
            ],
            [
              -73.668023,
              -8.0131481
            ],
            [
              -73.6676889,
              -8.0133265
            ],
            [
              -73.6669312,
              -8.013371
            ],
            [
              -73.6665079,
              -8.0131259
            ],
            [
              -73.6656166,
              -8.0119226
            ],
            [
              -73.6649927,
              -8.0095831
            ],
            [
              -73.6646362,
              -8.0094049
            ],
            [
              -73.6639677,
              -8.0097836
            ],
            [
              -73.663146,
              -8.0118324
            ],
            [
              -73.6626309,
              -8.0121677
            ],
            [
              -73.6587301,
              -8.0127574
            ],
            [
              -73.653426,
              -8.0130802
            ],
            [
              -73.6492289,
              -8.0109586
            ],
            [
              -73.6472595,
              -8.0105899
            ],
            [
              -73.6454007,
              -8.009575
            ],
            [
              -73.6436481,
              -8.0090676
            ],
            [
              -73.642818,
              -8.0086525
            ],
            [
              -73.6406742,
              -8.006686
            ],
            [
              -73.6400475,
              -8.0064669
            ],
            [
              -73.6392485,
              -8.0065295
            ],
            [
              -73.6385286,
              -8.0071305
            ],
            [
              -73.6382057,
              -8.0078225
            ],
            [
              -73.6373294,
              -8.0087909
            ],
            [
              -73.6358074,
              -8.0096211
            ],
            [
              -73.6345269,
              -8.0106616
            ],
            [
              -73.6338806,
              -8.0115036
            ],
            [
              -73.6334551,
              -8.0124346
            ],
            [
              -73.6332707,
              -8.013357
            ],
            [
              -73.6332707,
              -8.0143716
            ],
            [
              -73.6335474,
              -8.015248
            ],
            [
              -73.6335012,
              -8.0161705
            ],
            [
              -73.6332707,
              -8.0166777
            ],
            [
              -73.6321574,
              -8.0174179
            ],
            [
              -73.6318636,
              -8.0177899
            ],
            [
              -73.6312874,
              -8.019076
            ],
            [
              -73.6307745,
              -8.0222307
            ],
            [
              -73.6304584,
              -8.0227799
            ],
            [
              -73.6300256,
              -8.0230961
            ],
            [
              -73.6296262,
              -8.0231294
            ],
            [
              -73.6283449,
              -8.0222974
            ],
            [
              -73.6266476,
              -8.0215984
            ],
            [
              -73.6255326,
              -8.0221475
            ],
            [
              -73.6245009,
              -8.0229464
            ],
            [
              -73.624218,
              -8.0231959
            ],
            [
              -73.6239019,
              -8.0238616
            ],
            [
              -73.6234795,
              -8.0255465
            ],
            [
              -73.6226475,
              -8.0273561
            ],
            [
              -73.6220169,
              -8.0293152
            ],
            [
              -73.6211867,
              -8.0301914
            ],
            [
              -73.6189729,
              -8.031483
            ],
            [
              -73.6168512,
              -8.0342502
            ],
            [
              -73.6166667,
              -8.0350805
            ],
            [
              -73.616759,
              -8.0388164
            ],
            [
              -73.6173585,
              -8.0397389
            ],
            [
              -73.6204845,
              -8.0420566
            ],
            [
              -73.6215741,
              -8.0435527
            ],
            [
              -73.6227715,
              -8.0461386
            ],
            [
              -73.623748,
              -8.0477501
            ],
            [
              -73.6259646,
              -8.0497487
            ],
            [
              -73.6259646,
              -8.0508297
            ],
            [
              -73.6261809,
              -8.0524152
            ],
            [
              -73.6265411,
              -8.0536404
            ],
            [
              -73.6266132,
              -8.0552979
            ],
            [
              -73.6262529,
              -8.0574597
            ],
            [
              -73.6255322,
              -8.0590452
            ],
            [
              -73.6242351,
              -8.0604145
            ],
            [
              -73.6223614,
              -8.0616396
            ],
            [
              -73.6216407,
              -8.0625765
            ],
            [
              -73.6213525,
              -8.0636575
            ],
            [
              -73.6199832,
              -8.0662519
            ],
            [
              -73.618686,
              -8.0674049
            ],
            [
              -73.6171726,
              -8.0682696
            ],
            [
              -73.616524,
              -8.0690624
            ],
            [
              -73.6158755,
              -8.0716567
            ],
            [
              -73.6124162,
              -8.0761969
            ],
            [
              -73.612272,
              -8.0774942
            ],
            [
              -73.6104705,
              -8.0805209
            ],
            [
              -73.6090292,
              -8.0836917
            ],
            [
              -73.608813,
              -8.0849169
            ],
            [
              -73.6092454,
              -8.087956
            ],
            [
              -73.6091426,
              -8.0892894
            ],
            [
              -73.6089499,
              -8.0897607
            ],
            [
              -73.6064646,
              -8.0927815
            ],
            [
              -73.6040221,
              -8.0943029
            ],
            [
              -73.6031437,
              -8.0953525
            ],
            [
              -73.6027896,
              -8.0963782
            ],
            [
              -73.6023079,
              -8.1008379
            ],
            [
              -73.6007827,
              -8.1036247
            ],
            [
              -73.5999541,
              -8.104265
            ],
            [
              -73.5979394,
              -8.1049617
            ],
            [
              -73.5939097,
              -8.1075602
            ],
            [
              -73.5903555,
              -8.1116914
            ],
            [
              -73.589836,
              -8.1125489
            ],
            [
              -73.5896601,
              -8.1130077
            ],
            [
              -73.589389,
              -8.1172676
            ],
            [
              -73.5889702,
              -8.1196197
            ],
            [
              -73.5867991,
              -8.123123
            ],
            [
              -73.5847722,
              -8.1268389
            ],
            [
              -73.5844711,
              -8.1286785
            ],
            [
              -73.584906,
              -8.1351127
            ],
            [
              -73.5855606,
              -8.136422
            ],
            [
              -73.5889386,
              -8.1410269
            ],
            [
              -73.5897269,
              -8.1426032
            ],
            [
              -73.590275,
              -8.1444939
            ],
            [
              -73.5906039,
              -8.1485052
            ],
            [
              -73.5904722,
              -8.1492285
            ],
            [
              -73.5895846,
              -8.1506094
            ],
            [
              -73.5892557,
              -8.1514314
            ],
            [
              -73.5888941,
              -8.1529109
            ],
            [
              -73.588927,
              -8.1537001
            ],
            [
              -73.5896317,
              -8.1550075
            ],
            [
              -73.5929261,
              -8.1573829
            ],
            [
              -73.5940185,
              -8.1585966
            ],
            [
              -73.5953361,
              -8.1619775
            ],
            [
              -73.5956947,
              -8.1645609
            ],
            [
              -73.5954696,
              -8.1657995
            ],
            [
              -73.593055,
              -8.1696946
            ],
            [
              -73.5929647,
              -8.1723671
            ],
            [
              -73.5927344,
              -8.1732265
            ],
            [
              -73.5921484,
              -8.1746015
            ],
            [
              -73.5912851,
              -8.1758632
            ],
            [
              -73.5899511,
              -8.1785547
            ],
            [
              -73.5897754,
              -8.1793007
            ],
            [
              -73.5897989,
              -8.1889434
            ],
            [
              -73.5896152,
              -8.1914669
            ],
            [
              -73.5893787,
              -8.1925
            ],
            [
              -73.5894317,
              -8.1948516
            ],
            [
              -73.5887909,
              -8.1969746
            ],
            [
              -73.5873417,
              -8.1997246
            ],
            [
              -73.5864101,
              -8.2007559
            ],
            [
              -73.5842206,
              -8.2018379
            ],
            [
              -73.5799492,
              -8.2050937
            ],
            [
              -73.5787364,
              -8.2062382
            ],
            [
              -73.576127,
              -8.2099024
            ],
            [
              -73.5746231,
              -8.2123632
            ],
            [
              -73.5737461,
              -8.2146562
            ],
            [
              -73.5730506,
              -8.2158027
            ],
            [
              -73.5720605,
              -8.2185547
            ],
            [
              -73.571541,
              -8.2206172
            ],
            [
              -73.5714121,
              -8.2236601
            ],
            [
              -73.5714649,
              -8.2246369
            ],
            [
              -73.5720371,
              -8.2254414
            ],
            [
              -73.57267,
              -8.2260742
            ],
            [
              -73.5745079,
              -8.2272871
            ],
            [
              -73.577041,
              -8.2286152
            ],
            [
              -73.5795742,
              -8.2291406
            ],
            [
              -73.5814746,
              -8.2297794
            ],
            [
              -73.5839454,
              -8.2312812
            ],
            [
              -73.5852051,
              -8.2331211
            ],
            [
              -73.5874872,
              -8.2380385
            ],
            [
              -73.5877896,
              -8.2396514
            ],
            [
              -73.5873864,
              -8.240861
            ],
            [
              -73.5801286,
              -8.2440866
            ],
            [
              -73.5773062,
              -8.2450946
            ],
            [
              -73.5746854,
              -8.2452962
            ],
            [
              -73.569242,
              -8.2447922
            ],
            [
              -73.566722,
              -8.2447922
            ],
            [
              -73.5649075,
              -8.244893
            ],
            [
              -73.5629922,
              -8.2454979
            ],
            [
              -73.5574192,
              -8.2494219
            ],
            [
              -73.5549582,
              -8.2536056
            ],
            [
              -73.552005,
              -8.2565587
            ],
            [
              -73.5478214,
              -8.2592659
            ],
            [
              -73.544622,
              -8.2609885
            ],
            [
              -73.5419149,
              -8.2629574
            ],
            [
              -73.539454,
              -8.2654184
            ],
            [
              -73.5367469,
              -8.2659105
            ],
            [
              -73.5325631,
              -8.2664027
            ],
            [
              -73.5293639,
              -8.2673871
            ],
            [
              -73.5266567,
              -8.269848
            ],
            [
              -73.526262,
              -8.2707857
            ],
            [
              -73.5260021,
              -8.2743594
            ],
            [
              -73.5265219,
              -8.2757887
            ],
            [
              -73.5266519,
              -8.2766334
            ],
            [
              -73.5275615,
              -8.2779329
            ],
            [
              -73.5279514,
              -8.2798821
            ],
            [
              -73.5279514,
              -8.2806617
            ],
            [
              -73.5286011,
              -8.2828709
            ],
            [
              -73.5299006,
              -8.28521
            ],
            [
              -73.5333789,
              -8.2878614
            ],
            [
              -73.5348731,
              -8.2894746
            ],
            [
              -73.5363007,
              -8.2924649
            ],
            [
              -73.5376134,
              -8.2967735
            ],
            [
              -73.537603,
              -8.2974035
            ],
            [
              -73.5365701,
              -8.2997275
            ],
            [
              -73.5355371,
              -8.3007087
            ],
            [
              -73.5346076,
              -8.3012251
            ],
            [
              -73.5338329,
              -8.3020515
            ],
            [
              -73.5329032,
              -8.3022581
            ],
            [
              -73.5321804,
              -8.3029295
            ],
            [
              -73.532077,
              -8.3041172
            ],
            [
              -73.5340395,
              -8.3065962
            ],
            [
              -73.5339879,
              -8.3071127
            ],
            [
              -73.5323352,
              -8.3090235
            ],
            [
              -73.5316121,
              -8.3103662
            ],
            [
              -73.5294947,
              -8.3115025
            ],
            [
              -73.5279454,
              -8.3126904
            ],
            [
              -73.5268092,
              -8.3143946
            ],
            [
              -73.5264994,
              -8.3157374
            ],
            [
              -73.5262717,
              -8.3185504
            ],
            [
              -73.5264331,
              -8.3211326
            ],
            [
              -73.527805,
              -8.3244411
            ],
            [
              -73.5297416,
              -8.3274269
            ],
            [
              -73.5303065,
              -8.3291214
            ],
            [
              -73.5315976,
              -8.3346086
            ],
            [
              -73.5321625,
              -8.3359805
            ],
            [
              -73.5330274,
              -8.3371641
            ],
            [
              -73.5375586,
              -8.3417677
            ],
            [
              -73.5390547,
              -8.3428086
            ],
            [
              -73.5401465,
              -8.3431581
            ],
            [
              -73.5412441,
              -8.3438496
            ],
            [
              -73.5418711,
              -8.3444257
            ],
            [
              -73.5422129,
              -8.3450586
            ],
            [
              -73.5424812,
              -8.3455769
            ],
            [
              -73.542906,
              -8.3475876
            ],
            [
              -73.5422597,
              -8.3496504
            ],
            [
              -73.5419082,
              -8.3502226
            ],
            [
              -73.5403516,
              -8.3513087
            ],
            [
              -73.5382695,
              -8.3523906
            ],
            [
              -73.5370566,
              -8.3527871
            ],
            [
              -73.5356777,
              -8.3530137
            ],
            [
              -73.5322715,
              -8.3542617
            ],
            [
              -73.530541,
              -8.3546016
            ],
            [
              -73.5279394,
              -8.3557382
            ],
            [
              -73.5256954,
              -8.3563047
            ],
            [
              -73.5251152,
              -8.3567031
            ],
            [
              -73.5218204,
              -8.3601347
            ],
            [
              -73.5211797,
              -8.3609356
            ],
            [
              -73.5205996,
              -8.3622539
            ],
            [
              -73.5200117,
              -8.3644902
            ],
            [
              -73.5198906,
              -8.3664981
            ],
            [
              -73.5195996,
              -8.367416
            ],
            [
              -73.5195917,
              -8.3685059
            ],
            [
              -73.520623,
              -8.3716094
            ],
            [
              -73.5206152,
              -8.3722989
            ],
            [
              -73.520332,
              -8.3726992
            ],
            [
              -73.5198674,
              -8.3729844
            ],
            [
              -73.5177325,
              -8.3733204
            ],
            [
              -73.515543,
              -8.3729687
            ],
            [
              -73.5145645,
              -8.3725625
            ],
            [
              -73.5128379,
              -8.3727285
            ],
            [
              -73.5119707,
              -8.3730117
            ],
            [
              -73.5096511,
              -8.3750467
            ],
            [
              -73.5075779,
              -8.3762175
            ],
            [
              -73.5012152,
              -8.3773639
            ],
            [
              -73.4987152,
              -8.3784614
            ],
            [
              -73.4964897,
              -8.3801686
            ],
            [
              -73.4941287,
              -8.3811504
            ],
            [
              -73.4884955,
              -8.3821746
            ],
            [
              -73.4852947,
              -8.3842231
            ],
            [
              -73.48171,
              -8.3893442
            ],
            [
              -73.4797895,
              -8.3915207
            ],
            [
              -73.4758206,
              -8.3935692
            ],
            [
              -73.472876,
              -8.3947215
            ],
            [
              -73.4710835,
              -8.3963859
            ],
            [
              -73.4690351,
              -8.3979222
            ],
            [
              -73.4671146,
              -8.3998426
            ],
            [
              -73.4657064,
              -8.4016351
            ],
            [
              -73.46417,
              -8.4045797
            ],
            [
              -73.4614814,
              -8.4071402
            ],
            [
              -73.4583281,
              -8.4085489
            ],
            [
              -73.4547421,
              -8.4116367
            ],
            [
              -73.4509815,
              -8.41661
            ],
            [
              -73.4478166,
              -8.4204781
            ],
            [
              -73.4450036,
              -8.4229396
            ],
            [
              -73.4413114,
              -8.4254011
            ],
            [
              -73.4383224,
              -8.4259286
            ],
            [
              -73.4351576,
              -8.4268076
            ],
            [
              -73.4305879,
              -8.4288652
            ],
            [
              -73.4264219,
              -8.4329805
            ],
            [
              -73.4246895,
              -8.4338965
            ],
            [
              -73.4216914,
              -8.4346895
            ],
            [
              -73.4197285,
              -8.4344454
            ],
            [
              -73.4162832,
              -8.4325957
            ],
            [
              -73.4130547,
              -8.4320137
            ],
            [
              -73.4092559,
              -8.4305059
            ],
            [
              -73.4077597,
              -8.4306094
            ],
            [
              -73.4067149,
              -8.431291
            ],
            [
              -73.4054492,
              -8.43267
            ],
            [
              -73.4038164,
              -8.4356485
            ],
            [
              -73.4001152,
              -8.4391856
            ],
            [
              -73.3994219,
              -8.440332
            ],
            [
              -73.3994141,
              -8.4418222
            ],
            [
              -73.4004434,
              -8.4429766
            ],
            [
              -73.4007871,
              -8.4443516
            ],
            [
              -73.400086,
              -8.4460762
            ],
            [
              -73.3991621,
              -8.4472227
            ],
            [
              -73.3985742,
              -8.4502012
            ],
            [
              -73.3956757,
              -8.4531739
            ],
            [
              -73.3920976,
              -8.4555645
            ],
            [
              -73.390586,
              -8.4578535
            ],
            [
              -73.3904649,
              -8.4599239
            ],
            [
              -73.3909082,
              -8.4642832
            ],
            [
              -73.390084,
              -8.4677246
            ],
            [
              -73.3891601,
              -8.4694414
            ],
            [
              -73.3881152,
              -8.4702402
            ],
            [
              -73.3858106,
              -8.4710351
            ],
            [
              -73.3835059,
              -8.4706855
            ],
            [
              -73.3814395,
              -8.4687226
            ],
            [
              -73.3797149,
              -8.4660742
            ],
            [
              -73.3779981,
              -8.4642325
            ],
            [
              -73.3770762,
              -8.4637656
            ],
            [
              -73.3761524,
              -8.4637617
            ],
            [
              -73.375,
              -8.4644454
            ],
            [
              -73.3743066,
              -8.4658242
            ],
            [
              -73.3735879,
              -8.4705235
            ],
            [
              -73.3731231,
              -8.4717891
            ],
            [
              -73.3716064,
              -8.4726516
            ],
            [
              -73.369509,
              -8.4729207
            ],
            [
              -73.367304,
              -8.472813
            ],
            [
              -73.3625174,
              -8.4703929
            ],
            [
              -73.3606889,
              -8.4702852
            ],
            [
              -73.3592906,
              -8.4704466
            ],
            [
              -73.355956,
              -8.4716299
            ],
            [
              -73.3535817,
              -8.4721816
            ],
            [
              -73.3473914,
              -8.4747951
            ],
            [
              -73.3453632,
              -8.4753151
            ],
            [
              -73.3434391,
              -8.4747691
            ],
            [
              -73.342113,
              -8.473729
            ],
            [
              -73.3405529,
              -8.4710509
            ],
            [
              -73.3397987,
              -8.4706347
            ],
            [
              -73.3364217,
              -8.4714757
            ],
            [
              -73.3332934,
              -8.4727352
            ],
            [
              -73.3318307,
              -8.4740354
            ],
            [
              -73.3309775,
              -8.4758636
            ],
            [
              -73.3306264,
              -8.4794046
            ],
            [
              -73.3308656,
              -8.480282
            ],
            [
              -73.3319006,
              -8.4815482
            ],
            [
              -73.3317981,
              -8.4822489
            ],
            [
              -73.3314851,
              -8.4827807
            ],
            [
              -73.3315165,
              -8.483125
            ],
            [
              -73.3317981,
              -8.4835317
            ],
            [
              -73.3324552,
              -8.4839699
            ],
            [
              -73.3325177,
              -8.4843454
            ],
            [
              -73.332182,
              -8.4852674
            ],
            [
              -73.3319425,
              -8.4868827
            ],
            [
              -73.3313232,
              -8.4892632
            ],
            [
              -73.3313014,
              -8.4904357
            ],
            [
              -73.3301279,
              -8.4925479
            ],
            [
              -73.3299324,
              -8.4932129
            ],
            [
              -73.329909,
              -8.4948422
            ],
            [
              -73.3296646,
              -8.4958814
            ],
            [
              -73.3287477,
              -8.4978982
            ],
            [
              -73.3287811,
              -8.4988026
            ],
            [
              -73.3296035,
              -8.5022987
            ],
            [
              -73.3293987,
              -8.5038969
            ],
            [
              -73.3285704,
              -8.5064864
            ],
            [
              -73.3285462,
              -8.5071832
            ],
            [
              -73.3286204,
              -8.5074425
            ],
            [
              -73.3298479,
              -8.508655
            ],
            [
              -73.330196,
              -8.5092037
            ],
            [
              -73.330564,
              -8.5099399
            ],
            [
              -73.3307569,
              -8.5114121
            ],
            [
              -73.3300084,
              -8.5139951
            ],
            [
              -73.3289999,
              -8.515187
            ],
            [
              -73.3287707,
              -8.515737
            ],
            [
              -73.328679,
              -8.517158
            ],
            [
              -73.3291335,
              -8.5188569
            ],
            [
              -73.3292774,
              -8.5201097
            ],
            [
              -73.3288134,
              -8.5230622
            ],
            [
              -73.3290065,
              -8.5240467
            ],
            [
              -73.3297979,
              -8.5253015
            ],
            [
              -73.3316704,
              -8.5281199
            ],
            [
              -73.3342379,
              -8.5310541
            ],
            [
              -73.335203,
              -8.5330422
            ],
            [
              -73.3353215,
              -8.5351892
            ],
            [
              -73.3343909,
              -8.5390082
            ],
            [
              -73.3343125,
              -8.5414707
            ],
            [
              -73.3352286,
              -8.5463842
            ],
            [
              -73.3351935,
              -8.5496849
            ],
            [
              -73.3359487,
              -8.5522886
            ],
            [
              -73.3364527,
              -8.5553849
            ],
            [
              -73.3367527,
              -8.558017
            ],
            [
              -73.3365736,
              -8.5602551
            ],
            [
              -73.3367527,
              -8.5618666
            ],
            [
              -73.3381851,
              -8.5660745
            ],
            [
              -73.3384537,
              -8.5673279
            ],
            [
              -73.3382747,
              -8.5718939
            ],
            [
              -73.3377375,
              -8.5755645
            ],
            [
              -73.3380956,
              -8.5773551
            ],
            [
              -73.3389014,
              -8.5786085
            ],
            [
              -73.3402444,
              -8.581921
            ],
            [
              -73.3411396,
              -8.5852336
            ],
            [
              -73.3414082,
              -8.5899786
            ],
            [
              -73.3426115,
              -8.5932147
            ],
            [
              -73.3432595,
              -8.595969
            ],
            [
              -73.3431652,
              -8.598551
            ],
            [
              -73.3439996,
              -8.6009397
            ],
            [
              -73.3441749,
              -8.6021137
            ],
            [
              -73.3441397,
              -8.6027445
            ],
            [
              -73.3411129,
              -8.6124537
            ],
            [
              -73.3409914,
              -8.6134664
            ],
            [
              -73.3413439,
              -8.6144674
            ],
            [
              -73.3414445,
              -8.6157264
            ],
            [
              -73.3410416,
              -8.6167839
            ],
            [
              -73.3391855,
              -8.618604
            ],
            [
              -73.3377837,
              -8.6205751
            ],
            [
              -73.3373151,
              -8.620863
            ],
            [
              -73.3365092,
              -8.6209637
            ],
            [
              -73.3355277,
              -8.6205751
            ],
            [
              -73.334148,
              -8.6191076
            ],
            [
              -73.3330849,
              -8.6172875
            ],
            [
              -73.3326316,
              -8.6169854
            ],
            [
              -73.3316747,
              -8.6165321
            ],
            [
              -73.3308187,
              -8.6164817
            ],
            [
              -73.3294591,
              -8.6169854
            ],
            [
              -73.3284517,
              -8.6171366
            ],
            [
              -73.3280489,
              -8.6165825
            ],
            [
              -73.3276964,
              -8.6151724
            ],
            [
              -73.3277971,
              -8.6134601
            ],
            [
              -73.3276964,
              -8.6125034
            ],
            [
              -73.3272935,
              -8.6115465
            ],
            [
              -73.3266387,
              -8.6108415
            ],
            [
              -73.3259841,
              -8.610489
            ],
            [
              -73.3253295,
              -8.6104385
            ],
            [
              -73.3223077,
              -8.6108415
            ],
            [
              -73.3217539,
              -8.6105394
            ],
            [
              -73.3205216,
              -8.6105094
            ],
            [
              -73.3196719,
              -8.6106227
            ],
            [
              -73.3192752,
              -8.610906
            ],
            [
              -73.3183971,
              -8.6128322
            ],
            [
              -73.3180855,
              -8.6132005
            ],
            [
              -73.3153661,
              -8.615665
            ],
            [
              -73.313056,
              -8.6180782
            ],
            [
              -73.3118951,
              -8.6205532
            ],
            [
              -73.3109752,
              -8.6240795
            ],
            [
              -73.3111067,
              -8.625109
            ],
            [
              -73.3118125,
              -8.6273457
            ],
            [
              -73.3123332,
              -8.6283505
            ],
            [
              -73.3123332,
              -8.630475
            ],
            [
              -73.3118751,
              -8.6319062
            ],
            [
              -73.31025,
              -8.6330489
            ],
            [
              -73.3086329,
              -8.6329239
            ],
            [
              -73.3071367,
              -8.6317676
            ],
            [
              -73.3065722,
              -8.6302735
            ],
            [
              -73.3056485,
              -8.6293475
            ],
            [
              -73.3042656,
              -8.6292246
            ],
            [
              -73.3000937,
              -8.631961
            ],
            [
              -73.2996871,
              -8.6325585
            ],
            [
              -73.2991175,
              -8.6343937
            ],
            [
              -73.2986745,
              -8.6352165
            ],
            [
              -73.2977252,
              -8.6360392
            ],
            [
              -73.2969657,
              -8.6381276
            ],
            [
              -73.296143,
              -8.6395832
            ],
            [
              -73.2960797,
              -8.641292
            ],
            [
              -73.2968066,
              -8.6452752
            ],
            [
              -73.2969141,
              -8.6472285
            ],
            [
              -73.2964595,
              -8.647937
            ],
            [
              -73.2948774,
              -8.649266
            ],
            [
              -73.2938015,
              -8.6509114
            ],
            [
              -73.293485,
              -8.651924
            ],
            [
              -73.2905739,
              -8.6562907
            ],
            [
              -73.2896879,
              -8.6573034
            ],
            [
              -73.2878526,
              -8.6588855
            ],
            [
              -73.287283,
              -8.6600246
            ],
            [
              -73.2865235,
              -8.6608474
            ],
            [
              -73.2856375,
              -8.6629991
            ],
            [
              -73.2848781,
              -8.6643282
            ],
            [
              -73.2844984,
              -8.6647711
            ],
            [
              -73.2834859,
              -8.6652774
            ],
            [
              -73.2776641,
              -8.665877
            ],
            [
              -73.2749995,
              -8.666569
            ],
            [
              -73.2725385,
              -8.6679066
            ],
            [
              -73.271629,
              -8.6686555
            ],
            [
              -73.267991,
              -8.669993
            ],
            [
              -73.266279,
              -8.670849
            ],
            [
              -73.2656905,
              -8.6713305
            ],
            [
              -73.2651556,
              -8.6726145
            ],
            [
              -73.2645136,
              -8.6748614
            ],
            [
              -73.2633366,
              -8.6764129
            ],
            [
              -73.2621596,
              -8.6773224
            ],
            [
              -73.2611966,
              -8.6778039
            ],
            [
              -73.2583076,
              -8.6783924
            ],
            [
              -73.2572911,
              -8.6789274
            ],
            [
              -73.2565956,
              -8.6800509
            ],
            [
              -73.2564351,
              -8.6826724
            ],
            [
              -73.2565956,
              -8.6836889
            ],
            [
              -73.2581471,
              -8.6878082
            ],
            [
              -73.2580936,
              -8.6884502
            ],
            [
              -73.2578796,
              -8.6888247
            ],
            [
              -73.2554721,
              -8.6902157
            ],
            [
              -73.2538672,
              -8.6905367
            ],
            [
              -73.2511922,
              -8.6906437
            ],
            [
              -73.2491057,
              -8.6902157
            ],
            [
              -73.2480357,
              -8.6893597
            ],
            [
              -73.2466447,
              -8.6887177
            ],
            [
              -73.2443977,
              -8.6883432
            ],
            [
              -73.2414019,
              -8.6883967
            ],
            [
              -73.2398504,
              -8.6880757
            ],
            [
              -73.2385129,
              -8.6872197
            ],
            [
              -73.2371754,
              -8.6867917
            ],
            [
              -73.2356774,
              -8.6868987
            ],
            [
              -73.232949,
              -8.6883432
            ],
            [
              -73.227706,
              -8.6886642
            ],
            [
              -73.2216134,
              -8.6896087
            ],
            [
              -73.2199027,
              -8.6902835
            ],
            [
              -73.2178336,
              -8.6916519
            ],
            [
              -73.2164319,
              -8.6916519
            ],
            [
              -73.2151971,
              -8.6911846
            ],
            [
              -73.2127607,
              -8.6897161
            ],
            [
              -73.2117596,
              -8.6892824
            ],
            [
              -73.2082887,
              -8.6891822
            ],
            [
              -73.2073876,
              -8.6890154
            ],
            [
              -73.2052851,
              -8.6878139
            ],
            [
              -73.2045175,
              -8.6877471
            ],
            [
              -73.2032495,
              -8.6880475
            ],
            [
              -73.199041,
              -8.689752
            ],
            [
              -73.19442,
              -8.6906445
            ],
            [
              -73.1933087,
              -8.691388
            ],
            [
              -73.1923035,
              -8.6926977
            ],
            [
              -73.1909024,
              -8.6932765
            ],
            [
              -73.1895621,
              -8.693307
            ],
            [
              -73.1887092,
              -8.6927587
            ],
            [
              -73.1877647,
              -8.6911384
            ],
            [
              -73.187021,
              -8.6903946
            ],
            [
              -73.184976,
              -8.6901157
            ],
            [
              -73.1825591,
              -8.6901157
            ],
            [
              -73.1791197,
              -8.6912312
            ],
            [
              -73.1780042,
              -8.6925326
            ],
            [
              -73.1757734,
              -8.6941129
            ],
            [
              -73.1707536,
              -8.6961579
            ],
            [
              -73.1692825,
              -8.6969012
            ],
            [
              -73.1672415,
              -8.6982977
            ],
            [
              -73.1616559,
              -8.705817
            ],
            [
              -73.1606352,
              -8.7068374
            ],
            [
              -73.1591852,
              -8.7087172
            ],
            [
              -73.1585944,
              -8.7104359
            ],
            [
              -73.1576055,
              -8.7112617
            ],
            [
              -73.1566777,
              -8.7124045
            ],
            [
              -73.1561775,
              -8.7137657
            ],
            [
              -73.1561239,
              -8.7151086
            ],
            [
              -73.1558016,
              -8.7157531
            ],
            [
              -73.1544052,
              -8.7178477
            ],
            [
              -73.1533846,
              -8.7188682
            ],
            [
              -73.1515586,
              -8.721124
            ],
            [
              -73.1501621,
              -8.7248299
            ],
            [
              -73.1497862,
              -8.7252595
            ],
            [
              -73.1492491,
              -8.7255281
            ],
            [
              -73.1454357,
              -8.725904
            ],
            [
              -73.1435022,
              -8.7270856
            ],
            [
              -73.1377404,
              -8.7360899
            ],
            [
              -73.1359775,
              -8.7391222
            ],
            [
              -73.1355244,
              -8.7406705
            ],
            [
              -73.1355997,
              -8.7421056
            ],
            [
              -73.1359775,
              -8.7434274
            ],
            [
              -73.1369594,
              -8.7447491
            ],
            [
              -73.139263,
              -8.746675
            ],
            [
              -73.1401741,
              -8.7476759
            ],
            [
              -73.1405517,
              -8.7496112
            ],
            [
              -73.1402685,
              -8.7514522
            ],
            [
              -73.1398909,
              -8.752538
            ],
            [
              -73.13923,
              -8.7537652
            ],
            [
              -73.1386164,
              -8.7547094
            ],
            [
              -73.1353591,
              -8.7585802
            ],
            [
              -73.1347927,
              -8.7598547
            ],
            [
              -73.1345626,
              -8.761625
            ],
            [
              -73.1355185,
              -8.7638907
            ],
            [
              -73.1354122,
              -8.7650591
            ],
            [
              -73.1346332,
              -8.7667231
            ],
            [
              -73.1341377,
              -8.7673604
            ],
            [
              -73.1323321,
              -8.7687057
            ],
            [
              -73.1304954,
              -8.7695376
            ],
            [
              -73.1291029,
              -8.7706137
            ],
            [
              -73.1275837,
              -8.7725127
            ],
            [
              -73.1256847,
              -8.7734621
            ],
            [
              -73.1241021,
              -8.774475
            ],
            [
              -73.1225199,
              -8.7751712
            ],
            [
              -73.1209374,
              -8.776184
            ],
            [
              -73.1192787,
              -8.7779156
            ],
            [
              -73.1171131,
              -8.7808281
            ],
            [
              -73.1161235,
              -8.7827885
            ],
            [
              -73.1146485,
              -8.7844127
            ],
            [
              -73.1142565,
              -8.7855144
            ],
            [
              -73.1142309,
              -8.7897057
            ],
            [
              -73.1136474,
              -8.7926929
            ],
            [
              -73.1136474,
              -8.7944432
            ],
            [
              -73.1140441,
              -8.7964036
            ],
            [
              -73.1140441,
              -8.7992041
            ],
            [
              -73.1139041,
              -8.8000209
            ],
            [
              -73.1125505,
              -8.8019579
            ],
            [
              -73.1109636,
              -8.8029614
            ],
            [
              -73.1102635,
              -8.8038716
            ],
            [
              -73.1101701,
              -8.804455
            ],
            [
              -73.1104735,
              -8.8054585
            ],
            [
              -73.112317,
              -8.8080722
            ],
            [
              -73.1126906,
              -8.8094259
            ],
            [
              -73.1127606,
              -8.811993
            ],
            [
              -73.1117571,
              -8.8150969
            ],
            [
              -73.1118271,
              -8.8167071
            ],
            [
              -73.1122239,
              -8.8178507
            ],
            [
              -73.1120137,
              -8.8192976
            ],
            [
              -73.1097967,
              -8.8214214
            ],
            [
              -73.1080697,
              -8.8226815
            ],
            [
              -73.1068329,
              -8.8229382
            ],
            [
              -73.1056426,
              -8.8226582
            ],
            [
              -73.1051292,
              -8.822985
            ],
            [
              -73.1044757,
              -8.8242451
            ],
            [
              -73.1044291,
              -8.8261355
            ],
            [
              -73.1042424,
              -8.8266022
            ],
            [
              -73.1038924,
              -8.8269522
            ],
            [
              -73.0992482,
              -8.8297061
            ],
            [
              -73.0986181,
              -8.8302195
            ],
            [
              -73.0981514,
              -8.8310364
            ],
            [
              -73.0980346,
              -8.8315731
            ],
            [
              -73.0983614,
              -8.8328332
            ],
            [
              -73.0982912,
              -8.8332767
            ],
            [
              -73.0977312,
              -8.8343036
            ],
            [
              -73.0967511,
              -8.8355639
            ],
            [
              -73.0957942,
              -8.836404
            ],
            [
              -73.0952341,
              -8.8366372
            ],
            [
              -73.0943474,
              -8.8367307
            ],
            [
              -73.0908,
              -8.8367307
            ],
            [
              -73.0870427,
              -8.8381076
            ],
            [
              -73.0858759,
              -8.8394379
            ],
            [
              -73.085199,
              -8.8399746
            ],
            [
              -73.0815817,
              -8.8412815
            ],
            [
              -73.0786412,
              -8.8413281
            ],
            [
              -73.0778711,
              -8.8419116
            ],
            [
              -73.0774744,
              -8.8428685
            ],
            [
              -73.0774277,
              -8.8441754
            ],
            [
              -73.0793647,
              -8.8463459
            ],
            [
              -73.0799246,
              -8.8476525
            ],
            [
              -73.0800181,
              -8.8482594
            ],
            [
              -73.0798781,
              -8.8501964
            ],
            [
              -73.081045,
              -8.8523435
            ],
            [
              -73.0810684,
              -8.8527869
            ],
            [
              -73.0808116,
              -8.853277
            ],
            [
              -73.0796914,
              -8.8542337
            ],
            [
              -73.0792246,
              -8.8550272
            ],
            [
              -73.079178,
              -8.8559374
            ],
            [
              -73.0794347,
              -8.8574777
            ],
            [
              -73.0801349,
              -8.859438
            ],
            [
              -73.0800415,
              -8.8603249
            ],
            [
              -73.0798547,
              -8.8606516
            ],
            [
              -73.0787579,
              -8.8613284
            ],
            [
              -73.0777777,
              -8.8614684
            ],
            [
              -73.0751406,
              -8.8613284
            ],
            [
              -73.0726435,
              -8.8614684
            ],
            [
              -73.07164,
              -8.8618184
            ],
            [
              -73.0710799,
              -8.8624252
            ],
            [
              -73.0709865,
              -8.8638021
            ],
            [
              -73.0711032,
              -8.8644089
            ],
            [
              -73.0719667,
              -8.8660892
            ],
            [
              -73.0722235,
              -8.8672327
            ],
            [
              -73.0720601,
              -8.8698465
            ],
            [
              -73.0717567,
              -8.87064
            ],
            [
              -73.0717567,
              -8.872367
            ],
            [
              -73.07143,
              -8.8729504
            ],
            [
              -73.0703797,
              -8.874094
            ],
            [
              -73.0700297,
              -8.8748641
            ],
            [
              -73.0702864,
              -8.8769177
            ],
            [
              -73.0701464,
              -8.8783647
            ],
            [
              -73.0687229,
              -8.880115
            ],
            [
              -73.0669025,
              -8.881702
            ],
            [
              -73.0663657,
              -8.883569
            ],
            [
              -73.0659924,
              -8.884059
            ],
            [
              -73.0651055,
              -8.8844791
            ],
            [
              -73.0645922,
              -8.8852959
            ],
            [
              -73.0647321,
              -8.888563
            ],
            [
              -73.064102,
              -8.8913404
            ],
            [
              -73.063892,
              -8.8917137
            ],
            [
              -73.0620482,
              -8.8942107
            ],
            [
              -73.0596611,
              -8.8954259
            ],
            [
              -73.0591022,
              -8.8959127
            ],
            [
              -73.058904,
              -8.8973187
            ],
            [
              -73.0601119,
              -8.8995
            ],
            [
              -73.0604364,
              -8.9010325
            ],
            [
              -73.0603821,
              -8.9016094
            ],
            [
              -73.0596071,
              -8.9030876
            ],
            [
              -73.0594266,
              -8.9044577
            ],
            [
              -73.058886,
              -8.9057737
            ],
            [
              -73.0578404,
              -8.9061884
            ],
            [
              -73.0534129,
              -8.9073521
            ],
            [
              -73.0513902,
              -8.9089636
            ],
            [
              -73.0496965,
              -8.9113151
            ],
            [
              -73.0480685,
              -8.9123182
            ],
            [
              -73.0448274,
              -8.9133494
            ],
            [
              -73.041946,
              -8.9147774
            ],
            [
              -73.0371014,
              -8.9161797
            ],
            [
              -73.0313894,
              -8.9164857
            ],
            [
              -73.0290945,
              -8.9163582
            ],
            [
              -73.0265701,
              -8.9160012
            ],
            [
              -73.0231277,
              -8.9148029
            ],
            [
              -73.0224137,
              -8.9143694
            ],
            [
              -73.0214449,
              -8.9134514
            ],
            [
              -73.0201227,
              -8.9115707
            ],
            [
              -73.0192765,
              -8.9112982
            ],
            [
              -73.0182725,
              -8.9119724
            ],
            [
              -73.0169242,
              -8.9122306
            ],
            [
              -73.0153089,
              -8.9130696
            ],
            [
              -73.0130139,
              -8.9158845
            ],
            [
              -73.012225,
              -8.9174622
            ],
            [
              -73.0110955,
              -8.918538
            ],
            [
              -73.0100197,
              -8.9185919
            ],
            [
              -73.0080475,
              -8.9175517
            ],
            [
              -73.006434,
              -8.9170857
            ],
            [
              -73.0048382,
              -8.9169424
            ],
            [
              -73.0009117,
              -8.9169424
            ],
            [
              -73.0004277,
              -8.9170679
            ],
            [
              -73,
              -8.917339986022656
            ],
            [
              -73,
              -8
            ],
            [
              -73.67882326031491,
              -8
            ]
          ]
        ]
      }
    },
    {
      "type": "Feature",
      "properties": {
        "osm_id": -288247,
        "boundary": "administrative",
        "admin_level": 2,
        "parents": null,
        "name": "Peru",
        "local_name": "Per√∫",
        "name_en": "Peru",
        "all_tags": {
          "flag": "http://upload.wikimedia.org/wikipedia/commons/c/cf/Flag_of_Peru.svg",
          "name": "Per√∫",
          "name:ab": "–ü–µ—Ä—É",
          "name:af": "Peru",
          "name:ak": "Peru",
          "name:am": "·çî·à©",
          "name:an": "Per√∫",
          "name:ar": "ÿ®Ÿäÿ±Ÿà",
          "name:ay": "Piruw",
          "name:az": "Peru",
          "name:ba": "–ü–µ—Ä—É",
          "name:be": "–ü–µ—Ä—É",
          "name:bg": "–ü–µ—Ä—É",
          "name:bi": "Peru",
          "name:bm": "Peru",
          "name:bn": "‡¶™‡ßá‡¶∞‡ßÅ",
          "name:bo": "‡Ωî‡Ω∫‡ºã‡Ω¢‡Ω¥‡ºç",
          "name:br": "Perou",
          "name:bs": "Peru",
          "name:ca": "Per√∫",
          "name:ce": "–ü–µ—Ä—É",
          "name:ch": "Per√∫",
          "name:co": "Per√π",
          "name:cs": "Peru",
          "name:cv": "–ü–µ—Ä—É",
          "name:cy": "Periw",
          "name:da": "Peru",
          "name:de": "Peru",
          "name:dv": "ﬁïﬁ¨ﬁÉﬁ´",
          "name:ee": "Peru",
          "name:el": "Œ†ŒµœÅŒøœç",
          "name:en": "Peru",
          "name:eo": "Peruo",
          "name:es": "Per√∫",
          "name:et": "Peruu",
          "name:eu": "Peru",
          "name:fa": "Ÿæÿ±Ÿà",
          "name:ff": "Peru",
          "name:fi": "Peru",
          "name:fo": "Peru",
          "name:fr": "P√©rou",
          "name:fy": "Per√ª",
          "name:ga": "Peiri√∫",
          "name:gd": "Pear√π",
          "name:gl": "Per√∫",
          "name:gn": "Per≈©",
          "name:gu": "‡™™‡´á‡™∞‡´Å",
          "name:gv": "Yn Pheroo",
          "name:he": "◊§◊®◊ï",
          "name:hi": "‡§™‡•á‡§∞‡•Ç",
          "name:hr": "Peru",
          "name:ht": "Pewou",
          "name:hu": "Peru",
          "name:hy": "’ä’•÷Ä’∏÷Ç",
          "name:ia": "Peru",
          "name:id": "Peru",
          "name:ie": "Per√∫",
          "name:io": "Peru",
          "name:is": "Per√∫",
          "name:it": "Per√π",
          "name:iu": "·ê±·ïâ",
          "name:ja": "„Éö„É´„Éº",
          "name:jv": "Peru",
          "name:ka": "·Éû·Éî·É†·É£",
          "name:ki": "Peru",
          "name:kk": "–ü–µ—Ä—É",
          "name:kl": "Peru",
          "name:kn": "‡≤™‡≥Ü‡≤∞‡≥Å",
          "name:ko": "ÌéòÎ£®",
          "name:ku": "Per√ª",
          "name:kv": "–ü–µ—Ä—É",
          "name:kw": "Perou",
          "name:ky": "–ü–µ—Ä—É",
          "name:la": "Peruvia",
          "name:lb": "Peru",
          "name:li": "Peru",
          "name:ln": "Peru",
          "name:lt": "Peru",
          "name:lv": "Peru",
          "name:mi": "Per≈´",
          "name:mk": "–ü–µ—Ä—É",
          "name:ml": "‡¥™‡µÜ‡¥±‡µÅ",
          "name:mn": "–ü–µ—Ä—É",
          "name:mr": "‡§™‡•á‡§∞‡•Ç",
          "name:ms": "Peru",
          "name:mt": "Per√π",
          "name:my": "·Äï·ÄÆ·Äõ·Ä∞·Ä∏·Äî·Ä≠·ÄØ·ÄÑ·Ä∫·ÄÑ·Ä∂",
          "name:na": "Peru",
          "name:ne": "‡§™‡•á‡§∞‡•Ç",
          "name:nl": "Peru",
          "name:nn": "Peru",
          "name:no": "Peru",
          "name:oc": "Per√≥",
          "name:or": "‡¨™‡≠á‡¨∞‡≠Å",
          "name:os": "–ü–µ—Ä—É",
          "name:pa": "‡®™‡©á‡®∞‡©Ç",
          "name:pl": "Peru",
          "name:ps": "ŸæŸäÿ±Ÿà",
          "name:pt": "Peru",
          "name:qu": "Piruw",
          "name:rm": "Peru",
          "name:ro": "Peru",
          "name:ru": "–ü–µ—Ä—É",
          "name:rw": "Peru",
          "name:sa": "‡§™‡•á‡§∞‡•Å",
          "name:se": "Peru",
          "name:sh": "Peru",
          "name:si": "‡∂¥‡∑ö‡∂ª‡∑ñ",
          "name:sk": "Peru",
          "name:sl": "Peru",
          "name:sn": "Peru",
          "name:so": "Peru",
          "name:sq": "Peruja",
          "name:sr": "–ü–µ—Ä—É",
          "name:ss": "IPheru",
          "name:su": "P√©ru",
          "name:sv": "Peru",
          "name:sw": "Peru",
          "name:ta": "‡Æ™‡ØÜ‡Æ∞‡ØÅ",
          "name:te": "‡∞™‡±Ü‡∞∞‡±Ç",
          "name:tg": "–ü–µ—Ä—É",
          "name:th": "‡∏õ‡∏£‡∏∞‡πÄ‡∏ó‡∏®‡πÄ‡∏õ‡∏£‡∏π",
          "name:tk": "Peru",
          "name:tl": "Peru",
          "name:tr": "Peru",
          "name:tt": "–ü–µ—Ä—É",
          "name:ug": "Ÿæ€êÿ±€á",
          "name:uk": "–ü–µ—Ä—É",
          "name:ur": "Ÿæ€åÿ±Ÿà",
          "name:uz": "Peru",
          "name:vi": "Peru",
          "name:vo": "Peruv√§n",
          "name:wo": "Peru",
          "name:yi": "◊§◊¢◊®◊ï",
          "name:yo": "Per√∫",
          "name:zh": "ÁßòÈ≤Å",
          "name:zu": "Peru",
          "boundary": "administrative",
          "int_name": "Peru",
          "name:ace": "P√®ru",
          "name:als": "Peru",
          "name:ang": "Peru",
          "name:arz": "ÿ®Ÿäÿ±Ÿà",
          "name:ast": "Per√∫",
          "name:bar": "Peru",
          "name:bcl": "Peru",
          "name:bpy": "‡¶™‡ßá‡¶∞‡ßÅ",
          "name:ceb": "Peru",
          "name:ckb": "Ÿæ€éÿ±ŸàŸà",
          "name:crh": "Peru",
          "name:diq": "Peru",
          "name:dsb": "Peru",
          "name:ext": "Per√∫",
          "name:frp": "P√®rou",
          "name:frr": "Peruu",
          "name:gag": "Peru",
          "name:hak": "Pi-l√ª",
          "name:hif": "Peru",
          "name:hsb": "Peru",
          "name:ilo": "Peru",
          "name:jbo": "perus",
          "name:kaa": "Peru",
          "name:lad": "Peru",
          "name:lez": "–ü–µ—Ä—É",
          "name:lij": "Per√π",
          "name:lmo": "Per√π",
          "name:ltg": "Peru",
          "name:lzh": "Á•ïÈ≠Ø",
          "name:mhr": "–ü–µ—Ä—É",
          "name:mrj": "–ü–µ—Ä—É",
          "name:mwl": "Peru",
          "name:nah": "Peru",
          "name:nan": "Per√∫",
          "name:nap": "Per√π",
          "name:nds": "Peru",
          "name:new": "‡§™‡•á‡§∞‡•Å",
          "name:nov": "Peru",
          "name:nrm": "P√©rou",
          "name:pam": "Peru",
          "name:pap": "Peru",
          "name:pih": "Peruu",
          "name:pms": "Per√π",
          "name:pnb": "Ÿæ€åÿ±Ÿà",
          "name:rmy": "Peru",
          "name:rue": "–ü–µ—Ä—É",
          "name:sah": "–ü–µ—Ä—É",
          "name:scn": "Per√π",
          "name:sco": "Peru",
          "name:smn": "Peru",
          "name:sms": "Peru",
          "name:szl": "Peru",
          "name:tet": "Per√∫",
          "name:tzl": "Per√π",
          "name:vec": "Per√π",
          "name:vro": "Peruu",
          "name:war": "Per√∫",
          "name:wuu": "ÁßòÈ≤Å",
          "name:xal": "–ü–µ—Ä—É–º—É–¥–∏–Ω –û—Ä–Ω",
          "name:xmf": "·Éû·Éî·É†·É£",
          "name:yue": "ÁßòÈ≠Ø",
          "name:zea": "Peru",
          "timezone": "America/Lima",
          "way_area": "177.554",
          "wikidata": "Q419",
          "ISO3166-1": "PE",
          "wikipedia": "es:Per√∫",
          "admin_level": "2",
          "name:simple": "Peru",
          "name:bat-smg": "Per≈´",
          "name:cbk-zam": "Peru",
          "name:zh-Hans": "ÁßòÈ≠Ø",
          "name:zh-Hant": "ÁßòÈ≠Ø",
          "official_name": "Rep√∫blica del Per√∫",
          "name:be-tarask": "–ü—ç—Ä—É",
          "ISO3166-1:alpha2": "PE",
          "ISO3166-1:alpha3": "PER",
          "official_name:cs": "Peru√°nsk√° republika",
          "official_name:el": "ŒîŒ∑ŒºŒøŒ∫œÅŒ±œÑŒØŒ± œÑŒøœÖ Œ†ŒµœÅŒøœç",
          "official_name:en": "Republic of Peru",
          "official_name:eo": "Perua Respubliko",
          "official_name:es": "Rep√∫blica del Per√∫",
          "official_name:et": "Peruu Vabariik",
          "official_name:eu": "Peruko Errepublika",
          "official_name:fr": "R√©publique du P√©rou",
          "official_name:id": "Republik Peru",
          "official_name:lb": "Republik Peru",
          "official_name:lt": "Peru Respublika",
          "official_name:lv": "Peru Republika",
          "official_name:ro": "Republica Peru",
          "official_name:ru": "–†–µ—Å–ø—É–±–ª–∏–∫–∞ –ü–µ—Ä—É",
          "official_name:sk": "Peru√°nska republika",
          "official_name:sv": "Republiken Peru",
          "official_name:vi": "C·ªông h√≤a Peru",
          "ISO3166-1:numeric": "604"
        }
      },
      "geometry": {
        "type": "Polygon",
        "coordinates": [
          [
            [
              -74,
              -9
            ],
            [
              -73,
              -9
            ],
            [
              -73,
              -8.917339986022656
            ],
            [
              -73.0004277,
              -8.9170679
            ],
            [
              -73.0009117,
              -8.9169424
            ],
            [
              -73.0048382,
              -8.9169424
            ],
            [
              -73.006434,
              -8.9170857
            ],
            [
              -73.0080475,
              -8.9175517
            ],
            [
              -73.0100197,
              -8.9185919
            ],
            [
              -73.0110955,
              -8.918538
            ],
            [
              -73.012225,
              -8.9174622
            ],
            [
              -73.0130139,
              -8.9158845
            ],
            [
              -73.0153089,
              -8.9130696
            ],
            [
              -73.0169242,
              -8.9122306
            ],
            [
              -73.0182725,
              -8.9119724
            ],
            [
              -73.0192765,
              -8.9112982
            ],
            [
              -73.0201227,
              -8.9115707
            ],
            [
              -73.0214449,
              -8.9134514
            ],
            [
              -73.0224137,
              -8.9143694
            ],
            [
              -73.0231277,
              -8.9148029
            ],
            [
              -73.0265701,
              -8.9160012
            ],
            [
              -73.0290945,
              -8.9163582
            ],
            [
              -73.0313894,
              -8.9164857
            ],
            [
              -73.0371014,
              -8.9161797
            ],
            [
              -73.041946,
              -8.9147774
            ],
            [
              -73.0448274,
              -8.9133494
            ],
            [
              -73.0480685,
              -8.9123182
            ],
            [
              -73.0496965,
              -8.9113151
            ],
            [
              -73.0513902,
              -8.9089636
            ],
            [
              -73.0534129,
              -8.9073521
            ],
            [
              -73.0578404,
              -8.9061884
            ],
            [
              -73.058886,
              -8.9057737
            ],
            [
              -73.0594266,
              -8.9044577
            ],
            [
              -73.0596071,
              -8.9030876
            ],
            [
              -73.0603821,
              -8.9016094
            ],
            [
              -73.0604364,
              -8.9010325
            ],
            [
              -73.0601119,
              -8.8995
            ],
            [
              -73.058904,
              -8.8973187
            ],
            [
              -73.0591022,
              -8.8959127
            ],
            [
              -73.0596611,
              -8.8954259
            ],
            [
              -73.0620482,
              -8.8942107
            ],
            [
              -73.063892,
              -8.8917137
            ],
            [
              -73.064102,
              -8.8913404
            ],
            [
              -73.0647321,
              -8.888563
            ],
            [
              -73.0645922,
              -8.8852959
            ],
            [
              -73.0651055,
              -8.8844791
            ],
            [
              -73.0659924,
              -8.884059
            ],
            [
              -73.0663657,
              -8.883569
            ],
            [
              -73.0669025,
              -8.881702
            ],
            [
              -73.0687229,
              -8.880115
            ],
            [
              -73.0701464,
              -8.8783647
            ],
            [
              -73.0702864,
              -8.8769177
            ],
            [
              -73.0700297,
              -8.8748641
            ],
            [
              -73.0703797,
              -8.874094
            ],
            [
              -73.07143,
              -8.8729504
            ],
            [
              -73.0717567,
              -8.872367
            ],
            [
              -73.0717567,
              -8.87064
            ],
            [
              -73.0720601,
              -8.8698465
            ],
            [
              -73.0722235,
              -8.8672327
            ],
            [
              -73.0719667,
              -8.8660892
            ],
            [
              -73.0711032,
              -8.8644089
            ],
            [
              -73.0709865,
              -8.8638021
            ],
            [
              -73.0710799,
              -8.8624252
            ],
            [
              -73.07164,
              -8.8618184
            ],
            [
              -73.0726435,
              -8.8614684
            ],
            [
              -73.0751406,
              -8.8613284
            ],
            [
              -73.0777777,
              -8.8614684
            ],
            [
              -73.0787579,
              -8.8613284
            ],
            [
              -73.0798547,
              -8.8606516
            ],
            [
              -73.0800415,
              -8.8603249
            ],
            [
              -73.0801349,
              -8.859438
            ],
            [
              -73.0794347,
              -8.8574777
            ],
            [
              -73.079178,
              -8.8559374
            ],
            [
              -73.0792246,
              -8.8550272
            ],
            [
              -73.0796914,
              -8.8542337
            ],
            [
              -73.0808116,
              -8.853277
            ],
            [
              -73.0810684,
              -8.8527869
            ],
            [
              -73.081045,
              -8.8523435
            ],
            [
              -73.0798781,
              -8.8501964
            ],
            [
              -73.0800181,
              -8.8482594
            ],
            [
              -73.0799246,
              -8.8476525
            ],
            [
              -73.0793647,
              -8.8463459
            ],
            [
              -73.0774277,
              -8.8441754
            ],
            [
              -73.0774744,
              -8.8428685
            ],
            [
              -73.0778711,
              -8.8419116
            ],
            [
              -73.0786412,
              -8.8413281
            ],
            [
              -73.0815817,
              -8.8412815
            ],
            [
              -73.085199,
              -8.8399746
            ],
            [
              -73.0858759,
              -8.8394379
            ],
            [
              -73.0870427,
              -8.8381076
            ],
            [
              -73.0908,
              -8.8367307
            ],
            [
              -73.0943474,
              -8.8367307
            ],
            [
              -73.0952341,
              -8.8366372
            ],
            [
              -73.0957942,
              -8.836404
            ],
            [
              -73.0967511,
              -8.8355639
            ],
            [
              -73.0977312,
              -8.8343036
            ],
            [
              -73.0982912,
              -8.8332767
            ],
            [
              -73.0983614,
              -8.8328332
            ],
            [
              -73.0980346,
              -8.8315731
            ],
            [
              -73.0981514,
              -8.8310364
            ],
            [
              -73.0986181,
              -8.8302195
            ],
            [
              -73.0992482,
              -8.8297061
            ],
            [
              -73.1038924,
              -8.8269522
            ],
            [
              -73.1042424,
              -8.8266022
            ],
            [
              -73.1044291,
              -8.8261355
            ],
            [
              -73.1044757,
              -8.8242451
            ],
            [
              -73.1051292,
              -8.822985
            ],
            [
              -73.1056426,
              -8.8226582
            ],
            [
              -73.1068329,
              -8.8229382
            ],
            [
              -73.1080697,
              -8.8226815
            ],
            [
              -73.1097967,
              -8.8214214
            ],
            [
              -73.1120137,
              -8.8192976
            ],
            [
              -73.1122239,
              -8.8178507
            ],
            [
              -73.1118271,
              -8.8167071
            ],
            [
              -73.1117571,
              -8.8150969
            ],
            [
              -73.1127606,
              -8.811993
            ],
            [
              -73.1126906,
              -8.8094259
            ],
            [
              -73.112317,
              -8.8080722
            ],
            [
              -73.1104735,
              -8.8054585
            ],
            [
              -73.1101701,
              -8.804455
            ],
            [
              -73.1102635,
              -8.8038716
            ],
            [
              -73.1109636,
              -8.8029614
            ],
            [
              -73.1125505,
              -8.8019579
            ],
            [
              -73.1139041,
              -8.8000209
            ],
            [
              -73.1140441,
              -8.7992041
            ],
            [
              -73.1140441,
              -8.7964036
            ],
            [
              -73.1136474,
              -8.7944432
            ],
            [
              -73.1136474,
              -8.7926929
            ],
            [
              -73.1142309,
              -8.7897057
            ],
            [
              -73.1142565,
              -8.7855144
            ],
            [
              -73.1146485,
              -8.7844127
            ],
            [
              -73.1161235,
              -8.7827885
            ],
            [
              -73.1171131,
              -8.7808281
            ],
            [
              -73.1192787,
              -8.7779156
            ],
            [
              -73.1209374,
              -8.776184
            ],
            [
              -73.1225199,
              -8.7751712
            ],
            [
              -73.1241021,
              -8.774475
            ],
            [
              -73.1256847,
              -8.7734621
            ],
            [
              -73.1275837,
              -8.7725127
            ],
            [
              -73.1291029,
              -8.7706137
            ],
            [
              -73.1304954,
              -8.7695376
            ],
            [
              -73.1323321,
              -8.7687057
            ],
            [
              -73.1341377,
              -8.7673604
            ],
            [
              -73.1346332,
              -8.7667231
            ],
            [
              -73.1354122,
              -8.7650591
            ],
            [
              -73.1355185,
              -8.7638907
            ],
            [
              -73.1345626,
              -8.761625
            ],
            [
              -73.1347927,
              -8.7598547
            ],
            [
              -73.1353591,
              -8.7585802
            ],
            [
              -73.1386164,
              -8.7547094
            ],
            [
              -73.13923,
              -8.7537652
            ],
            [
              -73.1398909,
              -8.752538
            ],
            [
              -73.1402685,
              -8.7514522
            ],
            [
              -73.1405517,
              -8.7496112
            ],
            [
              -73.1401741,
              -8.7476759
            ],
            [
              -73.139263,
              -8.746675
            ],
            [
              -73.1369594,
              -8.7447491
            ],
            [
              -73.1359775,
              -8.7434274
            ],
            [
              -73.1355244,
              -8.7416147
            ],
            [
              -73.1355244,
              -8.7406705
            ],
            [
              -73.1359775,
              -8.7391222
            ],
            [
              -73.1377404,
              -8.7360899
            ],
            [
              -73.1435022,
              -8.7270856
            ],
            [
              -73.1454357,
              -8.725904
            ],
            [
              -73.1492491,
              -8.7255281
            ],
            [
              -73.1497862,
              -8.7252595
            ],
            [
              -73.1501621,
              -8.7248299
            ],
            [
              -73.1515586,
              -8.721124
            ],
            [
              -73.1533846,
              -8.7188682
            ],
            [
              -73.1544052,
              -8.7178477
            ],
            [
              -73.1558016,
              -8.7157531
            ],
            [
              -73.1561239,
              -8.7151086
            ],
            [
              -73.1561775,
              -8.7137657
            ],
            [
              -73.1566777,
              -8.7124045
            ],
            [
              -73.1576055,
              -8.7112617
            ],
            [
              -73.1585944,
              -8.7104359
            ],
            [
              -73.1591852,
              -8.7087172
            ],
            [
              -73.1606352,
              -8.7068374
            ],
            [
              -73.1616559,
              -8.705817
            ],
            [
              -73.1672415,
              -8.6982977
            ],
            [
              -73.1692825,
              -8.6969012
            ],
            [
              -73.1707536,
              -8.6961579
            ],
            [
              -73.1757734,
              -8.6941129
            ],
            [
              -73.1780042,
              -8.6925326
            ],
            [
              -73.1791197,
              -8.6912312
            ],
            [
              -73.1825591,
              -8.6901157
            ],
            [
              -73.184976,
              -8.6901157
            ],
            [
              -73.187021,
              -8.6903946
            ],
            [
              -73.1877647,
              -8.6911384
            ],
            [
              -73.1887092,
              -8.6927587
            ],
            [
              -73.1895621,
              -8.693307
            ],
            [
              -73.1909024,
              -8.6932765
            ],
            [
              -73.1923035,
              -8.6926977
            ],
            [
              -73.1933087,
              -8.691388
            ],
            [
              -73.19442,
              -8.6906445
            ],
            [
              -73.199041,
              -8.689752
            ],
            [
              -73.2032495,
              -8.6880475
            ],
            [
              -73.2045175,
              -8.6877471
            ],
            [
              -73.2052851,
              -8.6878139
            ],
            [
              -73.2073876,
              -8.6890154
            ],
            [
              -73.2082887,
              -8.6891822
            ],
            [
              -73.2117596,
              -8.6892824
            ],
            [
              -73.2127607,
              -8.6897161
            ],
            [
              -73.2151971,
              -8.6911846
            ],
            [
              -73.2164319,
              -8.6916519
            ],
            [
              -73.2178336,
              -8.6916519
            ],
            [
              -73.2199027,
              -8.6902835
            ],
            [
              -73.2216134,
              -8.6896087
            ],
            [
              -73.227706,
              -8.6886642
            ],
            [
              -73.232949,
              -8.6883432
            ],
            [
              -73.2356774,
              -8.6868987
            ],
            [
              -73.2371754,
              -8.6867917
            ],
            [
              -73.2385129,
              -8.6872197
            ],
            [
              -73.2398504,
              -8.6880757
            ],
            [
              -73.2414019,
              -8.6883967
            ],
            [
              -73.2443977,
              -8.6883432
            ],
            [
              -73.2466447,
              -8.6887177
            ],
            [
              -73.2480357,
              -8.6893597
            ],
            [
              -73.2491057,
              -8.6902157
            ],
            [
              -73.2511922,
              -8.6906437
            ],
            [
              -73.2538672,
              -8.6905367
            ],
            [
              -73.2554721,
              -8.6902157
            ],
            [
              -73.2578796,
              -8.6888247
            ],
            [
              -73.2580936,
              -8.6884502
            ],
            [
              -73.2581471,
              -8.6878082
            ],
            [
              -73.2565956,
              -8.6836889
            ],
            [
              -73.2564351,
              -8.6826724
            ],
            [
              -73.2565956,
              -8.6800509
            ],
            [
              -73.2572911,
              -8.6789274
            ],
            [
              -73.2583076,
              -8.6783924
            ],
            [
              -73.2611966,
              -8.6778039
            ],
            [
              -73.2621596,
              -8.6773224
            ],
            [
              -73.2633366,
              -8.6764129
            ],
            [
              -73.2645136,
              -8.6748614
            ],
            [
              -73.2651556,
              -8.6726145
            ],
            [
              -73.2656905,
              -8.6713305
            ],
            [
              -73.266279,
              -8.670849
            ],
            [
              -73.267991,
              -8.669993
            ],
            [
              -73.271629,
              -8.6686555
            ],
            [
              -73.2725385,
              -8.6679066
            ],
            [
              -73.2749995,
              -8.666569
            ],
            [
              -73.2776641,
              -8.665877
            ],
            [
              -73.2834859,
              -8.6652774
            ],
            [
              -73.2844984,
              -8.6647711
            ],
            [
              -73.2848781,
              -8.6643282
            ],
            [
              -73.2856375,
              -8.6629991
            ],
            [
              -73.2865235,
              -8.6608474
            ],
            [
              -73.287283,
              -8.6600246
            ],
            [
              -73.2878526,
              -8.6588855
            ],
            [
              -73.2896879,
              -8.6573034
            ],
            [
              -73.2905739,
              -8.6562907
            ],
            [
              -73.293485,
              -8.651924
            ],
            [
              -73.2938015,
              -8.6509114
            ],
            [
              -73.2948774,
              -8.649266
            ],
            [
              -73.2964595,
              -8.647937
            ],
            [
              -73.2969141,
              -8.6472285
            ],
            [
              -73.2968066,
              -8.6452752
            ],
            [
              -73.2960797,
              -8.641292
            ],
            [
              -73.296143,
              -8.6395832
            ],
            [
              -73.2969657,
              -8.6381276
            ],
            [
              -73.2977252,
              -8.6360392
            ],
            [
              -73.2986745,
              -8.6352165
            ],
            [
              -73.2991175,
              -8.6343937
            ],
            [
              -73.2996871,
              -8.6325585
            ],
            [
              -73.3000937,
              -8.631961
            ],
            [
              -73.3042656,
              -8.6292246
            ],
            [
              -73.3056485,
              -8.6293475
            ],
            [
              -73.3065722,
              -8.6302735
            ],
            [
              -73.3071367,
              -8.6317676
            ],
            [
              -73.3086329,
              -8.6329239
            ],
            [
              -73.31025,
              -8.6330489
            ],
            [
              -73.3118751,
              -8.6319062
            ],
            [
              -73.3123332,
              -8.630475
            ],
            [
              -73.3123332,
              -8.6283505
            ],
            [
              -73.3118125,
              -8.6273457
            ],
            [
              -73.3111067,
              -8.625109
            ],
            [
              -73.3109752,
              -8.6240795
            ],
            [
              -73.3118951,
              -8.6205532
            ],
            [
              -73.313056,
              -8.6180782
            ],
            [
              -73.3153661,
              -8.615665
            ],
            [
              -73.3180855,
              -8.6132005
            ],
            [
              -73.3183971,
              -8.6128322
            ],
            [
              -73.3192752,
              -8.610906
            ],
            [
              -73.3196719,
              -8.6106227
            ],
            [
              -73.3205216,
              -8.6105094
            ],
            [
              -73.3217539,
              -8.6105394
            ],
            [
              -73.3223077,
              -8.6108415
            ],
            [
              -73.3253295,
              -8.6104385
            ],
            [
              -73.3259841,
              -8.610489
            ],
            [
              -73.3266387,
              -8.6108415
            ],
            [
              -73.3272935,
              -8.6115465
            ],
            [
              -73.3276964,
              -8.6125034
            ],
            [
              -73.3277971,
              -8.6134601
            ],
            [
              -73.3276964,
              -8.6151724
            ],
            [
              -73.3280489,
              -8.6165825
            ],
            [
              -73.3284517,
              -8.6171366
            ],
            [
              -73.3294591,
              -8.6169854
            ],
            [
              -73.3308187,
              -8.6164817
            ],
            [
              -73.3316747,
              -8.6165321
            ],
            [
              -73.3326316,
              -8.6169854
            ],
            [
              -73.3330849,
              -8.6172875
            ],
            [
              -73.334148,
              -8.6191076
            ],
            [
              -73.3355277,
              -8.6205751
            ],
            [
              -73.3365092,
              -8.6209637
            ],
            [
              -73.3373151,
              -8.620863
            ],
            [
              -73.3377837,
              -8.6205751
            ],
            [
              -73.3391855,
              -8.618604
            ],
            [
              -73.3410416,
              -8.6167839
            ],
            [
              -73.3414445,
              -8.6157264
            ],
            [
              -73.3413439,
              -8.6144674
            ],
            [
              -73.3409914,
              -8.6134664
            ],
            [
              -73.3411129,
              -8.6124537
            ],
            [
              -73.3441397,
              -8.6027445
            ],
            [
              -73.3441749,
              -8.6021137
            ],
            [
              -73.3439996,
              -8.6009397
            ],
            [
              -73.3431652,
              -8.598551
            ],
            [
              -73.3432595,
              -8.595969
            ],
            [
              -73.3426115,
              -8.5932147
            ],
            [
              -73.3414082,
              -8.5899786
            ],
            [
              -73.3411396,
              -8.5852336
            ],
            [
              -73.3402444,
              -8.581921
            ],
            [
              -73.3389014,
              -8.5786085
            ],
            [
              -73.3380956,
              -8.5773551
            ],
            [
              -73.3377375,
              -8.5755645
            ],
            [
              -73.3382747,
              -8.5718939
            ],
            [
              -73.3384537,
              -8.5673279
            ],
            [
              -73.3381851,
              -8.5660745
            ],
            [
              -73.3367527,
              -8.5618666
            ],
            [
              -73.3365736,
              -8.5602551
            ],
            [
              -73.3367527,
              -8.558017
            ],
            [
              -73.3364527,
              -8.5553849
            ],
            [
              -73.3359487,
              -8.5522886
            ],
            [
              -73.3351935,
              -8.5496849
            ],
            [
              -73.3352286,
              -8.5463842
            ],
            [
              -73.3343125,
              -8.5414707
            ],
            [
              -73.3343909,
              -8.5390082
            ],
            [
              -73.3353215,
              -8.5351892
            ],
            [
              -73.335203,
              -8.5330422
            ],
            [
              -73.3342379,
              -8.5310541
            ],
            [
              -73.3316704,
              -8.5281199
            ],
            [
              -73.3297979,
              -8.5253015
            ],
            [
              -73.3290065,
              -8.5240467
            ],
            [
              -73.3288134,
              -8.5230622
            ],
            [
              -73.3292774,
              -8.5201097
            ],
            [
              -73.3291335,
              -8.5188569
            ],
            [
              -73.328679,
              -8.517158
            ],
            [
              -73.3287707,
              -8.515737
            ],
            [
              -73.3289999,
              -8.515187
            ],
            [
              -73.3300084,
              -8.5139951
            ],
            [
              -73.3307569,
              -8.5114121
            ],
            [
              -73.330564,
              -8.5099399
            ],
            [
              -73.330196,
              -8.5092037
            ],
            [
              -73.3298479,
              -8.508655
            ],
            [
              -73.3286204,
              -8.5074425
            ],
            [
              -73.3285462,
              -8.5071832
            ],
            [
              -73.3285704,
              -8.5064864
            ],
            [
              -73.3293987,
              -8.5038969
            ],
            [
              -73.3296035,
              -8.5022987
            ],
            [
              -73.3287811,
              -8.4988026
            ],
            [
              -73.3287477,
              -8.4978982
            ],
            [
              -73.3296646,
              -8.4958814
            ],
            [
              -73.329909,
              -8.4948422
            ],
            [
              -73.3299324,
              -8.4932129
            ],
            [
              -73.3301279,
              -8.4925479
            ],
            [
              -73.3313014,
              -8.4904357
            ],
            [
              -73.3313232,
              -8.4892632
            ],
            [
              -73.3319425,
              -8.4868827
            ],
            [
              -73.332182,
              -8.4852674
            ],
            [
              -73.3325177,
              -8.4843454
            ],
            [
              -73.3324552,
              -8.4839699
            ],
            [
              -73.3317981,
              -8.4835317
            ],
            [
              -73.3315165,
              -8.483125
            ],
            [
              -73.3314851,
              -8.4827807
            ],
            [
              -73.3317981,
              -8.4822489
            ],
            [
              -73.3319006,
              -8.4815482
            ],
            [
              -73.3308656,
              -8.480282
            ],
            [
              -73.3306264,
              -8.4794046
            ],
            [
              -73.3309775,
              -8.4758636
            ],
            [
              -73.3318307,
              -8.4740354
            ],
            [
              -73.3332934,
              -8.4727352
            ],
            [
              -73.3364217,
              -8.4714757
            ],
            [
              -73.3397987,
              -8.4706347
            ],
            [
              -73.3405529,
              -8.4710509
            ],
            [
              -73.342113,
              -8.473729
            ],
            [
              -73.3434391,
              -8.4747691
            ],
            [
              -73.3453632,
              -8.4753151
            ],
            [
              -73.3473914,
              -8.4747951
            ],
            [
              -73.3535817,
              -8.4721816
            ],
            [
              -73.355956,
              -8.4716299
            ],
            [
              -73.3592906,
              -8.4704466
            ],
            [
              -73.3606889,
              -8.4702852
            ],
            [
              -73.3625174,
              -8.4703929
            ],
            [
              -73.367304,
              -8.472813
            ],
            [
              -73.369509,
              -8.4729207
            ],
            [
              -73.3716064,
              -8.4726516
            ],
            [
              -73.3731231,
              -8.4717891
            ],
            [
              -73.3735879,
              -8.4705235
            ],
            [
              -73.3743066,
              -8.4658242
            ],
            [
              -73.375,
              -8.4644454
            ],
            [
              -73.3761524,
              -8.4637617
            ],
            [
              -73.3770762,
              -8.4637656
            ],
            [
              -73.3779981,
              -8.4642325
            ],
            [
              -73.3797149,
              -8.4660742
            ],
            [
              -73.3814395,
              -8.4687226
            ],
            [
              -73.3835059,
              -8.4706855
            ],
            [
              -73.3858106,
              -8.4710351
            ],
            [
              -73.3881152,
              -8.4702402
            ],
            [
              -73.3891601,
              -8.4694414
            ],
            [
              -73.390084,
              -8.4677246
            ],
            [
              -73.3909082,
              -8.4642832
            ],
            [
              -73.3904649,
              -8.4599239
            ],
            [
              -73.390586,
              -8.4578535
            ],
            [
              -73.3920976,
              -8.4555645
            ],
            [
              -73.3956757,
              -8.4531739
            ],
            [
              -73.3985742,
              -8.4502012
            ],
            [
              -73.3991621,
              -8.4472227
            ],
            [
              -73.400086,
              -8.4460762
            ],
            [
              -73.4007871,
              -8.4443516
            ],
            [
              -73.4004434,
              -8.4429766
            ],
            [
              -73.3994141,
              -8.4418222
            ],
            [
              -73.3994219,
              -8.440332
            ],
            [
              -73.4001152,
              -8.4391856
            ],
            [
              -73.4038164,
              -8.4356485
            ],
            [
              -73.4054492,
              -8.43267
            ],
            [
              -73.4067149,
              -8.431291
            ],
            [
              -73.4077597,
              -8.4306094
            ],
            [
              -73.4092559,
              -8.4305059
            ],
            [
              -73.4130547,
              -8.4320137
            ],
            [
              -73.4162832,
              -8.4325957
            ],
            [
              -73.4197285,
              -8.4344454
            ],
            [
              -73.4216914,
              -8.4346895
            ],
            [
              -73.4246895,
              -8.4338965
            ],
            [
              -73.4264219,
              -8.4329805
            ],
            [
              -73.4305879,
              -8.4288652
            ],
            [
              -73.4351576,
              -8.4268076
            ],
            [
              -73.4383224,
              -8.4259286
            ],
            [
              -73.4413114,
              -8.4254011
            ],
            [
              -73.4450036,
              -8.4229396
            ],
            [
              -73.4478166,
              -8.4204781
            ],
            [
              -73.4509815,
              -8.41661
            ],
            [
              -73.4547421,
              -8.4116367
            ],
            [
              -73.4583281,
              -8.4085489
            ],
            [
              -73.4614814,
              -8.4071402
            ],
            [
              -73.46417,
              -8.4045797
            ],
            [
              -73.4657064,
              -8.4016351
            ],
            [
              -73.4671146,
              -8.3998426
            ],
            [
              -73.4690351,
              -8.3979222
            ],
            [
              -73.4710835,
              -8.3963859
            ],
            [
              -73.472876,
              -8.3947215
            ],
            [
              -73.4758206,
              -8.3935692
            ],
            [
              -73.4797895,
              -8.3915207
            ],
            [
              -73.48171,
              -8.3893442
            ],
            [
              -73.4852947,
              -8.3842231
            ],
            [
              -73.4884955,
              -8.3821746
            ],
            [
              -73.4941287,
              -8.3811504
            ],
            [
              -73.4964897,
              -8.3801686
            ],
            [
              -73.4987152,
              -8.3784614
            ],
            [
              -73.5012152,
              -8.3773639
            ],
            [
              -73.5075779,
              -8.3762175
            ],
            [
              -73.5096511,
              -8.3750467
            ],
            [
              -73.5119707,
              -8.3730117
            ],
            [
              -73.5128379,
              -8.3727285
            ],
            [
              -73.5145645,
              -8.3725625
            ],
            [
              -73.515543,
              -8.3729687
            ],
            [
              -73.5177325,
              -8.3733204
            ],
            [
              -73.5198674,
              -8.3729844
            ],
            [
              -73.520332,
              -8.3726992
            ],
            [
              -73.5206152,
              -8.3722989
            ],
            [
              -73.520623,
              -8.3716094
            ],
            [
              -73.5195917,
              -8.3685059
            ],
            [
              -73.5195996,
              -8.367416
            ],
            [
              -73.5198906,
              -8.3664981
            ],
            [
              -73.5200117,
              -8.3644902
            ],
            [
              -73.5205996,
              -8.3622539
            ],
            [
              -73.5211797,
              -8.3609356
            ],
            [
              -73.5218204,
              -8.3601347
            ],
            [
              -73.5251152,
              -8.3567031
            ],
            [
              -73.5256954,
              -8.3563047
            ],
            [
              -73.5279394,
              -8.3557382
            ],
            [
              -73.530541,
              -8.3546016
            ],
            [
              -73.5322715,
              -8.3542617
            ],
            [
              -73.5356777,
              -8.3530137
            ],
            [
              -73.5370566,
              -8.3527871
            ],
            [
              -73.5382695,
              -8.3523906
            ],
            [
              -73.5403516,
              -8.3513087
            ],
            [
              -73.5419082,
              -8.3502226
            ],
            [
              -73.5422597,
              -8.3496504
            ],
            [
              -73.542906,
              -8.3475876
            ],
            [
              -73.5424812,
              -8.3455769
            ],
            [
              -73.5422129,
              -8.3450586
            ],
            [
              -73.5418711,
              -8.3444257
            ],
            [
              -73.5412441,
              -8.3438496
            ],
            [
              -73.5401465,
              -8.3431581
            ],
            [
              -73.5390547,
              -8.3428086
            ],
            [
              -73.5375586,
              -8.3417677
            ],
            [
              -73.5330274,
              -8.3371641
            ],
            [
              -73.5321625,
              -8.3359805
            ],
            [
              -73.5315976,
              -8.3346086
            ],
            [
              -73.5303065,
              -8.3291214
            ],
            [
              -73.5297416,
              -8.3274269
            ],
            [
              -73.527805,
              -8.3244411
            ],
            [
              -73.5264331,
              -8.3211326
            ],
            [
              -73.5262717,
              -8.3185504
            ],
            [
              -73.5264994,
              -8.3157374
            ],
            [
              -73.5268092,
              -8.3143946
            ],
            [
              -73.5279454,
              -8.3126904
            ],
            [
              -73.5294947,
              -8.3115025
            ],
            [
              -73.5316121,
              -8.3103662
            ],
            [
              -73.5323352,
              -8.3090235
            ],
            [
              -73.5339879,
              -8.3071127
            ],
            [
              -73.5340395,
              -8.3065962
            ],
            [
              -73.532077,
              -8.3041172
            ],
            [
              -73.5321804,
              -8.3029295
            ],
            [
              -73.5329032,
              -8.3022581
            ],
            [
              -73.5338329,
              -8.3020515
            ],
            [
              -73.5346076,
              -8.3012251
            ],
            [
              -73.5355371,
              -8.3007087
            ],
            [
              -73.5365701,
              -8.2997275
            ],
            [
              -73.537603,
              -8.2974035
            ],
            [
              -73.5376134,
              -8.2967735
            ],
            [
              -73.5363007,
              -8.2924649
            ],
            [
              -73.5348731,
              -8.2894746
            ],
            [
              -73.5333789,
              -8.2878614
            ],
            [
              -73.5299006,
              -8.28521
            ],
            [
              -73.5286011,
              -8.2828709
            ],
            [
              -73.5279514,
              -8.2806617
            ],
            [
              -73.5279514,
              -8.2798821
            ],
            [
              -73.5275615,
              -8.2779329
            ],
            [
              -73.5266519,
              -8.2766334
            ],
            [
              -73.5265219,
              -8.2757887
            ],
            [
              -73.5260021,
              -8.2743594
            ],
            [
              -73.526262,
              -8.2707857
            ],
            [
              -73.5266567,
              -8.269848
            ],
            [
              -73.5293639,
              -8.2673871
            ],
            [
              -73.5325631,
              -8.2664027
            ],
            [
              -73.5367469,
              -8.2659105
            ],
            [
              -73.539454,
              -8.2654184
            ],
            [
              -73.5419149,
              -8.2629574
            ],
            [
              -73.544622,
              -8.2609885
            ],
            [
              -73.5478214,
              -8.2592659
            ],
            [
              -73.552005,
              -8.2565587
            ],
            [
              -73.5549582,
              -8.2536056
            ],
            [
              -73.5574192,
              -8.2494219
            ],
            [
              -73.5629922,
              -8.2454979
            ],
            [
              -73.5649075,
              -8.244893
            ],
            [
              -73.566722,
              -8.2447922
            ],
            [
              -73.569242,
              -8.2447922
            ],
            [
              -73.5746854,
              -8.2452962
            ],
            [
              -73.5773062,
              -8.2450946
            ],
            [
              -73.5801286,
              -8.2440866
            ],
            [
              -73.5873864,
              -8.240861
            ],
            [
              -73.5877896,
              -8.2396514
            ],
            [
              -73.5874872,
              -8.2380385
            ],
            [
              -73.5852051,
              -8.2331211
            ],
            [
              -73.5839454,
              -8.2312812
            ],
            [
              -73.5814746,
              -8.2297794
            ],
            [
              -73.5795742,
              -8.2291406
            ],
            [
              -73.577041,
              -8.2286152
            ],
            [
              -73.5745079,
              -8.2272871
            ],
            [
              -73.57267,
              -8.2260742
            ],
            [
              -73.5720371,
              -8.2254414
            ],
            [
              -73.5714649,
              -8.2246369
            ],
            [
              -73.5714121,
              -8.2236601
            ],
            [
              -73.571541,
              -8.2206172
            ],
            [
              -73.5720605,
              -8.2185547
            ],
            [
              -73.5730506,
              -8.2158027
            ],
            [
              -73.5737461,
              -8.2146562
            ],
            [
              -73.5746231,
              -8.2123632
            ],
            [
              -73.576127,
              -8.2099024
            ],
            [
              -73.5787364,
              -8.2062382
            ],
            [
              -73.5799492,
              -8.2050937
            ],
            [
              -73.5842206,
              -8.2018379
            ],
            [
              -73.5864101,
              -8.2007559
            ],
            [
              -73.5873417,
              -8.1997246
            ],
            [
              -73.5887909,
              -8.1969746
            ],
            [
              -73.5894317,
              -8.1948516
            ],
            [
              -73.5893787,
              -8.1925
            ],
            [
              -73.5896152,
              -8.1914669
            ],
            [
              -73.5897989,
              -8.1889434
            ],
            [
              -73.5897754,
              -8.1793007
            ],
            [
              -73.5899511,
              -8.1785547
            ],
            [
              -73.5912851,
              -8.1758632
            ],
            [
              -73.5921484,
              -8.1746015
            ],
            [
              -73.5927344,
              -8.1732265
            ],
            [
              -73.5929647,
              -8.1723671
            ],
            [
              -73.593055,
              -8.1696946
            ],
            [
              -73.5954696,
              -8.1657995
            ],
            [
              -73.5956947,
              -8.1645609
            ],
            [
              -73.5953361,
              -8.1619775
            ],
            [
              -73.5940185,
              -8.1585966
            ],
            [
              -73.5929261,
              -8.1573829
            ],
            [
              -73.5896317,
              -8.1550075
            ],
            [
              -73.588927,
              -8.1537001
            ],
            [
              -73.5888941,
              -8.1529109
            ],
            [
              -73.5892557,
              -8.1514314
            ],
            [
              -73.5895846,
              -8.1506094
            ],
            [
              -73.5904722,
              -8.1492285
            ],
            [
              -73.5906039,
              -8.1485052
            ],
            [
              -73.590275,
              -8.1444939
            ],
            [
              -73.5897269,
              -8.1426032
            ],
            [
              -73.5889386,
              -8.1410269
            ],
            [
              -73.5855606,
              -8.136422
            ],
            [
              -73.584906,
              -8.1351127
            ],
            [
              -73.5844711,
              -8.1286785
            ],
            [
              -73.5847722,
              -8.1268389
            ],
            [
              -73.5867991,
              -8.123123
            ],
            [
              -73.5889702,
              -8.1196197
            ],
            [
              -73.589389,
              -8.1172676
            ],
            [
              -73.5896601,
              -8.1130077
            ],
            [
              -73.589836,
              -8.1125489
            ],
            [
              -73.5903555,
              -8.1116914
            ],
            [
              -73.5939097,
              -8.1075602
            ],
            [
              -73.5979394,
              -8.1049617
            ],
            [
              -73.5999541,
              -8.104265
            ],
            [
              -73.6007827,
              -8.1036247
            ],
            [
              -73.6023079,
              -8.1008379
            ],
            [
              -73.6027896,
              -8.0963782
            ],
            [
              -73.6031437,
              -8.0953525
            ],
            [
              -73.6040221,
              -8.0943029
            ],
            [
              -73.6064646,
              -8.0927815
            ],
            [
              -73.6089499,
              -8.0897607
            ],
            [
              -73.6091426,
              -8.0892894
            ],
            [
              -73.6092454,
              -8.087956
            ],
            [
              -73.608813,
              -8.0849169
            ],
            [
              -73.6090292,
              -8.0836917
            ],
            [
              -73.6104705,
              -8.0805209
            ],
            [
              -73.612272,
              -8.0774942
            ],
            [
              -73.6124162,
              -8.0761969
            ],
            [
              -73.6158755,
              -8.0716567
            ],
            [
              -73.616524,
              -8.0690624
            ],
            [
              -73.6171726,
              -8.0682696
            ],
            [
              -73.618686,
              -8.0674049
            ],
            [
              -73.6199832,
              -8.0662519
            ],
            [
              -73.6213525,
              -8.0636575
            ],
            [
              -73.6216407,
              -8.0625765
            ],
            [
              -73.6223614,
              -8.0616396
            ],
            [
              -73.6242351,
              -8.0604145
            ],
            [
              -73.6255322,
              -8.0590452
            ],
            [
              -73.6262529,
              -8.0574597
            ],
            [
              -73.6266132,
              -8.0552979
            ],
            [
              -73.6265411,
              -8.0536404
            ],
            [
              -73.6261809,
              -8.0524152
            ],
            [
              -73.6259646,
              -8.0508297
            ],
            [
              -73.6259646,
              -8.0497487
            ],
            [
              -73.623748,
              -8.0477501
            ],
            [
              -73.6227715,
              -8.0461386
            ],
            [
              -73.6215741,
              -8.0435527
            ],
            [
              -73.6204845,
              -8.0420566
            ],
            [
              -73.6173585,
              -8.0397389
            ],
            [
              -73.616759,
              -8.0388164
            ],
            [
              -73.6166667,
              -8.0350805
            ],
            [
              -73.6168512,
              -8.0342502
            ],
            [
              -73.6189729,
              -8.031483
            ],
            [
              -73.6211867,
              -8.0301914
            ],
            [
              -73.6220169,
              -8.0293152
            ],
            [
              -73.6226475,
              -8.0273561
            ],
            [
              -73.6234795,
              -8.0255465
            ],
            [
              -73.6239019,
              -8.0238616
            ],
            [
              -73.624218,
              -8.0231959
            ],
            [
              -73.6245009,
              -8.0229464
            ],
            [
              -73.6255326,
              -8.0221475
            ],
            [
              -73.6266476,
              -8.0215984
            ],
            [
              -73.6283449,
              -8.0222974
            ],
            [
              -73.6296262,
              -8.0231294
            ],
            [
              -73.6300256,
              -8.0230961
            ],
            [
              -73.6304584,
              -8.0227799
            ],
            [
              -73.6307745,
              -8.0222307
            ],
            [
              -73.6312874,
              -8.019076
            ],
            [
              -73.6318636,
              -8.0177899
            ],
            [
              -73.6321574,
              -8.0174179
            ],
            [
              -73.6332707,
              -8.0166777
            ],
            [
              -73.6335012,
              -8.0161705
            ],
            [
              -73.6335474,
              -8.015248
            ],
            [
              -73.6332707,
              -8.0143716
            ],
            [
              -73.6332707,
              -8.013357
            ],
            [
              -73.6334551,
              -8.0124346
            ],
            [
              -73.6338806,
              -8.0115036
            ],
            [
              -73.6345269,
              -8.0106616
            ],
            [
              -73.6358074,
              -8.0096211
            ],
            [
              -73.6373294,
              -8.0087909
            ],
            [
              -73.6382057,
              -8.0078225
            ],
            [
              -73.6385286,
              -8.0071305
            ],
            [
              -73.6392485,
              -8.0065295
            ],
            [
              -73.6400475,
              -8.0064669
            ],
            [
              -73.6406742,
              -8.006686
            ],
            [
              -73.642818,
              -8.0086525
            ],
            [
              -73.6436481,
              -8.0090676
            ],
            [
              -73.6454007,
              -8.009575
            ],
            [
              -73.6472595,
              -8.0105899
            ],
            [
              -73.6492289,
              -8.0109586
            ],
            [
              -73.653426,
              -8.0130802
            ],
            [
              -73.6587301,
              -8.0127574
            ],
            [
              -73.6626309,
              -8.0121677
            ],
            [
              -73.663146,
              -8.0118324
            ],
            [
              -73.6639677,
              -8.0097836
            ],
            [
              -73.6646362,
              -8.0094049
            ],
            [
              -73.6649927,
              -8.0095831
            ],
            [
              -73.6656166,
              -8.0119226
            ],
            [
              -73.6665079,
              -8.0131259
            ],
            [
              -73.6669312,
              -8.013371
            ],
            [
              -73.6676889,
              -8.0133265
            ],
            [
              -73.668023,
              -8.0131481
            ],
            [
              -73.6688971,
              -8.0122939
            ],
            [
              -73.6702605,
              -8.0093444
            ],
            [
              -73.6719062,
              -8.0073281
            ],
            [
              -73.6733476,
              -8.0062989
            ],
            [
              -73.6749647,
              -8.005787
            ],
            [
              -73.6757735,
              -8.0051016
            ],
            [
              -73.676293,
              -8.0043575
            ],
            [
              -73.6766972,
              -8.0033829
            ],
            [
              -73.6780312,
              -8.0016075
            ],
            [
              -73.6784902,
              -8.0007481
            ],
            [
              -73.6784902,
              -8.0003457
            ],
            [
              -73.67882326031491,
              -8
            ],
            [
              -74,
              -8
            ],
            [
              -74,
              -9
            ]
          ]
        ]
      }
    }
  ]
}