{
  "type": "FeatureCollection",
  "features": [
    {
      "type": "Feature",
      "properties": {
        "osm_id": -304751,
        "boundary": "administrative",
        "admin_level": 2,
        "parents": null,
        "name": "Indonesia",
        "local_name": "Indonesia",
        "name_en": "Indonesia",
        "all_tags": {
          "ref": "ID",
          "flag": "http://upload.wikimedia.org/wikipedia/commons/9/9f/Flag_of_Indonesia.svg",
          "name": "Indonesia",
          "name:af": "Indonesië",
          "name:ak": "Indonesia",
          "name:am": "ኢንዶኔዥያ",
          "name:an": "Indonesia",
          "name:ar": "إندونيسيا",
          "name:ay": "Indunisya",
          "name:az": "İndoneziya",
          "name:ba": "Индонезия",
          "name:be": "Інданезія",
          "name:bg": "Индонезия",
          "name:bi": "Indonesia",
          "name:bn": "ইন্দোনেশিয়া",
          "name:bo": "ཨིན་རྡུ་ནི་ཤིས་ཡ།",
          "name:br": "Indonezia",
          "name:bs": "Indonezija",
          "name:ca": "Indonèsia",
          "name:ce": "Индонези",
          "name:ch": "Indonesia",
          "name:co": "Indunesia",
          "name:cs": "Indonésie",
          "name:cu": "Їндонисїꙗ",
          "name:cv": "Индонези",
          "name:cy": "Indonesia",
          "name:da": "Indonesien",
          "name:de": "Indonesien",
          "name:dv": "އިންޑޮނޭޝިޔާ",
          "name:el": "Ινδονησία",
          "name:en": "Indonesia",
          "name:eo": "Indonezio",
          "name:es": "Indonesia",
          "name:et": "Indoneesia",
          "name:eu": "Indonesia",
          "name:fa": "اندونزی",
          "name:fi": "Indonesia",
          "name:fo": "Indonesia",
          "name:fr": "Indonésie",
          "name:fy": "Yndoneezje",
          "name:ga": "An Indinéis",
          "name:gd": "An Innd-Innse",
          "name:gl": "Indonesia",
          "name:gn": "Indonesia",
          "name:gu": "ઈંડોનેશિયા",
          "name:gv": "Yn Indoneesh",
          "name:he": "אינדונזיה",
          "name:hi": "इंडोनेशिया",
          "name:hr": "Indonezija",
          "name:ht": "Endonezi",
          "name:hu": "Indonézia",
          "name:hy": "Ինդոնեզիա",
          "name:ia": "Indonesia",
          "name:id": "Indonesia",
          "name:ie": "Indonesia",
          "name:io": "Indonezia",
          "name:is": "Indónesía",
          "name:it": "Indonesia",
          "name:iu": "ᐄᓅᓯᐊ",
          "name:ja": "インドネシア",
          "name:jv": "Indonésia",
          "name:ka": "ინდონეზია",
          "name:ki": "Indonesia",
          "name:kk": "Индонезия",
          "name:kl": "Indonesia",
          "name:km": "ឥណ្ឌូនេស៊ី",
          "name:kn": "ಇಂಡೋನೇಷ್ಯಾ",
          "name:ko": "인도네시아",
          "name:ku": "Îndonezya",
          "name:kv": "Индонезия",
          "name:kw": "Indonesi",
          "name:ky": "Индонезия",
          "name:la": "Indonesia",
          "name:lb": "Indonesien",
          "name:li": "Indonesië",
          "name:ln": "Indonezí",
          "name:lt": "Indonezija",
          "name:lv": "Indonēzija",
          "name:mg": "Indonezia",
          "name:mi": "Initonīhia",
          "name:mk": "Индонезија",
          "name:ml": "ഇന്തോനേഷ്യ",
          "name:mn": "Индонез",
          "name:mr": "इंडोनेशिया",
          "name:ms": "Indonesia",
          "name:mt": "Indoneżja",
          "name:my": "အင်ဒိုနီးရှားနိုင်ငံ",
          "name:na": "Indonitsiya",
          "name:ne": "इण्डोनेशिया",
          "name:nl": "Indonesië",
          "name:nn": "Indonesia",
          "name:no": "Indonesia",
          "name:nv": "Indoníízha",
          "name:oc": "Indonesia",
          "name:om": "Indoneeshiyaa",
          "name:or": "ଇଣ୍ଡୋନେସିଆ",
          "name:os": "Индонези",
          "name:pa": "ਇੰਡੋਨੇਸ਼ੀਆ",
          "name:pl": "Indonezja",
          "name:ps": "اندونيزيا",
          "name:pt": "Indonésia",
          "name:qu": "Indunisya",
          "name:rm": "Indonesia",
          "name:ro": "Indonezia",
          "name:ru": "Индонезия",
          "name:rw": "Indonesiya",
          "name:sa": "इण्डोनेशिया",
          "name:se": "Indonesia",
          "name:sg": "Ênndonezïi",
          "name:sh": "Indonezija",
          "name:si": "ඉන්දුනීසියාව",
          "name:sk": "Indonézia",
          "name:sl": "Indonezija",
          "name:sm": "Indyunisia",
          "name:so": "Indunisiya",
          "name:sq": "Indonezia",
          "name:sr": "Индонезија",
          "name:ss": "INdonesiya",
          "name:su": "Indonésia",
          "name:sv": "Indonesien",
          "name:sw": "Indonesia",
          "name:ta": "இந்தோனேசியா",
          "name:te": "ఇండోనేషియా",
          "name:tg": "Индонезия",
          "name:th": "ประเทศอินโดนีเซีย",
          "name:tk": "Indoneziýa",
          "name:tl": "Indonesya",
          "name:tr": "Endonezya",
          "name:tt": "Индонезия",
          "name:ug": "ھىندونېزىيە",
          "name:uk": "Індонезія",
          "name:ur": "انڈونیشیا",
          "name:uz": "Indoneziya",
          "name:vi": "Indonesia",
          "name:vo": "Lindäna-Seänuäns",
          "name:wa": "Indonezeye",
          "name:wo": "Endoneesi",
          "name:yi": "אינדאנעזיע",
          "name:yo": "Indonésíà",
          "name:za": "Yindunizsihya",
          "name:zh": "印度尼西亚 / 印度尼西亞",
          "alt_name": "Negara Kesatuan Republik Indonesia",
          "boundary": "administrative",
          "name:als": "Indonesien",
          "name:ang": "Indonesia",
          "name:arz": "اندونيسيا",
          "name:ast": "Indonesia",
          "name:bar": "Indonesien",
          "name:bcl": "Indonesya",
          "name:bjn": "Indunisia",
          "name:bpy": "ইন্দোনেশিয়া",
          "name:bug": "Indonesia",
          "name:bxr": "Индонези",
          "name:ceb": "Indonesia",
          "name:chr": "ᎢᏂᏙᏂᏍᏯ",
          "name:ckb": "ئیندۆنیزیا",
          "name:crh": "İndoneziya",
          "name:csb": "Jindonezjô",
          "name:diq": "İndonezya",
          "name:dsb": "Indoneziska",
          "name:ext": "Indonésia",
          "name:frp": "Endonèsie",
          "name:frr": "Indoneesien",
          "name:fur": "Indonesie",
          "name:gag": "İndoneziya",
          "name:gan": "印度尼西亞",
          "name:hak": "Yin-thu-nì-sî-â",
          "name:haw": "‘Inidonesia",
          "name:hif": "Indonesia",
          "name:hsb": "Indoneska",
          "name:ilo": "Indonesia",
          "name:jbo": "bidgu'e",
          "name:kbd": "Индонезиэ",
          "name:lez": "Индонезия",
          "name:lij": "Indonexia",
          "name:lmo": "Indunesia",
          "name:lrc": "ٱندونزی",
          "name:lzh": "印度尼西亞",
          "name:mhr": "Индонезий",
          "name:min": "Indonesia",
          "name:mrj": "Индонези",
          "name:mzn": "اندونزی",
          "name:nah": "Indonesia",
          "name:nan": "Ìn-nî",
          "name:nap": "Indonesia",
          "name:nds": "Indonesien",
          "name:new": "इन्दोनेसिया",
          "name:nov": "Indonesia",
          "name:pag": "Indonesiya",
          "name:pam": "Indonesia",
          "name:pap": "Indonesia",
          "name:pih": "Endonesya",
          "name:pms": "Indonesia",
          "name:pnb": "انڈونیشیا",
          "name:rue": "Індонезія",
          "name:sah": "Индонезия",
          "name:scn": "Indunesia",
          "name:sco": "Indonesie",
          "name:smn": "Indonesia",
          "name:sms": "Indonesia",
          "name:srn": "Indonesikondre",
          "name:stq": "Indonesien",
          "name:szl": "Indōnezyjŏ",
          "name:tet": "Indonézia",
          "name:tok": "ma Intonesija",
          "name:tpi": "Indonisia",
          "name:tzl": "Indonesía",
          "name:udm": "Индонезия",
          "name:vec": "Indonexia",
          "name:vep": "Indonezii",
          "name:vro": "Indoneesiä",
          "name:war": "Indonesia",
          "name:wuu": "印度尼西亚",
          "name:xal": "Эндонесин Орн",
          "name:yue": "印尼",
          "name:zea": "Indonesië",
          "way_area": "428.9",
          "wikidata": "Q252",
          "ISO3166-1": "ID",
          "wikipedia": "id:Indonesia",
          "population": "270203917",
          "short_name": "NKRI",
          "admin_level": "2",
          "border_type": "nation",
          "name:nds-nl": "Indonezie",
          "name:simple": "Indonesia",
          "driving_side": "left",
          "name:bat-smg": "Induonezėjė",
          "name:cbk-zam": "Indonesia",
          "name:map-bms": "Indonesia",
          "name:zh-Hans": "印度尼西亚",
          "name:zh-Hant": "印度尼西亞",
          "name:roa-tara": "Indonesie",
          "official_name": "Republik Indonesia",
          "name:be-tarask": "Інданэзія",
          "ISO3166-1:alpha2": "ID",
          "ISO3166-1:alpha3": "IDN",
          "default_language": "id",
          "official_name:ar": "جمهورية إندونيسيا",
          "official_name:cs": "Indonéská republika",
          "official_name:de": "Republik Indonesien",
          "official_name:en": "Republic of Indonesia",
          "official_name:es": "República de Indonesia",
          "official_name:fa": "جمهوری اندونزی",
          "official_name:ku": "Komara Îndonezya",
          "official_name:ru": "Республика Индонезия",
          "official_name:ur": "جمہوریہ انڈونیشیا",
          "official_name:zh": "印度尼西亚共和国 / 印度尼西亞共和國",
          "ISO3166-1:numeric": "360",
          "official_name:bjn": "Ripublik Indunisia",
          "official_name:ckb": "کۆماری ئیندۆنیزیا",
          "official_name:zh-Hans": "印度尼西亚共和国",
          "official_name:zh-Hant": "印度尼西亞共和國",
          "population:census:2020": "https://en.wikipedia.org/wiki/Indonesia#cite_note-2020census-8"
        }
      },
      "geometry": {
        "type": "Polygon",
        "coordinates": [
          [
            [
              126,
              5
            ],
            [
              127,
              5
            ],
            [
              127,
              5.32666648905954
            ],
            [
              126.7557163,
              5.6788002
            ],
            [
              126.696875,
              5.7353615
            ],
            [
              126.6197649,
              5.7625634
            ],
            [
              126.6100427,
              5.7639518
            ],
            [
              126.5317563,
              5.7600119
            ],
            [
              126.4613013,
              5.7258254
            ],
            [
              126,
              5.378948249166889
            ],
            [
              126,
              5
            ]
          ]
        ]
      }
    },
    {
      "type": "Feature",
      "properties": {
        "osm_id": -443174,
        "boundary": "administrative",
        "admin_level": 2,
        "parents": null,
        "name": "Philippines",
        "local_name": "Philippines",
        "name_en": "Philippines",
        "all_tags": {
          "flag": "http://upload.wikimedia.org/wikipedia/commons/9/99/Flag_of_the_Philippines.svg",
          "name": "Philippines",
          "name:af": "Filippyne",
          "name:am": "ፊሊፒንስ",
          "name:an": "Filipinas",
          "name:ar": "الفلبين",
          "name:az": "Filippin",
          "name:be": "Філіпіны",
          "name:bg": "Филипини",
          "name:bn": "ফিলিপাইন",
          "name:bo": "ཧྥི་ལི་པིན།",
          "name:br": "Filipinez",
          "name:bs": "Filipini",
          "name:ca": "Filipines",
          "name:ce": "Филиппин",
          "name:cs": "Filipíny",
          "name:cv": "Филиппин",
          "name:cy": "Pilipinas",
          "name:da": "Filippinerne",
          "name:de": "Philippinen",
          "name:dv": "ފިލިޕީންސް",
          "name:el": "Φιλιππίνες",
          "name:en": "Philippines",
          "name:eo": "Filipinoj",
          "name:es": "Filipinas",
          "name:et": "Filipiinid",
          "name:eu": "Filipinak",
          "name:fa": "فیلیپین",
          "name:fi": "Filippiinit",
          "name:fo": "Filipsoyggjar",
          "name:fr": "Philippines",
          "name:fy": "Filipinen",
          "name:ga": "Na hOileáin Fhilipíneacha",
          "name:gd": "Na h-Eileanan Filipineach",
          "name:gl": "Filipinas",
          "name:gn": "Filipina",
          "name:gu": "ફીલીપાઈન્સ",
          "name:gv": "Ny h-Ellanyn Philippeenagh",
          "name:he": "הפיליפינים",
          "name:hi": "फ़िलीपीन्स",
          "name:hr": "Filipini",
          "name:ht": "Filipin",
          "name:hu": "Fülöp-szigetek",
          "name:hy": "Ֆիլիպիններ",
          "name:ia": "Philippinas",
          "name:id": "Filipina",
          "name:ie": "Filipines",
          "name:io": "Filipini",
          "name:is": "Filippseyjar",
          "name:it": "Filippine",
          "name:ja": "フィリピン",
          "name:jv": "Filipina",
          "name:ka": "ფილიპინები",
          "name:kk": "Филиппиндер",
          "name:kl": "Philippines",
          "name:km": "ហ្វីលីពីន",
          "name:kn": "ಫಿಲಿಪ್ಪೀನ್ಸ್",
          "name:ko": "필리핀",
          "name:ku": "Filîpîn",
          "name:kv": "Филиппинъяс",
          "name:kw": "Filipinys",
          "name:la": "Philippinae",
          "name:lb": "Philippinen",
          "name:li": "Filipiene",
          "name:lt": "Filipinai",
          "name:lv": "Filipīnas",
          "name:mg": "Filipina",
          "name:mi": "Piripīni",
          "name:mk": "Филипини",
          "name:ml": "ഫിലിപ്പീൻസ്",
          "name:mn": "Филиппин",
          "name:mr": "फिलिपाईन्स",
          "name:ms": "Filipina",
          "name:my": "ဖိလစ်ပိုင်နိုင်ငံ",
          "name:na": "Eben Piripin",
          "name:ne": "फिलिपिन्स",
          "name:nl": "Filipijnen",
          "name:nn": "Filippinane",
          "name:no": "Filippinene",
          "name:nv": "Kéyah Dańlíinii",
          "name:oc": "Filipinas",
          "name:or": "ଫିଲିପାଇନ୍ସ",
          "name:os": "Филиппинтæ",
          "name:pa": "ਫ਼ਿਲਪੀਨਜ਼",
          "name:pl": "Filipiny",
          "name:ps": "فلېپين",
          "name:pt": "Filipinas",
          "name:qu": "Philipinakuna",
          "name:ro": "Filipine",
          "name:ru": "Филиппины",
          "name:rw": "Filipine",
          "name:sa": "कलिंगद्वीप",
          "name:se": "Filippiinnat",
          "name:sg": "Filipîni",
          "name:sh": "Filipini",
          "name:si": "පිලිපීනය",
          "name:sk": "Filipíny",
          "name:sl": "Filipini",
          "name:sm": "Filipaina",
          "name:so": "Filibiin",
          "name:sq": "Filipinet",
          "name:sr": "Филипини",
          "name:ss": "IFiliphayi",
          "name:su": "Pilipina",
          "name:sv": "Filippinerna",
          "name:sw": "Ufilipino",
          "name:ta": "பிலிப்பீன்சு",
          "name:te": "ఫిలిప్పీన్స్",
          "name:tg": "Филиппин",
          "name:th": "ประเทศฟิลิปปินส์",
          "name:tk": "Filippinler",
          "name:tl": "Pilipinas",
          "name:tr": "Filipinler",
          "name:tt": "Филипин",
          "name:ug": "فىلىپپىن",
          "name:uk": "Філіппіни",
          "name:ur": "فلپائن",
          "name:uz": "Filippin",
          "name:vi": "Philippines",
          "name:vo": "Filipuäns",
          "name:wa": "Filipenes",
          "name:wo": "Filipiin",
          "name:yi": "פיליפינען",
          "name:yo": "Filipínì",
          "name:za": "Feihlizbinh",
          "name:zh": "菲律宾 / 菲律賓",
          "boundary": "administrative",
          "name:ace": "Filipina",
          "name:als": "Philippinen",
          "name:ang": "Philippines",
          "name:arc": "ܦܝܠܝܦܝܢܝܐ",
          "name:arz": "الفيليبين",
          "name:ast": "Filipines",
          "name:bar": "Philippinen",
          "name:bcl": "Filipinas",
          "name:bjn": "Pilipina",
          "name:bpy": "ফিলিপাইন",
          "name:bug": "Filipina",
          "name:bxr": "Филиппин",
          "name:cdo": "Hĭ-lĭ-pĭng",
          "name:ceb": "Pilipinas",
          "name:ckb": "فلیپین",
          "name:crh": "Filippinler",
          "name:csb": "Filipinë",
          "name:diq": "Fılipin",
          "name:ext": "Hilipinas",
          "name:frp": "Felipines",
          "name:gan": "菲律賓",
          "name:hak": "Fî-li̍t-pîn",
          "name:haw": "ʻĀina Pilipino",
          "name:hif": "Philippines",
          "name:hsb": "Filipiny",
          "name:ilo": "Pilipinas",
          "name:jbo": "pilipinas",
          "name:kbd": "Филипинхэр",
          "name:krc": "Филиппинле",
          "name:lij": "Filippinn-e",
          "name:lmo": "Filipinn",
          "name:lzh": "菲律賓",
          "name:mhr": "Филиппин-влак",
          "name:nah": "Filipinas",
          "name:nan": "Hui-li̍p-pin",
          "name:nds": "Philippinen",
          "name:new": "फिलिपिन्स",
          "name:nov": "Filipines",
          "name:pag": "Filipinas",
          "name:pam": "Filipinas",
          "name:pap": "Filipinas",
          "name:pih": "Felapiins",
          "name:pms": "Filipin-e",
          "name:pnb": "فلپائن",
          "name:sah": "Пилипиин",
          "name:sco": "Philippines",
          "name:smn": "Filippiineh",
          "name:sms": "Filippiin",
          "name:szl": "Filipiny",
          "name:tet": "Filipinas",
          "name:udm": "Филиппин",
          "name:vec": "Filipine",
          "name:vep": "Filippinad",
          "name:vro": "Filipiiniq",
          "name:war": "Pilipinas",
          "name:wuu": "菲律宾",
          "name:xal": "Пилипмудин Орн",
          "name:yue": "菲律賓/菲律宾",
          "name:zea": "Filepijn’n",
          "old_name": "Las Felipinas",
          "timezone": "Asia/Manila",
          "way_area": "83.5502",
          "wikidata": "Q928",
          "ISO3166-1": "PH",
          "wikipedia": "en:Philippines",
          "population": "113757002",
          "admin_level": "2",
          "name:simple": "Philippines",
          "driving_side": "right",
          "name:bat-smg": "Fėlėpinā",
          "name:cbk-zam": "Filipinas",
          "name:map-bms": "Filipina",
          "name:zh-Hans": "菲律宾",
          "name:zh-Hant": "菲律賓",
          "official_name": "Repúblika ng Pilipinas",
          "name:be-tarask": "Філіпіны",
          "population:date": "2023-04-11",
          "ISO3166-1:alpha2": "PH",
          "ISO3166-1:alpha3": "PHL",
          "default_language": "en",
          "official_name:cs": "Filipínská republika",
          "official_name:en": "Republic of the Philippines",
          "official_name:es": "República de Filipinas",
          "official_name:pt": "República das Filipinas",
          "official_name:ru": "Республика Филиппины",
          "official_name:tl": "Repúblika ng Pilipinas",
          "official_name:zh": "菲律宾共和国 / 菲律賓共和國",
          "ISO3166-1:numeric": "608",
          "official_name:zh-Hans": "菲律宾共和国",
          "official_name:zh-Hant": "菲律賓共和國"
        }
      },
      "geometry": {
        "type": "Polygon",
        "coordinates": [
          [
            [
              126,
              5.7197977939325675
            ],
            [
              126.22848893501215,
              6
            ],
            [
              126,
              6
            ],
            [
              126,
              5.7197977939325675
            ]
          ]
        ]
      }
    }
  ]
}