{
  "type": "FeatureCollection",
  "features": [
    {
      "type": "Feature",
      "properties": {
        "osm_id": -535880,
        "boundary": "administrative",
        "admin_level": 2,
        "parents": null,
        "name": "São Tomé and Príncipe",
        "local_name": "São Tomé e Príncipe",
        "name_en": "São Tomé and Príncipe",
        "all_tags": {
          "flag": "http://upload.wikimedia.org/wikipedia/commons/4/4f/Flag_of_Sao_Tome_and_Principe.svg",
          "name": "São Tomé e Príncipe",
          "name:cs": "Svatý Tomáš a Princův ostrov",
          "name:de": "São Tomé und Príncipe",
          "name:en": "São Tomé and Príncipe",
          "name:eo": "Sao-Tomeo kaj Principeo",
          "name:es": "Santo Tomé y Príncipe",
          "name:fr": "Sao Tomé-et-Principe",
          "name:fy": "Sao Tomee en Prinsipe",
          "name:gn": "Santo Tome ha Príncipe",
          "name:gr": "Ἅγιος Θωμᾶς καὶ Κοίρανος",
          "name:hr": "Sveti Toma i Princip",
          "name:io": "San-Tome e Principe",
          "name:ja": "サントメ・プリンシペ",
          "name:nl": "Sao Tomé en Principe",
          "name:pl": "Wyspy Świętego Tomasza i Książęca",
          "name:ps": "سایوتومه او پرنسیپ",
          "name:pt": "São Tomé e Príncipe",
          "name:ru": "Сан-Томе и Принсипи",
          "name:se": "São Tomé ja Príncipe",
          "name:sk": "Svätý Tomáš a Princov ostrov",
          "name:sl": "Sveti Tomaž in Princ",
          "name:sr": "Сао Томе и Принсипе",
          "name:ta": "சாவோ தொமே மற்றும் பிரின்சிப்பி",
          "name:uk": "Сан-Томе і Принсіпі",
          "name:ur": "ساؤ ٹومے و پرنسپے",
          "name:vo": "Saluda-Tomeän e Prinsipeän",
          "name:zh": "圣多美和普林西比 / 聖多美普林西比",
          "boundary": "administrative",
          "name:azb": "سائوتومه و پرنسیپ",
          "name:grc": "Ἅγιος Θωμᾶς καὶ Κοίρανος",
          "name:jbo": "san.tomes.joik.prinsipes",
          "name:smn": "São Tomé já Principe",
          "name:sms": "São Tomé da Principe",
          "name:tzl": "Sant-Tomás-es-Prinç",
          "timezone": "Africa/Sao_Tome",
          "way_area": "1.33962",
          "wikidata": "Q1039",
          "ISO3166-1": "ST",
          "wikipedia": "pt:São Tomé e Príncipe",
          "admin_level": "2",
          "alt_name:eo": "Santomeo kaj Principeo",
          "alt_name:zh": "圣普",
          "name:zh-Hans": "圣多美和普林西比",
          "name:zh-Hant": "聖多美普林西比",
          "official_name": "República Democrática de São Tomé e Príncipe",
          "ISO3166-1:alpha2": "ST",
          "ISO3166-1:alpha3": "STP",
          "default_language": "pt",
          "official_name:cs": "Demokratická republika Svatý Tomáš a Princův ostrov",
          "official_name:de": "Demokratische Republik São Tomé und Príncipe",
          "official_name:es": "República Democrática de Santo Tomé y Príncipe",
          "official_name:gn": "Tavakuairetã Jekopytyjojáva Santo Tome ha Príncipe",
          "official_name:pt": "República Democrática de São Tomé e Príncipe",
          "official_name:zh": "圣多美和普林西比民主共和国 / 聖多美普林西比民主共和國",
          "ISO3166-1:numeric": "678",
          "official_name:zh-Hans": "圣多美和普林西比民主共和国",
          "official_name:zh-Hant": "聖多美普林西比民主共和國"
        }
      },
      "geometry": {
        "type": "Polygon",
        "coordinates": [
          [
            [
              6.304525410248636,
              0
            ],
            [
              6.3182424,
              -0.0594582
            ],
            [
              6.3257834,
              -0.0823724
            ],
            [
              6.3319328,
              -0.0962743
            ],
            [
              6.3391221,
              -0.109668
            ],
            [
              6.3473097,
              -0.1224758
            ],
            [
              6.3564481,
              -0.1346235
            ],
            [
              6.3664842,
              -0.1460407
            ],
            [
              6.3831933,
              -0.161939
            ],
            [
              6.3990878,
              -0.1748992
            ],
            [
              6.4162281,
              -0.1861604
            ],
            [
              6.4344333,
              -0.1956038
            ],
            [
              6.4535112,
              -0.2031296
            ],
            [
              6.4732605,
              -0.2086585
            ],
            [
              6.4934729,
              -0.2121321
            ],
            [
              6.513935,
              -0.2135137
            ],
            [
              6.5408198,
              -0.2122333
            ],
            [
              6.5594564,
              -0.2097237
            ],
            [
              6.5777742,
              -0.2054718
            ],
            [
              6.6042987,
              -0.1959138
            ],
            [
              6.7139184,
              -0.1413515
            ],
            [
              6.7361606,
              -0.1283736
            ],
            [
              6.7466078,
              -0.1208362
            ],
            [
              6.7659372,
              -0.1038212
            ],
            [
              6.7829156,
              -0.0844596
            ],
            [
              6.839766236109075,
              0
            ],
            [
              6.304525410248636,
              0
            ]
          ]
        ]
      }
    }
  ]
}