{
  "type": "FeatureCollection",
  "features": [
    {
      "type": "Feature",
      "properties": {
        "osm_id": -382313,
        "boundary": "administrative",
        "admin_level": 2,
        "parents": null,
        "name": "Japan",
        "local_name": "日本",
        "name_en": "Japan",
        "all_tags": {
          "flag": "http://upload.wikimedia.org/wikipedia/commons/9/9e/Flag_of_Japan.svg",
          "name": "日本",
          "name:ab": "Иапониа",
          "name:af": "Japan",
          "name:am": "ጃፓን",
          "name:an": "Chapón",
          "name:ar": "اليابان",
          "name:ay": "Nihun",
          "name:az": "Yaponiya",
          "name:ba": "Япония",
          "name:be": "Японія",
          "name:bg": "Япония",
          "name:bn": "জাপান",
          "name:bo": "རི་པིན།",
          "name:br": "Japan",
          "name:bs": "Japan",
          "name:ca": "Japó",
          "name:ce": "Япони",
          "name:ch": "Chapan",
          "name:cs": "Japonsko",
          "name:cu": "Ꙗпѡнїꙗ",
          "name:cv": "Япони",
          "name:cy": "Japan",
          "name:da": "Japan",
          "name:de": "Japan",
          "name:dv": "ޖަޕާނު",
          "name:dz": "ཇཱ་པཱན།",
          "name:ee": "Japan",
          "name:el": "Ιαπωνία",
          "name:en": "Japan",
          "name:eo": "Japanio",
          "name:es": "Japón",
          "name:et": "Jaapan",
          "name:eu": "Japonia",
          "name:fa": "ژاپن",
          "name:fi": "Japani",
          "name:fo": "Japan",
          "name:fr": "Japon",
          "name:fy": "Japan",
          "name:ga": "An tSeapáin",
          "name:gd": "An t-Seapan",
          "name:gl": "Xapón",
          "name:gn": "Hapõ",
          "name:gu": "જાપાન",
          "name:gv": "Yn Çhapaan",
          "name:ha": "Japan",
          "name:he": "יפן",
          "name:hi": "जापान",
          "name:hr": "Japan",
          "name:ht": "Japon",
          "name:hu": "Japán",
          "name:hy": "Ճապոնիա",
          "name:ia": "Japon",
          "name:id": "Jepang",
          "name:ie": "Japan",
          "name:io": "Japonia",
          "name:is": "Japan",
          "name:it": "Giappone",
          "name:iu": "ᓃᑉᐊᓐ",
          "name:ja": "日本",
          "name:jv": "Jepang",
          "name:ka": "იაპონია",
          "name:ki": "Japan",
          "name:kk": "Жапония",
          "name:kl": "Japani",
          "name:km": "ជប៉ុន",
          "name:kn": "ಜಪಾನ್",
          "name:ko": "일본",
          "name:ku": "Japon",
          "name:kv": "Япония",
          "name:kw": "Nihon",
          "name:ky": "Жапония",
          "name:la": "Iaponia",
          "name:lb": "Japan",
          "name:li": "Japan",
          "name:ln": "Zapɔ́",
          "name:lo": "ປະເທດຍີ່ປຸ່ນ",
          "name:lt": "Japonija",
          "name:lv": "Japāna",
          "name:mg": "Japana",
          "name:mi": "Hapani",
          "name:mk": "Јапонија",
          "name:ml": "ജപ്പാൻ",
          "name:mn": "Япон",
          "name:mo": "Жапония",
          "name:mr": "जपान",
          "name:ms": "Jepun",
          "name:mt": "Ġappun",
          "name:my": "ဂျပန်နိုင်ငံ",
          "name:na": "Djapan",
          "name:ne": "जापान",
          "name:nl": "Japan",
          "name:nn": "Japan",
          "name:no": "Japan",
          "name:nv": "Binaʼadaałtzózí Dinéʼiʼ Bikéyah",
          "name:oc": "Japon",
          "name:om": "Jaappaan",
          "name:or": "ଜାପାନ",
          "name:os": "Япон",
          "name:pa": "ਜਪਾਨ",
          "name:pl": "Japonia",
          "name:ps": "جاپان",
          "name:pt": "Japão",
          "name:qu": "Nihun",
          "name:rm": "Giapun",
          "name:ro": "Japonia",
          "name:ru": "Япония",
          "name:rw": "Ubuyapani",
          "name:sa": "सूर्यमूल",
          "name:sc": "Giapone",
          "name:sd": "جاپان",
          "name:se": "Japána",
          "name:sh": "Japan",
          "name:si": "ජපානය",
          "name:sk": "Japonsko",
          "name:sl": "Japonska",
          "name:sm": "Iapani",
          "name:so": "Jabaan",
          "name:sq": "Japonia",
          "name:sr": "Јапан",
          "name:ss": "IJaphani",
          "name:su": "Jepang",
          "name:sv": "Japan",
          "name:sw": "Japani",
          "name:ta": "ஜப்பான்",
          "name:te": "జపాన్",
          "name:tg": "Жопун",
          "name:th": "ประเทศญี่ปุ่น",
          "name:ti": "ጃፓን",
          "name:tk": "Ýaponiýa",
          "name:tl": "Hapon",
          "name:tr": "Japonya",
          "name:tt": "Япония",
          "name:tw": "Yapan",
          "name:ty": "Tāpōnē",
          "name:ug": "ياپونىيە",
          "name:uk": "Японія",
          "name:ur": "جاپان",
          "name:uz": "Yaponiya",
          "name:vi": "Nhật Bản",
          "name:vo": "Yapän",
          "name:wo": "Sapoŋ",
          "name:yi": "יאפאן",
          "name:yo": "Japan",
          "name:za": "Nditbonj",
          "name:zh": "日本",
          "name:zu": "IJapani",
          "boundary": "administrative",
          "name:ace": "Jeupun",
          "name:als": "Japan",
          "name:ang": "Iapan",
          "name:arc": "ܝܦܢ",
          "name:arz": "اليابان",
          "name:ast": "Xapón",
          "name:bar": "Japan",
          "name:bcl": "Hapon",
          "name:bjn": "Japang",
          "name:bpy": "জাপান",
          "name:bug": "ᨍᨛᨄ",
          "name:bxr": "Япон Улас",
          "name:cdo": "Nĭk-buōng",
          "name:ceb": "Hapon",
          "name:chr": "ᏣᏆᏂᏱ",
          "name:ckb": "ژاپۆن",
          "name:crh": "Yaponiya",
          "name:csb": "Japòńskô",
          "name:din": "Japan",
          "name:diq": "Japonya",
          "name:dsb": "Japańska",
          "name:ext": "Japón",
          "name:frp": "J·apon",
          "name:frr": "Japan",
          "name:gag": "Yaponiya",
          "name:gan": "日本",
          "name:hak": "Ngi̍t-pún",
          "name:haw": "Iāpana",
          "name:hif": "Japan",
          "name:hsb": "Japanska",
          "name:ilo": "Hapón",
          "name:jbo": "gugdejupu",
          "name:kab": "Japun",
          "name:kbd": "Япон",
          "name:koi": "Ниппон",
          "name:krc": "Япония",
          "name:lez": "Япония",
          "name:lij": "Giappon",
          "name:lmo": "Giapun",
          "name:ltg": "Japoneja",
          "name:lzh": "日本",
          "name:mdf": "Япунмастор",
          "name:mhr": "Японий",
          "name:min": "Japang",
          "name:mrj": "Япони",
          "name:mwl": "Japon",
          "name:mzn": "جاپون",
          "name:nah": "Xapon",
          "name:nan": "Ji̍t-pún",
          "name:nap": "Giappone",
          "name:nds": "Japan",
          "name:new": "जापान",
          "name:nov": "Japan",
          "name:nrm": "Japon",
          "name:nso": "Japane",
          "name:pam": "Hapon",
          "name:pap": "Hapon",
          "name:pcd": "Japon",
          "name:pdc": "Japan",
          "name:pih": "Japan",
          "name:pms": "Giapon",
          "name:pnb": "جاپان",
          "name:rue": "Японія",
          "name:sah": "Дьоппуон",
          "name:scn": "Giappuni",
          "name:sco": "Japan",
          "name:smn": "Jaapaan",
          "name:sms": "Japaan",
          "name:srn": "Japan",
          "name:stq": "Japan",
          "name:szl": "Japōnijŏ",
          "name:tok": "ma Nijon",
          "name:tpi": "Siapan",
          "name:tzl": "Cipangu",
          "name:udm": "Япония",
          "name:vec": "Giapòn",
          "name:vro": "Jaapan",
          "name:war": "Hapon",
          "name:wuu": "日本",
          "name:xal": "Ниxуудин Нутг",
          "name:xmf": "იაპონია",
          "name:yue": "日本",
          "name:zea": "Japan",
          "timezone": "Asia/Tokyo",
          "way_area": "76.5268",
          "wikidata": "Q17",
          "ISO3166-1": "JP",
          "wikipedia": "ja:日本",
          "name:ja_rm": "Nippon",
          "admin_level": "2",
          "alt_name:eo": "Japanujo",
          "alt_name:vi": "Nhật",
          "name:nds-nl": "Japan",
          "old_name:vi": "Nhật Bổn",
          "driving_side": "left",
          "name:bat-smg": "Japuonėjė",
          "name:cbk-zam": "Japón",
          "name:ja_kana": "にほん",
          "name:roa-rup": "Japonia",
          "name:zh-Hans": "日本",
          "name:zh-Hant": "日本",
          "name:roa-tara": "Giappone",
          "name:be-tarask": "Японія",
          "ISO3166-1:alpha2": "JP",
          "ISO3166-1:alpha3": "JPN",
          "default_language": "ja",
          "official_name:ar": "دولة اليابان",
          "official_name:en": "State of Japan",
          "official_name:es": "Estado de Japón",
          "official_name:fr": "État du Japon",
          "official_name:ko": "일본국",
          "ISO3166-1:numeric": "392"
        }
      },
      "geometry": {
        "type": "Polygon",
        "coordinates": [
          [
            [
              140.1115731,
              29.7937743
            ],
            [
              140.1119962,
              29.7834152
            ],
            [
              140.1128771,
              29.7730847
            ],
            [
              140.114393,
              29.7627355
            ],
            [
              140.1165296,
              29.7525655
            ],
            [
              140.1191866,
              29.7429231
            ],
            [
              140.1223618,
              29.7334245
            ],
            [
              140.1260902,
              29.7240852
            ],
            [
              140.1302992,
              29.7149099
            ],
            [
              140.1350218,
              29.7058488
            ],
            [
              140.140348,
              29.6971297
            ],
            [
              140.146043,
              29.6886234
            ],
            [
              140.1521966,
              29.6803162
            ],
            [
              140.1590717,
              29.6722139
            ],
            [
              140.1662621,
              29.6642751
            ],
            [
              140.1740466,
              29.6568698
            ],
            [
              140.1822082,
              29.6496292
            ],
            [
              140.1901072,
              29.643375
            ],
            [
              140.1983423,
              29.6373392
            ],
            [
              140.2069052,
              29.6316769
            ],
            [
              140.2157303,
              29.6263668
            ],
            [
              140.2254445,
              29.6211528
            ],
            [
              140.2355234,
              29.6163267
            ],
            [
              140.2456432,
              29.611999
            ],
            [
              140.2560784,
              29.6080575
            ],
            [
              140.2657394,
              29.6049638
            ],
            [
              140.2756133,
              29.6021496
            ],
            [
              140.2854668,
              29.5997985
            ],
            [
              140.2955823,
              29.5977786
            ],
            [
              140.3069151,
              29.5960044
            ],
            [
              140.3186123,
              29.5947219
            ],
            [
              140.330166,
              29.5939025
            ],
            [
              140.3418782,
              29.5936109
            ],
            [
              140.3538677,
              29.5938847
            ],
            [
              140.3657697,
              29.5947041
            ],
            [
              140.3741073,
              29.5955947
            ],
            [
              140.3823219,
              29.5966991
            ],
            [
              140.3894188,
              29.5978857
            ],
            [
              140.4002467,
              29.6001013
            ],
            [
              140.4109401,
              29.6027552
            ],
            [
              140.4213877,
              29.6058366
            ],
            [
              140.4317485,
              29.6093764
            ],
            [
              140.4423647,
              29.613495
            ],
            [
              140.4525255,
              29.6181254
            ],
            [
              140.4575444,
              29.6205117
            ],
            [
              140.4625019,
              29.6231295
            ],
            [
              140.4721986,
              29.6285383
            ],
            [
              140.4814714,
              29.6343122
            ],
            [
              140.4902802,
              29.6404373
            ],
            [
              140.4985972,
              29.6468468
            ],
            [
              140.5065929,
              29.6536083
            ],
            [
              140.5143505,
              29.6607684
            ],
            [
              140.5217458,
              29.6682624
            ],
            [
              140.5286494,
              29.6761297
            ],
            [
              140.5388306,
              29.6892997
            ],
            [
              140.5464102,
              29.7011157
            ],
            [
              140.5513677,
              29.7098166
            ],
            [
              140.5558454,
              29.7186294
            ],
            [
              140.5595619,
              29.7273229
            ],
            [
              140.5629215,
              29.7361817
            ],
            [
              140.5657895,
              29.7451286
            ],
            [
              140.568123,
              29.7542009
            ],
            [
              140.5701733,
              29.7639981
            ],
            [
              140.5715459,
              29.773796
            ],
            [
              140.5724677,
              29.7836463
            ],
            [
              140.5727203,
              29.7937381
            ],
            [
              140.5724677,
              29.8036995
            ],
            [
              140.5715459,
              29.8134758
            ],
            [
              140.5701733,
              29.8232333
            ],
            [
              140.5682662,
              29.8328798
            ],
            [
              140.565769,
              29.8423901
            ],
            [
              140.5627986,
              29.8517895
            ],
            [
              140.5592751,
              29.8609215
            ],
            [
              140.5553263,
              29.8698689
            ],
            [
              140.5506507,
              29.8790942
            ],
            [
              140.5454679,
              29.8879395
            ],
            [
              140.5398549,
              29.8966242
            ],
            [
              140.5338277,
              29.9049655
            ],
            [
              140.527072,
              29.9131745
            ],
            [
              140.5199226,
              29.9209871
            ],
            [
              140.512261,
              29.9286214
            ],
            [
              140.5043383,
              29.9358274
            ],
            [
              140.4959956,
              29.9426636
            ],
            [
              140.4874327,
              29.9490183
            ],
            [
              140.4783576,
              29.9550531
            ],
            [
              140.4691888,
              29.9604682
            ],
            [
              140.4599208,
              29.9655067
            ],
            [
              140.4505384,
              29.9702095
            ],
            [
              140.4407464,
              29.9743975
            ],
            [
              140.4308755,
              29.9781967
            ],
            [
              140.420261,
              29.9817616
            ],
            [
              140.4094651,
              29.9847958
            ],
            [
              140.398444,
              29.9874396
            ],
            [
              140.387453,
              29.989715
            ],
            [
              140.3761968,
              29.9913608
            ],
            [
              140.3649503,
              29.9925672
            ],
            [
              140.3535399,
              29.9932592
            ],
            [
              140.3421403,
              29.993592
            ],
            [
              140.3303299,
              29.9932592
            ],
            [
              140.3185918,
              29.9924785
            ],
            [
              140.307038,
              29.9911833
            ],
            [
              140.2958076,
              29.9893781
            ],
            [
              140.2847703,
              29.9871912
            ],
            [
              140.274036,
              29.9846007
            ],
            [
              140.2635064,
              29.9815665
            ],
            [
              140.2533163,
              29.97803
            ],
            [
              140.2424679,
              29.9738297
            ],
            [
              140.2319384,
              29.9692157
            ],
            [
              140.2216547,
              29.9640514
            ],
            [
              140.2117581,
              29.9584639
            ],
            [
              140.2024599,
              29.9526924
            ],
            [
              140.1937536,
              29.946551
            ],
            [
              140.1853136,
              29.9401429
            ],
            [
              140.1773381,
              29.9334946
            ],
            [
              140.1693349,
              29.9259228
            ],
            [
              140.1618373,
              29.918164
            ],
            [
              140.1547083,
              29.9101204
            ],
            [
              140.1483478,
              29.9017708
            ],
            [
              140.1421917,
              29.8932321
            ],
            [
              140.1368041,
              29.8844583
            ],
            [
              140.1317851,
              29.8754173
            ],
            [
              140.1273727,
              29.8662669
            ],
            [
              140.1236114,
              29.8573328
            ],
            [
              140.1204362,
              29.8482893
            ],
            [
              140.1177321,
              29.8391206
            ],
            [
              140.1155062,
              29.8299313
            ],
            [
              140.1137784,
              29.8209762
            ],
            [
              140.1126313,
              29.8120005
            ],
            [
              140.1118938,
              29.8029885
            ],
            [
              140.1115731,
              29.7937743
            ]
          ]
        ]
      }
    }
  ]
}